{"type":"FeatureCollection","features":[{"type":"Feature","properties":{"code":"52111650","name":"동서학동","parent":"52111"},"geometry":{"type":"MultiPolygon","coordinates":[[[[127.21728,35.80164],[127.21741,35.80111],[127.21741,35.80105],[127.21735,35.80092],[127.21574,35.79854],[127.21227,35.79433],[127.21212,35.79416],[127.21202,35.79404],[127.21194,35.79397],[127.21184,35.79392],[127.21167,35.79384],[127.211,35.79359],[127.20984,35.79302],[127.20868,35.79228],[127.20795,35.79165],[127.20679,35.79054],[127.20662,35.79037],[127.20602,35.78968],[127.19969,35.78603],[127.19974,35.78592],[127.19979,35.78558],[127.20011,35.78127],[127.20013,35.78089],[127.20012,35.77879],[127.20011,35.77865],[127.20009,35.77847],[127.20006,35.77831],[127.1994,35.77607],[127.19918,35.77588],[127.19875,35.77569],[127.19541,35.77429],[127.19524,35.77424],[127.19507,35.77423],[127.19496,35.77428],[127.19452,35.77455],[127.19376,35.77524],[127.19332,35.77573],[127.19228,35.77648],[127.18778,35.779],[127.1877,35.77904],[127.18751,35.7791],[127.18714,35.7792],[127.18684,35.77926],[127.18679,35.77926],[127.18544,35.77915],[127.18236,35.77689],[127.18203,35.77664],[127.18177,35.77643],[127.18157,35.77624],[127.17995,35.77427],[127.17959,35.77377],[127.17885,35.77261],[127.17834,35.77267],[127.1782,35.77274],[127.17552,35.77464],[127.17539,35.7748],[127.17529,35.77497],[127.17517,35.77517],[127.17509,35.77535],[127.17505,35.77548],[127.1746,35.77663],[127.17401,35.7781],[127.17392,35.77831],[127.17384,35.77843],[127.17374,35.77853],[127.17363,35.77863],[127.17356,35.77869],[127.17352,35.77873],[127.17341,35.77882],[127.17337,35.77886],[127.17326,35.77894],[127.17305,35.77909],[127.1729,35.77917],[127.17158,35.7797],[127.16675,35.78141],[127.16535,35.78178],[127.1652,35.78181],[127.16451,35.78191],[127.16426,35.78192],[127.16406,35.78191],[127.16365,35.78188],[127.16242,35.78394],[127.16383,35.78609],[127.16247,35.79126],[127.16165,35.7925],[127.15808,35.79391],[127.15605,35.79455],[127.15451,35.79584],[127.15276,35.79906],[127.15149,35.80293],[127.15135,35.8034],[127.1516,35.80416],[127.15183,35.80773],[127.15171,35.80967],[127.15223,35.81022],[127.15319,35.81067],[127.15878,35.81138],[127.15986,35.81148],[127.16084,35.81157],[127.16089,35.81155],[127.16116,35.81147],[127.16141,35.81138],[127.16153,35.81128],[127.16204,35.81065],[127.16225,35.81029],[127.16251,35.80987],[127.16308,35.80814],[127.16337,35.80713],[127.16395,35.80698],[127.16447,35.80687],[127.1648,35.80684],[127.16544,35.80689],[127.16597,35.80704],[127.16868,35.80923],[127.16946,35.8099],[127.17211,35.81174],[127.17383,35.81091],[127.17393,35.80967],[127.17564,35.80809],[127.17588,35.80793],[127.17686,35.80733],[127.18028,35.80528],[127.1821,35.80507],[127.18786,35.80591],[127.18854,35.80626],[127.18873,35.80638],[127.18856,35.80671],[127.18853,35.80741],[127.18861,35.80759],[127.19153,35.81001],[127.19787,35.81104],[127.19994,35.81074],[127.20345,35.80944],[127.20378,35.80929],[127.20404,35.80897],[127.20446,35.80802],[127.20713,35.80563],[127.20758,35.80544],[127.20953,35.80501],[127.21125,35.805],[127.21337,35.80484],[127.21367,35.80472],[127.21388,35.80422],[127.21402,35.80361],[127.21434,35.80336],[127.21686,35.80181],[127.21728,35.80164]]]]}},{"type":"Feature","properties":{"code":"52111660","name":"서서학동","parent":"52111"},"geometry":{"type":"MultiPolygon","coordinates":[[[[127.15319,35.81067],[127.15223,35.81022],[127.15171,35.80967],[127.15183,35.80773],[127.1516,35.80416],[127.15135,35.8034],[127.15149,35.80293],[127.15276,35.79906],[127.15451,35.79584],[127.15605,35.79455],[127.15808,35.79391],[127.16165,35.7925],[127.16247,35.79126],[127.16383,35.78609],[127.16242,35.78394],[127.16107,35.78245],[127.16056,35.78189],[127.1604,35.78175],[127.16033,35.7817],[127.15426,35.7788],[127.15342,35.77857],[127.15194,35.78141],[127.15145,35.78477],[127.14872,35.78942],[127.14695,35.79243],[127.1456,35.79472],[127.14622,35.7964],[127.14639,35.79685],[127.14505,35.79885],[127.14388,35.80038],[127.14319,35.80127],[127.1422,35.80232],[127.14141,35.80252],[127.1413,35.80254],[127.14431,35.80284],[127.14497,35.80351],[127.14887,35.80857],[127.14895,35.81109],[127.15079,35.8105],[127.15319,35.81067]]]]}},{"type":"Feature","properties":{"code":"52111671","name":"중화산1동","parent":"52111"},"geometry":{"type":"MultiPolygon","coordinates":[[[[127.1385,35.81374],[127.13786,35.81249],[127.13771,35.81229],[127.13767,35.81226],[127.13755,35.81217],[127.13625,35.81194],[127.13451,35.81157],[127.13292,35.81114],[127.13207,35.81084],[127.12982,35.80861],[127.12589,35.80797],[127.12347,35.80935],[127.12306,35.81205],[127.12304,35.81268],[127.12295,35.81572],[127.12293,35.8165],[127.123,35.81651],[127.12371,35.81652],[127.12491,35.81653],[127.12499,35.81654],[127.12694,35.81736],[127.12768,35.8177],[127.12861,35.81813],[127.12885,35.81846],[127.12912,35.81891],[127.12942,35.81944],[127.13063,35.8194],[127.131,35.81937],[127.13132,35.8192],[127.13181,35.81844],[127.13191,35.81829],[127.13231,35.81784],[127.13296,35.81762],[127.13335,35.81763],[127.13364,35.81765],[127.13412,35.81773],[127.13452,35.81797],[127.13535,35.81908],[127.13537,35.82035],[127.13787,35.81781],[127.1385,35.81374]]]]}},{"type":"Feature","properties":{"code":"52111672","name":"중화산2동","parent":"52111"},"geometry":{"type":"MultiPolygon","coordinates":[[[[127.12665,35.82523],[127.12742,35.82407],[127.12756,35.82382],[127.12778,35.8231],[127.12777,35.82302],[127.12777,35.82298],[127.12738,35.82178],[127.12722,35.82154],[127.12711,35.8212],[127.12712,35.82081],[127.12738,35.82052],[127.12934,35.81947],[127.12942,35.81944],[127.12912,35.81891],[127.12885,35.81846],[127.12861,35.81813],[127.12768,35.8177],[127.12694,35.81736],[127.12499,35.81654],[127.12491,35.81653],[127.12371,35.81652],[127.123,35.81651],[127.12293,35.8165],[127.12295,35.81572],[127.12304,35.81268],[127.12306,35.81205],[127.12014,35.8124],[127.11831,35.81263],[127.11801,35.81267],[127.11681,35.81325],[127.11676,35.81329],[127.11667,35.81344],[127.11324,35.81545],[127.11333,35.81583],[127.11342,35.81624],[127.11349,35.81661],[127.11375,35.81981],[127.11378,35.82051],[127.11386,35.82202],[127.1139,35.82289],[127.11391,35.82325],[127.11391,35.8235],[127.1138,35.82446],[127.11365,35.82532],[127.12665,35.82523]]]]}},{"type":"Feature","properties":{"code":"52111691","name":"평화1동","parent":"52111"},"geometry":{"type":"MultiPolygon","coordinates":[[[[127.15194,35.78141],[127.15033,35.78196],[127.15009,35.78205],[127.14934,35.78232],[127.14737,35.78452],[127.14552,35.78655],[127.14085,35.79105],[127.13875,35.79137],[127.13752,35.79157],[127.13665,35.79174],[127.13624,35.79182],[127.13637,35.79242],[127.13644,35.79445],[127.13646,35.79702],[127.1355,35.79976],[127.1376,35.80078],[127.14098,35.80208],[127.1413,35.80254],[127.14141,35.80252],[127.1422,35.80232],[127.14319,35.80127],[127.14388,35.80038],[127.14505,35.79885],[127.14639,35.79685],[127.14622,35.7964],[127.1456,35.79472],[127.14695,35.79243],[127.14872,35.78942],[127.15145,35.78477],[127.15194,35.78141]]]]}},{"type":"Feature","properties":{"code":"52111692","name":"평화2동","parent":"52111"},"geometry":{"type":"MultiPolygon","coordinates":[[[[127.15194,35.78141],[127.15342,35.77857],[127.15337,35.77736],[127.15336,35.77706],[127.15327,35.77688],[127.15113,35.77497],[127.15088,35.7748],[127.1506,35.77467],[127.15008,35.77451],[127.14978,35.77438],[127.14954,35.77424],[127.14893,35.77318],[127.14885,35.77015],[127.14969,35.76879],[127.1479,35.76547],[127.14763,35.76537],[127.14739,35.76526],[127.14724,35.76516],[127.14636,35.76392],[127.14622,35.76371],[127.14571,35.76161],[127.14571,35.76146],[127.14585,35.76125],[127.14627,35.7606],[127.14637,35.76037],[127.14651,35.75953],[127.1463,35.7595],[127.14372,35.76008],[127.14205,35.7606],[127.14175,35.76069],[127.13989,35.76113],[127.13948,35.76119],[127.13915,35.76121],[127.13748,35.76111],[127.13718,35.76108],[127.13681,35.76103],[127.13666,35.76097],[127.13548,35.75976],[127.13412,35.75838],[127.13396,35.75825],[127.13054,35.75589],[127.13035,35.75578],[127.13007,35.75563],[127.12985,35.75555],[127.12967,35.75551],[127.12553,35.7551],[127.12401,35.75223],[127.12182,35.75154],[127.12081,35.75167],[127.12049,35.75172],[127.12085,35.75224],[127.12144,35.75307],[127.11882,35.75313],[127.11836,35.7531],[127.11771,35.75108],[127.11686,35.74976],[127.1167,35.74958],[127.11587,35.74943],[127.11092,35.75059],[127.10651,35.7519],[127.10518,35.75222],[127.10356,35.75246],[127.10317,35.7525],[127.10289,35.75245],[127.10251,35.75226],[127.10206,35.75187],[127.10169,35.75191],[127.10115,35.75198],[127.10092,35.7521],[127.10067,35.75247],[127.10019,35.75388],[127.10004,35.75446],[127.09976,35.75566],[127.09972,35.75591],[127.09974,35.75631],[127.09981,35.75661],[127.10004,35.75703],[127.10012,35.7571],[127.10018,35.75715],[127.10031,35.75724],[127.10051,35.75739],[127.10083,35.75774],[127.10105,35.758],[127.10119,35.75821],[127.10121,35.75826],[127.10132,35.75851],[127.10166,35.75951],[127.10169,35.75962],[127.10175,35.76034],[127.1016,35.76206],[127.10301,35.76747],[127.10536,35.76804],[127.10734,35.76977],[127.10669,35.77061],[127.11098,35.77277],[127.1089,35.77552],[127.1085,35.77605],[127.11183,35.77773],[127.11245,35.77804],[127.1128,35.77929],[127.11032,35.78246],[127.11024,35.78257],[127.11018,35.78265],[127.11003,35.7834],[127.1096,35.78587],[127.10996,35.78644],[127.1105,35.78725],[127.11136,35.78827],[127.11159,35.7885],[127.11171,35.78849],[127.11218,35.78815],[127.11439,35.78816],[127.11576,35.7901],[127.11687,35.79045],[127.11707,35.79041],[127.11791,35.79043],[127.11896,35.79126],[127.12331,35.79343],[127.1243,35.79367],[127.12433,35.79368],[127.12534,35.79389],[127.12851,35.79458],[127.12987,35.79487],[127.13083,35.79508],[127.13223,35.79538],[127.13244,35.79578],[127.13116,35.79703],[127.13036,35.79779],[127.1355,35.79976],[127.13646,35.79702],[127.13644,35.79445],[127.13637,35.79242],[127.13624,35.79182],[127.13665,35.79174],[127.13752,35.79157],[127.13875,35.79137],[127.14085,35.79105],[127.14552,35.78655],[127.14737,35.78452],[127.14934,35.78232],[127.15009,35.78205],[127.15033,35.78196],[127.15194,35.78141]]]]}},{"type":"Feature","properties":{"code":"52111680","name":"서신동","parent":"52111"},"geometry":{"type":"MultiPolygon","coordinates":[[[[127.12388,35.83477],[127.12636,35.83288],[127.12684,35.83226],[127.12696,35.83209],[127.12709,35.8319],[127.12861,35.82952],[127.12861,35.82939],[127.12861,35.82933],[127.1286,35.82928],[127.12859,35.82914],[127.12854,35.8289],[127.12829,35.828],[127.12809,35.82766],[127.12803,35.82757],[127.128,35.82752],[127.12792,35.82748],[127.12756,35.82738],[127.12747,35.82736],[127.1274,35.82732],[127.12735,35.82729],[127.12731,35.82724],[127.12722,35.82711],[127.12709,35.82686],[127.12705,35.82676],[127.12664,35.82571],[127.1266,35.8256],[127.12657,35.82546],[127.12657,35.82539],[127.12665,35.82523],[127.11365,35.82532],[127.11277,35.82585],[127.11275,35.82588],[127.11157,35.82807],[127.11156,35.82828],[127.11146,35.82932],[127.111,35.82993],[127.1101,35.83058],[127.10866,35.83101],[127.10686,35.8316],[127.10658,35.83183],[127.10535,35.83285],[127.1054,35.83315],[127.10591,35.83593],[127.10592,35.83598],[127.10593,35.83604],[127.10594,35.83764],[127.10594,35.83777],[127.10478,35.84002],[127.10474,35.8401],[127.10347,35.84239],[127.1045,35.84362],[127.105,35.84486],[127.10507,35.84325],[127.10555,35.84223],[127.11154,35.83846],[127.11203,35.83813],[127.11655,35.83818],[127.11757,35.83823],[127.11768,35.83823],[127.11938,35.83744],[127.11944,35.8374],[127.12248,35.8354],[127.12349,35.83494],[127.12388,35.83477]]]]}},{"type":"Feature","properties":{"code":"52111701","name":"삼천1동","parent":"52111"},"geometry":{"type":"MultiPolygon","coordinates":[[[[127.1376,35.80078],[127.1355,35.79976],[127.13036,35.79779],[127.12964,35.79851],[127.12886,35.79928],[127.12817,35.79879],[127.12728,35.79817],[127.12685,35.79787],[127.12647,35.79761],[127.126,35.79728],[127.12577,35.79713],[127.12571,35.79708],[127.12537,35.79701],[127.12531,35.797],[127.12495,35.79713],[127.12451,35.79736],[127.12375,35.79775],[127.1232,35.79803],[127.12277,35.79825],[127.12221,35.79854],[127.12168,35.79864],[127.11685,35.79862],[127.11688,35.80225],[127.11726,35.80225],[127.11969,35.80228],[127.12033,35.80228],[127.12102,35.80228],[127.12233,35.80229],[127.12427,35.80223],[127.1253,35.8026],[127.12619,35.80191],[127.12826,35.80197],[127.12899,35.80205],[127.12945,35.80215],[127.12991,35.80231],[127.13096,35.80265],[127.1313,35.80276],[127.1319,35.80295],[127.13197,35.80284],[127.13219,35.80247],[127.13238,35.80217],[127.13333,35.80066],[127.1376,35.80078]]]]}},{"type":"Feature","properties":{"code":"52111702","name":"삼천2동","parent":"52111"},"geometry":{"type":"MultiPolygon","coordinates":[[[[127.13036,35.79779],[127.13116,35.79703],[127.13244,35.79578],[127.13223,35.79538],[127.13083,35.79508],[127.12987,35.79487],[127.12851,35.79458],[127.12534,35.79389],[127.12433,35.79368],[127.1243,35.79367],[127.12331,35.79343],[127.11896,35.79126],[127.11791,35.79043],[127.11707,35.79041],[127.11687,35.79045],[127.11685,35.79862],[127.12168,35.79864],[127.12221,35.79854],[127.12277,35.79825],[127.1232,35.79803],[127.12375,35.79775],[127.12451,35.79736],[127.12495,35.79713],[127.12531,35.797],[127.12537,35.79701],[127.12571,35.79708],[127.12577,35.79713],[127.126,35.79728],[127.12647,35.79761],[127.12685,35.79787],[127.12728,35.79817],[127.12817,35.79879],[127.12886,35.79928],[127.12964,35.79851],[127.13036,35.79779]]]]}},{"type":"Feature","properties":{"code":"52111703","name":"삼천3동","parent":"52111"},"geometry":{"type":"MultiPolygon","coordinates":[[[[127.11001,35.80128],[127.11399,35.80133],[127.11405,35.80131],[127.11407,35.80128],[127.11407,35.80125],[127.11402,35.80117],[127.114,35.80112],[127.11399,35.79964],[127.11398,35.79872],[127.11685,35.79862],[127.11687,35.79045],[127.11576,35.7901],[127.11439,35.78816],[127.11218,35.78815],[127.11171,35.78849],[127.11159,35.7885],[127.11136,35.78827],[127.1105,35.78725],[127.10996,35.78644],[127.1096,35.78587],[127.11003,35.7834],[127.11018,35.78265],[127.11024,35.78257],[127.11032,35.78246],[127.1128,35.77929],[127.11245,35.77804],[127.11183,35.77773],[127.1085,35.77605],[127.1089,35.77552],[127.11098,35.77277],[127.10669,35.77061],[127.10734,35.76977],[127.10536,35.76804],[127.10301,35.76747],[127.1016,35.76206],[127.10175,35.76034],[127.10169,35.75962],[127.10166,35.75951],[127.10132,35.75851],[127.10121,35.75826],[127.10119,35.75821],[127.10105,35.758],[127.10083,35.75774],[127.10051,35.75739],[127.10031,35.75724],[127.10018,35.75715],[127.10012,35.7571],[127.10004,35.75703],[127.09981,35.75661],[127.09974,35.75631],[127.09972,35.75591],[127.09976,35.75566],[127.10004,35.75446],[127.10019,35.75388],[127.10067,35.75247],[127.10092,35.7521],[127.10115,35.75198],[127.10169,35.75191],[127.10206,35.75187],[127.10118,35.75126],[127.09621,35.74535],[127.09567,35.74356],[127.09601,35.74241],[127.096,35.7401],[127.09586,35.73895],[127.09542,35.73732],[127.09507,35.73697],[127.09478,35.73673],[127.09449,35.73649],[127.09337,35.73673],[127.09244,35.73657],[127.09147,35.73625],[127.08971,35.73455],[127.08727,35.73201],[127.08581,35.73034],[127.08513,35.7285],[127.08518,35.72843],[127.08507,35.7284],[127.08482,35.72843],[127.08385,35.72869],[127.08365,35.72875],[127.08172,35.72964],[127.08154,35.73017],[127.08162,35.73123],[127.08151,35.73213],[127.08107,35.73359],[127.07977,35.73512],[127.07839,35.73663],[127.07749,35.73719],[127.07355,35.73954],[127.0718,35.73968],[127.07094,35.74065],[127.07092,35.74071],[127.07051,35.74223],[127.07078,35.74303],[127.07087,35.74418],[127.07059,35.74678],[127.07019,35.74756],[127.06967,35.74821],[127.06812,35.74899],[127.06621,35.74928],[127.0648,35.7504],[127.06261,35.75298],[127.06185,35.75396],[127.0613,35.7554],[127.06036,35.7577],[127.05955,35.75842],[127.05854,35.75826],[127.05641,35.75826],[127.05292,35.75868],[127.05147,35.75966],[127.052,35.75964],[127.05295,35.76065],[127.05367,35.76283],[127.05369,35.76288],[127.05438,35.76343],[127.05526,35.76395],[127.058,35.76482],[127.05939,35.76497],[127.06027,35.76493],[127.06121,35.76523],[127.06427,35.76675],[127.065,35.76757],[127.06485,35.7682],[127.06672,35.77039],[127.0703,35.77282],[127.07131,35.77316],[127.07289,35.77314],[127.07297,35.77319],[127.07368,35.7736],[127.07435,35.7749],[127.07435,35.77519],[127.07138,35.78173],[127.07117,35.78214],[127.07085,35.78246],[127.06821,35.7849],[127.06773,35.78531],[127.06715,35.78567],[127.06681,35.78582],[127.0659,35.78592],[127.06486,35.78616],[127.06477,35.78638],[127.06442,35.78837],[127.06535,35.789],[127.06602,35.78969],[127.06607,35.78997],[127.06594,35.79064],[127.06591,35.79076],[127.06567,35.79141],[127.06462,35.7952],[127.06463,35.79715],[127.06518,35.80216],[127.06524,35.80255],[127.06555,35.80298],[127.06559,35.803],[127.06585,35.80315],[127.06601,35.80323],[127.06613,35.80329],[127.06657,35.80349],[127.06689,35.80364],[127.0671,35.8037],[127.06746,35.80379],[127.06877,35.80317],[127.07492,35.8031],[127.07777,35.8038],[127.07901,35.80424],[127.08202,35.80544],[127.08442,35.80867],[127.08446,35.80866],[127.08712,35.80788],[127.08719,35.80729],[127.08727,35.80657],[127.08674,35.80519],[127.08554,35.80321],[127.08805,35.80079],[127.09084,35.79828],[127.09361,35.79597],[127.09561,35.79477],[127.09625,35.79471],[127.09876,35.79514],[127.10575,35.79651],[127.10645,35.79665],[127.10728,35.79694],[127.10761,35.79707],[127.10778,35.79716],[127.108,35.79735],[127.10814,35.79748],[127.10828,35.79769],[127.10963,35.79996],[127.11001,35.80128]]]]}},{"type":"Feature","properties":{"code":"52111711","name":"효자1동","parent":"52111"},"geometry":{"type":"MultiPolygon","coordinates":[[[[127.12982,35.80861],[127.13046,35.80798],[127.13206,35.80655],[127.13404,35.80662],[127.13752,35.80755],[127.13844,35.80804],[127.14095,35.80865],[127.14039,35.80546],[127.14079,35.80248],[127.14098,35.80208],[127.1376,35.80078],[127.13333,35.80066],[127.13238,35.80217],[127.13219,35.80247],[127.13197,35.80284],[127.1319,35.80295],[127.1313,35.80276],[127.13096,35.80265],[127.12991,35.80231],[127.12945,35.80215],[127.12899,35.80205],[127.12826,35.80197],[127.12619,35.80191],[127.1253,35.8026],[127.12387,35.80392],[127.12386,35.80395],[127.12358,35.80473],[127.12344,35.80514],[127.12343,35.80532],[127.12342,35.80587],[127.12345,35.80846],[127.12345,35.8088],[127.12347,35.80932],[127.12347,35.80935],[127.12589,35.80797],[127.12982,35.80861]]]]}},{"type":"Feature","properties":{"code":"52111712","name":"효자2동","parent":"52111"},"geometry":{"type":"MultiPolygon","coordinates":[[[[127.12306,35.81205],[127.12347,35.80935],[127.12347,35.80932],[127.12345,35.8088],[127.12345,35.80846],[127.12342,35.80587],[127.12343,35.80532],[127.12344,35.80514],[127.12358,35.80473],[127.12386,35.80395],[127.12387,35.80392],[127.1253,35.8026],[127.12427,35.80223],[127.12233,35.80229],[127.12102,35.80228],[127.12033,35.80228],[127.11969,35.80228],[127.11726,35.80225],[127.11688,35.80225],[127.11688,35.80228],[127.11689,35.80409],[127.11687,35.80496],[127.11682,35.80665],[127.11682,35.80668],[127.11656,35.80719],[127.11643,35.80747],[127.1139,35.81258],[127.11338,35.8134],[127.11263,35.81365],[127.11324,35.81545],[127.11667,35.81344],[127.11676,35.81329],[127.11681,35.81325],[127.11801,35.81267],[127.11831,35.81263],[127.12014,35.8124],[127.12306,35.81205]]]]}},{"type":"Feature","properties":{"code":"52111713","name":"효자3동","parent":"52111"},"geometry":{"type":"MultiPolygon","coordinates":[[[[127.11688,35.80225],[127.11685,35.79862],[127.11398,35.79872],[127.11399,35.79964],[127.114,35.80112],[127.11402,35.80117],[127.11407,35.80125],[127.11407,35.80128],[127.11405,35.80131],[127.11399,35.80133],[127.11001,35.80128],[127.11081,35.80199],[127.11088,35.80225],[127.11104,35.80286],[127.11091,35.80368],[127.10985,35.80478],[127.10981,35.80482],[127.10928,35.80578],[127.10918,35.80677],[127.11199,35.81363],[127.11263,35.81365],[127.11338,35.8134],[127.1139,35.81258],[127.11643,35.80747],[127.11656,35.80719],[127.11682,35.80668],[127.11682,35.80665],[127.11687,35.80496],[127.11689,35.80409],[127.11688,35.80228],[127.11688,35.80225]]]]}},{"type":"Feature","properties":{"code":"52111714","name":"효자4동","parent":"52111"},"geometry":{"type":"MultiPolygon","coordinates":[[[[127.08196,35.82296],[127.08374,35.82205],[127.08448,35.82174],[127.08524,35.82159],[127.08631,35.82138],[127.08742,35.8209],[127.09241,35.81836],[127.09317,35.81814],[127.09445,35.81811],[127.09469,35.81808],[127.09473,35.81499],[127.09471,35.81443],[127.0944,35.81363],[127.11199,35.81363],[127.10918,35.80677],[127.10928,35.80578],[127.10981,35.80482],[127.10985,35.80478],[127.11091,35.80368],[127.11104,35.80286],[127.11088,35.80225],[127.11081,35.80199],[127.11001,35.80128],[127.10963,35.79996],[127.10828,35.79769],[127.10814,35.79748],[127.108,35.79735],[127.10778,35.79716],[127.10761,35.79707],[127.10728,35.79694],[127.10645,35.79665],[127.10575,35.79651],[127.09876,35.79514],[127.09625,35.79471],[127.09561,35.79477],[127.09361,35.79597],[127.09084,35.79828],[127.08805,35.80079],[127.08554,35.80321],[127.08674,35.80519],[127.08727,35.80657],[127.08719,35.80729],[127.08712,35.80788],[127.08446,35.80866],[127.08442,35.80867],[127.08202,35.80544],[127.07901,35.80424],[127.07777,35.8038],[127.07492,35.8031],[127.06877,35.80317],[127.06746,35.80379],[127.06764,35.8045],[127.06779,35.81161],[127.06763,35.81424],[127.06639,35.81709],[127.06581,35.8181],[127.0656,35.81845],[127.06553,35.81853],[127.06329,35.8207],[127.06167,35.82028],[127.06074,35.82076],[127.05884,35.82176],[127.05681,35.82304],[127.0563,35.82516],[127.05625,35.82523],[127.05624,35.82526],[127.05817,35.82542],[127.06512,35.82489],[127.06685,35.82488],[127.07037,35.82505],[127.0719,35.82524],[127.07436,35.82512],[127.07992,35.82397],[127.08196,35.82296]]]]}},{"type":"Feature","properties":{"code":"52111510","name":"중앙동","parent":"52111"},"geometry":{"type":"MultiPolygon","coordinates":[[[[127.14566,35.82169],[127.14584,35.82133],[127.14657,35.81943],[127.14665,35.81441],[127.14642,35.81384],[127.14621,35.81354],[127.14585,35.81367],[127.1448,35.81405],[127.14455,35.81418],[127.14432,35.81432],[127.14425,35.8144],[127.14423,35.81444],[127.1442,35.81448],[127.14401,35.81445],[127.14368,35.8144],[127.14329,35.81429],[127.14323,35.81426],[127.14257,35.81389],[127.14226,35.81368],[127.14317,35.81283],[127.14134,35.81272],[127.1385,35.81374],[127.13787,35.81781],[127.13537,35.82035],[127.13566,35.82073],[127.13548,35.82089],[127.13441,35.82181],[127.1337,35.82242],[127.13342,35.82266],[127.13328,35.82277],[127.13287,35.82312],[127.13216,35.82395],[127.13237,35.82451],[127.13314,35.82515],[127.13669,35.82676],[127.13753,35.82711],[127.1377,35.82718],[127.13787,35.82723],[127.14136,35.82783],[127.14409,35.823],[127.14566,35.82169]]]]}},{"type":"Feature","properties":{"code":"52111530","name":"풍남동","parent":"52111"},"geometry":{"type":"MultiPolygon","coordinates":[[[[127.16932,35.81756],[127.1694,35.81645],[127.1695,35.81613],[127.16981,35.81528],[127.16992,35.81502],[127.17006,35.81478],[127.17049,35.81414],[127.17073,35.8139],[127.17094,35.81371],[127.17115,35.8135],[127.17133,35.8133],[127.17164,35.81279],[127.172,35.81208],[127.17211,35.81174],[127.16946,35.8099],[127.16868,35.80923],[127.16597,35.80704],[127.16544,35.80689],[127.1648,35.80684],[127.16447,35.80687],[127.16395,35.80698],[127.16337,35.80713],[127.16308,35.80814],[127.16251,35.80987],[127.16225,35.81029],[127.16204,35.81065],[127.16153,35.81128],[127.16141,35.81138],[127.16116,35.81147],[127.16089,35.81155],[127.16084,35.81157],[127.15986,35.81148],[127.15878,35.81138],[127.15319,35.81067],[127.15079,35.8105],[127.14895,35.81109],[127.14317,35.81283],[127.14226,35.81368],[127.14257,35.81389],[127.14323,35.81426],[127.14329,35.81429],[127.14368,35.8144],[127.14401,35.81445],[127.1442,35.81448],[127.14423,35.81444],[127.14425,35.8144],[127.14432,35.81432],[127.14455,35.81418],[127.1448,35.81405],[127.14585,35.81367],[127.14621,35.81354],[127.14642,35.81384],[127.14665,35.81441],[127.14657,35.81943],[127.14584,35.82133],[127.14566,35.82169],[127.14739,35.82224],[127.14924,35.82275],[127.14936,35.82275],[127.15122,35.82134],[127.15219,35.82138],[127.15293,35.82078],[127.15318,35.81941],[127.15358,35.81765],[127.15602,35.81673],[127.16183,35.81689],[127.162,35.81701],[127.1621,35.81708],[127.16277,35.81729],[127.16315,35.81741],[127.16582,35.81817],[127.16932,35.81756]]]]}},{"type":"Feature","properties":{"code":"52111605","name":"노송동","parent":"52111"},"geometry":{"type":"MultiPolygon","coordinates":[[[[127.15154,35.82968],[127.1541,35.8296],[127.1541,35.82956],[127.15408,35.82918],[127.15412,35.82884],[127.15434,35.82866],[127.15495,35.82845],[127.15535,35.82837],[127.15554,35.82839],[127.15589,35.82848],[127.15609,35.82867],[127.15819,35.82805],[127.16088,35.82569],[127.16298,35.82367],[127.16535,35.82126],[127.16602,35.82037],[127.16629,35.82008],[127.16811,35.8187],[127.16835,35.81854],[127.16898,35.81843],[127.16963,35.81842],[127.16978,35.81845],[127.16932,35.81756],[127.16582,35.81817],[127.16315,35.81741],[127.16277,35.81729],[127.1621,35.81708],[127.162,35.81701],[127.16183,35.81689],[127.15602,35.81673],[127.15358,35.81765],[127.15318,35.81941],[127.15293,35.82078],[127.15219,35.82138],[127.15122,35.82134],[127.14936,35.82275],[127.14924,35.82275],[127.14739,35.82224],[127.14566,35.82169],[127.14409,35.823],[127.14136,35.82783],[127.1421,35.82803],[127.14306,35.82827],[127.14341,35.82836],[127.14503,35.82874],[127.14552,35.82882],[127.14568,35.82884],[127.14575,35.82885],[127.14607,35.82893],[127.14614,35.82905],[127.14622,35.82925],[127.14637,35.83018],[127.14639,35.8303],[127.14643,35.83056],[127.14645,35.83067],[127.1478,35.83021],[127.15154,35.82968]]]]}},{"type":"Feature","properties":{"code":"52111635","name":"완산동","parent":"52111"},"geometry":{"type":"MultiPolygon","coordinates":[[[[127.14317,35.81283],[127.14895,35.81109],[127.14887,35.80857],[127.14497,35.80351],[127.14431,35.80284],[127.1413,35.80254],[127.14098,35.80208],[127.14079,35.80248],[127.14039,35.80546],[127.14095,35.80865],[127.13844,35.80804],[127.13752,35.80755],[127.13404,35.80662],[127.13206,35.80655],[127.13046,35.80798],[127.12982,35.80861],[127.13207,35.81084],[127.13292,35.81114],[127.13451,35.81157],[127.13625,35.81194],[127.13755,35.81217],[127.13767,35.81226],[127.13771,35.81229],[127.13786,35.81249],[127.1385,35.81374],[127.14134,35.81272],[127.14317,35.81283]]]]}},{"type":"Feature","properties":{"code":"52111730","name":"효자5동","parent":"52111"},"geometry":{"type":"MultiPolygon","coordinates":[[[[127.08727,35.84003],[127.09023,35.83813],[127.09093,35.8379],[127.09112,35.83785],[127.09126,35.83785],[127.09169,35.83796],[127.09296,35.83837],[127.10085,35.8391],[127.10285,35.83891],[127.10364,35.8399],[127.10391,35.84002],[127.10396,35.84004],[127.10447,35.8401],[127.10474,35.8401],[127.10478,35.84002],[127.10594,35.83777],[127.10594,35.83764],[127.10593,35.83604],[127.10592,35.83598],[127.10591,35.83593],[127.1054,35.83315],[127.10535,35.83285],[127.10658,35.83183],[127.10686,35.8316],[127.10866,35.83101],[127.1101,35.83058],[127.111,35.82993],[127.11146,35.82932],[127.11156,35.82828],[127.11157,35.82807],[127.11277,35.82585],[127.11365,35.82532],[127.1138,35.82446],[127.11391,35.8235],[127.11391,35.82325],[127.1139,35.82289],[127.11386,35.82202],[127.11378,35.82051],[127.11375,35.81981],[127.11349,35.81661],[127.11342,35.81624],[127.11333,35.81583],[127.11324,35.81545],[127.11263,35.81365],[127.11199,35.81363],[127.0944,35.81363],[127.09471,35.81443],[127.09473,35.81499],[127.09469,35.81808],[127.09445,35.81811],[127.09317,35.81814],[127.09241,35.81836],[127.08742,35.8209],[127.08631,35.82138],[127.08524,35.82159],[127.08448,35.82174],[127.08374,35.82205],[127.08196,35.82296],[127.07992,35.82397],[127.07436,35.82512],[127.0719,35.82524],[127.07294,35.8263],[127.07337,35.82668],[127.07727,35.82953],[127.07927,35.83039],[127.08004,35.83069],[127.08011,35.83071],[127.08117,35.83095],[127.08444,35.83207],[127.0856,35.83247],[127.0865,35.83447],[127.08698,35.83606],[127.08727,35.84003]]]]}}]}