{"type":"FeatureCollection","features":[{"type":"Feature","properties":{"code":"48730250","name":"가야읍","parent":"48730"},"geometry":{"type":"MultiPolygon","coordinates":[[[[128.43158,35.31261],[128.43185,35.31134],[128.43186,35.3112],[128.43181,35.31094],[128.43176,35.31071],[128.43132,35.30984],[128.43028,35.30849],[128.43012,35.30833],[128.43009,35.3083],[128.43,35.30821],[128.4299,35.30816],[128.42765,35.30767],[128.42527,35.3042],[128.42524,35.30405],[128.42509,35.30375],[128.42469,35.30306],[128.42465,35.30301],[128.42458,35.30291],[128.42449,35.3028],[128.42442,35.30273],[128.42438,35.30269],[128.42426,35.30258],[128.42376,35.30216],[128.42369,35.30211],[128.42363,35.30206],[128.42089,35.30006],[128.41784,35.30057],[128.41726,35.30091],[128.41666,35.30122],[128.41625,35.30013],[128.41619,35.29995],[128.41614,35.29969],[128.41627,35.29827],[128.41635,35.29745],[128.41775,35.29061],[128.4183,35.28894],[128.41841,35.28861],[128.41852,35.28829],[128.41864,35.28797],[128.41877,35.28769],[128.4189,35.28743],[128.4195,35.28646],[128.41971,35.28614],[128.42029,35.2852],[128.42033,35.28492],[128.42038,35.28434],[128.4204,35.28404],[128.42036,35.28341],[128.42026,35.28239],[128.42022,35.28215],[128.42011,35.28119],[128.42005,35.28056],[128.41999,35.27943],[128.42066,35.27944],[128.42115,35.27944],[128.42124,35.27944],[128.42148,35.27944],[128.42184,35.27944],[128.42236,35.27943],[128.42279,35.27937],[128.42304,35.27933],[128.42312,35.27931],[128.42319,35.27929],[128.42346,35.2792],[128.42488,35.27864],[128.42492,35.27848],[128.42502,35.27784],[128.42502,35.27779],[128.42499,35.27753],[128.42496,35.27739],[128.42489,35.27711],[128.42486,35.27699],[128.42466,35.27664],[128.42461,35.27647],[128.42458,35.27636],[128.42461,35.27622],[128.4253,35.27417],[128.4254,35.27402],[128.428,35.2713],[128.42812,35.27119],[128.42831,35.27106],[128.42818,35.2709],[128.42808,35.27072],[128.42797,35.27051],[128.4279,35.27036],[128.42783,35.27019],[128.42774,35.26988],[128.42772,35.2696],[128.42777,35.26931],[128.42888,35.2656],[128.42894,35.26543],[128.42905,35.26528],[128.42911,35.26522],[128.42926,35.26513],[128.42945,35.26503],[128.42963,35.26498],[128.43002,35.26492],[128.43026,35.26486],[128.43039,35.2648],[128.43055,35.26469],[128.4308,35.26452],[128.43097,35.2644],[128.43107,35.26432],[128.43118,35.26417],[128.43125,35.26408],[128.4313,35.26395],[128.43133,35.26385],[128.43136,35.26367],[128.43136,35.26349],[128.43133,35.26333],[128.4313,35.26326],[128.43124,35.26313],[128.43117,35.26305],[128.43097,35.26285],[128.43084,35.26274],[128.43065,35.26265],[128.43044,35.26259],[128.43005,35.26254],[128.42976,35.26253],[128.42948,35.26252],[128.42916,35.26256],[128.42888,35.26261],[128.42861,35.26267],[128.42833,35.26274],[128.42807,35.26278],[128.42782,35.26279],[128.42757,35.26278],[128.42611,35.26277],[128.42606,35.26277],[128.42601,35.26274],[128.42597,35.26267],[128.42594,35.2626],[128.42593,35.26238],[128.42593,35.26108],[128.42594,35.26089],[128.42595,35.2607],[128.42602,35.25993],[128.42629,35.25839],[128.42633,35.2582],[128.4264,35.25804],[128.42648,35.25794],[128.42659,35.2578],[128.42663,35.25772],[128.42665,35.25753],[128.42666,35.25733],[128.42668,35.25695],[128.42667,35.25657],[128.42667,35.25641],[128.42661,35.25592],[128.4263,35.25542],[128.42603,35.2552],[128.42507,35.25526],[128.42502,35.25527],[128.42459,35.25529],[128.42415,35.25534],[128.42149,35.25607],[128.42129,35.25615],[128.42087,35.25642],[128.42069,35.25654],[128.42051,35.25666],[128.42023,35.25685],[128.42007,35.25694],[128.41998,35.25698],[128.41984,35.25703],[128.41976,35.25704],[128.41967,35.25704],[128.41956,35.25702],[128.41714,35.2563],[128.41706,35.25627],[128.41694,35.25618],[128.41595,35.25534],[128.41584,35.25521],[128.41576,35.25508],[128.41571,35.25495],[128.4143,35.25],[128.41363,35.24547],[128.41362,35.24541],[128.41363,35.24531],[128.41369,35.24367],[128.41372,35.24361],[128.41378,35.24352],[128.41384,35.24346],[128.4139,35.24343],[128.41398,35.2434],[128.41405,35.24338],[128.41419,35.24338],[128.41433,35.24339],[128.41448,35.24342],[128.41462,35.24345],[128.41472,35.24346],[128.4148,35.24345],[128.41486,35.24344],[128.41491,35.24341],[128.41497,35.24337],[128.41501,35.24333],[128.41506,35.24327],[128.4155,35.2424],[128.41553,35.24232],[128.41555,35.24222],[128.41554,35.24215],[128.41501,35.23996],[128.4149,35.23993],[128.41443,35.23981],[128.41339,35.23967],[128.41306,35.23965],[128.41173,35.23997],[128.41152,35.24012],[128.41142,35.24019],[128.41056,35.24039],[128.4066,35.24119],[128.40324,35.24146],[128.4032,35.24149],[128.40303,35.24164],[128.40296,35.24172],[128.40291,35.24179],[128.40287,35.24189],[128.40286,35.24194],[128.40286,35.24208],[128.40286,35.24212],[128.40279,35.24219],[128.40271,35.24225],[128.4026,35.24234],[128.40242,35.24244],[128.4023,35.24249],[128.40225,35.2425],[128.40221,35.24251],[128.40217,35.24251],[128.4021,35.2425],[128.40115,35.24215],[128.40106,35.2421],[128.40096,35.24203],[128.40084,35.24192],[128.40076,35.24184],[128.40067,35.24175],[128.39987,35.24078],[128.39978,35.24068],[128.39972,35.24059],[128.39937,35.24008],[128.39747,35.23706],[128.39748,35.23696],[128.39749,35.23689],[128.39752,35.23682],[128.39755,35.23676],[128.3976,35.2367],[128.39771,35.2366],[128.3978,35.23654],[128.39797,35.23643],[128.39827,35.23626],[128.39869,35.236],[128.3988,35.23595],[128.39886,35.23591],[128.39896,35.23577],[128.39935,35.23525],[128.3994,35.23515],[128.39945,35.23504],[128.39948,35.23488],[128.39948,35.23476],[128.39946,35.23468],[128.39944,35.23461],[128.39938,35.23453],[128.39923,35.23443],[128.39605,35.2325],[128.3949,35.23184],[128.39481,35.2318],[128.39469,35.23177],[128.39456,35.23176],[128.39445,35.23177],[128.39438,35.23178],[128.39357,35.23185],[128.3916,35.23164],[128.39121,35.23149],[128.39006,35.23021],[128.38999,35.23013],[128.38995,35.23007],[128.38661,35.22536],[128.38654,35.22513],[128.38624,35.22408],[128.38487,35.22207],[128.38347,35.22288],[128.38296,35.22383],[128.38284,35.22437],[128.38266,35.2249],[128.38248,35.22522],[128.38227,35.22558],[128.38107,35.22703],[128.38085,35.22723],[128.38063,35.22738],[128.3804,35.22748],[128.38017,35.22758],[128.37976,35.22774],[128.37946,35.22781],[128.37927,35.22785],[128.37914,35.22785],[128.37902,35.22786],[128.37895,35.22787],[128.37888,35.22787],[128.37881,35.22791],[128.37874,35.22798],[128.37866,35.22807],[128.37862,35.22815],[128.37858,35.22827],[128.37856,35.22836],[128.37836,35.2293],[128.37808,35.23132],[128.37814,35.23393],[128.37814,35.23404],[128.37812,35.23412],[128.37811,35.23415],[128.37806,35.23421],[128.37799,35.23428],[128.37792,35.23432],[128.37716,35.23461],[128.37701,35.23467],[128.37689,35.23469],[128.37683,35.2347],[128.37674,35.23469],[128.37664,35.23467],[128.37659,35.23464],[128.37655,35.23463],[128.37645,35.23458],[128.37639,35.23455],[128.37631,35.23452],[128.37622,35.23449],[128.37615,35.23446],[128.37599,35.23442],[128.37583,35.23439],[128.37571,35.23437],[128.37563,35.23438],[128.37556,35.2344],[128.37544,35.23444],[128.3734,35.23532],[128.37239,35.23624],[128.3707,35.24145],[128.37066,35.24413],[128.37059,35.24436],[128.36675,35.2512],[128.36712,35.2526],[128.36721,35.2534],[128.36699,35.25473],[128.3668,35.25547],[128.36675,35.25565],[128.36663,35.25583],[128.36642,35.25603],[128.36633,35.25608],[128.36615,35.25611],[128.36603,35.25613],[128.36589,35.25619],[128.36575,35.25629],[128.36562,35.25639],[128.36538,35.25658],[128.3653,35.25666],[128.3652,35.25675],[128.36514,35.25684],[128.36509,35.25691],[128.36504,35.25699],[128.36498,35.25709],[128.36491,35.25728],[128.36469,35.25789],[128.36466,35.25798],[128.36462,35.25815],[128.36458,35.25951],[128.36471,35.26372],[128.36473,35.26377],[128.3648,35.2638],[128.36503,35.26384],[128.36527,35.26388],[128.36579,35.26397],[128.366,35.26401],[128.36609,35.26406],[128.36618,35.26412],[128.36625,35.26424],[128.36648,35.26539],[128.36635,35.26754],[128.36609,35.26825],[128.36602,35.26842],[128.36584,35.26874],[128.36581,35.26878],[128.36573,35.2689],[128.36564,35.269],[128.36556,35.26909],[128.36549,35.26913],[128.36542,35.26917],[128.3653,35.26926],[128.36509,35.26943],[128.36493,35.26958],[128.36487,35.26965],[128.36478,35.26977],[128.36471,35.26986],[128.36466,35.26993],[128.3646,35.27002],[128.36455,35.2701],[128.36453,35.27013],[128.36451,35.27017],[128.36441,35.27037],[128.3644,35.27047],[128.36397,35.27388],[128.36396,35.27403],[128.3639,35.27504],[128.36383,35.27731],[128.36388,35.27743],[128.36392,35.27746],[128.364,35.27748],[128.36411,35.27749],[128.36424,35.27751],[128.36435,35.27752],[128.36448,35.27754],[128.36497,35.2777],[128.36522,35.2778],[128.36548,35.27791],[128.36576,35.27807],[128.36583,35.27812],[128.36591,35.27819],[128.36615,35.27839],[128.36636,35.27861],[128.36645,35.27872],[128.36853,35.28254],[128.3686,35.28272],[128.36902,35.28635],[128.36901,35.28639],[128.36887,35.2865],[128.36869,35.28659],[128.36842,35.28672],[128.36829,35.2868],[128.36818,35.28687],[128.368,35.28703],[128.36793,35.28713],[128.36791,35.28715],[128.36779,35.28733],[128.36755,35.28772],[128.36732,35.28812],[128.36724,35.28833],[128.36661,35.28998],[128.36659,35.2901],[128.3666,35.29022],[128.36667,35.29039],[128.36672,35.29047],[128.36684,35.29061],[128.36691,35.29068],[128.36714,35.29083],[128.36743,35.29102],[128.36767,35.29116],[128.36778,35.29126],[128.36791,35.29139],[128.36802,35.2915],[128.36822,35.29172],[128.3684,35.29195],[128.37012,35.29418],[128.37016,35.29427],[128.37014,35.29443],[128.37009,35.2946],[128.37001,35.29476],[128.36991,35.29495],[128.36882,35.29677],[128.36878,35.29683],[128.36871,35.2969],[128.36854,35.29697],[128.36774,35.29727],[128.3679,35.29779],[128.36799,35.298],[128.36808,35.29817],[128.36836,35.29859],[128.36881,35.29922],[128.36915,35.29965],[128.36933,35.29984],[128.36951,35.30003],[128.36958,35.30009],[128.36967,35.30018],[128.37044,35.30086],[128.37051,35.30091],[128.37165,35.3015],[128.37198,35.30166],[128.37333,35.30226],[128.37749,35.30388],[128.38284,35.30492],[128.38559,35.30279],[128.38585,35.30278],[128.38956,35.30363],[128.39566,35.30514],[128.39564,35.30525],[128.39562,35.30531],[128.39558,35.30541],[128.39473,35.308],[128.39418,35.30964],[128.39384,35.31064],[128.39273,35.31412],[128.39512,35.31466],[128.39926,35.31555],[128.40236,35.31615],[128.40268,35.3162],[128.40301,35.3163],[128.40353,35.31662],[128.4033,35.31694],[128.40306,35.31724],[128.40278,35.31749],[128.40198,35.318],[128.40072,35.31903],[128.40132,35.32056],[128.40161,35.32178],[128.40173,35.32171],[128.40207,35.32149],[128.40216,35.32141],[128.40227,35.32129],[128.40235,35.32119],[128.40242,35.3211],[128.40252,35.32094],[128.40267,35.32064],[128.40278,35.32046],[128.40296,35.32023],[128.40427,35.3188],[128.40433,35.31874],[128.40439,35.31868],[128.40455,35.31853],[128.40478,35.31833],[128.40488,35.31826],[128.40497,35.31819],[128.40501,35.31817],[128.40505,35.31815],[128.4061,35.31778],[128.4062,35.31775],[128.40632,35.31774],[128.40693,35.31779],[128.40704,35.31782],[128.40718,35.31787],[128.40732,35.31794],[128.40799,35.31831],[128.40829,35.31849],[128.41091,35.3174],[128.41251,35.31621],[128.41256,35.31618],[128.41263,35.31613],[128.41275,35.31607],[128.4129,35.31601],[128.413,35.31599],[128.41315,35.31597],[128.4134,35.31597],[128.41352,35.31599],[128.4141,35.31615],[128.41445,35.31625],[128.41456,35.31629],[128.41475,35.31636],[128.41495,35.31643],[128.41507,35.31648],[128.41545,35.31662],[128.41554,35.31666],[128.41564,35.3167],[128.41578,35.31674],[128.41593,35.31679],[128.41597,35.31679],[128.41601,35.3168],[128.41613,35.31681],[128.41628,35.31681],[128.41641,35.31679],[128.41744,35.3166],[128.41758,35.31655],[128.41783,35.31642],[128.41794,35.31635],[128.41804,35.31625],[128.41893,35.31523],[128.41899,35.31517],[128.41902,35.31512],[128.41904,35.31505],[128.41905,35.31483],[128.41908,35.31464],[128.41911,35.31452],[128.41918,35.31439],[128.41919,35.31437],[128.41931,35.31421],[128.41965,35.31383],[128.41971,35.31377],[128.41982,35.31372],[128.4222,35.313],[128.42235,35.31298],[128.42279,35.31303],[128.42291,35.31305],[128.42305,35.31309],[128.42326,35.31315],[128.42339,35.3132],[128.42346,35.31326],[128.42354,35.31333],[128.42375,35.31359],[128.42385,35.31369],[128.42393,35.31378],[128.42415,35.31402],[128.42432,35.31418],[128.42446,35.31429],[128.42453,35.31434],[128.42646,35.31436],[128.42755,35.3143],[128.42891,35.31421],[128.42904,35.31419],[128.42965,35.31394],[128.42984,35.31382],[128.43158,35.31261]]]]}},{"type":"Feature","properties":{"code":"48730310","name":"함안면","parent":"48730"},"geometry":{"type":"MultiPolygon","coordinates":[[[[128.46616,35.22411],[128.46547,35.22396],[128.46538,35.22394],[128.4653,35.22392],[128.46518,35.22386],[128.46367,35.22289],[128.46306,35.22229],[128.45986,35.22038],[128.45861,35.21983],[128.45857,35.21982],[128.45852,35.21981],[128.45561,35.21879],[128.4504,35.21654],[128.45033,35.21651],[128.44958,35.21514],[128.4491,35.21419],[128.44905,35.21408],[128.44888,35.21371],[128.44882,35.21362],[128.44866,35.21338],[128.4486,35.21334],[128.44847,35.21325],[128.44612,35.21226],[128.43626,35.2083],[128.43619,35.20828],[128.4361,35.20827],[128.43596,35.20828],[128.43592,35.20829],[128.43589,35.2083],[128.43573,35.2084],[128.4356,35.20848],[128.43554,35.20854],[128.43548,35.2086],[128.43526,35.20896],[128.43524,35.20901],[128.43518,35.20914],[128.43511,35.20931],[128.43505,35.20949],[128.43504,35.20952],[128.43503,35.20957],[128.43501,35.20989],[128.43504,35.21008],[128.4351,35.21027],[128.43519,35.21046],[128.43612,35.21214],[128.43672,35.2131],[128.43682,35.2132],[128.43698,35.21335],[128.43706,35.21347],[128.43709,35.21351],[128.43711,35.21356],[128.4371,35.2136],[128.43707,35.21364],[128.43698,35.21368],[128.43689,35.2137],[128.43681,35.2137],[128.43612,35.21362],[128.43603,35.21361],[128.43587,35.21358],[128.43565,35.21352],[128.43558,35.21349],[128.43542,35.21338],[128.43533,35.2133],[128.43524,35.21323],[128.43514,35.21314],[128.43506,35.21307],[128.43439,35.21245],[128.43338,35.21149],[128.4333,35.2114],[128.43323,35.21133],[128.43317,35.21127],[128.43313,35.21121],[128.43312,35.21115],[128.43314,35.21101],[128.43318,35.21087],[128.43319,35.2107],[128.43318,35.21051],[128.43298,35.20955],[128.43295,35.20941],[128.43289,35.20927],[128.43283,35.20917],[128.43282,35.20914],[128.4319,35.2087],[128.43137,35.20848],[128.43125,35.20844],[128.43111,35.2084],[128.43099,35.20836],[128.43088,35.20832],[128.4308,35.2083],[128.43058,35.20824],[128.43047,35.20822],[128.43036,35.20819],[128.42622,35.20751],[128.42616,35.20752],[128.42608,35.20755],[128.42507,35.20848],[128.42492,35.20864],[128.42482,35.20882],[128.42447,35.21038],[128.42427,35.21154],[128.42391,35.21165],[128.42163,35.21097],[128.42129,35.21087],[128.42101,35.21077],[128.41714,35.20895],[128.41701,35.20888],[128.41692,35.2088],[128.41687,35.20874],[128.41682,35.20866],[128.41677,35.20857],[128.41673,35.20847],[128.41621,35.20725],[128.41565,35.20596],[128.41563,35.20593],[128.41545,35.20582],[128.41507,35.20565],[128.41484,35.20556],[128.41457,35.20545],[128.41246,35.20466],[128.4123,35.20462],[128.40989,35.20261],[128.4067,35.19985],[128.40659,35.19975],[128.40656,35.19971],[128.40652,35.19966],[128.40558,35.19834],[128.40511,35.1995],[128.40357,35.2019],[128.4035,35.20199],[128.40344,35.20209],[128.4033,35.20227],[128.40321,35.20238],[128.40314,35.20247],[128.40302,35.20261],[128.40285,35.20279],[128.40092,35.20476],[128.4008,35.20485],[128.39898,35.20561],[128.39872,35.20565],[128.39845,35.20565],[128.39813,35.20556],[128.39669,35.20509],[128.39465,35.2052],[128.39401,35.20526],[128.39371,35.20533],[128.39344,35.20541],[128.39315,35.20549],[128.39235,35.20576],[128.3893,35.20686],[128.38903,35.207],[128.38883,35.20716],[128.38743,35.2084],[128.38717,35.20864],[128.38699,35.2089],[128.38684,35.20917],[128.38674,35.20944],[128.38671,35.20969],[128.38673,35.20994],[128.38677,35.21029],[128.38683,35.21074],[128.38685,35.21081],[128.38686,35.21089],[128.38693,35.21094],[128.38702,35.21097],[128.38714,35.21099],[128.38774,35.21107],[128.38791,35.21112],[128.38805,35.21116],[128.38814,35.21121],[128.38824,35.21126],[128.3884,35.21137],[128.38851,35.21152],[128.39013,35.21409],[128.39115,35.21712],[128.39116,35.21722],[128.39112,35.21726],[128.39108,35.21729],[128.39094,35.21733],[128.39047,35.21738],[128.39023,35.21742],[128.39002,35.21745],[128.38983,35.21751],[128.3896,35.21759],[128.38942,35.21768],[128.38926,35.21776],[128.38866,35.21818],[128.3884,35.21839],[128.38815,35.21859],[128.38779,35.21892],[128.38563,35.22094],[128.38551,35.22108],[128.38542,35.22118],[128.38528,35.22138],[128.38487,35.22207],[128.38624,35.22408],[128.38654,35.22513],[128.38661,35.22536],[128.38995,35.23007],[128.38999,35.23013],[128.39006,35.23021],[128.39121,35.23149],[128.3916,35.23164],[128.39357,35.23185],[128.39438,35.23178],[128.39445,35.23177],[128.39456,35.23176],[128.39469,35.23177],[128.39481,35.2318],[128.3949,35.23184],[128.39605,35.2325],[128.39923,35.23443],[128.39938,35.23453],[128.39944,35.23461],[128.39946,35.23468],[128.39948,35.23476],[128.39948,35.23488],[128.39945,35.23504],[128.3994,35.23515],[128.39935,35.23525],[128.39896,35.23577],[128.39886,35.23591],[128.3988,35.23595],[128.39869,35.236],[128.39827,35.23626],[128.39797,35.23643],[128.3978,35.23654],[128.39771,35.2366],[128.3976,35.2367],[128.39755,35.23676],[128.39752,35.23682],[128.39749,35.23689],[128.39748,35.23696],[128.39747,35.23706],[128.39937,35.24008],[128.39972,35.24059],[128.39978,35.24068],[128.39987,35.24078],[128.40067,35.24175],[128.40076,35.24184],[128.40084,35.24192],[128.40096,35.24203],[128.40106,35.2421],[128.40115,35.24215],[128.4021,35.2425],[128.40217,35.24251],[128.40221,35.24251],[128.40225,35.2425],[128.4023,35.24249],[128.40242,35.24244],[128.4026,35.24234],[128.40271,35.24225],[128.40279,35.24219],[128.40286,35.24212],[128.40286,35.24208],[128.40286,35.24194],[128.40287,35.24189],[128.40291,35.24179],[128.40296,35.24172],[128.40303,35.24164],[128.4032,35.24149],[128.40324,35.24146],[128.4066,35.24119],[128.41056,35.24039],[128.41142,35.24019],[128.41152,35.24012],[128.41173,35.23997],[128.41306,35.23965],[128.41339,35.23967],[128.41443,35.23981],[128.4149,35.23993],[128.41501,35.23996],[128.41554,35.24215],[128.41555,35.24222],[128.41553,35.24232],[128.4155,35.2424],[128.41506,35.24327],[128.41501,35.24333],[128.41497,35.24337],[128.41491,35.24341],[128.41486,35.24344],[128.4148,35.24345],[128.41472,35.24346],[128.41462,35.24345],[128.41448,35.24342],[128.41433,35.24339],[128.41419,35.24338],[128.41405,35.24338],[128.41398,35.2434],[128.4139,35.24343],[128.41384,35.24346],[128.41378,35.24352],[128.41372,35.24361],[128.41369,35.24367],[128.41363,35.24531],[128.41362,35.24541],[128.41363,35.24547],[128.4143,35.25],[128.41571,35.25495],[128.41576,35.25508],[128.41584,35.25521],[128.41595,35.25534],[128.41694,35.25618],[128.41706,35.25627],[128.41714,35.2563],[128.41956,35.25702],[128.41967,35.25704],[128.41976,35.25704],[128.41984,35.25703],[128.41998,35.25698],[128.42007,35.25694],[128.42023,35.25685],[128.42051,35.25666],[128.42069,35.25654],[128.42087,35.25642],[128.42129,35.25615],[128.42149,35.25607],[128.42415,35.25534],[128.42459,35.25529],[128.42502,35.25527],[128.42507,35.25526],[128.42603,35.2552],[128.4263,35.25542],[128.42661,35.25592],[128.42667,35.25641],[128.42667,35.25657],[128.42668,35.25695],[128.42666,35.25733],[128.42665,35.25753],[128.42663,35.25772],[128.42659,35.2578],[128.42648,35.25794],[128.4264,35.25804],[128.42633,35.2582],[128.42629,35.25839],[128.42602,35.25993],[128.42595,35.2607],[128.42594,35.26089],[128.42593,35.26108],[128.42593,35.26238],[128.42594,35.2626],[128.42597,35.26267],[128.42601,35.26274],[128.42606,35.26277],[128.42611,35.26277],[128.42757,35.26278],[128.42782,35.26279],[128.42807,35.26278],[128.42833,35.26274],[128.42861,35.26267],[128.42888,35.26261],[128.42916,35.26256],[128.42948,35.26252],[128.42976,35.26253],[128.43005,35.26254],[128.43044,35.26259],[128.43065,35.26265],[128.43084,35.26274],[128.43097,35.26285],[128.43117,35.26305],[128.43124,35.26313],[128.4313,35.26326],[128.43133,35.26333],[128.43136,35.26349],[128.43136,35.26367],[128.43133,35.26385],[128.4313,35.26395],[128.43125,35.26408],[128.43118,35.26417],[128.43107,35.26432],[128.43097,35.2644],[128.4308,35.26452],[128.43055,35.26469],[128.43039,35.2648],[128.43026,35.26486],[128.43002,35.26492],[128.42963,35.26498],[128.42945,35.26503],[128.42926,35.26513],[128.42911,35.26522],[128.42905,35.26528],[128.42894,35.26543],[128.42888,35.2656],[128.42777,35.26931],[128.42772,35.2696],[128.42774,35.26988],[128.42783,35.27019],[128.4279,35.27036],[128.42797,35.27051],[128.42808,35.27072],[128.42818,35.2709],[128.42831,35.27106],[128.42854,35.27105],[128.42886,35.27104],[128.42898,35.27104],[128.42909,35.27102],[128.43079,35.27064],[128.4334,35.26996],[128.43343,35.26994],[128.43361,35.26981],[128.4339,35.26952],[128.43408,35.26934],[128.43498,35.26861],[128.43635,35.26771],[128.43876,35.26628],[128.43982,35.26568],[128.4405,35.26532],[128.44062,35.26526],[128.44076,35.26519],[128.44101,35.26509],[128.44126,35.26503],[128.44153,35.26502],[128.44179,35.26503],[128.44202,35.26509],[128.44243,35.26529],[128.44381,35.2655],[128.44519,35.26563],[128.44527,35.26563],[128.44532,35.26563],[128.44537,35.26562],[128.44544,35.2656],[128.4456,35.26548],[128.44572,35.26539],[128.44579,35.26527],[128.44581,35.26516],[128.4458,35.26511],[128.44578,35.26498],[128.44574,35.26492],[128.44535,35.26425],[128.44532,35.26422],[128.44528,35.26418],[128.44399,35.26281],[128.44325,35.26206],[128.4415,35.26109],[128.44035,35.2606],[128.4403,35.26057],[128.44026,35.26055],[128.44017,35.26043],[128.43987,35.25989],[128.43922,35.25818],[128.44049,35.25466],[128.44058,35.25447],[128.44067,35.25433],[128.44161,35.25307],[128.44551,35.24893],[128.44628,35.24827],[128.44633,35.24823],[128.4464,35.2482],[128.44775,35.24751],[128.44875,35.24737],[128.44882,35.24735],[128.44894,35.2473],[128.45007,35.24654],[128.45026,35.24641],[128.45031,35.24636],[128.45038,35.24628],[128.45182,35.24441],[128.45193,35.24425],[128.45259,35.24323],[128.45259,35.24312],[128.45252,35.24206],[128.45249,35.24195],[128.4513,35.23929],[128.45121,35.23918],[128.4511,35.23908],[128.45097,35.23902],[128.45091,35.23899],[128.45083,35.23895],[128.45075,35.23892],[128.45044,35.23686],[128.45093,35.23387],[128.45099,35.23362],[128.45106,35.23339],[128.45116,35.23324],[128.45219,35.23233],[128.45227,35.23226],[128.45236,35.23219],[128.45244,35.23214],[128.45253,35.23208],[128.45365,35.23165],[128.45371,35.23164],[128.45377,35.23163],[128.45392,35.23163],[128.45403,35.23164],[128.45415,35.23166],[128.45861,35.2313],[128.46344,35.22932],[128.46354,35.22928],[128.46387,35.22893],[128.46401,35.2287],[128.46409,35.22849],[128.46414,35.22826],[128.46413,35.22807],[128.46408,35.2278],[128.46407,35.22759],[128.4641,35.22738],[128.46439,35.22585],[128.46444,35.22562],[128.4645,35.22546],[128.46455,35.22536],[128.46471,35.22515],[128.46496,35.2249],[128.46519,35.22468],[128.46524,35.22465],[128.46616,35.22411]]]]}},{"type":"Feature","properties":{"code":"48730320","name":"군북면","parent":"48730"},"geometry":{"type":"MultiPolygon","coordinates":[[[[128.36774,35.29727],[128.36854,35.29697],[128.36871,35.2969],[128.36878,35.29683],[128.36882,35.29677],[128.36991,35.29495],[128.37001,35.29476],[128.37009,35.2946],[128.37014,35.29443],[128.37016,35.29427],[128.37012,35.29418],[128.3684,35.29195],[128.36822,35.29172],[128.36802,35.2915],[128.36791,35.29139],[128.36778,35.29126],[128.36767,35.29116],[128.36743,35.29102],[128.36714,35.29083],[128.36691,35.29068],[128.36684,35.29061],[128.36672,35.29047],[128.36667,35.29039],[128.3666,35.29022],[128.36659,35.2901],[128.36661,35.28998],[128.36724,35.28833],[128.36732,35.28812],[128.36755,35.28772],[128.36779,35.28733],[128.36791,35.28715],[128.36793,35.28713],[128.368,35.28703],[128.36818,35.28687],[128.36829,35.2868],[128.36842,35.28672],[128.36869,35.28659],[128.36887,35.2865],[128.36901,35.28639],[128.36902,35.28635],[128.3686,35.28272],[128.36853,35.28254],[128.36645,35.27872],[128.36636,35.27861],[128.36615,35.27839],[128.36591,35.27819],[128.36583,35.27812],[128.36576,35.27807],[128.36548,35.27791],[128.36522,35.2778],[128.36497,35.2777],[128.36448,35.27754],[128.36435,35.27752],[128.36424,35.27751],[128.36411,35.27749],[128.364,35.27748],[128.36392,35.27746],[128.36388,35.27743],[128.36383,35.27731],[128.3639,35.27504],[128.36396,35.27403],[128.36397,35.27388],[128.3644,35.27047],[128.36441,35.27037],[128.36451,35.27017],[128.36453,35.27013],[128.36455,35.2701],[128.3646,35.27002],[128.36466,35.26993],[128.36471,35.26986],[128.36478,35.26977],[128.36487,35.26965],[128.36493,35.26958],[128.36509,35.26943],[128.3653,35.26926],[128.36542,35.26917],[128.36549,35.26913],[128.36556,35.26909],[128.36564,35.269],[128.36573,35.2689],[128.36581,35.26878],[128.36584,35.26874],[128.36602,35.26842],[128.36609,35.26825],[128.36635,35.26754],[128.36648,35.26539],[128.36625,35.26424],[128.36618,35.26412],[128.36609,35.26406],[128.366,35.26401],[128.36579,35.26397],[128.36527,35.26388],[128.36503,35.26384],[128.3648,35.2638],[128.36473,35.26377],[128.36471,35.26372],[128.36458,35.25951],[128.36462,35.25815],[128.36466,35.25798],[128.36469,35.25789],[128.36491,35.25728],[128.36498,35.25709],[128.36504,35.25699],[128.36509,35.25691],[128.36514,35.25684],[128.3652,35.25675],[128.3653,35.25666],[128.36538,35.25658],[128.36562,35.25639],[128.36575,35.25629],[128.36589,35.25619],[128.36603,35.25613],[128.36615,35.25611],[128.36633,35.25608],[128.36642,35.25603],[128.36663,35.25583],[128.36675,35.25565],[128.3668,35.25547],[128.36699,35.25473],[128.36721,35.2534],[128.36712,35.2526],[128.36675,35.2512],[128.37059,35.24436],[128.37066,35.24413],[128.3707,35.24145],[128.37239,35.23624],[128.3734,35.23532],[128.37544,35.23444],[128.37556,35.2344],[128.37563,35.23438],[128.37571,35.23437],[128.37583,35.23439],[128.37599,35.23442],[128.37615,35.23446],[128.37622,35.23449],[128.37631,35.23452],[128.37639,35.23455],[128.37645,35.23458],[128.37655,35.23463],[128.37659,35.23464],[128.37664,35.23467],[128.37674,35.23469],[128.37683,35.2347],[128.37689,35.23469],[128.37701,35.23467],[128.37716,35.23461],[128.37792,35.23432],[128.37799,35.23428],[128.37806,35.23421],[128.37811,35.23415],[128.37812,35.23412],[128.37814,35.23404],[128.37814,35.23393],[128.37808,35.23132],[128.37836,35.2293],[128.37856,35.22836],[128.37858,35.22827],[128.37862,35.22815],[128.37866,35.22807],[128.37874,35.22798],[128.37881,35.22791],[128.37888,35.22787],[128.37895,35.22787],[128.37902,35.22786],[128.37914,35.22785],[128.37927,35.22785],[128.37946,35.22781],[128.37976,35.22774],[128.38017,35.22758],[128.3804,35.22748],[128.38063,35.22738],[128.38085,35.22723],[128.38107,35.22703],[128.38227,35.22558],[128.38248,35.22522],[128.38266,35.2249],[128.38284,35.22437],[128.38296,35.22383],[128.38347,35.22288],[128.38487,35.22207],[128.38528,35.22138],[128.38542,35.22118],[128.38551,35.22108],[128.38563,35.22094],[128.38779,35.21892],[128.38815,35.21859],[128.3884,35.21839],[128.38866,35.21818],[128.38926,35.21776],[128.38942,35.21768],[128.3896,35.21759],[128.38983,35.21751],[128.39002,35.21745],[128.39023,35.21742],[128.39047,35.21738],[128.39094,35.21733],[128.39108,35.21729],[128.39112,35.21726],[128.39116,35.21722],[128.39115,35.21712],[128.39013,35.21409],[128.38851,35.21152],[128.3884,35.21137],[128.38824,35.21126],[128.38814,35.21121],[128.38805,35.21116],[128.38791,35.21112],[128.38774,35.21107],[128.38714,35.21099],[128.38702,35.21097],[128.38693,35.21094],[128.38686,35.21089],[128.38685,35.21081],[128.38683,35.21074],[128.38677,35.21029],[128.38673,35.20994],[128.38671,35.20969],[128.38674,35.20944],[128.38684,35.20917],[128.38699,35.2089],[128.38717,35.20864],[128.38743,35.2084],[128.38883,35.20716],[128.38903,35.207],[128.3893,35.20686],[128.38903,35.20646],[128.38885,35.20625],[128.38862,35.20603],[128.3871,35.20474],[128.38692,35.20461],[128.38519,35.20344],[128.38495,35.20327],[128.38281,35.20203],[128.38262,35.20195],[128.3824,35.20189],[128.38218,35.20186],[128.38179,35.20183],[128.38148,35.20179],[128.38097,35.20172],[128.38065,35.20164],[128.38042,35.20153],[128.38023,35.20138],[128.3766,35.19831],[128.37653,35.1982],[128.37649,35.1981],[128.37642,35.19764],[128.37641,35.19755],[128.37643,35.19742],[128.37652,35.19694],[128.37654,35.19684],[128.37657,35.19671],[128.3767,35.19635],[128.3768,35.19614],[128.37688,35.19586],[128.37688,35.19575],[128.37687,35.19563],[128.37681,35.19547],[128.3761,35.19437],[128.37597,35.19421],[128.37581,35.19402],[128.37564,35.19387],[128.37446,35.1934],[128.37432,35.19338],[128.37419,35.19338],[128.37144,35.19388],[128.36948,35.19428],[128.36754,35.19413],[128.36609,35.19596],[128.36465,35.19776],[128.36436,35.19806],[128.36318,35.19875],[128.36293,35.19884],[128.36181,35.19952],[128.36009,35.20117],[128.35999,35.20133],[128.35969,35.2019],[128.35908,35.20307],[128.35895,35.2034],[128.35893,35.20358],[128.35894,35.20383],[128.35896,35.20402],[128.35893,35.20417],[128.35886,35.20437],[128.35866,35.20474],[128.35822,35.20533],[128.3581,35.20548],[128.35708,35.20657],[128.35694,35.20671],[128.35606,35.20742],[128.3559,35.20754],[128.35576,35.20763],[128.35378,35.2086],[128.35371,35.20871],[128.35359,35.20884],[128.35349,35.20892],[128.35341,35.20899],[128.353,35.20924],[128.35278,35.20936],[128.35265,35.20941],[128.35251,35.20945],[128.34998,35.20983],[128.34992,35.20983],[128.34663,35.20854],[128.34294,35.20766],[128.34278,35.20762],[128.34269,35.2076],[128.34258,35.20759],[128.34243,35.20758],[128.34107,35.20753],[128.34064,35.20755],[128.34018,35.20758],[128.33993,35.20761],[128.33977,35.20764],[128.3396,35.20768],[128.33952,35.2077],[128.33937,35.20777],[128.33926,35.20782],[128.33915,35.20789],[128.33908,35.20796],[128.33901,35.20803],[128.33884,35.20818],[128.33844,35.20848],[128.33831,35.20857],[128.3382,35.20862],[128.33806,35.20864],[128.33781,35.20862],[128.33733,35.20856],[128.337,35.20849],[128.33684,35.20846],[128.33665,35.20839],[128.33644,35.2083],[128.33252,35.20714],[128.32978,35.2067],[128.32805,35.20743],[128.3274,35.20781],[128.32553,35.21143],[128.32244,35.21341],[128.32194,35.21466],[128.32194,35.21518],[128.32218,35.21579],[128.32204,35.21694],[128.32162,35.21812],[128.32035,35.21969],[128.31929,35.22083],[128.31827,35.22173],[128.31762,35.22211],[128.31608,35.22268],[128.3156,35.22266],[128.31515,35.22202],[128.31483,35.22187],[128.31374,35.22182],[128.3093,35.22164],[128.30734,35.22168],[128.30577,35.22392],[128.30576,35.22399],[128.30577,35.22405],[128.30579,35.22413],[128.30606,35.22523],[128.30624,35.22591],[128.30677,35.22708],[128.30719,35.22764],[128.30777,35.22907],[128.3078,35.22916],[128.30782,35.22933],[128.30782,35.22941],[128.30781,35.22949],[128.3078,35.22958],[128.3074,35.23113],[128.30723,35.23157],[128.30617,35.23346],[128.30608,35.2336],[128.3036,35.23745],[128.30357,35.23748],[128.30188,35.23795],[128.30169,35.238],[128.30151,35.23803],[128.30133,35.23806],[128.30115,35.23807],[128.30097,35.23808],[128.3008,35.23809],[128.30044,35.23808],[128.29927,35.23803],[128.29742,35.23917],[128.29437,35.24107],[128.29426,35.24114],[128.29422,35.24119],[128.2942,35.24126],[128.2942,35.2413],[128.29441,35.24292],[128.29445,35.24309],[128.29447,35.24318],[128.29453,35.24327],[128.29659,35.24538],[128.29764,35.24642],[128.29769,35.24644],[128.29797,35.24662],[128.2981,35.24675],[128.29822,35.2469],[128.29896,35.24816],[128.29899,35.24821],[128.299,35.24833],[128.29867,35.24972],[128.29864,35.24983],[128.29855,35.24997],[128.29848,35.25005],[128.2978,35.25067],[128.29762,35.25084],[128.29351,35.25352],[128.29344,35.25353],[128.29039,35.25331],[128.29033,35.2533],[128.29027,35.25326],[128.28966,35.25276],[128.28924,35.25234],[128.28908,35.25217],[128.28903,35.25214],[128.28892,35.25208],[128.28874,35.25203],[128.28681,35.25172],[128.28644,35.25167],[128.28628,35.25167],[128.28609,35.25169],[128.28595,35.25173],[128.28329,35.25307],[128.28228,35.25357],[128.28202,35.25372],[128.28179,35.25389],[128.28116,35.25437],[128.28077,35.25469],[128.2806,35.25484],[128.27898,35.25585],[128.27763,35.25666],[128.27733,35.25675],[128.27524,35.25719],[128.27464,35.25731],[128.27424,35.25737],[128.27528,35.25928],[128.27729,35.26456],[128.27818,35.2672],[128.27847,35.26834],[128.27876,35.26947],[128.27898,35.27024],[128.27912,35.27066],[128.27928,35.27108],[128.27946,35.27152],[128.27967,35.27191],[128.28029,35.27299],[128.28058,35.27339],[128.28119,35.27418],[128.28163,35.27468],[128.2823,35.2752],[128.28281,35.27556],[128.28581,35.27687],[128.28615,35.27699],[128.28759,35.27747],[128.28831,35.27768],[128.28867,35.27778],[128.28897,35.27784],[128.29063,35.27803],[128.29095,35.27807],[128.29283,35.27826],[128.29413,35.27835],[128.29489,35.27848],[128.29593,35.27871],[128.29627,35.2788],[128.2966,35.2789],[128.29677,35.27896],[128.29711,35.27908],[128.29745,35.27921],[128.29831,35.27954],[128.29879,35.27975],[128.29896,35.27983],[128.30031,35.28061],[128.30052,35.28076],[128.30154,35.28146],[128.30212,35.28235],[128.30223,35.28273],[128.30225,35.28309],[128.30218,35.28344],[128.30212,35.28359],[128.30195,35.28385],[128.3007,35.28543],[128.29559,35.29141],[128.29371,35.29343],[128.29341,35.29378],[128.29108,35.2966],[128.29071,35.2971],[128.28952,35.29939],[128.28933,35.29982],[128.28919,35.30025],[128.2891,35.30068],[128.28902,35.30109],[128.28899,35.30243],[128.289,35.30306],[128.28907,35.3035],[128.28955,35.30531],[128.28966,35.30564],[128.28983,35.30609],[128.29024,35.30703],[128.29055,35.30771],[128.29072,35.30802],[128.2914,35.30916],[128.29167,35.3096],[128.29209,35.31017],[128.29278,35.31096],[128.29374,35.312],[128.29381,35.31208],[128.29386,35.31213],[128.29416,35.31244],[128.2944,35.31267],[128.29474,35.31295],[128.29505,35.31317],[128.29528,35.31332],[128.29706,35.31441],[128.29749,35.31465],[128.29774,35.31477],[128.2978,35.31478],[128.29836,35.31494],[128.30249,35.31606],[128.30586,35.31694],[128.3071,35.31732],[128.3119,35.319],[128.31232,35.31916],[128.31258,35.31928],[128.3128,35.31939],[128.31307,35.31954],[128.31398,35.32016],[128.31551,35.32145],[128.31646,35.32242],[128.31677,35.32294],[128.31855,35.31934],[128.318,35.31455],[128.31812,35.31296],[128.31826,35.31136],[128.31858,35.30976],[128.31962,35.309],[128.31978,35.30893],[128.32035,35.30862],[128.32053,35.30849],[128.32067,35.30834],[128.32078,35.30817],[128.32088,35.30801],[128.32202,35.30477],[128.32216,35.304],[128.32484,35.30428],[128.32541,35.30416],[128.32688,35.30383],[128.33234,35.3025],[128.3324,35.30248],[128.3328,35.30253],[128.33592,35.30524],[128.34017,35.30891],[128.34201,35.31053],[128.34383,35.30941],[128.34388,35.30932],[128.34445,35.30866],[128.34457,35.30854],[128.34464,35.30848],[128.34479,35.3084],[128.35086,35.30527],[128.35093,35.30527],[128.35118,35.30527],[128.35294,35.30461],[128.35424,35.30375],[128.35814,35.3007],[128.35853,35.30028],[128.35885,35.29985],[128.35902,35.29962],[128.35912,35.29939],[128.35919,35.29917],[128.36154,35.29796],[128.36211,35.29813],[128.36373,35.29863],[128.36387,35.29867],[128.36406,35.29869],[128.36468,35.29873],[128.36499,35.29873],[128.36517,35.29868],[128.36539,35.29862],[128.36601,35.29834],[128.36626,35.29821],[128.36647,35.29809],[128.36774,35.29727]]]]}},{"type":"Feature","properties":{"code":"48730330","name":"법수면","parent":"48730"},"geometry":{"type":"MultiPolygon","coordinates":[[[[128.39609,35.33611],[128.39677,35.336],[128.39713,35.33585],[128.39735,35.33574],[128.39755,35.33559],[128.39827,35.33497],[128.39857,35.33467],[128.39887,35.33435],[128.39909,35.33408],[128.39933,35.33376],[128.39952,35.33344],[128.39972,35.33312],[128.3999,35.33279],[128.40006,35.33246],[128.40021,35.33213],[128.4007,35.33086],[128.401,35.32994],[128.40111,35.32961],[128.40118,35.32929],[128.40122,35.32897],[128.40125,35.32867],[128.40125,35.32846],[128.40122,35.32806],[128.40113,35.32762],[128.40103,35.32727],[128.40095,35.32704],[128.40088,35.32686],[128.4008,35.3267],[128.40076,35.32664],[128.4007,35.32659],[128.40057,35.3265],[128.40045,35.32645],[128.4003,35.32642],[128.40014,35.32642],[128.39988,35.32647],[128.39952,35.32653],[128.39938,35.32653],[128.39912,35.32651],[128.39883,35.32647],[128.39857,35.32638],[128.39845,35.32631],[128.39825,35.32617],[128.39807,35.32599],[128.39797,35.32585],[128.39788,35.32572],[128.39783,35.32562],[128.39779,35.32553],[128.39771,35.32518],[128.3977,35.32486],[128.39772,35.32473],[128.39779,35.32455],[128.3996,35.32087],[128.39968,35.32074],[128.3998,35.32063],[128.39995,35.32055],[128.4001,35.3205],[128.40027,35.32048],[128.40044,35.32048],[128.40132,35.32056],[128.40072,35.31903],[128.40198,35.318],[128.40278,35.31749],[128.40306,35.31724],[128.4033,35.31694],[128.40353,35.31662],[128.40301,35.3163],[128.40268,35.3162],[128.40236,35.31615],[128.39926,35.31555],[128.39512,35.31466],[128.39273,35.31412],[128.39384,35.31064],[128.39418,35.30964],[128.39473,35.308],[128.39558,35.30541],[128.39562,35.30531],[128.39564,35.30525],[128.39566,35.30514],[128.38956,35.30363],[128.38585,35.30278],[128.38559,35.30279],[128.38284,35.30492],[128.37749,35.30388],[128.37333,35.30226],[128.37198,35.30166],[128.37165,35.3015],[128.37051,35.30091],[128.37044,35.30086],[128.36967,35.30018],[128.36958,35.30009],[128.36951,35.30003],[128.36933,35.29984],[128.36915,35.29965],[128.36881,35.29922],[128.36836,35.29859],[128.36808,35.29817],[128.36799,35.298],[128.3679,35.29779],[128.36774,35.29727],[128.36647,35.29809],[128.36626,35.29821],[128.36601,35.29834],[128.36539,35.29862],[128.36517,35.29868],[128.36499,35.29873],[128.36468,35.29873],[128.36406,35.29869],[128.36387,35.29867],[128.36373,35.29863],[128.36211,35.29813],[128.36154,35.29796],[128.35919,35.29917],[128.35912,35.29939],[128.35902,35.29962],[128.35885,35.29985],[128.35853,35.30028],[128.35814,35.3007],[128.35424,35.30375],[128.35294,35.30461],[128.35118,35.30527],[128.35093,35.30527],[128.35086,35.30527],[128.34479,35.3084],[128.34464,35.30848],[128.34457,35.30854],[128.34445,35.30866],[128.34388,35.30932],[128.34383,35.30941],[128.34201,35.31053],[128.34017,35.30891],[128.33592,35.30524],[128.3328,35.30253],[128.3324,35.30248],[128.33234,35.3025],[128.32688,35.30383],[128.32541,35.30416],[128.32484,35.30428],[128.32216,35.304],[128.32202,35.30477],[128.32088,35.30801],[128.32078,35.30817],[128.32067,35.30834],[128.32053,35.30849],[128.32035,35.30862],[128.31978,35.30893],[128.31962,35.309],[128.31858,35.30976],[128.31826,35.31136],[128.31812,35.31296],[128.318,35.31455],[128.31855,35.31934],[128.31677,35.32294],[128.31762,35.32558],[128.31768,35.32641],[128.31765,35.32677],[128.3176,35.32763],[128.31755,35.32806],[128.3175,35.32831],[128.31741,35.32874],[128.31732,35.32909],[128.31597,35.33221],[128.31581,35.3325],[128.31527,35.33315],[128.3135,35.33508],[128.3122,35.337],[128.31205,35.33733],[128.31204,35.33736],[128.31187,35.33813],[128.31168,35.33988],[128.31119,35.34506],[128.31104,35.34727],[128.31109,35.34769],[128.31112,35.3479],[128.31151,35.35039],[128.31175,35.35184],[128.31183,35.35232],[128.31201,35.35306],[128.31205,35.3532],[128.31213,35.35334],[128.31223,35.35349],[128.31235,35.35361],[128.31255,35.35378],[128.3127,35.3539],[128.31285,35.35404],[128.31304,35.35426],[128.31322,35.35454],[128.31337,35.35482],[128.31352,35.35519],[128.31362,35.35555],[128.31381,35.3566],[128.31402,35.35854],[128.31494,35.36103],[128.31513,35.3612],[128.31531,35.36132],[128.31574,35.3616],[128.31621,35.36187],[128.31662,35.36207],[128.31707,35.36226],[128.31752,35.36239],[128.31814,35.36252],[128.31919,35.36265],[128.3228,35.36286],[128.32285,35.36286],[128.32427,35.36284],[128.32509,35.36282],[128.32579,35.36279],[128.32619,35.36275],[128.3267,35.36269],[128.32729,35.36259],[128.32757,35.36254],[128.33292,35.36147],[128.33321,35.36141],[128.33352,35.36132],[128.33377,35.36124],[128.33409,35.36114],[128.33453,35.36098],[128.33846,35.35959],[128.33863,35.35952],[128.33886,35.35941],[128.33905,35.35932],[128.33927,35.35918],[128.33951,35.359],[128.34041,35.35815],[128.34072,35.35782],[128.34126,35.35719],[128.3424,35.35581],[128.34295,35.35509],[128.34564,35.35142],[128.34586,35.35112],[128.34614,35.35058],[128.34628,35.3503],[128.34712,35.34858],[128.3478,35.34717],[128.34876,35.34519],[128.34931,35.34424],[128.3496,35.34376],[128.34992,35.34326],[128.35025,35.34278],[128.35058,35.3424],[128.35096,35.34199],[128.35133,35.34163],[128.35139,35.34157],[128.35181,35.34119],[128.35231,35.34073],[128.35298,35.34023],[128.35364,35.33975],[128.35433,35.33928],[128.35482,35.33899],[128.3551,35.33887],[128.35583,35.33858],[128.3565,35.33838],[128.3566,35.33835],[128.35716,35.33818],[128.35783,35.33804],[128.35849,35.3379],[128.36004,35.3376],[128.36078,35.33746],[128.36154,35.33732],[128.3631,35.33706],[128.36466,35.3368],[128.36622,35.33651],[128.36857,35.33604],[128.36935,35.33587],[128.37013,35.3357],[128.37088,35.33552],[128.37163,35.3353],[128.37235,35.33502],[128.3728,35.33478],[128.37325,35.33452],[128.37408,35.3341],[128.37474,35.33382],[128.37477,35.33381],[128.37534,35.33364],[128.376,35.33349],[128.37663,35.33339],[128.37726,35.3333],[128.37789,35.33323],[128.37852,35.3332],[128.37912,35.33319],[128.37973,35.33321],[128.38032,35.33327],[128.38092,35.33336],[128.38151,35.33345],[128.38211,35.33354],[128.38865,35.33424],[128.39103,35.33433],[128.39162,35.33436],[128.39222,35.33441],[128.39282,35.33447],[128.39342,35.33454],[128.39402,35.33464],[128.39435,35.33474],[128.39461,35.33484],[128.39497,35.335],[128.3952,35.33512],[128.39554,35.33532],[128.39573,35.33547],[128.39593,35.3357],[128.39605,35.33592],[128.39609,35.33611]]]]}},{"type":"Feature","properties":{"code":"48730340","name":"대산면","parent":"48730"},"geometry":{"type":"MultiPolygon","coordinates":[[[[128.43652,35.3924],[128.43664,35.39222],[128.43676,35.39206],[128.43701,35.39174],[128.43725,35.39148],[128.43773,35.39099],[128.43979,35.38902],[128.44015,35.38871],[128.44069,35.3883],[128.44136,35.38781],[128.44187,35.38744],[128.44247,35.38708],[128.44317,35.3867],[128.44432,35.38611],[128.44473,35.3859],[128.44548,35.38552],[128.44621,35.3852],[128.45206,35.38321],[128.45296,35.38298],[128.45483,35.38249],[128.46398,35.3807],[128.46665,35.38039],[128.46804,35.38031],[128.46922,35.37859],[128.46974,35.37865],[128.46996,35.37866],[128.47011,35.37864],[128.47027,35.37862],[128.4705,35.37854],[128.47074,35.37841],[128.47088,35.3783],[128.47097,35.37817],[128.47124,35.3777],[128.47134,35.37752],[128.47136,35.37747],[128.47136,35.37742],[128.47134,35.37737],[128.47122,35.37725],[128.47111,35.37716],[128.47102,35.37708],[128.47093,35.37702],[128.47085,35.37697],[128.47068,35.37691],[128.4704,35.37684],[128.47029,35.37681],[128.47025,35.37679],[128.47021,35.37676],[128.47015,35.3767],[128.4695,35.37548],[128.46845,35.37211],[128.46845,35.37208],[128.4699,35.36672],[128.46993,35.36662],[128.46998,35.36653],[128.47003,35.36647],[128.47007,35.36643],[128.47084,35.36566],[128.47095,35.36556],[128.47103,35.36549],[128.47499,35.36209],[128.47484,35.35491],[128.47482,35.35484],[128.47481,35.3548],[128.47478,35.35477],[128.47017,35.35192],[128.46967,35.35174],[128.46951,35.35169],[128.4694,35.35169],[128.46926,35.35171],[128.46909,35.35178],[128.46808,35.35221],[128.46801,35.35226],[128.46796,35.35231],[128.46791,35.35247],[128.4679,35.35256],[128.46791,35.35268],[128.46796,35.35284],[128.46796,35.35296],[128.46795,35.35306],[128.46791,35.35308],[128.46778,35.35313],[128.46759,35.35315],[128.46746,35.35316],[128.46589,35.35282],[128.46585,35.35281],[128.46579,35.35276],[128.46571,35.35267],[128.46564,35.35259],[128.46555,35.35245],[128.46476,35.35078],[128.46476,35.35075],[128.46477,35.3507],[128.46594,35.34814],[128.46679,35.34704],[128.46757,35.34552],[128.46734,35.34477],[128.46734,35.34474],[128.46734,35.34467],[128.46737,35.34457],[128.46742,35.34444],[128.46746,35.34437],[128.46754,35.3443],[128.46761,35.34426],[128.46767,35.34422],[128.46949,35.34352],[128.47372,35.34212],[128.47423,35.34204],[128.47443,35.34201],[128.47448,35.34199],[128.47452,35.34194],[128.47453,35.3419],[128.47454,35.34184],[128.47449,35.34168],[128.47443,35.34152],[128.47434,35.34136],[128.47317,35.33978],[128.47314,35.33974],[128.4731,35.3397],[128.4729,35.33958],[128.47265,35.33943],[128.47242,35.33931],[128.47233,35.33926],[128.4723,35.33924],[128.47229,35.33921],[128.47227,35.33912],[128.47226,35.339],[128.47227,35.33888],[128.47229,35.33876],[128.47233,35.33859],[128.47242,35.33835],[128.47246,35.33827],[128.4734,35.33624],[128.47351,35.33609],[128.47353,35.33606],[128.47356,35.33602],[128.47364,35.33593],[128.47373,35.33584],[128.47375,35.33583],[128.47387,35.33576],[128.47462,35.33535],[128.47482,35.33526],[128.47489,35.33524],[128.47496,35.33522],[128.47513,35.33517],[128.4752,35.33516],[128.47527,35.33514],[128.47708,35.3348],[128.47887,35.33463],[128.47891,35.33462],[128.47904,35.33457],[128.48246,35.33292],[128.48291,35.33266],[128.483,35.33259],[128.48307,35.3325],[128.48316,35.33238],[128.48371,35.33118],[128.48373,35.33113],[128.48511,35.32611],[128.4851,35.32593],[128.48503,35.32507],[128.48501,35.32493],[128.48496,35.32474],[128.48488,35.32454],[128.48409,35.32297],[128.48382,35.32245],[128.48375,35.32234],[128.48364,35.32222],[128.48293,35.32162],[128.48289,35.32159],[128.48283,35.32155],[128.48158,35.32125],[128.48129,35.3212],[128.48114,35.32117],[128.48098,35.32115],[128.48082,35.32113],[128.48067,35.32111],[128.48036,35.32107],[128.48003,35.32108],[128.47991,35.32108],[128.47981,35.32108],[128.47971,35.32109],[128.47919,35.32127],[128.47904,35.32135],[128.47895,35.32143],[128.47883,35.3215],[128.47877,35.32152],[128.47848,35.32154],[128.47819,35.32157],[128.47789,35.32157],[128.47695,35.32155],[128.47676,35.32155],[128.4766,35.3215],[128.47455,35.32062],[128.47447,35.32059],[128.47443,35.32055],[128.47431,35.3204],[128.47401,35.31994],[128.474,35.3199],[128.474,35.31986],[128.47439,35.31842],[128.47421,35.31642],[128.47418,35.31636],[128.47188,35.31411],[128.4718,35.31405],[128.47174,35.314],[128.4717,35.31398],[128.47165,35.31396],[128.47141,35.3139],[128.46799,35.31367],[128.4656,35.31354],[128.46549,35.31354],[128.46539,35.31355],[128.46529,35.31355],[128.46512,35.31361],[128.46498,35.31368],[128.4649,35.31373],[128.4648,35.3138],[128.46554,35.31508],[128.46561,35.31522],[128.46566,35.31536],[128.46571,35.3155],[128.46573,35.31564],[128.46578,35.31593],[128.46583,35.31622],[128.46583,35.31635],[128.4658,35.31644],[128.46578,35.3165],[128.46571,35.31663],[128.46502,35.31782],[128.46457,35.31848],[128.46247,35.32049],[128.45933,35.32328],[128.45917,35.3234],[128.45747,35.32467],[128.45737,35.32475],[128.45726,35.3248],[128.45713,35.32484],[128.45706,35.32484],[128.45554,35.32492],[128.45498,35.32515],[128.45488,35.32516],[128.45472,35.32517],[128.45256,35.32506],[128.45253,35.32505],[128.45247,35.325],[128.45238,35.32489],[128.45222,35.32468],[128.45207,35.32449],[128.45087,35.3227],[128.45081,35.32254],[128.45079,35.32245],[128.45077,35.32229],[128.45077,35.32206],[128.45079,35.32193],[128.45084,35.32163],[128.4509,35.32134],[128.45095,35.32123],[128.45096,35.32112],[128.45096,35.32109],[128.45095,35.32101],[128.45093,35.32097],[128.4509,35.32094],[128.45073,35.32085],[128.45014,35.32055],[128.4499,35.32045],[128.44701,35.31966],[128.44685,35.31964],[128.44518,35.3195],[128.44488,35.31948],[128.44474,35.31953],[128.44461,35.31963],[128.44327,35.3198],[128.44279,35.31968],[128.44145,35.31925],[128.43687,35.31623],[128.43259,35.31336],[128.43158,35.31261],[128.42984,35.31382],[128.42965,35.31394],[128.42904,35.31419],[128.42891,35.31421],[128.42755,35.3143],[128.42646,35.31436],[128.42453,35.31434],[128.42446,35.31429],[128.42432,35.31418],[128.42415,35.31402],[128.42393,35.31378],[128.42385,35.31369],[128.42375,35.31359],[128.42354,35.31333],[128.42346,35.31326],[128.42339,35.3132],[128.42326,35.31315],[128.42305,35.31309],[128.42291,35.31305],[128.42279,35.31303],[128.42235,35.31298],[128.4222,35.313],[128.41982,35.31372],[128.41971,35.31377],[128.41965,35.31383],[128.41931,35.31421],[128.41919,35.31437],[128.41918,35.31439],[128.41911,35.31452],[128.41908,35.31464],[128.41905,35.31483],[128.41904,35.31505],[128.41902,35.31512],[128.41899,35.31517],[128.41893,35.31523],[128.41804,35.31625],[128.41794,35.31635],[128.41783,35.31642],[128.41758,35.31655],[128.41744,35.3166],[128.41641,35.31679],[128.41628,35.31681],[128.41613,35.31681],[128.41601,35.3168],[128.41597,35.31679],[128.41593,35.31679],[128.41578,35.31674],[128.41564,35.3167],[128.41554,35.31666],[128.41545,35.31662],[128.41507,35.31648],[128.41495,35.31643],[128.41475,35.31636],[128.41456,35.31629],[128.41445,35.31625],[128.4141,35.31615],[128.41352,35.31599],[128.4134,35.31597],[128.41315,35.31597],[128.413,35.31599],[128.4129,35.31601],[128.41275,35.31607],[128.41263,35.31613],[128.41256,35.31618],[128.41251,35.31621],[128.41091,35.3174],[128.40829,35.31849],[128.40799,35.31831],[128.40732,35.31794],[128.40718,35.31787],[128.40704,35.31782],[128.40693,35.31779],[128.40632,35.31774],[128.4062,35.31775],[128.4061,35.31778],[128.40505,35.31815],[128.40501,35.31817],[128.40497,35.31819],[128.40488,35.31826],[128.40478,35.31833],[128.40455,35.31853],[128.40439,35.31868],[128.40433,35.31874],[128.40427,35.3188],[128.40296,35.32023],[128.40278,35.32046],[128.40267,35.32064],[128.40252,35.32094],[128.40242,35.3211],[128.40235,35.32119],[128.40227,35.32129],[128.40216,35.32141],[128.40207,35.32149],[128.40173,35.32171],[128.40161,35.32178],[128.40132,35.32056],[128.40044,35.32048],[128.40027,35.32048],[128.4001,35.3205],[128.39995,35.32055],[128.3998,35.32063],[128.39968,35.32074],[128.3996,35.32087],[128.39779,35.32455],[128.39772,35.32473],[128.3977,35.32486],[128.39771,35.32518],[128.39779,35.32553],[128.39783,35.32562],[128.39788,35.32572],[128.39797,35.32585],[128.39807,35.32599],[128.39825,35.32617],[128.39845,35.32631],[128.39857,35.32638],[128.39883,35.32647],[128.39912,35.32651],[128.39938,35.32653],[128.39952,35.32653],[128.39988,35.32647],[128.40014,35.32642],[128.4003,35.32642],[128.40045,35.32645],[128.40057,35.3265],[128.4007,35.32659],[128.40076,35.32664],[128.4008,35.3267],[128.40088,35.32686],[128.40095,35.32704],[128.40103,35.32727],[128.40113,35.32762],[128.40122,35.32806],[128.40125,35.32846],[128.40125,35.32867],[128.40122,35.32897],[128.40118,35.32929],[128.40111,35.32961],[128.401,35.32994],[128.4007,35.33086],[128.40021,35.33213],[128.40006,35.33246],[128.3999,35.33279],[128.39972,35.33312],[128.39952,35.33344],[128.39933,35.33376],[128.39909,35.33408],[128.39887,35.33435],[128.39857,35.33467],[128.39827,35.33497],[128.39755,35.33559],[128.39735,35.33574],[128.39713,35.33585],[128.39677,35.336],[128.39609,35.33611],[128.39608,35.33636],[128.39586,35.33733],[128.39557,35.33838],[128.39548,35.33871],[128.39535,35.33906],[128.39522,35.33938],[128.39504,35.33969],[128.39483,35.33998],[128.39458,35.34028],[128.39428,35.34059],[128.39397,35.34086],[128.39365,35.34112],[128.39003,35.3441],[128.38934,35.34464],[128.38898,35.34493],[128.38789,35.34578],[128.38753,35.34606],[128.38607,35.34716],[128.3846,35.34828],[128.38423,35.34856],[128.38385,35.34884],[128.38353,35.34913],[128.38322,35.34944],[128.38295,35.34974],[128.38273,35.35004],[128.3825,35.35035],[128.38232,35.35066],[128.38216,35.35098],[128.38202,35.35129],[128.38193,35.35161],[128.38177,35.35222],[128.38169,35.35252],[128.38164,35.35282],[128.38164,35.35306],[128.38177,35.35362],[128.38199,35.35446],[128.38217,35.355],[128.38241,35.35555],[128.38272,35.35619],[128.38346,35.35725],[128.38385,35.35775],[128.38425,35.35817],[128.38474,35.35866],[128.38512,35.35895],[128.38537,35.35909],[128.3856,35.3592],[128.38705,35.35965],[128.38725,35.35968],[128.38979,35.36006],[128.39075,35.36019],[128.39124,35.36023],[128.39197,35.36029],[128.40206,35.36083],[128.40284,35.36082],[128.40373,35.36081],[128.4045,35.36077],[128.40529,35.36072],[128.40611,35.36061],[128.40674,35.36048],[128.40764,35.36019],[128.40837,35.3599],[128.40889,35.3597],[128.41134,35.3589],[128.4124,35.35859],[128.41318,35.35841],[128.41365,35.35836],[128.41378,35.35837],[128.41384,35.35837],[128.41401,35.35847],[128.41416,35.35859],[128.41425,35.35878],[128.41442,35.3594],[128.41463,35.36],[128.41496,35.36082],[128.41534,35.36158],[128.41547,35.36182],[128.41554,35.36194],[128.41572,35.36219],[128.41592,35.36238],[128.41616,35.36255],[128.41642,35.36267],[128.41696,35.36276],[128.41746,35.36284],[128.4177,35.36284],[128.41812,35.36277],[128.41935,35.36252],[128.42,35.36243],[128.42042,35.36237],[128.42081,35.36237],[128.42245,35.36243],[128.42338,35.36265],[128.42556,35.3634],[128.42627,35.36374],[128.42713,35.36419],[128.42734,35.36431],[128.42748,35.36441],[128.42761,35.36452],[128.42777,35.36467],[128.4279,35.36481],[128.42804,35.36505],[128.42816,35.36526],[128.42823,35.36547],[128.42829,35.36566],[128.42835,35.36598],[128.42838,35.36611],[128.42839,35.36627],[128.42835,35.36644],[128.42832,35.36658],[128.42823,35.36673],[128.42809,35.36695],[128.42793,35.36718],[128.4277,35.36748],[128.42693,35.36842],[128.42661,35.36879],[128.42631,35.36915],[128.42604,35.36944],[128.42423,35.37135],[128.42408,35.3715],[128.42385,35.37174],[128.42297,35.37263],[128.42279,35.3728],[128.42254,35.3731],[128.42226,35.37345],[128.42192,35.37391],[128.42155,35.37445],[128.42121,35.37505],[128.4209,35.37569],[128.42061,35.37647],[128.42039,35.37712],[128.42012,35.37805],[128.4201,35.3782],[128.42012,35.37843],[128.42015,35.37854],[128.42023,35.37874],[128.42239,35.38171],[128.42279,35.38225],[128.42338,35.38301],[128.42418,35.38401],[128.42799,35.3884],[128.42835,35.38877],[128.42884,35.38924],[128.42912,35.38949],[128.42951,35.38982],[128.43029,35.39044],[128.43075,35.39077],[128.43106,35.39096],[128.43161,35.39127],[128.43204,35.39148],[128.43267,35.39175],[128.43304,35.39189],[128.43351,35.39204],[128.43405,35.3922],[128.43439,35.39227],[128.4348,35.39236],[128.43527,35.39243],[128.43572,35.39246],[128.43605,35.39246],[128.43631,35.39245],[128.43642,35.39243],[128.43652,35.3924]]]]}},{"type":"Feature","properties":{"code":"48730350","name":"칠서면","parent":"48730"},"geometry":{"type":"MultiPolygon","coordinates":[[[[128.5187,35.39443],[128.51948,35.39401],[128.52039,35.39353],[128.52185,35.39277],[128.5241,35.39176],[128.52502,35.39145],[128.52539,35.39134],[128.52582,35.39121],[128.52606,35.39114],[128.52887,35.39066],[128.53067,35.39057],[128.5313,35.39054],[128.53399,35.39018],[128.53439,35.39008],[128.53478,35.38996],[128.53541,35.38974],[128.53588,35.38955],[128.53625,35.38937],[128.53703,35.3889],[128.53844,35.38805],[128.54682,35.38161],[128.54735,35.38119],[128.54684,35.38079],[128.54568,35.3799],[128.54301,35.37902],[128.54243,35.37902],[128.54203,35.37903],[128.54188,35.37904],[128.54173,35.37906],[128.54143,35.3791],[128.54117,35.37913],[128.54098,35.37915],[128.54076,35.37919],[128.53999,35.3794],[128.53919,35.37963],[128.5379,35.38],[128.53749,35.38013],[128.53665,35.38044],[128.53631,35.38059],[128.5359,35.38076],[128.53476,35.38156],[128.53348,35.38244],[128.5331,35.38269],[128.53279,35.38286],[128.5325,35.38301],[128.53219,35.38315],[128.5316,35.38339],[128.52904,35.38415],[128.52631,35.3849],[128.52603,35.38492],[128.52555,35.38492],[128.52515,35.38487],[128.5249,35.38474],[128.52481,35.38466],[128.52472,35.3846],[128.52223,35.38193],[128.52218,35.38181],[128.52211,35.38153],[128.52212,35.38149],[128.52214,35.38125],[128.52223,35.38081],[128.52241,35.38026],[128.52264,35.3796],[128.52269,35.37924],[128.52278,35.37823],[128.52261,35.37789],[128.52239,35.37774],[128.52224,35.37765],[128.52214,35.37761],[128.52202,35.37757],[128.52194,35.37755],[128.52185,35.37754],[128.51928,35.37688],[128.5124,35.37458],[128.51205,35.37436],[128.51181,35.37421],[128.51122,35.37385],[128.51033,35.37285],[128.50744,35.36912],[128.50223,35.36217],[128.50197,35.36183],[128.50181,35.3615],[128.50168,35.36118],[128.50095,35.35855],[128.5009,35.35824],[128.50095,35.35794],[128.50112,35.3575],[128.50125,35.35719],[128.50146,35.3568],[128.50157,35.3565],[128.50158,35.35641],[128.50153,35.3562],[128.50134,35.35592],[128.49966,35.35412],[128.49941,35.35388],[128.49919,35.35371],[128.49899,35.35357],[128.49869,35.35339],[128.49814,35.35306],[128.49802,35.35072],[128.50013,35.34914],[128.50022,35.34908],[128.50031,35.34901],[128.50761,35.34526],[128.50776,35.34519],[128.50796,35.34511],[128.50815,35.34504],[128.50863,35.3449],[128.50932,35.34471],[128.51114,35.34423],[128.51122,35.34423],[128.51129,35.34423],[128.51146,35.34422],[128.51169,35.34429],[128.51187,35.34435],[128.51209,35.34443],[128.51228,35.34448],[128.51244,35.34452],[128.51306,35.34466],[128.51322,35.34468],[128.51327,35.34468],[128.51334,35.34465],[128.51344,35.3446],[128.51354,35.34452],[128.51444,35.34328],[128.51454,35.34313],[128.51521,35.34177],[128.51561,35.34078],[128.5159,35.34003],[128.51591,35.33995],[128.51591,35.3399],[128.51587,35.3398],[128.51576,35.33967],[128.5156,35.33948],[128.51555,35.33943],[128.51541,35.33927],[128.51529,35.33914],[128.51519,35.33901],[128.51524,35.33891],[128.51583,35.33785],[128.51588,35.33778],[128.5167,35.33698],[128.51725,35.33658],[128.5186,35.3358],[128.5187,35.33575],[128.51965,35.33223],[128.51969,35.3322],[128.52169,35.33146],[128.52179,35.33143],[128.52188,35.33141],[128.52534,35.33114],[128.52546,35.33114],[128.52667,35.32918],[128.52696,35.32759],[128.52725,35.3266],[128.5276,35.32555],[128.52796,35.32484],[128.52805,35.32469],[128.52815,35.32459],[128.52828,35.32448],[128.52848,35.32434],[128.52858,35.32429],[128.52868,35.32424],[128.52889,35.32413],[128.53007,35.32357],[128.53015,35.32356],[128.53023,35.32354],[128.5319,35.32348],[128.53204,35.32348],[128.53297,35.32352],[128.53311,35.32355],[128.53456,35.32389],[128.53419,35.32235],[128.53364,35.32129],[128.53023,35.31969],[128.52981,35.31952],[128.52528,35.31782],[128.52492,35.31798],[128.52467,35.3181],[128.52352,35.31845],[128.51935,35.31889],[128.5186,35.31881],[128.51821,35.31808],[128.51782,35.31776],[128.51719,35.31776],[128.51586,35.31785],[128.51365,35.31793],[128.5139,35.31687],[128.51399,35.31642],[128.51401,35.31579],[128.51378,35.315],[128.51282,35.3141],[128.51262,35.3141],[128.51255,35.3141],[128.5117,35.31417],[128.51134,35.3142],[128.51107,35.31422],[128.51085,35.31428],[128.51076,35.31436],[128.5106,35.31452],[128.51034,35.3148],[128.50989,35.31514],[128.50959,35.31533],[128.50936,35.31544],[128.50925,35.31547],[128.50916,35.31548],[128.50906,35.31547],[128.50572,35.31483],[128.50217,35.31327],[128.50208,35.31322],[128.502,35.31316],[128.50195,35.3131],[128.50198,35.31302],[128.50218,35.31272],[128.50275,35.31187],[128.50286,35.31172],[128.50302,35.31156],[128.50337,35.3113],[128.50379,35.31098],[128.50392,35.31084],[128.50399,35.31073],[128.504,35.31058],[128.50398,35.31022],[128.50397,35.31003],[128.50387,35.30926],[128.50384,35.30908],[128.50368,35.30839],[128.50362,35.30814],[128.50335,35.30719],[128.50317,35.30666],[128.50314,35.30662],[128.50308,35.30657],[128.50091,35.30522],[128.49991,35.30482],[128.49964,35.30471],[128.49929,35.30464],[128.49905,35.30463],[128.49852,35.30462],[128.49779,35.30463],[128.49769,35.30466],[128.49751,35.30475],[128.49728,35.30489],[128.49664,35.30551],[128.49541,35.30604],[128.49354,35.30642],[128.49349,35.30643],[128.49345,35.30643],[128.4933,35.30641],[128.49091,35.30574],[128.4899,35.30542],[128.48975,35.30536],[128.4896,35.30532],[128.48949,35.30532],[128.48845,35.3053],[128.48832,35.3053],[128.48811,35.30531],[128.48799,35.30532],[128.48779,35.30537],[128.48066,35.30706],[128.48056,35.30696],[128.4793,35.30609],[128.47906,35.30593],[128.47896,35.3059],[128.47889,35.30589],[128.47799,35.30596],[128.47769,35.30599],[128.47751,35.30602],[128.47732,35.30608],[128.47317,35.30716],[128.46847,35.30831],[128.46819,35.30834],[128.46736,35.30835],[128.4673,35.30834],[128.467,35.30824],[128.46673,35.30812],[128.46647,35.30793],[128.46582,35.30746],[128.4648,35.30905],[128.46472,35.30919],[128.46461,35.30947],[128.46412,35.31089],[128.46332,35.3137],[128.46457,35.31379],[128.4648,35.3138],[128.4649,35.31373],[128.46498,35.31368],[128.46512,35.31361],[128.46529,35.31355],[128.46539,35.31355],[128.46549,35.31354],[128.4656,35.31354],[128.46799,35.31367],[128.47141,35.3139],[128.47165,35.31396],[128.4717,35.31398],[128.47174,35.314],[128.4718,35.31405],[128.47188,35.31411],[128.47418,35.31636],[128.47421,35.31642],[128.47439,35.31842],[128.474,35.31986],[128.474,35.3199],[128.47401,35.31994],[128.47431,35.3204],[128.47443,35.32055],[128.47447,35.32059],[128.47455,35.32062],[128.4766,35.3215],[128.47676,35.32155],[128.47695,35.32155],[128.47789,35.32157],[128.47819,35.32157],[128.47848,35.32154],[128.47877,35.32152],[128.47883,35.3215],[128.47895,35.32143],[128.47904,35.32135],[128.47919,35.32127],[128.47971,35.32109],[128.47981,35.32108],[128.47991,35.32108],[128.48003,35.32108],[128.48036,35.32107],[128.48067,35.32111],[128.48082,35.32113],[128.48098,35.32115],[128.48114,35.32117],[128.48129,35.3212],[128.48158,35.32125],[128.48283,35.32155],[128.48289,35.32159],[128.48293,35.32162],[128.48364,35.32222],[128.48375,35.32234],[128.48382,35.32245],[128.48409,35.32297],[128.48488,35.32454],[128.48496,35.32474],[128.48501,35.32493],[128.48503,35.32507],[128.4851,35.32593],[128.48511,35.32611],[128.48373,35.33113],[128.48371,35.33118],[128.48316,35.33238],[128.48307,35.3325],[128.483,35.33259],[128.48291,35.33266],[128.48246,35.33292],[128.47904,35.33457],[128.47891,35.33462],[128.47887,35.33463],[128.47708,35.3348],[128.47527,35.33514],[128.4752,35.33516],[128.47513,35.33517],[128.47496,35.33522],[128.47489,35.33524],[128.47482,35.33526],[128.47462,35.33535],[128.47387,35.33576],[128.47375,35.33583],[128.47373,35.33584],[128.47364,35.33593],[128.47356,35.33602],[128.47353,35.33606],[128.47351,35.33609],[128.4734,35.33624],[128.47246,35.33827],[128.47242,35.33835],[128.47233,35.33859],[128.47229,35.33876],[128.47227,35.33888],[128.47226,35.339],[128.47227,35.33912],[128.47229,35.33921],[128.4723,35.33924],[128.47233,35.33926],[128.47242,35.33931],[128.47265,35.33943],[128.4729,35.33958],[128.4731,35.3397],[128.47314,35.33974],[128.47317,35.33978],[128.47434,35.34136],[128.47443,35.34152],[128.47449,35.34168],[128.47454,35.34184],[128.47453,35.3419],[128.47452,35.34194],[128.47448,35.34199],[128.47443,35.34201],[128.47423,35.34204],[128.47372,35.34212],[128.46949,35.34352],[128.46767,35.34422],[128.46761,35.34426],[128.46754,35.3443],[128.46746,35.34437],[128.46742,35.34444],[128.46737,35.34457],[128.46734,35.34467],[128.46734,35.34474],[128.46734,35.34477],[128.46757,35.34552],[128.46679,35.34704],[128.46594,35.34814],[128.46477,35.3507],[128.46476,35.35075],[128.46476,35.35078],[128.46555,35.35245],[128.46564,35.35259],[128.46571,35.35267],[128.46579,35.35276],[128.46585,35.35281],[128.46589,35.35282],[128.46746,35.35316],[128.46759,35.35315],[128.46778,35.35313],[128.46791,35.35308],[128.46795,35.35306],[128.46796,35.35296],[128.46796,35.35284],[128.46791,35.35268],[128.4679,35.35256],[128.46791,35.35247],[128.46796,35.35231],[128.46801,35.35226],[128.46808,35.35221],[128.46909,35.35178],[128.46926,35.35171],[128.4694,35.35169],[128.46951,35.35169],[128.46967,35.35174],[128.47017,35.35192],[128.47478,35.35477],[128.47481,35.3548],[128.47482,35.35484],[128.47484,35.35491],[128.47499,35.36209],[128.47103,35.36549],[128.47095,35.36556],[128.47084,35.36566],[128.47007,35.36643],[128.47003,35.36647],[128.46998,35.36653],[128.46993,35.36662],[128.4699,35.36672],[128.46845,35.37208],[128.46845,35.37211],[128.4695,35.37548],[128.47015,35.3767],[128.47021,35.37676],[128.47025,35.37679],[128.47029,35.37681],[128.4704,35.37684],[128.47068,35.37691],[128.47085,35.37697],[128.47093,35.37702],[128.47102,35.37708],[128.47111,35.37716],[128.47122,35.37725],[128.47134,35.37737],[128.47136,35.37742],[128.47136,35.37747],[128.47134,35.37752],[128.47124,35.3777],[128.47097,35.37817],[128.47088,35.3783],[128.47074,35.37841],[128.4705,35.37854],[128.47027,35.37862],[128.47011,35.37864],[128.46996,35.37866],[128.46974,35.37865],[128.46922,35.37859],[128.46804,35.38031],[128.46841,35.38029],[128.46906,35.38026],[128.47152,35.38037],[128.47206,35.38039],[128.47627,35.38074],[128.4766,35.38077],[128.47694,35.38081],[128.47726,35.38085],[128.47749,35.38089],[128.47866,35.38113],[128.47879,35.38117],[128.47988,35.38151],[128.48013,35.3816],[128.4803,35.38167],[128.48043,35.38173],[128.48057,35.38181],[128.4807,35.38189],[128.48109,35.38212],[128.48124,35.38223],[128.48135,35.38231],[128.48161,35.3825],[128.48192,35.38275],[128.48219,35.38297],[128.48249,35.38323],[128.48353,35.38411],[128.4838,35.38437],[128.48428,35.38483],[128.48473,35.38528],[128.48519,35.38575],[128.48564,35.3862],[128.48571,35.38628],[128.48579,35.38637],[128.4861,35.38665],[128.48628,35.38682],[128.48667,35.38718],[128.48681,35.38729],[128.48695,35.38741],[128.48775,35.38805],[128.48837,35.38852],[128.48901,35.38899],[128.49005,35.38973],[128.49124,35.39057],[128.49193,35.39106],[128.49224,35.39127],[128.49255,35.39148],[128.49291,35.39172],[128.49357,35.39219],[128.49488,35.39312],[128.49527,35.39341],[128.49552,35.39359],[128.49614,35.39406],[128.49675,35.39456],[128.49796,35.39556],[128.49818,35.39571],[128.499,35.39623],[128.49929,35.39641],[128.50188,35.39792],[128.50233,35.39813],[128.50278,35.39832],[128.50319,35.39848],[128.50349,35.39859],[128.50408,35.39872],[128.50654,35.39911],[128.50677,35.39913],[128.50726,35.39917],[128.50819,35.39918],[128.50838,35.39918],[128.50895,35.39912],[128.51147,35.39837],[128.51177,35.39826],[128.51207,35.39815],[128.5124,35.39798],[128.51274,35.39781],[128.51335,35.39749],[128.51602,35.3959],[128.51757,35.39505],[128.5187,35.39443]]]]}},{"type":"Feature","properties":{"code":"48730360","name":"칠북면","parent":"48730"},"geometry":{"type":"MultiPolygon","coordinates":[[[[128.54735,35.38119],[128.54778,35.38089],[128.54834,35.38062],[128.54854,35.38053],[128.54875,35.38043],[128.54894,35.38034],[128.54917,35.38024],[128.54959,35.38008],[128.55085,35.37965],[128.55126,35.37952],[128.55147,35.37946],[128.55164,35.37941],[128.55222,35.37924],[128.5529,35.37905],[128.55295,35.37904],[128.55302,35.37903],[128.55334,35.37895],[128.5535,35.37893],[128.55359,35.37891],[128.55397,35.37887],[128.55474,35.37879],[128.55499,35.37877],[128.55515,35.37875],[128.5557,35.37872],[128.55599,35.37871],[128.55843,35.37862],[128.55914,35.3786],[128.56545,35.37857],[128.56953,35.37865],[128.5705,35.3787],[128.57278,35.37884],[128.57698,35.37916],[128.57674,35.37844],[128.57607,35.37645],[128.576,35.37606],[128.57622,35.37277],[128.57723,35.3698],[128.57741,35.36939],[128.57781,35.36802],[128.57756,35.36722],[128.57697,35.36609],[128.57685,35.36595],[128.57415,35.36334],[128.57332,35.36267],[128.57322,35.36262],[128.57307,35.36254],[128.57231,35.36221],[128.57177,35.36193],[128.57166,35.36187],[128.57157,35.36178],[128.57149,35.36169],[128.57144,35.3616],[128.5714,35.36148],[128.57136,35.36114],[128.57135,35.361],[128.57144,35.35975],[128.57154,35.35882],[128.57156,35.35876],[128.57153,35.3587],[128.57142,35.3586],[128.5709,35.35815],[128.57079,35.35808],[128.57055,35.35799],[128.56959,35.35768],[128.56773,35.35734],[128.56673,35.35728],[128.56569,35.35723],[128.56253,35.35701],[128.56146,35.35604],[128.55947,35.35275],[128.56008,35.35176],[128.56011,35.3517],[128.56014,35.35168],[128.56395,35.35008],[128.56296,35.34781],[128.56289,35.34766],[128.56272,35.34719],[128.56271,35.34707],[128.56271,35.34702],[128.56272,35.34696],[128.56279,35.34692],[128.56403,35.34611],[128.56534,35.345],[128.56613,35.34259],[128.56613,35.34255],[128.56609,35.34249],[128.56598,35.34238],[128.56585,35.3423],[128.56539,35.34202],[128.56526,35.34191],[128.56515,35.34181],[128.56459,35.34119],[128.56458,35.34116],[128.56597,35.33889],[128.56602,35.33882],[128.56619,35.33868],[128.5664,35.33852],[128.56662,35.33841],[128.56691,35.33832],[128.56742,35.33823],[128.56773,35.33818],[128.56795,35.33811],[128.56805,35.33806],[128.56931,35.33725],[128.56943,35.33716],[128.5695,35.3371],[128.57019,35.33598],[128.5702,35.33579],[128.57016,35.33555],[128.56992,35.33437],[128.56986,35.33416],[128.56862,35.3324],[128.56673,35.32974],[128.56537,35.3286],[128.56513,35.32838],[128.56505,35.32831],[128.56353,35.32628],[128.56335,35.32586],[128.56305,35.32554],[128.5603,35.32524],[128.55541,35.32521],[128.55404,35.325],[128.5511,35.3245],[128.54999,35.32432],[128.54971,35.32451],[128.54841,35.32543],[128.54683,35.32654],[128.5434,35.32731],[128.54204,35.3271],[128.54002,35.32659],[128.53707,35.32586],[128.53456,35.32389],[128.53311,35.32355],[128.53297,35.32352],[128.53204,35.32348],[128.5319,35.32348],[128.53023,35.32354],[128.53015,35.32356],[128.53007,35.32357],[128.52889,35.32413],[128.52868,35.32424],[128.52858,35.32429],[128.52848,35.32434],[128.52828,35.32448],[128.52815,35.32459],[128.52805,35.32469],[128.52796,35.32484],[128.5276,35.32555],[128.52725,35.3266],[128.52696,35.32759],[128.52667,35.32918],[128.52546,35.33114],[128.52534,35.33114],[128.52188,35.33141],[128.52179,35.33143],[128.52169,35.33146],[128.51969,35.3322],[128.51965,35.33223],[128.5187,35.33575],[128.5186,35.3358],[128.51725,35.33658],[128.5167,35.33698],[128.51588,35.33778],[128.51583,35.33785],[128.51524,35.33891],[128.51519,35.33901],[128.51529,35.33914],[128.51541,35.33927],[128.51555,35.33943],[128.5156,35.33948],[128.51576,35.33967],[128.51587,35.3398],[128.51591,35.3399],[128.51591,35.33995],[128.5159,35.34003],[128.51561,35.34078],[128.51521,35.34177],[128.51454,35.34313],[128.51444,35.34328],[128.51354,35.34452],[128.51344,35.3446],[128.51334,35.34465],[128.51327,35.34468],[128.51322,35.34468],[128.51306,35.34466],[128.51244,35.34452],[128.51228,35.34448],[128.51209,35.34443],[128.51187,35.34435],[128.51169,35.34429],[128.51146,35.34422],[128.51129,35.34423],[128.51122,35.34423],[128.51114,35.34423],[128.50932,35.34471],[128.50863,35.3449],[128.50815,35.34504],[128.50796,35.34511],[128.50776,35.34519],[128.50761,35.34526],[128.50031,35.34901],[128.50022,35.34908],[128.50013,35.34914],[128.49802,35.35072],[128.49814,35.35306],[128.49869,35.35339],[128.49899,35.35357],[128.49919,35.35371],[128.49941,35.35388],[128.49966,35.35412],[128.50134,35.35592],[128.50153,35.3562],[128.50158,35.35641],[128.50157,35.3565],[128.50146,35.3568],[128.50125,35.35719],[128.50112,35.3575],[128.50095,35.35794],[128.5009,35.35824],[128.50095,35.35855],[128.50168,35.36118],[128.50181,35.3615],[128.50197,35.36183],[128.50223,35.36217],[128.50744,35.36912],[128.51033,35.37285],[128.51122,35.37385],[128.51181,35.37421],[128.51205,35.37436],[128.5124,35.37458],[128.51928,35.37688],[128.52185,35.37754],[128.52194,35.37755],[128.52202,35.37757],[128.52214,35.37761],[128.52224,35.37765],[128.52239,35.37774],[128.52261,35.37789],[128.52278,35.37823],[128.52269,35.37924],[128.52264,35.3796],[128.52241,35.38026],[128.52223,35.38081],[128.52214,35.38125],[128.52212,35.38149],[128.52211,35.38153],[128.52218,35.38181],[128.52223,35.38193],[128.52472,35.3846],[128.52481,35.38466],[128.5249,35.38474],[128.52515,35.38487],[128.52555,35.38492],[128.52603,35.38492],[128.52631,35.3849],[128.52904,35.38415],[128.5316,35.38339],[128.53219,35.38315],[128.5325,35.38301],[128.53279,35.38286],[128.5331,35.38269],[128.53348,35.38244],[128.53476,35.38156],[128.5359,35.38076],[128.53631,35.38059],[128.53665,35.38044],[128.53749,35.38013],[128.5379,35.38],[128.53919,35.37963],[128.53999,35.3794],[128.54076,35.37919],[128.54098,35.37915],[128.54117,35.37913],[128.54143,35.3791],[128.54173,35.37906],[128.54188,35.37904],[128.54203,35.37903],[128.54243,35.37902],[128.54301,35.37902],[128.54568,35.3799],[128.54684,35.38079],[128.54735,35.38119]]]]}},{"type":"Feature","properties":{"code":"48730380","name":"산인면","parent":"48730"},"geometry":{"type":"MultiPolygon","coordinates":[[[[128.4648,35.3138],[128.46457,35.31379],[128.46332,35.3137],[128.46412,35.31089],[128.46461,35.30947],[128.46472,35.30919],[128.4648,35.30905],[128.46582,35.30746],[128.46587,35.30688],[128.46601,35.30496],[128.46602,35.30463],[128.46595,35.30439],[128.46588,35.30428],[128.46521,35.30338],[128.46506,35.30322],[128.46487,35.30306],[128.46392,35.30235],[128.46043,35.29659],[128.4574,35.29231],[128.45735,35.29098],[128.45937,35.28797],[128.46116,35.2857],[128.46261,35.28399],[128.46265,35.28309],[128.46267,35.28292],[128.46273,35.28284],[128.46282,35.28279],[128.46289,35.28275],[128.4716,35.27978],[128.47183,35.27971],[128.47204,35.27967],[128.47213,35.27965],[128.47221,35.27964],[128.47238,35.27961],[128.47258,35.27957],[128.47622,35.27895],[128.47634,35.27893],[128.47667,35.27897],[128.47755,35.27916],[128.47767,35.2792],[128.47787,35.27929],[128.47806,35.27936],[128.47811,35.2794],[128.47815,35.27943],[128.47835,35.27956],[128.4785,35.27964],[128.4786,35.27968],[128.47876,35.27972],[128.48121,35.27952],[128.48129,35.27951],[128.48139,35.27949],[128.48152,35.27946],[128.4817,35.27942],[128.48194,35.27934],[128.48214,35.27928],[128.4863,35.27749],[128.48988,35.27439],[128.49081,35.27369],[128.49078,35.27365],[128.49074,35.27344],[128.49063,35.27193],[128.49051,35.26996],[128.49095,35.26856],[128.49105,35.26781],[128.49114,35.26642],[128.4911,35.26588],[128.49108,35.26574],[128.49104,35.26566],[128.49098,35.26557],[128.48859,35.26359],[128.48771,35.26219],[128.4852,35.2576],[128.48392,35.25647],[128.48383,35.25641],[128.48368,35.25634],[128.48322,35.25621],[128.48296,35.25611],[128.48194,35.25564],[128.48169,35.25548],[128.48137,35.25525],[128.47884,35.25324],[128.47869,35.25307],[128.47687,35.2498],[128.47583,35.24779],[128.47438,35.24137],[128.47528,35.23885],[128.47581,35.23773],[128.47578,35.23686],[128.47576,35.23681],[128.47567,35.23669],[128.47555,35.23658],[128.47538,35.23645],[128.47535,35.23637],[128.47532,35.23624],[128.47507,35.2339],[128.475,35.22716],[128.47516,35.22622],[128.47534,35.22488],[128.47534,35.22475],[128.47517,35.22431],[128.47501,35.22386],[128.47421,35.22235],[128.46888,35.22284],[128.46616,35.22411],[128.46524,35.22465],[128.46519,35.22468],[128.46496,35.2249],[128.46471,35.22515],[128.46455,35.22536],[128.4645,35.22546],[128.46444,35.22562],[128.46439,35.22585],[128.4641,35.22738],[128.46407,35.22759],[128.46408,35.2278],[128.46413,35.22807],[128.46414,35.22826],[128.46409,35.22849],[128.46401,35.2287],[128.46387,35.22893],[128.46354,35.22928],[128.46344,35.22932],[128.45861,35.2313],[128.45415,35.23166],[128.45403,35.23164],[128.45392,35.23163],[128.45377,35.23163],[128.45371,35.23164],[128.45365,35.23165],[128.45253,35.23208],[128.45244,35.23214],[128.45236,35.23219],[128.45227,35.23226],[128.45219,35.23233],[128.45116,35.23324],[128.45106,35.23339],[128.45099,35.23362],[128.45093,35.23387],[128.45044,35.23686],[128.45075,35.23892],[128.45083,35.23895],[128.45091,35.23899],[128.45097,35.23902],[128.4511,35.23908],[128.45121,35.23918],[128.4513,35.23929],[128.45249,35.24195],[128.45252,35.24206],[128.45259,35.24312],[128.45259,35.24323],[128.45193,35.24425],[128.45182,35.24441],[128.45038,35.24628],[128.45031,35.24636],[128.45026,35.24641],[128.45007,35.24654],[128.44894,35.2473],[128.44882,35.24735],[128.44875,35.24737],[128.44775,35.24751],[128.4464,35.2482],[128.44633,35.24823],[128.44628,35.24827],[128.44551,35.24893],[128.44161,35.25307],[128.44067,35.25433],[128.44058,35.25447],[128.44049,35.25466],[128.43922,35.25818],[128.43987,35.25989],[128.44017,35.26043],[128.44026,35.26055],[128.4403,35.26057],[128.44035,35.2606],[128.4415,35.26109],[128.44325,35.26206],[128.44399,35.26281],[128.44528,35.26418],[128.44532,35.26422],[128.44535,35.26425],[128.44574,35.26492],[128.44578,35.26498],[128.4458,35.26511],[128.44581,35.26516],[128.44579,35.26527],[128.44572,35.26539],[128.4456,35.26548],[128.44544,35.2656],[128.44537,35.26562],[128.44532,35.26563],[128.44527,35.26563],[128.44519,35.26563],[128.44381,35.2655],[128.44243,35.26529],[128.44202,35.26509],[128.44179,35.26503],[128.44153,35.26502],[128.44126,35.26503],[128.44101,35.26509],[128.44076,35.26519],[128.44062,35.26526],[128.4405,35.26532],[128.43982,35.26568],[128.43876,35.26628],[128.43635,35.26771],[128.43498,35.26861],[128.43408,35.26934],[128.4339,35.26952],[128.43361,35.26981],[128.43343,35.26994],[128.4334,35.26996],[128.43079,35.27064],[128.42909,35.27102],[128.42898,35.27104],[128.42886,35.27104],[128.42854,35.27105],[128.42831,35.27106],[128.42812,35.27119],[128.428,35.2713],[128.4254,35.27402],[128.4253,35.27417],[128.42461,35.27622],[128.42458,35.27636],[128.42461,35.27647],[128.42466,35.27664],[128.42486,35.27699],[128.42489,35.27711],[128.42496,35.27739],[128.42499,35.27753],[128.42502,35.27779],[128.42502,35.27784],[128.42492,35.27848],[128.42488,35.27864],[128.42346,35.2792],[128.42319,35.27929],[128.42312,35.27931],[128.42304,35.27933],[128.42279,35.27937],[128.42236,35.27943],[128.42184,35.27944],[128.42148,35.27944],[128.42124,35.27944],[128.42115,35.27944],[128.42066,35.27944],[128.41999,35.27943],[128.42005,35.28056],[128.42011,35.28119],[128.42022,35.28215],[128.42026,35.28239],[128.42036,35.28341],[128.4204,35.28404],[128.42038,35.28434],[128.42033,35.28492],[128.42029,35.2852],[128.41971,35.28614],[128.4195,35.28646],[128.4189,35.28743],[128.41877,35.28769],[128.41864,35.28797],[128.41852,35.28829],[128.41841,35.28861],[128.4183,35.28894],[128.41775,35.29061],[128.41635,35.29745],[128.41627,35.29827],[128.41614,35.29969],[128.41619,35.29995],[128.41625,35.30013],[128.41666,35.30122],[128.41726,35.30091],[128.41784,35.30057],[128.42089,35.30006],[128.42363,35.30206],[128.42369,35.30211],[128.42376,35.30216],[128.42426,35.30258],[128.42438,35.30269],[128.42442,35.30273],[128.42449,35.3028],[128.42458,35.30291],[128.42465,35.30301],[128.42469,35.30306],[128.42509,35.30375],[128.42524,35.30405],[128.42527,35.3042],[128.42765,35.30767],[128.4299,35.30816],[128.43,35.30821],[128.43009,35.3083],[128.43012,35.30833],[128.43028,35.30849],[128.43132,35.30984],[128.43176,35.31071],[128.43181,35.31094],[128.43186,35.3112],[128.43185,35.31134],[128.43158,35.31261],[128.43259,35.31336],[128.43687,35.31623],[128.44145,35.31925],[128.44279,35.31968],[128.44327,35.3198],[128.44461,35.31963],[128.44474,35.31953],[128.44488,35.31948],[128.44518,35.3195],[128.44685,35.31964],[128.44701,35.31966],[128.4499,35.32045],[128.45014,35.32055],[128.45073,35.32085],[128.4509,35.32094],[128.45093,35.32097],[128.45095,35.32101],[128.45096,35.32109],[128.45096,35.32112],[128.45095,35.32123],[128.4509,35.32134],[128.45084,35.32163],[128.45079,35.32193],[128.45077,35.32206],[128.45077,35.32229],[128.45079,35.32245],[128.45081,35.32254],[128.45087,35.3227],[128.45207,35.32449],[128.45222,35.32468],[128.45238,35.32489],[128.45247,35.325],[128.45253,35.32505],[128.45256,35.32506],[128.45472,35.32517],[128.45488,35.32516],[128.45498,35.32515],[128.45554,35.32492],[128.45706,35.32484],[128.45713,35.32484],[128.45726,35.3248],[128.45737,35.32475],[128.45747,35.32467],[128.45917,35.3234],[128.45933,35.32328],[128.46247,35.32049],[128.46457,35.31848],[128.46502,35.31782],[128.46571,35.31663],[128.46578,35.3165],[128.4658,35.31644],[128.46583,35.31635],[128.46583,35.31622],[128.46578,35.31593],[128.46573,35.31564],[128.46571,35.3155],[128.46566,35.31536],[128.46561,35.31522],[128.46554,35.31508],[128.4648,35.3138]]]]}},{"type":"Feature","properties":{"code":"48730390","name":"여항면","parent":"48730"},"geometry":{"type":"MultiPolygon","coordinates":[[[[128.47421,35.22235],[128.47493,35.22089],[128.47668,35.21861],[128.47843,35.2162],[128.47843,35.21598],[128.47846,35.215],[128.47898,35.21258],[128.47902,35.21251],[128.47913,35.21241],[128.47949,35.21228],[128.47972,35.21223],[128.48013,35.21215],[128.48025,35.21216],[128.48211,35.21198],[128.48418,35.21168],[128.48424,35.21167],[128.48439,35.21155],[128.48549,35.2107],[128.48754,35.20906],[128.49004,35.20702],[128.49007,35.20698],[128.49011,35.2068],[128.49039,35.20448],[128.49002,35.20217],[128.48999,35.20206],[128.48831,35.19909],[128.48825,35.19901],[128.48818,35.19896],[128.48807,35.19891],[128.48775,35.1988],[128.48757,35.19873],[128.48744,35.19865],[128.48728,35.19856],[128.48712,35.19843],[128.48703,35.19834],[128.48547,35.19657],[128.48527,35.19629],[128.48505,35.19592],[128.48408,35.19423],[128.48403,35.19413],[128.48383,35.19358],[128.48246,35.19163],[128.48073,35.18932],[128.47897,35.18772],[128.47639,35.18869],[128.47624,35.18873],[128.47612,35.18875],[128.476,35.18876],[128.47013,35.18852],[128.46804,35.18849],[128.46763,35.18858],[128.46561,35.18885],[128.46538,35.18886],[128.46518,35.18884],[128.46507,35.18882],[128.46488,35.18877],[128.46394,35.18848],[128.46388,35.18846],[128.46382,35.1884],[128.46369,35.18824],[128.46323,35.1877],[128.46253,35.18691],[128.46232,35.18672],[128.46218,35.18667],[128.46187,35.1866],[128.46176,35.18658],[128.45992,35.18625],[128.45914,35.18616],[128.45894,35.18611],[128.4586,35.18598],[128.45822,35.18581],[128.45811,35.18572],[128.45802,35.18562],[128.45784,35.18528],[128.45771,35.1849],[128.45767,35.18467],[128.45768,35.18434],[128.45764,35.18413],[128.45759,35.18399],[128.45751,35.18388],[128.45741,35.18379],[128.45442,35.18256],[128.45016,35.1812],[128.44941,35.18097],[128.44886,35.18081],[128.44828,35.18067],[128.44629,35.18027],[128.4452,35.17521],[128.44395,35.17011],[128.44392,35.17002],[128.44387,35.16996],[128.43745,35.16518],[128.43731,35.1651],[128.43698,35.16495],[128.43633,35.16469],[128.43445,35.16411],[128.43429,35.16407],[128.43151,35.16394],[128.43134,35.16396],[128.43001,35.16422],[128.42991,35.16425],[128.42794,35.16554],[128.42781,35.16567],[128.42775,35.16578],[128.42768,35.16601],[128.42761,35.16619],[128.42752,35.16628],[128.42731,35.16642],[128.42676,35.16673],[128.42629,35.16696],[128.42152,35.16879],[128.41974,35.16919],[128.41644,35.17048],[128.41406,35.17505],[128.4099,35.17927],[128.40942,35.17928],[128.40631,35.17934],[128.40608,35.17974],[128.40365,35.18407],[128.40371,35.18602],[128.40519,35.19018],[128.40788,35.19236],[128.40578,35.19783],[128.40558,35.19834],[128.40652,35.19966],[128.40656,35.19971],[128.40659,35.19975],[128.4067,35.19985],[128.40989,35.20261],[128.4123,35.20462],[128.41246,35.20466],[128.41457,35.20545],[128.41484,35.20556],[128.41507,35.20565],[128.41545,35.20582],[128.41563,35.20593],[128.41565,35.20596],[128.41621,35.20725],[128.41673,35.20847],[128.41677,35.20857],[128.41682,35.20866],[128.41687,35.20874],[128.41692,35.2088],[128.41701,35.20888],[128.41714,35.20895],[128.42101,35.21077],[128.42129,35.21087],[128.42163,35.21097],[128.42391,35.21165],[128.42427,35.21154],[128.42447,35.21038],[128.42482,35.20882],[128.42492,35.20864],[128.42507,35.20848],[128.42608,35.20755],[128.42616,35.20752],[128.42622,35.20751],[128.43036,35.20819],[128.43047,35.20822],[128.43058,35.20824],[128.4308,35.2083],[128.43088,35.20832],[128.43099,35.20836],[128.43111,35.2084],[128.43125,35.20844],[128.43137,35.20848],[128.4319,35.2087],[128.43282,35.20914],[128.43283,35.20917],[128.43289,35.20927],[128.43295,35.20941],[128.43298,35.20955],[128.43318,35.21051],[128.43319,35.2107],[128.43318,35.21087],[128.43314,35.21101],[128.43312,35.21115],[128.43313,35.21121],[128.43317,35.21127],[128.43323,35.21133],[128.4333,35.2114],[128.43338,35.21149],[128.43439,35.21245],[128.43506,35.21307],[128.43514,35.21314],[128.43524,35.21323],[128.43533,35.2133],[128.43542,35.21338],[128.43558,35.21349],[128.43565,35.21352],[128.43587,35.21358],[128.43603,35.21361],[128.43612,35.21362],[128.43681,35.2137],[128.43689,35.2137],[128.43698,35.21368],[128.43707,35.21364],[128.4371,35.2136],[128.43711,35.21356],[128.43709,35.21351],[128.43706,35.21347],[128.43698,35.21335],[128.43682,35.2132],[128.43672,35.2131],[128.43612,35.21214],[128.43519,35.21046],[128.4351,35.21027],[128.43504,35.21008],[128.43501,35.20989],[128.43503,35.20957],[128.43504,35.20952],[128.43505,35.20949],[128.43511,35.20931],[128.43518,35.20914],[128.43524,35.20901],[128.43526,35.20896],[128.43548,35.2086],[128.43554,35.20854],[128.4356,35.20848],[128.43573,35.2084],[128.43589,35.2083],[128.43592,35.20829],[128.43596,35.20828],[128.4361,35.20827],[128.43619,35.20828],[128.43626,35.2083],[128.44612,35.21226],[128.44847,35.21325],[128.4486,35.21334],[128.44866,35.21338],[128.44882,35.21362],[128.44888,35.21371],[128.44905,35.21408],[128.4491,35.21419],[128.44958,35.21514],[128.45033,35.21651],[128.4504,35.21654],[128.45561,35.21879],[128.45852,35.21981],[128.45857,35.21982],[128.45861,35.21983],[128.45986,35.22038],[128.46306,35.22229],[128.46367,35.22289],[128.46518,35.22386],[128.4653,35.22392],[128.46538,35.22394],[128.46547,35.22396],[128.46616,35.22411],[128.46888,35.22284],[128.47421,35.22235]]]]}},{"type":"Feature","properties":{"code":"48730253","name":"칠원읍","parent":"48730"},"geometry":{"type":"MultiPolygon","coordinates":[[[[128.56335,35.32586],[128.56549,35.3254],[128.56653,35.32515],[128.56665,35.3251],[128.56675,35.32503],[128.56685,35.32492],[128.56756,35.3239],[128.56836,35.32273],[128.56913,35.32234],[128.57021,35.32185],[128.57096,35.32152],[128.57138,35.3211],[128.57233,35.31991],[128.57241,35.31977],[128.57241,35.31971],[128.57241,35.31961],[128.57237,35.31952],[128.57216,35.31836],[128.57198,35.31671],[128.57206,35.31581],[128.57207,35.31573],[128.57212,35.31562],[128.57219,35.31553],[128.57525,35.31302],[128.57561,35.31274],[128.57574,35.31265],[128.57585,35.31264],[128.57596,35.31262],[128.57608,35.31261],[128.57622,35.31261],[128.5763,35.31263],[128.57638,35.31264],[128.57649,35.31269],[128.57661,35.31273],[128.58132,35.30992],[128.58187,35.30954],[128.58267,35.30863],[128.58249,35.30828],[128.58119,35.30649],[128.58023,35.30646],[128.58,35.30646],[128.57991,35.30645],[128.5798,35.30643],[128.57965,35.30641],[128.57955,35.30638],[128.57865,35.30607],[128.57861,35.30606],[128.57639,35.30454],[128.5763,35.30447],[128.57625,35.30443],[128.57253,35.30116],[128.57238,35.30095],[128.5723,35.30069],[128.57355,35.29585],[128.57694,35.29113],[128.57984,35.28836],[128.58056,35.2879],[128.58106,35.28751],[128.58125,35.28707],[128.58188,35.28531],[128.58202,35.28491],[128.5823,35.28407],[128.58231,35.284],[128.5823,35.28393],[128.58229,35.28381],[128.58226,35.28372],[128.5821,35.28342],[128.58189,35.28293],[128.58168,35.28212],[128.58161,35.28187],[128.5816,35.28178],[128.58161,35.28167],[128.58162,35.28152],[128.58165,35.28139],[128.58174,35.28117],[128.5832,35.27864],[128.58322,35.27861],[128.58325,35.27859],[128.58328,35.27857],[128.58472,35.27775],[128.58506,35.27761],[128.58553,35.27744],[128.58583,35.27735],[128.58594,35.27735],[128.58608,35.27735],[128.58633,35.27735],[128.58678,35.27731],[128.58707,35.27727],[128.58729,35.27723],[128.58917,35.27678],[128.58934,35.27673],[128.58956,35.27666],[128.58969,35.27659],[128.58982,35.27649],[128.58994,35.27636],[128.59002,35.27623],[128.5901,35.276],[128.59105,35.27306],[128.59132,35.27212],[128.59134,35.27205],[128.59134,35.27186],[128.59131,35.27174],[128.59124,35.27159],[128.58762,35.27154],[128.58589,35.2715],[128.58572,35.27146],[128.58183,35.27046],[128.58162,35.27039],[128.58143,35.27031],[128.58053,35.26982],[128.57819,35.26913],[128.57774,35.26951],[128.57761,35.26961],[128.57639,35.27044],[128.57625,35.27052],[128.57456,35.27154],[128.57418,35.27171],[128.57097,35.27314],[128.56892,35.27395],[128.56291,35.2762],[128.56268,35.27625],[128.56253,35.27625],[128.56185,35.27616],[128.5611,35.2764],[128.55858,35.27712],[128.55838,35.27715],[128.55731,35.27733],[128.55711,35.27734],[128.557,35.27734],[128.5569,35.27731],[128.5555,35.27659],[128.55542,35.27654],[128.5554,35.27652],[128.55537,35.2765],[128.55533,35.27642],[128.55526,35.27622],[128.55521,35.27605],[128.55517,35.276],[128.55513,35.27594],[128.55499,35.27584],[128.55472,35.27569],[128.54515,35.27067],[128.54489,35.27062],[128.5448,35.27061],[128.54458,35.27064],[128.54434,35.27069],[128.54413,35.27074],[128.54397,35.27079],[128.54227,35.27153],[128.5385,35.27273],[128.53841,35.27275],[128.53832,35.27274],[128.53828,35.27272],[128.53824,35.27269],[128.53816,35.27261],[128.53764,35.27202],[128.53746,35.27182],[128.53666,35.27081],[128.53562,35.26908],[128.53552,35.26886],[128.5355,35.26874],[128.53552,35.26863],[128.53555,35.2685],[128.53566,35.26823],[128.53571,35.26804],[128.53572,35.26782],[128.53573,35.26766],[128.53567,35.26752],[128.53552,35.26728],[128.53544,35.26718],[128.53537,35.26711],[128.53508,35.2669],[128.53497,35.26684],[128.53487,35.26679],[128.53476,35.26676],[128.53464,35.26673],[128.5342,35.26664],[128.53373,35.26656],[128.53357,35.26654],[128.53343,35.26652],[128.53268,35.26648],[128.53242,35.26699],[128.53186,35.26739],[128.53115,35.26787],[128.52985,35.26863],[128.52938,35.26858],[128.52791,35.26822],[128.52581,35.26865],[128.52562,35.26871],[128.52558,35.26872],[128.52538,35.26879],[128.52517,35.26888],[128.52504,35.26896],[128.52494,35.26906],[128.52489,35.26928],[128.52495,35.26948],[128.52498,35.27005],[128.52495,35.27015],[128.52491,35.27018],[128.52488,35.27021],[128.52478,35.27024],[128.52473,35.27025],[128.52467,35.27025],[128.52458,35.27025],[128.52432,35.27023],[128.5217,35.26997],[128.52158,35.26993],[128.52093,35.26956],[128.52035,35.26924],[128.52015,35.26915],[128.5198,35.26901],[128.51962,35.26895],[128.51942,35.26888],[128.5189,35.26872],[128.51869,35.26867],[128.51858,35.26866],[128.51669,35.26849],[128.51571,35.2685],[128.51563,35.26851],[128.51557,35.26851],[128.51105,35.26899],[128.50871,35.27055],[128.50859,35.27087],[128.50747,35.27307],[128.50743,35.27314],[128.50735,35.27322],[128.50727,35.27327],[128.5072,35.27331],[128.50714,35.27335],[128.5063,35.27371],[128.50618,35.27375],[128.5061,35.27375],[128.50436,35.27374],[128.50413,35.27373],[128.50396,35.27372],[128.50377,35.27365],[128.50368,35.2736],[128.50357,35.27351],[128.50345,35.27341],[128.5034,35.27339],[128.50335,35.27339],[128.50327,35.2734],[128.50144,35.27381],[128.50129,35.27385],[128.49895,35.27485],[128.49757,35.27555],[128.4974,35.27564],[128.49735,35.27564],[128.49731,35.27564],[128.49728,35.27563],[128.4934,35.27453],[128.4933,35.2745],[128.49134,35.2739],[128.49081,35.27369],[128.48988,35.27439],[128.4863,35.27749],[128.48214,35.27928],[128.48194,35.27934],[128.4817,35.27942],[128.48152,35.27946],[128.48139,35.27949],[128.48129,35.27951],[128.48121,35.27952],[128.47876,35.27972],[128.4786,35.27968],[128.4785,35.27964],[128.47835,35.27956],[128.47815,35.27943],[128.47811,35.2794],[128.47806,35.27936],[128.47787,35.27929],[128.47767,35.2792],[128.47755,35.27916],[128.47667,35.27897],[128.47634,35.27893],[128.47622,35.27895],[128.47258,35.27957],[128.47238,35.27961],[128.47221,35.27964],[128.47213,35.27965],[128.47204,35.27967],[128.47183,35.27971],[128.4716,35.27978],[128.46289,35.28275],[128.46282,35.28279],[128.46273,35.28284],[128.46267,35.28292],[128.46265,35.28309],[128.46261,35.28399],[128.46116,35.2857],[128.45937,35.28797],[128.45735,35.29098],[128.4574,35.29231],[128.46043,35.29659],[128.46392,35.30235],[128.46487,35.30306],[128.46506,35.30322],[128.46521,35.30338],[128.46588,35.30428],[128.46595,35.30439],[128.46602,35.30463],[128.46601,35.30496],[128.46587,35.30688],[128.46582,35.30746],[128.46647,35.30793],[128.46673,35.30812],[128.467,35.30824],[128.4673,35.30834],[128.46736,35.30835],[128.46819,35.30834],[128.46847,35.30831],[128.47317,35.30716],[128.47732,35.30608],[128.47751,35.30602],[128.47769,35.30599],[128.47799,35.30596],[128.47889,35.30589],[128.47896,35.3059],[128.47906,35.30593],[128.4793,35.30609],[128.48056,35.30696],[128.48066,35.30706],[128.48779,35.30537],[128.48799,35.30532],[128.48811,35.30531],[128.48832,35.3053],[128.48845,35.3053],[128.48949,35.30532],[128.4896,35.30532],[128.48975,35.30536],[128.4899,35.30542],[128.49091,35.30574],[128.4933,35.30641],[128.49345,35.30643],[128.49349,35.30643],[128.49354,35.30642],[128.49541,35.30604],[128.49664,35.30551],[128.49728,35.30489],[128.49751,35.30475],[128.49769,35.30466],[128.49779,35.30463],[128.49852,35.30462],[128.49905,35.30463],[128.49929,35.30464],[128.49964,35.30471],[128.49991,35.30482],[128.50091,35.30522],[128.50308,35.30657],[128.50314,35.30662],[128.50317,35.30666],[128.50335,35.30719],[128.50362,35.30814],[128.50368,35.30839],[128.50384,35.30908],[128.50387,35.30926],[128.50397,35.31003],[128.50398,35.31022],[128.504,35.31058],[128.50399,35.31073],[128.50392,35.31084],[128.50379,35.31098],[128.50337,35.3113],[128.50302,35.31156],[128.50286,35.31172],[128.50275,35.31187],[128.50218,35.31272],[128.50198,35.31302],[128.50195,35.3131],[128.502,35.31316],[128.50208,35.31322],[128.50217,35.31327],[128.50572,35.31483],[128.50906,35.31547],[128.50916,35.31548],[128.50925,35.31547],[128.50936,35.31544],[128.50959,35.31533],[128.50989,35.31514],[128.51034,35.3148],[128.5106,35.31452],[128.51076,35.31436],[128.51085,35.31428],[128.51107,35.31422],[128.51134,35.3142],[128.5117,35.31417],[128.51255,35.3141],[128.51262,35.3141],[128.51282,35.3141],[128.51378,35.315],[128.51401,35.31579],[128.51399,35.31642],[128.5139,35.31687],[128.51365,35.31793],[128.51586,35.31785],[128.51719,35.31776],[128.51782,35.31776],[128.51821,35.31808],[128.5186,35.31881],[128.51935,35.31889],[128.52352,35.31845],[128.52467,35.3181],[128.52492,35.31798],[128.52528,35.31782],[128.52981,35.31952],[128.53023,35.31969],[128.53364,35.32129],[128.53419,35.32235],[128.53456,35.32389],[128.53707,35.32586],[128.54002,35.32659],[128.54204,35.3271],[128.5434,35.32731],[128.54683,35.32654],[128.54841,35.32543],[128.54971,35.32451],[128.54999,35.32432],[128.5511,35.3245],[128.55404,35.325],[128.55541,35.32521],[128.5603,35.32524],[128.56305,35.32554],[128.56335,35.32586]]]]}}]}