{"type":"FeatureCollection","features":[{"type":"Feature","properties":{"code":"11200520","name":"왕십리2동","parent":"11200"},"geometry":{"type":"MultiPolygon","coordinates":[[[[127.03351,37.56252],[127.03107,37.56033],[127.03058,37.56031],[127.03037,37.5604],[127.03025,37.56044],[127.0282,37.56027],[127.02809,37.56024],[127.02707,37.55977],[127.02678,37.55961],[127.02675,37.55959],[127.02671,37.55957],[127.02431,37.5579],[127.02286,37.55787],[127.02333,37.56074],[127.02349,37.56072],[127.02353,37.56073],[127.02627,37.56299],[127.0264,37.56321],[127.02648,37.56336],[127.0265,37.56339],[127.02659,37.56358],[127.02671,37.56388],[127.02676,37.56429],[127.02671,37.56499],[127.02742,37.56487],[127.03351,37.56252]]]]}},{"type":"Feature","properties":{"code":"11200540","name":"마장동","parent":"11200"},"geometry":{"type":"MultiPolygon","coordinates":[[[[127.04823,37.56538],[127.04737,37.56535],[127.047,37.56534],[127.0469,37.56533],[127.04689,37.56529],[127.0468,37.56495],[127.04672,37.56435],[127.0464,37.56376],[127.04624,37.56346],[127.04569,37.56259],[127.04554,37.56237],[127.04532,37.56222],[127.04529,37.5622],[127.04517,37.56217],[127.04151,37.56197],[127.03938,37.56194],[127.03919,37.56204],[127.03883,37.56285],[127.03882,37.5629],[127.0365,37.56604],[127.0348,37.56624],[127.03472,37.56625],[127.03304,37.56792],[127.03231,37.57014],[127.03476,37.57175],[127.0351,37.57196],[127.03545,37.57213],[127.03637,37.57246],[127.03648,37.5725],[127.03653,37.57252],[127.03793,37.5729],[127.03798,37.5729],[127.03865,37.57296],[127.04218,37.57302],[127.04289,37.57208],[127.04384,37.57094],[127.04529,37.57011],[127.04588,37.56969],[127.04598,37.56961],[127.04601,37.56957],[127.04662,37.56857],[127.04673,37.56839],[127.04776,37.56658],[127.04823,37.56538]]]]}},{"type":"Feature","properties":{"code":"11200550","name":"사근동","parent":"11200"},"geometry":{"type":"MultiPolygon","coordinates":[[[[127.04934,37.55264],[127.048,37.55288],[127.04793,37.55288],[127.04701,37.55298],[127.04691,37.55299],[127.04669,37.55301],[127.04664,37.55302],[127.0445,37.55301],[127.04176,37.5527],[127.03983,37.55292],[127.03902,37.55386],[127.03914,37.55408],[127.0392,37.55418],[127.03935,37.55448],[127.03946,37.55488],[127.0395,37.55508],[127.03953,37.55523],[127.03953,37.55537],[127.03954,37.55564],[127.03954,37.55574],[127.03952,37.55609],[127.03917,37.56086],[127.03883,37.56285],[127.03919,37.56204],[127.03938,37.56194],[127.04151,37.56197],[127.04517,37.56217],[127.04529,37.5622],[127.04532,37.56222],[127.04554,37.56237],[127.04569,37.56259],[127.04624,37.56346],[127.0464,37.56376],[127.04672,37.56435],[127.0468,37.56495],[127.04689,37.56529],[127.0469,37.56533],[127.047,37.56534],[127.04737,37.56535],[127.04823,37.56538],[127.0486,37.56494],[127.04979,37.56312],[127.05,37.56271],[127.05039,37.56182],[127.05043,37.5617],[127.05075,37.5608],[127.05166,37.55827],[127.05167,37.55689],[127.05116,37.555],[127.05061,37.554],[127.05048,37.55386],[127.04978,37.55311],[127.04934,37.55264]]]]}},{"type":"Feature","properties":{"code":"11200560","name":"행당1동","parent":"11200"},"geometry":{"type":"MultiPolygon","coordinates":[[[[127.03883,37.56285],[127.03917,37.56086],[127.03952,37.55609],[127.03954,37.55574],[127.03954,37.55564],[127.03953,37.55537],[127.03953,37.55523],[127.0395,37.55508],[127.03946,37.55488],[127.03935,37.55448],[127.0392,37.55418],[127.03914,37.55408],[127.03902,37.55386],[127.03423,37.5546],[127.03428,37.55486],[127.03408,37.55737],[127.03398,37.55851],[127.03345,37.5584],[127.03281,37.55827],[127.03077,37.55786],[127.03071,37.55813],[127.03065,37.55838],[127.03063,37.55847],[127.03107,37.56033],[127.03351,37.56252],[127.03446,37.5619],[127.0345,37.56188],[127.03545,37.56128],[127.03559,37.56152],[127.0358,37.56199],[127.03585,37.56213],[127.03599,37.56245],[127.03615,37.56345],[127.03617,37.56359],[127.03621,37.56389],[127.03629,37.56451],[127.03632,37.56471],[127.0365,37.56604],[127.03882,37.5629],[127.03883,37.56285]]]]}},{"type":"Feature","properties":{"code":"11200570","name":"행당2동","parent":"11200"},"geometry":{"type":"MultiPolygon","coordinates":[[[[127.03107,37.56033],[127.03063,37.55847],[127.03065,37.55838],[127.03071,37.55813],[127.03077,37.55786],[127.03281,37.55827],[127.03345,37.5584],[127.03398,37.55851],[127.03408,37.55737],[127.03428,37.55486],[127.03421,37.55477],[127.03408,37.55461],[127.034,37.55452],[127.03194,37.55296],[127.03172,37.55293],[127.03136,37.55292],[127.02951,37.55391],[127.0293,37.55386],[127.0291,37.55387],[127.0281,37.55412],[127.02593,37.55493],[127.02589,37.55495],[127.02574,37.55502],[127.0249,37.5557],[127.02488,37.55573],[127.02431,37.5579],[127.02671,37.55957],[127.02675,37.55959],[127.02678,37.55961],[127.02707,37.55977],[127.02809,37.56024],[127.0282,37.56027],[127.03025,37.56044],[127.03037,37.5604],[127.03058,37.56031],[127.03107,37.56033]]]]}},{"type":"Feature","properties":{"code":"11200580","name":"응봉동","parent":"11200"},"geometry":{"type":"MultiPolygon","coordinates":[[[[127.03902,37.55386],[127.03983,37.55292],[127.04005,37.55277],[127.04046,37.5525],[127.04006,37.55133],[127.03438,37.54816],[127.0325,37.54675],[127.03236,37.54672],[127.03122,37.54657],[127.0304,37.54627],[127.02953,37.5492],[127.02898,37.5491],[127.02951,37.55391],[127.03136,37.55292],[127.03172,37.55293],[127.03194,37.55296],[127.034,37.55452],[127.03408,37.55461],[127.03421,37.55477],[127.03428,37.55486],[127.03423,37.5546],[127.03902,37.55386]]]]}},{"type":"Feature","properties":{"code":"11200590","name":"금호1가동","parent":"11200"},"geometry":{"type":"MultiPolygon","coordinates":[[[[127.02951,37.55391],[127.02898,37.5491],[127.02587,37.54832],[127.02607,37.54935],[127.02607,37.54943],[127.02608,37.54996],[127.02593,37.55039],[127.02549,37.55163],[127.0253,37.552],[127.02524,37.55212],[127.02478,37.55252],[127.02445,37.55266],[127.02426,37.55274],[127.02412,37.5528],[127.02343,37.55307],[127.0234,37.55308],[127.02332,37.5531],[127.02308,37.55317],[127.02274,37.55326],[127.01998,37.5557],[127.01946,37.55734],[127.01937,37.5575],[127.02182,37.55771],[127.02286,37.55787],[127.02431,37.5579],[127.02488,37.55573],[127.0249,37.5557],[127.02574,37.55502],[127.02589,37.55495],[127.02593,37.55493],[127.0281,37.55412],[127.0291,37.55387],[127.0293,37.55386],[127.02951,37.55391]]]]}},{"type":"Feature","properties":{"code":"11200620","name":"금호4가동","parent":"11200"},"geometry":{"type":"MultiPolygon","coordinates":[[[[127.0304,37.54627],[127.03075,37.54615],[127.03091,37.54606],[127.03109,37.54596],[127.031,37.54563],[127.03089,37.54526],[127.0315,37.54251],[127.02287,37.54145],[127.02269,37.54169],[127.0213,37.54336],[127.01971,37.54515],[127.01683,37.54573],[127.01519,37.54707],[127.01445,37.5481],[127.01488,37.5483],[127.01679,37.54847],[127.01924,37.54832],[127.02542,37.54808],[127.02587,37.54832],[127.02898,37.5491],[127.02953,37.5492],[127.0304,37.54627]]]]}},{"type":"Feature","properties":{"code":"11200650","name":"성수1가1동","parent":"11200"},"geometry":{"type":"MultiPolygon","coordinates":[[[[127.04958,37.54417],[127.05188,37.54347],[127.05116,37.54222],[127.05112,37.54215],[127.05107,37.54205],[127.05105,37.54201],[127.05101,37.54191],[127.05065,37.54079],[127.05063,37.54072],[127.05057,37.54055],[127.05055,37.54047],[127.05046,37.54011],[127.05045,37.54006],[127.05044,37.54002],[127.05084,37.5373],[127.05045,37.53671],[127.04976,37.53466],[127.04906,37.53255],[127.04667,37.534],[127.04031,37.5359],[127.0359,37.53584],[127.03599,37.53789],[127.0334,37.5413],[127.0315,37.54251],[127.03089,37.54526],[127.031,37.54563],[127.03109,37.54596],[127.03091,37.54606],[127.03075,37.54615],[127.0304,37.54627],[127.03122,37.54657],[127.03116,37.54628],[127.03112,37.54607],[127.03436,37.54543],[127.03559,37.54631],[127.03641,37.54717],[127.0365,37.54728],[127.03672,37.54756],[127.03918,37.5469],[127.04359,37.54596],[127.0438,37.54599],[127.04397,37.54623],[127.04476,37.54621],[127.04539,37.54614],[127.04678,37.5457],[127.04736,37.54549],[127.04912,37.54481],[127.04958,37.54417]]]]}},{"type":"Feature","properties":{"code":"11200660","name":"성수1가2동","parent":"11200"},"geometry":{"type":"MultiPolygon","coordinates":[[[[127.04934,37.55264],[127.05252,37.55169],[127.05218,37.55084],[127.04958,37.54417],[127.04912,37.54481],[127.04736,37.54549],[127.04678,37.5457],[127.04539,37.54614],[127.04476,37.54621],[127.04397,37.54623],[127.0438,37.54599],[127.04359,37.54596],[127.03918,37.5469],[127.03672,37.54756],[127.0365,37.54728],[127.03641,37.54717],[127.03559,37.54631],[127.03436,37.54543],[127.03112,37.54607],[127.03116,37.54628],[127.03122,37.54657],[127.03236,37.54672],[127.0325,37.54675],[127.03438,37.54816],[127.04006,37.55133],[127.04046,37.5525],[127.04005,37.55277],[127.03983,37.55292],[127.04176,37.5527],[127.0445,37.55301],[127.04664,37.55302],[127.04669,37.55301],[127.04691,37.55299],[127.04701,37.55298],[127.04793,37.55288],[127.048,37.55288],[127.04934,37.55264]]]]}},{"type":"Feature","properties":{"code":"11200670","name":"성수2가1동","parent":"11200"},"geometry":{"type":"MultiPolygon","coordinates":[[[[127.06283,37.54019],[127.05657,37.5291],[127.04906,37.53255],[127.04976,37.53466],[127.05045,37.53671],[127.05084,37.5373],[127.05044,37.54002],[127.05045,37.54006],[127.05046,37.54011],[127.05055,37.54047],[127.05057,37.54055],[127.05063,37.54072],[127.05065,37.54079],[127.05101,37.54191],[127.05105,37.54201],[127.05107,37.54205],[127.05112,37.54215],[127.05116,37.54222],[127.05188,37.54347],[127.06283,37.54019]]]]}},{"type":"Feature","properties":{"code":"11200690","name":"성수2가3동","parent":"11200"},"geometry":{"type":"MultiPolygon","coordinates":[[[[127.0675,37.54831],[127.06394,37.54215],[127.06283,37.54019],[127.05188,37.54347],[127.04958,37.54417],[127.05218,37.55084],[127.05458,37.55009],[127.05609,37.54949],[127.05643,37.54936],[127.05669,37.54926],[127.05726,37.54905],[127.05737,37.54901],[127.05829,37.54875],[127.05865,37.54865],[127.05925,37.54851],[127.06004,37.54833],[127.06113,37.54821],[127.06206,37.54812],[127.06225,37.5481],[127.06311,37.54809],[127.06659,37.54826],[127.0675,37.54831]]]]}},{"type":"Feature","properties":{"code":"11200720","name":"송정동","parent":"11200"},"geometry":{"type":"MultiPolygon","coordinates":[[[[127.0737,37.55944],[127.0675,37.54831],[127.06659,37.54826],[127.06311,37.54809],[127.06225,37.5481],[127.06206,37.54812],[127.06113,37.54821],[127.06004,37.54833],[127.05925,37.54851],[127.05865,37.54865],[127.05829,37.54875],[127.05737,37.54901],[127.05726,37.54905],[127.05669,37.54926],[127.05643,37.54936],[127.05609,37.54949],[127.05458,37.55009],[127.05218,37.55084],[127.05252,37.55169],[127.05392,37.5514],[127.05426,37.55131],[127.05477,37.55118],[127.05672,37.55062],[127.0586,37.55004],[127.05875,37.55],[127.05966,37.54972],[127.0598,37.54969],[127.05985,37.54967],[127.06048,37.54965],[127.06099,37.54967],[127.06136,37.54971],[127.06219,37.54982],[127.06242,37.54985],[127.06295,37.55005],[127.06321,37.55018],[127.06338,37.55027],[127.06343,37.5503],[127.06354,37.55035],[127.06391,37.55065],[127.06408,37.5508],[127.06495,37.55187],[127.0654,37.55266],[127.06555,37.55292],[127.06642,37.55407],[127.06838,37.55641],[127.06872,37.55674],[127.06876,37.55678],[127.06926,37.55726],[127.06936,37.55735],[127.06951,37.5575],[127.0718,37.55945],[127.0737,37.55944]]]]}},{"type":"Feature","properties":{"code":"11200790","name":"용답동","parent":"11200"},"geometry":{"type":"MultiPolygon","coordinates":[[[[127.05684,37.56377],[127.05777,37.56302],[127.05814,37.56276],[127.0582,37.56272],[127.05871,37.56246],[127.05905,37.56231],[127.05939,37.56223],[127.06331,37.56148],[127.0655,37.56115],[127.06555,37.56135],[127.06892,37.56087],[127.06969,37.56075],[127.07071,37.56058],[127.0721,37.56005],[127.0737,37.55944],[127.0718,37.55945],[127.06951,37.5575],[127.06936,37.55735],[127.06926,37.55726],[127.06876,37.55678],[127.06872,37.55674],[127.06838,37.55641],[127.06642,37.55407],[127.06555,37.55292],[127.0654,37.55266],[127.06495,37.55187],[127.06408,37.5508],[127.06391,37.55065],[127.06354,37.55035],[127.06343,37.5503],[127.06338,37.55027],[127.06321,37.55018],[127.06295,37.55005],[127.06242,37.54985],[127.06219,37.54982],[127.06136,37.54971],[127.06099,37.54967],[127.06048,37.54965],[127.05985,37.54967],[127.0598,37.54969],[127.05966,37.54972],[127.05875,37.55],[127.0586,37.55004],[127.05672,37.55062],[127.05477,37.55118],[127.05426,37.55131],[127.05392,37.5514],[127.05252,37.55169],[127.04934,37.55264],[127.04978,37.55311],[127.05048,37.55386],[127.05061,37.554],[127.05116,37.555],[127.05167,37.55689],[127.05166,37.55827],[127.05075,37.5608],[127.05043,37.5617],[127.05039,37.56182],[127.05,37.56271],[127.04979,37.56312],[127.0486,37.56494],[127.04823,37.56538],[127.04776,37.56658],[127.04673,37.56839],[127.04662,37.56857],[127.04601,37.56957],[127.04598,37.56961],[127.04588,37.56969],[127.04529,37.57011],[127.04384,37.57094],[127.04289,37.57208],[127.04218,37.57302],[127.04866,37.56987],[127.05684,37.56377]]]]}},{"type":"Feature","properties":{"code":"11200535","name":"왕십리도선동","parent":"11200"},"geometry":{"type":"MultiPolygon","coordinates":[[[[127.03231,37.57014],[127.03304,37.56792],[127.03472,37.56625],[127.0348,37.56624],[127.0365,37.56604],[127.03632,37.56471],[127.03629,37.56451],[127.03621,37.56389],[127.03617,37.56359],[127.03615,37.56345],[127.03599,37.56245],[127.03585,37.56213],[127.0358,37.56199],[127.03559,37.56152],[127.03545,37.56128],[127.0345,37.56188],[127.03446,37.5619],[127.03351,37.56252],[127.02742,37.56487],[127.02671,37.56499],[127.02362,37.56517],[127.0236,37.5658],[127.02337,37.57174],[127.03036,37.56982],[127.03231,37.57014]]]]}},{"type":"Feature","properties":{"code":"11200615","name":"금호2·3가동","parent":"11200"},"geometry":{"type":"MultiPolygon","coordinates":[[[[127.02587,37.54832],[127.02542,37.54808],[127.01924,37.54832],[127.01679,37.54847],[127.01488,37.5483],[127.01445,37.5481],[127.01437,37.54913],[127.01321,37.54994],[127.01631,37.55301],[127.01741,37.55598],[127.01788,37.55657],[127.01792,37.5566],[127.018,37.55666],[127.01837,37.55687],[127.01859,37.55699],[127.01877,37.55707],[127.01891,37.55713],[127.01946,37.55734],[127.01998,37.5557],[127.02274,37.55326],[127.02308,37.55317],[127.02332,37.5531],[127.0234,37.55308],[127.02343,37.55307],[127.02412,37.5528],[127.02426,37.55274],[127.02445,37.55266],[127.02478,37.55252],[127.02524,37.55212],[127.0253,37.552],[127.02549,37.55163],[127.02593,37.55039],[127.02608,37.54996],[127.02607,37.54943],[127.02607,37.54935],[127.02587,37.54832]]]]}},{"type":"Feature","properties":{"code":"11200645","name":"옥수동","parent":"11200"},"geometry":{"type":"MultiPolygon","coordinates":[[[[127.01445,37.5481],[127.01519,37.54707],[127.01683,37.54573],[127.01971,37.54515],[127.0213,37.54336],[127.02269,37.54169],[127.02287,37.54145],[127.0315,37.54251],[127.0334,37.5413],[127.03599,37.53789],[127.0359,37.53584],[127.02156,37.53553],[127.02092,37.53512],[127.01719,37.53742],[127.01576,37.53831],[127.01479,37.5389],[127.01289,37.53931],[127.01214,37.53919],[127.01213,37.53915],[127.01176,37.53904],[127.01153,37.53898],[127.00993,37.53937],[127.00947,37.53958],[127.00932,37.53968],[127.00834,37.54186],[127.00843,37.54286],[127.00858,37.54389],[127.00861,37.54398],[127.01068,37.54808],[127.01078,37.54809],[127.01081,37.5481],[127.01087,37.54812],[127.01148,37.54842],[127.01166,37.54851],[127.01321,37.54994],[127.01437,37.54913],[127.01445,37.5481]]]]}}]}