{"type":"FeatureCollection","features":[{"type":"Feature","properties":{"code":"41465510","name":"풍덕천1동","parent":"41465"},"geometry":{"type":"MultiPolygon","coordinates":[[[[127.10278,37.33319],[127.10276,37.33237],[127.10276,37.33225],[127.10276,37.33219],[127.10277,37.33136],[127.10277,37.33088],[127.10281,37.32923],[127.10292,37.32527],[127.10295,37.32473],[127.10298,37.32423],[127.10457,37.32364],[127.10281,37.32267],[127.1025,37.32251],[127.1022,37.3224],[127.10182,37.32229],[127.10157,37.32226],[127.10076,37.32216],[127.10032,37.32213],[127.09979,37.3221],[127.09936,37.32205],[127.0992,37.32201],[127.09874,37.32186],[127.09847,37.32168],[127.0982,37.32148],[127.09763,37.32095],[127.09616,37.32253],[127.09508,37.32367],[127.08966,37.32487],[127.0879,37.32478],[127.08786,37.32478],[127.08674,37.32515],[127.08556,37.32585],[127.0851,37.32626],[127.08471,37.3266],[127.08438,37.32704],[127.0842,37.32729],[127.08389,37.32783],[127.0838,37.32799],[127.08364,37.32876],[127.08366,37.32937],[127.08367,37.32957],[127.08395,37.33056],[127.08398,37.33064],[127.08404,37.33075],[127.0841,37.33084],[127.08457,37.33092],[127.08503,37.331],[127.08505,37.33104],[127.085,37.33118],[127.0849,37.33136],[127.08417,37.33167],[127.08201,37.33253],[127.0814,37.33276],[127.08152,37.33284],[127.08223,37.3333],[127.0824,37.33336],[127.08247,37.33336],[127.08431,37.33316],[127.08526,37.333],[127.08534,37.33298],[127.08938,37.33152],[127.08969,37.33077],[127.08966,37.33032],[127.09273,37.32953],[127.09367,37.33374],[127.0952,37.33319],[127.09916,37.33317],[127.09924,37.33318],[127.10088,37.33318],[127.10187,37.33319],[127.10278,37.33319]]]]}},{"type":"Feature","properties":{"code":"41465520","name":"풍덕천2동","parent":"41465"},"geometry":{"type":"MultiPolygon","coordinates":[[[[127.09763,37.32095],[127.09728,37.3202],[127.10035,37.31896],[127.09993,37.31364],[127.09983,37.31314],[127.09884,37.313],[127.09625,37.3133],[127.09393,37.31314],[127.09305,37.31431],[127.09203,37.31484],[127.09013,37.31449],[127.08749,37.31462],[127.08693,37.31384],[127.08688,37.3139],[127.08685,37.31393],[127.0866,37.31397],[127.0847,37.31407],[127.08451,37.31402],[127.08383,37.31383],[127.08336,37.31373],[127.08328,37.31372],[127.08316,37.31371],[127.08297,37.31369],[127.0828,37.31368],[127.08264,37.31368],[127.08245,37.3137],[127.08224,37.31375],[127.08186,37.31387],[127.08146,37.31401],[127.08112,37.31413],[127.08113,37.31434],[127.08114,37.31452],[127.08116,37.31465],[127.0812,37.31488],[127.08122,37.31499],[127.08137,37.31525],[127.08144,37.31537],[127.08217,37.31656],[127.08266,37.31735],[127.08303,37.31793],[127.08357,37.31893],[127.08474,37.32091],[127.08512,37.32136],[127.08517,37.32143],[127.08537,37.32166],[127.08448,37.32344],[127.08328,37.32581],[127.08318,37.32586],[127.08294,37.32589],[127.08253,37.32596],[127.0824,37.32602],[127.08233,37.32606],[127.08184,37.32636],[127.08097,37.32702],[127.08081,37.32726],[127.08071,37.32742],[127.08062,37.32813],[127.08019,37.33175],[127.0814,37.33276],[127.08201,37.33253],[127.08417,37.33167],[127.0849,37.33136],[127.085,37.33118],[127.08505,37.33104],[127.08503,37.331],[127.08457,37.33092],[127.0841,37.33084],[127.08404,37.33075],[127.08398,37.33064],[127.08395,37.33056],[127.08367,37.32957],[127.08366,37.32937],[127.08364,37.32876],[127.0838,37.32799],[127.08389,37.32783],[127.0842,37.32729],[127.08438,37.32704],[127.08471,37.3266],[127.0851,37.32626],[127.08556,37.32585],[127.08674,37.32515],[127.08786,37.32478],[127.0879,37.32478],[127.08966,37.32487],[127.09508,37.32367],[127.09616,37.32253],[127.09763,37.32095]]]]}},{"type":"Feature","properties":{"code":"41465530","name":"신봉동","parent":"41465"},"geometry":{"type":"MultiPolygon","coordinates":[[[[127.08019,37.33175],[127.08062,37.32813],[127.08071,37.32742],[127.08081,37.32726],[127.08097,37.32702],[127.08184,37.32636],[127.08233,37.32606],[127.0824,37.32602],[127.08253,37.32596],[127.08294,37.32589],[127.08318,37.32586],[127.08328,37.32581],[127.08448,37.32344],[127.08537,37.32166],[127.08517,37.32143],[127.08512,37.32136],[127.08474,37.32091],[127.08357,37.31893],[127.08303,37.31793],[127.08103,37.31891],[127.07894,37.31979],[127.07702,37.32005],[127.07689,37.32006],[127.07606,37.32026],[127.07427,37.32086],[127.07333,37.32165],[127.07328,37.3217],[127.06916,37.32318],[127.06909,37.3232],[127.06724,37.32375],[127.06716,37.32377],[127.06709,37.32377],[127.067,37.32377],[127.06577,37.32377],[127.06568,37.32377],[127.06308,37.32439],[127.06299,37.32443],[127.05845,37.32662],[127.05856,37.32761],[127.0586,37.32796],[127.05834,37.32805],[127.05821,37.3281],[127.05661,37.32822],[127.05477,37.32833],[127.05127,37.32834],[127.04446,37.32846],[127.04388,37.32847],[127.04317,37.32862],[127.0425,37.32886],[127.04148,37.32904],[127.04115,37.32907],[127.04061,37.32913],[127.04016,37.32914],[127.0401,37.32913],[127.03977,37.32908],[127.03941,37.32897],[127.03827,37.3285],[127.0378,37.3286],[127.03763,37.32865],[127.03748,37.32877],[127.03686,37.32944],[127.03595,37.331],[127.0359,37.33127],[127.03589,37.33156],[127.03594,37.33181],[127.03606,37.33211],[127.03602,37.33239],[127.03514,37.33392],[127.03501,37.33409],[127.03486,37.33429],[127.03483,37.33432],[127.03477,37.33438],[127.03458,37.33453],[127.03289,37.33573],[127.03163,37.33678],[127.0316,37.33683],[127.03153,37.337],[127.0315,37.33891],[127.03152,37.33922],[127.03201,37.34207],[127.03207,37.34238],[127.03303,37.34412],[127.03305,37.34417],[127.03324,37.34444],[127.03344,37.34471],[127.03596,37.34469],[127.03725,37.34368],[127.03764,37.34286],[127.0377,37.3428],[127.0397,37.34186],[127.03981,37.34181],[127.04003,37.34171],[127.04037,37.34157],[127.04082,37.3415],[127.04112,37.34147],[127.04139,37.34147],[127.04158,37.34149],[127.04256,37.34167],[127.04282,37.34176],[127.0435,37.34206],[127.04365,37.34215],[127.04399,37.34228],[127.04433,37.34233],[127.05104,37.34183],[127.05223,37.34213],[127.05244,37.34217],[127.05267,37.34218],[127.05276,37.34218],[127.0582,37.34117],[127.05837,37.34111],[127.06134,37.33999],[127.06659,37.3377],[127.06681,37.33755],[127.06698,37.33744],[127.0681,37.33651],[127.06822,37.33639],[127.06848,37.3361],[127.06866,37.33589],[127.06869,37.33585],[127.06884,37.33567],[127.06889,37.33556],[127.06892,37.33548],[127.06895,37.33525],[127.07309,37.3339],[127.07793,37.33238],[127.08019,37.33175]]]]}},{"type":"Feature","properties":{"code":"41465555","name":"죽전3동","parent":"41465"},"geometry":{"type":"MultiPolygon","coordinates":[[[[127.11121,37.32683],[127.11249,37.3272],[127.11485,37.32869],[127.11589,37.32916],[127.11865,37.32979],[127.12105,37.33029],[127.12323,37.3299],[127.12482,37.32969],[127.12672,37.32972],[127.12828,37.32945],[127.12878,37.3292],[127.12913,37.32877],[127.1291,37.32803],[127.12937,37.32759],[127.13081,37.32716],[127.13151,37.32698],[127.13376,37.32758],[127.13554,37.32783],[127.13686,37.32805],[127.13756,37.3283],[127.13861,37.32824],[127.14086,37.32893],[127.14132,37.32908],[127.14134,37.32886],[127.14148,37.32817],[127.14161,37.32772],[127.14182,37.32709],[127.14204,37.32669],[127.14213,37.32657],[127.14215,37.32654],[127.14224,37.32645],[127.14235,37.32634],[127.14237,37.3263],[127.14246,37.32577],[127.14243,37.32573],[127.1424,37.32571],[127.14236,37.32567],[127.14227,37.32562],[127.14208,37.32553],[127.1416,37.32531],[127.14148,37.32527],[127.14141,37.32525],[127.14117,37.32521],[127.14094,37.32508],[127.14085,37.32498],[127.14076,37.32487],[127.1407,37.3247],[127.14061,37.32455],[127.14048,37.32437],[127.14039,37.32428],[127.14024,37.32422],[127.14007,37.32419],[127.13996,37.32417],[127.13982,37.32418],[127.13969,37.3242],[127.13955,37.32431],[127.13948,37.3244],[127.13932,37.32455],[127.13891,37.32482],[127.13877,37.32491],[127.13865,37.32493],[127.13857,37.32493],[127.13853,37.32492],[127.13849,37.32492],[127.13832,37.32482],[127.13828,37.3248],[127.13824,37.32477],[127.13813,37.32468],[127.13803,37.32458],[127.13793,37.32449],[127.1378,37.3244],[127.13774,37.32436],[127.13764,37.32433],[127.13756,37.32431],[127.13751,37.32432],[127.13744,37.32433],[127.13725,37.32439],[127.13688,37.3246],[127.13678,37.32465],[127.13668,37.32468],[127.1366,37.3247],[127.13654,37.3247],[127.13574,37.32454],[127.13566,37.32451],[127.13561,37.32448],[127.13557,37.32445],[127.13552,37.32441],[127.1354,37.32431],[127.13511,37.3241],[127.13495,37.324],[127.13488,37.32396],[127.1348,37.32389],[127.13461,37.32374],[127.13445,37.32365],[127.13424,37.32355],[127.13411,37.32351],[127.13401,37.32346],[127.13395,37.32343],[127.13393,37.3234],[127.13372,37.32316],[127.13349,37.32286],[127.13334,37.32271],[127.13328,37.32266],[127.1332,37.32262],[127.13307,37.32256],[127.13296,37.32253],[127.13282,37.32249],[127.13278,37.32248],[127.1327,37.32244],[127.13265,37.32241],[127.13259,37.32237],[127.13373,37.32173],[127.13395,37.32157],[127.13463,37.31984],[127.1304,37.31792],[127.12709,37.31539],[127.12585,37.31523],[127.12626,37.31626],[127.12708,37.31842],[127.12669,37.3192],[127.1266,37.31933],[127.12456,37.32127],[127.12453,37.32128],[127.12337,37.3214],[127.12331,37.3214],[127.12328,37.3214],[127.12221,37.32126],[127.11765,37.32092],[127.1169,37.32091],[127.1131,37.3209],[127.1131,37.32104],[127.1131,37.32117],[127.1131,37.32207],[127.11304,37.32229],[127.11171,37.32397],[127.11151,37.32412],[127.11135,37.32421],[127.1108,37.32423],[127.11123,37.32452],[127.11143,37.32466],[127.11152,37.32478],[127.11161,37.325],[127.11164,37.32515],[127.11163,37.3254],[127.1116,37.32562],[127.11135,37.32649],[127.11121,37.32683]]]]}},{"type":"Feature","properties":{"code":"41465550","name":"죽전2동","parent":"41465"},"geometry":{"type":"MultiPolygon","coordinates":[[[[127.11275,37.33569],[127.11308,37.33423],[127.11326,37.33342],[127.11327,37.33338],[127.1133,37.33306],[127.11332,37.33276],[127.11334,37.33182],[127.1133,37.33155],[127.11315,37.33127],[127.11263,37.3305],[127.11178,37.32922],[127.1117,37.32909],[127.11146,37.32863],[127.11132,37.32832],[127.11131,37.32828],[127.11126,37.32817],[127.11123,37.32807],[127.11116,37.32781],[127.11113,37.32764],[127.11112,37.32724],[127.11112,37.32705],[127.11121,37.32683],[127.11135,37.32649],[127.1116,37.32562],[127.11163,37.3254],[127.11164,37.32515],[127.11161,37.325],[127.11152,37.32478],[127.11143,37.32466],[127.11123,37.32452],[127.1108,37.32423],[127.10457,37.32364],[127.10298,37.32423],[127.10295,37.32473],[127.10292,37.32527],[127.10281,37.32923],[127.10277,37.33088],[127.10277,37.33136],[127.10276,37.33219],[127.10276,37.33225],[127.10276,37.33237],[127.10278,37.33319],[127.1027,37.33996],[127.10307,37.33957],[127.10397,37.33861],[127.1048,37.33809],[127.105,37.33799],[127.10515,37.33793],[127.10518,37.33791],[127.10544,37.33783],[127.10562,37.33778],[127.1064,37.3374],[127.10694,37.33715],[127.10896,37.33601],[127.11031,37.33464],[127.11275,37.33569]]]]}},{"type":"Feature","properties":{"code":"41465560","name":"동천동","parent":"41465"},"geometry":{"type":"MultiPolygon","coordinates":[[[[127.07454,37.35317],[127.07459,37.35282],[127.07463,37.35272],[127.07483,37.35219],[127.07506,37.3517],[127.07521,37.35143],[127.07552,37.35105],[127.07618,37.35026],[127.07651,37.34992],[127.07713,37.3494],[127.07748,37.34916],[127.07762,37.34908],[127.07774,37.34905],[127.078,37.34907],[127.0781,37.3491],[127.07866,37.34934],[127.07987,37.34985],[127.08004,37.34993],[127.08084,37.35039],[127.08123,37.35073],[127.0813,37.35081],[127.0815,37.35096],[127.08175,37.35114],[127.08244,37.3516],[127.08267,37.35174],[127.08273,37.35176],[127.08283,37.3518],[127.08356,37.35203],[127.08368,37.35206],[127.08373,37.35206],[127.08378,37.35206],[127.08443,37.35206],[127.08459,37.35203],[127.08464,37.35202],[127.08549,37.35179],[127.08572,37.35172],[127.0862,37.35153],[127.08633,37.35147],[127.0864,37.35142],[127.08699,37.35096],[127.08701,37.35093],[127.0871,37.35069],[127.08714,37.35044],[127.08715,37.35005],[127.08719,37.34991],[127.08722,37.3498],[127.08728,37.34967],[127.08731,37.34961],[127.0875,37.34939],[127.08776,37.34915],[127.0878,37.34911],[127.08795,37.34899],[127.08817,37.34882],[127.08837,37.34869],[127.08887,37.3484],[127.09048,37.34778],[127.09246,37.34713],[127.09679,37.3434],[127.0969,37.3433],[127.09699,37.34322],[127.09705,37.3432],[127.09789,37.34301],[127.09814,37.34299],[127.10116,37.34311],[127.10225,37.34241],[127.1027,37.33996],[127.10278,37.33319],[127.10187,37.33319],[127.10088,37.33318],[127.09924,37.33318],[127.09916,37.33317],[127.0952,37.33319],[127.09367,37.33374],[127.09273,37.32953],[127.08966,37.33032],[127.08969,37.33077],[127.08938,37.33152],[127.08534,37.33298],[127.08526,37.333],[127.08431,37.33316],[127.08247,37.33336],[127.0824,37.33336],[127.08223,37.3333],[127.08152,37.33284],[127.0814,37.33276],[127.08019,37.33175],[127.07793,37.33238],[127.07309,37.3339],[127.06895,37.33525],[127.06892,37.33548],[127.06889,37.33556],[127.06884,37.33567],[127.06869,37.33585],[127.06866,37.33589],[127.06848,37.3361],[127.06822,37.33639],[127.0681,37.33651],[127.06698,37.33744],[127.06681,37.33755],[127.06659,37.3377],[127.06134,37.33999],[127.05837,37.34111],[127.0582,37.34117],[127.05276,37.34218],[127.05267,37.34218],[127.05244,37.34217],[127.05223,37.34213],[127.05104,37.34183],[127.04433,37.34233],[127.04399,37.34228],[127.04365,37.34215],[127.0435,37.34206],[127.04282,37.34176],[127.04256,37.34167],[127.04158,37.34149],[127.04139,37.34147],[127.04112,37.34147],[127.04082,37.3415],[127.04037,37.34157],[127.04003,37.34171],[127.03981,37.34181],[127.0397,37.34186],[127.0377,37.3428],[127.03764,37.34286],[127.03725,37.34368],[127.03596,37.34469],[127.03344,37.34471],[127.03195,37.34541],[127.02901,37.34738],[127.02878,37.34758],[127.02867,37.34762],[127.02649,37.34855],[127.02631,37.34862],[127.02611,37.34862],[127.02508,37.34854],[127.01881,37.35156],[127.01687,37.35375],[127.01613,37.35664],[127.01609,37.35693],[127.01611,37.35711],[127.01613,37.35724],[127.01637,37.35775],[127.01704,37.3588],[127.01755,37.35948],[127.01819,37.3603],[127.01825,37.36035],[127.02083,37.36214],[127.02148,37.36253],[127.02158,37.36258],[127.02183,37.36271],[127.02214,37.36282],[127.02232,37.36287],[127.02243,37.3629],[127.0229,37.36295],[127.02337,37.36333],[127.0237,37.36373],[127.02379,37.36386],[127.024,37.36421],[127.02458,37.3655],[127.02497,37.36651],[127.02559,37.36771],[127.02561,37.36773],[127.0257,37.36784],[127.0264,37.36836],[127.02658,37.36846],[127.02672,37.36854],[127.02681,37.36859],[127.02689,37.36863],[127.02692,37.36865],[127.02696,37.36869],[127.02698,37.36871],[127.02701,37.36874],[127.02704,37.36877],[127.02726,37.36914],[127.02731,37.36926],[127.02738,37.36944],[127.02748,37.36971],[127.02764,37.37023],[127.02797,37.37198],[127.02794,37.37214],[127.02934,37.37196],[127.02953,37.37203],[127.02956,37.37204],[127.0296,37.37206],[127.03016,37.37204],[127.0306,37.37197],[127.03568,37.37058],[127.04274,37.36904],[127.04485,37.36879],[127.04523,37.36873],[127.04534,37.3687],[127.04581,37.36852],[127.04585,37.36851],[127.04594,37.36847],[127.04609,37.36841],[127.04625,37.36831],[127.04634,37.36823],[127.04637,37.36817],[127.04659,37.36767],[127.04679,37.36715],[127.04681,37.3671],[127.04683,37.36706],[127.04687,37.36698],[127.04689,37.36695],[127.04699,37.3668],[127.04714,37.36666],[127.0474,37.36649],[127.04965,37.36523],[127.05098,37.36472],[127.05162,37.36443],[127.05186,37.3643],[127.05207,37.36419],[127.05251,37.36391],[127.0527,37.36377],[127.05288,37.3636],[127.05301,37.36344],[127.05305,37.36336],[127.05311,37.36326],[127.05315,37.36303],[127.05317,37.3628],[127.05313,37.36264],[127.05309,37.36251],[127.05292,37.36224],[127.05283,37.36211],[127.05282,37.36202],[127.05282,37.36196],[127.05284,37.36167],[127.0529,37.36128],[127.05295,37.36113],[127.053,37.36103],[127.05307,37.36094],[127.05403,37.36021],[127.05414,37.36015],[127.05424,37.36013],[127.05526,37.35997],[127.05541,37.35998],[127.05547,37.35998],[127.05574,37.36004],[127.05595,37.36011],[127.05616,37.36017],[127.05653,37.36034],[127.05666,37.36039],[127.05679,37.36044],[127.05766,37.36074],[127.05771,37.36075],[127.05799,37.36079],[127.0583,37.36081],[127.05875,37.36082],[127.05911,37.36083],[127.06055,37.36079],[127.06064,37.36078],[127.06075,37.36077],[127.06116,37.36072],[127.06307,37.36039],[127.06421,37.36007],[127.06661,37.35938],[127.06745,37.35913],[127.06867,37.3587],[127.06918,37.3585],[127.06937,37.35842],[127.07004,37.35812],[127.07013,37.35808],[127.07023,37.35803],[127.07052,37.35789],[127.07088,37.35768],[127.07117,37.35746],[127.07181,37.35697],[127.0725,37.3564],[127.07312,37.3558],[127.0732,37.3557],[127.07348,37.3554],[127.07351,37.35534],[127.07365,37.35513],[127.07404,37.35448],[127.07435,37.35383],[127.07447,37.35345],[127.07454,37.35317]]]]}},{"type":"Feature","properties":{"code":"41465585","name":"상현3동","parent":"41465"},"geometry":{"type":"MultiPolygon","coordinates":[[[[127.07217,37.31033],[127.07275,37.3095],[127.07217,37.30903],[127.07233,37.30843],[127.07195,37.30802],[127.07195,37.30782],[127.07115,37.30776],[127.07137,37.30732],[127.07205,37.30687],[127.07215,37.30658],[127.07233,37.30595],[127.07284,37.30506],[127.07352,37.30429],[127.07441,37.30388],[127.07411,37.30325],[127.07428,37.30307],[127.07676,37.30441],[127.07957,37.3018],[127.07982,37.30199],[127.08074,37.30111],[127.08157,37.30161],[127.08186,37.30127],[127.08109,37.30052],[127.08065,37.29991],[127.07979,37.29745],[127.07973,37.29641],[127.0798,37.29535],[127.07951,37.29411],[127.07934,37.29327],[127.07661,37.29379],[127.07255,37.2945],[127.07242,37.29452],[127.07196,37.2946],[127.07055,37.29484],[127.06752,37.29537],[127.06186,37.29636],[127.06059,37.29658],[127.06009,37.29946],[127.06056,37.3008],[127.06089,37.30139],[127.06104,37.30321],[127.06103,37.30339],[127.06101,37.3035],[127.06096,37.30375],[127.06089,37.30394],[127.06081,37.3041],[127.06075,37.30416],[127.06067,37.30422],[127.06061,37.30426],[127.06055,37.30429],[127.06051,37.3043],[127.06037,37.30432],[127.05994,37.30434],[127.05974,37.30435],[127.05942,37.30438],[127.05921,37.3044],[127.05901,37.30442],[127.0589,37.30445],[127.05867,37.30455],[127.0586,37.30458],[127.0583,37.30474],[127.05821,37.30481],[127.05819,37.30485],[127.05818,37.3049],[127.05818,37.30494],[127.05822,37.30503],[127.0583,37.30516],[127.05836,37.30527],[127.05887,37.3061],[127.06062,37.31094],[127.06068,37.31101],[127.06079,37.31109],[127.06096,37.31111],[127.06107,37.31112],[127.06888,37.31074],[127.06957,37.31069],[127.07018,37.31065],[127.07076,37.31055],[127.07124,37.31044],[127.07142,37.31039],[127.07179,37.31029],[127.07217,37.31033]]]]}},{"type":"Feature","properties":{"code":"41465580","name":"상현2동","parent":"41465"},"geometry":{"type":"MultiPolygon","coordinates":[[[[127.09393,37.31314],[127.0944,37.31238],[127.09288,37.31153],[127.09229,37.30994],[127.09154,37.30947],[127.09147,37.30928],[127.09148,37.30922],[127.09148,37.30919],[127.09149,37.30912],[127.09167,37.30891],[127.0928,37.30803],[127.09296,37.30796],[127.09329,37.30719],[127.09325,37.30446],[127.09303,37.30141],[127.09255,37.30113],[127.08988,37.29841],[127.08927,37.29764],[127.08832,37.29776],[127.08767,37.29787],[127.08559,37.29813],[127.08251,37.29698],[127.08146,37.29607],[127.081,37.29584],[127.08054,37.29546],[127.0798,37.29535],[127.07973,37.29641],[127.07979,37.29745],[127.08065,37.29991],[127.08109,37.30052],[127.08186,37.30127],[127.08277,37.3019],[127.08307,37.30378],[127.08294,37.30538],[127.08397,37.3061],[127.08433,37.30794],[127.08485,37.30928],[127.08479,37.30952],[127.0845,37.30974],[127.08318,37.31064],[127.08693,37.31384],[127.08749,37.31462],[127.09013,37.31449],[127.09203,37.31484],[127.09305,37.31431],[127.09393,37.31314]]]]}},{"type":"Feature","properties":{"code":"41465590","name":"성복동","parent":"41465"},"geometry":{"type":"MultiPolygon","coordinates":[[[[127.08303,37.31793],[127.08266,37.31735],[127.08217,37.31656],[127.08144,37.31537],[127.08137,37.31525],[127.08122,37.31499],[127.0812,37.31488],[127.08116,37.31465],[127.08114,37.31452],[127.08113,37.31434],[127.08112,37.31413],[127.08146,37.31401],[127.08186,37.31387],[127.08224,37.31375],[127.08245,37.3137],[127.08264,37.31368],[127.0828,37.31368],[127.08297,37.31369],[127.08316,37.31371],[127.08328,37.31372],[127.08336,37.31373],[127.08383,37.31383],[127.08451,37.31402],[127.0847,37.31407],[127.0866,37.31397],[127.08685,37.31393],[127.08688,37.3139],[127.08693,37.31384],[127.08318,37.31064],[127.08218,37.31018],[127.08214,37.31016],[127.08177,37.31001],[127.08078,37.31083],[127.07954,37.31028],[127.0783,37.31024],[127.07731,37.31158],[127.07684,37.31181],[127.07614,37.31161],[127.07588,37.31129],[127.07562,37.31095],[127.07484,37.31058],[127.07412,37.31055],[127.074,37.31053],[127.07264,37.31037],[127.07238,37.31034],[127.07217,37.31033],[127.07179,37.31029],[127.07142,37.31039],[127.07124,37.31044],[127.07076,37.31055],[127.07018,37.31065],[127.06957,37.31069],[127.06888,37.31074],[127.06107,37.31112],[127.06096,37.31111],[127.06079,37.31109],[127.06068,37.31101],[127.06062,37.31094],[127.06054,37.31098],[127.06033,37.3111],[127.06022,37.31116],[127.06,37.31133],[127.05977,37.31153],[127.05811,37.31337],[127.05804,37.31349],[127.0577,37.3143],[127.05765,37.31441],[127.05762,37.31473],[127.05763,37.3149],[127.05769,37.31506],[127.05773,37.31518],[127.05775,37.3154],[127.05775,37.31544],[127.05774,37.31551],[127.0577,37.31555],[127.05765,37.31556],[127.05409,37.31608],[127.05395,37.31609],[127.05391,37.31609],[127.05383,37.31609],[127.05278,37.31605],[127.05207,37.31578],[127.04995,37.31575],[127.04954,37.31579],[127.04945,37.3158],[127.04903,37.31592],[127.04728,37.31664],[127.04593,37.31726],[127.04214,37.31916],[127.04067,37.32003],[127.04056,37.32013],[127.04021,37.32072],[127.04,37.32117],[127.03992,37.32134],[127.03955,37.32177],[127.03792,37.32495],[127.03726,37.32637],[127.03725,37.32641],[127.03717,37.32717],[127.03718,37.32728],[127.03722,37.32733],[127.03827,37.3285],[127.03941,37.32897],[127.03977,37.32908],[127.0401,37.32913],[127.04016,37.32914],[127.04061,37.32913],[127.04115,37.32907],[127.04148,37.32904],[127.0425,37.32886],[127.04317,37.32862],[127.04388,37.32847],[127.04446,37.32846],[127.05127,37.32834],[127.05477,37.32833],[127.05661,37.32822],[127.05821,37.3281],[127.05834,37.32805],[127.0586,37.32796],[127.05856,37.32761],[127.05845,37.32662],[127.06299,37.32443],[127.06308,37.32439],[127.06568,37.32377],[127.06577,37.32377],[127.067,37.32377],[127.06709,37.32377],[127.06716,37.32377],[127.06724,37.32375],[127.06909,37.3232],[127.06916,37.32318],[127.07328,37.3217],[127.07333,37.32165],[127.07427,37.32086],[127.07606,37.32026],[127.07689,37.32006],[127.07702,37.32005],[127.07894,37.31979],[127.08103,37.31891],[127.08303,37.31793]]]]}},{"type":"Feature","properties":{"code":"41465540","name":"죽전1동","parent":"41465"},"geometry":{"type":"MultiPolygon","coordinates":[[[[127.14132,37.32908],[127.14086,37.32893],[127.13861,37.32824],[127.13756,37.3283],[127.13686,37.32805],[127.13554,37.32783],[127.13376,37.32758],[127.13151,37.32698],[127.13081,37.32716],[127.12937,37.32759],[127.1291,37.32803],[127.12913,37.32877],[127.12878,37.3292],[127.12828,37.32945],[127.12672,37.32972],[127.12482,37.32969],[127.12323,37.3299],[127.12105,37.33029],[127.11865,37.32979],[127.11589,37.32916],[127.11485,37.32869],[127.11249,37.3272],[127.11121,37.32683],[127.11112,37.32705],[127.11112,37.32724],[127.11113,37.32764],[127.11116,37.32781],[127.11123,37.32807],[127.11126,37.32817],[127.11131,37.32828],[127.11132,37.32832],[127.11146,37.32863],[127.1117,37.32909],[127.11178,37.32922],[127.11263,37.3305],[127.11315,37.33127],[127.1133,37.33155],[127.11334,37.33182],[127.11332,37.33276],[127.1133,37.33306],[127.11327,37.33338],[127.11326,37.33342],[127.11308,37.33423],[127.11275,37.33569],[127.11286,37.33569],[127.11291,37.3357],[127.11297,37.3357],[127.11308,37.3357],[127.1133,37.33567],[127.1134,37.33566],[127.11398,37.33551],[127.11467,37.33528],[127.11498,37.33505],[127.11509,37.3349],[127.11515,37.33477],[127.11524,37.33465],[127.11565,37.33428],[127.11673,37.33351],[127.11677,37.33348],[127.1168,37.33346],[127.11688,37.33341],[127.11699,37.33341],[127.11702,37.3334],[127.11707,37.3334],[127.11721,37.33343],[127.1197,37.33408],[127.12041,37.33429],[127.12072,37.33441],[127.12128,37.33477],[127.12134,37.33482],[127.12136,37.33486],[127.1214,37.33495],[127.1214,37.33498],[127.12329,37.33701],[127.12652,37.33739],[127.1296,37.33748],[127.13047,37.33762],[127.13053,37.33764],[127.13339,37.33861],[127.13634,37.33964],[127.13707,37.33939],[127.13765,37.33942],[127.13792,37.33943],[127.13839,37.3394],[127.13844,37.33939],[127.13848,37.33937],[127.13863,37.3393],[127.13922,37.33901],[127.13929,37.33898],[127.13941,37.33891],[127.13954,37.33884],[127.13971,37.3387],[127.13999,37.3384],[127.14186,37.33631],[127.14175,37.33571],[127.14142,37.33268],[127.14135,37.33192],[127.14132,37.32908]]]]}},{"type":"Feature","properties":{"code":"41465570","name":"상현1동","parent":"41465"},"geometry":{"type":"MultiPolygon","coordinates":[[[[127.08186,37.30127],[127.08157,37.30161],[127.08074,37.30111],[127.07982,37.30199],[127.07957,37.3018],[127.07676,37.30441],[127.07428,37.30307],[127.07411,37.30325],[127.07441,37.30388],[127.07352,37.30429],[127.07284,37.30506],[127.07233,37.30595],[127.07215,37.30658],[127.07205,37.30687],[127.07137,37.30732],[127.07115,37.30776],[127.07195,37.30782],[127.07195,37.30802],[127.07233,37.30843],[127.07217,37.30903],[127.07275,37.3095],[127.07217,37.31033],[127.07238,37.31034],[127.07264,37.31037],[127.074,37.31053],[127.07412,37.31055],[127.07484,37.31058],[127.07562,37.31095],[127.07588,37.31129],[127.07614,37.31161],[127.07684,37.31181],[127.07731,37.31158],[127.0783,37.31024],[127.07954,37.31028],[127.08078,37.31083],[127.08177,37.31001],[127.08214,37.31016],[127.08218,37.31018],[127.08318,37.31064],[127.0845,37.30974],[127.08479,37.30952],[127.08485,37.30928],[127.08433,37.30794],[127.08397,37.3061],[127.08294,37.30538],[127.08307,37.30378],[127.08277,37.3019],[127.08186,37.30127]]]]}}]}