{"type":"FeatureCollection","features":[{"type":"Feature","properties":{"code":"43750250","name":"진천읍","parent":"43750"},"geometry":{"type":"MultiPolygon","coordinates":[[[[127.47235,36.88324],[127.47209,36.88289],[127.47199,36.88242],[127.47196,36.88116],[127.47225,36.8807],[127.47234,36.88056],[127.47412,36.87879],[127.477,36.87639],[127.47719,36.87493],[127.47828,36.87276],[127.48369,36.86893],[127.48614,36.8682],[127.48719,36.86803],[127.48875,36.86801],[127.49057,36.86802],[127.49369,36.8665],[127.49432,36.86615],[127.49419,36.8656],[127.49406,36.86519],[127.49148,36.86191],[127.48619,36.8553],[127.48573,36.85476],[127.48456,36.8534],[127.48226,36.8512],[127.48225,36.85098],[127.48234,36.85056],[127.48319,36.84979],[127.48539,36.84859],[127.48512,36.84708],[127.4845,36.84724],[127.48289,36.84764],[127.4823,36.84703],[127.48149,36.84633],[127.48142,36.84639],[127.47982,36.84757],[127.47871,36.84811],[127.47788,36.8482],[127.47645,36.84836],[127.47492,36.84848],[127.47429,36.8485],[127.47186,36.84847],[127.47112,36.84821],[127.47021,36.84726],[127.46972,36.84649],[127.46957,36.84572],[127.46825,36.84509],[127.46669,36.84456],[127.46313,36.84345],[127.46192,36.84342],[127.45921,36.84352],[127.45863,36.84358],[127.45849,36.84369],[127.45851,36.84397],[127.45863,36.84446],[127.45696,36.84523],[127.45638,36.84547],[127.45603,36.84559],[127.45346,36.84644],[127.453,36.84658],[127.45245,36.84634],[127.45216,36.84578],[127.45219,36.84509],[127.45228,36.84422],[127.45153,36.84157],[127.45152,36.84153],[127.45135,36.84133],[127.45101,36.84103],[127.45067,36.84084],[127.44892,36.83998],[127.4474,36.83955],[127.44551,36.83901],[127.44536,36.83898],[127.44392,36.83935],[127.44148,36.83803],[127.43621,36.83452],[127.43361,36.83023],[127.4335,36.82993],[127.43344,36.82913],[127.43363,36.82879],[127.43391,36.82682],[127.43378,36.82344],[127.43217,36.82254],[127.43127,36.82217],[127.4307,36.82199],[127.43014,36.82205],[127.42954,36.82219],[127.429,36.82261],[127.4286,36.82305],[127.4278,36.82343],[127.42376,36.8245],[127.42346,36.8242],[127.42357,36.82282],[127.4225,36.82025],[127.42123,36.81757],[127.42134,36.81204],[127.42288,36.81001],[127.42088,36.80723],[127.41705,36.80473],[127.41526,36.80366],[127.41441,36.80271],[127.41406,36.80207],[127.41381,36.80147],[127.41302,36.80116],[127.41198,36.80132],[127.4101,36.80193],[127.40747,36.80178],[127.40165,36.80002],[127.40101,36.79909],[127.39872,36.79932],[127.39863,36.79934],[127.39778,36.79974],[127.39768,36.7998],[127.39323,36.80404],[127.39316,36.80412],[127.39202,36.80586],[127.38819,36.80838],[127.38796,36.80852],[127.38631,36.80989],[127.38488,36.81129],[127.38484,36.81137],[127.3848,36.81156],[127.38473,36.81174],[127.3846,36.81188],[127.38276,36.81328],[127.38252,36.81343],[127.38239,36.8135],[127.3821,36.81363],[127.38174,36.81377],[127.38168,36.81379],[127.37817,36.81487],[127.37809,36.81489],[127.37797,36.81493],[127.37241,36.81644],[127.37047,36.81673],[127.37031,36.81673],[127.3702,36.8167],[127.37003,36.81661],[127.36971,36.81638],[127.3695,36.81626],[127.36931,36.81622],[127.36918,36.81623],[127.36875,36.81626],[127.36852,36.81631],[127.36658,36.81685],[127.36652,36.81688],[127.36645,36.81691],[127.36637,36.81698],[127.36571,36.81779],[127.3654,36.81825],[127.36534,36.81841],[127.36528,36.81849],[127.36519,36.81859],[127.365,36.81874],[127.36397,36.81945],[127.36381,36.81956],[127.36158,36.82023],[127.36139,36.82026],[127.36089,36.82026],[127.35796,36.82213],[127.35726,36.82295],[127.357,36.8234],[127.35703,36.82371],[127.35736,36.82468],[127.35766,36.82498],[127.35771,36.82502],[127.35784,36.82547],[127.3571,36.8271],[127.35682,36.82748],[127.35584,36.82847],[127.35418,36.82918],[127.35177,36.82991],[127.35132,36.83004],[127.35092,36.83016],[127.35056,36.83019],[127.34851,36.8298],[127.348,36.8296],[127.34729,36.82909],[127.34698,36.82879],[127.34675,36.82868],[127.3465,36.82857],[127.34597,36.82845],[127.34233,36.82962],[127.34114,36.83007],[127.33948,36.83074],[127.33802,36.83045],[127.33763,36.83022],[127.33598,36.82953],[127.33401,36.83015],[127.33351,36.83058],[127.33341,36.83066],[127.33314,36.83119],[127.33299,36.83148],[127.33391,36.83309],[127.3346,36.83381],[127.33487,36.83521],[127.33519,36.83689],[127.33509,36.83707],[127.33403,36.83755],[127.33352,36.83783],[127.33363,36.83893],[127.33386,36.83967],[127.3353,36.84379],[127.3357,36.84417],[127.33603,36.84437],[127.33626,36.84452],[127.33657,36.84489],[127.33672,36.84559],[127.33659,36.84794],[127.33654,36.84866],[127.3363,36.84901],[127.33612,36.84952],[127.33602,36.85036],[127.33621,36.8529],[127.3366,36.8536],[127.33708,36.85353],[127.33756,36.85345],[127.34027,36.85307],[127.34373,36.85411],[127.34509,36.85484],[127.34668,36.85575],[127.34716,36.85601],[127.34763,36.85628],[127.35173,36.85742],[127.35504,36.85805],[127.35619,36.858],[127.35624,36.85787],[127.35657,36.85701],[127.35692,36.85657],[127.35728,36.85608],[127.35856,36.85462],[127.3589,36.85433],[127.35925,36.85404],[127.35991,36.85369],[127.36473,36.85235],[127.36764,36.85223],[127.36861,36.85222],[127.3726,36.85172],[127.37291,36.85142],[127.37493,36.85144],[127.37519,36.85171],[127.37714,36.85368],[127.37756,36.85405],[127.37907,36.8548],[127.37943,36.8547],[127.37975,36.85451],[127.38007,36.85433],[127.38342,36.85473],[127.38399,36.85524],[127.38423,36.85556],[127.38412,36.85645],[127.38395,36.85713],[127.38377,36.85753],[127.38326,36.85858],[127.38293,36.85866],[127.38262,36.85887],[127.38173,36.86002],[127.38264,36.8616],[127.38318,36.86189],[127.38441,36.86238],[127.38537,36.86267],[127.38618,36.86291],[127.3868,36.8633],[127.38826,36.86432],[127.38978,36.86646],[127.39007,36.86751],[127.38979,36.86819],[127.38987,36.86901],[127.39029,36.87022],[127.39116,36.87133],[127.39188,36.87131],[127.39273,36.8725],[127.39341,36.87424],[127.39349,36.87456],[127.39356,36.87484],[127.39339,36.87647],[127.3926,36.87676],[127.39225,36.87884],[127.39291,36.88309],[127.39323,36.88431],[127.39929,36.88705],[127.4046,36.88795],[127.40603,36.88803],[127.40624,36.88797],[127.40737,36.88714],[127.40691,36.8849],[127.40658,36.88052],[127.40732,36.87967],[127.40746,36.87955],[127.4088,36.8787],[127.41082,36.87777],[127.41156,36.87776],[127.41733,36.8782],[127.41794,36.8784],[127.41974,36.87911],[127.423,36.8798],[127.4233,36.87966],[127.42374,36.87949],[127.42873,36.87892],[127.42935,36.8799],[127.42951,36.88064],[127.43007,36.88117],[127.4301,36.8812],[127.43031,36.88138],[127.43066,36.88115],[127.43117,36.8808],[127.43158,36.88043],[127.43362,36.87851],[127.43515,36.87667],[127.43573,36.87591],[127.4367,36.87488],[127.44102,36.87291],[127.44138,36.87294],[127.44142,36.87294],[127.44154,36.87445],[127.44159,36.87566],[127.44159,36.87854],[127.44175,36.88006],[127.44264,36.8873],[127.44284,36.88804],[127.44416,36.88821],[127.44593,36.88838],[127.44618,36.8884],[127.4486,36.88679],[127.45064,36.88476],[127.45263,36.88329],[127.45452,36.88207],[127.45581,36.88363],[127.45977,36.8872],[127.46152,36.88857],[127.46295,36.89089],[127.46329,36.89194],[127.46352,36.8933],[127.46384,36.89345],[127.46396,36.89352],[127.46608,36.89222],[127.4669,36.89155],[127.46799,36.89001],[127.46844,36.88885],[127.46905,36.88817],[127.47051,36.88786],[127.47082,36.88736],[127.47238,36.88392],[127.47235,36.88324]]]]}},{"type":"Feature","properties":{"code":"43750253","name":"덕산읍","parent":"43750"},"geometry":{"type":"MultiPolygon","coordinates":[[[[127.51135,36.9309],[127.51172,36.93058],[127.5147,36.92788],[127.51986,36.92317],[127.52006,36.92287],[127.52034,36.92245],[127.52261,36.91891],[127.52293,36.91787],[127.523,36.91692],[127.5232,36.91571],[127.52566,36.91133],[127.52714,36.9107],[127.53,36.91115],[127.53168,36.91156],[127.53246,36.91222],[127.53464,36.91227],[127.53555,36.91175],[127.536,36.91137],[127.53723,36.91032],[127.53757,36.90992],[127.53892,36.90842],[127.54152,36.90563],[127.54245,36.9054],[127.54326,36.90523],[127.54374,36.90519],[127.54474,36.90498],[127.5448,36.90497],[127.54497,36.90487],[127.54635,36.90272],[127.54606,36.90185],[127.54589,36.90075],[127.5496,36.89821],[127.5508,36.89783],[127.55167,36.89768],[127.55203,36.89771],[127.55306,36.89818],[127.55366,36.89821],[127.55373,36.89812],[127.55391,36.8979],[127.555,36.89646],[127.55191,36.89397],[127.55164,36.89325],[127.55047,36.89022],[127.54932,36.88954],[127.54854,36.89026],[127.54853,36.89106],[127.5464,36.89184],[127.54549,36.8919],[127.54475,36.89167],[127.54095,36.88703],[127.53743,36.88293],[127.53681,36.88048],[127.53674,36.87894],[127.5364,36.87824],[127.53557,36.87765],[127.5346,36.87714],[127.53398,36.87638],[127.53387,36.87539],[127.53466,36.87377],[127.53418,36.87357],[127.53405,36.87352],[127.53205,36.8735],[127.53088,36.87386],[127.52955,36.87473],[127.5272,36.87527],[127.52459,36.87572],[127.52398,36.87571],[127.5225,36.87512],[127.52094,36.87328],[127.51957,36.87201],[127.51808,36.87183],[127.51543,36.87249],[127.51206,36.87358],[127.51141,36.8739],[127.50946,36.87427],[127.50809,36.87434],[127.50461,36.87357],[127.50333,36.87073],[127.50385,36.86962],[127.50567,36.8686],[127.50686,36.865],[127.50663,36.86473],[127.50358,36.86179],[127.49858,36.86376],[127.49508,36.86551],[127.49432,36.86615],[127.49369,36.8665],[127.49057,36.86802],[127.48875,36.86801],[127.48719,36.86803],[127.48614,36.8682],[127.48369,36.86893],[127.47828,36.87276],[127.47719,36.87493],[127.477,36.87639],[127.47412,36.87879],[127.47234,36.88056],[127.47225,36.8807],[127.47196,36.88116],[127.47199,36.88242],[127.47209,36.88289],[127.47235,36.88324],[127.47368,36.88555],[127.47665,36.89001],[127.4766,36.89076],[127.47606,36.8917],[127.47572,36.89321],[127.47531,36.89739],[127.47597,36.89886],[127.4766,36.8998],[127.47704,36.90023],[127.47741,36.90051],[127.47835,36.90082],[127.48019,36.90163],[127.48033,36.90169],[127.48138,36.90226],[127.48365,36.90397],[127.48363,36.90742],[127.48677,36.90747],[127.48856,36.90989],[127.48861,36.91013],[127.48787,36.9116],[127.48714,36.913],[127.48683,36.91354],[127.48538,36.91499],[127.48462,36.91556],[127.48355,36.91649],[127.48286,36.91749],[127.4774,36.92565],[127.4793,36.92812],[127.47953,36.92827],[127.47965,36.92837],[127.47997,36.92861],[127.48024,36.92886],[127.48041,36.92931],[127.48171,36.93307],[127.48135,36.93368],[127.4827,36.93455],[127.48277,36.93468],[127.4829,36.93518],[127.4829,36.93525],[127.48286,36.93555],[127.48284,36.93635],[127.4829,36.93646],[127.48329,36.93699],[127.48352,36.93721],[127.48364,36.93729],[127.4855,36.93823],[127.4905,36.93879],[127.49076,36.93879],[127.49128,36.93879],[127.49149,36.93876],[127.4916,36.93871],[127.49415,36.93734],[127.49503,36.93681],[127.49848,36.9348],[127.49981,36.93407],[127.50202,36.93339],[127.50706,36.9316],[127.51022,36.9304],[127.51135,36.9309]]]]}},{"type":"Feature","properties":{"code":"43750320","name":"초평면","parent":"43750"},"geometry":{"type":"MultiPolygon","coordinates":[[[[127.58179,36.87652],[127.58333,36.87564],[127.58455,36.87449],[127.58514,36.87041],[127.58497,36.86977],[127.58465,36.86923],[127.58168,36.86647],[127.57994,36.86584],[127.57869,36.86587],[127.57724,36.86583],[127.57627,36.86444],[127.57715,36.86377],[127.57765,36.8631],[127.57708,36.86151],[127.57608,36.86012],[127.57516,36.85854],[127.57515,36.85781],[127.57563,36.85699],[127.57791,36.85327],[127.57811,36.85285],[127.57824,36.85254],[127.57829,36.85233],[127.5783,36.85213],[127.5783,36.85198],[127.57823,36.85142],[127.57821,36.8513],[127.57813,36.85109],[127.57806,36.85102],[127.57798,36.85095],[127.57792,36.85091],[127.57764,36.85078],[127.57734,36.8507],[127.57714,36.85069],[127.57699,36.8507],[127.57658,36.85074],[127.57625,36.8508],[127.57608,36.85088],[127.57588,36.85094],[127.57567,36.85097],[127.57353,36.85091],[127.57332,36.85087],[127.57184,36.85007],[127.57182,36.85005],[127.57182,36.85],[127.57186,36.84989],[127.57213,36.84924],[127.57221,36.8491],[127.57226,36.84575],[127.57185,36.84294],[127.57035,36.84009],[127.56903,36.83673],[127.56908,36.83659],[127.56913,36.83637],[127.56927,36.83567],[127.56944,36.83466],[127.56945,36.83449],[127.56947,36.83416],[127.56947,36.83389],[127.56946,36.83381],[127.56943,36.83373],[127.56932,36.83354],[127.56882,36.83284],[127.56818,36.83193],[127.56775,36.83129],[127.56766,36.83114],[127.56761,36.83104],[127.56751,36.83068],[127.56743,36.83035],[127.56738,36.83012],[127.56737,36.83007],[127.56737,36.82999],[127.56738,36.82995],[127.5674,36.82992],[127.56949,36.82824],[127.56952,36.82821],[127.56957,36.82818],[127.56965,36.82816],[127.56982,36.82813],[127.56996,36.82812],[127.57015,36.8281],[127.57066,36.82811],[127.57084,36.82812],[127.57105,36.82813],[127.57203,36.82824],[127.57234,36.82832],[127.57243,36.82834],[127.57369,36.82882],[127.57486,36.8293],[127.57529,36.82945],[127.57722,36.8301],[127.57743,36.83015],[127.5777,36.83016],[127.57788,36.83012],[127.57807,36.83],[127.57899,36.82912],[127.57842,36.82872],[127.5781,36.82846],[127.57774,36.82815],[127.57674,36.82703],[127.57666,36.82693],[127.57664,36.82686],[127.57615,36.82543],[127.57531,36.82381],[127.57518,36.82357],[127.57513,36.82351],[127.57509,36.82346],[127.57504,36.82339],[127.57396,36.82216],[127.57215,36.82052],[127.57211,36.8205],[127.57207,36.82048],[127.57113,36.82025],[127.56434,36.81865],[127.56407,36.8186],[127.56327,36.81854],[127.56323,36.81855],[127.56318,36.81855],[127.56214,36.81874],[127.56185,36.8188],[127.56162,36.81885],[127.56152,36.81887],[127.56146,36.81889],[127.56142,36.81894],[127.55933,36.8188],[127.55577,36.81794],[127.55261,36.81524],[127.54962,36.81307],[127.5495,36.81303],[127.54944,36.81301],[127.54926,36.81297],[127.54906,36.81297],[127.54786,36.81305],[127.54742,36.81316],[127.54683,36.81331],[127.54487,36.81374],[127.54477,36.81371],[127.54436,36.81351],[127.54419,36.81341],[127.54284,36.81246],[127.53707,36.80793],[127.53756,36.80773],[127.53833,36.80731],[127.53858,36.80715],[127.53877,36.80702],[127.5392,36.80665],[127.53932,36.80652],[127.54025,36.80534],[127.5404,36.80513],[127.5405,36.80496],[127.54091,36.80425],[127.54313,36.80194],[127.54849,36.79816],[127.5487,36.79807],[127.549,36.79802],[127.54913,36.798],[127.54922,36.79798],[127.54962,36.79798],[127.54978,36.79802],[127.54987,36.79809],[127.54998,36.79822],[127.55011,36.79834],[127.55048,36.79866],[127.55062,36.79873],[127.55079,36.79881],[127.55237,36.79921],[127.55256,36.79926],[127.55266,36.79927],[127.55274,36.79929],[127.55287,36.79929],[127.55301,36.79929],[127.55494,36.79925],[127.55507,36.79924],[127.55519,36.79922],[127.55526,36.79913],[127.55533,36.79905],[127.55539,36.79898],[127.55658,36.79711],[127.55677,36.79674],[127.5576,36.79509],[127.55825,36.79338],[127.56014,36.78927],[127.56152,36.78649],[127.56299,36.78369],[127.56438,36.78128],[127.56422,36.77962],[127.56416,36.77961],[127.5636,36.7795],[127.5627,36.77912],[127.56036,36.77815],[127.5579,36.77781],[127.55764,36.77796],[127.55741,36.77808],[127.55584,36.77802],[127.55443,36.77785],[127.54975,36.77632],[127.54862,36.77583],[127.54599,36.77451],[127.5447,36.77378],[127.54428,36.77366],[127.54425,36.77365],[127.54323,36.7738],[127.54286,36.77387],[127.54214,36.77402],[127.54191,36.7741],[127.54161,36.7742],[127.5414,36.77417],[127.54118,36.77414],[127.53202,36.77174],[127.53141,36.7714],[127.53104,36.77102],[127.53073,36.77069],[127.53048,36.7704],[127.53019,36.77009],[127.52983,36.77005],[127.52939,36.77001],[127.52686,36.76981],[127.52336,36.76964],[127.52231,36.76968],[127.52178,36.76977],[127.51777,36.76896],[127.51735,36.76876],[127.51674,36.76847],[127.51584,36.76805],[127.51545,36.76797],[127.515,36.76787],[127.51398,36.76782],[127.5131,36.76778],[127.51221,36.76788],[127.5113,36.76798],[127.51011,36.76751],[127.50925,36.76717],[127.50724,36.76601],[127.50625,36.76546],[127.50256,36.76407],[127.50217,36.76399],[127.50163,36.76396],[127.50134,36.76395],[127.50209,36.76514],[127.50271,36.76606],[127.50328,36.76656],[127.50535,36.76762],[127.50626,36.76802],[127.50719,36.76834],[127.50895,36.7695],[127.50948,36.77042],[127.51062,36.77389],[127.5106,36.77435],[127.50935,36.77597],[127.50833,36.77674],[127.50633,36.77825],[127.50571,36.77857],[127.50498,36.77894],[127.50342,36.77935],[127.50195,36.77971],[127.49793,36.78042],[127.49719,36.78084],[127.4959,36.78213],[127.49388,36.78268],[127.4921,36.78286],[127.49065,36.78313],[127.48747,36.78378],[127.4862,36.7841],[127.48563,36.78443],[127.48202,36.78743],[127.47733,36.79036],[127.47638,36.79087],[127.47634,36.79117],[127.47628,36.79148],[127.47664,36.79217],[127.47801,36.79288],[127.47942,36.79346],[127.48049,36.79342],[127.48131,36.79317],[127.4821,36.79237],[127.48323,36.79162],[127.48483,36.79084],[127.48576,36.79067],[127.48683,36.79105],[127.48769,36.79194],[127.48877,36.79339],[127.48921,36.7959],[127.4892,36.79616],[127.48915,36.79662],[127.48825,36.79769],[127.48744,36.79867],[127.48666,36.80154],[127.48707,36.80216],[127.48751,36.80242],[127.48862,36.80261],[127.49015,36.80254],[127.49147,36.80226],[127.49328,36.80231],[127.49464,36.80292],[127.49472,36.80452],[127.49359,36.80671],[127.49168,36.80885],[127.49036,36.80981],[127.48939,36.81071],[127.4892,36.81265],[127.48976,36.81304],[127.49123,36.81387],[127.49186,36.81463],[127.49331,36.81782],[127.49291,36.82009],[127.49211,36.82113],[127.49188,36.82413],[127.4944,36.83032],[127.4949,36.83214],[127.49533,36.83259],[127.49641,36.83371],[127.49753,36.83443],[127.49813,36.83788],[127.49799,36.83869],[127.49687,36.84034],[127.49679,36.84045],[127.49313,36.84227],[127.49024,36.84436],[127.48763,36.84642],[127.48512,36.84708],[127.48539,36.84859],[127.48319,36.84979],[127.48234,36.85056],[127.48225,36.85098],[127.48226,36.8512],[127.48456,36.8534],[127.48573,36.85476],[127.48619,36.8553],[127.49148,36.86191],[127.49406,36.86519],[127.49419,36.8656],[127.49432,36.86615],[127.49508,36.86551],[127.49858,36.86376],[127.50358,36.86179],[127.50663,36.86473],[127.50686,36.865],[127.50567,36.8686],[127.50385,36.86962],[127.50333,36.87073],[127.50461,36.87357],[127.50809,36.87434],[127.50946,36.87427],[127.51141,36.8739],[127.51206,36.87358],[127.51543,36.87249],[127.51808,36.87183],[127.51957,36.87201],[127.52094,36.87328],[127.5225,36.87512],[127.52398,36.87571],[127.52459,36.87572],[127.5272,36.87527],[127.52955,36.87473],[127.53088,36.87386],[127.53205,36.8735],[127.53405,36.87352],[127.53418,36.87357],[127.53466,36.87377],[127.53387,36.87539],[127.53398,36.87638],[127.5346,36.87714],[127.53557,36.87765],[127.5364,36.87824],[127.53674,36.87894],[127.53681,36.88048],[127.53743,36.88293],[127.54095,36.88703],[127.54475,36.89167],[127.54549,36.8919],[127.5464,36.89184],[127.54853,36.89106],[127.54854,36.89026],[127.54932,36.88954],[127.55047,36.89022],[127.55164,36.89325],[127.55191,36.89397],[127.55269,36.89258],[127.55514,36.89128],[127.55564,36.89035],[127.55523,36.88975],[127.55496,36.88911],[127.55499,36.88872],[127.55535,36.88702],[127.55603,36.88632],[127.55606,36.88629],[127.55742,36.88585],[127.55855,36.88643],[127.55989,36.8867],[127.56117,36.88594],[127.56124,36.88526],[127.56118,36.88461],[127.56179,36.88311],[127.56218,36.88252],[127.56363,36.88234],[127.56684,36.88272],[127.56702,36.88303],[127.56672,36.88337],[127.56688,36.88394],[127.56741,36.88492],[127.56826,36.88587],[127.56867,36.88577],[127.56906,36.88548],[127.56927,36.88519],[127.57142,36.88206],[127.57185,36.88097],[127.57211,36.88029],[127.57211,36.87981],[127.57178,36.87855],[127.57319,36.8779],[127.57906,36.8769],[127.58067,36.87664],[127.58179,36.87652]]]]}},{"type":"Feature","properties":{"code":"43750330","name":"문백면","parent":"43750"},"geometry":{"type":"MultiPolygon","coordinates":[[[[127.48512,36.84708],[127.48763,36.84642],[127.49024,36.84436],[127.49313,36.84227],[127.49679,36.84045],[127.49687,36.84034],[127.49799,36.83869],[127.49813,36.83788],[127.49753,36.83443],[127.49641,36.83371],[127.49533,36.83259],[127.4949,36.83214],[127.4944,36.83032],[127.49188,36.82413],[127.49211,36.82113],[127.49291,36.82009],[127.49331,36.81782],[127.49186,36.81463],[127.49123,36.81387],[127.48976,36.81304],[127.4892,36.81265],[127.48939,36.81071],[127.49036,36.80981],[127.49168,36.80885],[127.49359,36.80671],[127.49472,36.80452],[127.49464,36.80292],[127.49328,36.80231],[127.49147,36.80226],[127.49015,36.80254],[127.48862,36.80261],[127.48751,36.80242],[127.48707,36.80216],[127.48666,36.80154],[127.48744,36.79867],[127.48825,36.79769],[127.48915,36.79662],[127.4892,36.79616],[127.48921,36.7959],[127.48877,36.79339],[127.48769,36.79194],[127.48683,36.79105],[127.48576,36.79067],[127.48483,36.79084],[127.48323,36.79162],[127.4821,36.79237],[127.48131,36.79317],[127.48049,36.79342],[127.47942,36.79346],[127.47801,36.79288],[127.47664,36.79217],[127.47628,36.79148],[127.47634,36.79117],[127.47638,36.79087],[127.47733,36.79036],[127.48202,36.78743],[127.48563,36.78443],[127.4862,36.7841],[127.48747,36.78378],[127.49065,36.78313],[127.4921,36.78286],[127.49388,36.78268],[127.4959,36.78213],[127.49719,36.78084],[127.49793,36.78042],[127.50195,36.77971],[127.50051,36.77944],[127.49485,36.77758],[127.49286,36.776],[127.49146,36.77377],[127.49094,36.77355],[127.49078,36.77349],[127.49056,36.77349],[127.48894,36.77438],[127.48866,36.77475],[127.48825,36.77507],[127.48545,36.77573],[127.48481,36.77579],[127.48223,36.77604],[127.48196,36.77596],[127.48091,36.77544],[127.4808,36.77529],[127.48085,36.77507],[127.48124,36.77432],[127.48139,36.77412],[127.48119,36.77403],[127.47956,36.77336],[127.47524,36.77109],[127.47394,36.77002],[127.47333,36.7696],[127.47298,36.76939],[127.47041,36.76889],[127.4703,36.76887],[127.46925,36.76926],[127.4675,36.76978],[127.46181,36.77017],[127.46034,36.76978],[127.46021,36.76948],[127.46036,36.76918],[127.45916,36.76673],[127.45857,36.76607],[127.45649,36.76436],[127.45448,36.76276],[127.45339,36.76238],[127.4523,36.76208],[127.45206,36.76185],[127.45138,36.76102],[127.4501,36.75901],[127.45005,36.75872],[127.44958,36.75483],[127.44963,36.75353],[127.44987,36.7524],[127.44983,36.74953],[127.44829,36.74891],[127.44632,36.74824],[127.44489,36.74843],[127.44391,36.74879],[127.44247,36.74948],[127.44199,36.75003],[127.44186,36.75018],[127.44189,36.75091],[127.44195,36.75132],[127.44138,36.75234],[127.44108,36.75258],[127.43983,36.7531],[127.43944,36.75317],[127.43858,36.75327],[127.4326,36.75166],[127.43066,36.75113],[127.43027,36.7508],[127.43023,36.75078],[127.42989,36.75065],[127.42737,36.75071],[127.42714,36.75075],[127.4252,36.75429],[127.42518,36.7547],[127.42535,36.75552],[127.42553,36.75565],[127.42609,36.75588],[127.42718,36.75601],[127.4274,36.75659],[127.42735,36.75686],[127.42689,36.75708],[127.42456,36.75781],[127.42259,36.75809],[127.42172,36.75771],[127.41958,36.75757],[127.42053,36.75885],[127.42067,36.75906],[127.42074,36.7592],[127.42078,36.75934],[127.4208,36.7595],[127.4208,36.7596],[127.42076,36.75977],[127.42073,36.75985],[127.42063,36.76011],[127.42033,36.76065],[127.42021,36.76084],[127.42,36.76114],[127.41988,36.76131],[127.41981,36.7614],[127.41956,36.76169],[127.41699,36.76537],[127.41252,36.77184],[127.41241,36.77198],[127.41216,36.77222],[127.41036,36.77323],[127.40832,36.77392],[127.40826,36.77392],[127.40717,36.77392],[127.40356,36.77438],[127.40343,36.77444],[127.40235,36.77552],[127.40186,36.77626],[127.40135,36.77704],[127.40132,36.77713],[127.40132,36.7772],[127.40136,36.77727],[127.40168,36.77768],[127.40186,36.77789],[127.40184,36.778],[127.40168,36.77853],[127.40159,36.77865],[127.39973,36.78058],[127.39873,36.78135],[127.3981,36.78171],[127.39696,36.782],[127.39684,36.78195],[127.39673,36.78193],[127.39659,36.78191],[127.39641,36.78195],[127.39628,36.78199],[127.39609,36.78205],[127.39578,36.78219],[127.39563,36.78226],[127.39553,36.78233],[127.39547,36.78239],[127.39543,36.78245],[127.395,36.78414],[127.39498,36.78423],[127.39499,36.78428],[127.395,36.78437],[127.39503,36.78447],[127.39661,36.78989],[127.39669,36.79007],[127.39694,36.79055],[127.39714,36.7909],[127.39726,36.7911],[127.39732,36.79118],[127.39744,36.7913],[127.39753,36.79137],[127.39764,36.79145],[127.39775,36.79149],[127.39787,36.79154],[127.39807,36.79155],[127.3981,36.79155],[127.3983,36.79159],[127.399,36.79186],[127.39914,36.79196],[127.39936,36.79218],[127.3997,36.79253],[127.4017,36.79527],[127.40176,36.79536],[127.40179,36.79541],[127.40181,36.79551],[127.40143,36.79659],[127.40113,36.7984],[127.40101,36.79909],[127.40165,36.80002],[127.40747,36.80178],[127.4101,36.80193],[127.41198,36.80132],[127.41302,36.80116],[127.41381,36.80147],[127.41406,36.80207],[127.41441,36.80271],[127.41526,36.80366],[127.41705,36.80473],[127.42088,36.80723],[127.42288,36.81001],[127.42134,36.81204],[127.42123,36.81757],[127.4225,36.82025],[127.42357,36.82282],[127.42346,36.8242],[127.42376,36.8245],[127.4278,36.82343],[127.4286,36.82305],[127.429,36.82261],[127.42954,36.82219],[127.43014,36.82205],[127.4307,36.82199],[127.43127,36.82217],[127.43217,36.82254],[127.43378,36.82344],[127.43391,36.82682],[127.43363,36.82879],[127.43344,36.82913],[127.4335,36.82993],[127.43361,36.83023],[127.43621,36.83452],[127.44148,36.83803],[127.44392,36.83935],[127.44536,36.83898],[127.44551,36.83901],[127.4474,36.83955],[127.44892,36.83998],[127.45067,36.84084],[127.45101,36.84103],[127.45135,36.84133],[127.45152,36.84153],[127.45153,36.84157],[127.45228,36.84422],[127.45219,36.84509],[127.45216,36.84578],[127.45245,36.84634],[127.453,36.84658],[127.45346,36.84644],[127.45603,36.84559],[127.45638,36.84547],[127.45696,36.84523],[127.45863,36.84446],[127.45851,36.84397],[127.45849,36.84369],[127.45863,36.84358],[127.45921,36.84352],[127.46192,36.84342],[127.46313,36.84345],[127.46669,36.84456],[127.46825,36.84509],[127.46957,36.84572],[127.46972,36.84649],[127.47021,36.84726],[127.47112,36.84821],[127.47186,36.84847],[127.47429,36.8485],[127.47492,36.84848],[127.47645,36.84836],[127.47788,36.8482],[127.47871,36.84811],[127.47982,36.84757],[127.48142,36.84639],[127.48149,36.84633],[127.4823,36.84703],[127.48289,36.84764],[127.4845,36.84724],[127.48512,36.84708]]]]}},{"type":"Feature","properties":{"code":"43750340","name":"백곡면","parent":"43750"},"geometry":{"type":"MultiPolygon","coordinates":[[[[127.3755,36.94818],[127.37602,36.94782],[127.37786,36.94472],[127.377,36.94345],[127.37627,36.9417],[127.37635,36.94043],[127.37764,36.93915],[127.37806,36.93915],[127.37864,36.93923],[127.37927,36.93889],[127.3794,36.93857],[127.37953,36.93827],[127.379,36.93701],[127.37857,36.93607],[127.37822,36.93566],[127.37804,36.93523],[127.37819,36.93417],[127.37847,36.93306],[127.37901,36.93197],[127.38049,36.93021],[127.38192,36.92973],[127.38341,36.93006],[127.38397,36.9305],[127.38447,36.93111],[127.38547,36.93169],[127.3882,36.93123],[127.38948,36.93089],[127.39002,36.93067],[127.3922,36.9293],[127.3927,36.92887],[127.39272,36.92885],[127.39267,36.92826],[127.39327,36.92702],[127.39561,36.92389],[127.39632,36.92306],[127.39686,36.92249],[127.399,36.92049],[127.4008,36.91998],[127.40217,36.9203],[127.40256,36.92021],[127.40304,36.91955],[127.40311,36.91811],[127.40272,36.91696],[127.40229,36.91575],[127.40198,36.91445],[127.40188,36.91394],[127.40212,36.91321],[127.40396,36.91028],[127.40608,36.90708],[127.40662,36.90666],[127.40709,36.9063],[127.4091,36.903],[127.40974,36.9015],[127.40995,36.90084],[127.40959,36.89963],[127.40938,36.89829],[127.40995,36.89756],[127.41068,36.89661],[127.41113,36.8955],[127.41128,36.89505],[127.41116,36.89425],[127.41014,36.89371],[127.40701,36.89109],[127.4068,36.89064],[127.40681,36.89036],[127.40694,36.88861],[127.40737,36.88714],[127.40624,36.88797],[127.40603,36.88803],[127.4046,36.88795],[127.39929,36.88705],[127.39323,36.88431],[127.39291,36.88309],[127.39225,36.87884],[127.3926,36.87676],[127.39339,36.87647],[127.39356,36.87484],[127.39349,36.87456],[127.39341,36.87424],[127.39273,36.8725],[127.39188,36.87131],[127.39116,36.87133],[127.39029,36.87022],[127.38987,36.86901],[127.38979,36.86819],[127.39007,36.86751],[127.38978,36.86646],[127.38826,36.86432],[127.3868,36.8633],[127.38618,36.86291],[127.38537,36.86267],[127.38441,36.86238],[127.38318,36.86189],[127.38264,36.8616],[127.38173,36.86002],[127.38262,36.85887],[127.38293,36.85866],[127.38326,36.85858],[127.38377,36.85753],[127.38395,36.85713],[127.38412,36.85645],[127.38423,36.85556],[127.38399,36.85524],[127.38342,36.85473],[127.38007,36.85433],[127.37975,36.85451],[127.37943,36.8547],[127.37907,36.8548],[127.37756,36.85405],[127.37714,36.85368],[127.37519,36.85171],[127.37493,36.85144],[127.37291,36.85142],[127.3726,36.85172],[127.36861,36.85222],[127.36764,36.85223],[127.36473,36.85235],[127.35991,36.85369],[127.35925,36.85404],[127.3589,36.85433],[127.35856,36.85462],[127.35728,36.85608],[127.35692,36.85657],[127.35657,36.85701],[127.35624,36.85787],[127.35619,36.858],[127.35504,36.85805],[127.35173,36.85742],[127.34763,36.85628],[127.34716,36.85601],[127.34668,36.85575],[127.34509,36.85484],[127.34373,36.85411],[127.34027,36.85307],[127.33756,36.85345],[127.33708,36.85353],[127.3366,36.8536],[127.33668,36.85376],[127.33627,36.85464],[127.33464,36.85614],[127.33431,36.85635],[127.3325,36.857],[127.32829,36.85804],[127.32785,36.85812],[127.32754,36.85812],[127.32737,36.85811],[127.32715,36.8581],[127.32675,36.85807],[127.32472,36.85794],[127.32177,36.85774],[127.32101,36.85794],[127.31923,36.85896],[127.31865,36.85902],[127.31613,36.85895],[127.31576,36.85886],[127.31545,36.85863],[127.31464,36.85825],[127.31298,36.85756],[127.3128,36.8575],[127.31244,36.85753],[127.31233,36.85754],[127.30915,36.85928],[127.30879,36.85969],[127.30735,36.85967],[127.30717,36.8599],[127.30702,36.86018],[127.30696,36.86035],[127.30601,36.86296],[127.30601,36.863],[127.30601,36.86306],[127.30629,36.86374],[127.30795,36.86611],[127.30811,36.86631],[127.30827,36.86647],[127.30868,36.86679],[127.3097,36.86753],[127.30992,36.86769],[127.31046,36.86821],[127.31133,36.87008],[127.31135,36.87018],[127.31127,36.87037],[127.31079,36.87119],[127.31074,36.87127],[127.31036,36.87213],[127.30996,36.87332],[127.30969,36.87788],[127.30968,36.87811],[127.3097,36.87826],[127.30972,36.87836],[127.30974,36.87852],[127.30975,36.88116],[127.30808,36.88526],[127.3078,36.88523],[127.30631,36.88527],[127.30493,36.88541],[127.30385,36.88574],[127.30155,36.88716],[127.30136,36.8873],[127.30116,36.88748],[127.30054,36.88812],[127.30035,36.88838],[127.30013,36.88877],[127.29997,36.88902],[127.29991,36.88913],[127.29922,36.88957],[127.29896,36.88973],[127.29684,36.88957],[127.29596,36.88966],[127.29462,36.8903],[127.29441,36.89046],[127.2944,36.89054],[127.29439,36.89062],[127.29439,36.89079],[127.29435,36.89093],[127.29428,36.89104],[127.29248,36.89178],[127.29232,36.89184],[127.29224,36.89187],[127.29206,36.89194],[127.29188,36.892],[127.29145,36.89211],[127.29061,36.89227],[127.2898,36.89382],[127.28976,36.89471],[127.29067,36.89685],[127.2911,36.89716],[127.29175,36.89732],[127.29185,36.89738],[127.2921,36.89751],[127.29232,36.89769],[127.29279,36.89806],[127.29409,36.89912],[127.29662,36.90143],[127.29699,36.90177],[127.29779,36.90263],[127.29792,36.90287],[127.29803,36.90329],[127.30346,36.91343],[127.30408,36.91514],[127.30395,36.91537],[127.3038,36.91562],[127.30148,36.91913],[127.2976,36.92535],[127.29592,36.92815],[127.2957,36.9286],[127.29565,36.9287],[127.29566,36.92889],[127.29657,36.92957],[127.29706,36.92983],[127.29849,36.9298],[127.29953,36.92947],[127.30038,36.9292],[127.30915,36.92909],[127.31058,36.92975],[127.31342,36.93123],[127.31503,36.93222],[127.31562,36.93336],[127.31588,36.93384],[127.31594,36.93392],[127.31649,36.93465],[127.32318,36.93643],[127.32379,36.93615],[127.32455,36.93579],[127.32703,36.93578],[127.33109,36.93819],[127.33218,36.93952],[127.33867,36.94277],[127.33924,36.94303],[127.33931,36.94303],[127.34133,36.94308],[127.3422,36.9431],[127.34305,36.94352],[127.34343,36.9443],[127.34299,36.94571],[127.34281,36.94629],[127.34351,36.94798],[127.34974,36.95257],[127.34995,36.95258],[127.35163,36.95268],[127.35407,36.95225],[127.3551,36.95167],[127.35598,36.95106],[127.35601,36.95066],[127.35606,36.9502],[127.35672,36.94902],[127.35789,36.94748],[127.35889,36.9479],[127.35919,36.94822],[127.35946,36.9485],[127.36205,36.94927],[127.36968,36.94932],[127.37252,36.94929],[127.37275,36.94897],[127.37311,36.94846],[127.37451,36.94812],[127.3755,36.94818]]]]}},{"type":"Feature","properties":{"code":"43750350","name":"이월면","parent":"43750"},"geometry":{"type":"MultiPolygon","coordinates":[[[[127.3966,36.96399],[127.39664,36.96316],[127.39659,36.95874],[127.39659,36.95869],[127.39659,36.95864],[127.39681,36.95803],[127.39686,36.95796],[127.39694,36.95786],[127.39713,36.95765],[127.39864,36.95613],[127.39896,36.95586],[127.4058,36.95199],[127.40903,36.95244],[127.40988,36.95274],[127.41099,36.95279],[127.41191,36.95244],[127.41271,36.95212],[127.41285,36.95205],[127.41598,36.95008],[127.41734,36.94893],[127.41746,36.94877],[127.41751,36.94859],[127.41777,36.9472],[127.4175,36.94633],[127.4174,36.94605],[127.41727,36.94581],[127.41725,36.94571],[127.41716,36.94529],[127.41715,36.94508],[127.41716,36.94463],[127.41719,36.94446],[127.41725,36.94436],[127.41736,36.94422],[127.41755,36.94405],[127.41764,36.94396],[127.41772,36.94393],[127.41785,36.94393],[127.42017,36.94397],[127.42228,36.94406],[127.42287,36.94408],[127.42303,36.94405],[127.42322,36.94401],[127.42348,36.94391],[127.4238,36.94375],[127.42392,36.94367],[127.42409,36.94356],[127.4243,36.94341],[127.42441,36.94332],[127.42698,36.94113],[127.42931,36.93911],[127.4309,36.93932],[127.43151,36.93949],[127.43136,36.94015],[127.43135,36.9402],[127.43122,36.94057],[127.43082,36.94095],[127.43016,36.94127],[127.42978,36.94143],[127.4295,36.94158],[127.42925,36.94179],[127.42891,36.94211],[127.42851,36.94251],[127.42831,36.94273],[127.42822,36.94289],[127.42813,36.94314],[127.42763,36.94469],[127.42762,36.94482],[127.42773,36.94501],[127.42944,36.94749],[127.42956,36.94764],[127.4297,36.94761],[127.43706,36.94711],[127.44195,36.94678],[127.44581,36.94709],[127.44637,36.94835],[127.44802,36.95002],[127.44867,36.94922],[127.44895,36.94891],[127.44922,36.9487],[127.44942,36.94859],[127.44961,36.94849],[127.45068,36.94802],[127.45079,36.948],[127.45091,36.94798],[127.45643,36.94729],[127.45932,36.94797],[127.45936,36.94799],[127.45955,36.94799],[127.45992,36.94798],[127.46035,36.94793],[127.4606,36.94787],[127.46103,36.94777],[127.46144,36.94763],[127.46213,36.94736],[127.46223,36.9473],[127.46274,36.94677],[127.4632,36.94628],[127.46327,36.94618],[127.46331,36.94606],[127.464,36.94412],[127.46403,36.94394],[127.46404,36.94376],[127.464,36.9436],[127.46388,36.94343],[127.46386,36.94334],[127.46386,36.94218],[127.46387,36.94208],[127.46391,36.94171],[127.46392,36.94159],[127.46396,36.94141],[127.46523,36.9397],[127.46533,36.93961],[127.47002,36.93646],[127.47007,36.93643],[127.47012,36.93641],[127.4706,36.93625],[127.47286,36.93582],[127.47311,36.93581],[127.47341,36.93584],[127.4738,36.93591],[127.47393,36.93593],[127.47407,36.93597],[127.47505,36.93621],[127.47582,36.93636],[127.47634,36.93643],[127.47669,36.93635],[127.4781,36.93593],[127.47822,36.93587],[127.48135,36.93368],[127.48171,36.93307],[127.48041,36.92931],[127.48024,36.92886],[127.47997,36.92861],[127.47965,36.92837],[127.47953,36.92827],[127.4793,36.92812],[127.4774,36.92565],[127.48286,36.91749],[127.48355,36.91649],[127.48462,36.91556],[127.48538,36.91499],[127.48683,36.91354],[127.48714,36.913],[127.48787,36.9116],[127.48861,36.91013],[127.48856,36.90989],[127.48677,36.90747],[127.48363,36.90742],[127.48365,36.90397],[127.48138,36.90226],[127.48033,36.90169],[127.48019,36.90163],[127.47835,36.90082],[127.47741,36.90051],[127.47704,36.90023],[127.4766,36.8998],[127.47597,36.89886],[127.47531,36.89739],[127.47572,36.89321],[127.47606,36.8917],[127.4766,36.89076],[127.47665,36.89001],[127.47368,36.88555],[127.47235,36.88324],[127.47238,36.88392],[127.47082,36.88736],[127.47051,36.88786],[127.46905,36.88817],[127.46844,36.88885],[127.46799,36.89001],[127.4669,36.89155],[127.46608,36.89222],[127.46396,36.89352],[127.46384,36.89345],[127.46352,36.8933],[127.46329,36.89194],[127.46295,36.89089],[127.46152,36.88857],[127.45977,36.8872],[127.45581,36.88363],[127.45452,36.88207],[127.45263,36.88329],[127.45064,36.88476],[127.4486,36.88679],[127.44618,36.8884],[127.44593,36.88838],[127.44416,36.88821],[127.44284,36.88804],[127.44264,36.8873],[127.44175,36.88006],[127.44159,36.87854],[127.44159,36.87566],[127.44154,36.87445],[127.44142,36.87294],[127.44138,36.87294],[127.44102,36.87291],[127.4367,36.87488],[127.43573,36.87591],[127.43515,36.87667],[127.43362,36.87851],[127.43158,36.88043],[127.43117,36.8808],[127.43066,36.88115],[127.43031,36.88138],[127.4301,36.8812],[127.43007,36.88117],[127.42951,36.88064],[127.42935,36.8799],[127.42873,36.87892],[127.42374,36.87949],[127.4233,36.87966],[127.423,36.8798],[127.41974,36.87911],[127.41794,36.8784],[127.41733,36.8782],[127.41156,36.87776],[127.41082,36.87777],[127.4088,36.8787],[127.40746,36.87955],[127.40732,36.87967],[127.40658,36.88052],[127.40691,36.8849],[127.40737,36.88714],[127.40694,36.88861],[127.40681,36.89036],[127.4068,36.89064],[127.40701,36.89109],[127.41014,36.89371],[127.41116,36.89425],[127.41128,36.89505],[127.41113,36.8955],[127.41068,36.89661],[127.40995,36.89756],[127.40938,36.89829],[127.40959,36.89963],[127.40995,36.90084],[127.40974,36.9015],[127.4091,36.903],[127.40709,36.9063],[127.40662,36.90666],[127.40608,36.90708],[127.40396,36.91028],[127.40212,36.91321],[127.40188,36.91394],[127.40198,36.91445],[127.40229,36.91575],[127.40272,36.91696],[127.40311,36.91811],[127.40304,36.91955],[127.40256,36.92021],[127.40217,36.9203],[127.4008,36.91998],[127.399,36.92049],[127.39686,36.92249],[127.39632,36.92306],[127.39561,36.92389],[127.39327,36.92702],[127.39267,36.92826],[127.39272,36.92885],[127.3927,36.92887],[127.3922,36.9293],[127.39002,36.93067],[127.38948,36.93089],[127.3882,36.93123],[127.38547,36.93169],[127.38447,36.93111],[127.38397,36.9305],[127.38341,36.93006],[127.38192,36.92973],[127.38049,36.93021],[127.37901,36.93197],[127.37847,36.93306],[127.37819,36.93417],[127.37804,36.93523],[127.37822,36.93566],[127.37857,36.93607],[127.379,36.93701],[127.37953,36.93827],[127.3794,36.93857],[127.37927,36.93889],[127.37864,36.93923],[127.37806,36.93915],[127.37764,36.93915],[127.37635,36.94043],[127.37627,36.9417],[127.377,36.94345],[127.37786,36.94472],[127.37602,36.94782],[127.3755,36.94818],[127.37637,36.94946],[127.37676,36.94977],[127.37736,36.95025],[127.37853,36.95147],[127.37881,36.95239],[127.37917,36.95398],[127.37901,36.95421],[127.37888,36.95439],[127.37863,36.9558],[127.37913,36.95756],[127.37945,36.95791],[127.38006,36.95855],[127.38157,36.9586],[127.38538,36.95914],[127.38589,36.9598],[127.38567,36.96006],[127.38533,36.96048],[127.38746,36.96385],[127.38759,36.96407],[127.39016,36.9645],[127.39157,36.96474],[127.39355,36.96443],[127.39384,36.9643],[127.3966,36.96399]]]]}},{"type":"Feature","properties":{"code":"43750370","name":"광혜원면","parent":"43750"},"geometry":{"type":"MultiPolygon","coordinates":[[[[127.4467,37.01103],[127.44786,37.01049],[127.44806,37.0104],[127.44845,37.01018],[127.44879,37.00995],[127.44892,37.00985],[127.44896,37.00972],[127.44868,37.00879],[127.44852,37.00849],[127.4483,37.0077],[127.44828,37.00749],[127.44856,37.00559],[127.44899,37.00435],[127.44746,37.00081],[127.44743,37.00069],[127.44745,37.00057],[127.44777,36.9986],[127.4478,36.99847],[127.44797,36.99784],[127.44998,36.99417],[127.45018,36.99389],[127.44896,36.99267],[127.44889,36.99257],[127.44878,36.99242],[127.44873,36.99221],[127.44812,36.98877],[127.44896,36.98033],[127.44949,36.97662],[127.45141,36.97479],[127.45159,36.97503],[127.45167,36.97509],[127.45184,36.97511],[127.4523,36.97503],[127.45238,36.97499],[127.45245,36.97497],[127.45291,36.97475],[127.45318,36.97448],[127.45329,36.97432],[127.45351,36.97368],[127.45423,36.9711],[127.45444,36.96952],[127.45532,36.96884],[127.4556,36.96861],[127.45588,36.96837],[127.45705,36.96544],[127.4572,36.96406],[127.45721,36.96391],[127.4572,36.96383],[127.45712,36.96376],[127.45694,36.96365],[127.45648,36.96339],[127.45622,36.96324],[127.45537,36.9628],[127.45374,36.96216],[127.45314,36.96206],[127.45221,36.96191],[127.45206,36.9619],[127.45186,36.96193],[127.45161,36.96203],[127.45139,36.9622],[127.45129,36.96234],[127.4512,36.96248],[127.45108,36.96273],[127.45102,36.96302],[127.45095,36.96315],[127.45089,36.96323],[127.45083,36.96326],[127.45077,36.96329],[127.45072,36.9633],[127.45066,36.96331],[127.45047,36.96333],[127.45023,36.96333],[127.45,36.96331],[127.44974,36.9632],[127.44944,36.96307],[127.44915,36.96289],[127.44712,36.96152],[127.44661,36.96109],[127.44599,36.9604],[127.44573,36.96004],[127.4456,36.95983],[127.44531,36.95881],[127.44528,36.95856],[127.44683,36.95106],[127.44686,36.95097],[127.44693,36.95085],[127.44802,36.95002],[127.44637,36.94835],[127.44581,36.94709],[127.44195,36.94678],[127.43706,36.94711],[127.4297,36.94761],[127.42956,36.94764],[127.42944,36.94749],[127.42773,36.94501],[127.42762,36.94482],[127.42763,36.94469],[127.42813,36.94314],[127.42822,36.94289],[127.42831,36.94273],[127.42851,36.94251],[127.42891,36.94211],[127.42925,36.94179],[127.4295,36.94158],[127.42978,36.94143],[127.43016,36.94127],[127.43082,36.94095],[127.43122,36.94057],[127.43135,36.9402],[127.43136,36.94015],[127.43151,36.93949],[127.4309,36.93932],[127.42931,36.93911],[127.42698,36.94113],[127.42441,36.94332],[127.4243,36.94341],[127.42409,36.94356],[127.42392,36.94367],[127.4238,36.94375],[127.42348,36.94391],[127.42322,36.94401],[127.42303,36.94405],[127.42287,36.94408],[127.42228,36.94406],[127.42017,36.94397],[127.41785,36.94393],[127.41772,36.94393],[127.41764,36.94396],[127.41755,36.94405],[127.41736,36.94422],[127.41725,36.94436],[127.41719,36.94446],[127.41716,36.94463],[127.41715,36.94508],[127.41716,36.94529],[127.41725,36.94571],[127.41727,36.94581],[127.4174,36.94605],[127.4175,36.94633],[127.41777,36.9472],[127.41751,36.94859],[127.41746,36.94877],[127.41734,36.94893],[127.41598,36.95008],[127.41285,36.95205],[127.41271,36.95212],[127.41191,36.95244],[127.41099,36.95279],[127.40988,36.95274],[127.40903,36.95244],[127.4058,36.95199],[127.39896,36.95586],[127.39864,36.95613],[127.39713,36.95765],[127.39694,36.95786],[127.39686,36.95796],[127.39681,36.95803],[127.39659,36.95864],[127.39659,36.95869],[127.39659,36.95874],[127.39664,36.96316],[127.3966,36.96399],[127.39681,36.96403],[127.39807,36.96432],[127.40186,36.96775],[127.3996,36.97004],[127.39776,36.97242],[127.39412,36.9773],[127.39375,36.97758],[127.39272,36.97837],[127.38961,36.98016],[127.38847,36.98056],[127.38767,36.98084],[127.38692,36.9811],[127.38608,36.98139],[127.38492,36.98366],[127.38494,36.9844],[127.38536,36.98506],[127.38634,36.98603],[127.3882,36.98787],[127.3907,36.99088],[127.3918,36.99331],[127.39178,36.99337],[127.39162,36.99388],[127.39254,36.9965],[127.39404,36.99794],[127.39478,36.99816],[127.39553,36.99838],[127.39674,36.9982],[127.39697,36.99817],[127.39716,36.99818],[127.39793,36.9983],[127.39809,36.99834],[127.39872,36.99854],[127.40196,36.99878],[127.40246,36.99866],[127.40612,36.99822],[127.40633,36.99821],[127.40755,36.99816],[127.40764,36.99815],[127.40781,36.99816],[127.40815,36.99818],[127.4083,36.99825],[127.40843,36.99835],[127.40848,36.9984],[127.40865,36.99857],[127.40956,36.99932],[127.40969,36.9994],[127.41197,37.00026],[127.41203,37.00028],[127.41218,37.0003],[127.41233,37.0003],[127.4126,37.00025],[127.41343,37.00009],[127.41354,37.00005],[127.41363,36.99996],[127.41371,36.99988],[127.41374,36.99983],[127.41377,36.99978],[127.41386,36.99973],[127.41407,36.99964],[127.41412,36.99962],[127.41421,36.99959],[127.41437,36.99957],[127.41451,36.99957],[127.41477,36.9996],[127.41509,36.99966],[127.41524,36.99973],[127.41623,37.00029],[127.41798,37.00142],[127.41902,37.0025],[127.41907,37.00262],[127.41908,37.00267],[127.41923,37.00289],[127.41945,37.00313],[127.42033,37.00372],[127.42181,37.00466],[127.42201,37.00475],[127.4222,37.00477],[127.42235,37.00476],[127.42477,37.00368],[127.42672,37.00279],[127.42973,37.00188],[127.42976,37.00189],[127.43446,37.00526],[127.43703,37.00795],[127.43705,37.00799],[127.4378,37.00919],[127.43838,37.00992],[127.43975,37.01086],[127.44111,37.01162],[127.444,37.01191],[127.44467,37.01177],[127.4467,37.01103]]]]}}]}