{"type":"FeatureCollection","features":[{"type":"Feature","properties":{"code":"11650510","name":"서초1동","parent":"11650"},"geometry":{"type":"MultiPolygon","coordinates":[[[[127.02701,37.48051],[127.02551,37.4808],[127.02453,37.48059],[127.02444,37.48054],[127.02412,37.48033],[127.02404,37.47936],[127.02178,37.47753],[127.02084,37.47711],[127.02028,37.47687],[127.01983,37.47687],[127.01933,37.47869],[127.01935,37.48005],[127.01873,37.48162],[127.01799,37.48223],[127.01733,37.48326],[127.01529,37.4866],[127.01493,37.48721],[127.01458,37.48837],[127.01403,37.49152],[127.01396,37.49198],[127.01393,37.49216],[127.0139,37.49328],[127.01402,37.49358],[127.01576,37.49432],[127.02128,37.49601],[127.0225,37.49267],[127.02496,37.48633],[127.02572,37.48419],[127.02701,37.48051]]]]}},{"type":"Feature","properties":{"code":"11650520","name":"서초2동","parent":"11650"},"geometry":{"type":"MultiPolygon","coordinates":[[[[127.03162,37.48954],[127.03378,37.4851],[127.03397,37.4848],[127.03363,37.48401],[127.03436,37.48287],[127.03436,37.48281],[127.03436,37.48278],[127.03413,37.48244],[127.03393,37.48221],[127.03252,37.48101],[127.03041,37.4802],[127.02941,37.48046],[127.02866,37.48106],[127.02791,37.48086],[127.02701,37.48051],[127.02572,37.48419],[127.02496,37.48633],[127.0225,37.49267],[127.02128,37.49601],[127.02764,37.49796],[127.03162,37.48954]]]]}},{"type":"Feature","properties":{"code":"11650530","name":"서초3동","parent":"11650"},"geometry":{"type":"MultiPolygon","coordinates":[[[[127.01576,37.49432],[127.01402,37.49358],[127.0139,37.49328],[127.01393,37.49216],[127.01396,37.49198],[127.01403,37.49152],[127.01458,37.48837],[127.01493,37.48721],[127.01529,37.4866],[127.01733,37.48326],[127.01799,37.48223],[127.01873,37.48162],[127.01935,37.48005],[127.01933,37.47869],[127.01983,37.47687],[127.01807,37.4766],[127.01684,37.47597],[127.01551,37.47476],[127.01502,37.47423],[127.015,37.4742],[127.01359,37.47318],[127.01031,37.47226],[127.00909,37.47485],[127.00664,37.47822],[127.00542,37.47902],[127.0041,37.47855],[127.00396,37.47877],[127.00384,37.47894],[127.00358,37.47934],[127.00331,37.47976],[127.00317,37.47997],[127.00295,37.48032],[127.00267,37.48085],[127.00296,37.48127],[127.00215,37.4823],[127.00189,37.4828],[127.00083,37.48366],[127.00083,37.48418],[127.00083,37.48421],[127.00083,37.48433],[127.00083,37.48446],[127.00064,37.48501],[127.00059,37.48516],[127.00028,37.48565],[127.00056,37.48595],[127.00063,37.48607],[127.00118,37.48696],[127.0008,37.48992],[127.00027,37.49195],[127.00097,37.49245],[127.001,37.49247],[127.00158,37.49289],[127.00207,37.49326],[127.00216,37.49333],[127.00291,37.49395],[127.00361,37.49483],[127.00965,37.4984],[127.01009,37.49861],[127.01054,37.49876],[127.01245,37.49905],[127.01291,37.49698],[127.0131,37.49618],[127.01337,37.49511],[127.01355,37.49434],[127.01411,37.49402],[127.01414,37.49402],[127.01576,37.49432]]]]}},{"type":"Feature","properties":{"code":"11650531","name":"서초4동","parent":"11650"},"geometry":{"type":"MultiPolygon","coordinates":[[[[127.02764,37.49796],[127.02128,37.49601],[127.01576,37.49432],[127.01414,37.49402],[127.01411,37.49402],[127.01355,37.49434],[127.01337,37.49511],[127.0131,37.49618],[127.01291,37.49698],[127.01245,37.49905],[127.01238,37.49937],[127.01361,37.49963],[127.01785,37.50078],[127.01867,37.50283],[127.02107,37.50345],[127.02363,37.50425],[127.0245,37.50452],[127.02649,37.50037],[127.02764,37.49796]]]]}},{"type":"Feature","properties":{"code":"11650540","name":"잠원동","parent":"11650"},"geometry":{"type":"MultiPolygon","coordinates":[[[[127.01944,37.51599],[127.01986,37.51504],[127.02131,37.51117],[127.02035,37.51081],[127.01162,37.50831],[127.01166,37.50916],[127.00936,37.51251],[127.00906,37.51282],[127.00861,37.51328],[127.00851,37.51322],[127.0077,37.51283],[127.00733,37.51258],[127.00676,37.51353],[127.00718,37.51396],[127.00721,37.51398],[127.00746,37.51423],[127.0076,37.51429],[127.00765,37.51434],[127.0077,37.51438],[127.00824,37.51492],[127.00889,37.51565],[127.00819,37.51613],[127.00812,37.51618],[127.00791,37.51637],[127.00748,37.51678],[127.00443,37.52026],[127.00797,37.52459],[127.01187,37.52784],[127.0146,37.52551],[127.01661,37.52338],[127.01707,37.52289],[127.0172,37.5227],[127.01761,37.52209],[127.01798,37.5213],[127.01828,37.52052],[127.01892,37.51857],[127.01903,37.51824],[127.01948,37.51634],[127.01944,37.51599]]]]}},{"type":"Feature","properties":{"code":"11650550","name":"반포본동","parent":"11650"},"geometry":{"type":"MultiPolygon","coordinates":[[[[126.99062,37.51303],[126.9925,37.50971],[126.99186,37.508],[126.99221,37.50643],[126.99185,37.50565],[126.99182,37.5054],[126.99183,37.50536],[126.9919,37.50507],[126.9929,37.5029],[126.99392,37.50286],[126.99395,37.50283],[126.99411,37.50257],[126.99418,37.50247],[126.99419,37.50244],[126.99439,37.50196],[126.99441,37.50191],[126.99451,37.50169],[126.99453,37.50163],[126.99454,37.5016],[126.99453,37.50156],[126.99453,37.50151],[126.99452,37.50148],[126.9911,37.49951],[126.9901,37.49918],[126.99006,37.49917],[126.98952,37.49902],[126.98897,37.49887],[126.98823,37.49867],[126.98784,37.49861],[126.98695,37.49863],[126.9862,37.49904],[126.98115,37.50229],[126.9807,37.50274],[126.98045,37.50331],[126.98039,37.5036],[126.98033,37.50395],[126.98032,37.504],[126.9803,37.50484],[126.98013,37.50649],[126.98073,37.50657],[126.98568,37.50663],[126.99062,37.51303]]]]}},{"type":"Feature","properties":{"code":"11650560","name":"반포1동","parent":"11650"},"geometry":{"type":"MultiPolygon","coordinates":[[[[127.02447,37.50457],[127.0245,37.50452],[127.02363,37.50425],[127.02107,37.50345],[127.01867,37.50283],[127.01785,37.50078],[127.01361,37.49963],[127.01238,37.49937],[127.01194,37.50127],[127.0118,37.50184],[127.01158,37.50249],[127.01156,37.50256],[127.01152,37.50264],[127.01101,37.50362],[127.01081,37.50402],[127.01046,37.50468],[127.01042,37.50476],[127.01003,37.50551],[127.00937,37.50676],[127.00932,37.50686],[127.00911,37.50726],[127.00975,37.50778],[127.01162,37.50831],[127.02035,37.51081],[127.02137,37.51103],[127.02447,37.50457]]]]}},{"type":"Feature","properties":{"code":"11650570","name":"반포2동","parent":"11650"},"geometry":{"type":"MultiPolygon","coordinates":[[[[127.00093,37.50527],[127.0029,37.50275],[127.00306,37.50249],[127.00311,37.50212],[127.00295,37.50195],[127.00133,37.50127],[126.99484,37.49867],[126.994,37.4984],[126.9933,37.49824],[126.99287,37.49818],[126.99218,37.49816],[126.99071,37.49816],[126.98775,37.49824],[126.98784,37.49861],[126.98823,37.49867],[126.98897,37.49887],[126.98952,37.49902],[126.99006,37.49917],[126.9901,37.49918],[126.9911,37.49951],[126.99452,37.50148],[126.99453,37.50151],[126.99453,37.50156],[126.99454,37.5016],[126.99453,37.50163],[126.99451,37.50169],[126.99441,37.50191],[126.99439,37.50196],[126.99419,37.50244],[126.99418,37.50247],[126.99411,37.50257],[126.99395,37.50283],[126.99392,37.50286],[126.9929,37.5029],[126.9919,37.50507],[126.99183,37.50536],[126.99182,37.5054],[126.99185,37.50565],[126.99221,37.50643],[126.99186,37.508],[126.9925,37.50971],[126.99062,37.51303],[126.99594,37.51574],[126.9984,37.51062],[126.99956,37.50825],[127.00028,37.50674],[127.00053,37.50619],[127.00093,37.50527]]]]}},{"type":"Feature","properties":{"code":"11650580","name":"반포3동","parent":"11650"},"geometry":{"type":"MultiPolygon","coordinates":[[[[127.01162,37.50831],[127.00975,37.50778],[127.00093,37.50527],[127.00053,37.50619],[127.00028,37.50674],[126.99956,37.50825],[126.9984,37.51062],[126.99594,37.51574],[127.00039,37.51795],[127.00443,37.52026],[127.00748,37.51678],[127.00791,37.51637],[127.00812,37.51618],[127.00819,37.51613],[127.00889,37.51565],[127.00824,37.51492],[127.0077,37.51438],[127.00765,37.51434],[127.0076,37.51429],[127.00746,37.51423],[127.00721,37.51398],[127.00718,37.51396],[127.00676,37.51353],[127.00733,37.51258],[127.0077,37.51283],[127.00851,37.51322],[127.00861,37.51328],[127.00906,37.51282],[127.00936,37.51251],[127.01166,37.50916],[127.01162,37.50831]]]]}},{"type":"Feature","properties":{"code":"11650581","name":"반포4동","parent":"11650"},"geometry":{"type":"MultiPolygon","coordinates":[[[[127.01238,37.49937],[127.01245,37.49905],[127.01054,37.49876],[127.01009,37.49861],[127.00965,37.4984],[127.00361,37.49483],[127.00291,37.49395],[127.00216,37.49333],[127.00207,37.49326],[127.00158,37.49289],[127.001,37.49247],[127.00097,37.49245],[127.00027,37.49195],[126.99725,37.49368],[126.99546,37.49402],[126.99543,37.49435],[126.99533,37.49476],[126.99527,37.49484],[126.99523,37.49489],[126.99491,37.49533],[126.99496,37.49549],[126.99505,37.49577],[126.99501,37.49581],[126.99496,37.49586],[126.99484,37.49599],[126.99485,37.49605],[126.99459,37.49612],[126.99453,37.49613],[126.99449,37.49611],[126.99424,37.49611],[126.99417,37.49612],[126.99413,37.49613],[126.99378,37.49617],[126.99361,37.49601],[126.99295,37.49634],[126.99294,37.49663],[126.99276,37.49691],[126.99224,37.49705],[126.99188,37.49714],[126.99184,37.49715],[126.99161,37.49719],[126.99125,37.49725],[126.99092,37.49751],[126.99071,37.49788],[126.99071,37.4981],[126.99071,37.49816],[126.99218,37.49816],[126.99287,37.49818],[126.9933,37.49824],[126.994,37.4984],[126.99484,37.49867],[127.00133,37.50127],[127.00295,37.50195],[127.00311,37.50212],[127.00306,37.50249],[127.0029,37.50275],[127.00093,37.50527],[127.00975,37.50778],[127.00911,37.50726],[127.00932,37.50686],[127.00937,37.50676],[127.01003,37.50551],[127.01042,37.50476],[127.01046,37.50468],[127.01081,37.50402],[127.01101,37.50362],[127.01152,37.50264],[127.01156,37.50256],[127.01158,37.50249],[127.0118,37.50184],[127.01194,37.50127],[127.01238,37.49937]]]]}},{"type":"Feature","properties":{"code":"11650590","name":"방배본동","parent":"11650"},"geometry":{"type":"MultiPolygon","coordinates":[[[[126.98775,37.49824],[126.99071,37.49816],[126.99071,37.4981],[126.99071,37.49788],[126.99092,37.49751],[126.99125,37.49725],[126.99161,37.49719],[126.99184,37.49715],[126.99188,37.49714],[126.99224,37.49705],[126.99276,37.49691],[126.99294,37.49663],[126.99295,37.49634],[126.99361,37.49601],[126.99378,37.49617],[126.99413,37.49613],[126.99417,37.49612],[126.99424,37.49611],[126.99449,37.49611],[126.99453,37.49613],[126.99459,37.49612],[126.99485,37.49605],[126.99484,37.49599],[126.99496,37.49586],[126.99501,37.49581],[126.99505,37.49577],[126.99496,37.49549],[126.99491,37.49533],[126.99523,37.49489],[126.99527,37.49484],[126.99533,37.49476],[126.99543,37.49435],[126.99546,37.49402],[126.99229,37.49355],[126.99044,37.49285],[126.98911,37.49232],[126.98744,37.49165],[126.98643,37.49125],[126.98589,37.49103],[126.9855,37.49088],[126.98506,37.49088],[126.98265,37.49089],[126.98274,37.49398],[126.98274,37.4942],[126.98275,37.49429],[126.98276,37.49484],[126.98277,37.49504],[126.98278,37.49524],[126.9829,37.49635],[126.98292,37.49641],[126.98296,37.4965],[126.98304,37.49668],[126.98308,37.49676],[126.98324,37.49713],[126.98336,37.49733],[126.98344,37.49746],[126.98349,37.49755],[126.98477,37.49928],[126.98625,37.49858],[126.98775,37.49824]]]]}},{"type":"Feature","properties":{"code":"11650600","name":"방배1동","parent":"11650"},"geometry":{"type":"MultiPolygon","coordinates":[[[[127.00215,37.4823],[127.00063,37.48191],[126.99772,37.48132],[126.99627,37.48103],[126.99523,37.4807],[126.99364,37.48018],[126.98963,37.48644],[126.99037,37.48668],[126.99056,37.48674],[126.99163,37.48706],[126.99908,37.48932],[127.0008,37.48992],[127.00118,37.48696],[127.00063,37.48607],[127.00056,37.48595],[127.00028,37.48565],[127.00059,37.48516],[127.00064,37.48501],[127.00083,37.48446],[127.00083,37.48433],[127.00083,37.48421],[127.00083,37.48418],[127.00083,37.48366],[127.00189,37.4828],[127.00215,37.4823]]]]}},{"type":"Feature","properties":{"code":"11650610","name":"방배2동","parent":"11650"},"geometry":{"type":"MultiPolygon","coordinates":[[[[126.99364,37.48018],[126.99092,37.47929],[126.99029,37.47909],[126.99,37.47895],[126.98732,37.47762],[126.98697,37.47741],[126.9866,37.47712],[126.98606,37.476],[126.98602,37.47586],[126.98568,37.47461],[126.98595,37.47277],[126.98681,37.47118],[126.98908,37.47066],[126.99287,37.46953],[126.99372,37.46921],[126.99475,37.46882],[126.99628,37.46672],[126.99646,37.4648],[126.99722,37.46394],[126.99716,37.46352],[126.99696,37.4625],[126.99683,37.46218],[126.99176,37.45967],[126.98862,37.45814],[126.98764,37.4594],[126.98747,37.46041],[126.98764,37.4613],[126.98792,37.46224],[126.98802,37.46276],[126.98823,37.46387],[126.98816,37.46552],[126.98781,37.46641],[126.98759,37.46694],[126.98739,37.46719],[126.98713,37.46751],[126.98686,37.46785],[126.98671,37.46797],[126.98667,37.46801],[126.98543,37.46898],[126.98453,37.46974],[126.98378,37.4708],[126.98323,37.47157],[126.98265,37.47257],[126.98255,37.47274],[126.98254,37.47277],[126.98195,37.47442],[126.98186,37.4747],[126.98177,37.47583],[126.98172,37.47636],[126.98161,37.47715],[126.98181,37.48059],[126.98207,37.48481],[126.98208,37.48539],[126.98963,37.48644],[126.99364,37.48018]]]]}},{"type":"Feature","properties":{"code":"11650620","name":"방배3동","parent":"11650"},"geometry":{"type":"MultiPolygon","coordinates":[[[[127.01031,37.47226],[127.00968,37.4716],[127.00742,37.47053],[127.00567,37.46997],[127.00447,37.46928],[127.00417,37.46883],[127.00382,37.46816],[127.00342,37.46726],[126.99975,37.46716],[126.99628,37.46672],[126.99475,37.46882],[126.99372,37.46921],[126.99287,37.46953],[126.98908,37.47066],[126.98681,37.47118],[126.98595,37.47277],[126.98568,37.47461],[126.98602,37.47586],[126.98606,37.476],[126.9866,37.47712],[126.98697,37.47741],[126.98732,37.47762],[126.99,37.47895],[126.99029,37.47909],[126.99092,37.47929],[126.99364,37.48018],[126.99523,37.4807],[126.99627,37.48103],[126.99772,37.48132],[127.00063,37.48191],[127.00215,37.4823],[127.00296,37.48127],[127.00267,37.48085],[127.00295,37.48032],[127.00317,37.47997],[127.00331,37.47976],[127.00358,37.47934],[127.00384,37.47894],[127.00396,37.47877],[127.0041,37.47855],[127.00542,37.47902],[127.00664,37.47822],[127.00909,37.47485],[127.01031,37.47226]]]]}},{"type":"Feature","properties":{"code":"11650621","name":"방배4동","parent":"11650"},"geometry":{"type":"MultiPolygon","coordinates":[[[[127.00027,37.49195],[127.0008,37.48992],[126.99908,37.48932],[126.99163,37.48706],[126.99056,37.48674],[126.99037,37.48668],[126.98963,37.48644],[126.98208,37.48539],[126.98265,37.49089],[126.98506,37.49088],[126.9855,37.49088],[126.98589,37.49103],[126.98643,37.49125],[126.98744,37.49165],[126.98911,37.49232],[126.99044,37.49285],[126.99229,37.49355],[126.99546,37.49402],[126.99725,37.49368],[127.00027,37.49195]]]]}},{"type":"Feature","properties":{"code":"11650651","name":"양재1동","parent":"11650"},"geometry":{"type":"MultiPolygon","coordinates":[[[[127.04394,37.47971],[127.04141,37.47667],[127.04138,37.47663],[127.04031,37.4755],[127.03932,37.47471],[127.03927,37.47469],[127.03762,37.47406],[127.03753,37.47403],[127.03658,37.47373],[127.03567,37.47344],[127.03519,37.4733],[127.03469,37.47316],[127.03378,37.4729],[127.03307,37.4724],[127.03275,37.47217],[127.0308,37.47037],[127.02897,37.46785],[127.02986,37.46545],[127.03008,37.46418],[127.02999,37.4639],[127.02986,37.46345],[127.0261,37.45851],[127.0258,37.45836],[127.02469,37.45781],[127.02338,37.45728],[127.02262,37.45698],[127.02185,37.45668],[127.0216,37.45658],[127.02053,37.45617],[127.01786,37.45561],[127.01617,37.45537],[127.01106,37.45539],[127.00516,37.46306],[127.00417,37.46478],[127.00342,37.46726],[127.00382,37.46816],[127.00417,37.46883],[127.00447,37.46928],[127.00567,37.46997],[127.00742,37.47053],[127.00968,37.4716],[127.01031,37.47226],[127.01359,37.47318],[127.015,37.4742],[127.01502,37.47423],[127.01551,37.47476],[127.01684,37.47597],[127.01807,37.4766],[127.01983,37.47687],[127.02028,37.47687],[127.02084,37.47711],[127.02178,37.47753],[127.02404,37.47936],[127.02412,37.48033],[127.02444,37.48054],[127.02453,37.48059],[127.02551,37.4808],[127.02701,37.48051],[127.02791,37.48086],[127.02866,37.48106],[127.02941,37.48046],[127.03041,37.4802],[127.03252,37.48101],[127.03393,37.48221],[127.03413,37.48244],[127.03436,37.48278],[127.03436,37.48281],[127.03436,37.48287],[127.03363,37.48401],[127.03397,37.4848],[127.04135,37.48557],[127.04154,37.48509],[127.04394,37.47971]]]]}},{"type":"Feature","properties":{"code":"11650652","name":"양재2동","parent":"11650"},"geometry":{"type":"MultiPolygon","coordinates":[[[[127.04958,37.47049],[127.04788,37.46921],[127.04727,37.46875],[127.04678,37.46839],[127.04485,37.46696],[127.0431,37.46567],[127.04303,37.46562],[127.04401,37.46471],[127.04536,37.46347],[127.04556,37.46127],[127.04552,37.46119],[127.04553,37.46085],[127.04582,37.45934],[127.04591,37.45917],[127.04593,37.45913],[127.04605,37.45893],[127.04637,37.45845],[127.04768,37.45753],[127.04948,37.45585],[127.04978,37.45539],[127.0507,37.45384],[127.05069,37.45381],[127.05069,37.45378],[127.05062,37.45352],[127.0505,37.45307],[127.05067,37.4526],[127.05087,37.45205],[127.05129,37.4516],[127.0519,37.45095],[127.05416,37.44879],[127.05438,37.44859],[127.05446,37.44851],[127.05451,37.44846],[127.05614,37.44697],[127.05867,37.44332],[127.05993,37.4412],[127.06051,37.44089],[127.06146,37.44057],[127.06336,37.43822],[127.06354,37.43791],[127.06391,37.43684],[127.06392,37.43648],[127.06396,37.43574],[127.06377,37.43536],[127.06374,37.4353],[127.06371,37.43524],[127.06337,37.43446],[127.06328,37.43417],[127.06318,37.43386],[127.06311,37.43361],[127.06303,37.43164],[127.06316,37.42971],[127.06188,37.42983],[127.05797,37.43013],[127.05789,37.43014],[127.05459,37.42941],[127.05089,37.42965],[127.04987,37.43031],[127.04896,37.43055],[127.04747,37.43087],[127.04726,37.4319],[127.04724,37.43197],[127.04719,37.43207],[127.04709,37.43222],[127.04699,37.43232],[127.04696,37.43234],[127.04683,37.43248],[127.04674,37.43259],[127.04665,37.43272],[127.04661,37.43281],[127.04655,37.43293],[127.04649,37.4331],[127.04647,37.4332],[127.04643,37.43337],[127.04641,37.43342],[127.04639,37.43348],[127.04634,37.43355],[127.04628,37.43361],[127.04619,37.43366],[127.04616,37.43368],[127.04604,37.43372],[127.04559,37.43386],[127.04543,37.4339],[127.04539,37.43391],[127.04535,37.43393],[127.04523,37.43398],[127.04512,37.43403],[127.04505,37.43407],[127.04493,37.43414],[127.04486,37.43419],[127.04478,37.43426],[127.04472,37.4343],[127.04466,37.43436],[127.0446,37.43445],[127.04458,37.43448],[127.04454,37.43454],[127.0445,37.43465],[127.04447,37.4347],[127.04445,37.43477],[127.04444,37.43482],[127.04435,37.43503],[127.0443,37.43512],[127.04422,37.43523],[127.0441,37.43535],[127.04407,37.43539],[127.04371,37.43572],[127.04106,37.43811],[127.04097,37.43817],[127.04087,37.43821],[127.04052,37.43834],[127.04001,37.43848],[127.03991,37.4385],[127.03981,37.4385],[127.03971,37.43849],[127.03958,37.43847],[127.03902,37.43843],[127.03748,37.43847],[127.03739,37.43848],[127.03731,37.43849],[127.03717,37.43852],[127.03586,37.43916],[127.03584,37.43919],[127.0358,37.43927],[127.03547,37.44044],[127.03546,37.44049],[127.03545,37.44054],[127.03542,37.44074],[127.03541,37.44083],[127.03539,37.44099],[127.03539,37.44112],[127.03541,37.44117],[127.03652,37.4419],[127.0366,37.44195],[127.03665,37.44199],[127.03671,37.44203],[127.03676,37.44208],[127.03681,37.44215],[127.03757,37.44345],[127.038,37.44423],[127.03809,37.44441],[127.03815,37.44457],[127.03818,37.44463],[127.0382,37.4447],[127.03821,37.44473],[127.03832,37.44516],[127.03837,37.44546],[127.03837,37.44554],[127.03836,37.44565],[127.03789,37.44908],[127.03788,37.44914],[127.03583,37.45755],[127.03562,37.45751],[127.03548,37.45752],[127.03541,37.45753],[127.03516,37.45762],[127.03492,37.45787],[127.03378,37.46003],[127.03343,37.46108],[127.03401,37.46236],[127.03407,37.46248],[127.03437,37.46304],[127.03473,37.46385],[127.03458,37.46404],[127.03437,37.46419],[127.03407,37.46441],[127.03314,37.46502],[127.03272,37.46525],[127.03127,37.46578],[127.02986,37.46545],[127.02897,37.46785],[127.0308,37.47037],[127.03275,37.47217],[127.03307,37.4724],[127.03378,37.4729],[127.03469,37.47316],[127.03519,37.4733],[127.03567,37.47344],[127.03658,37.47373],[127.03753,37.47403],[127.03762,37.47406],[127.03927,37.47469],[127.03932,37.47471],[127.04031,37.4755],[127.04138,37.47663],[127.04141,37.47667],[127.04394,37.47971],[127.04457,37.47819],[127.04469,37.47797],[127.04503,37.47729],[127.04915,37.47332],[127.05071,37.47182],[127.05106,37.47149],[127.05039,37.47104],[127.04958,37.47049]]]]}},{"type":"Feature","properties":{"code":"11650660","name":"내곡동","parent":"11650"},"geometry":{"type":"MultiPolygon","coordinates":[[[[127.08516,37.47527],[127.08507,37.47494],[127.08449,37.47287],[127.0849,37.47211],[127.0852,37.47156],[127.08621,37.47036],[127.08876,37.46807],[127.09336,37.4644],[127.09404,37.46399],[127.09502,37.46366],[127.096,37.4625],[127.09609,37.46223],[127.09626,37.46164],[127.09632,37.46143],[127.09587,37.46106],[127.09541,37.46029],[127.09463,37.45878],[127.09495,37.45842],[127.09512,37.4583],[127.09428,37.45652],[127.09307,37.45482],[127.09214,37.45362],[127.09138,37.45331],[127.09096,37.45298],[127.09082,37.45283],[127.08969,37.4512],[127.08832,37.44864],[127.08819,37.44637],[127.08799,37.44506],[127.08565,37.44503],[127.08555,37.44499],[127.08543,37.44494],[127.08413,37.444],[127.08394,37.44382],[127.08323,37.44255],[127.08257,37.44146],[127.08231,37.4412],[127.08158,37.441],[127.08129,37.44098],[127.08122,37.44098],[127.081,37.44096],[127.07734,37.44181],[127.07708,37.44197],[127.07704,37.442],[127.07674,37.44218],[127.07633,37.44227],[127.07476,37.44242],[127.07242,37.44235],[127.07237,37.44233],[127.07215,37.44221],[127.07192,37.44209],[127.07179,37.44194],[127.07176,37.44192],[127.07168,37.44183],[127.07165,37.4418],[127.07166,37.4417],[127.07168,37.44156],[127.07197,37.44001],[127.07338,37.43934],[127.07263,37.43639],[127.07143,37.4352],[127.07092,37.43185],[127.07046,37.43006],[127.06935,37.43042],[127.06816,37.43058],[127.06675,37.43013],[127.06601,37.42959],[127.06578,37.42927],[127.0657,37.42915],[127.06569,37.42912],[127.06567,37.42901],[127.06553,37.42902],[127.06538,37.42904],[127.06467,37.42915],[127.06429,37.4292],[127.06316,37.42971],[127.06303,37.43164],[127.06311,37.43361],[127.06318,37.43386],[127.06328,37.43417],[127.06337,37.43446],[127.06371,37.43524],[127.06374,37.4353],[127.06377,37.43536],[127.06396,37.43574],[127.06392,37.43648],[127.06391,37.43684],[127.06354,37.43791],[127.06336,37.43822],[127.06146,37.44057],[127.06051,37.44089],[127.05993,37.4412],[127.05867,37.44332],[127.05614,37.44697],[127.05451,37.44846],[127.05446,37.44851],[127.05438,37.44859],[127.05416,37.44879],[127.0519,37.45095],[127.05129,37.4516],[127.05087,37.45205],[127.05067,37.4526],[127.0505,37.45307],[127.05062,37.45352],[127.05069,37.45378],[127.05069,37.45381],[127.0507,37.45384],[127.04978,37.45539],[127.04948,37.45585],[127.04768,37.45753],[127.04637,37.45845],[127.04605,37.45893],[127.04593,37.45913],[127.04591,37.45917],[127.04582,37.45934],[127.04553,37.46085],[127.04552,37.46119],[127.04556,37.46127],[127.04536,37.46347],[127.04401,37.46471],[127.04303,37.46562],[127.0431,37.46567],[127.04485,37.46696],[127.04678,37.46839],[127.04727,37.46875],[127.04788,37.46921],[127.04958,37.47049],[127.05007,37.4701],[127.05381,37.46873],[127.05416,37.46863],[127.05453,37.46853],[127.05621,37.46839],[127.05675,37.46842],[127.06161,37.46896],[127.06216,37.46965],[127.06228,37.47023],[127.06253,37.47284],[127.06924,37.47389],[127.06976,37.47478],[127.07081,37.47483],[127.07265,37.4748],[127.07391,37.47286],[127.07594,37.4738],[127.07615,37.47399],[127.07716,37.47501],[127.07834,37.47486],[127.07904,37.47483],[127.07925,37.47483],[127.08035,37.47489],[127.08102,37.47517],[127.08163,37.47526],[127.08219,37.47533],[127.083,37.47539],[127.08387,37.47545],[127.08405,37.47544],[127.08516,37.47527]]]]}}]}