{"type":"FeatureCollection","features":[{"type":"Feature","properties":{"code":"52113540","name":"인후1동","parent":"52113"},"geometry":{"type":"MultiPolygon","coordinates":[[[[127.16264,35.84301],[127.16366,35.83759],[127.16038,35.83748],[127.16032,35.83745],[127.16025,35.83742],[127.15885,35.83676],[127.15828,35.8365],[127.15826,35.83648],[127.1573,35.83558],[127.15718,35.83546],[127.15682,35.83509],[127.15669,35.83495],[127.1549,35.8327],[127.1547,35.83237],[127.15455,35.83175],[127.15445,35.83132],[127.15436,35.83086],[127.1541,35.8296],[127.15154,35.82968],[127.15166,35.83029],[127.15081,35.83297],[127.15029,35.83444],[127.15025,35.83618],[127.15174,35.8417],[127.15183,35.84199],[127.15186,35.84205],[127.15202,35.84245],[127.15204,35.8425],[127.15217,35.84274],[127.15224,35.84282],[127.15238,35.84301],[127.15285,35.84364],[127.15288,35.84368],[127.15433,35.84239],[127.15535,35.84266],[127.15668,35.84303],[127.15815,35.84364],[127.15885,35.84401],[127.1591,35.84403],[127.15923,35.84404],[127.16014,35.84386],[127.16135,35.84359],[127.16264,35.84301]]]]}},{"type":"Feature","properties":{"code":"52113550","name":"인후2동","parent":"52113"},"geometry":{"type":"MultiPolygon","coordinates":[[[[127.14991,35.8505],[127.14944,35.84907],[127.15201,35.84826],[127.15341,35.84462],[127.15288,35.84368],[127.15285,35.84364],[127.15238,35.84301],[127.15224,35.84282],[127.15217,35.84274],[127.15204,35.8425],[127.15202,35.84245],[127.15186,35.84205],[127.15183,35.84199],[127.15174,35.8417],[127.15025,35.83618],[127.15029,35.83444],[127.15081,35.83297],[127.15166,35.83029],[127.15154,35.82968],[127.1478,35.83021],[127.14645,35.83067],[127.14683,35.83173],[127.14541,35.83218],[127.14369,35.83263],[127.14257,35.83284],[127.14218,35.83388],[127.14215,35.83463],[127.14216,35.83475],[127.1424,35.83482],[127.14309,35.83484],[127.14325,35.83483],[127.1453,35.84116],[127.14467,35.84227],[127.14425,35.84284],[127.14368,35.8439],[127.14365,35.84395],[127.14387,35.84539],[127.14474,35.84914],[127.14462,35.84917],[127.14405,35.84941],[127.14395,35.85018],[127.14414,35.85033],[127.14454,35.85061],[127.14504,35.85064],[127.14675,35.85033],[127.14763,35.85044],[127.14869,35.85062],[127.14991,35.8505]]]]}},{"type":"Feature","properties":{"code":"52113560","name":"인후3동","parent":"52113"},"geometry":{"type":"MultiPolygon","coordinates":[[[[127.16978,35.81845],[127.16963,35.81842],[127.16898,35.81843],[127.16835,35.81854],[127.16811,35.8187],[127.16629,35.82008],[127.16602,35.82037],[127.16535,35.82126],[127.16298,35.82367],[127.16088,35.82569],[127.15819,35.82805],[127.15609,35.82867],[127.15589,35.82848],[127.15554,35.82839],[127.15535,35.82837],[127.15495,35.82845],[127.15434,35.82866],[127.15412,35.82884],[127.15408,35.82918],[127.1541,35.82956],[127.1541,35.8296],[127.15436,35.83086],[127.15445,35.83132],[127.15455,35.83175],[127.1547,35.83237],[127.1549,35.8327],[127.15669,35.83495],[127.15682,35.83509],[127.15718,35.83546],[127.1573,35.83558],[127.15826,35.83648],[127.15828,35.8365],[127.15885,35.83676],[127.16025,35.83742],[127.16032,35.83745],[127.16038,35.83748],[127.16366,35.83759],[127.1645,35.83747],[127.16487,35.83647],[127.16527,35.83561],[127.16547,35.83519],[127.16601,35.83535],[127.16712,35.83562],[127.16739,35.83495],[127.16742,35.83488],[127.16752,35.83458],[127.16774,35.83385],[127.16776,35.83263],[127.16802,35.83178],[127.16902,35.82987],[127.17017,35.8278],[127.17026,35.82765],[127.17034,35.82753],[127.17053,35.82706],[127.17063,35.82681],[127.17089,35.82607],[127.17075,35.82551],[127.17054,35.82505],[127.1705,35.82502],[127.17006,35.8247],[127.16995,35.82465],[127.16986,35.8246],[127.16951,35.82442],[127.16936,35.82434],[127.16867,35.82347],[127.16848,35.82309],[127.16868,35.82177],[127.16897,35.82065],[127.16986,35.81971],[127.16978,35.81845]]]]}},{"type":"Feature","properties":{"code":"52113570","name":"덕진동","parent":"52113"},"geometry":{"type":"MultiPolygon","coordinates":[[[[127.15031,35.85171],[127.14991,35.8505],[127.14869,35.85062],[127.14763,35.85044],[127.14675,35.85033],[127.14504,35.85064],[127.14454,35.85061],[127.14383,35.85165],[127.14302,35.85252],[127.14267,35.85268],[127.1408,35.85237],[127.13606,35.85022],[127.13593,35.85009],[127.1359,35.85005],[127.13578,35.84987],[127.13582,35.84966],[127.13595,35.84926],[127.13643,35.84794],[127.13794,35.84465],[127.13703,35.84438],[127.13694,35.84436],[127.13064,35.84175],[127.12734,35.83827],[127.12674,35.83427],[127.12388,35.83477],[127.12349,35.83494],[127.12248,35.8354],[127.11944,35.8374],[127.11938,35.83744],[127.11768,35.83823],[127.11757,35.83823],[127.11655,35.83818],[127.11203,35.83813],[127.11154,35.83846],[127.10555,35.84223],[127.10507,35.84325],[127.105,35.84486],[127.10606,35.84685],[127.10687,35.84765],[127.10755,35.84803],[127.10857,35.84861],[127.10923,35.84898],[127.10926,35.849],[127.10932,35.84903],[127.10968,35.84923],[127.10998,35.84944],[127.11149,35.85048],[127.11275,35.85134],[127.11445,35.8529],[127.11498,35.85367],[127.11756,35.85284],[127.11811,35.85289],[127.11821,35.85284],[127.11936,35.85231],[127.12031,35.85108],[127.12254,35.8514],[127.12426,35.85233],[127.12703,35.85285],[127.12816,35.85299],[127.1286,35.85324],[127.13017,35.85427],[127.13074,35.85493],[127.13142,35.85634],[127.13761,35.85713],[127.1404,35.85814],[127.14235,35.86019],[127.1435,35.86158],[127.14499,35.86051],[127.14632,35.85864],[127.14659,35.8574],[127.14775,35.85509],[127.15001,35.85356],[127.15031,35.85171]]]]}},{"type":"Feature","properties":{"code":"52113575","name":"금암동","parent":"52113"},"geometry":{"type":"MultiPolygon","coordinates":[[[[127.13829,35.83286],[127.13777,35.83242],[127.13768,35.83241],[127.13659,35.83219],[127.13628,35.83213],[127.13565,35.83201],[127.13542,35.83199],[127.13501,35.83212],[127.13472,35.83227],[127.13451,35.83244],[127.13401,35.83283],[127.13398,35.83285],[127.13388,35.83293],[127.13348,35.83323],[127.13315,35.83338],[127.13272,35.83348],[127.12817,35.83408],[127.12674,35.83427],[127.12734,35.83827],[127.13064,35.84175],[127.13694,35.84436],[127.13703,35.84438],[127.13794,35.84465],[127.13643,35.84794],[127.13595,35.84926],[127.13582,35.84966],[127.13578,35.84987],[127.1359,35.85005],[127.13593,35.85009],[127.13606,35.85022],[127.1408,35.85237],[127.14267,35.85268],[127.14302,35.85252],[127.14383,35.85165],[127.14454,35.85061],[127.14414,35.85033],[127.14395,35.85018],[127.14405,35.84941],[127.14462,35.84917],[127.14474,35.84914],[127.14387,35.84539],[127.14365,35.84395],[127.14368,35.8439],[127.14425,35.84284],[127.14467,35.84227],[127.1453,35.84116],[127.14325,35.83483],[127.14309,35.83484],[127.1424,35.83482],[127.14216,35.83475],[127.14215,35.83463],[127.14218,35.83388],[127.14257,35.83284],[127.13832,35.83288],[127.13829,35.83286]]]]}},{"type":"Feature","properties":{"code":"52113600","name":"팔복동","parent":"52113"},"geometry":{"type":"MultiPolygon","coordinates":[[[[127.11498,35.85367],[127.11445,35.8529],[127.11275,35.85134],[127.11149,35.85048],[127.10998,35.84944],[127.10968,35.84923],[127.10932,35.84903],[127.10926,35.849],[127.10923,35.84898],[127.10857,35.84861],[127.10755,35.84803],[127.10687,35.84765],[127.10606,35.84685],[127.105,35.84486],[127.1045,35.84362],[127.10347,35.84239],[127.10474,35.8401],[127.10447,35.8401],[127.10396,35.84004],[127.10391,35.84002],[127.10364,35.8399],[127.10285,35.83891],[127.10085,35.8391],[127.09296,35.83837],[127.09169,35.83796],[127.09126,35.83785],[127.09112,35.83785],[127.09093,35.8379],[127.09023,35.83813],[127.08727,35.84003],[127.0878,35.84133],[127.08878,35.8438],[127.08901,35.84467],[127.08897,35.84499],[127.0883,35.8469],[127.08817,35.847],[127.08594,35.84846],[127.08505,35.84887],[127.08454,35.84911],[127.08354,35.84958],[127.0826,35.85001],[127.08193,35.85165],[127.08265,35.853],[127.08285,35.85311],[127.08373,35.85326],[127.08395,35.85394],[127.08403,35.85533],[127.08388,35.85615],[127.08347,35.8571],[127.08166,35.85928],[127.08022,35.86046],[127.07882,35.86164],[127.08168,35.86485],[127.08184,35.86479],[127.08903,35.86166],[127.08906,35.86165],[127.09078,35.86086],[127.09261,35.86003],[127.09265,35.86001],[127.09505,35.86177],[127.09663,35.86371],[127.09541,35.86504],[127.09426,35.86547],[127.09222,35.86632],[127.09171,35.8668],[127.09192,35.86852],[127.09316,35.86889],[127.09433,35.86897],[127.09918,35.87211],[127.09997,35.87282],[127.10061,35.8734],[127.1015,35.87362],[127.10563,35.869],[127.10644,35.86831],[127.10711,35.86682],[127.10742,35.86459],[127.10738,35.86446],[127.10708,35.8633],[127.10683,35.86193],[127.1073,35.86065],[127.10758,35.86048],[127.10786,35.86031],[127.10923,35.85947],[127.10931,35.85945],[127.11036,35.85924],[127.11102,35.85911],[127.11196,35.85891],[127.11225,35.85884],[127.11415,35.85842],[127.11513,35.85764],[127.11563,35.85644],[127.1155,35.85442],[127.11498,35.85367]]]]}},{"type":"Feature","properties":{"code":"52113611","name":"우아1동","parent":"52113"},"geometry":{"type":"MultiPolygon","coordinates":[[[[127.1676,35.85699],[127.16843,35.85291],[127.16843,35.85254],[127.16842,35.85238],[127.16841,35.85232],[127.16755,35.85031],[127.16739,35.84999],[127.1681,35.8461],[127.16809,35.84561],[127.16758,35.84464],[127.16727,35.84423],[127.16612,35.84292],[127.16264,35.84301],[127.16135,35.84359],[127.16014,35.84386],[127.15923,35.84404],[127.1591,35.84403],[127.15885,35.84401],[127.15815,35.84364],[127.15668,35.84303],[127.15535,35.84266],[127.15433,35.84239],[127.15288,35.84368],[127.15341,35.84462],[127.15201,35.84826],[127.14944,35.84907],[127.14991,35.8505],[127.15031,35.85171],[127.15057,35.85102],[127.1506,35.85095],[127.1507,35.85101],[127.15193,35.85164],[127.15247,35.85275],[127.15255,35.85401],[127.1526,35.85496],[127.15351,35.85546],[127.1537,35.85555],[127.15423,35.85581],[127.15725,35.85722],[127.15805,35.85724],[127.16138,35.85692],[127.16179,35.85687],[127.16194,35.85686],[127.1648,35.85742],[127.16491,35.85749],[127.16578,35.85803],[127.16588,35.85815],[127.16659,35.85898],[127.16707,35.85802],[127.1676,35.85699]]]]}},{"type":"Feature","properties":{"code":"52113612","name":"우아2동","parent":"52113"},"geometry":{"type":"MultiPolygon","coordinates":[[[[127.23561,35.82149],[127.23566,35.82134],[127.2357,35.82107],[127.23565,35.82097],[127.23548,35.82081],[127.23521,35.8206],[127.23505,35.8205],[127.23478,35.82038],[127.23348,35.81999],[127.23273,35.81991],[127.23247,35.81987],[127.23229,35.81981],[127.2322,35.81974],[127.23141,35.81896],[127.23127,35.81878],[127.2311,35.81851],[127.23039,35.81705],[127.22882,35.81326],[127.22831,35.81036],[127.22831,35.80974],[127.22829,35.80948],[127.22827,35.8091],[127.22822,35.8088],[127.22815,35.80861],[127.22813,35.80858],[127.22805,35.8085],[127.22793,35.80848],[127.22606,35.80783],[127.22451,35.80701],[127.22437,35.80692],[127.22422,35.80676],[127.22358,35.80595],[127.22285,35.80515],[127.22261,35.80495],[127.22244,35.80482],[127.21905,35.80248],[127.21889,35.8024],[127.21753,35.80175],[127.21728,35.80164],[127.21686,35.80181],[127.21434,35.80336],[127.21402,35.80361],[127.21388,35.80422],[127.21367,35.80472],[127.21337,35.80484],[127.21125,35.805],[127.20953,35.80501],[127.20758,35.80544],[127.20713,35.80563],[127.20446,35.80802],[127.20404,35.80897],[127.20378,35.80929],[127.20345,35.80944],[127.19994,35.81074],[127.19787,35.81104],[127.19153,35.81001],[127.18861,35.80759],[127.18853,35.80741],[127.18856,35.80671],[127.18873,35.80638],[127.18854,35.80626],[127.18786,35.80591],[127.1821,35.80507],[127.18028,35.80528],[127.17686,35.80733],[127.17588,35.80793],[127.17564,35.80809],[127.17393,35.80967],[127.17383,35.81091],[127.17211,35.81174],[127.172,35.81208],[127.17164,35.81279],[127.17133,35.8133],[127.17115,35.8135],[127.17094,35.81371],[127.17073,35.8139],[127.17049,35.81414],[127.17006,35.81478],[127.16992,35.81502],[127.16981,35.81528],[127.1695,35.81613],[127.1694,35.81645],[127.16932,35.81756],[127.16978,35.81845],[127.16986,35.81971],[127.16897,35.82065],[127.16868,35.82177],[127.16848,35.82309],[127.16867,35.82347],[127.16936,35.82434],[127.16951,35.82442],[127.16986,35.8246],[127.16995,35.82465],[127.17006,35.8247],[127.1705,35.82502],[127.17054,35.82505],[127.17075,35.82551],[127.17089,35.82607],[127.17063,35.82681],[127.17053,35.82706],[127.17034,35.82753],[127.17026,35.82765],[127.17017,35.8278],[127.16902,35.82987],[127.16802,35.83178],[127.16776,35.83263],[127.16774,35.83385],[127.16752,35.83458],[127.16742,35.83488],[127.16739,35.83495],[127.16712,35.83562],[127.16601,35.83535],[127.16547,35.83519],[127.16527,35.83561],[127.16487,35.83647],[127.1645,35.83747],[127.16366,35.83759],[127.16264,35.84301],[127.16612,35.84292],[127.16727,35.84423],[127.16758,35.84464],[127.16809,35.84561],[127.1681,35.8461],[127.16739,35.84999],[127.16755,35.85031],[127.16841,35.85232],[127.16842,35.85238],[127.16843,35.85254],[127.16843,35.85291],[127.1676,35.85699],[127.16922,35.85501],[127.17101,35.85428],[127.17228,35.85401],[127.17326,35.85439],[127.17377,35.85459],[127.17405,35.8547],[127.17823,35.8551],[127.1854,35.85578],[127.18682,35.85654],[127.18766,35.85699],[127.19047,35.8585],[127.19457,35.85877],[127.19484,35.85873],[127.19538,35.85862],[127.19662,35.85822],[127.19677,35.85817],[127.19703,35.85805],[127.19743,35.85766],[127.19812,35.85686],[127.19841,35.85643],[127.19916,35.85525],[127.19946,35.85475],[127.19954,35.85432],[127.19992,35.85347],[127.19995,35.85342],[127.20256,35.84901],[127.20401,35.84661],[127.20497,35.84511],[127.20511,35.84494],[127.2052,35.84484],[127.20534,35.84474],[127.20541,35.84471],[127.20553,35.84467],[127.20666,35.84437],[127.2082,35.84314],[127.21013,35.84128],[127.21022,35.84119],[127.21026,35.84111],[127.21028,35.84104],[127.2104,35.83914],[127.20999,35.83455],[127.20916,35.83143],[127.20903,35.83129],[127.20898,35.83118],[127.20895,35.83109],[127.20854,35.8292],[127.20853,35.82898],[127.20858,35.82868],[127.20864,35.82855],[127.20992,35.82652],[127.21106,35.82523],[127.21122,35.82507],[127.21405,35.82225],[127.21418,35.82212],[127.2143,35.82205],[127.21559,35.82124],[127.21594,35.82109],[127.2164,35.82091],[127.2195,35.81987],[127.21966,35.81986],[127.21984,35.81986],[127.22212,35.8201],[127.22234,35.82015],[127.22263,35.82028],[127.22303,35.82051],[127.22352,35.8208],[127.22404,35.8211],[127.22431,35.82124],[127.22753,35.82228],[127.22762,35.82229],[127.22777,35.82228],[127.22821,35.82216],[127.23285,35.82171],[127.23561,35.82149]]]]}},{"type":"Feature","properties":{"code":"52113620","name":"호성동","parent":"52113"},"geometry":{"type":"MultiPolygon","coordinates":[[[[127.16659,35.85898],[127.16588,35.85815],[127.16578,35.85803],[127.16491,35.85749],[127.1648,35.85742],[127.16194,35.85686],[127.16179,35.85687],[127.16138,35.85692],[127.15805,35.85724],[127.15725,35.85722],[127.15423,35.85581],[127.1537,35.85555],[127.15351,35.85546],[127.1526,35.85496],[127.15255,35.85401],[127.15247,35.85275],[127.15193,35.85164],[127.1507,35.85101],[127.1506,35.85095],[127.15057,35.85102],[127.15031,35.85171],[127.15001,35.85356],[127.14775,35.85509],[127.14659,35.8574],[127.14632,35.85864],[127.14499,35.86051],[127.1435,35.86158],[127.14137,35.86731],[127.1424,35.86905],[127.1424,35.86912],[127.14236,35.86973],[127.1421,35.8711],[127.14,35.87465],[127.13787,35.87823],[127.13712,35.87931],[127.13478,35.88096],[127.13508,35.88148],[127.13502,35.88221],[127.13445,35.88386],[127.13419,35.88488],[127.13317,35.88962],[127.13333,35.89033],[127.13406,35.89088],[127.13419,35.89338],[127.13315,35.89408],[127.1308,35.89515],[127.12888,35.89603],[127.12796,35.9],[127.12763,35.90149],[127.12967,35.90121],[127.13473,35.90075],[127.13497,35.90077],[127.13519,35.90076],[127.13551,35.90069],[127.1359,35.90061],[127.13637,35.90046],[127.13707,35.90012],[127.14055,35.89803],[127.14101,35.89775],[127.14134,35.89749],[127.14346,35.89552],[127.14381,35.89513],[127.14566,35.89302],[127.14622,35.8923],[127.1479,35.89014],[127.14804,35.88988],[127.14938,35.88732],[127.14955,35.88694],[127.14972,35.88648],[127.15019,35.88509],[127.15059,35.88393],[127.15123,35.8821],[127.15137,35.88173],[127.15158,35.88125],[127.15173,35.88098],[127.15197,35.88059],[127.15286,35.87939],[127.15288,35.87937],[127.15291,35.87933],[127.15328,35.87884],[127.15353,35.87855],[127.15428,35.87772],[127.1545,35.87752],[127.15456,35.87748],[127.1548,35.87732],[127.15521,35.87701],[127.15565,35.87668],[127.15587,35.8765],[127.15644,35.87594],[127.15752,35.87455],[127.16171,35.86878],[127.16223,35.86796],[127.16226,35.86791],[127.16315,35.8661],[127.16659,35.85898]]]]}},{"type":"Feature","properties":{"code":"52113641","name":"송천1동","parent":"52113"},"geometry":{"type":"MultiPolygon","coordinates":[[[[127.12135,35.86968],[127.12651,35.86972],[127.13541,35.86954],[127.14023,35.86938],[127.1424,35.86905],[127.14137,35.86731],[127.1435,35.86158],[127.14235,35.86019],[127.1404,35.85814],[127.13761,35.85713],[127.13142,35.85634],[127.13074,35.85493],[127.13017,35.85427],[127.1286,35.85324],[127.12816,35.85299],[127.12703,35.85285],[127.12426,35.85233],[127.12254,35.8514],[127.12031,35.85108],[127.12006,35.85156],[127.11955,35.85366],[127.12072,35.85738],[127.12103,35.85879],[127.12153,35.86103],[127.12158,35.86243],[127.12166,35.86342],[127.12164,35.86438],[127.12159,35.8653],[127.12146,35.86767],[127.12135,35.86968]]]]}},{"type":"Feature","properties":{"code":"52113642","name":"송천2동","parent":"52113"},"geometry":{"type":"MultiPolygon","coordinates":[[[[127.13478,35.88096],[127.13348,35.88136],[127.13217,35.8816],[127.13005,35.88154],[127.12783,35.88128],[127.12704,35.88111],[127.12631,35.88062],[127.1247,35.8802],[127.11853,35.87876],[127.11486,35.87752],[127.11042,35.87594],[127.11077,35.87515],[127.11288,35.87579],[127.11314,35.87454],[127.11864,35.87602],[127.12205,35.87688],[127.12288,35.87668],[127.12272,35.87774],[127.12363,35.87807],[127.12464,35.87624],[127.12551,35.87588],[127.12605,35.87551],[127.12437,35.87394],[127.12324,35.87303],[127.12178,35.87177],[127.12137,35.87123],[127.1212,35.8705],[127.12135,35.86968],[127.12146,35.86767],[127.12159,35.8653],[127.12164,35.86438],[127.12166,35.86342],[127.12158,35.86243],[127.12153,35.86103],[127.12103,35.85879],[127.12072,35.85738],[127.11955,35.85366],[127.12006,35.85156],[127.12031,35.85108],[127.11936,35.85231],[127.11821,35.85284],[127.11811,35.85289],[127.11756,35.85284],[127.11498,35.85367],[127.1155,35.85442],[127.11563,35.85644],[127.11513,35.85764],[127.11415,35.85842],[127.11225,35.85884],[127.11196,35.85891],[127.11102,35.85911],[127.11036,35.85924],[127.10931,35.85945],[127.10923,35.85947],[127.10786,35.86031],[127.10758,35.86048],[127.1073,35.86065],[127.10683,35.86193],[127.10708,35.8633],[127.10738,35.86446],[127.10742,35.86459],[127.10711,35.86682],[127.10644,35.86831],[127.10563,35.869],[127.1015,35.87362],[127.09949,35.87677],[127.09887,35.87774],[127.09565,35.87928],[127.0924,35.88085],[127.09149,35.88279],[127.08917,35.89137],[127.08864,35.89331],[127.08952,35.89348],[127.09406,35.89423],[127.09431,35.89425],[127.09443,35.89427],[127.09453,35.89429],[127.0946,35.89434],[127.09482,35.89455],[127.09601,35.89524],[127.09771,35.89606],[127.09779,35.89609],[127.0979,35.89613],[127.09944,35.89624],[127.09958,35.89625],[127.09975,35.89626],[127.09992,35.89626],[127.1023,35.89621],[127.1045,35.89612],[127.10464,35.89611],[127.10583,35.89612],[127.1063,35.89619],[127.10677,35.89627],[127.10712,35.89634],[127.10776,35.89648],[127.10863,35.89668],[127.1088,35.89673],[127.1101,35.8972],[127.11174,35.89793],[127.11378,35.89864],[127.11914,35.90013],[127.12127,35.90063],[127.12417,35.90115],[127.12484,35.90124],[127.1262,35.90141],[127.12731,35.90149],[127.12763,35.90149],[127.12796,35.9],[127.12888,35.89603],[127.1308,35.89515],[127.13315,35.89408],[127.13419,35.89338],[127.13406,35.89088],[127.13333,35.89033],[127.13317,35.88962],[127.13419,35.88488],[127.13445,35.88386],[127.13502,35.88221],[127.13508,35.88148],[127.13478,35.88096]]]]}},{"type":"Feature","properties":{"code":"52113650","name":"조촌동","parent":"52113"},"geometry":{"type":"MultiPolygon","coordinates":[[[[127.07668,35.89815],[127.07713,35.88744],[127.07705,35.88305],[127.07668,35.87839],[127.07646,35.87524],[127.07642,35.87154],[127.07456,35.87123],[127.07185,35.87099],[127.07169,35.87096],[127.07142,35.87091],[127.07124,35.87088],[127.07101,35.87084],[127.07089,35.87081],[127.07076,35.87078],[127.06933,35.87024],[127.06934,35.87021],[127.06951,35.86977],[127.06983,35.8684],[127.06564,35.8662],[127.06099,35.8659],[127.05864,35.86578],[127.05861,35.86578],[127.05842,35.86581],[127.05831,35.86582],[127.05819,35.86584],[127.05809,35.86586],[127.05614,35.86627],[127.05434,35.86714],[127.0542,35.86724],[127.05412,35.86734],[127.054,35.8675],[127.05394,35.86765],[127.05385,35.86788],[127.05383,35.86794],[127.0538,35.868],[127.0537,35.8682],[127.05347,35.86846],[127.0534,35.86852],[127.05109,35.86954],[127.05073,35.86965],[127.05061,35.86965],[127.04865,35.86911],[127.0485,35.86906],[127.04815,35.86893],[127.04794,35.86885],[127.04681,35.86834],[127.04665,35.86811],[127.04657,35.86795],[127.04587,35.86556],[127.04568,35.86464],[127.04548,35.86357],[127.04552,35.86165],[127.04553,35.86152],[127.04556,35.86147],[127.04568,35.8614],[127.04597,35.86138],[127.04605,35.86135],[127.0462,35.86131],[127.04632,35.86126],[127.04783,35.8601],[127.04855,35.85951],[127.04858,35.85948],[127.04865,35.85941],[127.04873,35.85931],[127.04915,35.85846],[127.0492,35.85827],[127.0499,35.85481],[127.0499,35.85464],[127.04988,35.85387],[127.04921,35.8536],[127.04769,35.85317],[127.04684,35.85324],[127.04546,35.85328],[127.041,35.85229],[127.03887,35.85176],[127.03821,35.85135],[127.0378,35.85088],[127.03675,35.85068],[127.03408,35.85073],[127.03226,35.85187],[127.03162,35.85247],[127.03067,35.85317],[127.03051,35.85325],[127.02997,35.85351],[127.02935,35.85381],[127.02769,35.85373],[127.02553,35.85713],[127.02595,35.85746],[127.02653,35.85757],[127.02726,35.85779],[127.02753,35.85849],[127.02846,35.8612],[127.02635,35.86418],[127.02543,35.86476],[127.02489,35.86477],[127.02466,35.86471],[127.0198,35.86306],[127.01929,35.8628],[127.01701,35.86094],[127.01642,35.86007],[127.0162,35.85923],[127.01533,35.85922],[127.01386,35.85997],[127.00553,35.86204],[127.00603,35.86734],[127.00666,35.87045],[127.00657,35.87539],[127.00655,35.87671],[127.0045,35.87836],[127.0004,35.88167],[126.99787,35.8837],[126.99756,35.88405],[126.9975,35.8846],[126.99764,35.88479],[126.99942,35.88697],[127.00144,35.88905],[127.00164,35.88947],[127.00161,35.89007],[127.00133,35.891],[127.00082,35.89193],[127.00032,35.89278],[127.00032,35.89296],[127.00043,35.89303],[127.00152,35.89337],[127.00603,35.89434],[127.01026,35.89505],[127.01193,35.89529],[127.0149,35.89573],[127.01675,35.89534],[127.01695,35.89521],[127.01784,35.89465],[127.01905,35.89421],[127.02099,35.89429],[127.0225,35.89469],[127.02322,35.89499],[127.02355,35.89537],[127.02384,35.89582],[127.02429,35.89617],[127.02819,35.89783],[127.02842,35.89783],[127.02882,35.89772],[127.02952,35.89737],[127.03076,35.89648],[127.03147,35.89568],[127.03182,35.89523],[127.03241,35.89359],[127.03264,35.89321],[127.03298,35.89293],[127.03404,35.89247],[127.03565,35.89269],[127.03663,35.89306],[127.03723,35.89346],[127.03788,35.8939],[127.03799,35.89409],[127.03837,35.89483],[127.03875,35.89565],[127.03895,35.89628],[127.03912,35.89664],[127.03927,35.89682],[127.03955,35.8971],[127.0397,35.89721],[127.04004,35.89727],[127.04027,35.89727],[127.04049,35.89724],[127.041,35.89703],[127.04198,35.89644],[127.04235,35.89614],[127.04262,35.89586],[127.04283,35.89559],[127.04315,35.89505],[127.04328,35.89471],[127.04347,35.89448],[127.04413,35.89402],[127.04454,35.89378],[127.0446,35.89375],[127.04511,35.89347],[127.04534,35.89337],[127.04964,35.89214],[127.04991,35.89209],[127.05133,35.89204],[127.05149,35.89203],[127.05262,35.89208],[127.05328,35.89216],[127.05363,35.89223],[127.05397,35.89231],[127.05428,35.89241],[127.05465,35.89255],[127.0553,35.89285],[127.056,35.89321],[127.05643,35.89348],[127.05678,35.89376],[127.05745,35.89434],[127.0577,35.89461],[127.05773,35.89465],[127.05847,35.89556],[127.05918,35.89646],[127.05939,35.89675],[127.05974,35.89734],[127.05994,35.89764],[127.06013,35.89789],[127.06015,35.89792],[127.06036,35.89813],[127.06084,35.89832],[127.0616,35.89858],[127.06201,35.89871],[127.06242,35.89882],[127.06322,35.89901],[127.06372,35.89903],[127.06421,35.89898],[127.07214,35.8978],[127.0739,35.89754],[127.07668,35.89815]]]]}},{"type":"Feature","properties":{"code":"52113665","name":"여의동","parent":"52113"},"geometry":{"type":"MultiPolygon","coordinates":[[[[127.08864,35.89331],[127.08917,35.89137],[127.09149,35.88279],[127.0924,35.88085],[127.09565,35.87928],[127.09887,35.87774],[127.09949,35.87677],[127.1015,35.87362],[127.10061,35.8734],[127.09997,35.87282],[127.09918,35.87211],[127.09433,35.86897],[127.09316,35.86889],[127.09192,35.86852],[127.09171,35.8668],[127.09222,35.86632],[127.09426,35.86547],[127.09541,35.86504],[127.09663,35.86371],[127.09505,35.86177],[127.09265,35.86001],[127.09261,35.86003],[127.09078,35.86086],[127.08906,35.86165],[127.08903,35.86166],[127.08184,35.86479],[127.08168,35.86485],[127.07882,35.86164],[127.08022,35.86046],[127.08166,35.85928],[127.08347,35.8571],[127.08388,35.85615],[127.08403,35.85533],[127.08395,35.85394],[127.08373,35.85326],[127.08285,35.85311],[127.08265,35.853],[127.08193,35.85165],[127.0826,35.85001],[127.08354,35.84958],[127.08454,35.84911],[127.08505,35.84887],[127.08594,35.84846],[127.08817,35.847],[127.0883,35.8469],[127.08897,35.84499],[127.08901,35.84467],[127.08878,35.8438],[127.0878,35.84133],[127.08727,35.84003],[127.08698,35.83606],[127.0865,35.83447],[127.0856,35.83247],[127.08444,35.83207],[127.08117,35.83095],[127.08011,35.83071],[127.08004,35.83069],[127.07927,35.83039],[127.07727,35.82953],[127.07337,35.82668],[127.07294,35.8263],[127.0719,35.82524],[127.07037,35.82505],[127.07052,35.82771],[127.07202,35.83189],[127.06779,35.83282],[127.06746,35.83355],[127.06721,35.83443],[127.06699,35.83735],[127.06722,35.8385],[127.05915,35.83844],[127.05862,35.83828],[127.05675,35.83891],[127.05634,35.83915],[127.05514,35.84113],[127.05399,35.84319],[127.05395,35.84327],[127.0538,35.84354],[127.0537,35.84372],[127.04985,35.85181],[127.04985,35.85193],[127.04986,35.85257],[127.04988,35.85387],[127.0499,35.85464],[127.0499,35.85481],[127.0492,35.85827],[127.04915,35.85846],[127.04873,35.85931],[127.04865,35.85941],[127.04858,35.85948],[127.04855,35.85951],[127.04783,35.8601],[127.04632,35.86126],[127.0462,35.86131],[127.04605,35.86135],[127.04597,35.86138],[127.04568,35.8614],[127.04556,35.86147],[127.04553,35.86152],[127.04552,35.86165],[127.04548,35.86357],[127.04568,35.86464],[127.04587,35.86556],[127.04657,35.86795],[127.04665,35.86811],[127.04681,35.86834],[127.04794,35.86885],[127.04815,35.86893],[127.0485,35.86906],[127.04865,35.86911],[127.05061,35.86965],[127.05073,35.86965],[127.05109,35.86954],[127.0534,35.86852],[127.05347,35.86846],[127.0537,35.8682],[127.0538,35.868],[127.05383,35.86794],[127.05385,35.86788],[127.05394,35.86765],[127.054,35.8675],[127.05412,35.86734],[127.0542,35.86724],[127.05434,35.86714],[127.05614,35.86627],[127.05809,35.86586],[127.05819,35.86584],[127.05831,35.86582],[127.05842,35.86581],[127.05861,35.86578],[127.05864,35.86578],[127.06099,35.8659],[127.06564,35.8662],[127.06983,35.8684],[127.06951,35.86977],[127.06934,35.87021],[127.06933,35.87024],[127.07076,35.87078],[127.07089,35.87081],[127.07101,35.87084],[127.07124,35.87088],[127.07142,35.87091],[127.07169,35.87096],[127.07185,35.87099],[127.07456,35.87123],[127.07642,35.87154],[127.07646,35.87524],[127.07668,35.87839],[127.07705,35.88305],[127.07713,35.88744],[127.07668,35.89815],[127.07755,35.89798],[127.07932,35.89762],[127.08429,35.89605],[127.0846,35.89594],[127.08471,35.89586],[127.08487,35.89571],[127.08507,35.89538],[127.08564,35.89457],[127.0858,35.8944],[127.08607,35.89415],[127.08658,35.89378],[127.08699,35.89355],[127.08762,35.89334],[127.08776,35.89332],[127.08864,35.89331]]]]}},{"type":"Feature","properties":{"code":"52113525","name":"진북동","parent":"52113"},"geometry":{"type":"MultiPolygon","coordinates":[[[[127.12674,35.83427],[127.12817,35.83408],[127.13272,35.83348],[127.13315,35.83338],[127.13348,35.83323],[127.13388,35.83293],[127.13398,35.83285],[127.13401,35.83283],[127.13451,35.83244],[127.13472,35.83227],[127.13501,35.83212],[127.13542,35.83199],[127.13565,35.83201],[127.13628,35.83213],[127.13659,35.83219],[127.13768,35.83241],[127.13777,35.83242],[127.13829,35.83286],[127.13832,35.83288],[127.14257,35.83284],[127.14369,35.83263],[127.14541,35.83218],[127.14683,35.83173],[127.14645,35.83067],[127.14643,35.83056],[127.14639,35.8303],[127.14637,35.83018],[127.14622,35.82925],[127.14614,35.82905],[127.14607,35.82893],[127.14575,35.82885],[127.14568,35.82884],[127.14552,35.82882],[127.14503,35.82874],[127.14341,35.82836],[127.14306,35.82827],[127.1421,35.82803],[127.14136,35.82783],[127.13787,35.82723],[127.1377,35.82718],[127.13753,35.82711],[127.13669,35.82676],[127.13314,35.82515],[127.13237,35.82451],[127.13216,35.82395],[127.13287,35.82312],[127.13328,35.82277],[127.13342,35.82266],[127.1337,35.82242],[127.13441,35.82181],[127.13548,35.82089],[127.13566,35.82073],[127.13537,35.82035],[127.13535,35.81908],[127.13452,35.81797],[127.13412,35.81773],[127.13364,35.81765],[127.13335,35.81763],[127.13296,35.81762],[127.13231,35.81784],[127.13191,35.81829],[127.13181,35.81844],[127.13132,35.8192],[127.131,35.81937],[127.13063,35.8194],[127.12942,35.81944],[127.12934,35.81947],[127.12738,35.82052],[127.12712,35.82081],[127.12711,35.8212],[127.12722,35.82154],[127.12738,35.82178],[127.12777,35.82298],[127.12777,35.82302],[127.12778,35.8231],[127.12756,35.82382],[127.12742,35.82407],[127.12665,35.82523],[127.12657,35.82539],[127.12657,35.82546],[127.1266,35.8256],[127.12664,35.82571],[127.12705,35.82676],[127.12709,35.82686],[127.12722,35.82711],[127.12731,35.82724],[127.12735,35.82729],[127.1274,35.82732],[127.12747,35.82736],[127.12756,35.82738],[127.12792,35.82748],[127.128,35.82752],[127.12803,35.82757],[127.12809,35.82766],[127.12829,35.828],[127.12854,35.8289],[127.12859,35.82914],[127.1286,35.82928],[127.12861,35.82933],[127.12861,35.82939],[127.12861,35.82952],[127.12709,35.8319],[127.12696,35.83209],[127.12684,35.83226],[127.12636,35.83288],[127.12388,35.83477],[127.12674,35.83427]]]]}},{"type":"Feature","properties":{"code":"52113670","name":"혁신동","parent":"52113"},"geometry":{"type":"MultiPolygon","coordinates":[[[[127.05915,35.83844],[127.06722,35.8385],[127.06699,35.83735],[127.06721,35.83443],[127.06746,35.83355],[127.06779,35.83282],[127.07202,35.83189],[127.07052,35.82771],[127.07037,35.82505],[127.06685,35.82488],[127.06512,35.82489],[127.05817,35.82542],[127.05624,35.82526],[127.05553,35.82599],[127.05525,35.82626],[127.05503,35.82644],[127.05469,35.82669],[127.05417,35.82704],[127.05376,35.82723],[127.05328,35.82746],[127.05187,35.82814],[127.0516,35.82829],[127.05116,35.82852],[127.05094,35.82864],[127.05093,35.82868],[127.05092,35.82955],[127.05094,35.82995],[127.05106,35.83067],[127.05109,35.83088],[127.05177,35.83331],[127.056,35.83287],[127.05855,35.83296],[127.05862,35.83828],[127.05915,35.83844]]]]}},{"type":"Feature","properties":{"code":"52113643","name":"송천3동","parent":"52113"},"geometry":{"type":"MultiPolygon","coordinates":[[[[127.1424,35.86905],[127.14023,35.86938],[127.13541,35.86954],[127.12651,35.86972],[127.12135,35.86968],[127.1212,35.8705],[127.12137,35.87123],[127.12178,35.87177],[127.12324,35.87303],[127.12437,35.87394],[127.12605,35.87551],[127.12551,35.87588],[127.12464,35.87624],[127.12363,35.87807],[127.12272,35.87774],[127.12288,35.87668],[127.12205,35.87688],[127.11864,35.87602],[127.11314,35.87454],[127.11288,35.87579],[127.11077,35.87515],[127.11042,35.87594],[127.11486,35.87752],[127.11853,35.87876],[127.1247,35.8802],[127.12631,35.88062],[127.12704,35.88111],[127.12783,35.88128],[127.13005,35.88154],[127.13217,35.8816],[127.13348,35.88136],[127.13478,35.88096],[127.13712,35.87931],[127.13787,35.87823],[127.14,35.87465],[127.1421,35.8711],[127.14236,35.86973],[127.1424,35.86912],[127.1424,35.86905]]]]}}]}