{"type":"FeatureCollection","features":[{"type":"Feature","properties":{"code":"41111560","name":"파장동","parent":"41111"},"geometry":{"type":"MultiPolygon","coordinates":[[[[127.00612,37.33807],[127.00706,37.33499],[127.00702,37.33467],[127.00642,37.33236],[127.0063,37.33209],[127.00603,37.33187],[127.00332,37.3296],[127.00268,37.3282],[127.00235,37.32689],[127.00274,37.3263],[127.00341,37.3259],[127.00397,37.32557],[127.00402,37.32553],[127.00408,37.32548],[127.00544,37.3238],[127.00561,37.32285],[127.00599,37.32123],[127.00799,37.31875],[127.00613,37.31661],[127.0029,37.31313],[127.00271,37.31296],[127.00247,37.31275],[127.00237,37.31263],[127.00212,37.31227],[127.00217,37.31198],[127.00218,37.31189],[127.00222,37.31171],[127.0025,37.31048],[127.00252,37.31044],[127.00255,37.31036],[127.00085,37.30765],[126.99954,37.30578],[126.99806,37.30446],[126.99709,37.30314],[126.99654,37.30443],[126.99647,37.30456],[126.99641,37.30467],[126.99618,37.30504],[126.99597,37.30538],[126.99583,37.3055],[126.99563,37.30558],[126.99545,37.30562],[126.99539,37.30562],[126.99527,37.30563],[126.9952,37.30563],[126.99513,37.30563],[126.99455,37.30568],[126.99446,37.30568],[126.99414,37.30571],[126.99394,37.30575],[126.99375,37.3058],[126.99344,37.30587],[126.99337,37.30589],[126.99265,37.30608],[126.99239,37.30619],[126.99234,37.30622],[126.9921,37.30635],[126.9884,37.30896],[126.98818,37.3092],[126.98735,37.31066],[126.98675,37.31172],[126.98508,37.31133],[126.98168,37.30976],[126.98219,37.30619],[126.97634,37.30569],[126.97624,37.30561],[126.97594,37.3055],[126.97561,37.30542],[126.97391,37.30511],[126.97375,37.30514],[126.97363,37.30518],[126.97274,37.30552],[126.97273,37.3056],[126.97272,37.30569],[126.97269,37.30598],[126.97276,37.30657],[126.97279,37.30678],[126.97308,37.30718],[126.97357,37.30781],[126.97394,37.30911],[126.97239,37.3124],[126.9705,37.31606],[126.97,37.31692],[126.96874,37.31905],[126.96692,37.32324],[126.96694,37.32408],[126.96696,37.32413],[126.96698,37.32416],[126.96701,37.32421],[126.96727,37.32443],[126.9707,37.33006],[126.97119,37.33179],[126.97354,37.33018],[126.9767,37.32852],[126.98094,37.32659],[126.98105,37.3266],[126.98147,37.32662],[126.98204,37.32665],[126.98234,37.32669],[126.98278,37.32675],[126.98711,37.32945],[126.98967,37.33231],[126.98976,37.33248],[126.99034,37.33317],[126.99047,37.33329],[126.99135,37.33397],[126.99141,37.33401],[127.00047,37.33849],[127.0007,37.33845],[127.00105,37.33839],[127.00399,37.3382],[127.00612,37.33807]]]]}},{"type":"Feature","properties":{"code":"41111566","name":"율천동","parent":"41111"},"geometry":{"type":"MultiPolygon","coordinates":[[[[126.97274,37.30552],[126.97304,37.30304],[126.97284,37.30148],[126.97283,37.30143],[126.97282,37.30131],[126.9727,37.30028],[126.97315,37.30025],[126.97339,37.30023],[126.97449,37.30006],[126.9746,37.30004],[126.97557,37.29977],[126.97631,37.29956],[126.97644,37.29951],[126.97664,37.29941],[126.97743,37.29903],[126.97815,37.29838],[126.97818,37.29835],[126.97824,37.29829],[126.97988,37.29643],[126.98163,37.29445],[126.98168,37.29439],[126.98194,37.29409],[126.98215,37.29385],[126.98237,37.2936],[126.98242,37.29354],[126.98254,37.2934],[126.98284,37.29306],[126.9829,37.29299],[126.98306,37.29281],[126.98316,37.29269],[126.98324,37.29259],[126.98332,37.29251],[126.98342,37.2924],[126.98347,37.29234],[126.98376,37.29201],[126.98411,37.29163],[126.98437,37.29134],[126.98373,37.29083],[126.98367,37.2908],[126.98364,37.29078],[126.98328,37.29063],[126.98295,37.2905],[126.98153,37.28994],[126.98105,37.28976],[126.98047,37.28954],[126.97982,37.2893],[126.97926,37.28909],[126.97896,37.28897],[126.97759,37.28843],[126.97877,37.28657],[126.97614,37.28577],[126.97428,37.28552],[126.96958,37.28662],[126.96964,37.28705],[126.96973,37.28777],[126.96975,37.288],[126.96979,37.28837],[126.9698,37.28869],[126.96807,37.29426],[126.96777,37.29463],[126.96604,37.2962],[126.9655,37.29667],[126.9651,37.29675],[126.965,37.29678],[126.96495,37.29679],[126.96367,37.29874],[126.96367,37.29997],[126.96372,37.30044],[126.96395,37.30074],[126.96418,37.30103],[126.96421,37.30108],[126.96444,37.30167],[126.96426,37.30267],[126.96424,37.30272],[126.96141,37.30205],[126.96108,37.30197],[126.96162,37.30242],[126.96398,37.30437],[126.96575,37.30699],[126.96595,37.3074],[126.96635,37.30821],[126.96636,37.30835],[126.96663,37.31259],[126.96666,37.31305],[126.96771,37.31594],[126.97,37.31692],[126.9705,37.31606],[126.97239,37.3124],[126.97394,37.30911],[126.97357,37.30781],[126.97308,37.30718],[126.97279,37.30678],[126.97276,37.30657],[126.97269,37.30598],[126.97272,37.30569],[126.97273,37.3056],[126.97274,37.30552]]]]}},{"type":"Feature","properties":{"code":"41111571","name":"정자1동","parent":"41111"},"geometry":{"type":"MultiPolygon","coordinates":[[[[126.99709,37.30314],[126.99726,37.30276],[126.99752,37.30222],[126.99786,37.30137],[126.99799,37.30101],[126.99804,37.30086],[126.99807,37.30078],[126.99812,37.30058],[126.99813,37.30048],[126.99814,37.30035],[126.9978,37.29798],[126.9977,37.29785],[126.99667,37.29924],[126.99584,37.30018],[126.99422,37.29959],[126.99354,37.29933],[126.99346,37.2993],[126.99257,37.29894],[126.99132,37.29846],[126.99029,37.30016],[126.99019,37.30034],[126.98994,37.30082],[126.98968,37.30132],[126.98954,37.30157],[126.9875,37.302],[126.98543,37.30169],[126.98449,37.30148],[126.98393,37.30221],[126.98266,37.30385],[126.98251,37.30421],[126.98251,37.30424],[126.98246,37.30442],[126.98238,37.30481],[126.98231,37.30518],[126.98219,37.30619],[126.98168,37.30976],[126.98508,37.31133],[126.98675,37.31172],[126.98735,37.31066],[126.98818,37.3092],[126.9884,37.30896],[126.9921,37.30635],[126.99234,37.30622],[126.99239,37.30619],[126.99265,37.30608],[126.99337,37.30589],[126.99344,37.30587],[126.99375,37.3058],[126.99394,37.30575],[126.99414,37.30571],[126.99446,37.30568],[126.99455,37.30568],[126.99513,37.30563],[126.9952,37.30563],[126.99527,37.30563],[126.99539,37.30562],[126.99545,37.30562],[126.99563,37.30558],[126.99583,37.3055],[126.99597,37.30538],[126.99618,37.30504],[126.99641,37.30467],[126.99647,37.30456],[126.99654,37.30443],[126.99709,37.30314]]]]}},{"type":"Feature","properties":{"code":"41111572","name":"정자2동","parent":"41111"},"geometry":{"type":"MultiPolygon","coordinates":[[[[127.00935,37.29537],[127.01096,37.29323],[127.00064,37.28978],[126.99865,37.28911],[126.99332,37.28726],[126.99309,37.28717],[126.99276,37.28704],[126.99197,37.28673],[126.99054,37.2862],[126.99037,37.2865],[126.98899,37.28876],[126.98857,37.28942],[126.98853,37.28946],[126.98842,37.28958],[126.98822,37.28971],[126.98794,37.28982],[126.98613,37.28941],[126.98675,37.28978],[126.98721,37.29009],[126.98751,37.29083],[126.98758,37.29099],[126.98792,37.29185],[126.98799,37.29208],[126.98801,37.29215],[126.98969,37.29276],[126.98988,37.29283],[126.99245,37.2938],[126.9926,37.29386],[126.99392,37.2944],[126.99733,37.29748],[126.9977,37.29785],[126.9978,37.29798],[126.99897,37.29692],[126.99914,37.29681],[127.00169,37.29618],[127.00179,37.29617],[127.002,37.29614],[127.00265,37.29609],[127.00353,37.29602],[127.00935,37.29537]]]]}},{"type":"Feature","properties":{"code":"41111580","name":"영화동","parent":"41111"},"geometry":{"type":"MultiPolygon","coordinates":[[[[127.01761,37.28783],[127.01694,37.28833],[127.0165,37.28864],[127.01481,37.28945],[127.01413,37.28918],[127.014,37.28912],[127.01381,37.28904],[127.01353,37.28857],[127.01297,37.28772],[127.01287,37.2876],[127.01282,37.28753],[127.0126,37.28738],[127.01229,37.28717],[127.0121,37.28704],[127.01134,37.28655],[127.01092,37.28634],[127.00921,37.28552],[127.00609,37.28589],[127.00526,37.2866],[127.00064,37.28978],[127.01096,37.29323],[127.01451,37.29445],[127.01927,37.29619],[127.02101,37.29656],[127.02289,37.2969],[127.02478,37.29732],[127.02541,37.29763],[127.02544,37.29765],[127.02552,37.29783],[127.02659,37.29733],[127.02543,37.29583],[127.02047,37.29072],[127.0198,37.29022],[127.01935,37.28986],[127.01891,37.28947],[127.01883,37.2894],[127.01871,37.2893],[127.01839,37.289],[127.01789,37.28853],[127.01777,37.2884],[127.01772,37.28833],[127.01768,37.28824],[127.01766,37.28812],[127.01765,37.28805],[127.01761,37.28783]]]]}},{"type":"Feature","properties":{"code":"41111591","name":"송죽동","parent":"41111"},"geometry":{"type":"MultiPolygon","coordinates":[[[[127.01278,37.31653],[127.01282,37.31395],[127.00995,37.31176],[127.00963,37.31172],[127.00826,37.31121],[127.00779,37.31087],[127.00736,37.31034],[127.00465,37.30646],[127.00449,37.30605],[127.00432,37.3046],[127.00566,37.30376],[127.00853,37.30199],[127.0087,37.30189],[127.00938,37.30148],[127.00849,37.30049],[127.00805,37.3],[127.00794,37.29988],[127.00746,37.29934],[127.00744,37.29932],[127.00726,37.2991],[127.00711,37.29893],[127.00689,37.29867],[127.008,37.29717],[127.00898,37.29585],[127.00918,37.29559],[127.00931,37.29542],[127.00935,37.29537],[127.00353,37.29602],[127.00265,37.29609],[127.002,37.29614],[127.00179,37.29617],[127.00169,37.29618],[126.99914,37.29681],[126.99897,37.29692],[126.9978,37.29798],[126.99814,37.30035],[126.99813,37.30048],[126.99812,37.30058],[126.99807,37.30078],[126.99804,37.30086],[126.99799,37.30101],[126.99786,37.30137],[126.99752,37.30222],[126.99726,37.30276],[126.99709,37.30314],[126.99806,37.30446],[126.99954,37.30578],[127.00085,37.30765],[127.00255,37.31036],[127.00252,37.31044],[127.0025,37.31048],[127.00222,37.31171],[127.00218,37.31189],[127.00217,37.31198],[127.00212,37.31227],[127.00237,37.31263],[127.00247,37.31275],[127.00271,37.31296],[127.0029,37.31313],[127.00613,37.31661],[127.00799,37.31875],[127.01031,37.31864],[127.01146,37.31858],[127.01278,37.31653]]]]}},{"type":"Feature","properties":{"code":"41111597","name":"조원1동","parent":"41111"},"geometry":{"type":"MultiPolygon","coordinates":[[[[127.02552,37.29783],[127.02544,37.29765],[127.02541,37.29763],[127.02478,37.29732],[127.02289,37.2969],[127.02101,37.29656],[127.01927,37.29619],[127.01451,37.29445],[127.01096,37.29323],[127.00935,37.29537],[127.00931,37.29542],[127.00918,37.29559],[127.00898,37.29585],[127.008,37.29717],[127.00689,37.29867],[127.00711,37.29893],[127.00726,37.2991],[127.00744,37.29932],[127.00746,37.29934],[127.00794,37.29988],[127.00805,37.3],[127.00849,37.30049],[127.00938,37.30148],[127.00941,37.30152],[127.00944,37.30156],[127.00946,37.30158],[127.00968,37.30183],[127.0108,37.30311],[127.01161,37.30401],[127.01166,37.30406],[127.01169,37.30409],[127.01394,37.3063],[127.01546,37.30626],[127.0166,37.30655],[127.01712,37.30668],[127.01761,37.30681],[127.01769,37.30681],[127.0178,37.30682],[127.01784,37.30683],[127.01804,37.30686],[127.01812,37.30687],[127.01824,37.30689],[127.01871,37.30691],[127.01916,37.30687],[127.01968,37.30683],[127.02035,37.30684],[127.0209,37.30685],[127.02203,37.30687],[127.02213,37.30688],[127.02235,37.30688],[127.02238,37.30688],[127.02248,37.30685],[127.0227,37.3068],[127.02295,37.30679],[127.02313,37.30679],[127.02316,37.30679],[127.02387,37.30725],[127.02395,37.30734],[127.02403,37.30747],[127.02452,37.30701],[127.02464,37.30553],[127.02409,37.30366],[127.02401,37.3034],[127.02446,37.30007],[127.02463,37.29948],[127.02552,37.29783]]]]}},{"type":"Feature","properties":{"code":"41111600","name":"연무동","parent":"41111"},"geometry":{"type":"MultiPolygon","coordinates":[[[[127.03344,37.34471],[127.03324,37.34444],[127.03305,37.34417],[127.03303,37.34412],[127.03207,37.34238],[127.03201,37.34207],[127.03152,37.33922],[127.0315,37.33891],[127.03153,37.337],[127.0316,37.33683],[127.03163,37.33678],[127.03289,37.33573],[127.03458,37.33453],[127.03477,37.33438],[127.03483,37.33432],[127.03486,37.33429],[127.03501,37.33409],[127.03514,37.33392],[127.03602,37.33239],[127.03606,37.33211],[127.03594,37.33181],[127.03589,37.33156],[127.0359,37.33127],[127.03595,37.331],[127.03686,37.32944],[127.03748,37.32877],[127.03763,37.32865],[127.0378,37.3286],[127.03827,37.3285],[127.03722,37.32733],[127.03718,37.32728],[127.03717,37.32717],[127.03725,37.32641],[127.03726,37.32637],[127.03792,37.32495],[127.03955,37.32177],[127.03992,37.32134],[127.03889,37.32083],[127.03878,37.31933],[127.03807,37.31616],[127.03543,37.31429],[127.03506,37.31411],[127.03464,37.31393],[127.03423,37.31377],[127.0331,37.3118],[127.03231,37.30964],[127.03283,37.30874],[127.03323,37.30802],[127.03333,37.30704],[127.03322,37.30499],[127.03304,37.3028],[127.03283,37.30159],[127.03269,37.30059],[127.03265,37.30004],[127.03258,37.29875],[127.03274,37.29796],[127.03321,37.2974],[127.03387,37.29691],[127.0345,37.29542],[127.03455,37.29445],[127.03457,37.29406],[127.03456,37.29369],[127.03393,37.2932],[127.03382,37.2931],[127.03355,37.29285],[127.03342,37.29275],[127.03336,37.29272],[127.03319,37.29266],[127.03302,37.2926],[127.03283,37.29256],[127.03239,37.29253],[127.0321,37.2925],[127.03188,37.29249],[127.03164,37.29247],[127.03115,37.29244],[127.03107,37.29243],[127.03069,37.29237],[127.0282,37.29181],[127.02734,37.29159],[127.02726,37.29157],[127.02718,37.29155],[127.02692,37.29145],[127.02661,37.29133],[127.02652,37.29129],[127.02633,37.29115],[127.02609,37.29097],[127.02604,37.29091],[127.02599,37.29085],[127.02587,37.29068],[127.02528,37.28982],[127.0251,37.28951],[127.02466,37.28952],[127.02439,37.28949],[127.02377,37.28926],[127.02297,37.2887],[127.02295,37.28866],[127.02285,37.28854],[127.02276,37.28841],[127.02274,37.28839],[127.0227,37.28833],[127.02258,37.28816],[127.02254,37.28811],[127.02252,37.28807],[127.02199,37.28782],[127.02148,37.28758],[127.0213,37.28752],[127.02126,37.28751],[127.021,37.28743],[127.02049,37.28728],[127.02019,37.28725],[127.0187,37.28715],[127.01804,37.28747],[127.01761,37.28783],[127.01765,37.28805],[127.01766,37.28812],[127.01768,37.28824],[127.01772,37.28833],[127.01777,37.2884],[127.01789,37.28853],[127.01839,37.289],[127.01871,37.2893],[127.01883,37.2894],[127.01891,37.28947],[127.01935,37.28986],[127.0198,37.29022],[127.02047,37.29072],[127.02543,37.29583],[127.02659,37.29733],[127.02552,37.29783],[127.02463,37.29948],[127.02446,37.30007],[127.02401,37.3034],[127.02409,37.30366],[127.02464,37.30553],[127.02452,37.30701],[127.02403,37.30747],[127.01921,37.31214],[127.01707,37.31409],[127.01278,37.31653],[127.01146,37.31858],[127.01031,37.31864],[127.00799,37.31875],[127.00599,37.32123],[127.00561,37.32285],[127.00544,37.3238],[127.00408,37.32548],[127.00402,37.32553],[127.00397,37.32557],[127.00341,37.3259],[127.00274,37.3263],[127.00235,37.32689],[127.00268,37.3282],[127.00332,37.3296],[127.00603,37.33187],[127.0063,37.33209],[127.00642,37.33236],[127.00702,37.33467],[127.00706,37.33499],[127.00612,37.33807],[127.0061,37.33811],[127.00625,37.33829],[127.00627,37.33832],[127.00649,37.33858],[127.00653,37.33862],[127.00661,37.33863],[127.00795,37.33875],[127.008,37.33876],[127.00829,37.33878],[127.00836,37.33878],[127.00855,37.33878],[127.00872,37.33877],[127.00876,37.33876],[127.00882,37.33876],[127.0089,37.33875],[127.00903,37.33876],[127.00906,37.33877],[127.0091,37.33879],[127.00914,37.33884],[127.00917,37.33893],[127.00919,37.33908],[127.00918,37.33915],[127.00917,37.33921],[127.00915,37.33932],[127.00913,37.33947],[127.00912,37.33954],[127.00912,37.33959],[127.00913,37.33963],[127.00915,37.33967],[127.00918,37.33971],[127.00922,37.33975],[127.0093,37.33982],[127.00943,37.33992],[127.0095,37.33996],[127.00954,37.33998],[127.00957,37.34],[127.00966,37.34006],[127.00971,37.34009],[127.00982,37.34018],[127.00986,37.34022],[127.0099,37.34028],[127.00995,37.34037],[127.00998,37.34044],[127.00998,37.34053],[127.00999,37.34065],[127.01,37.3407],[127.01001,37.34073],[127.01008,37.34084],[127.01018,37.34094],[127.01022,37.34098],[127.01025,37.34101],[127.01026,37.34105],[127.01026,37.34113],[127.01024,37.34124],[127.01023,37.34127],[127.01022,37.3413],[127.01019,37.34142],[127.01018,37.34147],[127.01015,37.34151],[127.01029,37.34183],[127.01034,37.34195],[127.01042,37.34211],[127.0109,37.34314],[127.01094,37.34322],[127.01159,37.3438],[127.01262,37.34513],[127.01263,37.34539],[127.01269,37.34671],[127.0127,37.34688],[127.01331,37.34783],[127.01461,37.34915],[127.01589,37.34976],[127.01701,37.35003],[127.01776,37.35009],[127.01851,37.35044],[127.01881,37.35156],[127.02508,37.34854],[127.02611,37.34862],[127.02631,37.34862],[127.02649,37.34855],[127.02867,37.34762],[127.02878,37.34758],[127.02901,37.34738],[127.03195,37.34541],[127.03344,37.34471]]]]}},{"type":"Feature","properties":{"code":"41111573","name":"정자3동","parent":"41111"},"geometry":{"type":"MultiPolygon","coordinates":[[[[126.9977,37.29785],[126.99733,37.29748],[126.99392,37.2944],[126.9926,37.29386],[126.99245,37.2938],[126.98988,37.29283],[126.98969,37.29276],[126.98801,37.29215],[126.98799,37.29208],[126.98792,37.29185],[126.98758,37.29099],[126.98751,37.29083],[126.98721,37.29009],[126.98675,37.28978],[126.98613,37.28941],[126.98437,37.29134],[126.98411,37.29163],[126.98376,37.29201],[126.98347,37.29234],[126.98342,37.2924],[126.98332,37.29251],[126.98324,37.29259],[126.98316,37.29269],[126.98306,37.29281],[126.9829,37.29299],[126.98284,37.29306],[126.98254,37.2934],[126.98242,37.29354],[126.98237,37.2936],[126.98215,37.29385],[126.98194,37.29409],[126.98168,37.29439],[126.98163,37.29445],[126.97988,37.29643],[126.97824,37.29829],[126.97818,37.29835],[126.97815,37.29838],[126.97743,37.29903],[126.97664,37.29941],[126.97644,37.29951],[126.97631,37.29956],[126.97557,37.29977],[126.9746,37.30004],[126.97449,37.30006],[126.97339,37.30023],[126.97315,37.30025],[126.9727,37.30028],[126.97282,37.30131],[126.97283,37.30143],[126.97284,37.30148],[126.97304,37.30304],[126.97274,37.30552],[126.97363,37.30518],[126.97375,37.30514],[126.97391,37.30511],[126.97561,37.30542],[126.97594,37.3055],[126.97624,37.30561],[126.97634,37.30569],[126.98219,37.30619],[126.98231,37.30518],[126.98238,37.30481],[126.98246,37.30442],[126.98251,37.30424],[126.98251,37.30421],[126.98266,37.30385],[126.98393,37.30221],[126.98449,37.30148],[126.98543,37.30169],[126.9875,37.302],[126.98954,37.30157],[126.98968,37.30132],[126.98994,37.30082],[126.99019,37.30034],[126.99029,37.30016],[126.99132,37.29846],[126.99257,37.29894],[126.99346,37.2993],[126.99354,37.29933],[126.99422,37.29959],[126.99584,37.30018],[126.99667,37.29924],[126.9977,37.29785]]]]}},{"type":"Feature","properties":{"code":"41111598","name":"조원2동","parent":"41111"},"geometry":{"type":"MultiPolygon","coordinates":[[[[127.02403,37.30747],[127.02395,37.30734],[127.02387,37.30725],[127.02316,37.30679],[127.02313,37.30679],[127.02295,37.30679],[127.0227,37.3068],[127.02248,37.30685],[127.02238,37.30688],[127.02235,37.30688],[127.02213,37.30688],[127.02203,37.30687],[127.0209,37.30685],[127.02035,37.30684],[127.01968,37.30683],[127.01916,37.30687],[127.01871,37.30691],[127.01824,37.30689],[127.01812,37.30687],[127.01804,37.30686],[127.01784,37.30683],[127.0178,37.30682],[127.01769,37.30681],[127.01761,37.30681],[127.01712,37.30668],[127.0166,37.30655],[127.01546,37.30626],[127.01394,37.3063],[127.01169,37.30409],[127.01166,37.30406],[127.01161,37.30401],[127.0108,37.30311],[127.00968,37.30183],[127.00946,37.30158],[127.00944,37.30156],[127.00941,37.30152],[127.00938,37.30148],[127.0087,37.30189],[127.00853,37.30199],[127.00566,37.30376],[127.00432,37.3046],[127.00449,37.30605],[127.00465,37.30646],[127.00736,37.31034],[127.00779,37.31087],[127.00826,37.31121],[127.00963,37.31172],[127.00995,37.31176],[127.01282,37.31395],[127.01278,37.31653],[127.01707,37.31409],[127.01921,37.31214],[127.02403,37.30747]]]]}}]}