{"type":"FeatureCollection","features":[{"type":"Feature","properties":{"code":"41273510","name":"와동","parent":"41273"},"geometry":{"type":"MultiPolygon","coordinates":[[[[126.8371,37.33903],[126.83702,37.33887],[126.83671,37.33824],[126.83592,37.33683],[126.83437,37.33468],[126.83414,37.33444],[126.83392,37.33421],[126.83127,37.33325],[126.83087,37.33378],[126.83041,37.33353],[126.83026,37.33343],[126.83001,37.33326],[126.82998,37.33324],[126.82874,37.33176],[126.82298,37.32945],[126.82074,37.32963],[126.81913,37.33026],[126.81756,37.33026],[126.81709,37.33161],[126.8166,37.334],[126.81661,37.33405],[126.81687,37.33772],[126.81691,37.33826],[126.81722,37.33866],[126.81733,37.33882],[126.81737,37.33886],[126.81832,37.34484],[126.81854,37.34728],[126.81861,37.34803],[126.81866,37.34807],[126.81952,37.34879],[126.82317,37.34856],[126.82482,37.34843],[126.82734,37.34731],[126.82874,37.34623],[126.82877,37.34621],[126.82884,37.34613],[126.82899,37.34597],[126.82963,37.3459],[126.8308,37.34593],[126.83301,37.34675],[126.83358,37.34708],[126.83397,37.3474],[126.83519,37.3489],[126.83603,37.34622],[126.83619,37.34577],[126.83634,37.34536],[126.83793,37.34458],[126.83941,37.34385],[126.84066,37.34356],[126.84102,37.34348],[126.84113,37.34345],[126.84124,37.34335],[126.84183,37.3428],[126.84058,37.34154],[126.83966,37.34088],[126.83869,37.34042],[126.83806,37.33999],[126.83752,37.33946],[126.8371,37.33903]]]]}},{"type":"Feature","properties":{"code":"41273525","name":"고잔동","parent":"41273"},"geometry":{"type":"MultiPolygon","coordinates":[[[[126.83127,37.33325],[126.83187,37.33285],[126.83246,37.33281],[126.83278,37.32996],[126.83274,37.32947],[126.83274,37.3294],[126.8319,37.32944],[126.8303,37.32952],[126.82847,37.32694],[126.8282,37.32511],[126.82812,37.32341],[126.829,37.32208],[126.82968,37.3212],[126.83045,37.32116],[126.83076,37.32115],[126.83037,37.31683],[126.82128,37.3173],[126.82131,37.31743],[126.82138,37.31785],[126.82152,37.31872],[126.82102,37.32005],[126.82073,37.32031],[126.82018,37.32083],[126.8198,37.32168],[126.81958,37.32218],[126.81955,37.32316],[126.81955,37.32327],[126.81906,37.32512],[126.81805,37.32886],[126.81756,37.33026],[126.81913,37.33026],[126.82074,37.32963],[126.82298,37.32945],[126.82874,37.33176],[126.82998,37.33324],[126.83001,37.33326],[126.83026,37.33343],[126.83041,37.33353],[126.83087,37.33378],[126.83127,37.33325]]]]}},{"type":"Feature","properties":{"code":"41273532","name":"중앙동","parent":"41273"},"geometry":{"type":"MultiPolygon","coordinates":[[[[126.84182,37.32807],[126.8416,37.3281],[126.84139,37.32551],[126.84124,37.32358],[126.84119,37.32282],[126.84104,37.32058],[126.84102,37.3203],[126.84111,37.3201],[126.84126,37.31977],[126.84135,37.31968],[126.84185,37.31921],[126.84227,37.31881],[126.84237,37.3187],[126.84263,37.31844],[126.84315,37.31792],[126.84325,37.31743],[126.84311,37.31629],[126.83675,37.31649],[126.83037,37.31683],[126.83076,37.32115],[126.83045,37.32116],[126.82968,37.3212],[126.829,37.32208],[126.82812,37.32341],[126.8282,37.32511],[126.82847,37.32694],[126.8303,37.32952],[126.8319,37.32944],[126.83274,37.3294],[126.83274,37.32947],[126.83278,37.32996],[126.83246,37.33281],[126.83187,37.33285],[126.83127,37.33325],[126.83392,37.33421],[126.83414,37.33444],[126.83437,37.33468],[126.83592,37.33683],[126.83671,37.33824],[126.83702,37.33887],[126.8371,37.33903],[126.84028,37.33502],[126.84144,37.33424],[126.84146,37.33422],[126.84174,37.33087],[126.84178,37.33012],[126.84182,37.32807]]]]}},{"type":"Feature","properties":{"code":"41273565","name":"신길동","parent":"41273"},"geometry":{"type":"MultiPolygon","coordinates":[[[[126.78923,37.34024],[126.79077,37.33925],[126.79052,37.33891],[126.79039,37.33856],[126.79035,37.33814],[126.79038,37.33791],[126.79045,37.33764],[126.79054,37.33731],[126.79066,37.33683],[126.79068,37.33647],[126.79067,37.33609],[126.79049,37.33433],[126.79034,37.33389],[126.79012,37.33353],[126.78716,37.32943],[126.78705,37.3294],[126.78675,37.32956],[126.786,37.32865],[126.78612,37.3286],[126.78616,37.32863],[126.78635,37.32855],[126.78629,37.32847],[126.78643,37.32841],[126.78648,37.32825],[126.78653,37.32815],[126.78653,37.32801],[126.78657,37.32788],[126.78655,37.32786],[126.78629,37.32764],[126.78636,37.32761],[126.7861,37.32728],[126.78595,37.32697],[126.78591,37.32675],[126.78591,37.32652],[126.78596,37.32628],[126.78604,37.32606],[126.78734,37.32253],[126.78436,37.32201],[126.78362,37.32177],[126.78341,37.32165],[126.78324,37.32156],[126.78316,37.3215],[126.78297,37.32133],[126.7816,37.3211],[126.78075,37.32107],[126.77333,37.32146],[126.77215,37.32162],[126.77169,37.32174],[126.77158,37.32177],[126.76718,37.32341],[126.76438,37.32697],[126.76425,37.32692],[126.76371,37.32672],[126.76359,37.32667],[126.76026,37.32531],[126.76013,37.32507],[126.75999,37.32481],[126.7597,37.32426],[126.75958,37.32398],[126.75836,37.32117],[126.75828,37.32098],[126.75715,37.3184],[126.74982,37.32048],[126.74877,37.32086],[126.74767,37.3256],[126.74809,37.32785],[126.7493,37.33275],[126.74945,37.33314],[126.74947,37.3332],[126.74959,37.3334],[126.74962,37.33345],[126.74973,37.33358],[126.74979,37.33364],[126.74989,37.33373],[126.75012,37.33389],[126.75023,37.33396],[126.75241,37.33516],[126.75437,37.33623],[126.75566,37.33694],[126.75737,37.33787],[126.75765,37.33805],[126.75777,37.33813],[126.75803,37.33839],[126.75812,37.33849],[126.75954,37.33995],[126.75964,37.34011],[126.75968,37.34018],[126.75975,37.34039],[126.75979,37.34065],[126.75983,37.34085],[126.7601,37.341],[126.7602,37.34105],[126.7615,37.34147],[126.76162,37.34147],[126.76371,37.34161],[126.76394,37.34162],[126.76822,37.33942],[126.77059,37.34042],[126.77391,37.34075],[126.77479,37.34103],[126.77638,37.34201],[126.77887,37.3408],[126.77907,37.34071],[126.7792,37.34066],[126.78086,37.34036],[126.78153,37.34026],[126.7828,37.34006],[126.78405,37.33855],[126.78405,37.33747],[126.78739,37.33857],[126.78794,37.33896],[126.78818,37.33913],[126.78892,37.33975],[126.78898,37.33981],[126.78914,37.34008],[126.78923,37.34024]]]]}},{"type":"Feature","properties":{"code":"41273555","name":"백운동","parent":"41273"},"geometry":{"type":"MultiPolygon","coordinates":[[[[126.79761,37.32827],[126.79865,37.32944],[126.79938,37.33027],[126.79992,37.33249],[126.80007,37.33329],[126.80139,37.3327],[126.80294,37.33302],[126.80289,37.33163],[126.80224,37.33137],[126.80222,37.3313],[126.80222,37.33119],[126.80351,37.33051],[126.80573,37.32935],[126.80256,37.32562],[126.8026,37.3256],[126.80284,37.32547],[126.80337,37.32519],[126.80542,37.3241],[126.80498,37.31944],[126.8045,37.31723],[126.80448,37.31714],[126.80444,37.31696],[126.80417,37.31673],[126.80274,37.31618],[126.8005,37.3156],[126.79751,37.31784],[126.79513,37.32],[126.79156,37.32205],[126.79109,37.32283],[126.79223,37.32359],[126.79265,37.32387],[126.79289,37.32397],[126.79436,37.32404],[126.79477,37.32407],[126.7948,37.32407],[126.79501,37.32448],[126.79525,37.32498],[126.79529,37.32505],[126.79503,37.32517],[126.79294,37.32613],[126.7926,37.32629],[126.79542,37.33024],[126.7957,37.33057],[126.79573,37.3306],[126.79614,37.33082],[126.79624,37.33063],[126.79653,37.32936],[126.79685,37.32904],[126.7974,37.32845],[126.79761,37.32827]]]]}},{"type":"Feature","properties":{"code":"41273545","name":"원곡동","parent":"41273"},"geometry":{"type":"MultiPolygon","coordinates":[[[[126.79084,37.33921],[126.79294,37.33938],[126.79822,37.33805],[126.79888,37.33752],[126.79909,37.3366],[126.79925,37.33586],[126.79926,37.33582],[126.79927,37.33578],[126.79937,37.33552],[126.79939,37.33547],[126.79943,37.33537],[126.79946,37.33464],[126.79956,37.33421],[126.80007,37.33329],[126.79992,37.33249],[126.79938,37.33027],[126.79865,37.32944],[126.79761,37.32827],[126.7974,37.32845],[126.79685,37.32904],[126.79653,37.32936],[126.79624,37.33063],[126.79614,37.33082],[126.79573,37.3306],[126.7957,37.33057],[126.79542,37.33024],[126.7926,37.32629],[126.79294,37.32613],[126.79503,37.32517],[126.79529,37.32505],[126.79525,37.32498],[126.79501,37.32448],[126.7948,37.32407],[126.79477,37.32407],[126.79436,37.32404],[126.79289,37.32397],[126.79265,37.32387],[126.79223,37.32359],[126.79109,37.32283],[126.79004,37.32299],[126.78734,37.32253],[126.78604,37.32606],[126.78596,37.32628],[126.78591,37.32652],[126.78591,37.32675],[126.78595,37.32697],[126.7861,37.32728],[126.78636,37.32761],[126.78629,37.32764],[126.78655,37.32786],[126.78657,37.32788],[126.78653,37.32801],[126.78653,37.32815],[126.78648,37.32825],[126.78643,37.32841],[126.78629,37.32847],[126.78635,37.32855],[126.78616,37.32863],[126.78612,37.3286],[126.786,37.32865],[126.78675,37.32956],[126.78705,37.3294],[126.78716,37.32943],[126.79012,37.33353],[126.79034,37.33389],[126.79049,37.33433],[126.79067,37.33609],[126.79068,37.33647],[126.79066,37.33683],[126.79054,37.33731],[126.79045,37.33764],[126.79038,37.33791],[126.79035,37.33814],[126.79039,37.33856],[126.79052,37.33891],[126.79077,37.33925],[126.79084,37.33921]]]]}},{"type":"Feature","properties":{"code":"41273570","name":"초지동","parent":"41273"},"geometry":{"type":"MultiPolygon","coordinates":[[[[126.81709,37.33161],[126.81756,37.33026],[126.81805,37.32886],[126.81906,37.32512],[126.81955,37.32327],[126.81955,37.32316],[126.81958,37.32218],[126.8198,37.32168],[126.82018,37.32083],[126.82073,37.32031],[126.82102,37.32005],[126.82152,37.31872],[126.82138,37.31785],[126.82131,37.31743],[126.82128,37.3173],[126.82116,37.31648],[126.82102,37.31534],[126.82099,37.31506],[126.82084,37.31379],[126.82089,37.30484],[126.82099,37.30363],[126.81871,37.30132],[126.81686,37.29888],[126.81632,37.29801],[126.80715,37.29929],[126.80721,37.29894],[126.80725,37.29874],[126.8067,37.29778],[126.80528,37.29692],[126.80418,37.29625],[126.79454,37.29426],[126.78299,37.29235],[126.77947,37.29135],[126.77258,37.28941],[126.73625,37.29939],[126.72558,37.30232],[126.71716,37.30752],[126.72072,37.31123],[126.7228,37.31341],[126.72403,37.31469],[126.72974,37.3206],[126.73121,37.32212],[126.73226,37.32322],[126.73436,37.32539],[126.73852,37.32968],[126.73887,37.32947],[126.73976,37.32892],[126.74032,37.32858],[126.74147,37.32787],[126.74175,37.32769],[126.74338,37.32669],[126.74358,37.32657],[126.74433,37.3261],[126.74515,37.32558],[126.74656,37.32473],[126.74765,37.32478],[126.74767,37.3256],[126.74877,37.32086],[126.74982,37.32048],[126.75715,37.3184],[126.75828,37.32098],[126.75836,37.32117],[126.75958,37.32398],[126.7597,37.32426],[126.75999,37.32481],[126.76013,37.32507],[126.76026,37.32531],[126.76359,37.32667],[126.76371,37.32672],[126.76425,37.32692],[126.76438,37.32697],[126.76718,37.32341],[126.77158,37.32177],[126.77169,37.32174],[126.77215,37.32162],[126.77333,37.32146],[126.78075,37.32107],[126.7816,37.3211],[126.78297,37.32133],[126.78316,37.3215],[126.78324,37.32156],[126.78341,37.32165],[126.78362,37.32177],[126.78436,37.32201],[126.78734,37.32253],[126.79004,37.32299],[126.79109,37.32283],[126.79156,37.32205],[126.79513,37.32],[126.79751,37.31784],[126.8005,37.3156],[126.80274,37.31618],[126.80417,37.31673],[126.80444,37.31696],[126.80448,37.31714],[126.8045,37.31723],[126.80498,37.31944],[126.80542,37.3241],[126.80337,37.32519],[126.80284,37.32547],[126.8026,37.3256],[126.80256,37.32562],[126.80573,37.32935],[126.808,37.32815],[126.80833,37.32798],[126.80902,37.32761],[126.80925,37.32756],[126.80931,37.32756],[126.80935,37.32756],[126.80964,37.32757],[126.80984,37.32763],[126.81206,37.3285],[126.81392,37.32923],[126.81468,37.32953],[126.81481,37.32965],[126.81487,37.33063],[126.81493,37.33161],[126.81493,37.33166],[126.81678,37.33161],[126.81709,37.33161]]]]}},{"type":"Feature","properties":{"code":"41273580","name":"선부1동","parent":"41273"},"geometry":{"type":"MultiPolygon","coordinates":[[[[126.80808,37.33446],[126.8166,37.334],[126.81709,37.33161],[126.81678,37.33161],[126.81493,37.33166],[126.81493,37.33161],[126.81487,37.33063],[126.81481,37.32965],[126.81468,37.32953],[126.81392,37.32923],[126.81206,37.3285],[126.80984,37.32763],[126.80964,37.32757],[126.80935,37.32756],[126.80931,37.32756],[126.80925,37.32756],[126.80902,37.32761],[126.80833,37.32798],[126.808,37.32815],[126.80573,37.32935],[126.80351,37.33051],[126.80222,37.33119],[126.80222,37.3313],[126.80224,37.33137],[126.80289,37.33163],[126.80294,37.33302],[126.80139,37.3327],[126.80007,37.33329],[126.79956,37.33421],[126.79946,37.33464],[126.79943,37.33537],[126.79939,37.33547],[126.79937,37.33552],[126.79927,37.33578],[126.79926,37.33582],[126.79925,37.33586],[126.79909,37.3366],[126.79888,37.33752],[126.80232,37.33629],[126.80302,37.33519],[126.80346,37.3347],[126.80808,37.33446]]]]}},{"type":"Feature","properties":{"code":"41273590","name":"선부2동","parent":"41273"},"geometry":{"type":"MultiPolygon","coordinates":[[[[126.80808,37.33446],[126.80346,37.3347],[126.80302,37.33519],[126.80232,37.33629],[126.79888,37.33752],[126.79822,37.33805],[126.79294,37.33938],[126.79084,37.33921],[126.79077,37.33925],[126.78923,37.34024],[126.78929,37.34042],[126.7893,37.34045],[126.78937,37.3406],[126.78941,37.34068],[126.79024,37.3416],[126.79034,37.34171],[126.79061,37.34201],[126.79079,37.34219],[126.79091,37.34229],[126.79102,37.3424],[126.7911,37.34247],[126.79183,37.34298],[126.79209,37.34314],[126.79087,37.34729],[126.79051,37.34798],[126.79053,37.34868],[126.79072,37.34983],[126.7908,37.35037],[126.79158,37.35248],[126.79174,37.35263],[126.79253,37.35303],[126.79341,37.35346],[126.79528,37.35514],[126.79625,37.35474],[126.80216,37.3531],[126.8023,37.35308],[126.80269,37.35309],[126.80312,37.35311],[126.80547,37.35342],[126.80578,37.35349],[126.80894,37.35514],[126.81022,37.35562],[126.81063,37.35503],[126.81049,37.35441],[126.80998,37.35345],[126.80978,37.35328],[126.80949,37.35301],[126.80669,37.35061],[126.80603,37.35004],[126.80681,37.34801],[126.80877,37.34651],[126.81099,37.34232],[126.81247,37.34188],[126.81024,37.33883],[126.80946,37.33579],[126.80808,37.33446]]]]}},{"type":"Feature","properties":{"code":"41273600","name":"선부3동","parent":"41273"},"geometry":{"type":"MultiPolygon","coordinates":[[[[126.84075,37.36369],[126.84093,37.36323],[126.84101,37.36188],[126.84061,37.35921],[126.84056,37.35894],[126.83976,37.35856],[126.83972,37.35857],[126.83931,37.35867],[126.839,37.35858],[126.83696,37.35577],[126.83712,37.35256],[126.83603,37.3518],[126.83481,37.35065],[126.83456,37.35032],[126.83455,37.35006],[126.83454,37.34995],[126.83519,37.3489],[126.83397,37.3474],[126.83358,37.34708],[126.83301,37.34675],[126.8308,37.34593],[126.82963,37.3459],[126.82899,37.34597],[126.82884,37.34613],[126.82877,37.34621],[126.82874,37.34623],[126.82734,37.34731],[126.82482,37.34843],[126.82317,37.34856],[126.81952,37.34879],[126.81866,37.34807],[126.81861,37.34803],[126.81854,37.34728],[126.81832,37.34484],[126.81737,37.33886],[126.81733,37.33882],[126.81722,37.33866],[126.81691,37.33826],[126.81687,37.33772],[126.81661,37.33405],[126.8166,37.334],[126.80808,37.33446],[126.80946,37.33579],[126.81024,37.33883],[126.81247,37.34188],[126.81099,37.34232],[126.80877,37.34651],[126.80681,37.34801],[126.80603,37.35004],[126.80669,37.35061],[126.80949,37.35301],[126.80978,37.35328],[126.80998,37.35345],[126.81049,37.35441],[126.81063,37.35503],[126.81022,37.35562],[126.81087,37.3557],[126.81465,37.35686],[126.81665,37.35765],[126.81856,37.35971],[126.82372,37.36314],[126.82562,37.36323],[126.82615,37.36381],[126.82644,37.36413],[126.82763,37.3642],[126.82874,37.3635],[126.82914,37.36326],[126.83058,37.36218],[126.83163,37.36165],[126.83318,37.36182],[126.83352,37.36187],[126.8339,37.36193],[126.83959,37.36289],[126.84075,37.36369]]]]}},{"type":"Feature","properties":{"code":"41273610","name":"대부동","parent":"41273"},"geometry":{"type":"MultiPolygon","coordinates":[[[[126.46928,37.08245],[126.46845,37.08243],[126.46808,37.0826],[126.46775,37.08281],[126.46727,37.08313],[126.46678,37.08347],[126.46675,37.08377],[126.46674,37.08395],[126.46686,37.08422],[126.46691,37.08426],[126.46715,37.08443],[126.46761,37.08456],[126.46798,37.08458],[126.46822,37.0846],[126.46848,37.08448],[126.46872,37.08437],[126.46902,37.08415],[126.46917,37.08387],[126.4693,37.08338],[126.46936,37.08305],[126.46928,37.08245]]],[[[126.46506,37.08914],[126.46446,37.0887],[126.4621,37.08871],[126.46146,37.08878],[126.45964,37.08988],[126.45919,37.0903],[126.45895,37.09051],[126.45849,37.09093],[126.4583,37.09159],[126.4586,37.09202],[126.45878,37.09229],[126.46174,37.09379],[126.46232,37.0938],[126.46287,37.09369],[126.46336,37.09307],[126.46409,37.09213],[126.46484,37.09098],[126.4652,37.09031],[126.46521,37.09022],[126.46525,37.08967],[126.46506,37.08914]]],[[[126.45294,37.09476],[126.45222,37.09473],[126.45209,37.09478],[126.45164,37.09495],[126.45069,37.09589],[126.44883,37.098],[126.44855,37.09923],[126.44894,37.10007],[126.44899,37.10019],[126.45084,37.10279],[126.45106,37.10302],[126.45122,37.10319],[126.45211,37.10312],[126.45244,37.10289],[126.45267,37.10274],[126.45293,37.10252],[126.45363,37.10179],[126.45408,37.10103],[126.45408,37.09979],[126.45699,37.09756],[126.45769,37.097],[126.45774,37.09627],[126.45714,37.09576],[126.4563,37.09508],[126.45327,37.09477],[126.45294,37.09476]]],[[[126.39708,37.10331],[126.39772,37.10248],[126.39773,37.10163],[126.39687,37.10071],[126.39577,37.09973],[126.39489,37.09916],[126.39365,37.099],[126.39196,37.09964],[126.39191,37.09969],[126.39146,37.10013],[126.39061,37.10091],[126.38986,37.10146],[126.38909,37.10179],[126.38589,37.10243],[126.38383,37.10219],[126.38362,37.10219],[126.38202,37.10216],[126.38162,37.10244],[126.3814,37.10259],[126.37989,37.10448],[126.37971,37.10791],[126.38201,37.11423],[126.38286,37.11465],[126.38367,37.11504],[126.38676,37.11528],[126.38777,37.11536],[126.38964,37.11525],[126.39323,37.11368],[126.39486,37.11262],[126.39621,37.11001],[126.39656,37.10908],[126.39707,37.10553],[126.39708,37.10331]]],[[[126.63079,37.18557],[126.63025,37.18541],[126.62994,37.1856],[126.62993,37.18609],[126.63002,37.18634],[126.63078,37.18737],[126.63086,37.18747],[126.63095,37.18757],[126.63261,37.18876],[126.63302,37.1889],[126.63355,37.18896],[126.63917,37.18917],[126.64013,37.18873],[126.63864,37.18806],[126.63379,37.18741],[126.63286,37.1867],[126.63255,37.18653],[126.63079,37.18557]]],[[[126.61779,37.22367],[126.61497,37.22346],[126.61468,37.22353],[126.61445,37.22368],[126.61402,37.22484],[126.61395,37.22513],[126.61398,37.22544],[126.61411,37.22567],[126.61602,37.22859],[126.61628,37.2287],[126.61675,37.22869],[126.6171,37.22852],[126.61719,37.22842],[126.61741,37.22817],[126.61752,37.22796],[126.61759,37.22752],[126.61776,37.22604],[126.61826,37.22502],[126.61832,37.22486],[126.61836,37.22447],[126.61833,37.22437],[126.61822,37.22405],[126.61805,37.22378],[126.61779,37.22367]]],[[[126.61394,37.22775],[126.61361,37.22768],[126.61285,37.22778],[126.61275,37.22785],[126.61265,37.22791],[126.61264,37.22793],[126.61255,37.22806],[126.61242,37.22827],[126.61235,37.22839],[126.61236,37.22863],[126.61243,37.22876],[126.61245,37.2288],[126.61276,37.22936],[126.613,37.2297],[126.6135,37.23004],[126.61376,37.23012],[126.61429,37.23011],[126.61462,37.23002],[126.6149,37.22983],[126.61507,37.22966],[126.6151,37.2296],[126.61519,37.2294],[126.61508,37.22919],[126.61394,37.22775]]],[[[126.62875,37.2475],[126.62843,37.24724],[126.628,37.24738],[126.62708,37.24872],[126.62683,37.24927],[126.62703,37.24976],[126.62721,37.24999],[126.62802,37.25046],[126.62828,37.25055],[126.62838,37.25059],[126.63,37.25092],[126.63038,37.25097],[126.63058,37.25095],[126.63078,37.25077],[126.6312,37.2499],[126.63119,37.24964],[126.63108,37.24942],[126.62875,37.2475]]],[[[126.59566,37.30189],[126.58369,37.295],[126.58057,37.29373],[126.57923,37.29324],[126.57976,37.29186],[126.5814,37.29168],[126.58406,37.29431],[126.58553,37.29339],[126.58615,37.293],[126.58219,37.28855],[126.58062,37.28826],[126.57972,37.2881],[126.57796,37.2883],[126.57626,37.28722],[126.57566,37.28566],[126.57516,37.28434],[126.57298,37.28296],[126.5721,37.2824],[126.57184,37.28205],[126.57145,37.28151],[126.57022,37.27985],[126.57004,37.27855],[126.56985,37.27724],[126.56925,37.27205],[126.57002,37.272],[126.57064,37.27261],[126.57075,37.27271],[126.57166,37.27409],[126.57233,37.27562],[126.57256,37.27615],[126.57406,37.27614],[126.5772,37.27518],[126.57946,37.27412],[126.58032,37.27363],[126.58131,37.27307],[126.58243,37.27361],[126.58306,37.27393],[126.58437,37.27336],[126.58707,37.27219],[126.58715,37.27118],[126.58718,37.2709],[126.58552,37.26864],[126.58626,37.26734],[126.59068,37.26412],[126.59198,37.26376],[126.59686,37.26243],[126.59949,37.2624],[126.60426,37.26318],[126.60768,37.26339],[126.60838,37.26317],[126.60879,37.26304],[126.60859,37.26237],[126.60836,37.26161],[126.60912,37.26058],[126.60933,37.26055],[126.61113,37.26028],[126.6135,37.25984],[126.61482,37.25959],[126.61618,37.25905],[126.61634,37.25898],[126.61822,37.2574],[126.61771,37.25613],[126.61746,37.25588],[126.61569,37.25409],[126.61456,37.25046],[126.61782,37.24901],[126.62004,37.24881],[126.62049,37.24877],[126.62117,37.24829],[126.62086,37.24795],[126.61928,37.24616],[126.62164,37.24449],[126.62339,37.24325],[126.62585,37.24418],[126.62642,37.24408],[126.62351,37.23952],[126.62259,37.23664],[126.62475,37.23583],[126.62688,37.23507],[126.62705,37.23503],[126.62714,37.235],[126.62744,37.23493],[126.62836,37.23475],[126.62994,37.2344],[126.63212,37.23317],[126.63373,37.2322],[126.63531,37.23166],[126.63994,37.23029],[126.64087,37.22998],[126.6423,37.22947],[126.64377,37.22881],[126.64513,37.2279],[126.64547,37.2276],[126.64577,37.22733],[126.64659,37.22677],[126.64749,37.22623],[126.64764,37.22615],[126.64779,37.22607],[126.64819,37.22591],[126.64858,37.2258],[126.64899,37.2257],[126.64928,37.22568],[126.64972,37.22564],[126.65029,37.22548],[126.65054,37.22529],[126.65071,37.22505],[126.65073,37.22503],[126.65168,37.22078],[126.65164,37.22042],[126.65155,37.22012],[126.65144,37.21997],[126.65131,37.21977],[126.65093,37.21945],[126.65045,37.21903],[126.64974,37.21825],[126.64926,37.2152],[126.64749,37.21064],[126.64762,37.20885],[126.64884,37.20891],[126.64913,37.20892],[126.64945,37.20899],[126.64975,37.20913],[126.65082,37.20972],[126.65089,37.20978],[126.65103,37.21009],[126.65089,37.21032],[126.65078,37.21066],[126.65074,37.21099],[126.65074,37.21114],[126.65074,37.21138],[126.6508,37.21273],[126.65108,37.2131],[126.6512,37.21323],[126.6514,37.21345],[126.65156,37.21358],[126.65168,37.21368],[126.65209,37.21375],[126.65269,37.21373],[126.65298,37.21366],[126.65322,37.21348],[126.65338,37.21329],[126.65435,37.21185],[126.65434,37.21071],[126.65286,37.20827],[126.65237,37.2077],[126.65204,37.20732],[126.65025,37.20677],[126.64914,37.2066],[126.64722,37.20646],[126.64666,37.20571],[126.64629,37.20457],[126.64626,37.20439],[126.6463,37.20428],[126.6464,37.2042],[126.64863,37.20231],[126.65116,37.20008],[126.65131,37.19974],[126.65125,37.19953],[126.65082,37.19825],[126.65067,37.19793],[126.65044,37.19752],[126.64755,37.19289],[126.64562,37.19166],[126.64544,37.19195],[126.64387,37.19425],[126.6438,37.19432],[126.64227,37.19549],[126.6418,37.19557],[126.64103,37.19657],[126.64064,37.19778],[126.64059,37.19793],[126.64086,37.19846],[126.64123,37.19894],[126.64161,37.19934],[126.64179,37.19962],[126.64232,37.20137],[126.6423,37.20155],[126.6419,37.20275],[126.64131,37.20413],[126.64127,37.20453],[126.64178,37.20592],[126.64207,37.20629],[126.64226,37.20647],[126.64251,37.20659],[126.64277,37.20666],[126.64336,37.20672],[126.64381,37.20668],[126.64583,37.20696],[126.64689,37.20863],[126.64686,37.2097],[126.64683,37.21077],[126.64459,37.21237],[126.64298,37.21344],[126.6411,37.2146],[126.63941,37.21555],[126.63737,37.21631],[126.63733,37.21632],[126.6343,37.21696],[126.6323,37.21723],[126.63169,37.21737],[126.63101,37.21752],[126.62921,37.218],[126.62791,37.22215],[126.62699,37.22212],[126.62679,37.22216],[126.62526,37.22313],[126.6234,37.22699],[126.62328,37.22766],[126.62326,37.22803],[126.62326,37.22824],[126.62345,37.23423],[126.62373,37.23437],[126.62393,37.23447],[126.62403,37.23458],[126.62424,37.23535],[126.62304,37.23573],[126.6218,37.23612],[126.6195,37.23313],[126.62003,37.23046],[126.61928,37.22932],[126.61498,37.23064],[126.61334,37.23287],[126.61324,37.233],[126.61121,37.23376],[126.60995,37.23263],[126.61043,37.23033],[126.61004,37.22957],[126.60847,37.22924],[126.60791,37.2294],[126.60714,37.22963],[126.6028,37.23018],[126.60041,37.2278],[126.59992,37.22732],[126.59977,37.22716],[126.59951,37.2269],[126.60255,37.2242],[126.60293,37.22421],[126.60338,37.22422],[126.60423,37.22424],[126.60733,37.22265],[126.61162,37.21902],[126.6126,37.21629],[126.61256,37.21444],[126.61583,37.20923],[126.61432,37.20729],[126.60808,37.20928],[126.60771,37.21118],[126.6054,37.21199],[126.60294,37.20762],[126.60019,37.20962],[126.59814,37.21111],[126.60126,37.21396],[126.60289,37.21579],[126.60308,37.21612],[126.60317,37.21628],[126.60147,37.22087],[126.60115,37.22068],[126.60095,37.22056],[126.60165,37.21819],[126.59863,37.21719],[126.5977,37.21672],[126.59644,37.2161],[126.59621,37.21531],[126.59547,37.21435],[126.59526,37.21407],[126.59071,37.21328],[126.58876,37.21357],[126.58844,37.21362],[126.58739,37.21762],[126.58735,37.21794],[126.58515,37.22059],[126.5795,37.22083],[126.57657,37.22056],[126.57661,37.22052],[126.57677,37.22016],[126.57678,37.2201],[126.57681,37.21981],[126.57674,37.21875],[126.57663,37.21765],[126.57658,37.21732],[126.57629,37.21653],[126.57615,37.2162],[126.5732,37.2098],[126.57298,37.20934],[126.57251,37.20874],[126.5722,37.20843],[126.57134,37.2077],[126.57122,37.20762],[126.5709,37.20741],[126.57019,37.20684],[126.56985,37.20653],[126.56976,37.20643],[126.56862,37.20462],[126.56857,37.20449],[126.56852,37.2043],[126.56827,37.20283],[126.56828,37.20268],[126.5683,37.20253],[126.56845,37.20205],[126.56847,37.20196],[126.56881,37.20104],[126.56885,37.20098],[126.56896,37.20088],[126.56543,37.19769],[126.56382,37.1953],[126.56315,37.19416],[126.56178,37.1933],[126.56005,37.1971],[126.56004,37.19732],[126.56028,37.19795],[126.55915,37.19921],[126.55793,37.20033],[126.55602,37.20181],[126.55512,37.2024],[126.55301,37.20363],[126.55227,37.20401],[126.54984,37.20476],[126.54939,37.20488],[126.54517,37.20559],[126.54252,37.2057],[126.54242,37.20546],[126.54243,37.20535],[126.54249,37.20508],[126.54259,37.20463],[126.54254,37.20391],[126.54243,37.20303],[126.54234,37.20275],[126.53833,37.19842],[126.53778,37.19797],[126.53739,37.19776],[126.53688,37.1977],[126.53589,37.19775],[126.5356,37.19782],[126.53537,37.19787],[126.53498,37.19811],[126.53489,37.19826],[126.53482,37.19836],[126.53479,37.19861],[126.53489,37.19882],[126.5351,37.19898],[126.53542,37.19909],[126.53567,37.19911],[126.5364,37.19899],[126.53694,37.19935],[126.53747,37.19972],[126.53758,37.19984],[126.5379,37.20059],[126.53814,37.20149],[126.53817,37.20169],[126.53912,37.2039],[126.54044,37.20648],[126.54063,37.20673],[126.54097,37.20696],[126.54119,37.20702],[126.54144,37.20697],[126.54172,37.2068],[126.54179,37.20675],[126.54223,37.20641],[126.54237,37.20637],[126.54254,37.20632],[126.54298,37.20625],[126.54392,37.20627],[126.54441,37.20634],[126.54459,37.20644],[126.54472,37.20662],[126.54493,37.20716],[126.54496,37.20751],[126.54497,37.20761],[126.54458,37.21019],[126.54438,37.21112],[126.54404,37.21213],[126.54348,37.21333],[126.54323,37.21384],[126.5471,37.21567],[126.54711,37.22072],[126.54621,37.22278],[126.54589,37.22312],[126.54519,37.22368],[126.54472,37.224],[126.54384,37.2244],[126.54357,37.22444],[126.54347,37.22443],[126.543,37.22395],[126.54285,37.22346],[126.54281,37.22328],[126.54274,37.22296],[126.54256,37.22278],[126.54221,37.22271],[126.54196,37.22274],[126.54186,37.22277],[126.5416,37.22287],[126.54126,37.22306],[126.54106,37.22326],[126.54087,37.22348],[126.5408,37.22356],[126.54075,37.22383],[126.54029,37.2285],[126.54028,37.22871],[126.54038,37.22893],[126.54047,37.22897],[126.54072,37.22907],[126.54096,37.22912],[126.54124,37.22904],[126.54182,37.22868],[126.54205,37.22852],[126.54224,37.22828],[126.54227,37.22825],[126.54233,37.2282],[126.54267,37.22814],[126.54275,37.22815],[126.54282,37.22819],[126.54399,37.22909],[126.54422,37.22956],[126.54439,37.23017],[126.54429,37.23088],[126.54379,37.232],[126.54361,37.23217],[126.54353,37.23224],[126.54444,37.23358],[126.54696,37.23374],[126.55097,37.23391],[126.55109,37.23386],[126.55131,37.23378],[126.5514,37.23376],[126.55431,37.2336],[126.55437,37.23361],[126.55497,37.23384],[126.5562,37.23434],[126.55657,37.23449],[126.55671,37.23457],[126.55756,37.23568],[126.55768,37.23624],[126.55786,37.23676],[126.55826,37.2371],[126.55872,37.23711],[126.56015,37.23673],[126.56581,37.23619],[126.56676,37.23717],[126.56428,37.23966],[126.56212,37.24089],[126.56096,37.24176],[126.56049,37.24225],[126.56036,37.24253],[126.55979,37.2486],[126.5609,37.24974],[126.56154,37.25053],[126.56183,37.25099],[126.56193,37.25114],[126.56224,37.25175],[126.56246,37.25286],[126.56302,37.2562],[126.56164,37.25678],[126.56007,37.25702],[126.5595,37.2571],[126.55806,37.25957],[126.55878,37.26163],[126.55757,37.26673],[126.5564,37.26754],[126.55586,37.26792],[126.55501,37.26851],[126.55488,37.27007],[126.5548,37.27108],[126.55083,37.27293],[126.54967,37.27468],[126.54886,37.27654],[126.5491,37.27898],[126.54861,37.27995],[126.54632,37.28064],[126.54421,37.28097],[126.54197,37.28133],[126.54126,37.28167],[126.53947,37.28265],[126.53915,37.28307],[126.539,37.28361],[126.53895,37.28546],[126.53854,37.28574],[126.53728,37.28657],[126.53709,37.28655],[126.53676,37.2865],[126.53377,37.28758],[126.53344,37.2878],[126.53288,37.28845],[126.53269,37.28874],[126.53266,37.28878],[126.53281,37.28897],[126.53294,37.28915],[126.5347,37.28926],[126.5349,37.28921],[126.53515,37.28916],[126.54043,37.28678],[126.54134,37.28616],[126.54146,37.28595],[126.54164,37.28563],[126.54565,37.28442],[126.54607,37.28445],[126.54695,37.28468],[126.54764,37.28451],[126.54937,37.28371],[126.55054,37.28275],[126.55097,37.2824],[126.55185,37.28188],[126.55378,37.28263],[126.55414,37.28303],[126.55432,37.28321],[126.5555,37.28409],[126.55637,37.28374],[126.55708,37.28306],[126.55776,37.28167],[126.55776,37.2814],[126.55777,37.2812],[126.55758,37.28078],[126.55734,37.28065],[126.55714,37.28055],[126.5569,37.28011],[126.55646,37.2793],[126.55685,37.27784],[126.55815,37.27773],[126.5604,37.27754],[126.56218,37.27821],[126.56691,37.28088],[126.56774,37.28135],[126.5677,37.28205],[126.56767,37.28256],[126.56585,37.28277],[126.56546,37.28282],[126.56538,37.28321],[126.56529,37.28375],[126.56545,37.28386],[126.56802,37.28573],[126.5695,37.28536],[126.57433,37.28833],[126.5771,37.29094],[126.57677,37.29165],[126.57371,37.29609],[126.57348,37.29623],[126.57306,37.29648],[126.5712,37.29628],[126.57081,37.29819],[126.57208,37.29872],[126.5736,37.29777],[126.57419,37.29757],[126.57517,37.29723],[126.57809,37.29626],[126.579,37.29596],[126.59268,37.30391],[126.60386,37.3104],[126.60409,37.31054],[126.60454,37.3108],[126.60772,37.3126],[126.6122,37.31513],[126.64525,37.32447],[126.64666,37.32176],[126.62201,37.31465],[126.61478,37.31257],[126.61258,37.3114],[126.61079,37.31046],[126.60802,37.30899],[126.59566,37.30189]]]]}},{"type":"Feature","properties":{"code":"41273535","name":"호수동","parent":"41273"},"geometry":{"type":"MultiPolygon","coordinates":[[[[126.83037,37.31683],[126.83675,37.31649],[126.84311,37.31629],[126.84262,37.31581],[126.84253,37.31494],[126.84252,37.31489],[126.84211,37.30716],[126.84212,37.30695],[126.84197,37.30637],[126.84191,37.30615],[126.84182,37.30601],[126.84177,37.30593],[126.84164,37.3058],[126.84149,37.30567],[126.84126,37.30554],[126.84093,37.30539],[126.83869,37.30444],[126.83851,37.30438],[126.83798,37.30421],[126.83595,37.30358],[126.83574,37.30352],[126.83545,37.3035],[126.82969,37.30355],[126.82867,37.30408],[126.82388,37.3044],[126.82371,37.30441],[126.82099,37.30363],[126.82089,37.30484],[126.82084,37.31379],[126.82099,37.31506],[126.82102,37.31534],[126.82116,37.31648],[126.82128,37.3173],[126.83037,37.31683]]]]}}]}