{"type":"FeatureCollection","features":[{"type":"Feature","properties":{"code":"27710250","name":"화원읍","parent":"27710"},"geometry":{"type":"MultiPolygon","coordinates":[[[[128.50535,35.81454],[128.50521,35.81437],[128.50573,35.81404],[128.5065,35.81358],[128.50832,35.81252],[128.50844,35.81246],[128.50893,35.8122],[128.50949,35.81203],[128.51068,35.81175],[128.51178,35.81142],[128.51268,35.81114],[128.51292,35.81097],[128.51323,35.81045],[128.51332,35.81026],[128.51348,35.80994],[128.51349,35.80991],[128.51312,35.80976],[128.51167,35.80914],[128.51078,35.80877],[128.5095,35.80823],[128.50852,35.80782],[128.50791,35.80643],[128.50786,35.80619],[128.50785,35.80613],[128.50795,35.80599],[128.50808,35.80588],[128.50827,35.80581],[128.51155,35.80521],[128.5139,35.80401],[128.5139,35.80396],[128.51392,35.80382],[128.51626,35.79915],[128.51635,35.79902],[128.51713,35.79821],[128.51747,35.79787],[128.5186,35.79699],[128.52523,35.7924],[128.52542,35.79243],[128.52562,35.79242],[128.52656,35.79229],[128.52693,35.79221],[128.52705,35.79209],[128.52719,35.79151],[128.52746,35.79003],[128.5275,35.78939],[128.52754,35.78927],[128.52762,35.7891],[128.52816,35.78808],[128.52835,35.78795],[128.52845,35.78791],[128.5286,35.78786],[128.53278,35.78652],[128.53299,35.7865],[128.53754,35.78646],[128.53767,35.78647],[128.5379,35.78656],[128.54014,35.78767],[128.54156,35.78787],[128.54172,35.78743],[128.54184,35.78725],[128.54198,35.78706],[128.5421,35.787],[128.54324,35.78654],[128.54339,35.78648],[128.54629,35.78342],[128.54648,35.78309],[128.54767,35.78192],[128.54854,35.78119],[128.5489,35.78091],[128.54923,35.78074],[128.54955,35.78065],[128.54981,35.78052],[128.55077,35.78004],[128.55111,35.77986],[128.55143,35.77963],[128.55167,35.77943],[128.55182,35.77925],[128.55202,35.77888],[128.55294,35.77713],[128.55299,35.77695],[128.55321,35.77571],[128.55319,35.77553],[128.55313,35.77518],[128.55417,35.77293],[128.55329,35.77246],[128.54932,35.76789],[128.54922,35.76777],[128.54916,35.76767],[128.54911,35.76756],[128.54907,35.76731],[128.54908,35.76701],[128.54921,35.76391],[128.54923,35.76376],[128.54928,35.76358],[128.54942,35.76331],[128.54961,35.76303],[128.55036,35.76216],[128.55045,35.76209],[128.55073,35.76191],[128.55085,35.76181],[128.55088,35.76177],[128.55091,35.76172],[128.55093,35.76159],[128.55094,35.76124],[128.55091,35.76113],[128.55087,35.76095],[128.55081,35.76088],[128.55069,35.76081],[128.545,35.75773],[128.54493,35.75769],[128.54318,35.75702],[128.54301,35.75697],[128.54288,35.75694],[128.54273,35.75691],[128.54202,35.75685],[128.54194,35.75686],[128.53653,35.75407],[128.53524,35.75335],[128.53506,35.75325],[128.53498,35.75323],[128.53391,35.7534],[128.53385,35.75342],[128.53206,35.75422],[128.53144,35.75454],[128.53142,35.75487],[128.53141,35.75493],[128.53139,35.755],[128.53137,35.7551],[128.53134,35.75515],[128.53042,35.75643],[128.53038,35.75649],[128.53034,35.75652],[128.52924,35.7573],[128.52848,35.75767],[128.5275,35.75788],[128.52614,35.7584],[128.52608,35.75844],[128.52604,35.75848],[128.52601,35.75852],[128.5251,35.75997],[128.52504,35.76008],[128.525,35.76017],[128.52496,35.76027],[128.52497,35.76038],[128.52499,35.76054],[128.52502,35.76064],[128.52506,35.76075],[128.5251,35.76081],[128.52515,35.76088],[128.52528,35.76105],[128.52531,35.7611],[128.52533,35.76116],[128.52535,35.76125],[128.52538,35.76137],[128.52539,35.76196],[128.52539,35.76201],[128.52537,35.76214],[128.52537,35.7622],[128.52535,35.76227],[128.52531,35.7624],[128.52528,35.76253],[128.52525,35.76262],[128.5252,35.76277],[128.52505,35.76314],[128.52496,35.76333],[128.52487,35.76348],[128.52483,35.76353],[128.52478,35.76358],[128.52471,35.76362],[128.52461,35.76365],[128.51764,35.76577],[128.50925,35.76871],[128.50909,35.76876],[128.50892,35.76878],[128.5087,35.76879],[128.50856,35.76878],[128.50834,35.76875],[128.50807,35.76871],[128.50789,35.76869],[128.50765,35.76869],[128.50654,35.7687],[128.50642,35.76871],[128.5063,35.76873],[128.50624,35.76874],[128.50617,35.76876],[128.50596,35.76886],[128.50583,35.76894],[128.50387,35.77022],[128.50377,35.77029],[128.50297,35.77098],[128.50273,35.77119],[128.5014,35.77246],[128.50135,35.77252],[128.50029,35.7738],[128.49591,35.77545],[128.49551,35.77553],[128.49504,35.7757],[128.49156,35.77721],[128.49147,35.77726],[128.49127,35.77736],[128.49095,35.77753],[128.48651,35.78011],[128.48495,35.78116],[128.48449,35.78177],[128.48419,35.78222],[128.48392,35.78268],[128.48289,35.7855],[128.48282,35.78593],[128.47984,35.78701],[128.47979,35.787],[128.47973,35.787],[128.47963,35.787],[128.47952,35.78702],[128.47931,35.78711],[128.47906,35.78727],[128.4789,35.78749],[128.47704,35.79232],[128.4763,35.79574],[128.47597,35.79725],[128.47543,35.79974],[128.47482,35.8026],[128.47477,35.80279],[128.47454,35.8037],[128.47294,35.80865],[128.47226,35.80953],[128.47362,35.81018],[128.47443,35.81065],[128.47536,35.81125],[128.47552,35.81137],[128.47562,35.81144],[128.47603,35.81173],[128.4772,35.81268],[128.4777,35.81319],[128.47818,35.81376],[128.47878,35.81468],[128.47984,35.81653],[128.48024,35.81725],[128.48043,35.81775],[128.48853,35.81746],[128.48946,35.81705],[128.49236,35.81612],[128.49255,35.81622],[128.49324,35.8166],[128.49339,35.81667],[128.49418,35.81694],[128.49459,35.81705],[128.49496,35.81714],[128.49554,35.81719],[128.49602,35.81719],[128.49678,35.81712],[128.49723,35.81707],[128.49749,35.81703],[128.499,35.81679],[128.50008,35.81653],[128.50164,35.81595],[128.50261,35.81558],[128.50535,35.81454]]]]}},{"type":"Feature","properties":{"code":"27710253","name":"논공읍","parent":"27710"},"geometry":{"type":"MultiPolygon","coordinates":[[[[128.49311,35.72511],[128.4917,35.72444],[128.49162,35.72442],[128.49149,35.72442],[128.49101,35.72454],[128.49077,35.72461],[128.48765,35.72568],[128.48679,35.72609],[128.4838,35.72666],[128.48239,35.72609],[128.48228,35.72605],[128.47725,35.72425],[128.47385,35.72364],[128.46848,35.72216],[128.46839,35.72212],[128.46826,35.72206],[128.46819,35.722],[128.46813,35.72195],[128.46695,35.72089],[128.46536,35.71944],[128.46384,35.71853],[128.46219,35.71759],[128.46126,35.71738],[128.46115,35.71742],[128.46103,35.71746],[128.46096,35.71746],[128.46082,35.71742],[128.46052,35.71731],[128.45802,35.71622],[128.45765,35.71601],[128.45754,35.71593],[128.4571,35.7156],[128.45318,35.71278],[128.45279,35.71303],[128.4515,35.71392],[128.45108,35.71423],[128.45067,35.71454],[128.45034,35.71483],[128.44999,35.71515],[128.4497,35.71546],[128.44958,35.71561],[128.44949,35.71572],[128.44928,35.71602],[128.44924,35.71607],[128.44888,35.71673],[128.44876,35.71698],[128.4487,35.71711],[128.44868,35.71715],[128.44858,35.7173],[128.4485,35.71737],[128.44831,35.71752],[128.44818,35.71761],[128.446,35.71908],[128.44591,35.71911],[128.44353,35.7188],[128.44013,35.71888],[128.43902,35.71878],[128.4383,35.71873],[128.43673,35.71874],[128.43658,35.71874],[128.4341,35.71881],[128.43391,35.7202],[128.43376,35.72093],[128.43372,35.72113],[128.43325,35.72322],[128.43312,35.72382],[128.43309,35.72392],[128.4329,35.72461],[128.4325,35.72538],[128.43233,35.72559],[128.43182,35.72627],[128.43035,35.72802],[128.4303,35.72808],[128.42984,35.72847],[128.42933,35.72887],[128.42915,35.729],[128.42893,35.72915],[128.42875,35.72925],[128.42828,35.72947],[128.42607,35.73054],[128.42168,35.73272],[128.41958,35.73388],[128.41915,35.73423],[128.41876,35.73455],[128.41811,35.7351],[128.41798,35.73522],[128.41656,35.73663],[128.41566,35.73704],[128.4148,35.73738],[128.41436,35.73755],[128.41395,35.73766],[128.41338,35.73775],[128.41286,35.73782],[128.41122,35.73798],[128.41004,35.7381],[128.40723,35.73868],[128.4062,35.73895],[128.40531,35.73926],[128.40442,35.73959],[128.40333,35.7401],[128.40295,35.74029],[128.40159,35.74109],[128.40077,35.74161],[128.39897,35.74272],[128.39827,35.7431],[128.39779,35.74336],[128.39746,35.7435],[128.39632,35.74397],[128.39489,35.74445],[128.39404,35.74484],[128.39389,35.74492],[128.39374,35.74498],[128.39371,35.745],[128.39264,35.74553],[128.39201,35.74613],[128.39146,35.74671],[128.39083,35.74746],[128.39076,35.74754],[128.3898,35.74869],[128.38891,35.74986],[128.38845,35.75061],[128.38603,35.75503],[128.38581,35.75554],[128.38567,35.75588],[128.38548,35.75645],[128.38531,35.75715],[128.38517,35.75788],[128.38513,35.75875],[128.38512,35.75928],[128.38512,35.75951],[128.38519,35.76027],[128.38539,35.7611],[128.38546,35.76129],[128.38567,35.76185],[128.38601,35.76258],[128.38644,35.76335],[128.3867,35.76373],[128.38711,35.76422],[128.38858,35.76584],[128.38907,35.76634],[128.3893,35.76656],[128.39011,35.76737],[128.39245,35.76979],[128.39317,35.77056],[128.39403,35.77148],[128.39506,35.77269],[128.3964,35.77436],[128.39683,35.77491],[128.39703,35.77516],[128.39779,35.77616],[128.39866,35.77739],[128.39904,35.77793],[128.39908,35.77801],[128.40001,35.77963],[128.40041,35.78043],[128.40079,35.78119],[128.40144,35.78252],[128.40229,35.78437],[128.40251,35.78513],[128.40278,35.78596],[128.40341,35.78772],[128.4049,35.79141],[128.40605,35.7939],[128.4068,35.79537],[128.40742,35.79653],[128.40779,35.79711],[128.40825,35.79767],[128.40861,35.79806],[128.40904,35.79849],[128.41094,35.80028],[128.41191,35.79988],[128.41318,35.79932],[128.41397,35.79894],[128.41662,35.79764],[128.41686,35.79752],[128.41719,35.79731],[128.41748,35.79712],[128.41983,35.79551],[128.42027,35.79518],[128.42042,35.79501],[128.42061,35.79477],[128.42073,35.79453],[128.42081,35.79424],[128.42084,35.79401],[128.42092,35.79206],[128.42091,35.79167],[128.42085,35.79126],[128.42079,35.79095],[128.42078,35.7907],[128.42078,35.79009],[128.4208,35.78995],[128.42085,35.78968],[128.4209,35.78952],[128.42104,35.78921],[128.42128,35.78882],[128.42148,35.78855],[128.42183,35.78816],[128.42186,35.78813],[128.422,35.78801],[128.42224,35.7878],[128.42269,35.78744],[128.42306,35.78719],[128.42311,35.78717],[128.4233,35.78704],[128.42412,35.78652],[128.42463,35.78613],[128.42484,35.78594],[128.42536,35.78545],[128.4255,35.78526],[128.42565,35.78499],[128.4266,35.78304],[128.42692,35.78235],[128.42695,35.78205],[128.42697,35.78194],[128.42706,35.78177],[128.42734,35.78149],[128.42797,35.78099],[128.42807,35.78096],[128.42916,35.78069],[128.43001,35.78075],[128.43029,35.78072],[128.43039,35.78069],[128.43047,35.78063],[128.4305,35.78058],[128.43059,35.78044],[128.43062,35.78039],[128.43152,35.77885],[128.43788,35.77265],[128.43823,35.7719],[128.44153,35.76858],[128.44159,35.76854],[128.44171,35.76852],[128.4418,35.7685],[128.44192,35.76851],[128.44327,35.76879],[128.4455,35.7692],[128.44605,35.76929],[128.44611,35.76929],[128.44776,35.76947],[128.44866,35.76953],[128.44883,35.76954],[128.4489,35.76952],[128.44898,35.76951],[128.45398,35.76772],[128.45404,35.76769],[128.45425,35.76759],[128.45771,35.76558],[128.46297,35.76252],[128.46317,35.7624],[128.46342,35.76191],[128.46388,35.76093],[128.46453,35.75962],[128.46471,35.75943],[128.46554,35.75881],[128.46575,35.75869],[128.46924,35.75689],[128.4701,35.7565],[128.47026,35.75644],[128.47042,35.75643],[128.47065,35.75643],[128.47204,35.75444],[128.47257,35.75311],[128.47293,35.75194],[128.47287,35.75165],[128.47285,35.75155],[128.47285,35.75145],[128.47287,35.7514],[128.47317,35.75066],[128.47319,35.75063],[128.47565,35.74962],[128.47578,35.74958],[128.47595,35.74954],[128.47631,35.74946],[128.47647,35.74942],[128.47671,35.74938],[128.47685,35.74937],[128.477,35.74936],[128.47717,35.74934],[128.4772,35.74935],[128.47729,35.74935],[128.47794,35.74945],[128.47821,35.7495],[128.47847,35.74957],[128.47865,35.74963],[128.4787,35.74967],[128.47877,35.74973],[128.479,35.74995],[128.47909,35.75004],[128.47918,35.75009],[128.47927,35.75013],[128.47936,35.75015],[128.47947,35.75017],[128.47969,35.75016],[128.47979,35.75014],[128.47985,35.75012],[128.48007,35.75004],[128.4802,35.74998],[128.48059,35.74977],[128.48068,35.74971],[128.48073,35.74968],[128.48076,35.74963],[128.48133,35.74761],[128.48178,35.74479],[128.4821,35.74226],[128.48204,35.74215],[128.48198,35.74198],[128.48194,35.74186],[128.48187,35.74158],[128.48174,35.741],[128.48165,35.74055],[128.48161,35.74029],[128.48153,35.73972],[128.48153,35.73963],[128.48152,35.73951],[128.48154,35.73937],[128.4816,35.73913],[128.48168,35.73898],[128.48177,35.73886],[128.48188,35.73875],[128.48218,35.73846],[128.48231,35.73836],[128.48249,35.73826],[128.4827,35.73815],[128.48387,35.73757],[128.48393,35.73756],[128.48404,35.73757],[128.48422,35.73757],[128.48441,35.73757],[128.48452,35.73757],[128.48459,35.73755],[128.48583,35.73703],[128.4859,35.737],[128.48709,35.73608],[128.48715,35.73603],[128.48721,35.73596],[128.48727,35.73582],[128.48732,35.73568],[128.48734,35.73557],[128.48736,35.73491],[128.48735,35.73473],[128.48732,35.73461],[128.48728,35.73453],[128.48725,35.73447],[128.48725,35.73443],[128.48725,35.73436],[128.48869,35.73158],[128.48873,35.73151],[128.489,35.73106],[128.48907,35.73096],[128.48917,35.73084],[128.48945,35.73049],[128.48954,35.73038],[128.48973,35.73021],[128.4902,35.72979],[128.49027,35.72976],[128.49287,35.72625],[128.49311,35.72511]]]]}},{"type":"Feature","properties":{"code":"27710256","name":"다사읍","parent":"27710"},"geometry":{"type":"MultiPolygon","coordinates":[[[[128.50415,35.89059],[128.50654,35.89212],[128.50692,35.89235],[128.50732,35.89253],[128.50784,35.89268],[128.50839,35.89279],[128.51019,35.89301],[128.51075,35.89304],[128.51221,35.89309],[128.5141,35.89278],[128.51618,35.89226],[128.52188,35.89066],[128.52301,35.89032],[128.52388,35.89005],[128.52474,35.88975],[128.52536,35.88952],[128.52574,35.88915],[128.52599,35.8889],[128.52614,35.88777],[128.52587,35.88755],[128.5254,35.88717],[128.52438,35.88683],[128.522,35.88635],[128.5215,35.88634],[128.52137,35.88635],[128.52126,35.88636],[128.52111,35.88638],[128.52095,35.88642],[128.52091,35.8864],[128.5207,35.88631],[128.52031,35.88607],[128.52,35.88586],[128.5177,35.88415],[128.51731,35.88376],[128.5173,35.88372],[128.51719,35.88298],[128.5172,35.88292],[128.51723,35.8828],[128.51789,35.88159],[128.51861,35.88075],[128.51871,35.88069],[128.51876,35.88065],[128.51887,35.88052],[128.519,35.88035],[128.51905,35.88029],[128.51908,35.88025],[128.51955,35.87948],[128.51981,35.87904],[128.52035,35.87805],[128.52044,35.87774],[128.52046,35.87767],[128.52055,35.87737],[128.52083,35.87636],[128.52093,35.87599],[128.52123,35.87328],[128.52123,35.87317],[128.52121,35.87307],[128.52064,35.87157],[128.52057,35.87141],[128.52049,35.87122],[128.52034,35.8709],[128.52032,35.87085],[128.5203,35.87081],[128.52008,35.87054],[128.51995,35.87037],[128.51988,35.8703],[128.51979,35.87021],[128.51915,35.86958],[128.51561,35.86811],[128.51282,35.86846],[128.51203,35.86863],[128.51065,35.86843],[128.50893,35.86727],[128.50877,35.86715],[128.50762,35.86621],[128.50684,35.8662],[128.50416,35.86599],[128.50401,35.86596],[128.50383,35.86588],[128.50289,35.86538],[128.5026,35.86516],[128.50255,35.86509],[128.50249,35.86489],[128.50247,35.86477],[128.5024,35.8646],[128.50228,35.8644],[128.50218,35.86428],[128.50211,35.86422],[128.50199,35.8641],[128.50185,35.86401],[128.5017,35.86391],[128.5016,35.86385],[128.50146,35.86381],[128.50134,35.8638],[128.50118,35.86378],[128.50107,35.8638],[128.50089,35.86384],[128.49889,35.86435],[128.49742,35.8644],[128.49473,35.86502],[128.48939,35.86677],[128.4891,35.86687],[128.48885,35.86702],[128.48788,35.86777],[128.48779,35.86783],[128.48745,35.86797],[128.48708,35.86808],[128.48681,35.86812],[128.48654,35.86815],[128.4862,35.86817],[128.48587,35.86816],[128.48234,35.86781],[128.48229,35.86779],[128.48213,35.86772],[128.48196,35.86763],[128.48114,35.86711],[128.47981,35.86587],[128.47962,35.86566],[128.47955,35.86551],[128.47912,35.86456],[128.47851,35.86322],[128.47842,35.86304],[128.47815,35.86266],[128.47735,35.86202],[128.47722,35.86195],[128.47706,35.8619],[128.47665,35.86186],[128.47625,35.86185],[128.47569,35.86185],[128.47536,35.86186],[128.47519,35.86185],[128.47502,35.86184],[128.47464,35.86177],[128.4741,35.86165],[128.47401,35.8616],[128.47385,35.86142],[128.47304,35.85951],[128.47194,35.85352],[128.47108,35.84631],[128.47078,35.84381],[128.47071,35.8428],[128.47067,35.84117],[128.47069,35.84016],[128.47071,35.83786],[128.47068,35.83518],[128.47064,35.833],[128.46943,35.83387],[128.46748,35.8353],[128.46651,35.83609],[128.46455,35.83778],[128.46379,35.8384],[128.46291,35.83911],[128.46204,35.83979],[128.46074,35.8408],[128.46012,35.84126],[128.45988,35.8414],[128.45946,35.84159],[128.45631,35.843],[128.45605,35.84308],[128.45355,35.84372],[128.45306,35.84382],[128.45216,35.84398],[128.44779,35.84483],[128.43464,35.84821],[128.42279,35.85126],[128.42132,35.85139],[128.41819,35.8543],[128.41803,35.85449],[128.41792,35.85479],[128.41787,35.85504],[128.41787,35.85518],[128.41812,35.85872],[128.41818,35.85927],[128.41827,35.86018],[128.41911,35.86193],[128.41952,35.86242],[128.41902,35.86505],[128.41817,35.86745],[128.4181,35.86767],[128.41801,35.86804],[128.41774,35.87045],[128.41794,35.87176],[128.418,35.87191],[128.41811,35.87207],[128.41822,35.87215],[128.41886,35.8724],[128.41893,35.8724],[128.42021,35.8723],[128.42039,35.87228],[128.42088,35.87207],[128.42125,35.87185],[128.42148,35.87176],[128.42161,35.87174],[128.42194,35.87174],[128.42209,35.87176],[128.42227,35.8718],[128.42232,35.87182],[128.42238,35.87183],[128.42264,35.87197],[128.42289,35.87218],[128.42354,35.8728],[128.42362,35.87302],[128.42367,35.87316],[128.42402,35.87524],[128.42408,35.87596],[128.4243,35.87696],[128.42438,35.87714],[128.42472,35.87789],[128.42665,35.88052],[128.42787,35.882],[128.42872,35.88266],[128.42884,35.88273],[128.42894,35.88278],[128.4291,35.88283],[128.42921,35.88285],[128.42934,35.88285],[128.43003,35.88274],[128.43017,35.88272],[128.43035,35.88262],[128.43077,35.88221],[128.43093,35.8821],[128.43101,35.88207],[128.43111,35.88205],[128.43116,35.88205],[128.43125,35.88207],[128.43142,35.88214],[128.43156,35.8822],[128.43394,35.88337],[128.43621,35.88514],[128.43632,35.88526],[128.43652,35.8855],[128.43708,35.8865],[128.43862,35.88708],[128.44316,35.88837],[128.4441,35.88854],[128.44431,35.88832],[128.44521,35.88755],[128.447,35.88926],[128.44724,35.88952],[128.44733,35.88973],[128.44777,35.89044],[128.44888,35.89136],[128.44911,35.89155],[128.45036,35.89249],[128.45292,35.89437],[128.45383,35.89469],[128.45392,35.8947],[128.45465,35.89469],[128.45471,35.89469],[128.45954,35.89755],[128.45968,35.89771],[128.46137,35.89949],[128.46303,35.89915],[128.4647,35.89846],[128.46488,35.8984],[128.46501,35.89838],[128.46525,35.89838],[128.46554,35.8984],[128.46567,35.89842],[128.46592,35.89848],[128.4661,35.89853],[128.46631,35.89863],[128.46768,35.89937],[128.46773,35.89941],[128.4678,35.89949],[128.4679,35.8997],[128.46795,35.89982],[128.47032,35.8984],[128.47069,35.89777],[128.47082,35.8976],[128.47091,35.89753],[128.47157,35.89703],[128.47435,35.89537],[128.47462,35.89527],[128.47491,35.89518],[128.47512,35.89516],[128.47528,35.89518],[128.47539,35.89522],[128.47671,35.89633],[128.47771,35.8972],[128.47821,35.89776],[128.47829,35.89779],[128.47837,35.89779],[128.47854,35.89779],[128.47861,35.89778],[128.47898,35.89775],[128.47902,35.89774],[128.47962,35.89765],[128.47998,35.89754],[128.48013,35.89747],[128.48019,35.89742],[128.48036,35.89713],[128.48084,35.89637],[128.48102,35.89621],[128.48132,35.89602],[128.48193,35.89572],[128.4842,35.89476],[128.48424,35.89477],[128.48438,35.89497],[128.4844,35.89502],[128.48443,35.8951],[128.48445,35.8954],[128.48444,35.89573],[128.48444,35.89599],[128.48447,35.89614],[128.48453,35.89618],[128.48787,35.89796],[128.48803,35.89802],[128.48857,35.89812],[128.48886,35.89814],[128.48904,35.89813],[128.49041,35.89777],[128.49052,35.89772],[128.49264,35.89627],[128.49275,35.89616],[128.4928,35.89599],[128.49286,35.89576],[128.49287,35.89559],[128.49281,35.89537],[128.49276,35.89514],[128.49275,35.89499],[128.49278,35.89483],[128.49306,35.89428],[128.4946,35.8913],[128.49662,35.88938],[128.49822,35.88877],[128.49975,35.88848],[128.50003,35.88797],[128.50084,35.88665],[128.50118,35.88627],[128.50134,35.88612],[128.5014,35.88606],[128.50148,35.88603],[128.50151,35.88601],[128.50171,35.88609],[128.50199,35.88639],[128.50342,35.88805],[128.50435,35.88914],[128.50455,35.88938],[128.50415,35.89059]]]]}},{"type":"Feature","properties":{"code":"27710310","name":"가창면","parent":"27710"},"geometry":{"type":"MultiPolygon","coordinates":[[[[128.63586,35.80609],[128.63606,35.80601],[128.63742,35.8053],[128.63789,35.80501],[128.63808,35.80483],[128.63867,35.8042],[128.63877,35.80401],[128.63922,35.80328],[128.64015,35.80237],[128.64024,35.80229],[128.64032,35.80225],[128.64039,35.80223],[128.64198,35.80201],[128.64203,35.80201],[128.6455,35.80226],[128.64588,35.80229],[128.64631,35.80237],[128.64654,35.80242],[128.64675,35.80249],[128.64712,35.80264],[128.64753,35.80285],[128.6484,35.80332],[128.64857,35.80342],[128.64872,35.80349],[128.64886,35.80353],[128.64898,35.80354],[128.64912,35.80353],[128.64929,35.80348],[128.65086,35.80286],[128.65174,35.80118],[128.65184,35.80099],[128.65212,35.80059],[128.65228,35.80041],[128.65242,35.80026],[128.65264,35.80008],[128.65278,35.79998],[128.65305,35.79979],[128.65314,35.79976],[128.65736,35.79872],[128.65892,35.79846],[128.65959,35.79858],[128.65985,35.79872],[128.65994,35.79875],[128.6601,35.79878],[128.66056,35.79883],[128.66165,35.79888],[128.66173,35.79889],[128.66184,35.79889],[128.662,35.79887],[128.66394,35.79846],[128.66414,35.79842],[128.66654,35.79783],[128.66745,35.79753],[128.66798,35.79736],[128.66807,35.79733],[128.67217,35.79581],[128.67476,35.79562],[128.67485,35.7956],[128.67501,35.79554],[128.67663,35.79461],[128.67691,35.79441],[128.67709,35.79427],[128.67717,35.79417],[128.6772,35.79412],[128.67723,35.79358],[128.67726,35.79353],[128.67729,35.79349],[128.67748,35.79336],[128.67784,35.7931],[128.67801,35.793],[128.67821,35.79288],[128.6784,35.79283],[128.67855,35.79282],[128.67863,35.79281],[128.68146,35.79085],[128.68258,35.7899],[128.68244,35.78899],[128.68189,35.78757],[128.68156,35.78701],[128.68147,35.78682],[128.68138,35.78658],[128.68132,35.78608],[128.68128,35.78572],[128.68127,35.7856],[128.6814,35.78493],[128.6815,35.78454],[128.68172,35.78367],[128.68178,35.7835],[128.68192,35.78326],[128.68473,35.77908],[128.68514,35.77865],[128.6852,35.77861],[128.68525,35.7786],[128.68537,35.77862],[128.68576,35.77873],[128.68586,35.77873],[128.68599,35.77871],[128.68619,35.77865],[128.68651,35.77846],[128.68656,35.77839],[128.68708,35.77652],[128.68709,35.77638],[128.68722,35.77472],[128.68723,35.77463],[128.68722,35.77425],[128.68719,35.77398],[128.68717,35.77385],[128.68712,35.7737],[128.68708,35.7736],[128.68689,35.77338],[128.68662,35.77311],[128.68649,35.77297],[128.68632,35.77274],[128.68621,35.77251],[128.68617,35.7724],[128.68613,35.77213],[128.68616,35.76949],[128.6862,35.7694],[128.68633,35.76926],[128.68643,35.76919],[128.68658,35.76914],[128.68679,35.7691],[128.68694,35.7691],[128.68719,35.76912],[128.68735,35.76915],[128.68769,35.76926],[128.688,35.76936],[128.68831,35.76945],[128.68847,35.76946],[128.68855,35.76946],[128.68866,35.76944],[128.68869,35.76943],[128.68871,35.7694],[128.69187,35.76521],[128.69189,35.76518],[128.69189,35.76513],[128.69163,35.76368],[128.69134,35.76276],[128.69133,35.76271],[128.69247,35.75993],[128.69619,35.75659],[128.69312,35.74932],[128.69262,35.74802],[128.69261,35.7477],[128.69263,35.74729],[128.69294,35.74629],[128.69438,35.74388],[128.69376,35.74306],[128.69189,35.74119],[128.68983,35.74005],[128.68966,35.74003],[128.68952,35.73987],[128.68937,35.73951],[128.68867,35.73753],[128.68869,35.73735],[128.68902,35.73702],[128.68934,35.73678],[128.68972,35.73656],[128.69037,35.73622],[128.69086,35.73588],[128.6911,35.73565],[128.69175,35.73263],[128.69179,35.73233],[128.69156,35.73174],[128.69098,35.73068],[128.69059,35.73027],[128.69016,35.72988],[128.68983,35.72969],[128.68741,35.72848],[128.68624,35.72796],[128.686,35.72791],[128.68583,35.72785],[128.68547,35.72762],[128.68513,35.72736],[128.68302,35.72551],[128.683,35.72545],[128.68299,35.72531],[128.68311,35.72391],[128.68318,35.72326],[128.68329,35.72254],[128.68339,35.72176],[128.68336,35.72161],[128.68331,35.72155],[128.68327,35.72149],[128.68308,35.72139],[128.68286,35.7213],[128.68257,35.72124],[128.6823,35.72121],[128.68195,35.72119],[128.6779,35.72104],[128.67669,35.72125],[128.67656,35.72126],[128.67558,35.72133],[128.67531,35.72133],[128.67498,35.72131],[128.67382,35.72116],[128.67289,35.72096],[128.67194,35.72076],[128.67188,35.72069],[128.67186,35.72064],[128.67186,35.72053],[128.67184,35.72043],[128.67179,35.7203],[128.67154,35.71983],[128.67118,35.71918],[128.67105,35.719],[128.67091,35.71894],[128.67076,35.71892],[128.67055,35.71894],[128.66757,35.71937],[128.66396,35.72049],[128.66375,35.72055],[128.66354,35.72055],[128.66119,35.72007],[128.66099,35.71998],[128.66056,35.71978],[128.65817,35.71852],[128.65665,35.71728],[128.65533,35.71541],[128.65502,35.71504],[128.65478,35.7148],[128.65461,35.71465],[128.65438,35.71449],[128.65043,35.71215],[128.64623,35.70843],[128.64361,35.70723],[128.64023,35.70631],[128.6396,35.70615],[128.63877,35.70598],[128.63783,35.70585],[128.63769,35.70585],[128.63402,35.70655],[128.6325,35.70686],[128.63199,35.70698],[128.63162,35.70704],[128.6313,35.70707],[128.63097,35.70704],[128.63084,35.707],[128.63051,35.70676],[128.62898,35.70584],[128.62503,35.70398],[128.62454,35.70381],[128.62391,35.70361],[128.62377,35.70357],[128.62307,35.7034],[128.62254,35.70347],[128.62187,35.70375],[128.62068,35.70428],[128.61856,35.70586],[128.61593,35.70846],[128.61412,35.71033],[128.61405,35.71041],[128.61398,35.71051],[128.61397,35.7106],[128.61404,35.71427],[128.61414,35.71438],[128.61435,35.71459],[128.6148,35.71498],[128.61488,35.71505],[128.6153,35.71536],[128.61614,35.71598],[128.61684,35.71646],[128.61692,35.71652],[128.61701,35.71661],[128.61708,35.71671],[128.61724,35.71709],[128.61726,35.71723],[128.61727,35.71746],[128.61719,35.71784],[128.61715,35.71796],[128.61643,35.71976],[128.61633,35.71995],[128.61561,35.72107],[128.61545,35.72128],[128.61525,35.72154],[128.61511,35.72167],[128.61421,35.72247],[128.6141,35.72253],[128.61381,35.72263],[128.61335,35.72276],[128.61319,35.72274],[128.61307,35.72275],[128.61297,35.72281],[128.61288,35.7229],[128.61029,35.72535],[128.61021,35.7255],[128.6102,35.72565],[128.61023,35.72585],[128.61039,35.72656],[128.61044,35.72665],[128.61186,35.72796],[128.61344,35.72935],[128.61365,35.72939],[128.61401,35.72945],[128.61428,35.72952],[128.61449,35.72961],[128.6147,35.72975],[128.61503,35.73002],[128.61533,35.73031],[128.6154,35.73044],[128.61542,35.73104],[128.61537,35.73128],[128.61525,35.73157],[128.61502,35.73189],[128.61465,35.73258],[128.6145,35.73285],[128.61447,35.73294],[128.61447,35.733],[128.61526,35.73438],[128.61534,35.73442],[128.6156,35.73446],[128.61653,35.73453],[128.6166,35.73457],[128.61664,35.73464],[128.61666,35.73712],[128.6166,35.73714],[128.61416,35.73796],[128.61271,35.73838],[128.61213,35.7385],[128.61189,35.73854],[128.61078,35.73855],[128.60894,35.73906],[128.60881,35.73908],[128.60862,35.73907],[128.60728,35.73902],[128.60658,35.73895],[128.60619,35.73879],[128.60526,35.73835],[128.60242,35.73719],[128.60217,35.7371],[128.60192,35.73705],[128.59998,35.73667],[128.59967,35.73665],[128.59663,35.73698],[128.59618,35.73708],[128.5938,35.7358],[128.59377,35.73562],[128.59351,35.73516],[128.5933,35.73481],[128.59311,35.73455],[128.59191,35.733],[128.59182,35.7329],[128.59161,35.73275],[128.58961,35.73193],[128.58941,35.73185],[128.58931,35.73187],[128.58618,35.73421],[128.58468,35.73561],[128.5846,35.73574],[128.58411,35.73637],[128.5837,35.73687],[128.58253,35.73821],[128.58209,35.73864],[128.58191,35.7388],[128.58176,35.73883],[128.58012,35.7391],[128.58003,35.73909],[128.57774,35.73769],[128.57166,35.7346],[128.57113,35.73436],[128.57091,35.73426],[128.57073,35.73425],[128.57037,35.73423],[128.57,35.73428],[128.5677,35.73515],[128.56752,35.73522],[128.56727,35.7355],[128.56724,35.73558],[128.56714,35.73568],[128.56615,35.73647],[128.56603,35.73647],[128.56433,35.73628],[128.56421,35.7362],[128.56343,35.73565],[128.5633,35.73549],[128.56314,35.7352],[128.56267,35.73368],[128.56265,35.73339],[128.56263,35.73264],[128.56262,35.73231],[128.56259,35.73209],[128.56254,35.73199],[128.56133,35.73024],[128.56083,35.72954],[128.56074,35.72947],[128.55946,35.72865],[128.55563,35.72731],[128.55536,35.72734],[128.55527,35.72733],[128.55239,35.7262],[128.5485,35.72384],[128.54743,35.72318],[128.54709,35.72296],[128.54606,35.72225],[128.54595,35.72213],[128.54579,35.72188],[128.54567,35.72161],[128.54559,35.72136],[128.545,35.72041],[128.54408,35.71928],[128.544,35.71922],[128.54389,35.71914],[128.54377,35.71909],[128.54363,35.71904],[128.54353,35.71901],[128.54329,35.71896],[128.54313,35.71894],[128.54298,35.71892],[128.54194,35.71881],[128.53958,35.7181],[128.53646,35.71667],[128.52889,35.71389],[128.52835,35.7137],[128.52811,35.71364],[128.52774,35.71362],[128.5273,35.71361],[128.52714,35.71361],[128.52607,35.71434],[128.52487,35.71525],[128.52402,35.7164],[128.52422,35.71667],[128.52421,35.71678],[128.52416,35.71701],[128.52412,35.71712],[128.52406,35.71726],[128.52353,35.71839],[128.52347,35.71849],[128.52337,35.71863],[128.52314,35.71888],[128.52475,35.71994],[128.52483,35.72],[128.52561,35.72085],[128.5259,35.7212],[128.52611,35.72149],[128.52626,35.72177],[128.52638,35.72207],[128.52644,35.72229],[128.52646,35.72238],[128.52651,35.72272],[128.52683,35.72801],[128.52681,35.72815],[128.52692,35.72865],[128.52702,35.72894],[128.52739,35.72949],[128.53022,35.73355],[128.53154,35.7354],[128.53166,35.73548],[128.53211,35.73569],[128.5353,35.73665],[128.53561,35.73672],[128.53599,35.73671],[128.53749,35.73635],[128.53806,35.73616],[128.53864,35.73588],[128.5389,35.73578],[128.53909,35.73573],[128.53913,35.73578],[128.54008,35.73727],[128.54021,35.73759],[128.54021,35.73774],[128.54014,35.73801],[128.53854,35.74337],[128.53731,35.74633],[128.53521,35.75259],[128.5352,35.75265],[128.53524,35.75335],[128.53653,35.75407],[128.54194,35.75686],[128.54202,35.75685],[128.54273,35.75691],[128.54288,35.75694],[128.54301,35.75697],[128.54318,35.75702],[128.54493,35.75769],[128.545,35.75773],[128.55069,35.76081],[128.55081,35.76088],[128.55087,35.76095],[128.55091,35.76113],[128.55094,35.76124],[128.55093,35.76159],[128.55091,35.76172],[128.55088,35.76177],[128.55085,35.76181],[128.55073,35.76191],[128.55045,35.76209],[128.55036,35.76216],[128.54961,35.76303],[128.54942,35.76331],[128.54928,35.76358],[128.54923,35.76376],[128.54921,35.76391],[128.54908,35.76701],[128.54907,35.76731],[128.54911,35.76756],[128.54916,35.76767],[128.54922,35.76777],[128.54932,35.76789],[128.55329,35.77246],[128.55417,35.77293],[128.55893,35.77393],[128.55988,35.77422],[128.55998,35.77425],[128.56235,35.77455],[128.56297,35.77453],[128.56335,35.77439],[128.56343,35.77436],[128.56413,35.7741],[128.56506,35.77451],[128.56544,35.77468],[128.56562,35.7748],[128.56744,35.77667],[128.57061,35.78016],[128.57055,35.78146],[128.57017,35.78215],[128.56993,35.7824],[128.56961,35.78305],[128.56955,35.78352],[128.56964,35.78654],[128.56906,35.79037],[128.56853,35.79237],[128.56727,35.79522],[128.56962,35.79768],[128.57197,35.79721],[128.57301,35.79696],[128.57346,35.79681],[128.57524,35.79631],[128.57684,35.79619],[128.57882,35.79652],[128.5854,35.7993],[128.58631,35.80017],[128.58645,35.80084],[128.58646,35.80179],[128.58602,35.80587],[128.58562,35.80771],[128.58623,35.80762],[128.58757,35.80789],[128.58801,35.80801],[128.58841,35.80817],[128.59008,35.80917],[128.59065,35.80964],[128.59071,35.80977],[128.59453,35.80766],[128.59588,35.80742],[128.60141,35.80657],[128.60849,35.80506],[128.61592,35.80421],[128.61611,35.8042],[128.61623,35.8042],[128.62233,35.8052],[128.62319,35.80598],[128.62326,35.80634],[128.6234,35.80657],[128.62364,35.80683],[128.62486,35.80773],[128.62666,35.80715],[128.62681,35.80709],[128.63115,35.8063],[128.63175,35.80645],[128.6322,35.8065],[128.63263,35.80652],[128.63302,35.80654],[128.63509,35.80627],[128.63535,35.80623],[128.63581,35.80611],[128.63586,35.80609]]]]}},{"type":"Feature","properties":{"code":"27710330","name":"하빈면","parent":"27710"},"geometry":{"type":"MultiPolygon","coordinates":[[[[128.46795,35.89982],[128.4679,35.8997],[128.4678,35.89949],[128.46773,35.89941],[128.46768,35.89937],[128.46631,35.89863],[128.4661,35.89853],[128.46592,35.89848],[128.46567,35.89842],[128.46554,35.8984],[128.46525,35.89838],[128.46501,35.89838],[128.46488,35.8984],[128.4647,35.89846],[128.46303,35.89915],[128.46137,35.89949],[128.45968,35.89771],[128.45954,35.89755],[128.45471,35.89469],[128.45465,35.89469],[128.45392,35.8947],[128.45383,35.89469],[128.45292,35.89437],[128.45036,35.89249],[128.44911,35.89155],[128.44888,35.89136],[128.44777,35.89044],[128.44733,35.88973],[128.44724,35.88952],[128.447,35.88926],[128.44521,35.88755],[128.44431,35.88832],[128.4441,35.88854],[128.44316,35.88837],[128.43862,35.88708],[128.43708,35.8865],[128.43652,35.8855],[128.43632,35.88526],[128.43621,35.88514],[128.43394,35.88337],[128.43156,35.8822],[128.43142,35.88214],[128.43125,35.88207],[128.43116,35.88205],[128.43111,35.88205],[128.43101,35.88207],[128.43093,35.8821],[128.43077,35.88221],[128.43035,35.88262],[128.43017,35.88272],[128.43003,35.88274],[128.42934,35.88285],[128.42921,35.88285],[128.4291,35.88283],[128.42894,35.88278],[128.42884,35.88273],[128.42872,35.88266],[128.42787,35.882],[128.42665,35.88052],[128.42472,35.87789],[128.42438,35.87714],[128.4243,35.87696],[128.42408,35.87596],[128.42402,35.87524],[128.42367,35.87316],[128.42362,35.87302],[128.42354,35.8728],[128.42289,35.87218],[128.42264,35.87197],[128.42238,35.87183],[128.42232,35.87182],[128.42227,35.8718],[128.42209,35.87176],[128.42194,35.87174],[128.42161,35.87174],[128.42148,35.87176],[128.42125,35.87185],[128.42088,35.87207],[128.42039,35.87228],[128.42021,35.8723],[128.41893,35.8724],[128.41886,35.8724],[128.41822,35.87215],[128.41811,35.87207],[128.418,35.87191],[128.41794,35.87176],[128.41774,35.87045],[128.41801,35.86804],[128.4181,35.86767],[128.41817,35.86745],[128.41902,35.86505],[128.41952,35.86242],[128.41911,35.86193],[128.41827,35.86018],[128.41818,35.85927],[128.41812,35.85872],[128.41787,35.85518],[128.41787,35.85504],[128.41792,35.85479],[128.41803,35.85449],[128.41819,35.8543],[128.42132,35.85139],[128.41899,35.85151],[128.41767,35.85149],[128.41653,35.85139],[128.41518,35.85119],[128.4143,35.85103],[128.41307,35.85082],[128.4129,35.85079],[128.41193,35.85063],[128.40949,35.8503],[128.40834,35.85022],[128.40669,35.85031],[128.40466,35.8504],[128.40337,35.85043],[128.40204,35.85032],[128.40034,35.85001],[128.39882,35.84965],[128.39865,35.8496],[128.39819,35.84944],[128.39779,35.84942],[128.39697,35.84944],[128.39527,35.84951],[128.39373,35.84957],[128.39311,35.84963],[128.39265,35.84967],[128.39218,35.84974],[128.39172,35.84983],[128.39111,35.85001],[128.39056,35.8502],[128.39009,35.85037],[128.38876,35.8527],[128.38834,35.85358],[128.38795,35.85446],[128.38737,35.85607],[128.38702,35.85716],[128.38662,35.85852],[128.38632,35.85973],[128.38607,35.86101],[128.38591,35.86201],[128.38556,35.86427],[128.38547,35.86493],[128.38546,35.86503],[128.38546,35.86508],[128.38546,35.86517],[128.38548,35.86524],[128.38716,35.87116],[128.38727,35.87147],[128.38748,35.87183],[128.388,35.87263],[128.38811,35.8728],[128.38888,35.87394],[128.39011,35.87575],[128.39031,35.87605],[128.39057,35.87647],[128.39072,35.87673],[128.39087,35.87702],[128.39112,35.87749],[128.39125,35.87774],[128.39352,35.88257],[128.39371,35.88304],[128.39427,35.88315],[128.39525,35.88337],[128.39625,35.8836],[128.39729,35.88392],[128.39811,35.88423],[128.39826,35.8843],[128.39836,35.88438],[128.39845,35.8845],[128.39867,35.88503],[128.39871,35.88511],[128.39927,35.88593],[128.39933,35.886],[128.39968,35.88637],[128.40013,35.88684],[128.40107,35.88757],[128.40163,35.88792],[128.40174,35.88796],[128.40184,35.88798],[128.40209,35.88802],[128.40227,35.88806],[128.40237,35.88809],[128.40242,35.88811],[128.40252,35.88816],[128.40262,35.88824],[128.40298,35.88867],[128.40334,35.8891],[128.40664,35.89516],[128.40665,35.89523],[128.40663,35.89536],[128.40652,35.89592],[128.40657,35.89734],[128.4066,35.89782],[128.4068,35.89913],[128.40751,35.90103],[128.40808,35.90233],[128.4082,35.90258],[128.41048,35.90674],[128.41129,35.90784],[128.41177,35.9085],[128.41185,35.9086],[128.41201,35.90874],[128.41206,35.90879],[128.41212,35.90882],[128.41227,35.90885],[128.41244,35.9089],[128.41259,35.90895],[128.41274,35.90903],[128.41292,35.90914],[128.41296,35.90917],[128.413,35.90922],[128.41666,35.91433],[128.41771,35.91617],[128.41803,35.91785],[128.41821,35.91952],[128.4181,35.92125],[128.41815,35.92127],[128.41818,35.92129],[128.4188,35.92145],[128.42092,35.92196],[128.42103,35.92194],[128.42118,35.92192],[128.42127,35.92192],[128.42136,35.92193],[128.42144,35.92195],[128.42154,35.92198],[128.42347,35.92275],[128.42356,35.9228],[128.42366,35.92288],[128.42373,35.92297],[128.42385,35.92318],[128.42457,35.92459],[128.42464,35.92473],[128.42467,35.92484],[128.42468,35.92487],[128.42469,35.92501],[128.42467,35.92523],[128.42462,35.92539],[128.42441,35.92599],[128.42435,35.92625],[128.42434,35.92632],[128.42435,35.92645],[128.4244,35.92659],[128.42492,35.92791],[128.42587,35.92749],[128.42613,35.92738],[128.42644,35.92728],[128.42653,35.92725],[128.42662,35.92725],[128.42751,35.92734],[128.4277,35.92762],[128.42774,35.92769],[128.42772,35.92777],[128.42763,35.92786],[128.42749,35.92797],[128.42743,35.92807],[128.42744,35.92815],[128.42777,35.92885],[128.43145,35.93097],[128.43702,35.93161],[128.44117,35.93482],[128.44553,35.93545],[128.44561,35.93544],[128.44624,35.93529],[128.44747,35.93513],[128.44806,35.93505],[128.44835,35.93502],[128.44872,35.93499],[128.44912,35.935],[128.4492,35.93501],[128.44933,35.93503],[128.44973,35.9351],[128.45019,35.9352],[128.45044,35.93528],[128.45215,35.93589],[128.45228,35.93593],[128.45249,35.93601],[128.45266,35.93616],[128.45276,35.93631],[128.45339,35.93889],[128.45339,35.93921],[128.4533,35.93959],[128.45325,35.9397],[128.45323,35.93976],[128.45322,35.93993],[128.45323,35.94022],[128.45333,35.94106],[128.45355,35.94238],[128.45376,35.9431],[128.45377,35.94313],[128.45382,35.94313],[128.45434,35.94302],[128.45484,35.94287],[128.45509,35.94276],[128.45527,35.94264],[128.45626,35.94193],[128.45748,35.94198],[128.45752,35.94194],[128.45778,35.94164],[128.45799,35.9413],[128.45817,35.94067],[128.45826,35.94044],[128.45833,35.94032],[128.45848,35.94013],[128.45871,35.93995],[128.46047,35.93863],[128.46072,35.93846],[128.46109,35.93828],[128.46181,35.93799],[128.46255,35.9378],[128.46283,35.93825],[128.46306,35.93862],[128.46367,35.93875],[128.46445,35.93876],[128.46875,35.93845],[128.47568,35.936],[128.47624,35.93439],[128.47644,35.93288],[128.47656,35.93192],[128.47633,35.92938],[128.47593,35.92799],[128.47565,35.92706],[128.4755,35.92657],[128.47544,35.92646],[128.47537,35.9264],[128.47482,35.92593],[128.47474,35.92587],[128.47459,35.92579],[128.47444,35.92571],[128.47436,35.92564],[128.47429,35.92555],[128.47423,35.92546],[128.47419,35.92538],[128.47347,35.92379],[128.47326,35.9231],[128.47323,35.92298],[128.47322,35.92285],[128.47323,35.92275],[128.47333,35.92168],[128.47365,35.91944],[128.47398,35.91714],[128.474,35.91704],[128.47398,35.91691],[128.47394,35.91676],[128.47356,35.91572],[128.47348,35.91558],[128.47312,35.91505],[128.46912,35.91068],[128.46907,35.91063],[128.46899,35.91061],[128.46834,35.91054],[128.46827,35.91053],[128.46686,35.90716],[128.46717,35.90678],[128.46724,35.90666],[128.46729,35.90653],[128.46732,35.90637],[128.46745,35.90559],[128.46779,35.90336],[128.46812,35.90124],[128.46814,35.90109],[128.46814,35.90097],[128.46813,35.90077],[128.46795,35.89982]]]]}},{"type":"Feature","properties":{"code":"27710262","name":"옥포읍","parent":"27710"},"geometry":{"type":"MultiPolygon","coordinates":[[[[128.53524,35.75335],[128.5352,35.75265],[128.53521,35.75259],[128.53731,35.74633],[128.53854,35.74337],[128.54014,35.73801],[128.54021,35.73774],[128.54021,35.73759],[128.54008,35.73727],[128.53913,35.73578],[128.53909,35.73573],[128.5389,35.73578],[128.53864,35.73588],[128.53806,35.73616],[128.53749,35.73635],[128.53599,35.73671],[128.53561,35.73672],[128.5353,35.73665],[128.53211,35.73569],[128.53166,35.73548],[128.53154,35.7354],[128.53022,35.73355],[128.52739,35.72949],[128.52702,35.72894],[128.52692,35.72865],[128.52681,35.72815],[128.52683,35.72801],[128.52651,35.72272],[128.52646,35.72238],[128.52644,35.72229],[128.52638,35.72207],[128.52626,35.72177],[128.52611,35.72149],[128.5259,35.7212],[128.52561,35.72085],[128.52483,35.72],[128.52475,35.71994],[128.52314,35.71888],[128.52208,35.72008],[128.52152,35.72064],[128.51838,35.72287],[128.5182,35.72292],[128.5142,35.72468],[128.51171,35.72581],[128.50751,35.72793],[128.50738,35.72798],[128.50718,35.72804],[128.50709,35.72806],[128.50687,35.72809],[128.50653,35.72807],[128.50627,35.72801],[128.50546,35.72775],[128.50533,35.72789],[128.50518,35.72796],[128.50482,35.72807],[128.50443,35.72814],[128.50405,35.72812],[128.50377,35.72808],[128.50348,35.72786],[128.50339,35.72772],[128.50337,35.72752],[128.5034,35.72732],[128.50338,35.72707],[128.50335,35.72697],[128.5033,35.72682],[128.50322,35.72668],[128.50295,35.72638],[128.50287,35.72634],[128.49999,35.72591],[128.49991,35.7259],[128.49983,35.72589],[128.495,35.72547],[128.49311,35.72511],[128.49287,35.72625],[128.49027,35.72976],[128.4902,35.72979],[128.48973,35.73021],[128.48954,35.73038],[128.48945,35.73049],[128.48917,35.73084],[128.48907,35.73096],[128.489,35.73106],[128.48873,35.73151],[128.48869,35.73158],[128.48725,35.73436],[128.48725,35.73443],[128.48725,35.73447],[128.48728,35.73453],[128.48732,35.73461],[128.48735,35.73473],[128.48736,35.73491],[128.48734,35.73557],[128.48732,35.73568],[128.48727,35.73582],[128.48721,35.73596],[128.48715,35.73603],[128.48709,35.73608],[128.4859,35.737],[128.48583,35.73703],[128.48459,35.73755],[128.48452,35.73757],[128.48441,35.73757],[128.48422,35.73757],[128.48404,35.73757],[128.48393,35.73756],[128.48387,35.73757],[128.4827,35.73815],[128.48249,35.73826],[128.48231,35.73836],[128.48218,35.73846],[128.48188,35.73875],[128.48177,35.73886],[128.48168,35.73898],[128.4816,35.73913],[128.48154,35.73937],[128.48152,35.73951],[128.48153,35.73963],[128.48153,35.73972],[128.48161,35.74029],[128.48165,35.74055],[128.48174,35.741],[128.48187,35.74158],[128.48194,35.74186],[128.48198,35.74198],[128.48204,35.74215],[128.4821,35.74226],[128.48178,35.74479],[128.48133,35.74761],[128.48076,35.74963],[128.48073,35.74968],[128.48068,35.74971],[128.48059,35.74977],[128.4802,35.74998],[128.48007,35.75004],[128.47985,35.75012],[128.47979,35.75014],[128.47969,35.75016],[128.47947,35.75017],[128.47936,35.75015],[128.47927,35.75013],[128.47918,35.75009],[128.47909,35.75004],[128.479,35.74995],[128.47877,35.74973],[128.4787,35.74967],[128.47865,35.74963],[128.47847,35.74957],[128.47821,35.7495],[128.47794,35.74945],[128.47729,35.74935],[128.4772,35.74935],[128.47717,35.74934],[128.477,35.74936],[128.47685,35.74937],[128.47671,35.74938],[128.47647,35.74942],[128.47631,35.74946],[128.47595,35.74954],[128.47578,35.74958],[128.47565,35.74962],[128.47319,35.75063],[128.47317,35.75066],[128.47287,35.7514],[128.47285,35.75145],[128.47285,35.75155],[128.47287,35.75165],[128.47293,35.75194],[128.47257,35.75311],[128.47204,35.75444],[128.47065,35.75643],[128.47042,35.75643],[128.47026,35.75644],[128.4701,35.7565],[128.46924,35.75689],[128.46575,35.75869],[128.46554,35.75881],[128.46471,35.75943],[128.46453,35.75962],[128.46388,35.76093],[128.46342,35.76191],[128.46317,35.7624],[128.46297,35.76252],[128.45771,35.76558],[128.45425,35.76759],[128.45404,35.76769],[128.45398,35.76772],[128.44898,35.76951],[128.4489,35.76952],[128.44883,35.76954],[128.44866,35.76953],[128.44776,35.76947],[128.44611,35.76929],[128.44605,35.76929],[128.4455,35.7692],[128.44327,35.76879],[128.44192,35.76851],[128.4418,35.7685],[128.44171,35.76852],[128.44159,35.76854],[128.44153,35.76858],[128.43823,35.7719],[128.43788,35.77265],[128.43152,35.77885],[128.43062,35.78039],[128.43059,35.78044],[128.4305,35.78058],[128.43047,35.78063],[128.43039,35.78069],[128.43029,35.78072],[128.43001,35.78075],[128.42916,35.78069],[128.42807,35.78096],[128.42797,35.78099],[128.42734,35.78149],[128.42706,35.78177],[128.42697,35.78194],[128.42695,35.78205],[128.42692,35.78235],[128.4266,35.78304],[128.42565,35.78499],[128.4255,35.78526],[128.42536,35.78545],[128.42484,35.78594],[128.42463,35.78613],[128.42412,35.78652],[128.4233,35.78704],[128.42311,35.78717],[128.42306,35.78719],[128.42269,35.78744],[128.42224,35.7878],[128.422,35.78801],[128.42186,35.78813],[128.42183,35.78816],[128.42148,35.78855],[128.42128,35.78882],[128.42104,35.78921],[128.4209,35.78952],[128.42085,35.78968],[128.4208,35.78995],[128.42078,35.79009],[128.42078,35.7907],[128.42079,35.79095],[128.42085,35.79126],[128.42091,35.79167],[128.42092,35.79206],[128.42084,35.79401],[128.42081,35.79424],[128.42073,35.79453],[128.42061,35.79477],[128.42042,35.79501],[128.42027,35.79518],[128.41983,35.79551],[128.41748,35.79712],[128.41719,35.79731],[128.41686,35.79752],[128.41662,35.79764],[128.41397,35.79894],[128.41318,35.79932],[128.41191,35.79988],[128.41094,35.80028],[128.41405,35.80313],[128.41774,35.8068],[128.41867,35.80778],[128.41956,35.80868],[128.42028,35.80936],[128.42072,35.80963],[128.42116,35.80979],[128.42198,35.80988],[128.4225,35.80989],[128.42572,35.80979],[128.42674,35.80976],[128.4277,35.8097],[128.42913,35.80962],[128.42927,35.80961],[128.43,35.80955],[128.43061,35.80948],[128.43126,35.8094],[128.43173,35.80934],[128.43344,35.80912],[128.43478,35.80897],[128.43848,35.80857],[128.43904,35.80852],[128.43987,35.80848],[128.44392,35.80846],[128.4443,35.80845],[128.44659,35.80844],[128.44779,35.80858],[128.4489,35.80875],[128.4504,35.80907],[128.45104,35.80921],[128.45117,35.80923],[128.45152,35.80929],[128.45198,35.80934],[128.4527,35.80936],[128.45921,35.80898],[128.46371,35.80869],[128.46579,35.80847],[128.46612,35.80844],[128.46675,35.8084],[128.4676,35.80834],[128.46826,35.80833],[128.46913,35.80844],[128.47016,35.80865],[128.47105,35.80893],[128.47226,35.80953],[128.47294,35.80865],[128.47454,35.8037],[128.47477,35.80279],[128.47482,35.8026],[128.47543,35.79974],[128.47597,35.79725],[128.4763,35.79574],[128.47704,35.79232],[128.4789,35.78749],[128.47906,35.78727],[128.47931,35.78711],[128.47952,35.78702],[128.47963,35.787],[128.47973,35.787],[128.47979,35.787],[128.47984,35.78701],[128.48282,35.78593],[128.48289,35.7855],[128.48392,35.78268],[128.48419,35.78222],[128.48449,35.78177],[128.48495,35.78116],[128.48651,35.78011],[128.49095,35.77753],[128.49127,35.77736],[128.49147,35.77726],[128.49156,35.77721],[128.49504,35.7757],[128.49551,35.77553],[128.49591,35.77545],[128.50029,35.7738],[128.50135,35.77252],[128.5014,35.77246],[128.50273,35.77119],[128.50297,35.77098],[128.50377,35.77029],[128.50387,35.77022],[128.50583,35.76894],[128.50596,35.76886],[128.50617,35.76876],[128.50624,35.76874],[128.5063,35.76873],[128.50642,35.76871],[128.50654,35.7687],[128.50765,35.76869],[128.50789,35.76869],[128.50807,35.76871],[128.50834,35.76875],[128.50856,35.76878],[128.5087,35.76879],[128.50892,35.76878],[128.50909,35.76876],[128.50925,35.76871],[128.51764,35.76577],[128.52461,35.76365],[128.52471,35.76362],[128.52478,35.76358],[128.52483,35.76353],[128.52487,35.76348],[128.52496,35.76333],[128.52505,35.76314],[128.5252,35.76277],[128.52525,35.76262],[128.52528,35.76253],[128.52531,35.7624],[128.52535,35.76227],[128.52537,35.7622],[128.52537,35.76214],[128.52539,35.76201],[128.52539,35.76196],[128.52538,35.76137],[128.52535,35.76125],[128.52533,35.76116],[128.52531,35.7611],[128.52528,35.76105],[128.52515,35.76088],[128.5251,35.76081],[128.52506,35.76075],[128.52502,35.76064],[128.52499,35.76054],[128.52497,35.76038],[128.52496,35.76027],[128.525,35.76017],[128.52504,35.76008],[128.5251,35.75997],[128.52601,35.75852],[128.52604,35.75848],[128.52608,35.75844],[128.52614,35.7584],[128.5275,35.75788],[128.52848,35.75767],[128.52924,35.7573],[128.53034,35.75652],[128.53038,35.75649],[128.53042,35.75643],[128.53134,35.75515],[128.53137,35.7551],[128.53139,35.755],[128.53141,35.75493],[128.53142,35.75487],[128.53144,35.75454],[128.53206,35.75422],[128.53385,35.75342],[128.53391,35.7534],[128.53498,35.75323],[128.53506,35.75325],[128.53524,35.75335]]]]}},{"type":"Feature","properties":{"code":"27710265","name":"현풍읍","parent":"27710"},"geometry":{"type":"MultiPolygon","coordinates":[[[[128.4571,35.7156],[128.45764,35.71481],[128.45809,35.71409],[128.45823,35.71379],[128.45823,35.71367],[128.45811,35.71284],[128.45805,35.7126],[128.45792,35.71234],[128.45774,35.71204],[128.45762,35.71183],[128.45758,35.71168],[128.45761,35.71152],[128.45923,35.7056],[128.46021,35.705],[128.46092,35.70441],[128.46124,35.70369],[128.46125,35.70301],[128.46098,35.70236],[128.46045,35.70186],[128.4596,35.70163],[128.45874,35.70164],[128.4578,35.70032],[128.4578,35.69456],[128.4578,35.69412],[128.45781,35.69186],[128.45782,35.68931],[128.45757,35.6892],[128.45323,35.68731],[128.44756,35.68435],[128.44661,35.68165],[128.44645,35.67927],[128.44701,35.67775],[128.44778,35.67603],[128.44821,35.6754],[128.4484,35.67512],[128.45021,35.67555],[128.45092,35.67344],[128.44866,35.67313],[128.44802,35.67278],[128.44702,35.6718],[128.44582,35.66991],[128.44563,35.66911],[128.44562,35.6689],[128.44566,35.66862],[128.44569,35.66848],[128.44608,35.66734],[128.44611,35.66725],[128.44616,35.6671],[128.44646,35.66627],[128.44667,35.66559],[128.44674,35.66531],[128.44676,35.66499],[128.44673,35.66471],[128.44664,35.66436],[128.44656,35.66417],[128.44647,35.66395],[128.44642,35.66384],[128.44636,35.66374],[128.44627,35.66357],[128.44602,35.66324],[128.44597,35.66318],[128.44584,35.66302],[128.4458,35.66298],[128.44578,35.66295],[128.44568,35.66285],[128.44542,35.6626],[128.44531,35.66249],[128.44523,35.66242],[128.44504,35.66223],[128.44488,35.66208],[128.44468,35.66188],[128.44462,35.66181],[128.44437,35.66155],[128.44423,35.66139],[128.44403,35.66115],[128.44389,35.66097],[128.44385,35.6609],[128.44379,35.66081],[128.44374,35.6607],[128.44373,35.66067],[128.44368,35.66052],[128.44363,35.6603],[128.44364,35.65883],[128.44365,35.65848],[128.44365,35.6569],[128.44364,35.65639],[128.44364,35.65631],[128.44358,35.65627],[128.44351,35.65626],[128.44263,35.65613],[128.44039,35.65585],[128.44032,35.65585],[128.43867,35.65614],[128.43599,35.65711],[128.43474,35.65785],[128.4346,35.65798],[128.43405,35.65833],[128.43393,35.6584],[128.43306,35.6589],[128.43291,35.65897],[128.43208,35.65935],[128.43196,35.65939],[128.42771,35.66081],[128.42754,35.66084],[128.42742,35.66084],[128.42722,35.66082],[128.42695,35.66078],[128.42659,35.66067],[128.42629,35.66057],[128.42286,35.66053],[128.42038,35.66262],[128.42034,35.66267],[128.41975,35.66346],[128.41965,35.66362],[128.41952,35.66388],[128.41692,35.6705],[128.41619,35.6726],[128.41619,35.67276],[128.41624,35.67294],[128.41625,35.67306],[128.41626,35.67321],[128.41612,35.67388],[128.41608,35.67396],[128.41599,35.67404],[128.41449,35.67519],[128.41429,35.67531],[128.41411,35.67539],[128.41391,35.67545],[128.41192,35.67604],[128.40412,35.67832],[128.40396,35.67836],[128.40385,35.67835],[128.40371,35.6783],[128.40343,35.67817],[128.40324,35.67812],[128.403,35.67808],[128.40279,35.67809],[128.40266,35.6781],[128.40125,35.67837],[128.40097,35.67843],[128.40028,35.67862],[128.39913,35.67901],[128.39744,35.67963],[128.39734,35.67969],[128.39723,35.67977],[128.39595,35.68075],[128.3929,35.6799],[128.38806,35.67922],[128.38663,35.6813],[128.38448,35.68445],[128.38316,35.6872],[128.38314,35.68723],[128.38309,35.68727],[128.38191,35.68819],[128.38182,35.68824],[128.3817,35.68831],[128.38158,35.68837],[128.38021,35.68887],[128.37888,35.6892],[128.37866,35.68923],[128.37851,35.68929],[128.3783,35.68941],[128.37555,35.69123],[128.37552,35.69127],[128.37551,35.69131],[128.37576,35.69477],[128.37624,35.69726],[128.37646,35.69829],[128.37666,35.69894],[128.37688,35.69996],[128.37493,35.70108],[128.37476,35.7013],[128.37474,35.70158],[128.37478,35.70173],[128.37517,35.70249],[128.37589,35.70228],[128.37698,35.70198],[128.37809,35.7017],[128.3806,35.70114],[128.38203,35.70089],[128.38277,35.70087],[128.3841,35.70095],[128.38463,35.701],[128.38494,35.70103],[128.38584,35.70106],[128.38673,35.70109],[128.3878,35.70107],[128.38889,35.70098],[128.38918,35.70094],[128.38967,35.7008],[128.3904,35.70046],[128.39082,35.70023],[128.39187,35.69956],[128.39212,35.69939],[128.39282,35.69899],[128.39317,35.69878],[128.39395,35.69839],[128.39446,35.69814],[128.39492,35.69792],[128.39631,35.69745],[128.39706,35.69723],[128.39779,35.69704],[128.39846,35.69688],[128.40993,35.69417],[128.4107,35.694],[128.41357,35.69342],[128.41424,35.69328],[128.41491,35.69317],[128.41523,35.69312],[128.41551,35.69309],[128.41595,35.69306],[128.41663,35.69305],[128.41723,35.69307],[128.41784,35.69312],[128.41834,35.69318],[128.41874,35.69326],[128.41922,35.69338],[128.41989,35.69362],[128.42053,35.69388],[128.4219,35.69469],[128.42241,35.695],[128.42279,35.69528],[128.42307,35.6955],[128.42466,35.69674],[128.42743,35.69878],[128.42854,35.69959],[128.43004,35.70066],[128.43149,35.70169],[128.43152,35.70172],[128.43166,35.70181],[128.43282,35.70271],[128.43317,35.70302],[128.43438,35.7048],[128.43458,35.70559],[128.43482,35.70666],[128.43493,35.70798],[128.43495,35.70819],[128.43497,35.70947],[128.43491,35.7107],[128.43484,35.71214],[128.43444,35.71626],[128.43432,35.71721],[128.4341,35.71881],[128.43658,35.71874],[128.43673,35.71874],[128.4383,35.71873],[128.43902,35.71878],[128.44013,35.71888],[128.44353,35.7188],[128.44591,35.71911],[128.446,35.71908],[128.44818,35.71761],[128.44831,35.71752],[128.4485,35.71737],[128.44858,35.7173],[128.44868,35.71715],[128.4487,35.71711],[128.44876,35.71698],[128.44888,35.71673],[128.44924,35.71607],[128.44928,35.71602],[128.44949,35.71572],[128.44958,35.71561],[128.4497,35.71546],[128.44999,35.71515],[128.45034,35.71483],[128.45067,35.71454],[128.45108,35.71423],[128.4515,35.71392],[128.45279,35.71303],[128.45318,35.71278],[128.4571,35.7156]]]]}},{"type":"Feature","properties":{"code":"27710259","name":"유가읍","parent":"27710"},"geometry":{"type":"MultiPolygon","coordinates":[[[[128.52314,35.71888],[128.52337,35.71863],[128.52347,35.71849],[128.52353,35.71839],[128.52406,35.71726],[128.52412,35.71712],[128.52416,35.71701],[128.52421,35.71678],[128.52422,35.71667],[128.52402,35.7164],[128.52487,35.71525],[128.52607,35.71434],[128.52714,35.71361],[128.52885,35.71189],[128.5295,35.71123],[128.52974,35.71097],[128.53241,35.70549],[128.53248,35.70241],[128.53223,35.70168],[128.53217,35.70149],[128.53152,35.69683],[128.53152,35.6968],[128.53152,35.69673],[128.53157,35.69662],[128.53177,35.69641],[128.53348,35.69499],[128.53361,35.69492],[128.53379,35.6949],[128.53406,35.69482],[128.53426,35.69472],[128.5345,35.69458],[128.53507,35.69411],[128.53514,35.69402],[128.53351,35.69139],[128.53152,35.68815],[128.53141,35.68795],[128.53138,35.68778],[128.53137,35.6865],[128.53146,35.68526],[128.53163,35.68412],[128.53184,35.68337],[128.53349,35.68208],[128.52641,35.68238],[128.52582,35.68229],[128.52513,35.68218],[128.52301,35.68159],[128.52284,35.68153],[128.5191,35.67963],[128.51889,35.67949],[128.51866,35.67929],[128.51838,35.679],[128.51807,35.67857],[128.51754,35.67772],[128.5174,35.67729],[128.51732,35.677],[128.51718,35.67666],[128.51711,35.67652],[128.51705,35.67646],[128.5159,35.67579],[128.51582,35.67574],[128.51199,35.67498],[128.51093,35.67487],[128.51055,35.67487],[128.51021,35.67486],[128.50984,35.67479],[128.50946,35.67468],[128.50913,35.67458],[128.50902,35.67452],[128.50809,35.67389],[128.50788,35.67372],[128.50762,35.67347],[128.50753,35.67331],[128.50749,35.67307],[128.50735,35.67207],[128.50738,35.67201],[128.50757,35.67187],[128.50789,35.67165],[128.50812,35.67141],[128.50853,35.67086],[128.50868,35.67058],[128.50884,35.67024],[128.50897,35.66996],[128.50916,35.66943],[128.50924,35.6692],[128.50926,35.66895],[128.509,35.66714],[128.50881,35.66636],[128.5084,35.6645],[128.5082,35.66356],[128.50817,35.66329],[128.50796,35.66],[128.50717,35.6554],[128.50684,35.65222],[128.50682,35.65031],[128.50681,35.65015],[128.50828,35.64925],[128.50914,35.64828],[128.51061,35.64657],[128.51068,35.64635],[128.51071,35.64569],[128.51068,35.64535],[128.50989,35.64301],[128.50982,35.64293],[128.50892,35.64195],[128.50731,35.64047],[128.50621,35.63959],[128.50567,35.63927],[128.50529,35.63908],[128.50509,35.639],[128.50479,35.63896],[128.50286,35.63869],[128.50221,35.63871],[128.50064,35.63892],[128.4978,35.63899],[128.49593,35.63836],[128.49526,35.63801],[128.49488,35.63784],[128.48624,35.63558],[128.48482,35.63545],[128.48286,35.63574],[128.48215,35.63726],[128.48062,35.63954],[128.47981,35.64011],[128.47892,35.64035],[128.47765,35.64043],[128.47701,35.64022],[128.47487,35.63935],[128.47379,35.63884],[128.47272,35.63827],[128.47246,35.6381],[128.47234,35.63802],[128.46981,35.63634],[128.46935,35.63635],[128.46694,35.63638],[128.4652,35.63713],[128.46466,35.63743],[128.46344,35.63813],[128.46159,35.63997],[128.46137,35.64027],[128.46113,35.64061],[128.46124,35.64072],[128.45996,35.64298],[128.45908,35.64439],[128.45883,35.64478],[128.45855,35.64508],[128.45832,35.64528],[128.45799,35.64553],[128.45748,35.64582],[128.45669,35.64622],[128.45598,35.64652],[128.45578,35.64662],[128.4556,35.6468],[128.45546,35.64694],[128.45524,35.64719],[128.45278,35.65039],[128.45226,35.65134],[128.45205,35.65183],[128.4519,35.65226],[128.45189,35.65264],[128.45194,35.65313],[128.45209,35.65426],[128.45235,35.65607],[128.45252,35.65746],[128.45267,35.65881],[128.45262,35.6589],[128.44998,35.66354],[128.44874,35.66558],[128.44868,35.66631],[128.44859,35.66837],[128.44878,35.66991],[128.44887,35.67059],[128.44899,35.67085],[128.44905,35.67133],[128.44899,35.67173],[128.44895,35.67194],[128.44887,35.67229],[128.44866,35.67313],[128.45092,35.67344],[128.45021,35.67555],[128.4484,35.67512],[128.44821,35.6754],[128.44778,35.67603],[128.44701,35.67775],[128.44645,35.67927],[128.44661,35.68165],[128.44756,35.68435],[128.45323,35.68731],[128.45757,35.6892],[128.45782,35.68931],[128.45781,35.69186],[128.4578,35.69412],[128.4578,35.69456],[128.4578,35.70032],[128.45874,35.70164],[128.4596,35.70163],[128.46045,35.70186],[128.46098,35.70236],[128.46125,35.70301],[128.46124,35.70369],[128.46092,35.70441],[128.46021,35.705],[128.45923,35.7056],[128.45761,35.71152],[128.45758,35.71168],[128.45762,35.71183],[128.45774,35.71204],[128.45792,35.71234],[128.45805,35.7126],[128.45811,35.71284],[128.45823,35.71367],[128.45823,35.71379],[128.45809,35.71409],[128.45764,35.71481],[128.4571,35.7156],[128.45754,35.71593],[128.45765,35.71601],[128.45802,35.71622],[128.46052,35.71731],[128.46082,35.71742],[128.46096,35.71746],[128.46103,35.71746],[128.46115,35.71742],[128.46126,35.71738],[128.46219,35.71759],[128.46384,35.71853],[128.46536,35.71944],[128.46695,35.72089],[128.46813,35.72195],[128.46819,35.722],[128.46826,35.72206],[128.46839,35.72212],[128.46848,35.72216],[128.47385,35.72364],[128.47725,35.72425],[128.48228,35.72605],[128.48239,35.72609],[128.4838,35.72666],[128.48679,35.72609],[128.48765,35.72568],[128.49077,35.72461],[128.49101,35.72454],[128.49149,35.72442],[128.49162,35.72442],[128.4917,35.72444],[128.49311,35.72511],[128.495,35.72547],[128.49983,35.72589],[128.49991,35.7259],[128.49999,35.72591],[128.50287,35.72634],[128.50295,35.72638],[128.50322,35.72668],[128.5033,35.72682],[128.50335,35.72697],[128.50338,35.72707],[128.5034,35.72732],[128.50337,35.72752],[128.50339,35.72772],[128.50348,35.72786],[128.50377,35.72808],[128.50405,35.72812],[128.50443,35.72814],[128.50482,35.72807],[128.50518,35.72796],[128.50533,35.72789],[128.50546,35.72775],[128.50627,35.72801],[128.50653,35.72807],[128.50687,35.72809],[128.50709,35.72806],[128.50718,35.72804],[128.50738,35.72798],[128.50751,35.72793],[128.51171,35.72581],[128.5142,35.72468],[128.5182,35.72292],[128.51838,35.72287],[128.52152,35.72064],[128.52208,35.72008],[128.52314,35.71888]]]]}},{"type":"Feature","properties":{"code":"27710380","name":"구지면","parent":"27710"},"geometry":{"type":"MultiPolygon","coordinates":[[[[128.37517,35.70249],[128.37478,35.70173],[128.37474,35.70158],[128.37476,35.7013],[128.37493,35.70108],[128.37688,35.69996],[128.37666,35.69894],[128.37646,35.69829],[128.37624,35.69726],[128.37576,35.69477],[128.37551,35.69131],[128.37552,35.69127],[128.37555,35.69123],[128.3783,35.68941],[128.37851,35.68929],[128.37866,35.68923],[128.37888,35.6892],[128.38021,35.68887],[128.38158,35.68837],[128.3817,35.68831],[128.38182,35.68824],[128.38191,35.68819],[128.38309,35.68727],[128.38314,35.68723],[128.38316,35.6872],[128.38448,35.68445],[128.38663,35.6813],[128.38806,35.67922],[128.3929,35.6799],[128.39595,35.68075],[128.39723,35.67977],[128.39734,35.67969],[128.39744,35.67963],[128.39913,35.67901],[128.40028,35.67862],[128.40097,35.67843],[128.40125,35.67837],[128.40266,35.6781],[128.40279,35.67809],[128.403,35.67808],[128.40324,35.67812],[128.40343,35.67817],[128.40371,35.6783],[128.40385,35.67835],[128.40396,35.67836],[128.40412,35.67832],[128.41192,35.67604],[128.41391,35.67545],[128.41411,35.67539],[128.41429,35.67531],[128.41449,35.67519],[128.41599,35.67404],[128.41608,35.67396],[128.41612,35.67388],[128.41626,35.67321],[128.41625,35.67306],[128.41624,35.67294],[128.41619,35.67276],[128.41619,35.6726],[128.41692,35.6705],[128.41952,35.66388],[128.41965,35.66362],[128.41975,35.66346],[128.42034,35.66267],[128.42038,35.66262],[128.42286,35.66053],[128.42629,35.66057],[128.42659,35.66067],[128.42695,35.66078],[128.42722,35.66082],[128.42742,35.66084],[128.42754,35.66084],[128.42771,35.66081],[128.43196,35.65939],[128.43208,35.65935],[128.43291,35.65897],[128.43306,35.6589],[128.43393,35.6584],[128.43405,35.65833],[128.4346,35.65798],[128.43474,35.65785],[128.43599,35.65711],[128.43867,35.65614],[128.44032,35.65585],[128.44039,35.65585],[128.44263,35.65613],[128.44351,35.65626],[128.44358,35.65627],[128.44364,35.65631],[128.44364,35.65639],[128.44365,35.6569],[128.44365,35.65848],[128.44364,35.65883],[128.44363,35.6603],[128.44368,35.66052],[128.44373,35.66067],[128.44374,35.6607],[128.44379,35.66081],[128.44385,35.6609],[128.44389,35.66097],[128.44403,35.66115],[128.44423,35.66139],[128.44437,35.66155],[128.44462,35.66181],[128.44468,35.66188],[128.44488,35.66208],[128.44504,35.66223],[128.44523,35.66242],[128.44531,35.66249],[128.44542,35.6626],[128.44568,35.66285],[128.44578,35.66295],[128.4458,35.66298],[128.44584,35.66302],[128.44597,35.66318],[128.44602,35.66324],[128.44627,35.66357],[128.44636,35.66374],[128.44642,35.66384],[128.44647,35.66395],[128.44656,35.66417],[128.44664,35.66436],[128.44673,35.66471],[128.44676,35.66499],[128.44674,35.66531],[128.44667,35.66559],[128.44646,35.66627],[128.44616,35.6671],[128.44611,35.66725],[128.44608,35.66734],[128.44569,35.66848],[128.44566,35.66862],[128.44562,35.6689],[128.44563,35.66911],[128.44582,35.66991],[128.44702,35.6718],[128.44802,35.67278],[128.44866,35.67313],[128.44887,35.67229],[128.44895,35.67194],[128.44899,35.67173],[128.44905,35.67133],[128.44899,35.67085],[128.44887,35.67059],[128.44878,35.66991],[128.44859,35.66837],[128.44868,35.66631],[128.44874,35.66558],[128.44998,35.66354],[128.45262,35.6589],[128.45267,35.65881],[128.45252,35.65746],[128.45235,35.65607],[128.45209,35.65426],[128.45194,35.65313],[128.45189,35.65264],[128.4519,35.65226],[128.45205,35.65183],[128.45226,35.65134],[128.45278,35.65039],[128.45524,35.64719],[128.45546,35.64694],[128.4556,35.6468],[128.45578,35.64662],[128.45598,35.64652],[128.45669,35.64622],[128.45748,35.64582],[128.45799,35.64553],[128.45832,35.64528],[128.45855,35.64508],[128.45883,35.64478],[128.45908,35.64439],[128.45996,35.64298],[128.46124,35.64072],[128.46113,35.64061],[128.4602,35.64053],[128.45989,35.6405],[128.45965,35.64047],[128.4595,35.64046],[128.45874,35.64025],[128.45731,35.63963],[128.45542,35.63748],[128.45529,35.63743],[128.45472,35.63722],[128.45454,35.63722],[128.45428,35.63723],[128.45018,35.63803],[128.44779,35.63805],[128.44721,35.63828],[128.44681,35.63836],[128.44669,35.63839],[128.44659,35.63839],[128.4465,35.63837],[128.44644,35.63835],[128.44636,35.6383],[128.4462,35.63819],[128.43865,35.63191],[128.43794,35.6313],[128.43318,35.6254],[128.43191,35.62358],[128.42857,35.62292],[128.42682,35.62353],[128.42671,35.62355],[128.4266,35.62354],[128.42429,35.62244],[128.42418,35.62239],[128.42408,35.62232],[128.42386,35.62194],[128.42368,35.62152],[128.42364,35.62129],[128.42365,35.62079],[128.4236,35.62061],[128.42352,35.62046],[128.42337,35.62033],[128.4232,35.62025],[128.42311,35.62023],[128.42294,35.62019],[128.42261,35.62013],[128.4217,35.62005],[128.42151,35.62004],[128.42119,35.62007],[128.41958,35.62037],[128.41898,35.62057],[128.41879,35.6207],[128.41868,35.62084],[128.41867,35.62087],[128.41861,35.62105],[128.41841,35.62139],[128.41822,35.62152],[128.41799,35.62163],[128.41763,35.62175],[128.41748,35.62176],[128.41714,35.62179],[128.41708,35.62178],[128.41685,35.62176],[128.41646,35.62171],[128.41637,35.62169],[128.4163,35.62167],[128.41582,35.62121],[128.41503,35.6202],[128.41502,35.62015],[128.41502,35.6201],[128.41507,35.62006],[128.41514,35.62002],[128.4153,35.61994],[128.41537,35.61986],[128.41542,35.61971],[128.41544,35.61949],[128.41544,35.61942],[128.41544,35.61932],[128.41539,35.61916],[128.41526,35.61889],[128.41439,35.61793],[128.41325,35.61681],[128.41311,35.61668],[128.41303,35.61661],[128.411,35.61534],[128.40928,35.61506],[128.40653,35.61468],[128.40596,35.6148],[128.40541,35.61517],[128.40493,35.61573],[128.40278,35.61581],[128.39939,35.61592],[128.39934,35.61591],[128.39606,35.61446],[128.39565,35.61426],[128.39435,35.61395],[128.39216,35.61245],[128.38781,35.61015],[128.38773,35.61013],[128.38716,35.61011],[128.3863,35.61009],[128.38472,35.60998],[128.38423,35.60979],[128.384,35.60962],[128.38388,35.60951],[128.38378,35.60939],[128.38371,35.60918],[128.38365,35.60887],[128.3835,35.60824],[128.3834,35.60803],[128.38323,35.60783],[128.38274,35.60732],[128.38251,35.60708],[128.38247,35.60704],[128.38228,35.60694],[128.382,35.60682],[128.3818,35.60678],[128.38167,35.60677],[128.37828,35.60677],[128.37784,35.6068],[128.37748,35.60687],[128.37727,35.60692],[128.3729,35.60843],[128.37279,35.60848],[128.37277,35.6085],[128.37195,35.60932],[128.3717,35.60961],[128.37149,35.60994],[128.37077,35.61116],[128.37279,35.61099],[128.37446,35.61076],[128.37573,35.61057],[128.37643,35.61055],[128.37758,35.61057],[128.37928,35.61073],[128.38102,35.61099],[128.38271,35.61135],[128.38483,35.61188],[128.38542,35.61208],[128.3861,35.61241],[128.38678,35.61289],[128.38733,35.61336],[128.38796,35.61399],[128.38856,35.61478],[128.38881,35.61513],[128.38903,35.61553],[128.38927,35.61611],[128.38968,35.61732],[128.39011,35.61871],[128.39069,35.6201],[128.39134,35.62134],[128.39168,35.62186],[128.39219,35.62265],[128.3928,35.62349],[128.39569,35.62721],[128.39625,35.6279],[128.39635,35.62803],[128.39904,35.6301],[128.39969,35.63045],[128.4008,35.63104],[128.40168,35.63207],[128.40195,35.63285],[128.4023,35.63388],[128.40245,35.63431],[128.40259,35.63557],[128.40279,35.63734],[128.40291,35.64016],[128.40294,35.64142],[128.40294,35.64192],[128.40242,35.64343],[128.40081,35.64493],[128.39631,35.64811],[128.39164,35.64962],[128.3909,35.65003],[128.38476,35.65346],[128.38161,35.65529],[128.38062,35.65603],[128.37817,35.65803],[128.378,35.65817],[128.37702,35.65897],[128.37568,35.66009],[128.37459,35.66105],[128.37433,35.66129],[128.36824,35.66682],[128.36619,35.66852],[128.36512,35.66946],[128.36392,35.67062],[128.36348,35.67104],[128.36176,35.67294],[128.36134,35.67341],[128.36073,35.67412],[128.35954,35.67574],[128.35895,35.67661],[128.35877,35.67691],[128.35726,35.67888],[128.35554,35.6809],[128.3546,35.68235],[128.35428,35.68308],[128.35407,35.68378],[128.35374,35.68511],[128.35372,35.68521],[128.35343,35.6864],[128.35308,35.68764],[128.3518,35.69126],[128.35069,35.69416],[128.35044,35.69525],[128.35037,35.69558],[128.3504,35.69669],[128.35104,35.70288],[128.35105,35.70293],[128.35108,35.703],[128.35114,35.70312],[128.35126,35.70333],[128.35134,35.70344],[128.35153,35.70374],[128.35164,35.70388],[128.35259,35.70491],[128.35302,35.70521],[128.3533,35.70541],[128.35361,35.70562],[128.35472,35.70622],[128.35629,35.70707],[128.35707,35.70733],[128.35795,35.70748],[128.35833,35.70755],[128.3588,35.70758],[128.35965,35.7075],[128.36066,35.70728],[128.36234,35.70676],[128.36859,35.70453],[128.37517,35.70249]]]]}}]}