{"type":"FeatureCollection","features":[{"type":"Feature","properties":{"code":"27290550","name":"두류3동","parent":"27290"},"geometry":{"type":"MultiPolygon","coordinates":[[[[128.56337,35.85179],[128.56262,35.84958],[128.55625,35.84685],[128.55414,35.8461],[128.55398,35.84609],[128.55382,35.84608],[128.55362,35.84609],[128.55293,35.84613],[128.55275,35.84615],[128.55167,35.84634],[128.54782,35.84931],[128.54765,35.84946],[128.54753,35.8496],[128.54745,35.84981],[128.54741,35.85003],[128.54736,35.85036],[128.54913,35.85485],[128.54933,35.85493],[128.55263,35.85614],[128.5535,35.85646],[128.55355,35.85639],[128.55723,35.85774],[128.55725,35.85784],[128.55847,35.85825],[128.55841,35.85647],[128.55982,35.8548],[128.56153,35.85292],[128.56185,35.8526],[128.56217,35.85231],[128.56249,35.85213],[128.5629,35.85195],[128.56337,35.85179]]]]}},{"type":"Feature","properties":{"code":"27290590","name":"본리동","parent":"27290"},"geometry":{"type":"MultiPolygon","coordinates":[[[[128.54876,35.83718],[128.54141,35.83733],[128.54126,35.83734],[128.53848,35.83739],[128.53694,35.83742],[128.53225,35.83728],[128.52877,35.83717],[128.52861,35.83716],[128.52761,35.8371],[128.5278,35.83773],[128.52787,35.83824],[128.52789,35.83844],[128.52795,35.83895],[128.52792,35.83941],[128.52782,35.84003],[128.52774,35.84051],[128.52772,35.8406],[128.52762,35.84107],[128.52753,35.84146],[128.53085,35.84198],[128.53308,35.84195],[128.53536,35.84192],[128.53603,35.84191],[128.53604,35.84205],[128.53605,35.84252],[128.53606,35.843],[128.53607,35.84353],[128.54483,35.84347],[128.54482,35.84186],[128.54482,35.84115],[128.54679,35.84113],[128.54781,35.84112],[128.54787,35.84112],[128.54883,35.8411],[128.54878,35.83838],[128.54878,35.83802],[128.54876,35.83733],[128.54876,35.83718]]]]}},{"type":"Feature","properties":{"code":"27290555","name":"감삼동","parent":"27290"},"geometry":{"type":"MultiPolygon","coordinates":[[[[128.54736,35.85036],[128.54726,35.8502],[128.54709,35.84995],[128.54685,35.8496],[128.54591,35.84819],[128.54578,35.84799],[128.54543,35.84747],[128.54456,35.84616],[128.54449,35.84599],[128.54449,35.84595],[128.54447,35.84585],[128.5445,35.84557],[128.54483,35.84347],[128.53607,35.84353],[128.53462,35.84358],[128.53339,35.84409],[128.53296,35.84435],[128.53263,35.84454],[128.53069,35.84676],[128.53069,35.8471],[128.53068,35.84823],[128.53068,35.8483],[128.53067,35.84909],[128.5334,35.84987],[128.53725,35.85024],[128.53946,35.851],[128.54577,35.85354],[128.54807,35.85457],[128.54913,35.85485],[128.54736,35.85036]]]]}},{"type":"Feature","properties":{"code":"27290563","name":"죽전동","parent":"27290"},"geometry":{"type":"MultiPolygon","coordinates":[[[[128.54508,35.85607],[128.54807,35.85457],[128.54577,35.85354],[128.53946,35.851],[128.53725,35.85024],[128.5334,35.84987],[128.53399,35.85318],[128.53402,35.85441],[128.53405,35.85559],[128.53405,35.85563],[128.53407,35.8568],[128.53407,35.85683],[128.5339,35.85684],[128.53365,35.85684],[128.53327,35.85685],[128.53327,35.85688],[128.53328,35.85789],[128.53329,35.85807],[128.5333,35.85875],[128.5333,35.8591],[128.53989,35.85907],[128.54023,35.8563],[128.54361,35.8558],[128.54508,35.85607]]]]}},{"type":"Feature","properties":{"code":"27290568","name":"장기동","parent":"27290"},"geometry":{"type":"MultiPolygon","coordinates":[[[[128.52183,35.84977],[128.52428,35.84892],[128.52514,35.84871],[128.52728,35.84851],[128.52758,35.84855],[128.52787,35.84859],[128.53067,35.84909],[128.53068,35.8483],[128.53068,35.84823],[128.53069,35.8471],[128.53069,35.84676],[128.53263,35.84454],[128.53296,35.84435],[128.53339,35.84409],[128.53462,35.84358],[128.53607,35.84353],[128.53606,35.843],[128.53605,35.84252],[128.53604,35.84205],[128.53603,35.84191],[128.53536,35.84192],[128.53308,35.84195],[128.53085,35.84198],[128.52753,35.84146],[128.52762,35.84107],[128.52772,35.8406],[128.52774,35.84051],[128.52782,35.84003],[128.52792,35.83941],[128.52795,35.83895],[128.52789,35.83844],[128.52787,35.83824],[128.5278,35.83773],[128.52761,35.8371],[128.52112,35.8367],[128.51258,35.83606],[128.50737,35.83557],[128.50731,35.84402],[128.5098,35.84342],[128.51133,35.8459],[128.51527,35.84961],[128.51636,35.85055],[128.51936,35.85053],[128.52183,35.84977]]]]}},{"type":"Feature","properties":{"code":"27290576","name":"이곡1동","parent":"27290"},"geometry":{"type":"MultiPolygon","coordinates":[[[[128.51561,35.86811],[128.5155,35.86688],[128.51638,35.86535],[128.5175,35.86318],[128.51687,35.8631],[128.51641,35.86305],[128.51442,35.86123],[128.51442,35.86119],[128.51438,35.85942],[128.51438,35.85899],[128.51547,35.85898],[128.51547,35.85892],[128.51544,35.85718],[128.51542,35.85519],[128.5154,35.85443],[128.5154,35.85422],[128.51543,35.85369],[128.51545,35.85342],[128.51547,35.85314],[128.51557,35.85241],[128.51575,35.85106],[128.51636,35.85055],[128.51527,35.84961],[128.51133,35.8459],[128.5098,35.84342],[128.50731,35.84402],[128.50729,35.84731],[128.50729,35.84801],[128.50728,35.8494],[128.50728,35.85058],[128.50728,35.85117],[128.50728,35.85236],[128.50731,35.85409],[128.50736,35.8568],[128.5074,35.85859],[128.5074,35.85862],[128.5074,35.85869],[128.50743,35.85987],[128.50744,35.86031],[128.50746,35.86114],[128.50762,35.86621],[128.50877,35.86715],[128.50893,35.86727],[128.51065,35.86843],[128.51203,35.86863],[128.51282,35.86846],[128.51561,35.86811]]]]}},{"type":"Feature","properties":{"code":"27290585","name":"신당동","parent":"27290"},"geometry":{"type":"MultiPolygon","coordinates":[[[[128.49889,35.86435],[128.49886,35.8625],[128.49886,35.8624],[128.49943,35.86185],[128.49998,35.85918],[128.49998,35.85915],[128.49987,35.85432],[128.49982,35.85203],[128.49982,35.84915],[128.49995,35.83857],[128.49996,35.83787],[128.5,35.83542],[128.5,35.83529],[128.49696,35.83517],[128.49223,35.83499],[128.48578,35.83497],[128.48235,35.83502],[128.48541,35.8327],[128.48481,35.83218],[128.48458,35.83201],[128.48374,35.83149],[128.48332,35.83126],[128.4818,35.83041],[128.47719,35.82751],[128.47064,35.833],[128.47068,35.83518],[128.47071,35.83786],[128.47069,35.84016],[128.47067,35.84117],[128.47071,35.8428],[128.47078,35.84381],[128.47108,35.84631],[128.47194,35.85352],[128.47304,35.85951],[128.47385,35.86142],[128.47401,35.8616],[128.4741,35.86165],[128.47464,35.86177],[128.47502,35.86184],[128.47519,35.86185],[128.47536,35.86186],[128.47569,35.86185],[128.47625,35.86185],[128.47665,35.86186],[128.47706,35.8619],[128.47722,35.86195],[128.47735,35.86202],[128.47815,35.86266],[128.47842,35.86304],[128.47851,35.86322],[128.47912,35.86456],[128.47955,35.86551],[128.47962,35.86566],[128.47981,35.86587],[128.48114,35.86711],[128.48196,35.86763],[128.48213,35.86772],[128.48229,35.86779],[128.48234,35.86781],[128.48587,35.86816],[128.4862,35.86817],[128.48654,35.86815],[128.48681,35.86812],[128.48708,35.86808],[128.48745,35.86797],[128.48779,35.86783],[128.48788,35.86777],[128.48885,35.86702],[128.4891,35.86687],[128.48939,35.86677],[128.49473,35.86502],[128.49742,35.8644],[128.49889,35.86435]]]]}},{"type":"Feature","properties":{"code":"27290602","name":"월성2동","parent":"27290"},"geometry":{"type":"MultiPolygon","coordinates":[[[[128.53578,35.83142],[128.53484,35.83053],[128.5332,35.82894],[128.53274,35.82849],[128.532,35.82775],[128.53185,35.8276],[128.53171,35.82746],[128.53143,35.82718],[128.53122,35.82702],[128.53092,35.82677],[128.53043,35.82645],[128.53012,35.82627],[128.52984,35.82618],[128.52947,35.82657],[128.52752,35.8286],[128.52617,35.83002],[128.52533,35.83085],[128.52426,35.83191],[128.52417,35.83199],[128.52376,35.83235],[128.52257,35.83119],[128.52105,35.82971],[128.52093,35.82959],[128.51952,35.82822],[128.51859,35.82731],[128.51803,35.82677],[128.51503,35.82385],[128.51346,35.82232],[128.51219,35.82109],[128.51199,35.8209],[128.50535,35.81454],[128.50261,35.81558],[128.50164,35.81595],[128.50008,35.81653],[128.499,35.81679],[128.49749,35.81703],[128.49723,35.81707],[128.49678,35.81712],[128.49602,35.81719],[128.49554,35.81719],[128.49496,35.81714],[128.49459,35.81705],[128.49418,35.81694],[128.49339,35.81667],[128.49324,35.8166],[128.49255,35.81622],[128.49236,35.81612],[128.48946,35.81705],[128.48853,35.81746],[128.48043,35.81775],[128.48057,35.8181],[128.4808,35.81902],[128.48101,35.82033],[128.48104,35.82082],[128.48095,35.8215],[128.48074,35.82224],[128.48041,35.82292],[128.4798,35.82405],[128.47918,35.82502],[128.47849,35.82599],[128.47809,35.82651],[128.47748,35.82722],[128.47719,35.82751],[128.4818,35.83041],[128.48332,35.83126],[128.48374,35.83149],[128.48458,35.83201],[128.48481,35.83218],[128.48541,35.8327],[128.48235,35.83502],[128.48578,35.83497],[128.49223,35.83499],[128.49696,35.83517],[128.5,35.83529],[128.50737,35.83557],[128.51258,35.83606],[128.52112,35.8367],[128.52761,35.8371],[128.52861,35.83716],[128.52841,35.83664],[128.52831,35.83598],[128.52973,35.83506],[128.53074,35.83469],[128.53074,35.83487],[128.53073,35.83539],[128.53149,35.83542],[128.53386,35.83551],[128.53387,35.83499],[128.53388,35.83445],[128.53389,35.83371],[128.5339,35.83311],[128.53393,35.83141],[128.53578,35.83142]]]]}},{"type":"Feature","properties":{"code":"27290624","name":"상인1동","parent":"27290"},"geometry":{"type":"MultiPolygon","coordinates":[[[[128.54508,35.82331],[128.54551,35.82345],[128.54559,35.82346],[128.54585,35.82347],[128.54724,35.82263],[128.55139,35.82013],[128.55133,35.82007],[128.55081,35.81964],[128.55052,35.81938],[128.54987,35.81881],[128.54938,35.81838],[128.54923,35.81818],[128.54918,35.81796],[128.54917,35.81791],[128.54914,35.81753],[128.5492,35.81712],[128.5493,35.81681],[128.54946,35.8164],[128.54956,35.81612],[128.54959,35.81605],[128.5497,35.81572],[128.54976,35.81556],[128.54645,35.81336],[128.54633,35.81329],[128.54583,35.81299],[128.54489,35.81241],[128.54464,35.8123],[128.54148,35.81485],[128.5395,35.81691],[128.53782,35.81876],[128.53265,35.81722],[128.53011,35.82002],[128.52869,35.82165],[128.53637,35.82445],[128.54002,35.82526],[128.54311,35.82321],[128.54508,35.82331]]]]}},{"type":"Feature","properties":{"code":"27290625","name":"상인2동","parent":"27290"},"geometry":{"type":"MultiPolygon","coordinates":[[[[128.54464,35.8123],[128.5486,35.80828],[128.54742,35.80829],[128.54735,35.80829],[128.54478,35.80829],[128.5438,35.80831],[128.5434,35.80833],[128.5427,35.80842],[128.542,35.80862],[128.5414,35.80884],[128.54134,35.80886],[128.54066,35.80913],[128.54063,35.80914],[128.54037,35.80924],[128.54002,35.80937],[128.53971,35.80948],[128.53924,35.80959],[128.53822,35.80972],[128.53809,35.80974],[128.53775,35.80978],[128.53772,35.80979],[128.53731,35.80984],[128.53728,35.80984],[128.5366,35.80992],[128.53576,35.8099],[128.53474,35.80985],[128.5338,35.8098],[128.53339,35.80977],[128.53316,35.80976],[128.5333,35.81198],[128.53342,35.81263],[128.53373,35.81291],[128.53233,35.81404],[128.53057,35.81493],[128.53089,35.81625],[128.53108,35.81652],[128.53128,35.81661],[128.53151,35.81671],[128.53163,35.81677],[128.5318,35.81684],[128.53198,35.81692],[128.53265,35.81722],[128.53782,35.81876],[128.5395,35.81691],[128.54148,35.81485],[128.54464,35.8123]]]]}},{"type":"Feature","properties":{"code":"27290626","name":"상인3동","parent":"27290"},"geometry":{"type":"MultiPolygon","coordinates":[[[[128.57114,35.81947],[128.57196,35.8189],[128.57553,35.81739],[128.57651,35.81729],[128.5774,35.81813],[128.57737,35.8167],[128.57738,35.81643],[128.57739,35.81639],[128.57741,35.8163],[128.57746,35.81616],[128.57775,35.81559],[128.57886,35.81407],[128.57905,35.81383],[128.57925,35.81365],[128.57947,35.81349],[128.5797,35.81331],[128.57995,35.81311],[128.58004,35.813],[128.58078,35.81178],[128.5809,35.81149],[128.58037,35.80985],[128.5797,35.80848],[128.57892,35.80796],[128.57546,35.80644],[128.5737,35.80723],[128.57215,35.80751],[128.57022,35.8078],[128.56996,35.80782],[128.56301,35.80767],[128.55239,35.80736],[128.55223,35.80734],[128.55212,35.8073],[128.55195,35.80722],[128.5519,35.80717],[128.55185,35.80709],[128.55183,35.80701],[128.55184,35.80694],[128.55186,35.80686],[128.55009,35.80653],[128.5486,35.80828],[128.54464,35.8123],[128.54489,35.81241],[128.54583,35.81299],[128.54633,35.81329],[128.54645,35.81336],[128.54976,35.81556],[128.5497,35.81572],[128.54959,35.81605],[128.54956,35.81612],[128.54946,35.8164],[128.5493,35.81681],[128.5492,35.81712],[128.54914,35.81753],[128.54917,35.81791],[128.54918,35.81796],[128.54923,35.81818],[128.54938,35.81838],[128.54987,35.81881],[128.55052,35.81938],[128.55081,35.81964],[128.55133,35.82007],[128.55258,35.81914],[128.5537,35.81929],[128.55495,35.81909],[128.55513,35.81906],[128.55571,35.81884],[128.55614,35.81861],[128.55753,35.81782],[128.5583,35.81737],[128.5594,35.81708],[128.56196,35.81644],[128.56532,35.81594],[128.56734,35.81678],[128.56831,35.81746],[128.56945,35.81863],[128.57007,35.81904],[128.57026,35.81915],[128.57114,35.81947]]]]}},{"type":"Feature","properties":{"code":"27290628","name":"도원동","parent":"27290"},"geometry":{"type":"MultiPolygon","coordinates":[[[[128.58404,35.81086],[128.58562,35.80771],[128.58602,35.80587],[128.58646,35.80179],[128.58645,35.80084],[128.58631,35.80017],[128.5854,35.7993],[128.57882,35.79652],[128.57684,35.79619],[128.57524,35.79631],[128.57346,35.79681],[128.57301,35.79696],[128.57197,35.79721],[128.56962,35.79768],[128.56727,35.79522],[128.56853,35.79237],[128.56906,35.79037],[128.56964,35.78654],[128.56955,35.78352],[128.56961,35.78305],[128.56993,35.7824],[128.57017,35.78215],[128.57055,35.78146],[128.57061,35.78016],[128.56744,35.77667],[128.56562,35.7748],[128.56544,35.77468],[128.56506,35.77451],[128.56413,35.7741],[128.56343,35.77436],[128.56335,35.77439],[128.56297,35.77453],[128.56235,35.77455],[128.55998,35.77425],[128.55988,35.77422],[128.55893,35.77393],[128.55417,35.77293],[128.55313,35.77518],[128.55319,35.77553],[128.55321,35.77571],[128.55299,35.77695],[128.55294,35.77713],[128.55202,35.77888],[128.55182,35.77925],[128.55167,35.77943],[128.55143,35.77963],[128.55111,35.77986],[128.55077,35.78004],[128.54981,35.78052],[128.54955,35.78065],[128.54923,35.78074],[128.5489,35.78091],[128.54854,35.78119],[128.54767,35.78192],[128.54648,35.78309],[128.54629,35.78342],[128.54339,35.78648],[128.54324,35.78654],[128.5421,35.787],[128.54198,35.78706],[128.54184,35.78725],[128.54172,35.78743],[128.54156,35.78787],[128.54171,35.78907],[128.54166,35.78998],[128.54139,35.79064],[128.54085,35.79226],[128.54063,35.79291],[128.54092,35.7935],[128.54142,35.79534],[128.54172,35.79798],[128.54088,35.79882],[128.54057,35.799],[128.53725,35.80087],[128.53718,35.80091],[128.53712,35.80093],[128.53618,35.80111],[128.53579,35.80116],[128.53548,35.80176],[128.53497,35.80156],[128.53463,35.80185],[128.53451,35.80239],[128.53341,35.80265],[128.53283,35.80347],[128.53242,35.80372],[128.53198,35.80371],[128.53179,35.80392],[128.53175,35.80416],[128.5319,35.8044],[128.53215,35.80454],[128.53144,35.8055],[128.53078,35.80566],[128.53007,35.80549],[128.52939,35.80582],[128.52886,35.80594],[128.5287,35.80599],[128.52845,35.80607],[128.52842,35.80608],[128.52705,35.80892],[128.5274,35.80909],[128.5278,35.80926],[128.52807,35.80937],[128.5282,35.80942],[128.52848,35.8095],[128.52874,35.80955],[128.52904,35.80957],[128.52911,35.80958],[128.52946,35.80961],[128.53063,35.80966],[128.53316,35.80976],[128.53339,35.80977],[128.5338,35.8098],[128.53474,35.80985],[128.53576,35.8099],[128.5366,35.80992],[128.53728,35.80984],[128.53731,35.80984],[128.53772,35.80979],[128.53775,35.80978],[128.53809,35.80974],[128.53822,35.80972],[128.53924,35.80959],[128.53971,35.80948],[128.54002,35.80937],[128.54037,35.80924],[128.54063,35.80914],[128.54066,35.80913],[128.54134,35.80886],[128.5414,35.80884],[128.542,35.80862],[128.5427,35.80842],[128.5434,35.80833],[128.5438,35.80831],[128.54478,35.80829],[128.54735,35.80829],[128.54742,35.80829],[128.5486,35.80828],[128.55009,35.80653],[128.55186,35.80686],[128.55184,35.80694],[128.55183,35.80701],[128.55185,35.80709],[128.5519,35.80717],[128.55195,35.80722],[128.55212,35.8073],[128.55223,35.80734],[128.55239,35.80736],[128.56301,35.80767],[128.56996,35.80782],[128.57022,35.8078],[128.57215,35.80751],[128.5737,35.80723],[128.57546,35.80644],[128.57892,35.80796],[128.5797,35.80848],[128.58037,35.80985],[128.5809,35.81149],[128.58146,35.81172],[128.58191,35.81275],[128.58323,35.81387],[128.58291,35.81248],[128.58404,35.81086]]]]}},{"type":"Feature","properties":{"code":"27290630","name":"송현1동","parent":"27290"},"geometry":{"type":"MultiPolygon","coordinates":[[[[128.56824,35.82435],[128.5705,35.82249],[128.57106,35.82159],[128.57123,35.82052],[128.57114,35.81947],[128.57026,35.81915],[128.57007,35.81904],[128.56945,35.81863],[128.56831,35.81746],[128.56734,35.81678],[128.56532,35.81594],[128.56196,35.81644],[128.5594,35.81708],[128.5583,35.81737],[128.55753,35.81782],[128.55614,35.81861],[128.55571,35.81884],[128.55513,35.81906],[128.55495,35.81909],[128.5537,35.81929],[128.55258,35.81914],[128.55133,35.82007],[128.55139,35.82013],[128.54724,35.82263],[128.54585,35.82347],[128.54559,35.82346],[128.54551,35.82345],[128.54508,35.82331],[128.54646,35.82487],[128.54953,35.8284],[128.55092,35.83004],[128.55111,35.83028],[128.55114,35.83032],[128.55099,35.8304],[128.55157,35.83111],[128.55175,35.83133],[128.55221,35.83186],[128.55542,35.83446],[128.55614,35.83406],[128.55637,35.83402],[128.55659,35.83393],[128.55691,35.83378],[128.55714,35.83365],[128.55731,35.83355],[128.55749,35.83343],[128.55756,35.83338],[128.55787,35.8331],[128.55798,35.83299],[128.56051,35.82933],[128.56111,35.82813],[128.56169,35.8272],[128.56285,35.82616],[128.56603,35.82446],[128.56732,35.8242],[128.56787,35.82426],[128.56824,35.82435]]]]}},{"type":"Feature","properties":{"code":"27290640","name":"송현2동","parent":"27290"},"geometry":{"type":"MultiPolygon","coordinates":[[[[128.55542,35.83446],[128.55221,35.83186],[128.55175,35.83133],[128.55157,35.83111],[128.55099,35.8304],[128.55114,35.83032],[128.55111,35.83028],[128.55092,35.83004],[128.54953,35.8284],[128.54646,35.82487],[128.54508,35.82331],[128.54311,35.82321],[128.54002,35.82526],[128.5407,35.82538],[128.54118,35.82546],[128.54175,35.82556],[128.5426,35.82684],[128.54298,35.82922],[128.54386,35.83221],[128.54466,35.83394],[128.54491,35.83392],[128.54584,35.83391],[128.5461,35.8339],[128.54875,35.83386],[128.54876,35.83607],[128.54876,35.83718],[128.54901,35.83717],[128.55416,35.83709],[128.55746,35.83759],[128.55542,35.83446]]]]}},{"type":"Feature","properties":{"code":"27290650","name":"본동","parent":"27290"},"geometry":{"type":"MultiPolygon","coordinates":[[[[128.54876,35.83718],[128.54876,35.83607],[128.54875,35.83386],[128.5461,35.8339],[128.54584,35.83391],[128.54491,35.83392],[128.54466,35.83394],[128.54386,35.83221],[128.54298,35.82922],[128.5426,35.82684],[128.54175,35.82556],[128.54118,35.82546],[128.5407,35.82538],[128.54089,35.82551],[128.54097,35.82563],[128.54099,35.82585],[128.54096,35.82614],[128.54068,35.82674],[128.53935,35.82926],[128.53665,35.83201],[128.53586,35.8315],[128.53578,35.83142],[128.53393,35.83141],[128.5339,35.83311],[128.53389,35.83371],[128.53388,35.83445],[128.53387,35.83499],[128.53386,35.83551],[128.53149,35.83542],[128.53073,35.83539],[128.53074,35.83487],[128.53074,35.83469],[128.52973,35.83506],[128.52831,35.83598],[128.52841,35.83664],[128.52861,35.83716],[128.52877,35.83717],[128.53225,35.83728],[128.53694,35.83742],[128.53848,35.83739],[128.54126,35.83734],[128.54141,35.83733],[128.54876,35.83718]]]]}},{"type":"Feature","properties":{"code":"27290571","name":"용산1동","parent":"27290"},"geometry":{"type":"MultiPolygon","coordinates":[[[[128.5333,35.8591],[128.5333,35.85875],[128.53329,35.85807],[128.53328,35.85789],[128.53327,35.85688],[128.53327,35.85685],[128.53365,35.85684],[128.5339,35.85684],[128.53407,35.85683],[128.53407,35.8568],[128.53405,35.85563],[128.53405,35.85559],[128.53402,35.85441],[128.53399,35.85318],[128.5334,35.84987],[128.53067,35.84909],[128.52787,35.84859],[128.52758,35.84855],[128.52728,35.84851],[128.52514,35.84871],[128.52428,35.84892],[128.52183,35.84977],[128.52178,35.85],[128.52172,35.85052],[128.5217,35.85106],[128.52175,35.85145],[128.52182,35.85181],[128.52185,35.85197],[128.52193,35.85222],[128.52372,35.85695],[128.52377,35.85707],[128.52444,35.85882],[128.5259,35.86249],[128.52611,35.86297],[128.52627,35.86328],[128.5267,35.86392],[128.52745,35.86388],[128.52858,35.86375],[128.52933,35.86365],[128.53127,35.86334],[128.53281,35.86277],[128.53396,35.86234],[128.534,35.86233],[128.53392,35.86195],[128.5337,35.86096],[128.5333,35.8591]]]]}},{"type":"Feature","properties":{"code":"27290572","name":"용산2동","parent":"27290"},"geometry":{"type":"MultiPolygon","coordinates":[[[[128.5267,35.86392],[128.52627,35.86328],[128.52611,35.86297],[128.5259,35.86249],[128.52444,35.85882],[128.52377,35.85707],[128.52372,35.85695],[128.52193,35.85222],[128.52185,35.85197],[128.52182,35.85181],[128.52175,35.85145],[128.5217,35.85106],[128.52172,35.85052],[128.52178,35.85],[128.52183,35.84977],[128.51936,35.85053],[128.51636,35.85055],[128.51575,35.85106],[128.51557,35.85241],[128.51547,35.85314],[128.51545,35.85342],[128.51543,35.85369],[128.5154,35.85422],[128.5154,35.85443],[128.51542,35.85519],[128.51544,35.85718],[128.51547,35.85892],[128.51547,35.85898],[128.51438,35.85899],[128.51438,35.85942],[128.51442,35.86119],[128.51442,35.86123],[128.51641,35.86305],[128.51687,35.8631],[128.5175,35.86318],[128.51638,35.86535],[128.5155,35.86688],[128.51561,35.86811],[128.51915,35.86958],[128.52059,35.8681],[128.52081,35.86774],[128.52095,35.8677],[128.52488,35.86729],[128.52531,35.866],[128.52553,35.86474],[128.52567,35.86456],[128.52636,35.86394],[128.5267,35.86392]]]]}},{"type":"Feature","properties":{"code":"27290577","name":"이곡2동","parent":"27290"},"geometry":{"type":"MultiPolygon","coordinates":[[[[128.50731,35.84402],[128.50737,35.83557],[128.5,35.83529],[128.5,35.83542],[128.49996,35.83787],[128.49995,35.83857],[128.49982,35.84915],[128.49982,35.85203],[128.49987,35.85432],[128.49998,35.85915],[128.49998,35.85918],[128.49943,35.86185],[128.49886,35.8624],[128.49886,35.8625],[128.49889,35.86435],[128.50089,35.86384],[128.50107,35.8638],[128.50118,35.86378],[128.50134,35.8638],[128.50146,35.86381],[128.5016,35.86385],[128.5017,35.86391],[128.50185,35.86401],[128.50199,35.8641],[128.50211,35.86422],[128.50218,35.86428],[128.50228,35.8644],[128.5024,35.8646],[128.50247,35.86477],[128.50249,35.86489],[128.50255,35.86509],[128.5026,35.86516],[128.50289,35.86538],[128.50383,35.86588],[128.50401,35.86596],[128.50416,35.86599],[128.50684,35.8662],[128.50762,35.86621],[128.50746,35.86114],[128.50744,35.86031],[128.50743,35.85987],[128.5074,35.85869],[128.5074,35.85862],[128.5074,35.85859],[128.50736,35.8568],[128.50731,35.85409],[128.50728,35.85236],[128.50728,35.85117],[128.50728,35.85058],[128.50728,35.8494],[128.50729,35.84801],[128.50729,35.84731],[128.50731,35.84402]]]]}},{"type":"Feature","properties":{"code":"27290515","name":"성당동","parent":"27290"},"geometry":{"type":"MultiPolygon","coordinates":[[[[128.5734,35.85099],[128.57212,35.85023],[128.57136,35.84976],[128.5669,35.84702],[128.56585,35.84637],[128.56552,35.84616],[128.56529,35.84601],[128.56472,35.84558],[128.56212,35.84353],[128.56203,35.84341],[128.5619,35.84325],[128.56091,35.84199],[128.55746,35.83759],[128.55416,35.83709],[128.54901,35.83717],[128.54876,35.83718],[128.54876,35.83733],[128.54878,35.83802],[128.54878,35.83838],[128.54883,35.8411],[128.54787,35.84112],[128.54781,35.84112],[128.54679,35.84113],[128.54482,35.84115],[128.54482,35.84186],[128.54483,35.84347],[128.5445,35.84557],[128.54447,35.84585],[128.54449,35.84595],[128.54449,35.84599],[128.54456,35.84616],[128.54543,35.84747],[128.54578,35.84799],[128.54591,35.84819],[128.54685,35.8496],[128.54709,35.84995],[128.54726,35.8502],[128.54736,35.85036],[128.54741,35.85003],[128.54745,35.84981],[128.54753,35.8496],[128.54765,35.84946],[128.54782,35.84931],[128.55167,35.84634],[128.55275,35.84615],[128.55293,35.84613],[128.55362,35.84609],[128.55382,35.84608],[128.55398,35.84609],[128.55414,35.8461],[128.55625,35.84685],[128.56262,35.84958],[128.56337,35.85179],[128.56496,35.8509],[128.5668,35.85092],[128.56788,35.85197],[128.56844,35.85247],[128.56873,35.85256],[128.57129,35.8533],[128.57228,35.85222],[128.5734,35.85099]]]]}},{"type":"Feature","properties":{"code":"27290535","name":"두류1,2동","parent":"27290"},"geometry":{"type":"MultiPolygon","coordinates":[[[[128.57458,35.86006],[128.57362,35.85116],[128.5734,35.85099],[128.57228,35.85222],[128.57129,35.8533],[128.56873,35.85256],[128.56844,35.85247],[128.56788,35.85197],[128.5668,35.85092],[128.56496,35.8509],[128.56337,35.85179],[128.5629,35.85195],[128.56249,35.85213],[128.56217,35.85231],[128.56185,35.8526],[128.56153,35.85292],[128.55982,35.8548],[128.55841,35.85647],[128.55847,35.85825],[128.56771,35.86108],[128.5742,35.86268],[128.57458,35.86006]]]]}},{"type":"Feature","properties":{"code":"27290601","name":"월성1동","parent":"27290"},"geometry":{"type":"MultiPolygon","coordinates":[[[[128.5231,35.81607],[128.52174,35.81924],[128.51503,35.82385],[128.51803,35.82677],[128.51859,35.82731],[128.51952,35.82822],[128.52093,35.82959],[128.52105,35.82971],[128.52257,35.83119],[128.52376,35.83235],[128.52417,35.83199],[128.52426,35.83191],[128.52533,35.83085],[128.52617,35.83002],[128.52752,35.8286],[128.52947,35.82657],[128.52984,35.82618],[128.53012,35.82627],[128.53043,35.82645],[128.53092,35.82677],[128.53122,35.82702],[128.53143,35.82718],[128.53171,35.82746],[128.53185,35.8276],[128.532,35.82775],[128.53274,35.82849],[128.5332,35.82894],[128.53484,35.83053],[128.53578,35.83142],[128.53586,35.8315],[128.53665,35.83201],[128.53935,35.82926],[128.54068,35.82674],[128.54096,35.82614],[128.54099,35.82585],[128.54097,35.82563],[128.54089,35.82551],[128.5407,35.82538],[128.54002,35.82526],[128.53637,35.82445],[128.52869,35.82165],[128.53011,35.82002],[128.53005,35.81995],[128.52844,35.81874],[128.52724,35.81803],[128.5231,35.81607]]]]}},{"type":"Feature","properties":{"code":"27290615","name":"진천동","parent":"27290"},"geometry":{"type":"MultiPolygon","coordinates":[[[[128.51348,35.80994],[128.51661,35.81113],[128.5188,35.81291],[128.52049,35.81336],[128.52056,35.81505],[128.52078,35.81634],[128.5208,35.81643],[128.52081,35.81646],[128.521,35.81675],[128.52165,35.81636],[128.52219,35.81603],[128.5231,35.81607],[128.52724,35.81803],[128.52844,35.81874],[128.53005,35.81995],[128.53011,35.82002],[128.53265,35.81722],[128.53198,35.81692],[128.5318,35.81684],[128.53163,35.81677],[128.53151,35.81671],[128.53128,35.81661],[128.53108,35.81652],[128.53089,35.81625],[128.53057,35.81493],[128.53233,35.81404],[128.53373,35.81291],[128.53342,35.81263],[128.5333,35.81198],[128.53316,35.80976],[128.53063,35.80966],[128.52946,35.80961],[128.52911,35.80958],[128.52904,35.80957],[128.52874,35.80955],[128.52848,35.8095],[128.5282,35.80942],[128.52807,35.80937],[128.5278,35.80926],[128.5274,35.80909],[128.52705,35.80892],[128.52842,35.80608],[128.52845,35.80607],[128.5287,35.80599],[128.52886,35.80594],[128.52939,35.80582],[128.53007,35.80549],[128.53078,35.80566],[128.53144,35.8055],[128.53215,35.80454],[128.5319,35.8044],[128.53175,35.80416],[128.53179,35.80392],[128.53198,35.80371],[128.53242,35.80372],[128.53283,35.80347],[128.53341,35.80265],[128.53451,35.80239],[128.53463,35.80185],[128.53497,35.80156],[128.53548,35.80176],[128.53579,35.80116],[128.53618,35.80111],[128.53712,35.80093],[128.53718,35.80091],[128.53725,35.80087],[128.54057,35.799],[128.54088,35.79882],[128.54172,35.79798],[128.54142,35.79534],[128.54092,35.7935],[128.54063,35.79291],[128.54085,35.79226],[128.54139,35.79064],[128.54166,35.78998],[128.54171,35.78907],[128.54156,35.78787],[128.54014,35.78767],[128.5379,35.78656],[128.53767,35.78647],[128.53754,35.78646],[128.53299,35.7865],[128.53278,35.78652],[128.5286,35.78786],[128.52845,35.78791],[128.52835,35.78795],[128.52816,35.78808],[128.52762,35.7891],[128.52754,35.78927],[128.5275,35.78939],[128.52746,35.79003],[128.52719,35.79151],[128.52705,35.79209],[128.52693,35.79221],[128.52656,35.79229],[128.52562,35.79242],[128.52542,35.79243],[128.52523,35.7924],[128.5186,35.79699],[128.51747,35.79787],[128.51713,35.79821],[128.51635,35.79902],[128.51626,35.79915],[128.51392,35.80382],[128.5139,35.80396],[128.5139,35.80401],[128.51155,35.80521],[128.50827,35.80581],[128.50808,35.80588],[128.50795,35.80599],[128.50785,35.80613],[128.50786,35.80619],[128.50791,35.80643],[128.50852,35.80782],[128.5095,35.80823],[128.51078,35.80877],[128.51167,35.80914],[128.51312,35.80976],[128.51349,35.80991],[128.51348,35.80994]]]]}},{"type":"Feature","properties":{"code":"27290617","name":"유천동","parent":"27290"},"geometry":{"type":"MultiPolygon","coordinates":[[[[128.52056,35.81505],[128.52049,35.81336],[128.5188,35.81291],[128.51661,35.81113],[128.51348,35.80994],[128.51332,35.81026],[128.51323,35.81045],[128.51292,35.81097],[128.51268,35.81114],[128.51178,35.81142],[128.51068,35.81175],[128.50949,35.81203],[128.50893,35.8122],[128.50844,35.81246],[128.50832,35.81252],[128.5065,35.81358],[128.50573,35.81404],[128.50521,35.81437],[128.50535,35.81454],[128.51199,35.8209],[128.51219,35.82109],[128.51346,35.82232],[128.51503,35.82385],[128.52174,35.81924],[128.5231,35.81607],[128.52219,35.81603],[128.52165,35.81636],[128.521,35.81675],[128.52081,35.81646],[128.5208,35.81643],[128.52078,35.81634],[128.52056,35.81505]]]]}}]}