{"type":"FeatureCollection","features":[{"type":"Feature","properties":{"code":"41480250","name":"문산읍","parent":"41480"},"geometry":{"type":"MultiPolygon","coordinates":[[[[126.79866,37.89282],[126.79877,37.89226],[126.7993,37.88971],[126.79954,37.88887],[126.79982,37.88787],[126.79999,37.8873],[126.8,37.88683],[126.8,37.88679],[126.79985,37.88611],[126.79908,37.88574],[126.79772,37.88508],[126.79693,37.8842],[126.79688,37.88388],[126.79683,37.88348],[126.797,37.88281],[126.79757,37.88197],[126.79806,37.88125],[126.79831,37.88087],[126.79865,37.88058],[126.80008,37.87992],[126.80019,37.87988],[126.80206,37.87952],[126.8032,37.88021],[126.80331,37.88013],[126.80342,37.88003],[126.80353,37.87991],[126.80407,37.87932],[126.80497,37.87848],[126.80513,37.87842],[126.80542,37.87832],[126.80712,37.87822],[126.8092,37.87811],[126.81132,37.87778],[126.81208,37.87606],[126.81183,37.87544],[126.81131,37.87489],[126.81116,37.87274],[126.81112,37.87218],[126.81133,37.87215],[126.81233,37.87199],[126.81246,37.87199],[126.81381,37.87198],[126.81652,37.8725],[126.82125,37.87409],[126.82261,37.87493],[126.82353,37.87565],[126.82662,37.87889],[126.82678,37.87939],[126.82699,37.88008],[126.82678,37.88159],[126.8269,37.88187],[126.82715,37.88201],[126.8274,37.88216],[126.83065,37.88247],[126.8362,37.88346],[126.8392,37.88445],[126.83935,37.8845],[126.84003,37.88472],[126.84099,37.88475],[126.84161,37.88434],[126.84165,37.88417],[126.84167,37.8841],[126.84209,37.88246],[126.84246,37.88169],[126.84265,37.88152],[126.84299,37.88122],[126.84542,37.87972],[126.84605,37.87911],[126.84677,37.87757],[126.84951,37.87669],[126.84878,37.87591],[126.84849,37.87557],[126.8488,37.8737],[126.84856,37.87202],[126.84841,37.87152],[126.8451,37.86773],[126.84453,37.86713],[126.84421,37.8668],[126.83901,37.86172],[126.83823,37.861],[126.83699,37.85995],[126.8366,37.85974],[126.83657,37.85973],[126.83638,37.85969],[126.836,37.85972],[126.83596,37.85972],[126.8359,37.85973],[126.83569,37.85978],[126.83565,37.85979],[126.83561,37.8598],[126.83542,37.85985],[126.83486,37.85992],[126.83451,37.85994],[126.83404,37.85994],[126.83374,37.85989],[126.83352,37.8598],[126.83314,37.85956],[126.83164,37.85854],[126.83121,37.85737],[126.83119,37.8557],[126.83048,37.85379],[126.83009,37.85339],[126.82955,37.85322],[126.82914,37.85326],[126.82878,37.85329],[126.8263,37.8552],[126.82245,37.85891],[126.8217,37.8597],[126.81723,37.85895],[126.81113,37.85766],[126.808,37.85418],[126.80528,37.8552],[126.80128,37.85673],[126.80074,37.85606],[126.80045,37.85573],[126.79913,37.85446],[126.79737,37.85404],[126.79633,37.85406],[126.79451,37.85411],[126.79257,37.85417],[126.79029,37.85291],[126.7899,37.85197],[126.78942,37.85161],[126.78911,37.85148],[126.78869,37.8513],[126.788,37.85099],[126.78702,37.85081],[126.78682,37.85077],[126.78563,37.85103],[126.7851,37.85125],[126.78258,37.84979],[126.78438,37.84734],[126.78671,37.84398],[126.78502,37.84174],[126.78494,37.84157],[126.78449,37.84069],[126.78384,37.83937],[126.78297,37.83746],[126.78003,37.8373],[126.77803,37.8371],[126.77409,37.83647],[126.77349,37.83602],[126.77059,37.83387],[126.76749,37.83224],[126.76617,37.83181],[126.76603,37.83176],[126.76453,37.83192],[126.76254,37.83268],[126.76107,37.83328],[126.76078,37.83329],[126.76032,37.83276],[126.76012,37.83191],[126.7604,37.8313],[126.76062,37.83012],[126.76066,37.82986],[126.76036,37.82886],[126.75959,37.82846],[126.75858,37.82853],[126.75728,37.82862],[126.75355,37.831],[126.75163,37.83272],[126.74771,37.83648],[126.74614,37.83852],[126.74583,37.83973],[126.74582,37.84025],[126.74579,37.841],[126.74646,37.84167],[126.74666,37.8422],[126.74639,37.84308],[126.74453,37.84531],[126.74239,37.84789],[126.7438,37.84832],[126.74521,37.8482],[126.74792,37.84799],[126.74895,37.84793],[126.75023,37.848],[126.75028,37.848],[126.75192,37.84853],[126.75539,37.85008],[126.75581,37.85034],[126.75633,37.85066],[126.75699,37.85129],[126.75778,37.85205],[126.75801,37.85384],[126.75806,37.85539],[126.75767,37.85649],[126.75754,37.85667],[126.75603,37.85853],[126.75207,37.86281],[126.75174,37.86328],[126.74792,37.8687],[126.74495,37.87268],[126.74109,37.87786],[126.7398,37.87914],[126.73974,37.87919],[126.73971,37.87921],[126.7378,37.88067],[126.73579,37.88235],[126.73332,37.88582],[126.73302,37.88682],[126.73306,37.88753],[126.7331,37.88846],[126.73322,37.88921],[126.73342,37.89039],[126.73391,37.8912],[126.73427,37.89297],[126.73489,37.89343],[126.73644,37.89541],[126.73789,37.89738],[126.73852,37.89824],[126.73863,37.89839],[126.74069,37.90121],[126.74369,37.90393],[126.74372,37.90396],[126.74558,37.90477],[126.74569,37.90482],[126.74574,37.90484],[126.74739,37.90557],[126.74792,37.90565],[126.75408,37.90657],[126.76485,37.90861],[126.76942,37.91024],[126.77256,37.91199],[126.77546,37.91361],[126.77767,37.91485],[126.78443,37.9167],[126.78846,37.91706],[126.79166,37.91435],[126.79196,37.90819],[126.79165,37.90364],[126.79294,37.89972],[126.79523,37.89542],[126.7959,37.89491],[126.79866,37.89282]]]]}},{"type":"Feature","properties":{"code":"41480253","name":"파주읍","parent":"41480"},"geometry":{"type":"MultiPolygon","coordinates":[[[[126.83009,37.85339],[126.83184,37.8523],[126.83395,37.85124],[126.83503,37.8507],[126.83629,37.84935],[126.83679,37.84832],[126.837,37.84786],[126.83745,37.84692],[126.84091,37.84575],[126.84267,37.84623],[126.84318,37.84624],[126.84777,37.84632],[126.84938,37.84079],[126.84702,37.83871],[126.84674,37.83688],[126.84947,37.83263],[126.85293,37.82647],[126.85322,37.82586],[126.855,37.82321],[126.85615,37.82188],[126.85873,37.82132],[126.85951,37.82014],[126.85902,37.81926],[126.85348,37.81808],[126.84744,37.81734],[126.84474,37.8168],[126.84346,37.81579],[126.84086,37.81357],[126.83742,37.81063],[126.83715,37.80955],[126.83674,37.80788],[126.83671,37.80775],[126.83655,37.80708],[126.8362,37.80565],[126.83568,37.80456],[126.83556,37.8043],[126.83553,37.80423],[126.83434,37.80356],[126.83319,37.80291],[126.83114,37.80291],[126.8303,37.80262],[126.82917,37.80198],[126.82828,37.80124],[126.82753,37.80062],[126.82696,37.80052],[126.82646,37.80044],[126.82346,37.80006],[126.82147,37.80011],[126.81833,37.80053],[126.81458,37.80094],[126.81314,37.80108],[126.81084,37.80097],[126.81071,37.80092],[126.8104,37.80081],[126.81019,37.80073],[126.80991,37.80062],[126.8071,37.79963],[126.80322,37.79825],[126.80087,37.79828],[126.79976,37.79835],[126.79914,37.79852],[126.79836,37.79892],[126.79796,37.79917],[126.79711,37.79973],[126.79676,37.7999],[126.79622,37.80016],[126.79539,37.80054],[126.79367,37.80104],[126.7931,37.80119],[126.79033,37.8019],[126.7894,37.80214],[126.78937,37.80215],[126.78893,37.80226],[126.78861,37.80265],[126.78792,37.8035],[126.78755,37.80395],[126.78732,37.80458],[126.78665,37.80636],[126.78637,37.80708],[126.78477,37.81247],[126.78475,37.81252],[126.78411,37.8161],[126.78352,37.82351],[126.78512,37.8256],[126.78651,37.82853],[126.78607,37.83038],[126.7859,37.83066],[126.78503,37.83205],[126.78338,37.83423],[126.78395,37.83609],[126.78297,37.83746],[126.78384,37.83937],[126.78449,37.84069],[126.78494,37.84157],[126.78502,37.84174],[126.78671,37.84398],[126.78438,37.84734],[126.78258,37.84979],[126.7851,37.85125],[126.78563,37.85103],[126.78682,37.85077],[126.78702,37.85081],[126.788,37.85099],[126.78869,37.8513],[126.78911,37.85148],[126.78942,37.85161],[126.7899,37.85197],[126.79029,37.85291],[126.79257,37.85417],[126.79451,37.85411],[126.79633,37.85406],[126.79737,37.85404],[126.79913,37.85446],[126.80045,37.85573],[126.80074,37.85606],[126.80128,37.85673],[126.80528,37.8552],[126.808,37.85418],[126.81113,37.85766],[126.81723,37.85895],[126.8217,37.8597],[126.82245,37.85891],[126.8263,37.8552],[126.82878,37.85329],[126.82914,37.85326],[126.82955,37.85322],[126.83009,37.85339]]]]}},{"type":"Feature","properties":{"code":"41480256","name":"법원읍","parent":"41480"},"geometry":{"type":"MultiPolygon","coordinates":[[[[126.946,37.88846],[126.94728,37.88599],[126.94808,37.88465],[126.94726,37.8823],[126.94696,37.88159],[126.94649,37.88047],[126.94681,37.87994],[126.9471,37.87947],[126.94567,37.87547],[126.94561,37.87539],[126.94426,37.87363],[126.94493,37.87033],[126.94612,37.86829],[126.94627,37.86743],[126.94634,37.86699],[126.94508,37.86468],[126.9445,37.86413],[126.94391,37.86357],[126.94283,37.86255],[126.93977,37.85699],[126.9385,37.85406],[126.93887,37.8525],[126.93711,37.85045],[126.93562,37.84939],[126.93451,37.84624],[126.93474,37.84558],[126.93476,37.84552],[126.93571,37.84274],[126.93649,37.84079],[126.93511,37.83992],[126.93346,37.83887],[126.93298,37.83857],[126.92728,37.83805],[126.92674,37.83839],[126.92648,37.83855],[126.92644,37.83857],[126.92643,37.83861],[126.9261,37.83949],[126.92533,37.84159],[126.91933,37.84163],[126.91393,37.84107],[126.91374,37.84097],[126.91238,37.84024],[126.91193,37.83846],[126.91208,37.83811],[126.91253,37.83711],[126.913,37.83603],[126.91299,37.83597],[126.9126,37.8342],[126.91136,37.82864],[126.91123,37.82865],[126.91056,37.82869],[126.90998,37.82863],[126.90919,37.82854],[126.90751,37.82804],[126.90299,37.82639],[126.90249,37.82518],[126.90231,37.82472],[126.89964,37.82615],[126.89917,37.82618],[126.89723,37.82632],[126.89361,37.82653],[126.8907,37.82605],[126.88953,37.82633],[126.88905,37.82644],[126.88582,37.82657],[126.88665,37.82374],[126.88407,37.82091],[126.87876,37.81525],[126.87619,37.81627],[126.87404,37.81712],[126.87363,37.81644],[126.87339,37.81603],[126.86971,37.81642],[126.86808,37.81661],[126.86719,37.81672],[126.8662,37.8174],[126.86592,37.81759],[126.86406,37.81802],[126.8611,37.81745],[126.85951,37.82014],[126.85873,37.82132],[126.85615,37.82188],[126.855,37.82321],[126.85322,37.82586],[126.85293,37.82647],[126.84947,37.83263],[126.84674,37.83688],[126.84702,37.83871],[126.84938,37.84079],[126.84777,37.84632],[126.84318,37.84624],[126.84267,37.84623],[126.84091,37.84575],[126.83745,37.84692],[126.837,37.84786],[126.83679,37.84832],[126.83629,37.84935],[126.83503,37.8507],[126.83395,37.85124],[126.83184,37.8523],[126.83009,37.85339],[126.83048,37.85379],[126.83119,37.8557],[126.83121,37.85737],[126.83164,37.85854],[126.83314,37.85956],[126.83352,37.8598],[126.83374,37.85989],[126.83404,37.85994],[126.83451,37.85994],[126.83486,37.85992],[126.83542,37.85985],[126.83561,37.8598],[126.83565,37.85979],[126.83569,37.85978],[126.8359,37.85973],[126.83596,37.85972],[126.836,37.85972],[126.83638,37.85969],[126.83657,37.85973],[126.8366,37.85974],[126.83699,37.85995],[126.83823,37.861],[126.83901,37.86172],[126.84421,37.8668],[126.84453,37.86713],[126.8451,37.86773],[126.84841,37.87152],[126.84856,37.87202],[126.8488,37.8737],[126.84849,37.87557],[126.84878,37.87591],[126.84951,37.87669],[126.84954,37.87672],[126.85039,37.87697],[126.85055,37.87702],[126.85202,37.87702],[126.85291,37.87622],[126.85418,37.87552],[126.85448,37.87552],[126.85564,37.87552],[126.85672,37.87607],[126.85684,37.8767],[126.85691,37.87703],[126.85697,37.87738],[126.85786,37.87849],[126.85875,37.8788],[126.86046,37.8793],[126.86459,37.8847],[126.86833,37.88697],[126.86851,37.88704],[126.86929,37.88732],[126.8696,37.88773],[126.86966,37.88853],[126.86894,37.89406],[126.86801,37.89575],[126.86691,37.89765],[126.86596,37.89946],[126.8657,37.90003],[126.86557,37.90032],[126.86608,37.90102],[126.86616,37.90108],[126.86742,37.90203],[126.86989,37.90345],[126.87377,37.90647],[126.87873,37.91117],[126.88037,37.91202],[126.88081,37.91253],[126.88062,37.91353],[126.87986,37.91509],[126.88005,37.91615],[126.88024,37.91673],[126.88099,37.91897],[126.88103,37.91897],[126.88239,37.91893],[126.88672,37.91923],[126.88754,37.91938],[126.88821,37.92006],[126.8885,37.92034],[126.89123,37.92302],[126.89434,37.92503],[126.89765,37.9267],[126.89966,37.92696],[126.90035,37.92705],[126.90076,37.9271],[126.901,37.92682],[126.90316,37.92424],[126.90355,37.92317],[126.90554,37.92134],[126.90633,37.92108],[126.90722,37.92079],[126.90737,37.91777],[126.9096,37.91225],[126.9102,37.91153],[126.91081,37.91123],[126.91185,37.91072],[126.9135,37.91065],[126.91379,37.91066],[126.91527,37.91068],[126.91723,37.90748],[126.92545,37.9016],[126.92924,37.89972],[126.9324,37.89889],[126.93425,37.8991],[126.93623,37.89882],[126.93869,37.89547],[126.93989,37.89345],[126.9401,37.8931],[126.94237,37.89185],[126.94253,37.89177],[126.946,37.88846]]]]}},{"type":"Feature","properties":{"code":"41480262","name":"조리읍","parent":"41480"},"geometry":{"type":"MultiPolygon","coordinates":[[[[126.83039,37.78107],[126.8307,37.78098],[126.83087,37.78092],[126.83162,37.7809],[126.83291,37.78087],[126.83336,37.78088],[126.8336,37.7809],[126.83392,37.78098],[126.83446,37.78118],[126.83482,37.78132],[126.83526,37.78147],[126.83635,37.78174],[126.8374,37.78186],[126.83868,37.78179],[126.8389,37.78174],[126.83904,37.78168],[126.8391,37.78165],[126.83931,37.78149],[126.83964,37.7812],[126.84043,37.78043],[126.84047,37.78022],[126.84045,37.78015],[126.84042,37.78005],[126.84042,37.77998],[126.84043,37.77977],[126.84053,37.77932],[126.84122,37.77676],[126.84255,37.77301],[126.84284,37.77257],[126.8446,37.77049],[126.84513,37.76996],[126.84536,37.76977],[126.84557,37.76961],[126.84571,37.76949],[126.84589,37.76933],[126.84614,37.76907],[126.84614,37.76897],[126.84612,37.76735],[126.84533,37.76568],[126.84543,37.76446],[126.84577,37.76378],[126.84586,37.76367],[126.84809,37.76358],[126.84943,37.76396],[126.84947,37.76395],[126.85011,37.76371],[126.85052,37.76331],[126.85127,37.76037],[126.85105,37.75899],[126.85119,37.75819],[126.8524,37.75569],[126.85251,37.75555],[126.85256,37.75548],[126.85434,37.75347],[126.8578,37.74611],[126.85872,37.74025],[126.85726,37.73716],[126.85656,37.73572],[126.85655,37.73556],[126.85647,37.73457],[126.85582,37.73414],[126.8544,37.73366],[126.85377,37.73366],[126.85324,37.73366],[126.85313,37.73366],[126.85289,37.73372],[126.85258,37.7338],[126.85137,37.7341],[126.85109,37.73417],[126.84804,37.73369],[126.84125,37.7315],[126.84037,37.73019],[126.83993,37.72939],[126.83946,37.72867],[126.83942,37.72865],[126.83939,37.72863],[126.83932,37.72859],[126.83917,37.72852],[126.83708,37.72757],[126.83623,37.72748],[126.83563,37.72807],[126.83413,37.7269],[126.83404,37.72692],[126.83398,37.72694],[126.83365,37.72702],[126.83338,37.72718],[126.83282,37.72762],[126.83226,37.72822],[126.83175,37.72881],[126.82903,37.72787],[126.82831,37.72746],[126.82712,37.72713],[126.82608,37.727],[126.82575,37.72708],[126.82541,37.72715],[126.82448,37.72825],[126.82422,37.72856],[126.82396,37.72875],[126.82386,37.72883],[126.82303,37.72881],[126.81632,37.72492],[126.81485,37.72364],[126.81425,37.7235],[126.81399,37.72348],[126.81055,37.72517],[126.8069,37.72697],[126.80613,37.72751],[126.80525,37.72829],[126.80445,37.72911],[126.80385,37.7296],[126.80283,37.73038],[126.80134,37.7303],[126.80127,37.73039],[126.80099,37.73075],[126.801,37.73236],[126.80102,37.73455],[126.80076,37.73528],[126.79817,37.73716],[126.79726,37.73701],[126.79539,37.73621],[126.79474,37.73587],[126.79357,37.73497],[126.79399,37.7346],[126.79406,37.73454],[126.79438,37.73429],[126.79415,37.73355],[126.79395,37.73347],[126.78778,37.73314],[126.78424,37.73391],[126.78346,37.73421],[126.78175,37.73557],[126.78004,37.73723],[126.77995,37.73774],[126.77985,37.7395],[126.78024,37.74005],[126.78028,37.74011],[126.78043,37.74054],[126.78024,37.74112],[126.78021,37.74114],[126.77936,37.74182],[126.77847,37.74223],[126.77681,37.74285],[126.77616,37.74309],[126.7757,37.7443],[126.77555,37.74555],[126.7756,37.74597],[126.77574,37.74618],[126.77582,37.74618],[126.77668,37.74617],[126.77694,37.7462],[126.77699,37.74621],[126.77828,37.74643],[126.77858,37.74648],[126.78015,37.74694],[126.78048,37.74706],[126.7809,37.7472],[126.78382,37.74754],[126.78474,37.74752],[126.78723,37.74704],[126.78981,37.7466],[126.79254,37.74618],[126.79381,37.7464],[126.79472,37.74686],[126.79486,37.74697],[126.79535,37.74749],[126.79557,37.74774],[126.7957,37.74787],[126.79632,37.74831],[126.79707,37.74869],[126.79735,37.74882],[126.79939,37.74914],[126.79798,37.75078],[126.79759,37.75124],[126.79491,37.75477],[126.79577,37.75693],[126.79581,37.757],[126.79583,37.75705],[126.79626,37.75759],[126.79648,37.75769],[126.79652,37.75771],[126.79698,37.75792],[126.79722,37.75797],[126.79737,37.75801],[126.79974,37.7581],[126.8015,37.75811],[126.80153,37.75817],[126.80159,37.75829],[126.80268,37.76084],[126.80401,37.76205],[126.8042,37.76222],[126.80767,37.76582],[126.81158,37.77021],[126.8122,37.77465],[126.81233,37.77553],[126.81235,37.77618],[126.81236,37.77644],[126.81639,37.78061],[126.81693,37.78117],[126.81725,37.78148],[126.81748,37.78172],[126.81772,37.78186],[126.81804,37.78169],[126.82121,37.7781],[126.82181,37.77743],[126.82247,37.77712],[126.8236,37.77819],[126.8246,37.77977],[126.82572,37.78104],[126.82618,37.78112],[126.82628,37.78114],[126.82686,37.78089],[126.82728,37.78071],[126.82937,37.78013],[126.82945,37.78011],[126.82962,37.78029],[126.83003,37.7807],[126.83007,37.78073],[126.83036,37.78103],[126.83039,37.78107]]]]}},{"type":"Feature","properties":{"code":"41480310","name":"월롱면","parent":"41480"},"geometry":{"type":"MultiPolygon","coordinates":[[[[126.83319,37.80291],[126.83602,37.80198],[126.83739,37.80072],[126.8378,37.80035],[126.83787,37.80028],[126.83795,37.8002],[126.83811,37.80006],[126.8388,37.7994],[126.83843,37.79906],[126.83654,37.79824],[126.8345,37.79314],[126.83422,37.79282],[126.83403,37.79261],[126.83365,37.79218],[126.83319,37.79167],[126.83285,37.79128],[126.83254,37.79094],[126.83186,37.78947],[126.83052,37.78595],[126.83132,37.78478],[126.83237,37.78371],[126.83282,37.78244],[126.83285,37.78208],[126.83287,37.78175],[126.83039,37.78107],[126.83036,37.78103],[126.83007,37.78073],[126.83003,37.7807],[126.82962,37.78029],[126.82945,37.78011],[126.82937,37.78013],[126.82728,37.78071],[126.82686,37.78089],[126.82628,37.78114],[126.82618,37.78112],[126.82572,37.78104],[126.8246,37.77977],[126.8236,37.77819],[126.82247,37.77712],[126.82181,37.77743],[126.82121,37.7781],[126.81804,37.78169],[126.81772,37.78186],[126.81748,37.78172],[126.81725,37.78148],[126.81693,37.78117],[126.81639,37.78061],[126.81236,37.77644],[126.81235,37.77618],[126.81233,37.77553],[126.8122,37.77465],[126.81158,37.77021],[126.80767,37.76582],[126.8042,37.76222],[126.80401,37.76205],[126.80291,37.76227],[126.80269,37.76231],[126.79903,37.76257],[126.79841,37.76257],[126.79663,37.76292],[126.79604,37.76354],[126.79459,37.76507],[126.7943,37.76538],[126.79422,37.76553],[126.79418,37.76609],[126.79296,37.76809],[126.79223,37.76888],[126.79183,37.76914],[126.78977,37.77042],[126.78768,37.77082],[126.78741,37.77114],[126.78716,37.77133],[126.78691,37.7714],[126.78483,37.77187],[126.7832,37.77186],[126.78314,37.77193],[126.78247,37.77258],[126.78229,37.77442],[126.78188,37.7762],[126.781,37.77781],[126.78013,37.77848],[126.77943,37.7785],[126.77696,37.77879],[126.7743,37.77986],[126.77388,37.78006],[126.77378,37.78014],[126.77184,37.78155],[126.7691,37.78349],[126.76729,37.78463],[126.76517,37.78573],[126.76499,37.78623],[126.76476,37.78682],[126.76423,37.78807],[126.76277,37.79126],[126.76251,37.79139],[126.76202,37.79163],[126.76149,37.79252],[126.76221,37.79514],[126.76287,37.79839],[126.76259,37.79857],[126.76243,37.79866],[126.76215,37.79886],[126.76129,37.79947],[126.76074,37.8006],[126.76037,37.8009],[126.76026,37.80098],[126.75904,37.80195],[126.75797,37.80354],[126.75775,37.80394],[126.75774,37.804],[126.75765,37.80456],[126.75842,37.80643],[126.75926,37.80849],[126.75923,37.81001],[126.75876,37.8104],[126.75573,37.81189],[126.75255,37.81339],[126.75241,37.81556],[126.75305,37.81622],[126.7532,37.81638],[126.75344,37.81724],[126.75317,37.81781],[126.75178,37.82184],[126.75226,37.82274],[126.7527,37.82357],[126.75375,37.82488],[126.75451,37.82507],[126.75479,37.82513],[126.75672,37.82593],[126.75959,37.82846],[126.76036,37.82886],[126.76066,37.82986],[126.76062,37.83012],[126.7604,37.8313],[126.76012,37.83191],[126.76032,37.83276],[126.76078,37.83329],[126.76107,37.83328],[126.76254,37.83268],[126.76453,37.83192],[126.76603,37.83176],[126.76617,37.83181],[126.76749,37.83224],[126.77059,37.83387],[126.77349,37.83602],[126.77409,37.83647],[126.77803,37.8371],[126.78003,37.8373],[126.78297,37.83746],[126.78395,37.83609],[126.78338,37.83423],[126.78503,37.83205],[126.7859,37.83066],[126.78607,37.83038],[126.78651,37.82853],[126.78512,37.8256],[126.78352,37.82351],[126.78411,37.8161],[126.78475,37.81252],[126.78477,37.81247],[126.78637,37.80708],[126.78665,37.80636],[126.78732,37.80458],[126.78755,37.80395],[126.78792,37.8035],[126.78861,37.80265],[126.78893,37.80226],[126.78937,37.80215],[126.7894,37.80214],[126.79033,37.8019],[126.7931,37.80119],[126.79367,37.80104],[126.79539,37.80054],[126.79622,37.80016],[126.79676,37.7999],[126.79711,37.79973],[126.79796,37.79917],[126.79836,37.79892],[126.79914,37.79852],[126.79976,37.79835],[126.80087,37.79828],[126.80322,37.79825],[126.8071,37.79963],[126.80991,37.80062],[126.81019,37.80073],[126.8104,37.80081],[126.81071,37.80092],[126.81084,37.80097],[126.81314,37.80108],[126.81458,37.80094],[126.81833,37.80053],[126.82147,37.80011],[126.82346,37.80006],[126.82646,37.80044],[126.82696,37.80052],[126.82753,37.80062],[126.82828,37.80124],[126.82917,37.80198],[126.8303,37.80262],[126.83114,37.80291],[126.83319,37.80291]]]]}},{"type":"Feature","properties":{"code":"41480320","name":"탄현면","parent":"41480"},"geometry":{"type":"MultiPolygon","coordinates":[[[[126.75959,37.82846],[126.75672,37.82593],[126.75479,37.82513],[126.75451,37.82507],[126.75375,37.82488],[126.7527,37.82357],[126.75226,37.82274],[126.75178,37.82184],[126.75317,37.81781],[126.75344,37.81724],[126.7532,37.81638],[126.75305,37.81622],[126.75241,37.81556],[126.75255,37.81339],[126.75573,37.81189],[126.75876,37.8104],[126.75923,37.81001],[126.75926,37.80849],[126.75842,37.80643],[126.75765,37.80456],[126.75774,37.804],[126.75775,37.80394],[126.75797,37.80354],[126.75904,37.80195],[126.75796,37.80113],[126.75672,37.80021],[126.75458,37.79852],[126.75335,37.79692],[126.7521,37.79592],[126.75177,37.79589],[126.75136,37.79614],[126.7513,37.79682],[126.75108,37.80037],[126.74792,37.80065],[126.74703,37.80045],[126.747,37.80042],[126.74667,37.80009],[126.74403,37.79934],[126.74126,37.79881],[126.73686,37.79815],[126.73316,37.79825],[126.7278,37.79936],[126.72697,37.79926],[126.7269,37.79917],[126.72637,37.79859],[126.72605,37.79763],[126.7251,37.79562],[126.72301,37.79235],[126.7218,37.78836],[126.72181,37.788],[126.72183,37.78713],[126.72205,37.7863],[126.72223,37.78559],[126.7227,37.78378],[126.7221,37.78319],[126.72171,37.78281],[126.72164,37.78273],[126.72122,37.7822],[126.72093,37.78173],[126.72091,37.78169],[126.72086,37.78153],[126.72079,37.78133],[126.72076,37.78063],[126.72081,37.78039],[126.72091,37.78031],[126.72117,37.78008],[126.72127,37.78003],[126.72167,37.77985],[126.72379,37.77963],[126.72409,37.7793],[126.72471,37.77827],[126.72513,37.7775],[126.72519,37.77718],[126.7249,37.77576],[126.72451,37.77372],[126.7241,37.77083],[126.72569,37.76875],[126.72957,37.76347],[126.73141,37.76084],[126.73349,37.75822],[126.73358,37.75814],[126.73395,37.75783],[126.7346,37.75756],[126.73407,37.75676],[126.73364,37.75633],[126.73356,37.75626],[126.7329,37.7556],[126.73178,37.75495],[126.73149,37.75493],[126.73063,37.75488],[126.73004,37.75484],[126.72822,37.75533],[126.72575,37.75698],[126.72485,37.75751],[126.72414,37.75752],[126.72328,37.75728],[126.72241,37.75637],[126.7216,37.75496],[126.7213,37.75443],[126.71763,37.75333],[126.71645,37.75299],[126.71296,37.75279],[126.7118,37.75285],[126.71115,37.75288],[126.71132,37.75768],[126.71189,37.75856],[126.7113,37.75964],[126.71108,37.76003],[126.70975,37.76087],[126.70895,37.7607],[126.70686,37.76023],[126.70436,37.75848],[126.70427,37.75849],[126.70395,37.75855],[126.70337,37.75865],[126.70265,37.75998],[126.70196,37.76125],[126.70032,37.76169],[126.69782,37.76053],[126.697,37.75919],[126.69651,37.7583],[126.69634,37.75798],[126.69609,37.75752],[126.69547,37.75732],[126.69453,37.757],[126.69374,37.75709],[126.69286,37.75719],[126.69162,37.75733],[126.69004,37.7575],[126.68692,37.75694],[126.67617,37.755],[126.67464,37.76062],[126.67365,37.76427],[126.67355,37.76491],[126.67319,37.76734],[126.67289,37.76938],[126.66993,37.77772],[126.66875,37.7805],[126.667,37.78452],[126.66638,37.78595],[126.66454,37.78683],[126.66328,37.78743],[126.66216,37.79015],[126.66506,37.79864],[126.66554,37.80217],[126.66573,37.80582],[126.66605,37.81207],[126.66695,37.81409],[126.66698,37.81417],[126.66753,37.81542],[126.67164,37.82661],[126.67253,37.82862],[126.67327,37.82987],[126.67396,37.83105],[126.67176,37.83287],[126.68549,37.83859],[126.69131,37.84082],[126.69239,37.84124],[126.69632,37.84225],[126.70406,37.84425],[126.70779,37.84492],[126.71091,37.84453],[126.7111,37.84447],[126.71114,37.84445],[126.71321,37.8438],[126.71348,37.84369],[126.71466,37.8432],[126.71899,37.84318],[126.72304,37.84345],[126.72488,37.84358],[126.7279,37.84393],[126.72961,37.84413],[126.72964,37.84413],[126.73414,37.84513],[126.74239,37.84789],[126.74453,37.84531],[126.74639,37.84308],[126.74666,37.8422],[126.74646,37.84167],[126.74579,37.841],[126.74582,37.84025],[126.74583,37.83973],[126.74614,37.83852],[126.74771,37.83648],[126.75163,37.83272],[126.75355,37.831],[126.75728,37.82862],[126.75858,37.82853],[126.75959,37.82846]]]]}},{"type":"Feature","properties":{"code":"41480350","name":"광탄면","parent":"41480"},"geometry":{"type":"MultiPolygon","coordinates":[[[[126.90231,37.82472],[126.90251,37.82431],[126.90288,37.82355],[126.90562,37.82005],[126.90764,37.81862],[126.90917,37.81753],[126.91022,37.81648],[126.91013,37.81462],[126.90985,37.81411],[126.90872,37.81201],[126.90879,37.81051],[126.90993,37.80964],[126.91161,37.80826],[126.91164,37.80824],[126.91191,37.80615],[126.91138,37.80567],[126.90988,37.80465],[126.90851,37.80419],[126.90672,37.80359],[126.90555,37.8021],[126.9053,37.79664],[126.90389,37.79095],[126.90649,37.79097],[126.91127,37.79183],[126.91204,37.79208],[126.9132,37.7919],[126.9146,37.79168],[126.91952,37.79039],[126.92038,37.78939],[126.92128,37.78821],[126.92308,37.78716],[126.92721,37.78508],[126.92905,37.78628],[126.93166,37.78843],[126.93206,37.78876],[126.9321,37.78878],[126.93812,37.78694],[126.93797,37.78661],[126.93717,37.785],[126.93679,37.78425],[126.93517,37.78275],[126.93338,37.77994],[126.93443,37.77733],[126.93457,37.77705],[126.93563,37.77519],[126.93629,37.77421],[126.9328,37.77069],[126.93294,37.7703],[126.93391,37.76758],[126.93208,37.76488],[126.93173,37.76434],[126.9309,37.76307],[126.92869,37.75759],[126.92905,37.75727],[126.92973,37.75666],[126.93126,37.75567],[126.93165,37.75536],[126.932,37.75392],[126.93161,37.75207],[126.93155,37.75187],[126.93102,37.75085],[126.92971,37.74853],[126.92926,37.74902],[126.92919,37.74905],[126.92893,37.74918],[126.92839,37.74929],[126.92781,37.74928],[126.92636,37.74879],[126.92622,37.74868],[126.92617,37.74852],[126.92606,37.74841],[126.92593,37.7483],[126.92575,37.74818],[126.92555,37.74807],[126.92416,37.74767],[126.92183,37.74703],[126.91962,37.7472],[126.91885,37.74747],[126.9183,37.74766],[126.91699,37.7479],[126.91558,37.74812],[126.91533,37.74811],[126.91529,37.74811],[126.90956,37.74722],[126.90879,37.74696],[126.90874,37.74692],[126.90867,37.74686],[126.90862,37.74674],[126.90819,37.74567],[126.90818,37.74554],[126.90818,37.74542],[126.90822,37.74524],[126.90831,37.74508],[126.90845,37.74499],[126.90876,37.7449],[126.9089,37.74485],[126.90882,37.74475],[126.90871,37.74462],[126.90838,37.74434],[126.90569,37.74256],[126.90471,37.74203],[126.90387,37.74177],[126.90358,37.7416],[126.90088,37.73713],[126.90081,37.73686],[126.90118,37.73527],[126.90126,37.73516],[126.90161,37.73464],[126.90189,37.73429],[126.90217,37.73153],[126.90216,37.72843],[126.9017,37.72793],[126.90156,37.72782],[126.90147,37.72776],[126.89969,37.72689],[126.89927,37.72676],[126.8978,37.72668],[126.89732,37.72685],[126.89701,37.72696],[126.89469,37.72677],[126.89172,37.7253],[126.88923,37.72345],[126.88873,37.7228],[126.88819,37.72082],[126.88795,37.72045],[126.88692,37.71888],[126.88614,37.71845],[126.88466,37.7182],[126.88437,37.71866],[126.88425,37.71884],[126.8836,37.71939],[126.88353,37.7194],[126.8827,37.71931],[126.88327,37.71981],[126.88099,37.72616],[126.87971,37.72627],[126.87871,37.72632],[126.87713,37.72622],[126.87602,37.7255],[126.87511,37.72555],[126.87343,37.72614],[126.87285,37.72698],[126.87149,37.7293],[126.86765,37.72959],[126.86586,37.73159],[126.86495,37.73254],[126.86454,37.73259],[126.86424,37.7326],[126.86253,37.73265],[126.86225,37.73252],[126.86222,37.7325],[126.86094,37.73268],[126.85893,37.7334],[126.85891,37.73407],[126.85656,37.73572],[126.85726,37.73716],[126.85872,37.74025],[126.8578,37.74611],[126.85434,37.75347],[126.85256,37.75548],[126.85251,37.75555],[126.8524,37.75569],[126.85119,37.75819],[126.85105,37.75899],[126.85127,37.76037],[126.85052,37.76331],[126.85011,37.76371],[126.84947,37.76395],[126.84943,37.76396],[126.84809,37.76358],[126.84586,37.76367],[126.84577,37.76378],[126.84543,37.76446],[126.84533,37.76568],[126.84612,37.76735],[126.84614,37.76897],[126.84614,37.76907],[126.84589,37.76933],[126.84571,37.76949],[126.84557,37.76961],[126.84536,37.76977],[126.84513,37.76996],[126.8446,37.77049],[126.84284,37.77257],[126.84255,37.77301],[126.84122,37.77676],[126.84053,37.77932],[126.84043,37.77977],[126.84042,37.77998],[126.84042,37.78005],[126.84045,37.78015],[126.84047,37.78022],[126.84043,37.78043],[126.83964,37.7812],[126.83931,37.78149],[126.8391,37.78165],[126.83904,37.78168],[126.8389,37.78174],[126.83868,37.78179],[126.8374,37.78186],[126.83635,37.78174],[126.83526,37.78147],[126.83482,37.78132],[126.83446,37.78118],[126.83392,37.78098],[126.8336,37.7809],[126.83336,37.78088],[126.83291,37.78087],[126.83162,37.7809],[126.83087,37.78092],[126.8307,37.78098],[126.83039,37.78107],[126.83287,37.78175],[126.83285,37.78208],[126.83282,37.78244],[126.83237,37.78371],[126.83132,37.78478],[126.83052,37.78595],[126.83186,37.78947],[126.83254,37.79094],[126.83285,37.79128],[126.83319,37.79167],[126.83365,37.79218],[126.83403,37.79261],[126.83422,37.79282],[126.8345,37.79314],[126.83654,37.79824],[126.83843,37.79906],[126.8388,37.7994],[126.83811,37.80006],[126.83795,37.8002],[126.83787,37.80028],[126.8378,37.80035],[126.83739,37.80072],[126.83602,37.80198],[126.83319,37.80291],[126.83434,37.80356],[126.83553,37.80423],[126.83556,37.8043],[126.83568,37.80456],[126.8362,37.80565],[126.83655,37.80708],[126.83671,37.80775],[126.83674,37.80788],[126.83715,37.80955],[126.83742,37.81063],[126.84086,37.81357],[126.84346,37.81579],[126.84474,37.8168],[126.84744,37.81734],[126.85348,37.81808],[126.85902,37.81926],[126.85951,37.82014],[126.8611,37.81745],[126.86406,37.81802],[126.86592,37.81759],[126.8662,37.8174],[126.86719,37.81672],[126.86808,37.81661],[126.86971,37.81642],[126.87339,37.81603],[126.87363,37.81644],[126.87404,37.81712],[126.87619,37.81627],[126.87876,37.81525],[126.88407,37.82091],[126.88665,37.82374],[126.88582,37.82657],[126.88905,37.82644],[126.88953,37.82633],[126.8907,37.82605],[126.89361,37.82653],[126.89723,37.82632],[126.89917,37.82618],[126.89964,37.82615],[126.90231,37.82472]]]]}},{"type":"Feature","properties":{"code":"41480360","name":"파평면","parent":"41480"},"geometry":{"type":"MultiPolygon","coordinates":[[[[126.90076,37.9271],[126.90035,37.92705],[126.89966,37.92696],[126.89765,37.9267],[126.89434,37.92503],[126.89123,37.92302],[126.8885,37.92034],[126.88821,37.92006],[126.88754,37.91938],[126.88672,37.91923],[126.88239,37.91893],[126.88103,37.91897],[126.88099,37.91897],[126.88024,37.91673],[126.88005,37.91615],[126.87986,37.91509],[126.88062,37.91353],[126.88081,37.91253],[126.88037,37.91202],[126.87873,37.91117],[126.87377,37.90647],[126.86989,37.90345],[126.86742,37.90203],[126.86616,37.90108],[126.86608,37.90102],[126.86557,37.90032],[126.8657,37.90003],[126.86596,37.89946],[126.86691,37.89765],[126.86801,37.89575],[126.86894,37.89406],[126.86966,37.88853],[126.8696,37.88773],[126.86929,37.88732],[126.86851,37.88704],[126.86833,37.88697],[126.86459,37.8847],[126.86046,37.8793],[126.85875,37.8788],[126.85786,37.87849],[126.85697,37.87738],[126.85691,37.87703],[126.85684,37.8767],[126.85672,37.87607],[126.85564,37.87552],[126.85448,37.87552],[126.85418,37.87552],[126.85291,37.87622],[126.85202,37.87702],[126.85055,37.87702],[126.85039,37.87697],[126.84954,37.87672],[126.84951,37.87669],[126.84677,37.87757],[126.84605,37.87911],[126.84542,37.87972],[126.84299,37.88122],[126.84265,37.88152],[126.84246,37.88169],[126.84209,37.88246],[126.84167,37.8841],[126.84165,37.88417],[126.84161,37.88434],[126.84099,37.88475],[126.84003,37.88472],[126.83935,37.8845],[126.8392,37.88445],[126.8362,37.88346],[126.83065,37.88247],[126.8274,37.88216],[126.82715,37.88201],[126.8269,37.88187],[126.82678,37.88159],[126.82699,37.88008],[126.82678,37.87939],[126.82662,37.87889],[126.82353,37.87565],[126.82261,37.87493],[126.82125,37.87409],[126.81652,37.8725],[126.81381,37.87198],[126.81246,37.87199],[126.81233,37.87199],[126.81133,37.87215],[126.81112,37.87218],[126.81116,37.87274],[126.81131,37.87489],[126.81183,37.87544],[126.81208,37.87606],[126.81132,37.87778],[126.8092,37.87811],[126.80712,37.87822],[126.80542,37.87832],[126.80513,37.87842],[126.80497,37.87848],[126.80407,37.87932],[126.80353,37.87991],[126.80342,37.88003],[126.80331,37.88013],[126.8032,37.88021],[126.80206,37.87952],[126.80019,37.87988],[126.80008,37.87992],[126.79865,37.88058],[126.79831,37.88087],[126.79806,37.88125],[126.79757,37.88197],[126.797,37.88281],[126.79683,37.88348],[126.79688,37.88388],[126.79693,37.8842],[126.79772,37.88508],[126.79908,37.88574],[126.79985,37.88611],[126.8,37.88679],[126.8,37.88683],[126.79999,37.8873],[126.79982,37.88787],[126.79954,37.88887],[126.7993,37.88971],[126.79877,37.89226],[126.79866,37.89282],[126.8052,37.89122],[126.8071,37.89127],[126.80745,37.89145],[126.81167,37.89369],[126.81204,37.89404],[126.81229,37.89427],[126.81453,37.89637],[126.81833,37.90035],[126.82122,37.90587],[126.82243,37.90818],[126.82327,37.90978],[126.82565,37.91458],[126.82568,37.91462],[126.827,37.9182],[126.82721,37.9196],[126.828,37.925],[126.82908,37.93132],[126.82937,37.93298],[126.82944,37.9334],[126.8297,37.93493],[126.83058,37.93927],[126.8306,37.93937],[126.83071,37.93979],[126.83149,37.9429],[126.83213,37.94547],[126.83266,37.94758],[126.83246,37.95222],[126.83328,37.95564],[126.83366,37.95635],[126.83741,37.95454],[126.839,37.9545],[126.84031,37.95447],[126.84119,37.95422],[126.8419,37.95402],[126.84209,37.95397],[126.84265,37.95375],[126.84277,37.95368],[126.8429,37.9536],[126.84294,37.95357],[126.84492,37.95233],[126.84498,37.9523],[126.84545,37.952],[126.84665,37.95057],[126.84755,37.94948],[126.84868,37.94833],[126.84894,37.94816],[126.84998,37.94748],[126.85019,37.94742],[126.85718,37.9477],[126.85858,37.94784],[126.85867,37.94785],[126.85871,37.94786],[126.86125,37.94844],[126.86143,37.94848],[126.86459,37.94913],[126.87172,37.94778],[126.87214,37.94762],[126.87228,37.94756],[126.87236,37.94753],[126.87631,37.94512],[126.88023,37.94338],[126.8803,37.94335],[126.88048,37.94328],[126.88057,37.94326],[126.88095,37.94319],[126.88121,37.94315],[126.88394,37.94288],[126.88529,37.94282],[126.88681,37.94276],[126.88897,37.94256],[126.89139,37.94176],[126.89166,37.9416],[126.89215,37.9413],[126.89334,37.9411],[126.89387,37.941],[126.89778,37.94125],[126.90194,37.94169],[126.90256,37.94122],[126.90291,37.94096],[126.90324,37.94053],[126.90456,37.9388],[126.90584,37.93688],[126.90635,37.93587],[126.90639,37.93562],[126.90654,37.93472],[126.90502,37.93169],[126.90387,37.93008],[126.9026,37.92847],[126.90076,37.9271]]]]}},{"type":"Feature","properties":{"code":"41480370","name":"적성면","parent":"41480"},"geometry":{"type":"MultiPolygon","coordinates":[[[[126.99215,38.00337],[126.99609,38.0014],[126.99789,37.99963],[126.99865,37.99865],[126.99876,37.99853],[127.00099,37.99625],[127.00151,37.99603],[127.00552,37.99451],[127.0103,37.99323],[127.0116,37.9933],[127.01255,37.99351],[127.01315,37.99352],[127.01362,37.99334],[127.01487,37.9926],[127.01528,37.99231],[127.01556,37.99175],[127.01692,37.98738],[127.01704,37.98693],[127.01682,37.98647],[127.01673,37.98627],[127.0159,37.98578],[127.01521,37.9855],[127.01491,37.98543],[127.01457,37.98535],[127.01353,37.98496],[127.01343,37.98492],[127.0126,37.98457],[127.01234,37.98372],[127.01224,37.98316],[127.01224,37.98236],[127.01214,37.98072],[127.01213,37.98068],[127.01213,37.98063],[127.01129,37.97612],[127.01052,37.9754],[127.00853,37.97384],[127.00725,37.97344],[127.00644,37.97325],[127.00544,37.97318],[127.00502,37.97321],[127.00466,37.97323],[127.00256,37.97353],[127.00197,37.97363],[127.00148,37.97382],[127.00078,37.97393],[126.99732,37.97365],[126.99635,37.9732],[126.99463,37.97115],[126.99122,37.96694],[126.98952,37.96377],[126.98878,37.96079],[126.98867,37.96048],[126.98852,37.96009],[126.98793,37.95962],[126.98704,37.95911],[126.98661,37.95897],[126.98584,37.95872],[126.98501,37.95831],[126.98279,37.95718],[126.98274,37.95715],[126.98176,37.95659],[126.98113,37.95614],[126.98064,37.95573],[126.98011,37.95519],[126.97912,37.95408],[126.97816,37.95163],[126.97765,37.94956],[126.97742,37.94861],[126.97737,37.94744],[126.97743,37.9471],[126.97748,37.94676],[126.97748,37.94641],[126.97744,37.94614],[126.97721,37.94553],[126.97621,37.94431],[126.9746,37.94279],[126.97336,37.94203],[126.97032,37.94203],[126.96689,37.93934],[126.96554,37.93913],[126.96482,37.93902],[126.96443,37.93831],[126.9643,37.93698],[126.96409,37.93294],[126.96505,37.92824],[126.96305,37.92708],[126.96184,37.92527],[126.96155,37.92428],[126.96185,37.92336],[126.962,37.92291],[126.96002,37.92016],[126.95918,37.92072],[126.95883,37.92096],[126.95717,37.92227],[126.95633,37.92234],[126.9496,37.91897],[126.94961,37.91887],[126.94961,37.91883],[126.94963,37.91857],[126.94965,37.91826],[126.95056,37.9168],[126.95252,37.91494],[126.95311,37.91438],[126.95473,37.91247],[126.95347,37.90946],[126.95316,37.90871],[126.95084,37.90721],[126.95007,37.90635],[126.94918,37.90535],[126.94762,37.90257],[126.94673,37.89964],[126.94681,37.8994],[126.94696,37.89893],[126.94711,37.89844],[126.94811,37.89754],[126.94854,37.89675],[126.94818,37.89376],[126.94748,37.89237],[126.946,37.88846],[126.94253,37.89177],[126.94237,37.89185],[126.9401,37.8931],[126.93989,37.89345],[126.93869,37.89547],[126.93623,37.89882],[126.93425,37.8991],[126.9324,37.89889],[126.92924,37.89972],[126.92545,37.9016],[126.91723,37.90748],[126.91527,37.91068],[126.91379,37.91066],[126.9135,37.91065],[126.91185,37.91072],[126.91081,37.91123],[126.9102,37.91153],[126.9096,37.91225],[126.90737,37.91777],[126.90722,37.92079],[126.90633,37.92108],[126.90554,37.92134],[126.90355,37.92317],[126.90316,37.92424],[126.901,37.92682],[126.90076,37.9271],[126.9026,37.92847],[126.90387,37.93008],[126.90502,37.93169],[126.90654,37.93472],[126.90639,37.93562],[126.90635,37.93587],[126.90584,37.93688],[126.90456,37.9388],[126.90324,37.94053],[126.90291,37.94096],[126.90256,37.94122],[126.90194,37.94169],[126.89778,37.94125],[126.89387,37.941],[126.89334,37.9411],[126.89215,37.9413],[126.89166,37.9416],[126.89139,37.94176],[126.88897,37.94256],[126.88681,37.94276],[126.88529,37.94282],[126.88394,37.94288],[126.88121,37.94315],[126.88095,37.94319],[126.88057,37.94326],[126.88048,37.94328],[126.8803,37.94335],[126.88023,37.94338],[126.87631,37.94512],[126.87236,37.94753],[126.87228,37.94756],[126.87214,37.94762],[126.87172,37.94778],[126.86459,37.94913],[126.86143,37.94848],[126.86125,37.94844],[126.85871,37.94786],[126.85867,37.94785],[126.85858,37.94784],[126.85718,37.9477],[126.85019,37.94742],[126.84998,37.94748],[126.84894,37.94816],[126.84868,37.94833],[126.84755,37.94948],[126.84665,37.95057],[126.84545,37.952],[126.84498,37.9523],[126.84492,37.95233],[126.84294,37.95357],[126.8429,37.9536],[126.84277,37.95368],[126.84265,37.95375],[126.84209,37.95397],[126.8419,37.95402],[126.84119,37.95422],[126.84031,37.95447],[126.839,37.9545],[126.83741,37.95454],[126.83366,37.95635],[126.83579,37.95984],[126.83578,37.96374],[126.83578,37.96379],[126.83594,37.96403],[126.83663,37.9646],[126.83678,37.96473],[126.83692,37.96678],[126.83701,37.96809],[126.83741,37.9714],[126.83781,37.97331],[126.83811,37.97458],[126.83881,37.97762],[126.84023,37.98095],[126.8403,37.98103],[126.84061,37.98143],[126.84181,37.98293],[126.84262,37.98371],[126.84398,37.98501],[126.84625,37.98625],[126.84704,37.98661],[126.84738,37.98677],[126.84793,37.98698],[126.84809,37.98704],[126.85027,37.98744],[126.85165,37.98751],[126.85277,37.98756],[126.85356,37.98744],[126.85494,37.98724],[126.8565,37.98604],[126.85727,37.98524],[126.85821,37.98428],[126.86256,37.98013],[126.86597,37.97736],[126.8674,37.97585],[126.86819,37.97497],[126.86855,37.97457],[126.86966,37.97336],[126.87109,37.97184],[126.87184,37.97115],[126.8723,37.97088],[126.8729,37.97053],[126.87874,37.96767],[126.88053,37.96709],[126.88137,37.96682],[126.88276,37.96656],[126.88351,37.96642],[126.88548,37.96615],[126.88645,37.96615],[126.88776,37.96614],[126.88994,37.96663],[126.89051,37.96676],[126.89152,37.96707],[126.89346,37.96803],[126.89436,37.96881],[126.89496,37.96985],[126.89546,37.9711],[126.89543,37.9722],[126.89529,37.97265],[126.89514,37.97311],[126.89479,37.97409],[126.89463,37.97438],[126.89402,37.97553],[126.89379,37.97595],[126.89363,37.97623],[126.89324,37.97707],[126.89304,37.97749],[126.89267,37.97828],[126.89198,37.98084],[126.89157,37.98248],[126.89138,37.9841],[126.89134,37.98454],[126.89124,37.98556],[126.89122,37.98617],[126.89118,37.98707],[126.89116,37.98798],[126.89116,37.98805],[126.89116,37.98819],[126.89133,37.99012],[126.89159,37.99154],[126.89174,37.99238],[126.89314,37.99517],[126.89415,37.99715],[126.8943,37.99762],[126.89428,37.99804],[126.89396,37.99897],[126.89469,37.99945],[126.89546,37.99937],[126.8964,37.99832],[126.89688,37.99797],[126.89735,37.99768],[126.89824,37.99714],[126.90034,37.99642],[126.90067,37.99631],[126.90484,37.99442],[126.90706,37.99311],[126.90808,37.99251],[126.91098,37.99106],[126.91275,37.9902],[126.92163,37.98593],[126.92707,37.98376],[126.92783,37.98345],[126.9317,37.98228],[126.93222,37.9822],[126.93413,37.98191],[126.9347,37.98184],[126.93511,37.98179],[126.93568,37.98173],[126.9372,37.98171],[126.93738,37.98174],[126.93921,37.98208],[126.94015,37.98225],[126.94091,37.98239],[126.94233,37.98297],[126.94379,37.98356],[126.94743,37.98538],[126.9502,37.98681],[126.95246,37.988],[126.95341,37.98872],[126.95487,37.99],[126.95659,37.99172],[126.95661,37.99174],[126.95663,37.99177],[126.95694,37.99215],[126.95834,37.99394],[126.96166,37.99765],[126.96844,38.00265],[126.96957,38.00333],[126.97866,38.00366],[126.98208,38.00469],[126.98542,38.00331],[126.98581,38.00314],[126.98758,38.00324],[126.99077,38.0034],[126.99215,38.00337]]]]}},{"type":"Feature","properties":{"code":"41480520","name":"금촌2동","parent":"41480"},"geometry":{"type":"MultiPolygon","coordinates":[[[[126.79939,37.74914],[126.79735,37.74882],[126.79707,37.74869],[126.79632,37.74831],[126.7957,37.74787],[126.79557,37.74774],[126.79535,37.74749],[126.79486,37.74697],[126.79472,37.74686],[126.79381,37.7464],[126.79254,37.74618],[126.78981,37.7466],[126.78723,37.74704],[126.78474,37.74752],[126.78382,37.74754],[126.7809,37.7472],[126.78048,37.74706],[126.78015,37.74694],[126.77858,37.74648],[126.77828,37.74643],[126.77699,37.74621],[126.77694,37.7462],[126.77668,37.74617],[126.77582,37.74618],[126.77574,37.74618],[126.77239,37.74646],[126.76788,37.74763],[126.76627,37.74668],[126.76478,37.74654],[126.76256,37.74783],[126.76141,37.749],[126.76108,37.74933],[126.76084,37.74989],[126.76015,37.75152],[126.75988,37.75216],[126.76016,37.75323],[126.76059,37.75364],[126.76121,37.75423],[126.76143,37.75444],[126.7622,37.7557],[126.76253,37.75626],[126.76224,37.75805],[126.76224,37.75965],[126.76476,37.75852],[126.76531,37.75775],[126.76539,37.75775],[126.76863,37.7577],[126.77362,37.75727],[126.77362,37.75647],[126.77362,37.75533],[126.77368,37.75407],[126.78036,37.75411],[126.78303,37.75429],[126.78427,37.75408],[126.78661,37.75326],[126.78768,37.75289],[126.79624,37.74994],[126.79939,37.74914]]]]}},{"type":"Feature","properties":{"code":"41480510","name":"금촌1동","parent":"41480"},"geometry":{"type":"MultiPolygon","coordinates":[[[[126.80401,37.76205],[126.80268,37.76084],[126.80159,37.75829],[126.80153,37.75817],[126.8015,37.75811],[126.79974,37.7581],[126.79737,37.75801],[126.79722,37.75797],[126.79698,37.75792],[126.79652,37.75771],[126.79648,37.75769],[126.79626,37.75759],[126.79583,37.75705],[126.79581,37.757],[126.79577,37.75693],[126.79491,37.75477],[126.79759,37.75124],[126.79798,37.75078],[126.79939,37.74914],[126.79624,37.74994],[126.78768,37.75289],[126.78661,37.75326],[126.78427,37.75408],[126.78303,37.75429],[126.78036,37.75411],[126.77368,37.75407],[126.77362,37.75533],[126.77362,37.75647],[126.77362,37.75727],[126.76863,37.7577],[126.76539,37.75775],[126.76531,37.75775],[126.76476,37.75852],[126.76224,37.75965],[126.75805,37.7627],[126.7589,37.76325],[126.76054,37.76431],[126.76435,37.76551],[126.76452,37.76555],[126.76475,37.76559],[126.76523,37.76554],[126.7668,37.76504],[126.76724,37.76493],[126.76776,37.76495],[126.76796,37.76496],[126.76821,37.76497],[126.77145,37.76543],[126.77168,37.76553],[126.77204,37.76567],[126.77352,37.76628],[126.77418,37.76655],[126.77528,37.76702],[126.777,37.76763],[126.77745,37.76778],[126.77781,37.7679],[126.77922,37.76817],[126.77985,37.76796],[126.78242,37.76857],[126.7831,37.76878],[126.78327,37.76883],[126.78334,37.76886],[126.78385,37.76903],[126.78693,37.77019],[126.78729,37.77034],[126.78744,37.77049],[126.78754,37.7706],[126.78766,37.7708],[126.78768,37.77082],[126.78977,37.77042],[126.79183,37.76914],[126.79223,37.76888],[126.79296,37.76809],[126.79418,37.76609],[126.79422,37.76553],[126.7943,37.76538],[126.79459,37.76507],[126.79604,37.76354],[126.79663,37.76292],[126.79841,37.76257],[126.79903,37.76257],[126.80269,37.76231],[126.80291,37.76227],[126.80401,37.76205]]]]}},{"type":"Feature","properties":{"code":"41480530","name":"금촌3동","parent":"41480"},"geometry":{"type":"MultiPolygon","coordinates":[[[[126.78768,37.77082],[126.78766,37.7708],[126.78754,37.7706],[126.78744,37.77049],[126.78729,37.77034],[126.78693,37.77019],[126.78385,37.76903],[126.78334,37.76886],[126.78327,37.76883],[126.7831,37.76878],[126.78242,37.76857],[126.77985,37.76796],[126.77922,37.76817],[126.77781,37.7679],[126.77745,37.76778],[126.777,37.76763],[126.77528,37.76702],[126.77418,37.76655],[126.77352,37.76628],[126.77204,37.76567],[126.77168,37.76553],[126.77145,37.76543],[126.76821,37.76497],[126.76796,37.76496],[126.76776,37.76495],[126.76724,37.76493],[126.7668,37.76504],[126.76523,37.76554],[126.76475,37.76559],[126.76452,37.76555],[126.76435,37.76551],[126.76054,37.76431],[126.7589,37.76325],[126.75805,37.7627],[126.75661,37.76305],[126.75539,37.76334],[126.75404,37.76367],[126.75011,37.76494],[126.7483,37.76573],[126.74819,37.76574],[126.74792,37.76577],[126.7473,37.76583],[126.74676,37.76546],[126.74687,37.76431],[126.7455,37.76339],[126.74116,37.76093],[126.74075,37.76093],[126.74049,37.76093],[126.73927,37.76105],[126.73898,37.7612],[126.73869,37.76134],[126.73832,37.76153],[126.73732,37.76194],[126.73646,37.7622],[126.73598,37.7622],[126.73561,37.76191],[126.73556,37.76129],[126.73554,37.76111],[126.73553,37.76097],[126.73553,37.76038],[126.73553,37.76017],[126.73526,37.7592],[126.73511,37.75872],[126.73493,37.75816],[126.7346,37.75756],[126.73395,37.75783],[126.73358,37.75814],[126.73349,37.75822],[126.73141,37.76084],[126.72957,37.76347],[126.72569,37.76875],[126.7241,37.77083],[126.72451,37.77372],[126.7249,37.77576],[126.72519,37.77718],[126.72513,37.7775],[126.72471,37.77827],[126.72409,37.7793],[126.72379,37.77963],[126.72167,37.77985],[126.72127,37.78003],[126.72117,37.78008],[126.72091,37.78031],[126.72081,37.78039],[126.72076,37.78063],[126.72079,37.78133],[126.72086,37.78153],[126.72091,37.78169],[126.72093,37.78173],[126.72122,37.7822],[126.72164,37.78273],[126.72171,37.78281],[126.7221,37.78319],[126.7227,37.78378],[126.72223,37.78559],[126.72205,37.7863],[126.72183,37.78713],[126.72181,37.788],[126.7218,37.78836],[126.72301,37.79235],[126.7251,37.79562],[126.72605,37.79763],[126.72637,37.79859],[126.7269,37.79917],[126.72697,37.79926],[126.7278,37.79936],[126.73316,37.79825],[126.73686,37.79815],[126.74126,37.79881],[126.74403,37.79934],[126.74667,37.80009],[126.747,37.80042],[126.74703,37.80045],[126.74792,37.80065],[126.75108,37.80037],[126.7513,37.79682],[126.75136,37.79614],[126.75177,37.79589],[126.7521,37.79592],[126.75335,37.79692],[126.75458,37.79852],[126.75672,37.80021],[126.75796,37.80113],[126.75904,37.80195],[126.76026,37.80098],[126.76037,37.8009],[126.76074,37.8006],[126.76129,37.79947],[126.76215,37.79886],[126.76243,37.79866],[126.76259,37.79857],[126.76287,37.79839],[126.76221,37.79514],[126.76149,37.79252],[126.76202,37.79163],[126.76251,37.79139],[126.76277,37.79126],[126.76423,37.78807],[126.76476,37.78682],[126.76499,37.78623],[126.76517,37.78573],[126.76729,37.78463],[126.7691,37.78349],[126.77184,37.78155],[126.77378,37.78014],[126.77388,37.78006],[126.7743,37.77986],[126.77696,37.77879],[126.77943,37.7785],[126.78013,37.77848],[126.781,37.77781],[126.78188,37.7762],[126.78229,37.77442],[126.78247,37.77258],[126.78314,37.77193],[126.7832,37.77186],[126.78483,37.77187],[126.78691,37.7714],[126.78716,37.77133],[126.78741,37.77114],[126.78768,37.77082]]]]}},{"type":"Feature","properties":{"code":"41480590","name":"운정5동","parent":"41480"},"geometry":{"type":"MultiPolygon","coordinates":[[[[126.70497,37.71561],[126.70493,37.71761],[126.69967,37.71916],[126.69933,37.7212],[126.69963,37.72237],[126.70157,37.72288],[126.7024,37.72351],[126.70312,37.72485],[126.70374,37.72593],[126.70435,37.72698],[126.70576,37.72782],[126.70748,37.72942],[126.70835,37.73071],[126.71075,37.73252],[126.71205,37.73353],[126.7136,37.73533],[126.71593,37.73805],[126.71697,37.73889],[126.71855,37.73903],[126.71975,37.73904],[126.72096,37.73925],[126.7254,37.7412],[126.72639,37.74158],[126.72669,37.74292],[126.72726,37.7435],[126.72783,37.74434],[126.72956,37.74464],[126.73045,37.7449],[126.73112,37.74544],[126.73191,37.74553],[126.7328,37.74579],[126.73389,37.74688],[126.73483,37.74747],[126.73555,37.74797],[126.73639,37.74831],[126.73734,37.74823],[126.73765,37.74786],[126.73766,37.7474],[126.73704,37.74673],[126.73656,37.74665],[126.73567,37.74681],[126.73505,37.74568],[126.73475,37.74476],[126.73523,37.74368],[126.73587,37.74268],[126.73669,37.73932],[126.73723,37.73844],[126.73761,37.73716],[126.73764,37.736],[126.73386,37.7347],[126.73335,37.73446],[126.72958,37.73269],[126.7274,37.73138],[126.72688,37.73107],[126.72439,37.7294],[126.72473,37.72712],[126.72484,37.71612],[126.72015,37.7163],[126.71873,37.71633],[126.71648,37.71615],[126.71462,37.71595],[126.70497,37.71561]]]]}},{"type":"Feature","properties":{"code":"41480550","name":"운정1동","parent":"41480"},"geometry":{"type":"MultiPolygon","coordinates":[[[[126.76924,37.7452],[126.7702,37.74355],[126.77095,37.74172],[126.77199,37.7395],[126.77211,37.73839],[126.77202,37.73716],[126.77089,37.73422],[126.7684,37.72869],[126.76709,37.72618],[126.76642,37.7248],[126.76502,37.72103],[126.76317,37.71663],[126.76091,37.71709],[126.75994,37.71715],[126.7589,37.71721],[126.75868,37.71721],[126.75801,37.71721],[126.75608,37.71719],[126.75512,37.71714],[126.75468,37.71712],[126.75313,37.71688],[126.75309,37.71687],[126.75253,37.71681],[126.75086,37.71665],[126.75035,37.71664],[126.74872,37.71676],[126.7486,37.71677],[126.74826,37.71685],[126.74811,37.71689],[126.74681,37.71722],[126.74727,37.71877],[126.74798,37.72048],[126.74829,37.72095],[126.74909,37.72218],[126.7498,37.72323],[126.75013,37.72372],[126.75085,37.72478],[126.75147,37.72588],[126.75152,37.72606],[126.75182,37.72734],[126.75184,37.72802],[126.75173,37.72966],[126.7517,37.72978],[126.75135,37.73103],[126.75076,37.73205],[126.75011,37.73319],[126.74877,37.73525],[126.74716,37.73426],[126.74647,37.73306],[126.74357,37.73324],[126.74215,37.73301],[126.74169,37.73386],[126.74165,37.73395],[126.7415,37.73432],[126.74104,37.73694],[126.74401,37.73795],[126.74599,37.73859],[126.74673,37.73883],[126.7471,37.73896],[126.74863,37.73954],[126.74967,37.74005],[126.75088,37.74066],[126.75218,37.74144],[126.75251,37.74164],[126.75518,37.74325],[126.7556,37.74348],[126.75658,37.74405],[126.75798,37.74485],[126.75825,37.745],[126.75943,37.7453],[126.76068,37.74541],[126.76593,37.74528],[126.76924,37.7452]]]]}},{"type":"Feature","properties":{"code":"41480560","name":"운정2동","parent":"41480"},"geometry":{"type":"MultiPolygon","coordinates":[[[[126.74104,37.73694],[126.7415,37.73432],[126.74165,37.73395],[126.74169,37.73386],[126.74215,37.73301],[126.74357,37.73324],[126.74647,37.73306],[126.74716,37.73426],[126.74877,37.73525],[126.75011,37.73319],[126.75076,37.73205],[126.75135,37.73103],[126.7517,37.72978],[126.75173,37.72966],[126.75184,37.72802],[126.75182,37.72734],[126.75152,37.72606],[126.75147,37.72588],[126.75085,37.72478],[126.75013,37.72372],[126.7498,37.72323],[126.74909,37.72218],[126.74829,37.72095],[126.74798,37.72048],[126.74727,37.71877],[126.74681,37.71722],[126.7449,37.71778],[126.74338,37.71809],[126.74106,37.71831],[126.7392,37.71835],[126.73697,37.71819],[126.73189,37.71699],[126.73193,37.72357],[126.7309,37.72578],[126.72983,37.72718],[126.72688,37.73107],[126.7274,37.73138],[126.72958,37.73269],[126.73335,37.73446],[126.73386,37.7347],[126.73764,37.736],[126.73931,37.73635],[126.74104,37.73694]]]]}},{"type":"Feature","properties":{"code":"41480570","name":"운정3동","parent":"41480"},"geometry":{"type":"MultiPolygon","coordinates":[[[[126.76317,37.71663],[126.7625,37.71506],[126.76177,37.71338],[126.76134,37.71195],[126.76111,37.71032],[126.76113,37.70399],[126.76008,37.70333],[126.75883,37.70364],[126.7579,37.70418],[126.75553,37.70489],[126.75404,37.70473],[126.75345,37.70429],[126.7521,37.70385],[126.75059,37.70348],[126.75001,37.70337],[126.74923,37.70324],[126.74832,37.70316],[126.74818,37.70315],[126.74802,37.70314],[126.74775,37.70327],[126.74695,37.70359],[126.74663,37.70369],[126.74616,37.70383],[126.74388,37.70443],[126.74017,37.70505],[126.73925,37.70503],[126.73613,37.70463],[126.73473,37.70488],[126.72989,37.70494],[126.72798,37.70704],[126.73025,37.7079],[126.73038,37.70821],[126.73098,37.71007],[126.73145,37.71195],[126.73174,37.71479],[126.73189,37.71699],[126.73697,37.71819],[126.7392,37.71835],[126.74106,37.71831],[126.74338,37.71809],[126.7449,37.71778],[126.74681,37.71722],[126.74811,37.71689],[126.74826,37.71685],[126.7486,37.71677],[126.74872,37.71676],[126.75035,37.71664],[126.75086,37.71665],[126.75253,37.71681],[126.75309,37.71687],[126.75313,37.71688],[126.75468,37.71712],[126.75512,37.71714],[126.75608,37.71719],[126.75801,37.71721],[126.75868,37.71721],[126.7589,37.71721],[126.75994,37.71715],[126.76091,37.71709],[126.76317,37.71663]]]]}},{"type":"Feature","properties":{"code":"41480390","name":"장단면","parent":"41480"},"geometry":{"type":"MultiPolygon","coordinates":[[[[126.73391,37.8912],[126.73342,37.89039],[126.73322,37.88921],[126.7331,37.88846],[126.73306,37.88753],[126.73302,37.88682],[126.73332,37.88582],[126.73579,37.88235],[126.7378,37.88067],[126.73971,37.87921],[126.73974,37.87919],[126.7398,37.87914],[126.74109,37.87786],[126.74495,37.87268],[126.74792,37.8687],[126.75174,37.86328],[126.75207,37.86281],[126.75603,37.85853],[126.75754,37.85667],[126.75767,37.85649],[126.75806,37.85539],[126.75801,37.85384],[126.75778,37.85205],[126.75699,37.85129],[126.75633,37.85066],[126.75581,37.85034],[126.75539,37.85008],[126.75192,37.84853],[126.75028,37.848],[126.75023,37.848],[126.74895,37.84793],[126.74792,37.84799],[126.74521,37.8482],[126.7438,37.84832],[126.74239,37.84789],[126.73414,37.84513],[126.72964,37.84413],[126.72961,37.84413],[126.7279,37.84393],[126.72488,37.84358],[126.72304,37.84345],[126.71899,37.84318],[126.71466,37.8432],[126.71348,37.84369],[126.71321,37.8438],[126.71114,37.84445],[126.7111,37.84447],[126.71091,37.84453],[126.70779,37.84492],[126.70406,37.84425],[126.69632,37.84225],[126.69239,37.84124],[126.69131,37.84082],[126.68549,37.83859],[126.67176,37.83287],[126.67153,37.83395],[126.67138,37.83472],[126.66995,37.83448],[126.66891,37.83466],[126.66213,37.83787],[126.6602,37.83883],[126.6601,37.83889],[126.65992,37.83903],[126.65962,37.83932],[126.65948,37.83954],[126.65934,37.84018],[126.65935,37.84024],[126.66014,37.84255],[126.6602,37.84271],[126.66023,37.84276],[126.66025,37.84281],[126.66046,37.84316],[126.66096,37.8436],[126.66501,37.84319],[126.6682,37.84447],[126.67101,37.84577],[126.674,37.84483],[126.67621,37.84398],[126.67656,37.84411],[126.67717,37.84436],[126.67728,37.84441],[126.6796,37.84597],[126.67976,37.84616],[126.67983,37.84628],[126.68002,37.84671],[126.68006,37.8468],[126.68007,37.84683],[126.68008,37.84689],[126.6801,37.84699],[126.68012,37.84718],[126.68,37.84978],[126.6799,37.85169],[126.68253,37.85476],[126.683,37.85517],[126.68422,37.85651],[126.68593,37.85865],[126.68707,37.86028],[126.68872,37.86355],[126.6888,37.86376],[126.69093,37.86656],[126.69096,37.86658],[126.69114,37.86677],[126.69218,37.86843],[126.69046,37.86969],[126.68648,37.87245],[126.68592,37.87279],[126.68345,37.874],[126.6834,37.874],[126.68153,37.87283],[126.68097,37.87188],[126.68098,37.87162],[126.68093,37.87142],[126.68044,37.87055],[126.68014,37.87034],[126.67913,37.87012],[126.67538,37.86993],[126.67476,37.86991],[126.67294,37.86989],[126.67261,37.87006],[126.67329,37.87118],[126.67351,37.87153],[126.67408,37.8722],[126.67434,37.8725],[126.67523,37.87443],[126.6748,37.87468],[126.67268,37.87647],[126.67262,37.87653],[126.67239,37.87676],[126.67223,37.87692],[126.67193,37.87722],[126.6719,37.87731],[126.67189,37.87735],[126.67186,37.87761],[126.67185,37.87765],[126.67186,37.87768],[126.67199,37.87788],[126.67201,37.87792],[126.67207,37.87799],[126.6722,37.87802],[126.67229,37.87805],[126.67235,37.87806],[126.67243,37.87807],[126.67263,37.87807],[126.67298,37.87807],[126.6743,37.87752],[126.67445,37.87742],[126.67472,37.87729],[126.67513,37.8772],[126.6752,37.87719],[126.67552,37.87717],[126.67576,37.87723],[126.67598,37.87728],[126.67964,37.87835],[126.67993,37.87845],[126.68077,37.87879],[126.68153,37.87914],[126.68169,37.87923],[126.68172,37.87925],[126.68187,37.87941],[126.68206,37.87972],[126.68202,37.87979],[126.68187,37.88001],[126.68145,37.88019],[126.68121,37.88023],[126.68091,37.88029],[126.68057,37.88035],[126.68034,37.88041],[126.67962,37.88067],[126.67949,37.88073],[126.67941,37.88076],[126.67919,37.88094],[126.67875,37.88152],[126.67864,37.88182],[126.67868,37.88207],[126.67877,37.8823],[126.67889,37.88249],[126.679,37.88264],[126.67906,37.88273],[126.67923,37.88297],[126.67928,37.88303],[126.67934,37.8831],[126.67954,37.88332],[126.67984,37.88358],[126.68013,37.88386],[126.68019,37.88401],[126.68021,37.88405],[126.68017,37.88425],[126.68008,37.8844],[126.67992,37.88453],[126.67974,37.88461],[126.67903,37.88473],[126.67737,37.8849],[126.67684,37.88482],[126.67649,37.88461],[126.67641,37.88449],[126.67627,37.88383],[126.67626,37.88353],[126.67647,37.88289],[126.67636,37.88228],[126.67623,37.88209],[126.67596,37.88184],[126.67565,37.88164],[126.67484,37.88144],[126.67455,37.88142],[126.67413,37.88146],[126.67358,37.88162],[126.67292,37.88196],[126.67255,37.88215],[126.6723,37.8824],[126.67228,37.88243],[126.67222,37.88254],[126.6722,37.88262],[126.67219,37.88267],[126.67233,37.88302],[126.67275,37.88326],[126.67282,37.8833],[126.67318,37.88353],[126.67362,37.88387],[126.67429,37.88448],[126.67447,37.88465],[126.67457,37.88483],[126.67465,37.88519],[126.67462,37.8853],[126.67448,37.8859],[126.67425,37.88622],[126.67399,37.88635],[126.67272,37.88658],[126.672,37.88671],[126.67175,37.88678],[126.67156,37.8869],[126.67083,37.8874],[126.67044,37.88773],[126.67016,37.88796],[126.67024,37.88809],[126.67032,37.88812],[126.67156,37.88855],[126.67162,37.88853],[126.67177,37.88847],[126.67187,37.8885],[126.67191,37.88851],[126.6722,37.88869],[126.67712,37.89722],[126.67737,37.89773],[126.67742,37.898],[126.67744,37.89815],[126.67746,37.89856],[126.67749,37.8992],[126.67745,37.89996],[126.67744,37.90006],[126.67702,37.90446],[126.67695,37.90482],[126.67689,37.90494],[126.67675,37.90523],[126.67658,37.90543],[126.67586,37.90618],[126.67686,37.90762],[126.68009,37.91077],[126.6803,37.91097],[126.68045,37.91111],[126.6828,37.9128],[126.68457,37.9126],[126.68233,37.91525],[126.68144,37.91558],[126.68117,37.91558],[126.68095,37.91558],[126.67848,37.91433],[126.67436,37.91396],[126.67347,37.91403],[126.6701,37.91428],[126.66789,37.91585],[126.66592,37.91834],[126.66556,37.92114],[126.66577,37.92205],[126.66678,37.92445],[126.66761,37.92486],[126.66799,37.92505],[126.66864,37.92585],[126.66921,37.92797],[126.669,37.92888],[126.6688,37.92974],[126.66799,37.93089],[126.66759,37.93256],[126.66756,37.93269],[126.66771,37.93319],[126.66791,37.93384],[126.66929,37.93709],[126.66944,37.93731],[126.66957,37.93751],[126.67007,37.93789],[126.67097,37.93859],[126.6712,37.9388],[126.67164,37.93918],[126.67185,37.93971],[126.67159,37.93987],[126.67117,37.94013],[126.67038,37.94035],[126.66994,37.94048],[126.6692,37.94117],[126.66906,37.9414],[126.6694,37.94468],[126.66965,37.94508],[126.66981,37.94535],[126.67138,37.94673],[126.67213,37.94762],[126.67229,37.94817],[126.67237,37.94845],[126.67188,37.95013],[126.67172,37.95038],[126.67069,37.95197],[126.67038,37.9557],[126.67117,37.95584],[126.67139,37.95579],[126.67294,37.95546],[126.67416,37.95495],[126.67547,37.9544],[126.67637,37.95351],[126.67726,37.95456],[126.67918,37.95578],[126.67967,37.95751],[126.6813,37.95811],[126.68279,37.95813],[126.68342,37.95769],[126.6857,37.9575],[126.68731,37.9572],[126.6882,37.96031],[126.69001,37.96104],[126.69118,37.96336],[126.69156,37.96624],[126.69458,37.96702],[126.69832,37.96925],[126.70066,37.96912],[126.70098,37.97137],[126.70249,37.97432],[126.7077,37.97564],[126.70885,37.97516],[126.70966,37.97351],[126.70939,37.97166],[126.70948,37.97059],[126.71204,37.9684],[126.71528,37.96932],[126.71665,37.96886],[126.71767,37.96765],[126.71773,37.96569],[126.71939,37.96495],[126.72197,37.9665],[126.72418,37.96643],[126.72557,37.96688],[126.72778,37.96868],[126.73041,37.96879],[126.73251,37.96812],[126.73506,37.96744],[126.73574,37.96637],[126.73658,37.96582],[126.73757,37.9664],[126.73898,37.97003],[126.73996,37.9727],[126.74149,37.97303],[126.74295,37.9735],[126.74455,37.97422],[126.74698,37.9765],[126.74733,37.97699],[126.74763,37.97813],[126.74806,37.97903],[126.75216,37.98165],[126.75864,37.98366],[126.75921,37.98372],[126.76054,37.98338],[126.76081,37.98408],[126.76254,37.98501],[126.76312,37.98505],[126.76511,37.98454],[126.77019,37.98056],[126.7709,37.97956],[126.77142,37.97899],[126.77206,37.97859],[126.7728,37.97835],[126.77421,37.9788],[126.77464,37.97916],[126.77533,37.98041],[126.77386,37.98132],[126.77265,37.9815],[126.77209,37.982],[126.77182,37.98235],[126.77271,37.98344],[126.77348,37.984],[126.77586,37.98445],[126.77918,37.98293],[126.78143,37.98107],[126.78224,37.98046],[126.78385,37.98103],[126.78357,37.98173],[126.78362,37.98227],[126.78431,37.98298],[126.785,37.98353],[126.78929,37.98784],[126.79369,37.99231],[126.79582,37.9934],[126.7964,37.99369],[126.797,37.99327],[126.79724,37.99283],[126.80091,37.992],[126.80032,37.99064],[126.7985,37.98771],[126.80036,37.98342],[126.80203,37.97955],[126.80303,37.97601],[126.80414,37.97206],[126.80451,37.97075],[126.81045,37.96767],[126.81078,37.96811],[126.81134,37.96887],[126.81252,37.9693],[126.81388,37.96889],[126.81471,37.96822],[126.8163,37.96684],[126.81729,37.96576],[126.81847,37.96409],[126.81822,37.96317],[126.81757,37.9622],[126.81748,37.96218],[126.81754,37.96129],[126.81886,37.95852],[126.82073,37.95746],[126.82373,37.95823],[126.8283,37.9598],[126.83043,37.96197],[126.83094,37.96289],[126.83114,37.96324],[126.83268,37.96398],[126.83594,37.96403],[126.83578,37.96379],[126.83578,37.96374],[126.83579,37.95984],[126.83366,37.95635],[126.83328,37.95564],[126.83246,37.95222],[126.83266,37.94758],[126.83213,37.94547],[126.83149,37.9429],[126.83071,37.93979],[126.8306,37.93937],[126.83058,37.93927],[126.8297,37.93493],[126.82944,37.9334],[126.82937,37.93298],[126.82908,37.93132],[126.828,37.925],[126.82721,37.9196],[126.827,37.9182],[126.82568,37.91462],[126.82565,37.91458],[126.82327,37.90978],[126.82243,37.90818],[126.82122,37.90587],[126.81833,37.90035],[126.81453,37.89637],[126.81229,37.89427],[126.81204,37.89404],[126.81167,37.89369],[126.80745,37.89145],[126.8071,37.89127],[126.8052,37.89122],[126.79866,37.89282],[126.7959,37.89491],[126.79523,37.89542],[126.79294,37.89972],[126.79165,37.90364],[126.79196,37.90819],[126.79166,37.91435],[126.78846,37.91706],[126.78443,37.9167],[126.77767,37.91485],[126.77546,37.91361],[126.77256,37.91199],[126.76942,37.91024],[126.76485,37.90861],[126.75408,37.90657],[126.74792,37.90565],[126.74739,37.90557],[126.74574,37.90484],[126.74569,37.90482],[126.74558,37.90477],[126.74372,37.90396],[126.74369,37.90393],[126.74069,37.90121],[126.73863,37.89839],[126.73852,37.89824],[126.73789,37.89738],[126.73644,37.89541],[126.73489,37.89343],[126.73427,37.89297],[126.73391,37.8912]]]]}},{"type":"Feature","properties":{"code":"41480580","name":"운정4동","parent":"41480"},"geometry":{"type":"MultiPolygon","coordinates":[[[[126.76111,37.71032],[126.76134,37.71195],[126.76177,37.71338],[126.7625,37.71506],[126.76317,37.71663],[126.76502,37.72103],[126.76642,37.7248],[126.76709,37.72618],[126.7684,37.72869],[126.77089,37.73422],[126.77202,37.73716],[126.77211,37.73839],[126.77199,37.7395],[126.77095,37.74172],[126.7702,37.74355],[126.76924,37.7452],[126.76909,37.74547],[126.76854,37.74645],[126.76848,37.74655],[126.76788,37.74763],[126.77239,37.74646],[126.77574,37.74618],[126.7756,37.74597],[126.77555,37.74555],[126.7757,37.7443],[126.77616,37.74309],[126.77681,37.74285],[126.77847,37.74223],[126.77936,37.74182],[126.78021,37.74114],[126.78024,37.74112],[126.78043,37.74054],[126.78028,37.74011],[126.78024,37.74005],[126.77985,37.7395],[126.77995,37.73774],[126.78004,37.73723],[126.78175,37.73557],[126.78346,37.73421],[126.78424,37.73391],[126.78778,37.73314],[126.79395,37.73347],[126.79415,37.73355],[126.79438,37.73429],[126.79558,37.73356],[126.79608,37.73002],[126.79608,37.72961],[126.79541,37.72852],[126.79365,37.72595],[126.79291,37.72513],[126.7922,37.72443],[126.79195,37.7242],[126.7912,37.72388],[126.79107,37.72403],[126.79062,37.72397],[126.79015,37.72376],[126.78895,37.72317],[126.78503,37.72089],[126.78452,37.71969],[126.78256,37.71761],[126.77785,37.7141],[126.77483,37.71022],[126.77376,37.70954],[126.77328,37.70923],[126.77386,37.70677],[126.77335,37.70425],[126.77214,37.70481],[126.77062,37.70567],[126.76915,37.70617],[126.76766,37.70664],[126.76608,37.70697],[126.76637,37.70604],[126.76601,37.70535],[126.76495,37.70405],[126.76398,37.7047],[126.76291,37.70427],[126.76149,37.70411],[126.76129,37.70405],[126.76113,37.70399],[126.76111,37.71032]]]]}},{"type":"Feature","properties":{"code":"41480600","name":"운정6동","parent":"41480"},"geometry":{"type":"MultiPolygon","coordinates":[[[[126.72798,37.70704],[126.72662,37.70678],[126.72393,37.70566],[126.72286,37.70498],[126.71994,37.7059],[126.71752,37.70668],[126.71518,37.70737],[126.71411,37.70749],[126.71317,37.70721],[126.71248,37.70719],[126.71175,37.70737],[126.71014,37.70836],[126.70861,37.70945],[126.70779,37.70972],[126.70857,37.71076],[126.70906,37.71099],[126.70965,37.71208],[126.70497,37.71561],[126.71462,37.71595],[126.71648,37.71615],[126.71873,37.71633],[126.72015,37.7163],[126.72484,37.71612],[126.72473,37.72712],[126.72439,37.7294],[126.72688,37.73107],[126.72983,37.72718],[126.7309,37.72578],[126.73193,37.72357],[126.73189,37.71699],[126.73174,37.71479],[126.73145,37.71195],[126.73098,37.71007],[126.73038,37.70821],[126.73025,37.7079],[126.72798,37.70704]]]]}},{"type":"Feature","properties":{"code":"41480540","name":"교하동","parent":"41480"},"geometry":{"type":"MultiPolygon","coordinates":[[[[126.73764,37.736],[126.73761,37.73716],[126.73723,37.73844],[126.73669,37.73932],[126.73587,37.74268],[126.73523,37.74368],[126.73475,37.74476],[126.73505,37.74568],[126.73567,37.74681],[126.73656,37.74665],[126.73704,37.74673],[126.73766,37.7474],[126.73765,37.74786],[126.73734,37.74823],[126.73639,37.74831],[126.73555,37.74797],[126.73483,37.74747],[126.73389,37.74688],[126.7328,37.74579],[126.73191,37.74553],[126.73112,37.74544],[126.73045,37.7449],[126.72956,37.74464],[126.72783,37.74434],[126.72726,37.7435],[126.72669,37.74292],[126.72639,37.74158],[126.7254,37.7412],[126.72096,37.73925],[126.71975,37.73904],[126.71855,37.73903],[126.71697,37.73889],[126.71593,37.73805],[126.7136,37.73533],[126.71205,37.73353],[126.71075,37.73252],[126.70835,37.73071],[126.70748,37.72942],[126.70576,37.72782],[126.70435,37.72698],[126.70374,37.72593],[126.70312,37.72485],[126.7024,37.72351],[126.70157,37.72288],[126.69963,37.72237],[126.69933,37.7212],[126.69967,37.71916],[126.70493,37.71761],[126.70497,37.71561],[126.70965,37.71208],[126.70906,37.71099],[126.70857,37.71076],[126.70779,37.70972],[126.70861,37.70945],[126.71014,37.70836],[126.71175,37.70737],[126.71248,37.70719],[126.71317,37.70721],[126.71411,37.70749],[126.71518,37.70737],[126.71752,37.70668],[126.71994,37.7059],[126.72286,37.70498],[126.72393,37.70566],[126.72662,37.70678],[126.72798,37.70704],[126.72989,37.70494],[126.73065,37.70404],[126.72946,37.70392],[126.72864,37.70389],[126.72838,37.70394],[126.72745,37.70409],[126.72352,37.70303],[126.72296,37.7025],[126.72265,37.70233],[126.71707,37.70024],[126.71616,37.70002],[126.71572,37.69995],[126.71295,37.69967],[126.71191,37.69974],[126.7085,37.69786],[126.70722,37.69722],[126.7071,37.69717],[126.70458,37.69621],[126.70372,37.69613],[126.70251,37.69622],[126.70184,37.6963],[126.70174,37.69633],[126.70056,37.69678],[126.7002,37.69691],[126.69929,37.69703],[126.69898,37.69688],[126.69821,37.69629],[126.69801,37.69613],[126.69662,37.6949],[126.69616,37.69429],[126.69604,37.69414],[126.6953,37.69315],[126.6914,37.68911],[126.68739,37.69158],[126.68562,37.69337],[126.68537,37.69357],[126.68348,37.69513],[126.67875,37.69855],[126.67655,37.70008],[126.67972,37.70515],[126.68136,37.70833],[126.68165,37.70891],[126.68346,37.71302],[126.68362,37.71339],[126.68417,37.71621],[126.68544,37.7228],[126.68544,37.7237],[126.68516,37.72486],[126.6848,37.72565],[126.68408,37.72654],[126.68258,37.72843],[126.68119,37.73018],[126.67754,37.73475],[126.67741,37.73499],[126.67739,37.73501],[126.67565,37.74201],[126.67505,37.74444],[126.674,37.75001],[126.67501,37.75256],[126.67617,37.755],[126.68692,37.75694],[126.69004,37.7575],[126.69162,37.75733],[126.69286,37.75719],[126.69374,37.75709],[126.69453,37.757],[126.69547,37.75732],[126.69609,37.75752],[126.69634,37.75798],[126.69651,37.7583],[126.697,37.75919],[126.69782,37.76053],[126.70032,37.76169],[126.70196,37.76125],[126.70265,37.75998],[126.70337,37.75865],[126.70395,37.75855],[126.70427,37.75849],[126.70436,37.75848],[126.70686,37.76023],[126.70895,37.7607],[126.70975,37.76087],[126.71108,37.76003],[126.7113,37.75964],[126.71189,37.75856],[126.71132,37.75768],[126.71115,37.75288],[126.7118,37.75285],[126.71296,37.75279],[126.71645,37.75299],[126.71763,37.75333],[126.7213,37.75443],[126.7216,37.75496],[126.72241,37.75637],[126.72328,37.75728],[126.72414,37.75752],[126.72485,37.75751],[126.72575,37.75698],[126.72822,37.75533],[126.73004,37.75484],[126.73063,37.75488],[126.73149,37.75493],[126.73178,37.75495],[126.7329,37.7556],[126.73356,37.75626],[126.73364,37.75633],[126.73407,37.75676],[126.7346,37.75756],[126.73493,37.75816],[126.73511,37.75872],[126.73526,37.7592],[126.73553,37.76017],[126.73553,37.76038],[126.73553,37.76097],[126.73554,37.76111],[126.73556,37.76129],[126.73561,37.76191],[126.73598,37.7622],[126.73646,37.7622],[126.73732,37.76194],[126.73832,37.76153],[126.73869,37.76134],[126.73898,37.7612],[126.73927,37.76105],[126.74049,37.76093],[126.74075,37.76093],[126.74116,37.76093],[126.7455,37.76339],[126.74687,37.76431],[126.74676,37.76546],[126.7473,37.76583],[126.74792,37.76577],[126.74819,37.76574],[126.7483,37.76573],[126.75011,37.76494],[126.75404,37.76367],[126.75539,37.76334],[126.75661,37.76305],[126.75805,37.7627],[126.76224,37.75965],[126.76224,37.75805],[126.76253,37.75626],[126.7622,37.7557],[126.76143,37.75444],[126.76121,37.75423],[126.76059,37.75364],[126.76016,37.75323],[126.75988,37.75216],[126.76015,37.75152],[126.76084,37.74989],[126.76108,37.74933],[126.76141,37.749],[126.76256,37.74783],[126.76478,37.74654],[126.76627,37.74668],[126.76788,37.74763],[126.76848,37.74655],[126.76854,37.74645],[126.76909,37.74547],[126.76924,37.7452],[126.76593,37.74528],[126.76068,37.74541],[126.75943,37.7453],[126.75825,37.745],[126.75798,37.74485],[126.75658,37.74405],[126.7556,37.74348],[126.75518,37.74325],[126.75251,37.74164],[126.75218,37.74144],[126.75088,37.74066],[126.74967,37.74005],[126.74863,37.73954],[126.7471,37.73896],[126.74673,37.73883],[126.74599,37.73859],[126.74401,37.73795],[126.74104,37.73694],[126.73931,37.73635],[126.73764,37.736]]]]}}]}