{"type":"FeatureCollection","features":[{"type":"Feature","properties":{"code":"41593250","name":"봉담읍","parent":"41593"},"geometry":{"type":"MultiPolygon","coordinates":[[[[126.97039,37.2292],[126.97091,37.22873],[126.97103,37.22862],[126.97105,37.2286],[126.97129,37.22821],[126.9715,37.2278],[126.97169,37.22736],[126.97172,37.22727],[126.97175,37.22711],[126.97177,37.22698],[126.97179,37.22684],[126.97182,37.22666],[126.97182,37.22661],[126.97184,37.22643],[126.97189,37.22576],[126.9719,37.22566],[126.9719,37.2256],[126.97191,37.22552],[126.97204,37.22512],[126.9721,37.22494],[126.97216,37.22481],[126.9722,37.22471],[126.97236,37.22446],[126.97253,37.22419],[126.973,37.22353],[126.97318,37.22327],[126.9733,37.2231],[126.97395,37.22225],[126.97511,37.22194],[126.97524,37.22193],[126.97661,37.222],[126.97793,37.22053],[126.97992,37.21687],[126.97994,37.21682],[126.97995,37.21675],[126.97989,37.21571],[126.97979,37.2152],[126.98034,37.21455],[126.98057,37.21431],[126.98161,37.2133],[126.98011,37.21286],[126.98002,37.21282],[126.97993,37.21276],[126.97984,37.21264],[126.97976,37.21252],[126.97974,37.21248],[126.97924,37.20991],[126.97923,37.20964],[126.97923,37.20918],[126.97925,37.2088],[126.97988,37.20708],[126.97999,37.20682],[126.98057,37.20654],[126.98152,37.20573],[126.9851,37.20194],[126.98557,37.20023],[126.98492,37.19954],[126.98417,37.1986],[126.98407,37.19838],[126.98373,37.19758],[126.98387,37.19649],[126.98422,37.19573],[126.98307,37.19614],[126.98226,37.19699],[126.98236,37.19707],[126.98103,37.1977],[126.98074,37.19778],[126.9788,37.19808],[126.97617,37.19754],[126.97613,37.1971],[126.97629,37.19691],[126.97626,37.19689],[126.97615,37.19681],[126.97612,37.19679],[126.97541,37.19657],[126.97516,37.19652],[126.97268,37.19657],[126.97101,37.19696],[126.97029,37.19718],[126.9699,37.19732],[126.96966,37.19742],[126.96882,37.19797],[126.96846,37.1982],[126.96827,37.19827],[126.96812,37.19831],[126.96788,37.1983],[126.9654,37.1978],[126.96493,37.19769],[126.96475,37.19763],[126.96467,37.19761],[126.96455,37.19752],[126.96386,37.19733],[126.96186,37.19686],[126.95944,37.19656],[126.95692,37.19642],[126.95414,37.19598],[126.95197,37.19503],[126.95156,37.19484],[126.9515,37.19481],[126.95104,37.19456],[126.9508,37.1944],[126.95069,37.19433],[126.9502,37.19386],[126.95155,37.19121],[126.95266,37.18928],[126.95163,37.1879],[126.95111,37.18712],[126.95003,37.1852],[126.9496,37.18404],[126.94957,37.18394],[126.94947,37.18276],[126.94977,37.18165],[126.95023,37.18034],[126.95079,37.17876],[126.95161,37.17787],[126.95164,37.17724],[126.95139,37.17491],[126.9486,37.17422],[126.94492,37.17217],[126.94424,37.17107],[126.94481,37.16918],[126.94511,37.16788],[126.94537,37.16657],[126.94567,37.16492],[126.94567,37.16466],[126.94492,37.15939],[126.9446,37.15866],[126.94391,37.15783],[126.94351,37.15749],[126.94324,37.15726],[126.94318,37.15666],[126.94311,37.156],[126.94303,37.15425],[126.94387,37.1528],[126.94603,37.15058],[126.94608,37.14983],[126.94565,37.14736],[126.94526,37.14546],[126.94524,37.14538],[126.94521,37.14529],[126.94472,37.1447],[126.94441,37.14441],[126.94183,37.14308],[126.94167,37.14311],[126.94093,37.14328],[126.9403,37.14348],[126.94008,37.14385],[126.93974,37.14439],[126.9379,37.14519],[126.93568,37.14548],[126.9356,37.14545],[126.93472,37.14497],[126.93402,37.14456],[126.93352,37.14415],[126.93348,37.14404],[126.93344,37.1439],[126.93297,37.14354],[126.93214,37.14344],[126.93194,37.14341],[126.93181,37.1434],[126.93177,37.1434],[126.93169,37.1434],[126.93164,37.1434],[126.93161,37.1434],[126.93157,37.1434],[126.93147,37.14341],[126.9306,37.14353],[126.92983,37.14408],[126.92966,37.14423],[126.92942,37.14455],[126.92882,37.14617],[126.92906,37.14792],[126.9299,37.1484],[126.93143,37.14924],[126.93149,37.14927],[126.93247,37.14947],[126.933,37.14949],[126.93323,37.14965],[126.93405,37.15025],[126.9349,37.15198],[126.93521,37.15316],[126.93582,37.15537],[126.93661,37.15712],[126.93805,37.15701],[126.93712,37.15853],[126.93552,37.16117],[126.93482,37.16163],[126.93354,37.16132],[126.93288,37.1611],[126.93035,37.16114],[126.92764,37.1616],[126.92611,37.16102],[126.92401,37.15814],[126.92182,37.15577],[126.92042,37.15451],[126.9199,37.15432],[126.91941,37.15437],[126.91723,37.15556],[126.91703,37.15571],[126.91699,37.15574],[126.91569,37.15824],[126.91487,37.15998],[126.91505,37.16332],[126.91506,37.16348],[126.91507,37.16354],[126.91536,37.16526],[126.91544,37.16553],[126.91554,37.1659],[126.91587,37.16644],[126.91594,37.16655],[126.91652,37.16731],[126.91659,37.16734],[126.91688,37.16746],[126.91711,37.16746],[126.91738,37.16746],[126.91767,37.16743],[126.91798,37.16723],[126.92135,37.16831],[126.91946,37.17053],[126.91721,37.17586],[126.91722,37.17597],[126.91724,37.17616],[126.91736,37.17654],[126.91944,37.17831],[126.92106,37.1792],[126.92152,37.1814],[126.92153,37.18281],[126.92151,37.18295],[126.9198,37.18794],[126.92008,37.1884],[126.92015,37.18857],[126.92015,37.18868],[126.91997,37.18965],[126.91664,37.19128],[126.91485,37.19185],[126.90901,37.19215],[126.90421,37.19244],[126.90113,37.19356],[126.8999,37.19404],[126.89994,37.19406],[126.90012,37.19414],[126.90043,37.19435],[126.90198,37.19622],[126.90298,37.19744],[126.90353,37.19842],[126.90468,37.199],[126.90577,37.19916],[126.90611,37.1992],[126.90655,37.20012],[126.90834,37.20742],[126.90758,37.2115],[126.90724,37.21193],[126.90719,37.21197],[126.90712,37.21204],[126.90681,37.21221],[126.90636,37.21242],[126.90626,37.21248],[126.90623,37.21251],[126.90469,37.21392],[126.90407,37.21473],[126.90404,37.21477],[126.90395,37.21489],[126.9039,37.21497],[126.90337,37.21683],[126.90479,37.21799],[126.90497,37.21806],[126.90509,37.21812],[126.90519,37.21817],[126.90527,37.21823],[126.90536,37.21834],[126.90713,37.22068],[126.90738,37.22105],[126.90943,37.22422],[126.90938,37.22476],[126.9083,37.23039],[126.90726,37.23337],[126.90834,37.23442],[126.90899,37.23461],[126.91079,37.23514],[126.91212,37.23554],[126.91239,37.23662],[126.91237,37.2386],[126.91228,37.23881],[126.91217,37.23907],[126.91259,37.24],[126.91411,37.24117],[126.91432,37.24127],[126.91478,37.2415],[126.9159,37.24156],[126.9219,37.23987],[126.92398,37.2392],[126.92469,37.23889],[126.92531,37.23841],[126.92536,37.23832],[126.92534,37.23782],[126.9253,37.23764],[126.92516,37.23686],[126.92511,37.23662],[126.92509,37.23649],[126.92512,37.23545],[126.92525,37.23452],[126.92595,37.23439],[126.92608,37.23438],[126.92621,37.23437],[126.92674,37.23452],[126.92813,37.2353],[126.92963,37.2379],[126.92952,37.23928],[126.92954,37.24015],[126.92962,37.24055],[126.93014,37.24185],[126.93026,37.24208],[126.93037,37.2423],[126.93067,37.2427],[126.9321,37.24325],[126.93334,37.24356],[126.93352,37.24359],[126.93373,37.24363],[126.93391,37.24363],[126.93757,37.24302],[126.93781,37.24295],[126.93929,37.24228],[126.93956,37.24216],[126.93987,37.24197],[126.94012,37.24175],[126.94034,37.24148],[126.94041,37.24138],[126.94043,37.24134],[126.94044,37.24131],[126.94049,37.24121],[126.94062,37.24103],[126.94079,37.2408],[126.94164,37.23989],[126.94191,37.23964],[126.94213,37.23947],[126.94221,37.23941],[126.94236,37.23929],[126.94422,37.23899],[126.94582,37.23908],[126.94605,37.23911],[126.94614,37.23914],[126.94686,37.23945],[126.94727,37.23989],[126.94793,37.2412],[126.94801,37.24141],[126.94801,37.242],[126.94803,37.24257],[126.94814,37.24276],[126.94853,37.24292],[126.94912,37.24302],[126.9496,37.24309],[126.94977,37.24306],[126.95384,37.24286],[126.95575,37.24458],[126.95668,37.24519],[126.9567,37.2451],[126.95731,37.24418],[126.95779,37.24317],[126.95796,37.2426],[126.95799,37.2413],[126.95799,37.24127],[126.95777,37.24076],[126.9576,37.24054],[126.95742,37.24044],[126.95735,37.2404],[126.95736,37.24032],[126.95776,37.23976],[126.96095,37.23811],[126.962,37.23768],[126.96299,37.23752],[126.964,37.23709],[126.96501,37.23665],[126.96695,37.23563],[126.9677,37.23484],[126.96899,37.23164],[126.96925,37.23067],[126.97039,37.2292]]]]}},{"type":"Feature","properties":{"code":"41593310","name":"매송면","parent":"41593"},"geometry":{"type":"MultiPolygon","coordinates":[[[[126.92737,37.2788],[126.92759,37.27821],[126.92802,37.27708],[126.92868,37.27672],[126.9282,37.27508],[126.92753,37.27345],[126.92726,37.27143],[126.92901,37.26366],[126.93023,37.26191],[126.93085,37.26104],[126.932,37.26056],[126.93478,37.25788],[126.93495,37.25705],[126.93509,37.25695],[126.93513,37.25692],[126.93578,37.25677],[126.93823,37.25659],[126.93928,37.25659],[126.9395,37.25659],[126.94359,37.25684],[126.94466,37.25701],[126.94473,37.25704],[126.94504,37.25716],[126.94584,37.25734],[126.94653,37.2575],[126.94792,37.25708],[126.94853,37.25683],[126.95005,37.25584],[126.95016,37.25545],[126.9502,37.25531],[126.94998,37.25382],[126.95071,37.25237],[126.95224,37.25147],[126.95272,37.24909],[126.95297,37.24873],[126.95337,37.24813],[126.95368,37.24799],[126.95489,37.24744],[126.95619,37.24677],[126.95668,37.24519],[126.95575,37.24458],[126.95384,37.24286],[126.94977,37.24306],[126.9496,37.24309],[126.94912,37.24302],[126.94853,37.24292],[126.94814,37.24276],[126.94803,37.24257],[126.94801,37.242],[126.94801,37.24141],[126.94793,37.2412],[126.94727,37.23989],[126.94686,37.23945],[126.94614,37.23914],[126.94605,37.23911],[126.94582,37.23908],[126.94422,37.23899],[126.94236,37.23929],[126.94221,37.23941],[126.94213,37.23947],[126.94191,37.23964],[126.94164,37.23989],[126.94079,37.2408],[126.94062,37.24103],[126.94049,37.24121],[126.94044,37.24131],[126.94043,37.24134],[126.94041,37.24138],[126.94034,37.24148],[126.94012,37.24175],[126.93987,37.24197],[126.93956,37.24216],[126.93929,37.24228],[126.93781,37.24295],[126.93757,37.24302],[126.93391,37.24363],[126.93373,37.24363],[126.93352,37.24359],[126.93334,37.24356],[126.9321,37.24325],[126.93067,37.2427],[126.93037,37.2423],[126.93026,37.24208],[126.93014,37.24185],[126.92962,37.24055],[126.92954,37.24015],[126.92952,37.23928],[126.92963,37.2379],[126.92813,37.2353],[126.92674,37.23452],[126.92621,37.23437],[126.92608,37.23438],[126.92595,37.23439],[126.92525,37.23452],[126.92512,37.23545],[126.92509,37.23649],[126.92511,37.23662],[126.92516,37.23686],[126.9253,37.23764],[126.92534,37.23782],[126.92536,37.23832],[126.92531,37.23841],[126.92469,37.23889],[126.92398,37.2392],[126.9219,37.23987],[126.9159,37.24156],[126.91478,37.2415],[126.91432,37.24127],[126.91411,37.24117],[126.91259,37.24],[126.91217,37.23907],[126.91228,37.23881],[126.91237,37.2386],[126.91132,37.23874],[126.90485,37.24124],[126.90498,37.24216],[126.9039,37.24296],[126.9015,37.24348],[126.90061,37.24302],[126.90048,37.24295],[126.90021,37.24284],[126.90016,37.24283],[126.90011,37.24282],[126.89994,37.24279],[126.89973,37.24276],[126.89945,37.24275],[126.89933,37.24275],[126.8993,37.24276],[126.89914,37.24285],[126.89901,37.24296],[126.89813,37.24402],[126.8966,37.24625],[126.89652,37.24639],[126.89629,37.24694],[126.89572,37.24802],[126.89483,37.24928],[126.89471,37.24933],[126.89444,37.24945],[126.89334,37.24984],[126.8896,37.25109],[126.88907,37.25341],[126.88869,37.25418],[126.88837,37.25474],[126.88797,37.25541],[126.88747,37.25625],[126.88739,37.25632],[126.88729,37.25638],[126.88699,37.25657],[126.88672,37.25669],[126.88649,37.25673],[126.88611,37.25667],[126.88582,37.2566],[126.88543,37.25655],[126.88474,37.25656],[126.88391,37.25662],[126.88373,37.25665],[126.88219,37.25696],[126.87898,37.25769],[126.8779,37.258],[126.87768,37.25806],[126.87755,37.25812],[126.87745,37.25816],[126.87621,37.25882],[126.87524,37.2596],[126.87439,37.26037],[126.87423,37.26044],[126.87405,37.26051],[126.87384,37.26052],[126.87366,37.26051],[126.87356,37.2605],[126.87139,37.25995],[126.87127,37.25988],[126.86984,37.25944],[126.86776,37.25964],[126.8676,37.25968],[126.86747,37.25975],[126.86719,37.26012],[126.8671,37.26028],[126.86658,37.26133],[126.86652,37.26148],[126.86652,37.2616],[126.86652,37.26163],[126.86648,37.26279],[126.86639,37.26393],[126.86636,37.26436],[126.86578,37.2652],[126.86462,37.26687],[126.86449,37.26696],[126.86419,37.26706],[126.86343,37.267],[126.86308,37.26682],[126.86296,37.26656],[126.86289,37.2664],[126.86039,37.268],[126.85879,37.26966],[126.85857,37.26989],[126.85843,37.26987],[126.85829,37.26986],[126.85704,37.26938],[126.85272,37.27204],[126.85378,37.27235],[126.85794,37.27388],[126.85822,37.27418],[126.8596,37.27424],[126.8613,37.2743],[126.87118,37.27471],[126.87132,37.27471],[126.87667,37.27772],[126.87815,37.27923],[126.87821,37.28115],[126.87827,37.28247],[126.87853,37.28395],[126.87876,37.28447],[126.87901,37.28504],[126.87907,37.28511],[126.87923,37.28531],[126.87969,37.28567],[126.8833,37.28218],[126.88405,37.28162],[126.88618,37.28053],[126.88781,37.28079],[126.88914,37.28126],[126.89091,37.28202],[126.89139,37.28248],[126.89147,37.28288],[126.89109,37.28385],[126.89287,37.28645],[126.89319,37.28674],[126.89323,37.28677],[126.89526,37.2883],[126.89583,37.28864],[126.89641,37.28899],[126.8977,37.28906],[126.89878,37.28958],[126.89955,37.2902],[126.89841,37.294],[126.9015,37.29098],[126.90555,37.28989],[126.90947,37.29005],[126.91198,37.29015],[126.91213,37.29029],[126.9122,37.29042],[126.91259,37.29105],[126.91309,37.29153],[126.91378,37.29148],[126.91385,37.29147],[126.91613,37.28867],[126.91694,37.28699],[126.91756,37.28539],[126.91817,37.285],[126.91829,37.28493],[126.92371,37.28136],[126.92622,37.27913],[126.92638,37.27908],[126.92737,37.2788]]]]}},{"type":"Feature","properties":{"code":"41593320","name":"비봉면","parent":"41593"},"geometry":{"type":"MultiPolygon","coordinates":[[[[126.91237,37.2386],[126.91239,37.23662],[126.91212,37.23554],[126.91079,37.23514],[126.90899,37.23461],[126.90834,37.23442],[126.90726,37.23337],[126.9083,37.23039],[126.90938,37.22476],[126.90943,37.22422],[126.90738,37.22105],[126.90713,37.22068],[126.90536,37.21834],[126.90527,37.21823],[126.90519,37.21817],[126.90509,37.21812],[126.90497,37.21806],[126.90479,37.21799],[126.90337,37.21683],[126.9039,37.21497],[126.90395,37.21489],[126.90404,37.21477],[126.90407,37.21473],[126.90469,37.21392],[126.90623,37.21251],[126.90626,37.21248],[126.90636,37.21242],[126.90681,37.21221],[126.90712,37.21204],[126.90719,37.21197],[126.90724,37.21193],[126.90758,37.2115],[126.90834,37.20742],[126.90655,37.20012],[126.90611,37.1992],[126.90577,37.19916],[126.90468,37.199],[126.90353,37.19842],[126.90298,37.19744],[126.90198,37.19622],[126.90043,37.19435],[126.90012,37.19414],[126.89994,37.19406],[126.8999,37.19404],[126.89843,37.19505],[126.89568,37.19383],[126.89545,37.19372],[126.89417,37.19303],[126.89053,37.19549],[126.88892,37.19703],[126.88528,37.19732],[126.88498,37.19732],[126.8828,37.19727],[126.8823,37.19724],[126.88189,37.19706],[126.88155,37.19684],[126.88131,37.19662],[126.88112,37.19626],[126.8811,37.19621],[126.87971,37.19509],[126.87895,37.19449],[126.87853,37.19425],[126.8759,37.19384],[126.87442,37.19485],[126.87308,37.19589],[126.87176,37.19701],[126.87184,37.19727],[126.87186,37.19734],[126.87128,37.19783],[126.87054,37.19821],[126.86979,37.19847],[126.8687,37.19879],[126.86333,37.20133],[126.8658,37.2043],[126.86603,37.20484],[126.86696,37.20944],[126.86537,37.21174],[126.86166,37.21287],[126.85796,37.21387],[126.85776,37.21394],[126.85745,37.21404],[126.85691,37.21422],[126.85583,37.21565],[126.85482,37.21699],[126.85096,37.2231],[126.84998,37.22615],[126.84851,37.22735],[126.84627,37.22872],[126.84568,37.22897],[126.84523,37.22916],[126.84437,37.22885],[126.84337,37.2287],[126.84093,37.22929],[126.84049,37.22964],[126.84034,37.22997],[126.8403,37.23006],[126.83997,37.23091],[126.83951,37.23171],[126.83913,37.23213],[126.83628,37.23216],[126.83595,37.23216],[126.83583,37.23215],[126.83575,37.23213],[126.83569,37.23202],[126.83565,37.23189],[126.8356,37.23173],[126.83555,37.23156],[126.83552,37.23134],[126.83281,37.23047],[126.82899,37.22962],[126.82865,37.22974],[126.82838,37.22984],[126.82828,37.22998],[126.82797,37.23219],[126.82687,37.23532],[126.82681,37.23542],[126.82671,37.23541],[126.8265,37.23537],[126.8264,37.23535],[126.82588,37.23527],[126.82527,37.23518],[126.82372,37.2368],[126.8237,37.23685],[126.82448,37.23824],[126.82455,37.2383],[126.82472,37.23841],[126.82494,37.23852],[126.825,37.23859],[126.82539,37.23913],[126.82712,37.24286],[126.82716,37.24297],[126.82716,37.24307],[126.82716,37.24318],[126.82709,37.24348],[126.82696,37.24391],[126.82661,37.24583],[126.82642,37.24799],[126.82637,37.24866],[126.8271,37.25112],[126.82716,37.25127],[126.82728,37.25148],[126.82742,37.2517],[126.8275,37.25182],[126.82755,37.25188],[126.82864,37.25254],[126.83077,37.25364],[126.83086,37.25367],[126.83268,37.25408],[126.8342,37.25412],[126.83442,37.25436],[126.83443,37.25443],[126.83406,37.2577],[126.83653,37.2613],[126.83781,37.26309],[126.83799,37.26333],[126.83838,37.26383],[126.83856,37.264],[126.83923,37.2645],[126.84097,37.26592],[126.84125,37.26632],[126.84427,37.26423],[126.84425,37.26398],[126.84503,37.26349],[126.84438,37.26302],[126.84423,37.26287],[126.84485,37.2616],[126.84457,37.26088],[126.84494,37.25984],[126.84577,37.25975],[126.84582,37.26001],[126.8454,37.2602],[126.8452,37.26086],[126.84549,37.26139],[126.84626,37.26297],[126.84656,37.26407],[126.84607,37.26418],[126.84546,37.26492],[126.84523,37.2659],[126.84647,37.26587],[126.84717,37.26575],[126.8479,37.26596],[126.84812,37.26651],[126.84934,37.26868],[126.84983,37.26916],[126.85143,37.27075],[126.85272,37.27204],[126.85704,37.26938],[126.85829,37.26986],[126.85843,37.26987],[126.85857,37.26989],[126.85879,37.26966],[126.86039,37.268],[126.86289,37.2664],[126.86296,37.26656],[126.86308,37.26682],[126.86343,37.267],[126.86419,37.26706],[126.86449,37.26696],[126.86462,37.26687],[126.86578,37.2652],[126.86636,37.26436],[126.86639,37.26393],[126.86648,37.26279],[126.86652,37.26163],[126.86652,37.2616],[126.86652,37.26148],[126.86658,37.26133],[126.8671,37.26028],[126.86719,37.26012],[126.86747,37.25975],[126.8676,37.25968],[126.86776,37.25964],[126.86984,37.25944],[126.87127,37.25988],[126.87139,37.25995],[126.87356,37.2605],[126.87366,37.26051],[126.87384,37.26052],[126.87405,37.26051],[126.87423,37.26044],[126.87439,37.26037],[126.87524,37.2596],[126.87621,37.25882],[126.87745,37.25816],[126.87755,37.25812],[126.87768,37.25806],[126.8779,37.258],[126.87898,37.25769],[126.88219,37.25696],[126.88373,37.25665],[126.88391,37.25662],[126.88474,37.25656],[126.88543,37.25655],[126.88582,37.2566],[126.88611,37.25667],[126.88649,37.25673],[126.88672,37.25669],[126.88699,37.25657],[126.88729,37.25638],[126.88739,37.25632],[126.88747,37.25625],[126.88797,37.25541],[126.88837,37.25474],[126.88869,37.25418],[126.88907,37.25341],[126.8896,37.25109],[126.89334,37.24984],[126.89444,37.24945],[126.89471,37.24933],[126.89483,37.24928],[126.89572,37.24802],[126.89629,37.24694],[126.89652,37.24639],[126.8966,37.24625],[126.89813,37.24402],[126.89901,37.24296],[126.89914,37.24285],[126.8993,37.24276],[126.89933,37.24275],[126.89945,37.24275],[126.89973,37.24276],[126.89994,37.24279],[126.90011,37.24282],[126.90016,37.24283],[126.90021,37.24284],[126.90048,37.24295],[126.90061,37.24302],[126.9015,37.24348],[126.9039,37.24296],[126.90498,37.24216],[126.90485,37.24124],[126.91132,37.23874],[126.91237,37.2386]]]]}},{"type":"Feature","properties":{"code":"41593330","name":"정남면","parent":"41593"},"geometry":{"type":"MultiPolygon","coordinates":[[[[126.98422,37.19573],[126.98477,37.19523],[126.98486,37.19517],[126.98539,37.19493],[126.98755,37.19459],[126.98827,37.19454],[126.9893,37.19453],[126.99088,37.19452],[126.99522,37.19397],[126.99701,37.19288],[126.99744,37.19251],[126.99742,37.19172],[126.99767,37.19049],[127.0036,37.18871],[127.00702,37.18773],[127.00785,37.187],[127.00622,37.18551],[127.0036,37.18334],[127.00293,37.18261],[127.00243,37.18205],[127.00365,37.18161],[127.00423,37.18153],[127.00461,37.18148],[127.00481,37.18125],[127.00482,37.1808],[127.00456,37.18041],[127.00343,37.17943],[127.00301,37.17914],[127.00155,37.17839],[126.99977,37.17758],[126.99781,37.17811],[126.9965,37.17846],[126.99515,37.17727],[126.99515,37.1757],[126.99525,37.17501],[126.99553,37.17486],[126.99561,37.17486],[126.99629,37.17491],[126.99654,37.17483],[126.99695,37.17469],[126.99786,37.17437],[126.99967,37.17374],[127.00007,37.17355],[127.00131,37.17271],[127.00167,37.17247],[127.00199,37.17212],[127.00416,37.16977],[127.00649,37.1681],[127.00653,37.16806],[127.01239,37.16757],[127.01619,37.1678],[127.01663,37.16785],[127.01905,37.16729],[127.01988,37.16709],[127.02127,37.16643],[127.02143,37.16617],[127.02272,37.16547],[127.02402,37.16526],[127.02527,37.16467],[127.0281,37.16312],[127.02731,37.16173],[127.02697,37.16066],[127.02745,37.16038],[127.02808,37.16],[127.02888,37.15941],[127.02976,37.15876],[127.03049,37.15601],[127.0301,37.1554],[127.02879,37.15498],[127.02842,37.15464],[127.0283,37.15452],[127.02826,37.15449],[127.02818,37.15441],[127.0281,37.15433],[127.02805,37.15426],[127.02802,37.15421],[127.028,37.15408],[127.02799,37.15401],[127.02797,37.15397],[127.02791,37.15389],[127.02783,37.15379],[127.02786,37.15267],[127.02807,37.15217],[127.02853,37.15144],[127.02859,37.15137],[127.02863,37.15132],[127.02876,37.15126],[127.02941,37.15061],[127.02998,37.15],[127.03013,37.14952],[127.03015,37.14923],[127.03018,37.14894],[127.03034,37.14645],[127.03034,37.14637],[127.03031,37.14631],[127.03023,37.14618],[127.03007,37.14598],[127.02995,37.14584],[127.02991,37.1458],[127.02987,37.14572],[127.02983,37.14561],[127.02981,37.14552],[127.02981,37.14546],[127.02981,37.1454],[127.02982,37.14532],[127.02991,37.14519],[127.0301,37.14502],[127.03028,37.14492],[127.03041,37.14486],[127.03047,37.14483],[127.03054,37.14479],[127.03065,37.1447],[127.03079,37.14459],[127.03089,37.14447],[127.03092,37.14442],[127.03152,37.14326],[127.03156,37.14314],[127.0316,37.14301],[127.0316,37.14277],[127.03159,37.14259],[127.03257,37.1402],[127.03334,37.13876],[127.03446,37.13723],[127.03563,37.13602],[127.03446,37.13586],[127.03354,37.13561],[127.03339,37.13556],[127.03288,37.13539],[127.03067,37.13467],[127.0304,37.13457],[127.03038,37.13447],[127.03023,37.13398],[127.02993,37.13376],[127.02921,37.13346],[127.02887,37.13337],[127.02516,37.13279],[127.02492,37.133],[127.02455,37.13323],[127.02439,37.13322],[127.02422,37.13322],[127.02118,37.13197],[127.02065,37.13173],[127.02021,37.13147],[127.01928,37.13091],[127.01871,37.13055],[127.01806,37.13014],[127.01782,37.13002],[127.0177,37.12998],[127.0175,37.12992],[127.01367,37.12902],[127.01346,37.12898],[127.01146,37.12896],[127.00537,37.1281],[127.00383,37.12695],[127.00371,37.12671],[127.00359,37.12645],[127.0034,37.12597],[127.00322,37.12547],[127.00243,37.12438],[127.00014,37.1237],[126.99952,37.12351],[126.99922,37.1236],[126.99914,37.12364],[126.99748,37.1241],[126.99732,37.1242],[126.99696,37.12455],[126.99677,37.12473],[126.99677,37.12495],[126.99679,37.12611],[126.99685,37.12631],[126.99693,37.12646],[126.99711,37.12676],[126.99729,37.12758],[126.99732,37.12789],[126.99717,37.12818],[126.99703,37.12837],[126.99618,37.12918],[126.99449,37.1296],[126.99312,37.12981],[126.99224,37.12932],[126.99128,37.12879],[126.99058,37.12872],[126.98721,37.12972],[126.98623,37.13123],[126.98446,37.13314],[126.98403,37.13357],[126.98312,37.13385],[126.98214,37.13519],[126.98209,37.13604],[126.98213,37.13642],[126.98245,37.13904],[126.98222,37.14145],[126.97907,37.14318],[126.97882,37.14329],[126.9783,37.14328],[126.97422,37.14332],[126.96917,37.14471],[126.969,37.1447],[126.96889,37.14468],[126.96765,37.14435],[126.96761,37.14434],[126.96749,37.14426],[126.96732,37.14409],[126.96728,37.14405],[126.9672,37.14396],[126.96703,37.14378],[126.96698,37.14374],[126.96691,37.1437],[126.96681,37.14364],[126.96669,37.14361],[126.96663,37.14359],[126.96658,37.14358],[126.96636,37.14355],[126.95856,37.14255],[126.95673,37.14311],[126.95655,37.14316],[126.95542,37.14351],[126.95489,37.14387],[126.95255,37.14553],[126.95253,37.14581],[126.95238,37.14814],[126.95175,37.14854],[126.94823,37.15004],[126.94603,37.15058],[126.94387,37.1528],[126.94303,37.15425],[126.94311,37.156],[126.94318,37.15666],[126.94324,37.15726],[126.94351,37.15749],[126.94391,37.15783],[126.9446,37.15866],[126.94492,37.15939],[126.94567,37.16466],[126.94567,37.16492],[126.94537,37.16657],[126.94511,37.16788],[126.94481,37.16918],[126.94424,37.17107],[126.94492,37.17217],[126.9486,37.17422],[126.95139,37.17491],[126.95164,37.17724],[126.95161,37.17787],[126.95079,37.17876],[126.95023,37.18034],[126.94977,37.18165],[126.94947,37.18276],[126.94957,37.18394],[126.9496,37.18404],[126.95003,37.1852],[126.95111,37.18712],[126.95163,37.1879],[126.95266,37.18928],[126.95155,37.19121],[126.9502,37.19386],[126.95069,37.19433],[126.9508,37.1944],[126.95104,37.19456],[126.9515,37.19481],[126.95156,37.19484],[126.95197,37.19503],[126.95414,37.19598],[126.95692,37.19642],[126.95944,37.19656],[126.96186,37.19686],[126.96386,37.19733],[126.96455,37.19752],[126.96467,37.19761],[126.96475,37.19763],[126.96493,37.19769],[126.9654,37.1978],[126.96788,37.1983],[126.96812,37.19831],[126.96827,37.19827],[126.96846,37.1982],[126.96882,37.19797],[126.96966,37.19742],[126.9699,37.19732],[126.97029,37.19718],[126.97101,37.19696],[126.97268,37.19657],[126.97516,37.19652],[126.97541,37.19657],[126.97612,37.19679],[126.97615,37.19681],[126.97626,37.19689],[126.97629,37.19691],[126.97613,37.1971],[126.97617,37.19754],[126.9788,37.19808],[126.98074,37.19778],[126.98103,37.1977],[126.98236,37.19707],[126.98226,37.19699],[126.98307,37.19614],[126.98422,37.19573]]]]}},{"type":"Feature","properties":{"code":"41593510","name":"기배동","parent":"41593"},"geometry":{"type":"MultiPolygon","coordinates":[[[[126.99758,37.23023],[127.00368,37.22929],[127.0081,37.22784],[127.00757,37.22753],[127.00699,37.22699],[127.00435,37.22417],[127.00313,37.2228],[127.00311,37.22267],[127.00323,37.22075],[127.00336,37.2203],[127.00343,37.22005],[127.00127,37.21986],[126.99951,37.21966],[126.99733,37.21889],[126.99702,37.21872],[126.99677,37.21858],[126.99386,37.21687],[126.98772,37.21494],[126.98419,37.21406],[126.98161,37.2133],[126.98057,37.21431],[126.98034,37.21455],[126.97979,37.2152],[126.97989,37.21571],[126.97995,37.21675],[126.97994,37.21682],[126.97992,37.21687],[126.97793,37.22053],[126.97661,37.222],[126.97524,37.22193],[126.97511,37.22194],[126.97395,37.22225],[126.9733,37.2231],[126.97318,37.22327],[126.973,37.22353],[126.97253,37.22419],[126.97236,37.22446],[126.9722,37.22471],[126.97216,37.22481],[126.9721,37.22494],[126.97204,37.22512],[126.97191,37.22552],[126.9719,37.2256],[126.9719,37.22566],[126.97189,37.22576],[126.97184,37.22643],[126.97182,37.22661],[126.97182,37.22666],[126.97179,37.22684],[126.97177,37.22698],[126.97175,37.22711],[126.97172,37.22727],[126.97169,37.22736],[126.9715,37.2278],[126.97129,37.22821],[126.97105,37.2286],[126.97103,37.22862],[126.97091,37.22873],[126.97039,37.2292],[126.97199,37.22887],[126.97282,37.22872],[126.97822,37.22957],[126.97895,37.2301],[126.97953,37.23059],[126.97991,37.23104],[126.98006,37.23161],[126.9802,37.23213],[126.98022,37.23216],[126.98026,37.23219],[126.98032,37.23223],[126.98036,37.23224],[126.98158,37.23226],[126.9824,37.23226],[126.98572,37.23264],[126.98812,37.23359],[126.98825,37.23358],[126.98852,37.23351],[126.98949,37.2331],[126.99039,37.23263],[126.99119,37.23204],[126.99265,37.23085],[126.99758,37.23023]]]]}}]}