{"type":"FeatureCollection","features":[{"type":"Feature","properties":{"code":"41410510","name":"군포1동","parent":"41410"},"geometry":{"type":"MultiPolygon","coordinates":[[[[126.96214,37.36156],[126.96202,37.36148],[126.96201,37.36144],[126.96052,37.35639],[126.96195,37.35552],[126.96223,37.35538],[126.96237,37.35534],[126.96139,37.3538],[126.95943,37.35062],[126.95955,37.34822],[126.95909,37.34783],[126.95902,37.34777],[126.95864,37.3475],[126.95824,37.34723],[126.95799,37.34611],[126.95758,37.34434],[126.95444,37.3411],[126.95365,37.34102],[126.95134,37.34175],[126.94856,37.33975],[126.9484,37.3369],[126.94812,37.33183],[126.9479,37.33119],[126.94759,37.33201],[126.9475,37.33474],[126.94789,37.34159],[126.94844,37.34533],[126.94846,37.34536],[126.94918,37.34636],[126.94952,37.34685],[126.94956,37.34692],[126.94957,37.34696],[126.9502,37.35021],[126.94957,37.3507],[126.94163,37.35068],[126.93989,37.3511],[126.93695,37.35117],[126.93769,37.35235],[126.9392,37.35493],[126.93975,37.35589],[126.94014,37.35655],[126.94224,37.35842],[126.94229,37.35845],[126.94236,37.3585],[126.94265,37.3587],[126.9429,37.35864],[126.943,37.35862],[126.9439,37.35841],[126.94552,37.3587],[126.94557,37.35878],[126.9456,37.35885],[126.94562,37.35894],[126.94562,37.35904],[126.94562,37.35914],[126.94622,37.35987],[126.94775,37.36021],[126.94789,37.36021],[126.94813,37.36021],[126.94855,37.36021],[126.94895,37.36057],[126.95007,37.36165],[126.95211,37.36364],[126.9539,37.36628],[126.95565,37.36623],[126.95603,37.36619],[126.95702,37.36603],[126.95738,37.36575],[126.9575,37.36567],[126.95773,37.36548],[126.95777,37.36545],[126.96138,37.36226],[126.96165,37.36201],[126.96214,37.36156]]]]}},{"type":"Feature","properties":{"code":"41410540","name":"산본1동","parent":"41410"},"geometry":{"type":"MultiPolygon","coordinates":[[[[126.94528,37.37701],[126.94469,37.37632],[126.94575,37.37401],[126.94559,37.37378],[126.945,37.37357],[126.94374,37.37317],[126.94321,37.37297],[126.94271,37.37279],[126.94348,37.37102],[126.94279,37.36911],[126.94209,37.36818],[126.93973,37.36694],[126.93933,37.36673],[126.93923,37.36668],[126.93876,37.36744],[126.93854,37.3678],[126.93843,37.36797],[126.93695,37.3703],[126.93652,37.37098],[126.93615,37.37155],[126.93591,37.37193],[126.93569,37.3722],[126.93544,37.37243],[126.93528,37.37257],[126.93516,37.37267],[126.93512,37.37271],[126.93502,37.37282],[126.93497,37.37288],[126.93487,37.37302],[126.9348,37.37315],[126.9348,37.37318],[126.93478,37.37331],[126.93481,37.37449],[126.93482,37.37498],[126.93487,37.37655],[126.93489,37.377],[126.93737,37.37656],[126.93917,37.37601],[126.94008,37.37585],[126.94032,37.37605],[126.94051,37.37621],[126.94056,37.37624],[126.94119,37.37676],[126.94082,37.37913],[126.94147,37.3788],[126.94221,37.37851],[126.94246,37.37843],[126.94281,37.37832],[126.94285,37.37831],[126.94327,37.37821],[126.94355,37.37809],[126.94363,37.37806],[126.9438,37.37799],[126.94431,37.37766],[126.94463,37.37745],[126.94509,37.37715],[126.94518,37.37709],[126.94521,37.37707],[126.94524,37.37705],[126.94528,37.37701]]]]}},{"type":"Feature","properties":{"code":"41410550","name":"산본2동","parent":"41410"},"geometry":{"type":"MultiPolygon","coordinates":[[[[126.93489,37.377],[126.93487,37.37655],[126.93482,37.37498],[126.93481,37.37449],[126.93478,37.37331],[126.9348,37.37318],[126.9348,37.37315],[126.93487,37.37302],[126.93497,37.37288],[126.93502,37.37282],[126.93512,37.37271],[126.93516,37.37267],[126.93528,37.37257],[126.93544,37.37243],[126.93569,37.3722],[126.93591,37.37193],[126.93615,37.37155],[126.93652,37.37098],[126.93695,37.3703],[126.93843,37.36797],[126.93854,37.3678],[126.93876,37.36744],[126.93923,37.36668],[126.93717,37.36427],[126.93477,37.36407],[126.93361,37.364],[126.93306,37.36304],[126.93291,37.36277],[126.93281,37.36261],[126.93264,37.36245],[126.93196,37.36195],[126.93015,37.36416],[126.92996,37.36439],[126.93125,37.36546],[126.93198,37.36606],[126.93228,37.36627],[126.93234,37.36632],[126.9324,37.36636],[126.93296,37.3668],[126.93301,37.3669],[126.93291,37.36711],[126.93281,37.36725],[126.93255,37.36764],[126.93244,37.36778],[126.93233,37.36789],[126.92701,37.3721],[126.92598,37.37236],[126.9249,37.37307],[126.92298,37.37457],[126.92265,37.37498],[126.92142,37.37652],[126.92392,37.37726],[126.92414,37.37731],[126.92695,37.37764],[126.93098,37.37753],[126.93277,37.37747],[126.93489,37.377]]]]}},{"type":"Feature","properties":{"code":"41410560","name":"금정동","parent":"41410"},"geometry":{"type":"MultiPolygon","coordinates":[[[[126.94562,37.35914],[126.94419,37.35987],[126.94337,37.3608],[126.94145,37.36253],[126.93832,37.36282],[126.93717,37.36427],[126.93923,37.36668],[126.93933,37.36673],[126.93973,37.36694],[126.94209,37.36818],[126.94279,37.36911],[126.94348,37.37102],[126.94271,37.37279],[126.94321,37.37297],[126.94374,37.37317],[126.945,37.37357],[126.94559,37.37378],[126.94555,37.37303],[126.94707,37.36998],[126.94724,37.36985],[126.94734,37.36978],[126.9476,37.36961],[126.94776,37.3695],[126.94812,37.36927],[126.94857,37.36897],[126.94875,37.36882],[126.94939,37.3683],[126.94966,37.36804],[126.95034,37.36737],[126.95313,37.36629],[126.9539,37.36628],[126.95211,37.36364],[126.95007,37.36165],[126.94895,37.36057],[126.94855,37.36021],[126.94813,37.36021],[126.94789,37.36021],[126.94775,37.36021],[126.94622,37.35987],[126.94562,37.35914]]],[[[126.94669,37.37566],[126.94575,37.37401],[126.94469,37.37632],[126.94528,37.37701],[126.9462,37.37626],[126.94669,37.37566]]]]}},{"type":"Feature","properties":{"code":"41410570","name":"재궁동","parent":"41410"},"geometry":{"type":"MultiPolygon","coordinates":[[[[126.94562,37.35914],[126.94562,37.35904],[126.94562,37.35894],[126.9456,37.35885],[126.94557,37.35878],[126.94552,37.3587],[126.9439,37.35841],[126.943,37.35862],[126.9429,37.35864],[126.94265,37.3587],[126.94236,37.3585],[126.94229,37.35845],[126.94224,37.35842],[126.94014,37.35655],[126.93975,37.35589],[126.9392,37.35493],[126.93769,37.35235],[126.93695,37.35117],[126.93686,37.35105],[126.93183,37.35704],[126.93481,37.35858],[126.93473,37.35869],[126.93457,37.35887],[126.93309,37.36062],[126.93239,37.36144],[126.93196,37.36195],[126.93264,37.36245],[126.93281,37.36261],[126.93291,37.36277],[126.93306,37.36304],[126.93361,37.364],[126.93477,37.36407],[126.93717,37.36427],[126.93832,37.36282],[126.94145,37.36253],[126.94337,37.3608],[126.94419,37.35987],[126.94562,37.35914]]]]}},{"type":"Feature","properties":{"code":"41410580","name":"오금동","parent":"41410"},"geometry":{"type":"MultiPolygon","coordinates":[[[[126.93686,37.35105],[126.93673,37.35082],[126.93622,37.35081],[126.93607,37.35077],[126.93591,37.35072],[126.9341,37.34976],[126.93344,37.349],[126.9334,37.34894],[126.92986,37.34465],[126.92904,37.34353],[126.92898,37.34336],[126.92897,37.34332],[126.92901,37.3429],[126.92889,37.34232],[126.92856,37.3414],[126.92707,37.34041],[126.92438,37.34115],[126.92443,37.34255],[126.92444,37.34266],[126.92444,37.34285],[126.92466,37.3452],[126.9247,37.34565],[126.92489,37.34656],[126.92502,37.34718],[126.92515,37.34782],[126.92535,37.34875],[126.9256,37.34957],[126.92619,37.35151],[126.92621,37.35157],[126.9266,37.35282],[126.92669,37.3531],[126.92671,37.35316],[126.92685,37.35347],[126.92689,37.35356],[126.92788,37.35464],[126.92791,37.35467],[126.92801,37.35476],[126.92818,37.3549],[126.9288,37.3554],[126.92884,37.35543],[126.92888,37.35545],[126.92921,37.35564],[126.92928,37.35567],[126.92946,37.35577],[126.92981,37.35597],[126.93013,37.35613],[126.93042,37.35629],[126.93114,37.35667],[126.93183,37.35704],[126.93686,37.35105]]]]}},{"type":"Feature","properties":{"code":"41410590","name":"수리동","parent":"41410"},"geometry":{"type":"MultiPolygon","coordinates":[[[[126.92439,37.3579],[126.92689,37.35356],[126.92685,37.35347],[126.92671,37.35316],[126.92669,37.3531],[126.9266,37.35282],[126.92621,37.35157],[126.92619,37.35151],[126.9256,37.34957],[126.92535,37.34875],[126.92515,37.34782],[126.92502,37.34718],[126.92489,37.34656],[126.9247,37.34565],[126.92466,37.3452],[126.92444,37.34285],[126.92444,37.34266],[126.92443,37.34255],[126.92438,37.34115],[126.9243,37.34112],[126.92367,37.34089],[126.92312,37.34068],[126.92301,37.34064],[126.92288,37.34059],[126.92281,37.34059],[126.91613,37.3412],[126.91586,37.34128],[126.91571,37.34134],[126.91562,37.34137],[126.91543,37.34144],[126.91538,37.34147],[126.91535,37.34149],[126.91521,37.34158],[126.90955,37.34526],[126.90933,37.34541],[126.90923,37.34558],[126.90917,37.34589],[126.90918,37.34601],[126.90938,37.34734],[126.90958,37.34807],[126.90979,37.349],[126.91006,37.3522],[126.90819,37.35505],[126.90693,37.35704],[126.90554,37.35875],[126.90697,37.3597],[126.91013,37.35946],[126.91424,37.3594],[126.91839,37.35962],[126.91962,37.35943],[126.92439,37.3579]]]]}},{"type":"Feature","properties":{"code":"41410600","name":"궁내동","parent":"41410"},"geometry":{"type":"MultiPolygon","coordinates":[[[[126.92439,37.3579],[126.91962,37.35943],[126.91839,37.35962],[126.91424,37.3594],[126.91013,37.35946],[126.90697,37.3597],[126.90725,37.3599],[126.90743,37.3601],[126.90759,37.36033],[126.90775,37.36081],[126.90792,37.36138],[126.90799,37.36164],[126.90831,37.36339],[126.91019,37.36572],[126.91031,37.36581],[126.9105,37.36602],[126.91154,37.36767],[126.91164,37.36784],[126.91176,37.36807],[126.91181,37.36827],[126.91181,37.36836],[126.9118,37.36852],[126.91178,37.3687],[126.91172,37.36893],[126.9117,37.36901],[126.91171,37.36909],[126.91253,37.37067],[126.91265,37.37088],[126.9128,37.37115],[126.91335,37.37213],[126.91377,37.37285],[126.91894,37.36867],[126.92165,37.36595],[126.9221,37.36612],[126.92221,37.36615],[126.92229,37.36617],[126.92244,37.36618],[126.92253,37.36619],[126.9227,37.36618],[126.92279,37.36617],[126.92285,37.36616],[126.92305,37.3661],[126.92327,37.36598],[126.92518,37.36478],[126.92547,37.36457],[126.92553,37.36452],[126.92577,37.36428],[126.92876,37.36069],[126.92888,37.36053],[126.92896,37.36041],[126.92848,37.36012],[126.92824,37.35999],[126.92439,37.3579]]]]}},{"type":"Feature","properties":{"code":"41410620","name":"광정동","parent":"41410"},"geometry":{"type":"MultiPolygon","coordinates":[[[[126.92142,37.37652],[126.92265,37.37498],[126.92298,37.37457],[126.9249,37.37307],[126.92598,37.37236],[126.92701,37.3721],[126.93233,37.36789],[126.93244,37.36778],[126.93255,37.36764],[126.93281,37.36725],[126.93291,37.36711],[126.93301,37.3669],[126.93296,37.3668],[126.9324,37.36636],[126.93234,37.36632],[126.93228,37.36627],[126.93198,37.36606],[126.93125,37.36546],[126.92996,37.36439],[126.93015,37.36416],[126.93196,37.36195],[126.93239,37.36144],[126.93309,37.36062],[126.93457,37.35887],[126.93473,37.35869],[126.93481,37.35858],[126.93183,37.35704],[126.93114,37.35667],[126.93042,37.35629],[126.93013,37.35613],[126.92981,37.35597],[126.92946,37.35577],[126.92928,37.35567],[126.92921,37.35564],[126.92888,37.35545],[126.92884,37.35543],[126.9288,37.3554],[126.92818,37.3549],[126.92801,37.35476],[126.92791,37.35467],[126.92788,37.35464],[126.92689,37.35356],[126.92439,37.3579],[126.92824,37.35999],[126.92848,37.36012],[126.92896,37.36041],[126.92888,37.36053],[126.92876,37.36069],[126.92577,37.36428],[126.92553,37.36452],[126.92547,37.36457],[126.92518,37.36478],[126.92327,37.36598],[126.92305,37.3661],[126.92285,37.36616],[126.92279,37.36617],[126.9227,37.36618],[126.92253,37.36619],[126.92244,37.36618],[126.92229,37.36617],[126.92221,37.36615],[126.9221,37.36612],[126.92165,37.36595],[126.91894,37.36867],[126.91377,37.37285],[126.91483,37.37541],[126.91549,37.3755],[126.9156,37.37553],[126.91585,37.3756],[126.9165,37.37581],[126.91668,37.37588],[126.9169,37.37609],[126.91753,37.37678],[126.91918,37.37693],[126.9199,37.37656],[126.92142,37.37652]]]]}},{"type":"Feature","properties":{"code":"41410610","name":"대야동","parent":"41410"},"geometry":{"type":"MultiPolygon","coordinates":[[[[126.92412,37.33194],[126.92344,37.33168],[126.92228,37.33086],[126.92166,37.33019],[126.92071,37.32877],[126.91757,37.32407],[126.91545,37.31961],[126.91417,37.31594],[126.91391,37.31593],[126.91379,37.31591],[126.91314,37.3157],[126.91283,37.3156],[126.9127,37.31558],[126.91257,37.31557],[126.91246,37.31558],[126.9107,37.31654],[126.91044,37.31677],[126.91039,37.31683],[126.91035,37.31688],[126.91032,37.31693],[126.91028,37.31735],[126.91047,37.31759],[126.91093,37.31777],[126.90816,37.32161],[126.9077,37.32188],[126.90556,37.32165],[126.89503,37.31917],[126.89446,37.31955],[126.8942,37.3197],[126.89413,37.31975],[126.89389,37.3198],[126.89279,37.31981],[126.89187,37.31983],[126.89153,37.31978],[126.88774,37.31791],[126.88577,37.31935],[126.88559,37.31946],[126.8837,37.32059],[126.88328,37.32081],[126.88316,37.32086],[126.88306,37.32086],[126.88163,37.32084],[126.88154,37.32082],[126.87812,37.31946],[126.87421,37.32086],[126.8746,37.32175],[126.87461,37.32178],[126.87466,37.32192],[126.87465,37.32209],[126.87458,37.32224],[126.87454,37.32233],[126.87445,37.32244],[126.87428,37.32257],[126.87399,37.32271],[126.87382,37.32277],[126.87336,37.32307],[126.87275,37.32621],[126.87275,37.3263],[126.87275,37.32635],[126.87276,37.32643],[126.87278,37.32657],[126.87359,37.32928],[126.87398,37.32995],[126.87672,37.33265],[126.87764,37.33266],[126.87858,37.33272],[126.87923,37.33276],[126.87951,37.33283],[126.87992,37.33302],[126.88056,37.33338],[126.88071,37.33347],[126.88091,37.33362],[126.88536,37.3382],[126.88549,37.33838],[126.88678,37.34019],[126.8868,37.34025],[126.88683,37.34032],[126.88767,37.34359],[126.8877,37.34399],[126.88754,37.346],[126.88731,37.34675],[126.88745,37.3473],[126.88867,37.34944],[126.88895,37.34958],[126.88903,37.34961],[126.8896,37.3498],[126.88985,37.34993],[126.89016,37.35013],[126.89192,37.3514],[126.89375,37.35365],[126.89395,37.35548],[126.894,37.35562],[126.89409,37.35571],[126.89724,37.35807],[126.90097,37.35687],[126.90119,37.35683],[126.90408,37.35699],[126.90434,37.35709],[126.90504,37.35787],[126.90526,37.35818],[126.90554,37.35875],[126.90693,37.35704],[126.90819,37.35505],[126.91006,37.3522],[126.90979,37.349],[126.90958,37.34807],[126.90938,37.34734],[126.90918,37.34601],[126.90917,37.34589],[126.90923,37.34558],[126.90933,37.34541],[126.90955,37.34526],[126.91521,37.34158],[126.91535,37.34149],[126.91538,37.34147],[126.91543,37.34144],[126.91562,37.34137],[126.91571,37.34134],[126.91586,37.34128],[126.91613,37.3412],[126.92281,37.34059],[126.92288,37.34059],[126.92301,37.34064],[126.92312,37.34068],[126.92367,37.34089],[126.9243,37.34112],[126.92438,37.34115],[126.92707,37.34041],[126.92729,37.34008],[126.92732,37.34001],[126.92734,37.33996],[126.92774,37.33732],[126.92774,37.33729],[126.92774,37.33725],[126.92769,37.33708],[126.92765,37.33698],[126.92742,37.33646],[126.92737,37.33641],[126.92733,37.33638],[126.92728,37.33637],[126.92716,37.33635],[126.92709,37.33634],[126.92698,37.33634],[126.92688,37.33631],[126.92685,37.33629],[126.92398,37.33307],[126.92412,37.33194]]]]}},{"type":"Feature","properties":{"code":"41410520","name":"군포2동","parent":"41410"},"geometry":{"type":"MultiPolygon","coordinates":[[[[126.94784,37.33079],[126.94498,37.33102],[126.94438,37.33123],[126.94375,37.33178],[126.94326,37.3328],[126.94251,37.33352],[126.94112,37.33451],[126.93974,37.33496],[126.93657,37.33507],[126.9347,37.33582],[126.93151,37.3344],[126.92745,37.33311],[126.92412,37.33194],[126.92398,37.33307],[126.92685,37.33629],[126.92688,37.33631],[126.92698,37.33634],[126.92709,37.33634],[126.92716,37.33635],[126.92728,37.33637],[126.92733,37.33638],[126.92737,37.33641],[126.92742,37.33646],[126.92765,37.33698],[126.92769,37.33708],[126.92774,37.33725],[126.92774,37.33729],[126.92774,37.33732],[126.92734,37.33996],[126.92732,37.34001],[126.92729,37.34008],[126.92707,37.34041],[126.92856,37.3414],[126.92889,37.34232],[126.92901,37.3429],[126.92897,37.34332],[126.92898,37.34336],[126.92904,37.34353],[126.92986,37.34465],[126.9334,37.34894],[126.93344,37.349],[126.9341,37.34976],[126.93591,37.35072],[126.93607,37.35077],[126.93622,37.35081],[126.93673,37.35082],[126.93686,37.35105],[126.93695,37.35117],[126.93989,37.3511],[126.94163,37.35068],[126.94957,37.3507],[126.9502,37.35021],[126.94957,37.34696],[126.94956,37.34692],[126.94952,37.34685],[126.94918,37.34636],[126.94846,37.34536],[126.94844,37.34533],[126.94789,37.34159],[126.9475,37.33474],[126.94759,37.33201],[126.9479,37.33119],[126.94784,37.33079]]]]}},{"type":"Feature","properties":{"code":"41410630","name":"송부동","parent":"41410"},"geometry":{"type":"MultiPolygon","coordinates":[[[[126.92745,37.33311],[126.93151,37.3344],[126.9347,37.33582],[126.93657,37.33507],[126.93974,37.33496],[126.94112,37.33451],[126.94251,37.33352],[126.94326,37.3328],[126.94375,37.33178],[126.94438,37.33123],[126.94498,37.33102],[126.94784,37.33079],[126.94741,37.32814],[126.94743,37.32748],[126.94742,37.32708],[126.9474,37.32696],[126.94696,37.32477],[126.94529,37.32088],[126.94505,37.32034],[126.94476,37.3203],[126.94352,37.32057],[126.94094,37.32116],[126.9407,37.32123],[126.93964,37.32182],[126.93936,37.32213],[126.93917,37.32227],[126.93908,37.32232],[126.93899,37.32237],[126.93895,37.32239],[126.93887,37.32242],[126.93878,37.32245],[126.93867,37.32246],[126.93861,37.32246],[126.93852,37.32245],[126.93846,37.32245],[126.93742,37.32234],[126.93739,37.32233],[126.93709,37.32229],[126.93603,37.32197],[126.93574,37.32183],[126.93566,37.32178],[126.93559,37.32173],[126.9355,37.32164],[126.93216,37.31845],[126.93057,37.31745],[126.93025,37.31729],[126.92964,37.31703],[126.9296,37.31694],[126.92957,37.31684],[126.92952,37.31673],[126.92948,37.31651],[126.92945,37.31617],[126.92947,37.31604],[126.92953,37.31579],[126.93024,37.31296],[126.93026,37.31291],[126.93029,37.31283],[126.93073,37.31186],[126.93079,37.31178],[126.93086,37.31171],[126.93118,37.31159],[126.93285,37.30885],[126.93286,37.30882],[126.93294,37.30859],[126.93301,37.30836],[126.93302,37.30813],[126.93301,37.308],[126.93289,37.30784],[126.93278,37.30771],[126.93236,37.30742],[126.93137,37.3071],[126.93091,37.30708],[126.93043,37.30706],[126.92916,37.3069],[126.92616,37.30691],[126.92542,37.30686],[126.92477,37.30679],[126.92258,37.30644],[126.9225,37.30642],[126.92237,37.30618],[126.92225,37.30613],[126.92159,37.30582],[126.92121,37.30566],[126.92091,37.30558],[126.92064,37.30554],[126.91646,37.30515],[126.91622,37.30516],[126.91604,37.30522],[126.91538,37.3055],[126.91528,37.30558],[126.91437,37.31052],[126.91433,37.31094],[126.91433,37.31118],[126.91433,37.31125],[126.91433,37.31131],[126.9144,37.31171],[126.91451,37.31202],[126.9152,37.31355],[126.91551,37.31514],[126.91505,37.31556],[126.91459,37.31583],[126.91445,37.31589],[126.91441,37.31591],[126.91417,37.31594],[126.91545,37.31961],[126.91757,37.32407],[126.92071,37.32877],[126.92166,37.33019],[126.92228,37.33086],[126.92344,37.33168],[126.92412,37.33194],[126.92745,37.33311]]]]}}]}