{"type":"FeatureCollection","features":[{"type":"Feature","properties":{"code":"51190515","name":"황지동","parent":"51190"},"geometry":{"type":"MultiPolygon","coordinates":[[[[129.00554,37.15857],[129.00171,37.15994],[129.00021,37.16047],[128.99253,37.16319],[128.99247,37.16303],[128.98924,37.16356],[128.98828,37.16383],[128.98731,37.16417],[128.98176,37.16737],[128.98069,37.16821],[128.9802,37.16908],[128.98043,37.1708],[128.98249,37.17172],[128.9846,37.17288],[128.98727,37.17433],[128.98794,37.17385],[128.98813,37.17365],[128.98853,37.17323],[128.98911,37.17244],[128.99069,37.17215],[128.99143,37.17246],[128.99145,37.17249],[128.99187,37.17294],[128.9908,37.17384],[128.98909,37.17527],[128.9939,37.17846],[128.99435,37.17878],[128.99523,37.17972],[128.9952,37.18018],[128.99534,37.18068],[128.99596,37.18162],[128.99609,37.18167],[128.99656,37.18162],[129.00227,37.17984],[129.00249,37.17975],[129.00299,37.17949],[129.00312,37.17941],[129.0032,37.17934],[129.00401,37.17851],[129.00407,37.17845],[129.00414,37.17833],[129.00493,37.17644],[129.00605,37.17377],[129.0061,37.17363],[129.00616,37.17271],[129.00606,37.17038],[129.00571,37.1684],[129.00535,37.16802],[129.00504,37.16763],[129.00492,37.16745],[129.00476,37.16702],[129.00398,37.1626],[129.00396,37.16248],[129.00399,37.16217],[129.0042,37.16166],[129.00554,37.15857]]]]}},{"type":"Feature","properties":{"code":"51190525","name":"황연동","parent":"51190"},"geometry":{"type":"MultiPolygon","coordinates":[[[[128.99762,37.21297],[128.99608,37.2106],[128.99569,37.20934],[128.99584,37.20825],[128.99811,37.2047],[128.99963,37.20147],[128.99974,37.20152],[129.00093,37.202],[129.00111,37.20206],[129.00125,37.20208],[129.00138,37.20209],[129.00158,37.20209],[129.00174,37.20208],[129.002,37.20205],[129.00227,37.20201],[129.00252,37.20195],[129.00571,37.20078],[129.00706,37.20012],[129.00715,37.20006],[129.00724,37.19996],[129.00836,37.1985],[129.00839,37.19836],[129.00842,37.19803],[129.00795,37.19539],[129.00857,37.19305],[129.00907,37.19154],[129.00941,37.19072],[129.0113,37.18658],[129.01139,37.18641],[129.01153,37.1862],[129.01224,37.18532],[129.01683,37.18139],[129.01697,37.18129],[129.02085,37.1793],[129.02102,37.17922],[129.02128,37.17911],[129.02153,37.17903],[129.02173,37.17898],[129.02191,37.17897],[129.02234,37.17893],[129.0226,37.17889],[129.02266,37.17887],[129.02531,37.17774],[129.02544,37.17768],[129.02553,37.17762],[129.02556,37.17759],[129.02667,37.1761],[129.02724,37.17504],[129.02727,37.17502],[129.02736,37.175],[129.02929,37.17455],[129.02945,37.17452],[129.02958,37.17451],[129.02971,37.17451],[129.02984,37.17452],[129.03005,37.17456],[129.03054,37.1747],[129.032,37.17522],[129.04054,37.1748],[129.04372,37.17443],[129.04678,37.17396],[129.04684,37.17395],[129.04692,37.17391],[129.04712,37.17378],[129.04855,37.17285],[129.04861,37.17279],[129.04874,37.17252],[129.04901,37.17215],[129.04945,37.17162],[129.05001,37.171],[129.05067,37.17037],[129.05075,37.17031],[129.05083,37.17026],[129.05093,37.17021],[129.05104,37.17018],[129.05157,37.17017],[129.05165,37.17018],[129.0531,37.17049],[129.05453,37.17087],[129.05653,37.17107],[129.05774,37.17113],[129.05854,37.17115],[129.06222,37.17092],[129.06395,37.17077],[129.07157,37.16996],[129.07176,37.16994],[129.07196,37.16989],[129.07214,37.16984],[129.07232,37.16977],[129.07242,37.16972],[129.07259,37.16959],[129.07272,37.16946],[129.07379,37.16781],[129.07384,37.1677],[129.0743,37.1666],[129.07435,37.16647],[129.0744,37.16622],[129.07443,37.16597],[129.07443,37.16562],[129.07418,37.16211],[129.07415,37.1619],[129.07412,37.1618],[129.07408,37.1617],[129.0767,37.16003],[129.08283,37.16007],[129.08486,37.16005],[129.08496,37.16004],[129.08665,37.15934],[129.0868,37.15934],[129.08686,37.15934],[129.08691,37.15933],[129.08696,37.1593],[129.08837,37.15841],[129.0885,37.15832],[129.08855,37.15825],[129.08874,37.15667],[129.08886,37.15189],[129.0896,37.14472],[129.08971,37.14392],[129.0894,37.14297],[129.08877,37.14216],[129.08842,37.14172],[129.08625,37.14057],[129.08454,37.1401],[129.08419,37.1401],[129.08376,37.14009],[129.07985,37.1402],[129.07845,37.14079],[129.07301,37.14314],[129.07158,37.14413],[129.06581,37.1434],[129.06107,37.14324],[129.05788,37.14128],[129.05237,37.14186],[129.04986,37.14254],[129.04304,37.13773],[129.03997,37.13556],[129.03858,37.13541],[129.0372,37.13526],[129.03451,37.13663],[129.03405,37.13696],[129.03381,37.13714],[129.03271,37.13721],[129.03163,37.1369],[129.03161,37.13648],[129.03162,37.13631],[129.0317,37.1361],[129.03181,37.13591],[129.03216,37.13559],[129.03234,37.13544],[129.03258,37.13526],[129.03289,37.13509],[129.03322,37.13498],[129.03341,37.1349],[129.0336,37.13483],[129.03369,37.13477],[129.0338,37.13471],[129.03399,37.13454],[129.03417,37.13428],[129.03423,37.13411],[129.03425,37.13401],[129.03423,37.13392],[129.03394,37.13325],[129.03093,37.13254],[129.02694,37.13159],[129.02295,37.13065],[129.02297,37.12738],[129.02303,37.11905],[129.022,37.11932],[129.02156,37.11952],[129.02117,37.11958],[129.02102,37.1197],[129.02092,37.11992],[129.02083,37.12013],[129.0204,37.12151],[129.02039,37.12187],[129.02042,37.12235],[129.02036,37.12265],[129.01971,37.12407],[129.01832,37.1265],[129.01698,37.12878],[129.01629,37.13057],[129.01632,37.13067],[129.01688,37.13224],[129.01674,37.13314],[129.0161,37.13413],[129.01336,37.13384],[129.01033,37.13608],[129.0104,37.14307],[129.01071,37.14484],[129.01115,37.14644],[129.01091,37.14701],[129.00958,37.14794],[129.00947,37.148],[129.00903,37.1481],[129.00889,37.14813],[129.00718,37.14844],[129.00698,37.14847],[129.00413,37.14857],[129.00314,37.14858],[129.00214,37.14856],[129.0028,37.15255],[129.00304,37.15378],[129.00307,37.15389],[129.00456,37.15699],[129.00464,37.15716],[129.00492,37.15768],[129.00534,37.15833],[129.00554,37.15857],[129.0042,37.16166],[129.00399,37.16217],[129.00396,37.16248],[129.00398,37.1626],[129.00476,37.16702],[129.00492,37.16745],[129.00504,37.16763],[129.00535,37.16802],[129.00571,37.1684],[129.00606,37.17038],[129.00616,37.17271],[129.0061,37.17363],[129.00605,37.17377],[129.00493,37.17644],[129.00414,37.17833],[129.00407,37.17845],[129.00401,37.17851],[129.0032,37.17934],[129.00312,37.17941],[129.00299,37.17949],[129.00249,37.17975],[129.00227,37.17984],[128.99656,37.18162],[128.99609,37.18167],[128.99596,37.18162],[128.99534,37.18068],[128.9952,37.18018],[128.99523,37.17972],[128.99435,37.17878],[128.9939,37.17846],[128.98909,37.17527],[128.98753,37.17653],[128.98598,37.17774],[128.9854,37.17814],[128.98497,37.17832],[128.9849,37.17834],[128.98325,37.17885],[128.98205,37.17723],[128.97963,37.1791],[128.97687,37.18509],[128.97518,37.18787],[128.97516,37.18827],[128.97661,37.18947],[128.97697,37.18977],[128.97779,37.19046],[128.97783,37.19183],[128.9767,37.19395],[128.97451,37.19584],[128.97447,37.19587],[128.97402,37.19625],[128.97292,37.19834],[128.97291,37.19843],[128.9727,37.20234],[128.97185,37.20432],[128.97351,37.20745],[128.9748,37.20864],[128.97615,37.2093],[128.97839,37.21039],[128.98038,37.21223],[128.98043,37.21242],[128.98034,37.21266],[128.98028,37.21293],[128.98028,37.21316],[128.98033,37.21332],[128.98094,37.21458],[128.98104,37.21473],[128.98124,37.21492],[128.98146,37.21511],[128.98182,37.21534],[128.98648,37.21752],[128.98659,37.21746],[128.98756,37.2164],[128.98814,37.21575],[128.99762,37.21297]]]]}},{"type":"Feature","properties":{"code":"51190535","name":"삼수동","parent":"51190"},"geometry":{"type":"MultiPolygon","coordinates":[[[[129.01845,37.30329],[129.01694,37.30174],[129.01371,37.29952],[129.01352,37.29942],[129.0133,37.29928],[129.01305,37.2991],[129.01276,37.29886],[129.01256,37.29869],[129.01237,37.29847],[129.01224,37.29831],[129.01192,37.2979],[129.01189,37.29783],[129.01187,37.29777],[129.01168,37.29725],[129.01119,37.29662],[129.01108,37.2965],[129.01097,37.29639],[129.01024,37.2958],[129.01009,37.29571],[129.00998,37.29565],[129.00918,37.29526],[129.00544,37.29231],[129.0054,37.29225],[129.00379,37.28847],[129.00377,37.28838],[129.00379,37.28828],[129.0066,37.28323],[129.00663,37.28321],[129.00686,37.28317],[129.00724,37.28316],[129.00783,37.28315],[129.00795,37.28314],[129.00812,37.28306],[129.00844,37.28286],[129.00856,37.28277],[129.0095,37.28199],[129.01245,37.27946],[129.01321,37.27784],[129.01398,37.27516],[129.01392,37.27362],[129.01132,37.27168],[129.00772,37.27041],[129.00637,37.2678],[129.00538,37.26551],[129.00519,37.26499],[129.00451,37.26297],[129.00448,37.26272],[129.00462,37.26183],[129.00473,37.2613],[129.00485,37.26104],[129.00588,37.25962],[129.00596,37.25953],[129.00615,37.2594],[129.00639,37.25927],[129.00654,37.25923],[129.00675,37.25916],[129.0068,37.25911],[129.00907,37.2564],[129.00932,37.25603],[129.00941,37.25585],[129.01008,37.25454],[129.01014,37.25436],[129.01015,37.25424],[129.01011,37.25406],[129.01,37.25381],[129.0099,37.25368],[129.0098,37.25361],[129.00963,37.25356],[129.00953,37.25355],[129.00936,37.25371],[129.00912,37.25389],[129.00852,37.25426],[129.00815,37.25439],[129.0074,37.25434],[129.00693,37.25409],[129.00651,37.25366],[129.00637,37.25315],[129.00631,37.25265],[129.00622,37.25209],[129.00594,37.25174],[129.00549,37.25146],[129.00481,37.25137],[129.00397,37.25129],[129.0028,37.25142],[129.00238,37.25158],[129.00204,37.25173],[129.00176,37.25189],[129.00157,37.25205],[129.00141,37.25207],[129.00129,37.25187],[129.00115,37.25128],[129.00102,37.25011],[129.00098,37.24957],[129.00098,37.24783],[129.00103,37.24601],[129.00198,37.24514],[129.00215,37.24496],[129.00211,37.24477],[129.00052,37.24346],[129.00019,37.2432],[128.99966,37.24299],[128.99888,37.24298],[128.99821,37.24306],[128.99696,37.24341],[128.99604,37.24401],[128.99518,37.2449],[128.99443,37.24506],[128.99378,37.24507],[128.9923,37.24469],[128.99146,37.24429],[128.99015,37.24333],[128.98954,37.2423],[128.98943,37.24183],[128.99138,37.23806],[128.99547,37.23313],[128.9994,37.23136],[129.00075,37.23168],[129.00156,37.23164],[129.0068,37.2309],[129.0076,37.2305],[129.00766,37.23045],[129.0077,37.23041],[129.00824,37.2295],[129.00827,37.22941],[129.00828,37.22938],[129.00806,37.22903],[129.00785,37.2288],[129.00776,37.22871],[129.00763,37.22861],[129.0073,37.22841],[129.00721,37.22832],[129.00662,37.22768],[129.0066,37.22761],[129.00627,37.22581],[129.00661,37.22522],[129.00897,37.22319],[129.01041,37.22211],[129.01049,37.22201],[129.01076,37.22167],[129.0108,37.22161],[129.0108,37.22139],[129.01072,37.22106],[129.0107,37.22099],[129.01067,37.22096],[129.00842,37.22041],[129.0057,37.21987],[129.00551,37.21984],[129.00503,37.21978],[129.00486,37.21976],[129.0047,37.21976],[129.00217,37.21892],[128.99837,37.21745],[128.99829,37.21741],[128.99826,37.21735],[128.99776,37.21647],[128.99772,37.2164],[128.99772,37.21574],[128.99799,37.21506],[128.99805,37.21421],[128.99787,37.21346],[128.99762,37.21297],[128.98814,37.21575],[128.98756,37.2164],[128.98659,37.21746],[128.98648,37.21752],[128.98182,37.21534],[128.98146,37.21511],[128.98124,37.21492],[128.98104,37.21473],[128.98094,37.21458],[128.98033,37.21332],[128.98028,37.21316],[128.98028,37.21293],[128.98034,37.21266],[128.98043,37.21242],[128.98038,37.21223],[128.97839,37.21039],[128.97615,37.2093],[128.9748,37.20864],[128.97351,37.20745],[128.97185,37.20432],[128.9727,37.20234],[128.97291,37.19843],[128.97292,37.19834],[128.97402,37.19625],[128.97447,37.19587],[128.97451,37.19584],[128.9767,37.19395],[128.97783,37.19183],[128.97779,37.19046],[128.97697,37.18977],[128.97661,37.18947],[128.97516,37.18827],[128.97518,37.18787],[128.97687,37.18509],[128.97963,37.1791],[128.98205,37.17723],[128.98325,37.17885],[128.9849,37.17834],[128.98497,37.17832],[128.9854,37.17814],[128.98598,37.17774],[128.98753,37.17653],[128.98909,37.17527],[128.9908,37.17384],[128.99187,37.17294],[128.99145,37.17249],[128.99143,37.17246],[128.99069,37.17215],[128.98911,37.17244],[128.98853,37.17323],[128.98813,37.17365],[128.98794,37.17385],[128.98727,37.17433],[128.9846,37.17288],[128.98249,37.17172],[128.98043,37.1708],[128.97882,37.16996],[128.97757,37.16999],[128.97414,37.16973],[128.97198,37.16944],[128.97095,37.16908],[128.96705,37.16829],[128.96403,37.16807],[128.963,37.16739],[128.96115,37.16715],[128.95632,37.16812],[128.95242,37.17025],[128.9504,37.17105],[128.95056,37.17165],[128.94762,37.17175],[128.94581,37.17116],[128.94395,37.17017],[128.93933,37.1709],[128.93887,37.17083],[128.93831,37.17074],[128.93752,37.17061],[128.9311,37.16917],[128.92869,37.16848],[128.9266,37.16657],[128.92344,37.16273],[128.92202,37.16216],[128.91783,37.1611],[128.91761,37.1611],[128.91764,37.16117],[128.91766,37.16122],[128.91764,37.1623],[128.91759,37.16263],[128.91753,37.16299],[128.9167,37.16612],[128.91594,37.16856],[128.91591,37.16863],[128.91584,37.16874],[128.91565,37.16902],[128.91486,37.17014],[128.91482,37.17019],[128.91479,37.17021],[128.91471,37.17024],[128.91468,37.17025],[128.91392,37.17041],[128.91381,37.17046],[128.91373,37.17054],[128.91365,37.17061],[128.91358,37.17068],[128.91352,37.17078],[128.9131,37.17153],[128.91306,37.17159],[128.91304,37.17169],[128.91302,37.17183],[128.91277,37.1747],[128.91275,37.17675],[128.91277,37.17681],[128.91281,37.17688],[128.91292,37.17706],[128.9146,37.17957],[128.91521,37.18002],[128.91528,37.18007],[128.91533,37.18013],[128.9154,37.18031],[128.91543,37.1804],[128.91543,37.18043],[128.91541,37.18056],[128.91536,37.18072],[128.91422,37.18309],[128.91315,37.18516],[128.91335,37.19123],[128.91153,37.19667],[128.91148,37.19676],[128.91142,37.19698],[128.9114,37.19709],[128.9114,37.19715],[128.91144,37.19724],[128.91242,37.19923],[128.9127,37.19973],[128.91288,37.20006],[128.9137,37.20133],[128.9152,37.20409],[128.91523,37.20415],[128.91562,37.20519],[128.916,37.20642],[128.91613,37.2073],[128.91614,37.20736],[128.91586,37.21144],[128.91311,37.21273],[128.91113,37.21391],[128.90817,37.21637],[128.90992,37.21764],[128.91008,37.21779],[128.91022,37.21792],[128.91032,37.21809],[128.91041,37.21826],[128.91057,37.21866],[128.9106,37.21877],[128.91063,37.21891],[128.91064,37.21898],[128.91066,37.21911],[128.9107,37.21934],[128.91079,37.21957],[128.91163,37.22064],[128.91183,37.22086],[128.91214,37.22114],[128.91339,37.22214],[128.91472,37.22313],[128.9149,37.22324],[128.91502,37.22334],[128.91524,37.22352],[128.91532,37.22359],[128.91546,37.22377],[128.91628,37.2248],[128.91636,37.22491],[128.91644,37.22516],[128.91649,37.22532],[128.91652,37.22546],[128.91652,37.22554],[128.91652,37.22558],[128.91648,37.22564],[128.91645,37.22569],[128.91641,37.22572],[128.91635,37.22575],[128.91627,37.22577],[128.91618,37.22582],[128.91613,37.22588],[128.91611,37.22594],[128.9161,37.22605],[128.91613,37.22736],[128.91613,37.22744],[128.91654,37.23086],[128.91686,37.23338],[128.91708,37.23433],[128.91718,37.23443],[128.91735,37.23464],[128.91765,37.23513],[128.91778,37.23545],[128.91808,37.23647],[128.91808,37.23655],[128.91796,37.23778],[128.91787,37.23834],[128.91777,37.23871],[128.91765,37.23954],[128.91763,37.23984],[128.91766,37.23995],[128.9177,37.24003],[128.91778,37.24008],[128.91972,37.24102],[128.92355,37.24282],[128.92362,37.24282],[128.92624,37.24227],[128.92646,37.24221],[128.92673,37.24212],[128.92694,37.24205],[128.92712,37.24197],[128.92729,37.24189],[128.92745,37.24181],[128.92783,37.24158],[128.92841,37.24133],[128.92955,37.24084],[128.92958,37.24083],[128.92963,37.24085],[128.93104,37.24208],[128.93108,37.24212],[128.93495,37.2459],[128.93493,37.24896],[128.9349,37.24936],[128.93485,37.24984],[128.93412,37.25595],[128.93142,37.26006],[128.93066,37.26294],[128.92901,37.26758],[128.9288,37.2679],[128.9274,37.27013],[128.92724,37.27032],[128.92704,37.27048],[128.92673,37.27059],[128.9265,37.27066],[128.92624,37.27076],[128.92601,37.27093],[128.92574,37.27114],[128.92546,37.27137],[128.92438,37.27261],[128.92426,37.27275],[128.92424,37.27291],[128.92429,37.27308],[128.92443,37.2732],[128.92569,37.27412],[128.92589,37.27424],[128.9262,37.27433],[128.93002,37.27491],[128.93019,37.27494],[128.93034,37.27494],[128.93056,37.27488],[128.931,37.27475],[128.93303,37.27395],[128.93328,37.27383],[128.93351,37.27369],[128.93376,37.27356],[128.93406,37.27344],[128.93418,37.27342],[128.93436,37.27343],[128.9346,37.2735],[128.93624,37.27407],[128.93647,37.27415],[128.94044,37.27875],[128.94057,37.27893],[128.9407,37.27914],[128.94118,37.281],[128.94113,37.2812],[128.94094,37.28136],[128.93971,37.28231],[128.9394,37.28247],[128.93899,37.28267],[128.93883,37.28283],[128.93872,37.283],[128.93873,37.28321],[128.93883,37.28346],[128.94128,37.28848],[128.94141,37.28869],[128.94163,37.28885],[128.94193,37.289],[128.94211,37.2891],[128.94249,37.28926],[128.94301,37.28947],[128.94357,37.28964],[128.94419,37.2898],[128.94472,37.28989],[128.94512,37.28991],[128.94546,37.28987],[128.9457,37.28989],[128.94591,37.28998],[128.94601,37.29009],[128.94603,37.29029],[128.94601,37.29055],[128.9459,37.29087],[128.94558,37.29163],[128.94542,37.29198],[128.94529,37.29224],[128.94482,37.29309],[128.94361,37.29502],[128.94342,37.29523],[128.94311,37.29548],[128.94287,37.29575],[128.94259,37.29609],[128.94244,37.29632],[128.9423,37.29666],[128.94219,37.297],[128.94212,37.29723],[128.94208,37.29754],[128.94206,37.29783],[128.94206,37.29814],[128.94213,37.29847],[128.94224,37.29869],[128.94241,37.29892],[128.9426,37.29916],[128.94275,37.29941],[128.94289,37.29974],[128.94304,37.30012],[128.94315,37.30045],[128.94322,37.30071],[128.94325,37.30101],[128.94326,37.30133],[128.94327,37.30198],[128.94326,37.30319],[128.94324,37.30364],[128.94321,37.30407],[128.94316,37.30445],[128.94314,37.30492],[128.94315,37.30497],[128.94317,37.30509],[128.9432,37.30525],[128.94331,37.3055],[128.94347,37.30579],[128.94367,37.30608],[128.94391,37.30632],[128.94421,37.30647],[128.94764,37.30765],[128.94973,37.30797],[128.95108,37.30867],[128.95236,37.3102],[128.95245,37.31031],[128.95249,37.31037],[128.95268,37.31067],[128.9531,37.31155],[128.95316,37.3119],[128.95319,37.31214],[128.95325,37.31247],[128.95339,37.31295],[128.95346,37.31317],[128.95429,37.31543],[128.95431,37.31549],[128.95439,37.31563],[128.95452,37.31582],[128.95461,37.31594],[128.95473,37.31609],[128.95495,37.31635],[128.95498,37.31638],[128.95548,37.31679],[128.9559,37.31712],[128.95604,37.31724],[128.95612,37.31732],[128.95636,37.31758],[128.95638,37.31761],[128.95654,37.31787],[128.95732,37.32013],[128.95763,37.32168],[128.95767,37.32178],[128.95776,37.32192],[128.95792,37.3221],[128.95813,37.3223],[128.96075,37.32496],[128.96204,37.32688],[128.96315,37.32876],[128.96317,37.32886],[128.96321,37.32904],[128.96327,37.32921],[128.96336,37.32939],[128.96346,37.32951],[128.96354,37.32959],[128.96362,37.32963],[128.96614,37.33087],[128.96627,37.33093],[128.96643,37.33099],[128.96663,37.33104],[128.96677,37.33106],[128.96683,37.33107],[128.96702,37.33104],[128.9672,37.331],[128.9673,37.33096],[128.9674,37.33092],[128.96767,37.3308],[128.9679,37.33069],[128.968,37.33065],[128.96822,37.3306],[128.96838,37.33058],[128.96856,37.33059],[128.96871,37.33059],[128.96998,37.33073],[128.97037,37.33083],[128.97055,37.33088],[128.97065,37.33092],[128.97079,37.33098],[128.971,37.33109],[128.97109,37.33116],[128.97118,37.33124],[128.97153,37.33168],[128.97284,37.33319],[128.9745,37.33465],[128.9747,37.3348],[128.97592,37.33567],[128.9816,37.33964],[128.98216,37.34001],[128.98257,37.34025],[128.98292,37.34045],[128.98588,37.34183],[128.98638,37.34206],[128.98659,37.34215],[128.98684,37.34224],[128.98704,37.3423],[128.98729,37.34237],[128.9877,37.34247],[128.99087,37.34313],[128.99097,37.34314],[128.99103,37.34315],[128.99197,37.34317],[128.99555,37.34231],[128.99563,37.34229],[128.99578,37.34222],[128.99673,37.34176],[128.99743,37.34138],[128.99764,37.34121],[128.99878,37.34053],[128.99969,37.34031],[129.00018,37.34036],[129.00114,37.34154],[129.00163,37.34245],[129.00242,37.34353],[129.00382,37.34496],[129.00587,37.34578],[129.00655,37.34585],[129.00659,37.34586],[129.00693,37.34582],[129.00734,37.34578],[129.00786,37.34561],[129.00833,37.34542],[129.00863,37.34523],[129.00896,37.34497],[129.00975,37.34424],[129.00983,37.34415],[129.00992,37.34405],[129.0105,37.34286],[129.01042,37.34272],[129.01015,37.34242],[129.00987,37.34208],[129.00967,37.34179],[129.00964,37.3416],[129.00967,37.34129],[129.00984,37.3406],[129.00996,37.34021],[129.01015,37.33997],[129.0104,37.33979],[129.01048,37.33974],[129.0106,37.33965],[129.01107,37.33943],[129.01169,37.33916],[129.01191,37.33907],[129.01214,37.33897],[129.01229,37.33896],[129.01241,37.33894],[129.01256,37.33894],[129.01271,37.33894],[129.01306,37.33893],[129.01366,37.33883],[129.01393,37.33878],[129.01419,37.33872],[129.0143,37.33865],[129.01439,37.33852],[129.01449,37.3383],[129.01453,37.33809],[129.01444,37.33791],[129.01136,37.33453],[129.01117,37.33443],[129.01088,37.33437],[129.01069,37.33434],[129.01053,37.33436],[129.01035,37.3344],[129.01004,37.33441],[129.00997,37.3344],[129.0099,37.3344],[129.00877,37.33417],[129.00864,37.33412],[129.0085,37.33406],[129.00829,37.33395],[129.00808,37.33383],[129.00744,37.3334],[129.00616,37.33244],[129.00591,37.33221],[129.00106,37.32738],[128.99857,37.32597],[128.99844,37.32588],[128.99839,37.32583],[128.99833,37.32577],[128.99805,37.3254],[128.99796,37.32527],[128.99784,37.32507],[128.99782,37.32496],[128.99778,37.31957],[128.99779,37.31951],[128.99781,37.31948],[128.99788,37.31943],[128.99799,37.3194],[128.99819,37.31937],[128.99841,37.31935],[128.99863,37.31933],[128.9989,37.3193],[128.99941,37.31923],[128.99967,37.31919],[128.99983,37.31916],[129.00001,37.31912],[129.00018,37.31908],[129.00049,37.31895],[129.00084,37.31877],[129.00177,37.31828],[129.00206,37.31811],[129.00228,37.31798],[129.0024,37.31789],[129.00244,37.31786],[129.00249,37.31783],[129.00256,37.31774],[129.00262,37.31765],[129.0027,37.31745],[129.00276,37.31724],[129.00364,37.31591],[129.00457,37.31462],[129.00459,37.31459],[129.00812,37.31213],[129.00944,37.31156],[129.00953,37.31154],[129.00975,37.31154],[129.01036,37.3116],[129.01212,37.30986],[129.01416,37.30745],[129.01562,37.30588],[129.01796,37.30501],[129.01799,37.30498],[129.01845,37.30329]]]]}},{"type":"Feature","properties":{"code":"51190540","name":"상장동","parent":"51190"},"geometry":{"type":"MultiPolygon","coordinates":[[[[128.98043,37.1708],[128.9802,37.16908],[128.98069,37.16821],[128.98176,37.16737],[128.98731,37.16417],[128.98828,37.16383],[128.98924,37.16356],[128.99247,37.16303],[128.99253,37.16319],[129.00021,37.16047],[129.00171,37.15994],[129.00554,37.15857],[129.00534,37.15833],[129.00492,37.15768],[129.00464,37.15716],[129.00456,37.15699],[129.00307,37.15389],[129.00304,37.15378],[129.0028,37.15255],[129.00214,37.14856],[129.00205,37.14825],[129.00211,37.14747],[129.00265,37.14492],[128.99929,37.1414],[128.99868,37.14049],[128.9962,37.13672],[128.99591,37.13644],[128.99501,37.13557],[128.99332,37.13446],[128.98977,37.13398],[128.98687,37.13454],[128.98646,37.13636],[128.98644,37.13643],[128.98626,37.13723],[128.9849,37.13812],[128.98406,37.13902],[128.98317,37.14092],[128.98133,37.1432],[128.98131,37.14323],[128.97669,37.14237],[128.97638,37.1423],[128.9741,37.14157],[128.97314,37.14105],[128.96995,37.13906],[128.96762,37.13757],[128.96622,37.13683],[128.96359,37.13711],[128.96192,37.13793],[128.96034,37.1389],[128.96015,37.14015],[128.95917,37.14205],[128.95763,37.14416],[128.95675,37.14496],[128.95446,37.14619],[128.95029,37.14649],[128.94958,37.14669],[128.94697,37.14814],[128.94448,37.1499],[128.94206,37.15212],[128.93313,37.15659],[128.93197,37.15711],[128.92945,37.15801],[128.92762,37.15807],[128.92633,37.15812],[128.92506,37.15819],[128.92378,37.15881],[128.92109,37.16105],[128.91783,37.1611],[128.92202,37.16216],[128.92344,37.16273],[128.9266,37.16657],[128.92869,37.16848],[128.9311,37.16917],[128.93752,37.17061],[128.93831,37.17074],[128.93887,37.17083],[128.93933,37.1709],[128.94395,37.17017],[128.94581,37.17116],[128.94762,37.17175],[128.95056,37.17165],[128.9504,37.17105],[128.95242,37.17025],[128.95632,37.16812],[128.96115,37.16715],[128.963,37.16739],[128.96403,37.16807],[128.96705,37.16829],[128.97095,37.16908],[128.97198,37.16944],[128.97414,37.16973],[128.97757,37.16999],[128.97882,37.16996],[128.98043,37.1708]]]]}},{"type":"Feature","properties":{"code":"51190605","name":"구문소동","parent":"51190"},"geometry":{"type":"MultiPolygon","coordinates":[[[[129.02303,37.11905],[129.02326,37.11668],[129.02501,37.11409],[129.02698,37.11119],[129.0309,37.10624],[129.03238,37.10598],[129.03459,37.10839],[129.0359,37.10814],[129.03713,37.10803],[129.03729,37.10802],[129.03823,37.10804],[129.03861,37.10806],[129.04037,37.11019],[129.04171,37.11205],[129.04192,37.11217],[129.04365,37.11234],[129.0438,37.11228],[129.04481,37.11183],[129.05049,37.1114],[129.05128,37.11191],[129.05247,37.11272],[129.05291,37.11329],[129.05347,37.11419],[129.05388,37.11429],[129.05542,37.11464],[129.05719,37.11383],[129.05949,37.11277],[129.06714,37.10999],[129.06761,37.10989],[129.06827,37.10979],[129.07232,37.10955],[129.07282,37.10975],[129.07553,37.10957],[129.08168,37.10796],[129.08515,37.10748],[129.08531,37.10743],[129.08775,37.1056],[129.08815,37.10515],[129.08842,37.10463],[129.0885,37.10436],[129.08928,37.10392],[129.08983,37.10362],[129.09029,37.10355],[129.09095,37.10359],[129.09144,37.10369],[129.09365,37.10495],[129.0958,37.10046],[129.09489,37.09986],[129.09163,37.09772],[129.09157,37.09769],[129.09151,37.09768],[129.08943,37.09725],[129.08935,37.09724],[129.08929,37.09723],[129.08919,37.09722],[129.08907,37.09722],[129.08883,37.09723],[129.08852,37.09729],[129.08806,37.09736],[129.08795,37.09735],[129.08786,37.09735],[129.08772,37.09734],[129.08756,37.09732],[129.08736,37.09727],[129.08723,37.09723],[129.08702,37.09715],[129.08696,37.09712],[129.08682,37.09704],[129.08515,37.0961],[129.08501,37.096],[129.08424,37.09544],[129.08395,37.09515],[129.08378,37.09497],[129.08365,37.09488],[129.08351,37.09479],[129.08227,37.09406],[129.08209,37.09398],[129.07895,37.09319],[129.07879,37.09316],[129.07856,37.09313],[129.07829,37.09309],[129.07761,37.09303],[129.07738,37.09302],[129.07718,37.09302],[129.07298,37.0909],[129.07294,37.09088],[129.07048,37.08846],[129.07044,37.0884],[129.07,37.08736],[129.06999,37.08729],[129.06999,37.08726],[129.07,37.08722],[129.07003,37.08711],[129.07007,37.08704],[129.07018,37.0869],[129.07022,37.08686],[129.07032,37.08678],[129.07039,37.08671],[129.07057,37.08625],[129.07103,37.08505],[129.07104,37.08497],[129.07104,37.08479],[129.07103,37.08462],[129.07102,37.08452],[129.07098,37.08432],[129.07094,37.08418],[129.07088,37.08411],[129.06877,37.08209],[129.06722,37.08086],[129.06712,37.08078],[129.06703,37.08071],[129.06692,37.08058],[129.06681,37.08045],[129.06669,37.08024],[129.06589,37.07893],[129.06581,37.07877],[129.06579,37.0787],[129.06576,37.07863],[129.06575,37.0786],[129.06573,37.07851],[129.06573,37.07846],[129.06575,37.07842],[129.06621,37.07787],[129.06628,37.0778],[129.06648,37.0777],[129.06693,37.07745],[129.06704,37.07734],[129.06709,37.07726],[129.06711,37.07723],[129.06774,37.07618],[129.06776,37.07613],[129.06777,37.07609],[129.0678,37.07448],[129.06778,37.07436],[129.06776,37.07429],[129.06514,37.06906],[129.06169,37.06557],[129.06161,37.06553],[129.06009,37.06479],[129.05824,37.06459],[129.05807,37.06457],[129.05797,37.06457],[129.05775,37.06459],[129.05759,37.06463],[129.05746,37.06468],[129.05733,37.06476],[129.05724,37.06486],[129.0572,37.06492],[129.05719,37.06496],[129.05716,37.06504],[129.05703,37.06646],[129.05704,37.06657],[129.05705,37.06664],[129.05707,37.06672],[129.05713,37.06685],[129.05722,37.06695],[129.05728,37.067],[129.05731,37.06702],[129.05755,37.06721],[129.05764,37.0673],[129.05768,37.06737],[129.0577,37.06743],[129.0577,37.06748],[129.05764,37.06757],[129.05755,37.06763],[129.05654,37.06834],[129.05509,37.06934],[129.05495,37.06942],[129.05489,37.06945],[129.05479,37.0695],[129.05458,37.06959],[129.05435,37.06965],[129.05411,37.06968],[129.05385,37.06968],[129.05369,37.06968],[129.05329,37.06964],[129.05294,37.06955],[129.05288,37.06953],[129.05268,37.06946],[129.05238,37.0693],[129.05227,37.06921],[129.05222,37.06916],[129.05215,37.06894],[129.05209,37.06873],[129.05207,37.06867],[129.05201,37.06855],[129.05196,37.06849],[129.05191,37.06845],[129.05184,37.06842],[129.05166,37.06837],[129.05139,37.0683],[129.05122,37.06828],[129.05114,37.06828],[129.051,37.06827],[129.05077,37.0683],[129.05049,37.06836],[129.05029,37.06842],[129.0413,37.07192],[129.04085,37.07212],[129.04073,37.07219],[129.04062,37.07225],[129.04054,37.07229],[129.03857,37.07418],[129.03431,37.07576],[129.02284,37.07715],[129.02272,37.0771],[129.02261,37.07695],[129.0225,37.07682],[129.02238,37.07671],[129.02223,37.0766],[129.02212,37.07653],[129.0218,37.07638],[129.02169,37.07634],[129.02164,37.07633],[129.0214,37.07627],[129.02068,37.07621],[129.02025,37.07618],[129.02003,37.07616],[129.01987,37.07616],[129.01968,37.07618],[129.01959,37.0762],[129.01948,37.07624],[129.01924,37.07635],[129.01915,37.0764],[129.01902,37.07649],[129.01896,37.07654],[129.01887,37.07661],[129.01863,37.07681],[129.01829,37.07707],[129.01781,37.07742],[129.01778,37.07744],[129.01771,37.07749],[129.01761,37.07755],[129.01747,37.07763],[129.01521,37.0788],[129.01484,37.07898],[129.01463,37.07906],[129.01452,37.07909],[129.01447,37.07908],[129.01441,37.07907],[129.01368,37.07846],[129.01354,37.07828],[129.01342,37.07814],[129.01327,37.07811],[129.01205,37.07806],[129.00926,37.07812],[129.00915,37.07816],[129.00887,37.07835],[129.00859,37.07859],[129.00852,37.07864],[129.00841,37.07867],[129.00327,37.07954],[128.99907,37.08037],[128.99522,37.08122],[128.99485,37.08152],[128.99459,37.08197],[128.99372,37.08355],[128.99541,37.08458],[128.99698,37.08507],[129.00261,37.08727],[129.00254,37.08743],[129.00194,37.0888],[129.00138,37.08964],[129.00443,37.09522],[129.00629,37.09598],[129.00793,37.09653],[129.013,37.09956],[129.01412,37.10089],[129.01312,37.10343],[129.01249,37.10356],[129.0119,37.10369],[129.01206,37.1078],[129.01201,37.10973],[129.01346,37.11153],[129.01412,37.11417],[129.01547,37.11749],[129.01635,37.11823],[129.01864,37.11874],[129.01977,37.119],[129.02156,37.11952],[129.022,37.11932],[129.02303,37.11905]]]]}},{"type":"Feature","properties":{"code":"51190595","name":"장성동","parent":"51190"},"geometry":{"type":"MultiPolygon","coordinates":[[[[129.01201,37.10973],[129.01206,37.1078],[129.0119,37.10369],[129.01249,37.10356],[129.01312,37.10343],[129.01412,37.10089],[129.013,37.09956],[129.00793,37.09653],[129.00629,37.09598],[129.00443,37.09522],[129.00138,37.08964],[129.00194,37.0888],[129.00254,37.08743],[129.00261,37.08727],[128.99698,37.08507],[128.99541,37.08458],[128.99372,37.08355],[128.99363,37.08374],[128.99339,37.08425],[128.99315,37.0845],[128.9931,37.08456],[128.99169,37.08472],[128.98352,37.08451],[128.98306,37.08433],[128.98231,37.08365],[128.98204,37.0834],[128.98155,37.08306],[128.97715,37.082],[128.97605,37.08199],[128.97418,37.08203],[128.97387,37.08221],[128.97347,37.08244],[128.97235,37.08239],[128.96956,37.08213],[128.96862,37.08171],[128.96734,37.08081],[128.96656,37.08019],[128.96618,37.07937],[128.96571,37.07916],[128.9647,37.0788],[128.96031,37.07744],[128.95978,37.0775],[128.95548,37.07934],[128.9541,37.08052],[128.95361,37.08099],[128.95312,37.08165],[128.95306,37.08215],[128.9533,37.08348],[128.9536,37.08436],[128.95329,37.08487],[128.95169,37.08598],[128.95102,37.08664],[128.95054,37.08745],[128.95017,37.08816],[128.94934,37.08976],[128.94902,37.09044],[128.94875,37.09102],[128.94726,37.09263],[128.94553,37.09424],[128.94463,37.09506],[128.94766,37.09562],[128.95073,37.09648],[128.95155,37.09717],[128.95192,37.09741],[128.95492,37.0987],[128.95731,37.09957],[128.95844,37.09975],[128.95896,37.09977],[128.95937,37.09978],[128.96588,37.09817],[128.96599,37.09803],[128.96687,37.09768],[128.96774,37.09732],[128.97161,37.0967],[128.97407,37.09649],[128.97652,37.09627],[128.98025,37.09924],[128.98346,37.1013],[128.98588,37.10301],[128.9859,37.10342],[128.98611,37.10688],[128.98661,37.10993],[128.98811,37.11069],[128.99,37.11164],[128.99077,37.11194],[128.99207,37.11168],[128.99382,37.1122],[128.99529,37.1132],[128.9957,37.1136],[128.99505,37.11456],[128.99433,37.11684],[128.99402,37.11781],[128.99944,37.11692],[129.00012,37.11662],[129.00038,37.11606],[129.00038,37.11552],[129.00284,37.11596],[129.00562,37.11415],[129.0088,37.11199],[129.01179,37.10996],[129.01181,37.10993],[129.01201,37.10973]]]]}},{"type":"Feature","properties":{"code":"51190615","name":"철암동","parent":"51190"},"geometry":{"type":"MultiPolygon","coordinates":[[[[129.09365,37.10495],[129.09144,37.10369],[129.09095,37.10359],[129.09029,37.10355],[129.08983,37.10362],[129.08928,37.10392],[129.0885,37.10436],[129.08842,37.10463],[129.08815,37.10515],[129.08775,37.1056],[129.08531,37.10743],[129.08515,37.10748],[129.08168,37.10796],[129.07553,37.10957],[129.07282,37.10975],[129.07232,37.10955],[129.06827,37.10979],[129.06761,37.10989],[129.06714,37.10999],[129.05949,37.11277],[129.05719,37.11383],[129.05542,37.11464],[129.05388,37.11429],[129.05347,37.11419],[129.05291,37.11329],[129.05247,37.11272],[129.05128,37.11191],[129.05049,37.1114],[129.04481,37.11183],[129.0438,37.11228],[129.04365,37.11234],[129.04192,37.11217],[129.04171,37.11205],[129.04037,37.11019],[129.03861,37.10806],[129.03823,37.10804],[129.03729,37.10802],[129.03713,37.10803],[129.0359,37.10814],[129.03459,37.10839],[129.03238,37.10598],[129.0309,37.10624],[129.02698,37.11119],[129.02501,37.11409],[129.02326,37.11668],[129.02303,37.11905],[129.02297,37.12738],[129.02295,37.13065],[129.02694,37.13159],[129.03093,37.13254],[129.03394,37.13325],[129.03423,37.13392],[129.03425,37.13401],[129.03423,37.13411],[129.03417,37.13428],[129.03399,37.13454],[129.0338,37.13471],[129.03369,37.13477],[129.0336,37.13483],[129.03341,37.1349],[129.03322,37.13498],[129.03289,37.13509],[129.03258,37.13526],[129.03234,37.13544],[129.03216,37.13559],[129.03181,37.13591],[129.0317,37.1361],[129.03162,37.13631],[129.03161,37.13648],[129.03163,37.1369],[129.03271,37.13721],[129.03381,37.13714],[129.03405,37.13696],[129.03451,37.13663],[129.0372,37.13526],[129.03858,37.13541],[129.03997,37.13556],[129.04304,37.13773],[129.04986,37.14254],[129.05237,37.14186],[129.05788,37.14128],[129.06107,37.14324],[129.06581,37.1434],[129.07158,37.14413],[129.07301,37.14314],[129.07845,37.14079],[129.07985,37.1402],[129.08376,37.14009],[129.08419,37.1401],[129.08454,37.1401],[129.08625,37.14057],[129.08842,37.14172],[129.08877,37.14216],[129.0894,37.14297],[129.08971,37.14392],[129.08997,37.14393],[129.09012,37.1439],[129.09035,37.14385],[129.09065,37.14376],[129.09082,37.1437],[129.0911,37.14358],[129.09191,37.14321],[129.09389,37.14227],[129.09393,37.14225],[129.09396,37.14213],[129.0941,37.14141],[129.09411,37.14132],[129.09413,37.14122],[129.09424,37.14018],[129.09527,37.1387],[129.09301,37.13158],[129.09297,37.1315],[129.09096,37.12724],[129.08963,37.12449],[129.08949,37.12431],[129.08944,37.12422],[129.0894,37.12414],[129.08917,37.12341],[129.08916,37.12338],[129.08917,37.12333],[129.08921,37.12327],[129.09043,37.12112],[129.09143,37.12011],[129.09066,37.11795],[129.09055,37.11793],[129.09046,37.11791],[129.09037,37.11789],[129.09029,37.11786],[129.08947,37.11745],[129.08941,37.11741],[129.08937,37.11737],[129.08843,37.11618],[129.08836,37.11609],[129.08828,37.11596],[129.08825,37.11588],[129.08785,37.11481],[129.08772,37.11442],[129.08766,37.11422],[129.08765,37.11408],[129.08764,37.114],[129.08765,37.11386],[129.08768,37.11359],[129.08769,37.11354],[129.08773,37.11351],[129.08781,37.11347],[129.08786,37.11346],[129.08791,37.11345],[129.08803,37.11342],[129.08812,37.11339],[129.08819,37.11336],[129.08828,37.1133],[129.08832,37.11327],[129.08835,37.11323],[129.08845,37.11312],[129.08848,37.11308],[129.08855,37.11298],[129.08862,37.11288],[129.08924,37.11201],[129.09322,37.10604],[129.0933,37.1059],[129.0936,37.10539],[129.09363,37.10535],[129.09363,37.1053],[129.09364,37.10523],[129.09365,37.10495]]]]}},{"type":"Feature","properties":{"code":"51190585","name":"문곡소도동","parent":"51190"},"geometry":{"type":"MultiPolygon","coordinates":[[[[129.00214,37.14856],[129.00314,37.14858],[129.00413,37.14857],[129.00698,37.14847],[129.00718,37.14844],[129.00889,37.14813],[129.00903,37.1481],[129.00947,37.148],[129.00958,37.14794],[129.01091,37.14701],[129.01115,37.14644],[129.01071,37.14484],[129.0104,37.14307],[129.01033,37.13608],[129.01336,37.13384],[129.0161,37.13413],[129.01674,37.13314],[129.01688,37.13224],[129.01632,37.13067],[129.01629,37.13057],[129.01698,37.12878],[129.01832,37.1265],[129.01971,37.12407],[129.02036,37.12265],[129.02042,37.12235],[129.02039,37.12187],[129.0204,37.12151],[129.02083,37.12013],[129.02092,37.11992],[129.02102,37.1197],[129.02117,37.11958],[129.02156,37.11952],[129.01977,37.119],[129.01864,37.11874],[129.01635,37.11823],[129.01547,37.11749],[129.01412,37.11417],[129.01346,37.11153],[129.01201,37.10973],[129.01181,37.10993],[129.01179,37.10996],[129.0088,37.11199],[129.00562,37.11415],[129.00284,37.11596],[129.00038,37.11552],[129.00038,37.11606],[129.00012,37.11662],[128.99944,37.11692],[128.99402,37.11781],[128.99433,37.11684],[128.99505,37.11456],[128.9957,37.1136],[128.99529,37.1132],[128.99382,37.1122],[128.99207,37.11168],[128.99077,37.11194],[128.99,37.11164],[128.98811,37.11069],[128.98661,37.10993],[128.98611,37.10688],[128.9859,37.10342],[128.98588,37.10301],[128.98346,37.1013],[128.98025,37.09924],[128.97652,37.09627],[128.97407,37.09649],[128.97161,37.0967],[128.96774,37.09732],[128.96687,37.09768],[128.96599,37.09803],[128.96588,37.09817],[128.95937,37.09978],[128.95896,37.09977],[128.95844,37.09975],[128.95731,37.09957],[128.95492,37.0987],[128.95192,37.09741],[128.95155,37.09717],[128.95073,37.09648],[128.94766,37.09562],[128.94463,37.09506],[128.94459,37.09508],[128.94379,37.09525],[128.94163,37.09529],[128.94014,37.09515],[128.93975,37.09505],[128.93931,37.09493],[128.93643,37.09322],[128.93204,37.09225],[128.93011,37.09194],[128.9283,37.09182],[128.92719,37.09194],[128.92596,37.09223],[128.92529,37.09238],[128.9242,37.09245],[128.92232,37.09207],[128.9215,37.09151],[128.92054,37.09066],[128.91963,37.08955],[128.91896,37.08858],[128.91671,37.08487],[128.91652,37.08436],[128.91648,37.08333],[128.91656,37.08233],[128.91723,37.08061],[128.91727,37.07993],[128.91678,37.07872],[128.91648,37.07843],[128.91423,37.07592],[128.9127,37.07338],[128.91221,37.07285],[128.91109,37.07226],[128.91096,37.07218],[128.9106,37.07198],[128.90995,37.07134],[128.9098,37.0705],[128.90978,37.0697],[128.90973,37.06687],[128.90704,37.0674],[128.9039,37.06781],[128.90092,37.06796],[128.89946,37.06796],[128.89899,37.0677],[128.89846,37.06733],[128.89806,37.06687],[128.8962,37.06492],[128.8952,37.06418],[128.89155,37.06272],[128.88992,37.06242],[128.88866,37.06229],[128.88817,37.06252],[128.8869,37.0638],[128.88606,37.06509],[128.88594,37.06577],[128.88625,37.06659],[128.88596,37.06683],[128.88412,37.06798],[128.88239,37.06878],[128.87769,37.07211],[128.8763,37.07326],[128.87601,37.07376],[128.87521,37.07569],[128.8751,37.07635],[128.875,37.07731],[128.87508,37.07899],[128.87522,37.07922],[128.87828,37.08044],[128.87915,37.08078],[128.8796,37.08088],[128.8809,37.08098],[128.88135,37.08114],[128.88508,37.08479],[128.88531,37.08655],[128.88535,37.08686],[128.88521,37.0873],[128.88517,37.08762],[128.88568,37.0898],[128.8859,37.09013],[128.88686,37.0908],[128.888,37.0914],[128.88873,37.09183],[128.88896,37.09237],[128.88888,37.09345],[128.88859,37.09456],[128.88808,37.09513],[128.88712,37.09613],[128.88661,37.09695],[128.88634,37.09786],[128.88626,37.09899],[128.88639,37.09969],[128.88675,37.10048],[128.887,37.10113],[128.88718,37.1019],[128.88704,37.10244],[128.88684,37.10267],[128.88669,37.10284],[128.88557,37.10327],[128.88167,37.10441],[128.88055,37.10466],[128.87881,37.10481],[128.87805,37.105],[128.87759,37.10551],[128.8771,37.1066],[128.87693,37.10709],[128.87609,37.1079],[128.87533,37.10842],[128.87456,37.10873],[128.87138,37.10816],[128.86847,37.1076],[128.86775,37.10782],[128.86737,37.10816],[128.86728,37.10835],[128.86718,37.10868],[128.86717,37.10895],[128.86717,37.10901],[128.86907,37.11237],[128.86938,37.11289],[128.8696,37.11323],[128.87006,37.1139],[128.87052,37.11419],[128.87084,37.11429],[128.87139,37.11434],[128.87216,37.11431],[128.87273,37.11417],[128.87357,37.11416],[128.87442,37.11422],[128.87643,37.11525],[128.87909,37.1173],[128.87931,37.11763],[128.8793,37.11786],[128.88255,37.11999],[128.8829,37.12017],[128.88564,37.12162],[128.886,37.12185],[128.88749,37.12369],[128.88881,37.1254],[128.88891,37.12819],[128.8889,37.12838],[128.88878,37.12874],[128.88762,37.13218],[128.88751,37.1323],[128.88733,37.13245],[128.88724,37.13255],[128.88696,37.13342],[128.8869,37.13376],[128.88664,37.13653],[128.88666,37.13672],[128.88671,37.13699],[128.88685,37.13752],[128.88768,37.14004],[128.88807,37.14106],[128.88813,37.14117],[128.88933,37.14283],[128.8904,37.1439],[128.89056,37.14402],[128.8907,37.1441],[128.89324,37.1453],[128.89331,37.14531],[128.8937,37.14531],[128.89436,37.14535],[128.89466,37.14539],[128.89483,37.14542],[128.89498,37.14548],[128.89917,37.14794],[128.89924,37.14798],[128.89931,37.14802],[128.8994,37.14806],[128.89946,37.14808],[128.89962,37.14814],[128.89988,37.1482],[128.90495,37.149],[128.90499,37.14899],[128.90512,37.14894],[128.90606,37.14856],[128.9068,37.14826],[128.90686,37.14824],[128.90703,37.1482],[128.90712,37.14818],[128.90721,37.14818],[128.90874,37.14812],[128.90903,37.14812],[128.90915,37.14812],[128.90927,37.14815],[128.91203,37.14935],[128.91213,37.14941],[128.9122,37.14949],[128.91277,37.15018],[128.91556,37.1543],[128.9156,37.15438],[128.91616,37.15645],[128.91617,37.15681],[128.91613,37.15739],[128.91609,37.15757],[128.916,37.15797],[128.91595,37.15814],[128.91591,37.15841],[128.9159,37.15874],[128.91591,37.1589],[128.91596,37.15913],[128.91604,37.15947],[128.91611,37.15967],[128.91625,37.15995],[128.91637,37.16009],[128.91642,37.16014],[128.91648,37.16019],[128.91761,37.1611],[128.91783,37.1611],[128.92109,37.16105],[128.92378,37.15881],[128.92506,37.15819],[128.92633,37.15812],[128.92762,37.15807],[128.92945,37.15801],[128.93197,37.15711],[128.93313,37.15659],[128.94206,37.15212],[128.94448,37.1499],[128.94697,37.14814],[128.94958,37.14669],[128.95029,37.14649],[128.95446,37.14619],[128.95675,37.14496],[128.95763,37.14416],[128.95917,37.14205],[128.96015,37.14015],[128.96034,37.1389],[128.96192,37.13793],[128.96359,37.13711],[128.96622,37.13683],[128.96762,37.13757],[128.96995,37.13906],[128.97314,37.14105],[128.9741,37.14157],[128.97638,37.1423],[128.97669,37.14237],[128.98131,37.14323],[128.98133,37.1432],[128.98317,37.14092],[128.98406,37.13902],[128.9849,37.13812],[128.98626,37.13723],[128.98644,37.13643],[128.98646,37.13636],[128.98687,37.13454],[128.98977,37.13398],[128.99332,37.13446],[128.99501,37.13557],[128.99591,37.13644],[128.9962,37.13672],[128.99868,37.14049],[128.99929,37.1414],[129.00265,37.14492],[129.00211,37.14747],[129.00205,37.14825],[129.00214,37.14856]]]]}}]}