{"type":"FeatureCollection","features":[{"type":"Feature","properties":{"code":"47760250","name":"영양읍","parent":"47760"},"geometry":{"type":"MultiPolygon","coordinates":[[[[129.18066,36.69776],[129.18081,36.6976],[129.18096,36.6974],[129.18124,36.69702],[129.18131,36.69693],[129.18138,36.69682],[129.1814,36.69678],[129.18169,36.69604],[129.18169,36.696],[129.18168,36.69597],[129.18165,36.69594],[129.1816,36.69591],[129.18154,36.69588],[129.18143,36.69584],[129.18136,36.69582],[129.1813,36.69579],[129.18121,36.69572],[129.18113,36.69564],[129.18107,36.69556],[129.18102,36.69544],[129.18098,36.69532],[129.18096,36.69525],[129.18071,36.69432],[129.1807,36.69427],[129.1807,36.69188],[129.18071,36.69183],[129.18074,36.69178],[129.1825,36.69042],[129.18257,36.69037],[129.18375,36.6896],[129.18381,36.68956],[129.1839,36.68952],[129.18659,36.68861],[129.18668,36.68859],[129.18678,36.68859],[129.187,36.6886],[129.18723,36.68863],[129.18742,36.68871],[129.18783,36.68888],[129.18813,36.68904],[129.18826,36.68911],[129.18832,36.68911],[129.18838,36.68911],[129.19095,36.68862],[129.1912,36.68855],[129.19126,36.68853],[129.19152,36.68846],[129.19169,36.6884],[129.19173,36.68838],[129.19176,36.68835],[129.19176,36.68831],[129.19177,36.68825],[129.19178,36.68811],[129.19178,36.68776],[129.19178,36.68759],[129.19197,36.68612],[129.19233,36.68426],[129.19234,36.68423],[129.19241,36.68411],[129.19246,36.68405],[129.19397,36.68244],[129.19691,36.67807],[129.19708,36.6776],[129.19711,36.67753],[129.19714,36.6775],[129.19718,36.67746],[129.19721,36.67744],[129.19897,36.67635],[129.20034,36.67568],[129.20162,36.67508],[129.20171,36.67505],[129.20177,36.67504],[129.20185,36.67503],[129.20189,36.67503],[129.20194,36.67504],[129.20341,36.6754],[129.20348,36.67542],[129.20353,36.67545],[129.20524,36.67672],[129.21169,36.68159],[129.21367,36.68446],[129.21364,36.68454],[129.21363,36.68467],[129.21362,36.68477],[129.21362,36.68483],[129.21363,36.68489],[129.21403,36.68593],[129.21405,36.68597],[129.21557,36.68814],[129.21561,36.68819],[129.21567,36.68825],[129.21571,36.68828],[129.21575,36.6883],[129.21585,36.68833],[129.2159,36.68834],[129.21594,36.68834],[129.21651,36.68836],[129.21667,36.68836],[129.21691,36.68836],[129.21706,36.68836],[129.21779,36.68831],[129.21794,36.6883],[129.21805,36.68828],[129.21816,36.68826],[129.21837,36.68822],[129.2189,36.68816],[129.21895,36.68816],[129.219,36.68816],[129.21903,36.68817],[129.22371,36.6904],[129.22375,36.69043],[129.22383,36.69048],[129.22388,36.69055],[129.22424,36.69137],[129.22445,36.69201],[129.22556,36.69312],[129.22561,36.69316],[129.22568,36.69322],[129.22905,36.69564],[129.22918,36.69574],[129.2293,36.6958],[129.2294,36.69584],[129.22954,36.69587],[129.2296,36.69588],[129.22972,36.69588],[129.23119,36.69586],[129.23665,36.69767],[129.23775,36.69811],[129.23779,36.69815],[129.23784,36.69819],[129.23792,36.69829],[129.23802,36.69846],[129.2381,36.69857],[129.23813,36.69863],[129.23817,36.69868],[129.23821,36.69871],[129.23828,36.69873],[129.24148,36.69964],[129.24257,36.69991],[129.24377,36.7002],[129.24386,36.7002],[129.24394,36.70019],[129.24403,36.70016],[129.24412,36.70011],[129.24419,36.70006],[129.24525,36.69916],[129.24963,36.69994],[129.2498,36.69999],[129.25012,36.70006],[129.25194,36.70026],[129.25222,36.70027],[129.25238,36.70026],[129.25579,36.70019],[129.25607,36.69861],[129.25741,36.69701],[129.25842,36.69717],[129.25884,36.69724],[129.25921,36.69722],[129.26733,36.69577],[129.26796,36.69565],[129.26848,36.69554],[129.26889,36.69536],[129.26925,36.69511],[129.2716,36.69345],[129.2735,36.69203],[129.27385,36.69184],[129.27435,36.69166],[129.27465,36.69161],[129.27686,36.69159],[129.27676,36.69078],[129.27666,36.68802],[129.27667,36.68783],[129.27675,36.68766],[129.27708,36.68738],[129.27772,36.68661],[129.27826,36.68591],[129.27842,36.68566],[129.27909,36.68275],[129.27914,36.68235],[129.27913,36.68196],[129.27906,36.68149],[129.27897,36.68122],[129.27882,36.68106],[129.27608,36.67881],[129.2754,36.67827],[129.27503,36.67808],[129.27458,36.67797],[129.2733,36.67769],[129.27287,36.67762],[129.27225,36.67755],[129.27192,36.67745],[129.27151,36.67731],[129.27097,36.67698],[129.2706,36.67667],[129.26923,36.67536],[129.26904,36.67514],[129.26896,36.67485],[129.26894,36.67371],[129.26723,36.67358],[129.26685,36.67345],[129.26658,36.67326],[129.26632,36.67292],[129.26614,36.67265],[129.26607,36.67245],[129.26391,36.67063],[129.26083,36.66907],[129.26064,36.66898],[129.26051,36.66896],[129.26038,36.66896],[129.26028,36.66897],[129.26008,36.66903],[129.25801,36.66992],[129.25753,36.67015],[129.25712,36.67046],[129.25679,36.67076],[129.25637,36.67099],[129.25568,36.67124],[129.25508,36.67137],[129.25462,36.67137],[129.25434,36.67133],[129.25402,36.67123],[129.25369,36.67105],[129.24835,36.66806],[129.24554,36.66681],[129.24193,36.66489],[129.23975,36.66372],[129.23767,36.66293],[129.23762,36.66291],[129.23748,36.66287],[129.2374,36.66286],[129.23625,36.66278],[129.23618,36.66277],[129.23608,36.66277],[129.236,36.66278],[129.23583,36.66283],[129.23569,36.66287],[129.23541,36.66295],[129.23532,36.66297],[129.23523,36.66299],[129.23516,36.663],[129.23512,36.66299],[129.23507,36.66299],[129.23503,36.66299],[129.23498,36.66297],[129.23489,36.66293],[129.23482,36.6629],[129.2347,36.66282],[129.23396,36.66228],[129.23314,36.66168],[129.23266,36.66114],[129.23229,36.66035],[129.23228,36.66032],[129.23227,36.66024],[129.23227,36.66014],[129.23229,36.66005],[129.23232,36.65995],[129.23242,36.65974],[129.23248,36.65964],[129.23265,36.65944],[129.23276,36.65775],[129.23246,36.65676],[129.23144,36.65499],[129.23107,36.65461],[129.23071,36.65367],[129.23069,36.65361],[129.23068,36.65356],[129.23068,36.65352],[129.23071,36.65258],[129.23072,36.65242],[129.23075,36.65231],[129.23082,36.65211],[129.23089,36.64979],[129.23091,36.64747],[129.2309,36.64588],[129.23071,36.64425],[129.23189,36.64296],[129.232,36.64298],[129.23216,36.64302],[129.23228,36.64303],[129.2324,36.64303],[129.23332,36.643],[129.23338,36.643],[129.23344,36.643],[129.2335,36.64298],[129.23365,36.64292],[129.23387,36.64284],[129.23473,36.64245],[129.23478,36.64241],[129.23482,36.64238],[129.23486,36.64234],[129.23491,36.64227],[129.23726,36.63843],[129.23866,36.63607],[129.23868,36.63601],[129.24015,36.62961],[129.24014,36.62957],[129.24011,36.62948],[129.23987,36.62881],[129.23985,36.62879],[129.23719,36.62719],[129.23497,36.62649],[129.23475,36.62649],[129.23459,36.62648],[129.23318,36.6263],[129.23113,36.62573],[129.23109,36.6257],[129.2301,36.62498],[129.2296,36.62453],[129.22945,36.62439],[129.22879,36.62347],[129.22874,36.62339],[129.22867,36.62323],[129.22866,36.62312],[129.22866,36.623],[129.22867,36.62292],[129.22869,36.62281],[129.22876,36.62263],[129.22883,36.62244],[129.22887,36.62239],[129.22894,36.62231],[129.229,36.62227],[129.22912,36.62217],[129.22926,36.62203],[129.2294,36.62189],[129.22958,36.62169],[129.22977,36.62116],[129.2298,36.62102],[129.23017,36.61918],[129.23018,36.61911],[129.23018,36.61902],[129.23015,36.61834],[129.23013,36.61824],[129.23006,36.61784],[129.22996,36.6175],[129.22971,36.61679],[129.22954,36.61628],[129.22929,36.61504],[129.22972,36.61341],[129.22986,36.61307],[129.23052,36.61151],[129.23116,36.60522],[129.23114,36.60517],[129.22537,36.60286],[129.22531,36.60284],[129.22525,36.60283],[129.22518,36.60283],[129.22496,36.60285],[129.22477,36.60287],[129.22466,36.6029],[129.22462,36.60292],[129.22354,36.60381],[129.22349,36.60387],[129.22337,36.60402],[129.22321,36.60427],[129.22318,36.60439],[129.22307,36.60449],[129.22254,36.60462],[129.2225,36.60462],[129.22247,36.6046],[129.2223,36.60448],[129.2222,36.60437],[129.22217,36.60431],[129.22212,36.6042],[129.22166,36.60111],[129.22164,36.60007],[129.22165,36.59994],[129.22168,36.59985],[129.22178,36.59977],[129.22194,36.59972],[129.22215,36.5997],[129.22236,36.59968],[129.2225,36.59964],[129.22263,36.59958],[129.22271,36.59953],[129.22274,36.5995],[129.22279,36.59945],[129.22408,36.59767],[129.22409,36.59763],[129.22408,36.59759],[129.22405,36.59756],[129.22401,36.59752],[129.22178,36.59595],[129.22036,36.59535],[129.22018,36.59531],[129.21985,36.59515],[129.21958,36.59498],[129.21893,36.59448],[129.21876,36.59433],[129.21725,36.5916],[129.21659,36.5902],[129.21722,36.58788],[129.21727,36.58784],[129.22117,36.58562],[129.22122,36.5856],[129.22127,36.58561],[129.22307,36.58599],[129.22586,36.58599],[129.22601,36.58599],[129.22614,36.58598],[129.2263,36.58595],[129.22665,36.58589],[129.22685,36.58585],[129.22707,36.5858],[129.22864,36.58543],[129.22884,36.58536],[129.22903,36.58524],[129.23063,36.58422],[129.23069,36.58418],[129.23075,36.58413],[129.23303,36.5811],[129.23279,36.57934],[129.23266,36.57917],[129.23251,36.57897],[129.23242,36.57885],[129.23236,36.5787],[129.23232,36.57856],[129.23231,36.5785],[129.2323,36.57834],[129.2323,36.57829],[129.23232,36.57822],[129.23253,36.57738],[129.23164,36.57724],[129.23153,36.57723],[129.23143,36.57724],[129.23125,36.5773],[129.22778,36.57851],[129.22459,36.5755],[129.2232,36.5738],[129.22209,36.57293],[129.22201,36.57289],[129.22191,36.57289],[129.2218,36.57291],[129.21989,36.57291],[129.21761,36.57272],[129.21746,36.57268],[129.21566,36.572],[129.21522,36.57179],[129.21508,36.57171],[129.21466,36.57145],[129.2145,36.5713],[129.2144,36.5712],[129.21321,36.57157],[129.21227,36.57384],[129.2122,36.57458],[129.21222,36.57469],[129.21214,36.57557],[129.21055,36.57764],[129.21049,36.57768],[129.21039,36.57768],[129.21015,36.57766],[129.20985,36.57763],[129.20952,36.57759],[129.20946,36.57761],[129.20942,36.57765],[129.20932,36.57783],[129.20929,36.57793],[129.20846,36.5808],[129.20827,36.58146],[129.20826,36.58165],[129.20843,36.58194],[129.20844,36.58205],[129.20832,36.58264],[129.20807,36.58336],[129.20797,36.58357],[129.20788,36.58369],[129.20784,36.58374],[129.20763,36.584],[129.20617,36.58474],[129.20584,36.5849],[129.20507,36.58521],[129.20464,36.58535],[129.2044,36.58548],[129.20385,36.58581],[129.20374,36.58592],[129.20115,36.59068],[129.19981,36.59422],[129.19984,36.59443],[129.19983,36.59458],[129.19976,36.59523],[129.19973,36.59539],[129.19969,36.59547],[129.19759,36.5977],[129.19574,36.59842],[129.19551,36.5983],[129.19539,36.59825],[129.19525,36.59821],[129.19346,36.59784],[129.19325,36.59781],[129.19293,36.5978],[129.19188,36.59778],[129.19126,36.598],[129.19081,36.59868],[129.19075,36.59881],[129.19071,36.59929],[129.19298,36.60263],[129.1944,36.60734],[129.19446,36.6074],[129.19456,36.60747],[129.19499,36.6078],[129.19556,36.60828],[129.19561,36.60836],[129.1958,36.60919],[129.19581,36.60927],[129.19578,36.60949],[129.19577,36.60962],[129.19574,36.60974],[129.19569,36.61],[129.19566,36.61009],[129.19561,36.61016],[129.19309,36.61284],[129.19069,36.61373],[129.18847,36.61425],[129.18572,36.61492],[129.1852,36.6151],[129.18415,36.61551],[129.1835,36.61588],[129.18333,36.61599],[129.18329,36.61605],[129.18261,36.61709],[129.1825,36.6178],[129.18246,36.6183],[129.18216,36.61864],[129.18157,36.61907],[129.18139,36.61913],[129.17957,36.61934],[129.17527,36.61888],[129.17293,36.61843],[129.17062,36.61794],[129.16882,36.61688],[129.16867,36.61674],[129.16776,36.6163],[129.16765,36.61625],[129.16458,36.61537],[129.16358,36.61543],[129.16353,36.61543],[129.16349,36.61545],[129.1633,36.61567],[129.16313,36.61594],[129.16301,36.61623],[129.1618,36.61902],[129.15622,36.62395],[129.15517,36.62479],[129.15508,36.62486],[129.15498,36.6249],[129.15087,36.62635],[129.15069,36.62641],[129.1506,36.62642],[129.15042,36.62643],[129.14949,36.62645],[129.14939,36.62646],[129.14905,36.6265],[129.14885,36.62652],[129.14871,36.62652],[129.14838,36.6265],[129.1482,36.62647],[129.14795,36.62637],[129.14645,36.62539],[129.14639,36.62534],[129.14399,36.62438],[129.14339,36.62517],[129.1433,36.62527],[129.14318,36.62533],[129.14304,36.62538],[129.14291,36.6254],[129.14226,36.62545],[129.14222,36.62544],[129.14039,36.62389],[129.13805,36.62177],[129.13471,36.62317],[129.13336,36.62367],[129.13326,36.62367],[129.13266,36.62344],[129.13257,36.6234],[129.13253,36.62334],[129.13252,36.6233],[129.13246,36.62307],[129.13243,36.62297],[129.13235,36.62278],[129.13229,36.62269],[129.1321,36.62251],[129.13178,36.62225],[129.13162,36.62219],[129.13139,36.62213],[129.13114,36.62208],[129.13089,36.62205],[129.12754,36.62211],[129.12736,36.62212],[129.12387,36.6228],[129.12263,36.62312],[129.12073,36.62357],[129.1206,36.62359],[129.11699,36.62369],[129.11571,36.62349],[129.11539,36.62341],[129.11112,36.62192],[129.11016,36.62095],[129.10885,36.61928],[129.10837,36.61856],[129.10618,36.61615],[129.10443,36.61425],[129.10249,36.61338],[129.10239,36.61338],[129.10219,36.61335],[129.10206,36.61333],[129.10176,36.61328],[129.10161,36.61323],[129.10047,36.61276],[129.10032,36.61264],[129.1001,36.61241],[129.09961,36.6119],[129.09914,36.61138],[129.09854,36.61072],[129.09829,36.6104],[129.09801,36.60996],[129.09772,36.60942],[129.09635,36.60806],[129.09624,36.60798],[129.09609,36.60791],[129.09599,36.60787],[129.09574,36.6078],[129.09554,36.60777],[129.09513,36.60775],[129.09456,36.60774],[129.09429,36.60775],[129.09392,36.60778],[129.09361,36.60781],[129.09327,36.60784],[129.09127,36.60824],[129.09091,36.60832],[129.09034,36.60845],[129.09015,36.60851],[129.0899,36.60861],[129.0891,36.60897],[129.08902,36.60902],[129.089,36.60906],[129.08901,36.60913],[129.08916,36.60977],[129.08921,36.60993],[129.08953,36.61068],[129.08959,36.61078],[129.08968,36.61085],[129.08984,36.61097],[129.09005,36.61113],[129.0902,36.61127],[129.09031,36.6114],[129.09043,36.61156],[129.09051,36.61176],[129.09054,36.61192],[129.09054,36.6121],[129.09047,36.61235],[129.09038,36.61252],[129.08757,36.6178],[129.08749,36.61795],[129.08738,36.6181],[129.08719,36.61834],[129.08708,36.61842],[129.08697,36.61845],[129.08665,36.61847],[129.08624,36.61852],[129.08601,36.61855],[129.08582,36.6186],[129.08554,36.61867],[129.08521,36.61882],[129.08481,36.61899],[129.08461,36.61909],[129.08446,36.61917],[129.08431,36.61927],[129.08415,36.61939],[129.08404,36.61948],[129.08363,36.6198],[129.08351,36.61993],[129.08345,36.62003],[129.08339,36.62014],[129.08315,36.62092],[129.08272,36.62189],[129.08225,36.6229],[129.0822,36.62298],[129.08138,36.62416],[129.08127,36.6243],[129.08111,36.62449],[129.08102,36.62458],[129.08087,36.62471],[129.07853,36.62649],[129.07896,36.6278],[129.07924,36.62829],[129.0797,36.62911],[129.07993,36.62949],[129.08038,36.63044],[129.0804,36.63051],[129.07995,36.63197],[129.07992,36.63203],[129.07982,36.63217],[129.07958,36.6323],[129.07928,36.63242],[129.07895,36.6325],[129.07889,36.63254],[129.07883,36.63259],[129.07879,36.63267],[129.07866,36.63306],[129.0786,36.63324],[129.0786,36.63335],[129.07899,36.63626],[129.08006,36.63777],[129.08019,36.63795],[129.08051,36.63831],[129.08067,36.63845],[129.08074,36.6385],[129.08093,36.63862],[129.08102,36.63864],[129.08122,36.63869],[129.08276,36.64038],[129.08281,36.64048],[129.08479,36.64469],[129.08514,36.64596],[129.08553,36.64748],[129.08569,36.6501],[129.0851,36.65518],[129.08501,36.65534],[129.08488,36.65556],[129.08467,36.65583],[129.08435,36.65659],[129.0847,36.65821],[129.08472,36.65828],[129.08569,36.65911],[129.08772,36.66034],[129.08926,36.66093],[129.08931,36.66095],[129.08935,36.66097],[129.08944,36.66103],[129.08946,36.66107],[129.08931,36.66186],[129.08871,36.6633],[129.08813,36.66428],[129.08803,36.66443],[129.08725,36.66856],[129.08723,36.67308],[129.08716,36.67316],[129.08714,36.67322],[129.08702,36.67388],[129.08699,36.67409],[129.08696,36.67429],[129.08694,36.67454],[129.08695,36.67475],[129.08701,36.67498],[129.0871,36.67531],[129.08714,36.67543],[129.08718,36.67552],[129.08887,36.67723],[129.08982,36.6778],[129.09159,36.6782],[129.09434,36.67884],[129.09442,36.67887],[129.09664,36.68155],[129.09695,36.68193],[129.09711,36.68218],[129.09723,36.6824],[129.09728,36.68258],[129.09733,36.68287],[129.09752,36.68585],[129.09752,36.68604],[129.09329,36.694],[129.09316,36.69417],[129.09307,36.69423],[129.09291,36.69427],[129.09249,36.69431],[129.09231,36.69437],[129.09147,36.69474],[129.0912,36.69493],[129.09099,36.6951],[129.09012,36.6959],[129.09001,36.69604],[129.08997,36.69613],[129.08988,36.69644],[129.08959,36.69747],[129.08932,36.69938],[129.09072,36.69976],[129.09242,36.70055],[129.09402,36.70142],[129.09526,36.70245],[129.09552,36.70291],[129.09557,36.70298],[129.09584,36.70315],[129.09594,36.70319],[129.09606,36.70319],[129.09875,36.70241],[129.10821,36.69911],[129.10831,36.69905],[129.10941,36.69812],[129.10944,36.69804],[129.10955,36.69763],[129.10967,36.69718],[129.10969,36.69713],[129.10977,36.69686],[129.11015,36.69577],[129.1102,36.69563],[129.11102,36.69386],[129.11109,36.69381],[129.11135,36.69371],[129.11156,36.69363],[129.11168,36.69359],[129.11188,36.69353],[129.11225,36.69341],[129.1124,36.69334],[129.11253,36.69328],[129.11262,36.69323],[129.1127,36.69318],[129.11351,36.69245],[129.11356,36.6924],[129.11523,36.69074],[129.11529,36.69066],[129.11748,36.68756],[129.11764,36.68732],[129.11773,36.68717],[129.1178,36.68705],[129.1181,36.68618],[129.11837,36.68445],[129.11837,36.68439],[129.12189,36.68026],[129.12202,36.68013],[129.12227,36.6799],[129.12373,36.67889],[129.12436,36.67859],[129.12449,36.67854],[129.12614,36.67791],[129.12642,36.67781],[129.12657,36.67776],[129.1267,36.67772],[129.12679,36.6777],[129.1277,36.67764],[129.12787,36.67764],[129.128,36.67764],[129.12818,36.67767],[129.12826,36.67769],[129.12831,36.67771],[129.12842,36.67776],[129.12856,36.67785],[129.12861,36.67788],[129.12873,36.67804],[129.12876,36.67809],[129.12879,36.67813],[129.12884,36.67822],[129.12886,36.6783],[129.12887,36.67837],[129.12893,36.68084],[129.13075,36.68494],[129.13077,36.68499],[129.13207,36.68768],[129.13239,36.6881],[129.13309,36.68961],[129.13337,36.69034],[129.13392,36.69196],[129.13393,36.69198],[129.13393,36.69202],[129.13389,36.69216],[129.13383,36.69224],[129.13377,36.69232],[129.13373,36.6924],[129.13371,36.69245],[129.13371,36.69251],[129.13382,36.69326],[129.13383,36.69335],[129.13386,36.69341],[129.134,36.69367],[129.13565,36.69579],[129.13569,36.69582],[129.13577,36.69586],[129.1359,36.69592],[129.13628,36.69606],[129.13635,36.69608],[129.1371,36.69617],[129.13714,36.69617],[129.13799,36.69612],[129.13806,36.69611],[129.13889,36.696],[129.13946,36.69586],[129.13972,36.69579],[129.13989,36.69575],[129.14002,36.69573],[129.14009,36.69572],[129.14015,36.69573],[129.14022,36.69575],[129.14668,36.69719],[129.14846,36.69814],[129.14857,36.6982],[129.14862,36.69824],[129.14868,36.6983],[129.14873,36.69839],[129.14879,36.69852],[129.14886,36.6988],[129.14894,36.69909],[129.14896,36.69919],[129.14899,36.69926],[129.14902,36.69929],[129.1495,36.69971],[129.14954,36.69974],[129.14958,36.69975],[129.15324,36.70044],[129.15485,36.70038],[129.15758,36.70096],[129.15763,36.70098],[129.15767,36.701],[129.15771,36.70104],[129.15847,36.70194],[129.15852,36.70206],[129.15855,36.70217],[129.15859,36.70236],[129.1586,36.70246],[129.15861,36.70252],[129.15864,36.70261],[129.15866,36.70264],[129.15869,36.70267],[129.1588,36.70274],[129.1589,36.70278],[129.16013,36.7031],[129.16029,36.70314],[129.16037,36.70315],[129.16046,36.70317],[129.16056,36.70317],[129.16065,36.70317],[129.16076,36.70314],[129.16083,36.70313],[129.16093,36.70309],[129.16113,36.70301],[129.16151,36.70305],[129.16179,36.70307],[129.16186,36.70307],[129.16202,36.70305],[129.16209,36.70304],[129.16692,36.70204],[129.17125,36.69932],[129.17156,36.69916],[129.17223,36.69887],[129.17227,36.69886],[129.17234,36.69886],[129.1724,36.69887],[129.17282,36.69895],[129.17291,36.69897],[129.17299,36.699],[129.17313,36.6991],[129.17323,36.69918],[129.17328,36.69924],[129.17379,36.69973],[129.17483,36.70045],[129.17486,36.70046],[129.17491,36.70046],[129.17495,36.70043],[129.17517,36.70031],[129.17556,36.70007],[129.17563,36.70002],[129.17567,36.69999],[129.17704,36.69888],[129.17734,36.69863],[129.17755,36.69843],[129.17776,36.69824],[129.17788,36.69811],[129.178,36.69799],[129.17811,36.6979],[129.17817,36.69787],[129.17821,36.69785],[129.17951,36.69766],[129.17962,36.69765],[129.17969,36.69765],[129.1806,36.69771],[129.18066,36.69776]]]]}},{"type":"Feature","properties":{"code":"47760310","name":"입암면","parent":"47760"},"geometry":{"type":"MultiPolygon","coordinates":[[[[129.07853,36.62649],[129.08087,36.62471],[129.08102,36.62458],[129.08111,36.62449],[129.08127,36.6243],[129.08138,36.62416],[129.0822,36.62298],[129.08225,36.6229],[129.08272,36.62189],[129.08315,36.62092],[129.08339,36.62014],[129.08345,36.62003],[129.08351,36.61993],[129.08363,36.6198],[129.08404,36.61948],[129.08415,36.61939],[129.08431,36.61927],[129.08446,36.61917],[129.08461,36.61909],[129.08481,36.61899],[129.08521,36.61882],[129.08554,36.61867],[129.08582,36.6186],[129.08601,36.61855],[129.08624,36.61852],[129.08665,36.61847],[129.08697,36.61845],[129.08708,36.61842],[129.08719,36.61834],[129.08738,36.6181],[129.08749,36.61795],[129.08757,36.6178],[129.09038,36.61252],[129.09047,36.61235],[129.09054,36.6121],[129.09054,36.61192],[129.09051,36.61176],[129.09043,36.61156],[129.09031,36.6114],[129.0902,36.61127],[129.09005,36.61113],[129.08984,36.61097],[129.08968,36.61085],[129.08959,36.61078],[129.08953,36.61068],[129.08921,36.60993],[129.08916,36.60977],[129.08901,36.60913],[129.089,36.60906],[129.08902,36.60902],[129.0891,36.60897],[129.0899,36.60861],[129.09015,36.60851],[129.09034,36.60845],[129.09091,36.60832],[129.09127,36.60824],[129.09327,36.60784],[129.09361,36.60781],[129.09392,36.60778],[129.09429,36.60775],[129.09456,36.60774],[129.09513,36.60775],[129.09554,36.60777],[129.09574,36.6078],[129.09599,36.60787],[129.09609,36.60791],[129.09624,36.60798],[129.09635,36.60806],[129.09772,36.60942],[129.09801,36.60996],[129.09829,36.6104],[129.09854,36.61072],[129.09914,36.61138],[129.09961,36.6119],[129.1001,36.61241],[129.10032,36.61264],[129.10047,36.61276],[129.10161,36.61323],[129.10176,36.61328],[129.10206,36.61333],[129.10219,36.61335],[129.10239,36.61338],[129.10249,36.61338],[129.10443,36.61425],[129.10618,36.61615],[129.10837,36.61856],[129.10885,36.61928],[129.11016,36.62095],[129.11112,36.62192],[129.11539,36.62341],[129.11571,36.62349],[129.11699,36.62369],[129.1206,36.62359],[129.12073,36.62357],[129.12263,36.62312],[129.12387,36.6228],[129.12736,36.62212],[129.12754,36.62211],[129.13089,36.62205],[129.13114,36.62208],[129.13139,36.62213],[129.13162,36.62219],[129.13178,36.62225],[129.1321,36.62251],[129.13229,36.62269],[129.13235,36.62278],[129.13243,36.62297],[129.13246,36.62307],[129.13252,36.6233],[129.13253,36.62334],[129.13257,36.6234],[129.13266,36.62344],[129.13326,36.62367],[129.13336,36.62367],[129.13471,36.62317],[129.13805,36.62177],[129.13817,36.62168],[129.13834,36.62153],[129.13862,36.62126],[129.13895,36.62089],[129.13909,36.62072],[129.13927,36.62046],[129.13975,36.61882],[129.13976,36.61876],[129.13976,36.6187],[129.13942,36.61696],[129.1388,36.61509],[129.1383,36.61369],[129.13724,36.61207],[129.13717,36.61197],[129.13708,36.6119],[129.13696,36.61186],[129.13685,36.61183],[129.13671,36.61183],[129.13315,36.60986],[129.133,36.60803],[129.13251,36.60618],[129.13237,36.60597],[129.12886,36.60088],[129.12722,36.59959],[129.12633,36.59908],[129.12445,36.59902],[129.12198,36.59879],[129.12176,36.59733],[129.12069,36.5942],[129.12059,36.59398],[129.12056,36.59393],[129.12052,36.59386],[129.11959,36.59245],[129.11918,36.59187],[129.11893,36.59156],[129.1189,36.59153],[129.11887,36.59151],[129.11879,36.59148],[129.11839,36.59144],[129.11779,36.59111],[129.11769,36.59103],[129.11709,36.59048],[129.11705,36.59044],[129.11701,36.5904],[129.11427,36.58677],[129.11223,36.58275],[129.11213,36.58077],[129.11211,36.57985],[129.11196,36.57627],[129.11124,36.5747],[129.11101,36.57437],[129.11074,36.57401],[129.11032,36.57364],[129.10888,36.57269],[129.10819,36.57232],[129.10776,36.57213],[129.10732,36.57199],[129.10686,36.57191],[129.10635,36.57183],[129.10595,36.5717],[129.1051,36.5714],[129.10462,36.57122],[129.10417,36.57096],[129.10182,36.56934],[129.10142,36.56906],[129.10087,36.56839],[129.10077,36.56822],[129.10028,36.56696],[129.09941,36.56381],[129.09905,36.56235],[129.09862,36.55989],[129.09826,36.55972],[129.09676,36.55893],[129.09642,36.55873],[129.0961,36.55844],[129.09515,36.55745],[129.09501,36.55723],[129.09347,36.55372],[129.09337,36.55344],[129.09321,36.55278],[129.09319,36.55269],[129.09328,36.55252],[129.09514,36.54929],[129.09521,36.54925],[129.09542,36.54923],[129.0956,36.54926],[129.09575,36.54929],[129.0959,36.54933],[129.09599,36.5494],[129.09609,36.54951],[129.0963,36.54974],[129.09645,36.54989],[129.09654,36.54996],[129.09665,36.54997],[129.09933,36.54999],[129.09951,36.54997],[129.10067,36.54959],[129.10198,36.54919],[129.10425,36.54851],[129.10506,36.54839],[129.10701,36.54809],[129.1076,36.54804],[129.10775,36.54804],[129.10796,36.54804],[129.10816,36.54804],[129.10825,36.54807],[129.10845,36.54812],[129.10856,36.54814],[129.10879,36.54815],[129.10893,36.54815],[129.10904,36.54813],[129.10914,36.54809],[129.10916,36.548],[129.10918,36.54795],[129.10919,36.5479],[129.10918,36.5478],[129.10914,36.5477],[129.10845,36.54654],[129.10815,36.54614],[129.10798,36.54581],[129.10268,36.54343],[129.10247,36.54337],[129.10073,36.54298],[129.10019,36.54286],[129.10006,36.54284],[129.10001,36.54289],[129.09998,36.54301],[129.09987,36.54317],[129.09973,36.54331],[129.09923,36.54377],[129.09907,36.54391],[129.09888,36.544],[129.09867,36.54403],[129.09745,36.54409],[129.09666,36.54411],[129.09627,36.5441],[129.09139,36.54381],[129.08625,36.54355],[129.08522,36.54362],[129.08505,36.54363],[129.08209,36.54425],[129.08191,36.54429],[129.0818,36.54432],[129.08175,36.54437],[129.08171,36.54445],[129.08163,36.54465],[129.08155,36.54487],[129.08154,36.54499],[129.08154,36.54504],[129.08155,36.54515],[129.08161,36.5453],[129.08161,36.54539],[129.0816,36.54542],[129.0815,36.54556],[129.08139,36.54564],[129.08133,36.54568],[129.08117,36.54578],[129.08107,36.54582],[129.08085,36.54588],[129.07991,36.54602],[129.07971,36.54605],[129.0793,36.54608],[129.07903,36.5461],[129.07766,36.54621],[129.07533,36.54636],[129.07523,36.54634],[129.07515,36.5463],[129.07505,36.54623],[129.07493,36.54611],[129.07447,36.54552],[129.07437,36.54536],[129.07419,36.54507],[129.07408,36.54495],[129.07391,36.5448],[129.07375,36.54467],[129.0733,36.54441],[129.07305,36.54427],[129.07272,36.5441],[129.07215,36.54385],[129.07164,36.54363],[129.07107,36.5434],[129.07058,36.54322],[129.07023,36.5431],[129.06988,36.543],[129.06937,36.54291],[129.0691,36.54288],[129.06871,36.54292],[129.0682,36.54304],[129.06757,36.54335],[129.06704,36.5438],[129.06581,36.54515],[129.06549,36.54551],[129.06542,36.54561],[129.06519,36.54597],[129.06502,36.54628],[129.06496,36.54644],[129.06487,36.5467],[129.06482,36.54699],[129.06481,36.54723],[129.06482,36.5474],[129.06485,36.54759],[129.06492,36.54779],[129.06507,36.54821],[129.06527,36.54862],[129.06546,36.54916],[129.0655,36.54956],[129.06538,36.55002],[129.06501,36.55044],[129.06467,36.55083],[129.06167,36.5539],[129.06136,36.55418],[129.06107,36.55442],[129.06052,36.55484],[129.06016,36.55507],[129.05977,36.55528],[129.05917,36.55553],[129.05855,36.55571],[129.05793,36.55579],[129.0573,36.55587],[129.05697,36.55586],[129.05585,36.55626],[129.05376,36.5575],[129.05316,36.55795],[129.05208,36.55883],[129.05138,36.55966],[129.05073,36.56048],[129.04986,36.56218],[129.04984,36.56223],[129.0497,36.56275],[129.04966,36.56294],[129.04964,36.56319],[129.04969,36.56329],[129.05002,36.56361],[129.05012,36.56372],[129.05013,36.56375],[129.05015,36.56518],[129.05014,36.56527],[129.04827,36.56962],[129.04819,36.56975],[129.04802,36.57005],[129.04663,36.57241],[129.04588,36.57358],[129.04627,36.57528],[129.04643,36.57707],[129.04637,36.57896],[129.04629,36.57992],[129.04617,36.58001],[129.04407,36.58065],[129.04363,36.58071],[129.04272,36.58077],[129.04265,36.58077],[129.04251,36.58054],[129.04241,36.58036],[129.04229,36.58024],[129.04219,36.58021],[129.04204,36.58024],[129.04103,36.58055],[129.0408,36.58064],[129.04051,36.58075],[129.03683,36.58218],[129.03565,36.58366],[129.03562,36.58444],[129.03555,36.5847],[129.03507,36.58553],[129.03196,36.58808],[129.02905,36.5889],[129.02705,36.5893],[129.02457,36.58967],[129.02444,36.58966],[129.02315,36.58908],[129.02261,36.58843],[129.0226,36.58811],[129.02259,36.58802],[129.0225,36.58792],[129.02243,36.58789],[129.01564,36.58812],[129.01556,36.58813],[129.01214,36.58886],[129.00867,36.58968],[129.00542,36.59147],[129.00523,36.59159],[129.00498,36.59179],[129.00484,36.59198],[129.00476,36.59212],[129.00468,36.59234],[129.00464,36.59248],[129.00434,36.59336],[129.00366,36.59462],[129.00358,36.59461],[129.00038,36.59393],[129.00005,36.59384],[128.99903,36.59347],[128.99893,36.5937],[128.99882,36.59424],[128.99922,36.59862],[128.99966,36.60075],[129.00019,36.60127],[129.0011,36.60231],[129.00129,36.60257],[129.00137,36.60277],[129.00138,36.60292],[129.00135,36.60301],[129.0013,36.60309],[129.00123,36.60311],[129.00023,36.60335],[128.99991,36.60339],[128.99978,36.60339],[128.99959,36.60337],[128.9994,36.6033],[128.99922,36.60323],[128.99911,36.60317],[128.99899,36.60315],[128.99887,36.60317],[128.99878,36.60319],[128.9987,36.60324],[128.99861,36.60331],[128.99848,36.60342],[128.99839,36.60351],[128.99734,36.60472],[128.99613,36.60787],[128.9961,36.608],[128.99609,36.6081],[128.99608,36.60877],[128.99661,36.60927],[128.9967,36.60932],[128.99693,36.60949],[128.99714,36.60966],[128.99724,36.60979],[128.99784,36.61151],[128.99786,36.61165],[128.99785,36.61188],[128.99693,36.61721],[128.99664,36.61844],[128.99661,36.61853],[128.99429,36.62208],[128.99425,36.62214],[128.99412,36.62222],[128.9937,36.62237],[128.99328,36.62249],[128.99273,36.62261],[128.99252,36.62266],[128.99235,36.62273],[128.99183,36.62295],[128.99122,36.62327],[128.99107,36.62335],[128.99097,36.62346],[128.99093,36.62355],[128.99088,36.62381],[128.99085,36.62399],[128.99076,36.62474],[128.99074,36.62499],[128.99084,36.62608],[128.99118,36.62703],[128.99146,36.62765],[128.99182,36.6302],[128.99147,36.631],[128.9912,36.63195],[128.99113,36.63342],[128.99119,36.63455],[128.99134,36.63542],[128.9914,36.63569],[128.99148,36.63605],[128.99152,36.63618],[128.99158,36.63638],[128.9917,36.63671],[128.99178,36.6369],[128.99316,36.63959],[128.99384,36.64077],[128.99444,36.64133],[128.99449,36.64137],[128.9946,36.64149],[128.99463,36.64154],[128.99464,36.64159],[128.99466,36.64166],[128.99467,36.64174],[128.99467,36.64186],[128.99332,36.64321],[128.99248,36.64399],[128.99191,36.64433],[128.99095,36.6449],[128.9909,36.64497],[128.99083,36.64509],[128.99073,36.64529],[128.99022,36.6468],[128.98994,36.64803],[128.99177,36.65061],[128.99354,36.65305],[128.99639,36.65523],[128.99773,36.65474],[128.99788,36.6547],[128.99804,36.65467],[128.99818,36.65468],[128.99832,36.65473],[128.99847,36.65483],[128.99861,36.65493],[128.99894,36.65522],[128.99911,36.65537],[128.99929,36.65548],[129.00309,36.65627],[129.00329,36.65631],[129.00346,36.6563],[129.0043,36.65618],[129.00485,36.65606],[129.00569,36.65563],[129.00596,36.65548],[129.00624,36.65525],[129.00643,36.65509],[129.00666,36.65483],[129.00681,36.65456],[129.00702,36.65414],[129.00707,36.65399],[129.00715,36.65366],[129.00717,36.65347],[129.00719,36.65312],[129.00719,36.65292],[129.00726,36.65267],[129.00745,36.65209],[129.00754,36.65184],[129.00775,36.65138],[129.00792,36.65111],[129.01042,36.64845],[129.01055,36.64832],[129.01063,36.6483],[129.01082,36.64831],[129.01129,36.6484],[129.01175,36.64847],[129.012,36.64849],[129.01227,36.6485],[129.01244,36.64848],[129.01263,36.64844],[129.01429,36.6479],[129.0144,36.64784],[129.01465,36.6477],[129.01674,36.64625],[129.02485,36.64313],[129.02508,36.64306],[129.02532,36.64306],[129.0254,36.64306],[129.02551,36.6431],[129.02559,36.64314],[129.02572,36.64322],[129.02579,36.64331],[129.02928,36.64526],[129.03095,36.64497],[129.03303,36.64365],[129.03406,36.64281],[129.03837,36.63884],[129.03847,36.63875],[129.03983,36.63711],[129.03992,36.63698],[129.03996,36.63688],[129.03999,36.63675],[129.03998,36.63662],[129.03991,36.63636],[129.03981,36.63614],[129.04029,36.63314],[129.04497,36.62961],[129.04647,36.62863],[129.0466,36.62853],[129.0467,36.6284],[129.04677,36.6283],[129.04685,36.62813],[129.04691,36.62792],[129.04699,36.62733],[129.047,36.62706],[129.04703,36.62692],[129.04711,36.62681],[129.04825,36.62566],[129.04844,36.62549],[129.04874,36.62523],[129.04911,36.62494],[129.04931,36.62478],[129.04942,36.62471],[129.05142,36.62376],[129.05152,36.62379],[129.05176,36.62397],[129.05199,36.62415],[129.05215,36.62423],[129.05243,36.62433],[129.0533,36.62462],[129.05352,36.62469],[129.05377,36.62472],[129.05398,36.62471],[129.05477,36.62467],[129.05808,36.62448],[129.06049,36.62406],[129.06088,36.62393],[129.06247,36.62344],[129.06255,36.62342],[129.06273,36.62342],[129.06294,36.62344],[129.06306,36.62346],[129.06323,36.62354],[129.06337,36.6236],[129.06416,36.62403],[129.06606,36.62513],[129.06646,36.62538],[129.06668,36.62551],[129.06693,36.62567],[129.06722,36.62591],[129.06737,36.62605],[129.07157,36.62653],[129.07197,36.62645],[129.074,36.62614],[129.07555,36.6261],[129.07853,36.62649]]]]}},{"type":"Feature","properties":{"code":"47760320","name":"청기면","parent":"47760"},"geometry":{"type":"MultiPolygon","coordinates":[[[[129.08024,36.81889],[129.08202,36.81657],[129.08341,36.815],[129.08464,36.81343],[129.08583,36.8112],[129.08599,36.81061],[129.08631,36.80992],[129.08658,36.80952],[129.08699,36.80909],[129.0873,36.80889],[129.0878,36.80873],[129.09243,36.80653],[129.09661,36.80428],[129.09871,36.8031],[129.09873,36.80296],[129.09791,36.80157],[129.09698,36.80045],[129.09612,36.79963],[129.09069,36.79474],[129.09035,36.79448],[129.09013,36.79442],[129.08963,36.79435],[129.08919,36.79437],[129.08856,36.79443],[129.08822,36.79438],[129.08766,36.79422],[129.08619,36.79354],[129.08521,36.79308],[129.08488,36.79286],[129.0846,36.79254],[129.08366,36.791],[129.0828,36.79003],[129.07862,36.78582],[129.07844,36.78572],[129.07829,36.78569],[129.07803,36.78574],[129.07681,36.78609],[129.07638,36.78613],[129.07604,36.78611],[129.07556,36.78588],[129.07478,36.78506],[129.07436,36.78441],[129.07426,36.78401],[129.07414,36.78311],[129.07406,36.78284],[129.07207,36.78075],[129.07189,36.78059],[129.07151,36.78041],[129.0697,36.77992],[129.06888,36.77966],[129.06866,36.77952],[129.06845,36.77918],[129.06723,36.77621],[129.06715,36.77591],[129.06715,36.7757],[129.06782,36.77296],[129.06788,36.77273],[129.06844,36.77164],[129.06866,36.77137],[129.06969,36.77031],[129.07005,36.76973],[129.07023,36.76925],[129.07108,36.76636],[129.07114,36.76596],[129.07068,36.76343],[129.07014,36.76172],[129.07006,36.76129],[129.07014,36.76107],[129.07068,36.76052],[129.0708,36.76025],[129.07083,36.75896],[129.07083,36.75854],[129.07065,36.75808],[129.07046,36.75779],[129.06904,36.75602],[129.0687,36.75567],[129.06864,36.75254],[129.06686,36.7498],[129.06579,36.74657],[129.06476,36.74176],[129.06557,36.73834],[129.06557,36.73241],[129.06558,36.73227],[129.06559,36.73189],[129.0657,36.73125],[129.06573,36.73112],[129.0662,36.72938],[129.0663,36.72913],[129.06636,36.729],[129.06852,36.72482],[129.06871,36.72457],[129.06933,36.72424],[129.07186,36.72322],[129.07222,36.72309],[129.07556,36.72214],[129.07589,36.72206],[129.07607,36.72202],[129.07632,36.72199],[129.07649,36.722],[129.08069,36.72277],[129.08203,36.7236],[129.08326,36.72422],[129.08346,36.72429],[129.08423,36.72447],[129.08433,36.72446],[129.08451,36.72442],[129.0851,36.72405],[129.08533,36.72387],[129.08546,36.72368],[129.08776,36.72012],[129.08735,36.71833],[129.0871,36.71719],[129.08714,36.7171],[129.08728,36.71692],[129.08744,36.71672],[129.08767,36.71653],[129.08942,36.71556],[129.09077,36.71484],[129.09097,36.71474],[129.09107,36.71467],[129.09114,36.71452],[129.09139,36.71334],[129.09184,36.71112],[129.09182,36.71091],[129.09319,36.70861],[129.0936,36.70813],[129.09361,36.70807],[129.09257,36.70589],[129.0925,36.70575],[129.0924,36.70566],[129.09229,36.70564],[129.09173,36.70571],[129.09083,36.70584],[129.09061,36.70586],[129.09037,36.70581],[129.08973,36.70562],[129.08903,36.70542],[129.0887,36.7053],[129.08839,36.70517],[129.08797,36.70496],[129.08737,36.7046],[129.08687,36.70429],[129.08647,36.70402],[129.08631,36.70391],[129.08624,36.70382],[129.08615,36.70368],[129.0861,36.70343],[129.08613,36.70322],[129.0862,36.70299],[129.08623,36.70291],[129.08632,36.70271],[129.0886,36.70013],[129.0888,36.69991],[129.08932,36.69938],[129.08959,36.69747],[129.08988,36.69644],[129.08997,36.69613],[129.09001,36.69604],[129.09012,36.6959],[129.09099,36.6951],[129.0912,36.69493],[129.09147,36.69474],[129.09231,36.69437],[129.09249,36.69431],[129.09291,36.69427],[129.09307,36.69423],[129.09316,36.69417],[129.09329,36.694],[129.09752,36.68604],[129.09752,36.68585],[129.09733,36.68287],[129.09728,36.68258],[129.09723,36.6824],[129.09711,36.68218],[129.09695,36.68193],[129.09664,36.68155],[129.09442,36.67887],[129.09434,36.67884],[129.09159,36.6782],[129.08982,36.6778],[129.08887,36.67723],[129.08718,36.67552],[129.08714,36.67543],[129.0871,36.67531],[129.08701,36.67498],[129.08695,36.67475],[129.08694,36.67454],[129.08696,36.67429],[129.08699,36.67409],[129.08702,36.67388],[129.08714,36.67322],[129.08716,36.67316],[129.08723,36.67308],[129.08725,36.66856],[129.08803,36.66443],[129.08813,36.66428],[129.08871,36.6633],[129.08931,36.66186],[129.08946,36.66107],[129.08944,36.66103],[129.08935,36.66097],[129.08931,36.66095],[129.08926,36.66093],[129.08772,36.66034],[129.08569,36.65911],[129.08472,36.65828],[129.0847,36.65821],[129.08435,36.65659],[129.08467,36.65583],[129.08488,36.65556],[129.08501,36.65534],[129.0851,36.65518],[129.08569,36.6501],[129.08553,36.64748],[129.08514,36.64596],[129.08479,36.64469],[129.08281,36.64048],[129.08276,36.64038],[129.08122,36.63869],[129.08102,36.63864],[129.08093,36.63862],[129.08074,36.6385],[129.08067,36.63845],[129.08051,36.63831],[129.08019,36.63795],[129.08006,36.63777],[129.07899,36.63626],[129.0786,36.63335],[129.0786,36.63324],[129.07866,36.63306],[129.07879,36.63267],[129.07883,36.63259],[129.07889,36.63254],[129.07895,36.6325],[129.07928,36.63242],[129.07958,36.6323],[129.07982,36.63217],[129.07992,36.63203],[129.07995,36.63197],[129.0804,36.63051],[129.08038,36.63044],[129.07993,36.62949],[129.0797,36.62911],[129.07924,36.62829],[129.07896,36.6278],[129.07853,36.62649],[129.07555,36.6261],[129.074,36.62614],[129.07197,36.62645],[129.07157,36.62653],[129.06737,36.62605],[129.06722,36.62591],[129.06693,36.62567],[129.06668,36.62551],[129.06646,36.62538],[129.06606,36.62513],[129.06416,36.62403],[129.06337,36.6236],[129.06323,36.62354],[129.06306,36.62346],[129.06294,36.62344],[129.06273,36.62342],[129.06255,36.62342],[129.06247,36.62344],[129.06088,36.62393],[129.06049,36.62406],[129.05808,36.62448],[129.05477,36.62467],[129.05398,36.62471],[129.05377,36.62472],[129.05352,36.62469],[129.0533,36.62462],[129.05243,36.62433],[129.05215,36.62423],[129.05199,36.62415],[129.05176,36.62397],[129.05152,36.62379],[129.05142,36.62376],[129.04942,36.62471],[129.04931,36.62478],[129.04911,36.62494],[129.04874,36.62523],[129.04844,36.62549],[129.04825,36.62566],[129.04711,36.62681],[129.04703,36.62692],[129.047,36.62706],[129.04699,36.62733],[129.04691,36.62792],[129.04685,36.62813],[129.04677,36.6283],[129.0467,36.6284],[129.0466,36.62853],[129.04647,36.62863],[129.04497,36.62961],[129.04029,36.63314],[129.03981,36.63614],[129.03991,36.63636],[129.03998,36.63662],[129.03999,36.63675],[129.03996,36.63688],[129.03992,36.63698],[129.03983,36.63711],[129.03847,36.63875],[129.03837,36.63884],[129.03406,36.64281],[129.03303,36.64365],[129.03095,36.64497],[129.02928,36.64526],[129.02579,36.64331],[129.02572,36.64322],[129.02559,36.64314],[129.02551,36.6431],[129.0254,36.64306],[129.02532,36.64306],[129.02508,36.64306],[129.02485,36.64313],[129.01674,36.64625],[129.01465,36.6477],[129.0144,36.64784],[129.01429,36.6479],[129.01263,36.64844],[129.01244,36.64848],[129.01227,36.6485],[129.012,36.64849],[129.01175,36.64847],[129.01129,36.6484],[129.01082,36.64831],[129.01063,36.6483],[129.01055,36.64832],[129.01042,36.64845],[129.00792,36.65111],[129.00775,36.65138],[129.00754,36.65184],[129.00745,36.65209],[129.00726,36.65267],[129.00719,36.65292],[129.00719,36.65312],[129.00717,36.65347],[129.00715,36.65366],[129.00707,36.65399],[129.00702,36.65414],[129.00681,36.65456],[129.00666,36.65483],[129.00643,36.65509],[129.00624,36.65525],[129.00596,36.65548],[129.00569,36.65563],[129.00485,36.65606],[129.0043,36.65618],[129.00346,36.6563],[129.00329,36.65631],[129.00309,36.65627],[128.99929,36.65548],[128.99911,36.65537],[128.99894,36.65522],[128.99861,36.65493],[128.99847,36.65483],[128.99832,36.65473],[128.99818,36.65468],[128.99804,36.65467],[128.99788,36.6547],[128.99773,36.65474],[128.99639,36.65523],[128.99633,36.65528],[128.996,36.65558],[128.99596,36.65563],[128.99556,36.6562],[128.99555,36.65623],[128.99554,36.65631],[128.99558,36.65711],[128.99539,36.65999],[128.99538,36.66005],[128.99522,36.66161],[128.99519,36.66175],[128.99516,36.6618],[128.99449,36.66256],[128.99446,36.66259],[128.99439,36.66264],[128.99411,36.66275],[128.99389,36.66282],[128.99378,36.66283],[128.99355,36.66285],[128.99321,36.66288],[128.99287,36.66288],[128.99253,36.66287],[128.99223,36.66287],[128.99219,36.66288],[128.9921,36.66292],[128.99078,36.66374],[128.99065,36.66384],[128.99051,36.66402],[128.99035,36.66432],[128.98984,36.66539],[128.98982,36.66544],[128.98982,36.66548],[128.98985,36.66565],[128.98991,36.66579],[128.99003,36.66594],[128.99021,36.66609],[128.99037,36.66618],[128.99057,36.66625],[128.99066,36.66627],[128.99088,36.66632],[128.99142,36.66651],[128.99163,36.6666],[128.99171,36.66664],[128.99178,36.6667],[128.99374,36.66946],[128.99377,36.66951],[128.99378,36.66955],[128.99379,36.66961],[128.99378,36.66967],[128.99373,36.66973],[128.99368,36.66979],[128.99337,36.67008],[128.99282,36.67058],[128.99265,36.67074],[128.99187,36.67164],[128.99096,36.67292],[128.99086,36.67306],[128.99066,36.67337],[128.99036,36.67387],[128.99017,36.67423],[128.99013,36.67434],[128.99012,36.67439],[128.99012,36.6745],[128.99037,36.67554],[128.9908,36.67657],[128.99084,36.67665],[128.99089,36.67667],[128.99171,36.67697],[128.99211,36.67703],[128.99224,36.67703],[128.99231,36.67707],[128.99252,36.67724],[128.99281,36.67748],[128.99305,36.67768],[128.99318,36.67782],[128.99323,36.67786],[128.99445,36.68125],[128.99449,36.68144],[128.9945,36.68151],[128.99436,36.68246],[128.99366,36.68669],[128.99364,36.68674],[128.99363,36.68677],[128.9936,36.68681],[128.99229,36.68853],[128.9918,36.68891],[128.99186,36.69149],[128.99188,36.69161],[128.99199,36.69203],[128.99202,36.69212],[128.99204,36.69215],[128.99262,36.69274],[128.99269,36.6928],[128.99566,36.69457],[128.9965,36.69501],[128.99655,36.69504],[128.99693,36.6952],[128.99714,36.69526],[128.99725,36.69528],[128.99738,36.69533],[128.99742,36.69535],[128.99744,36.69539],[128.99746,36.69554],[128.99747,36.6956],[128.99751,36.696],[128.99751,36.69606],[128.9967,36.70181],[128.99662,36.70184],[128.99648,36.70189],[128.99577,36.7022],[128.99569,36.70223],[128.99542,36.70238],[128.99523,36.70249],[128.99506,36.70263],[128.99496,36.70271],[128.99487,36.70281],[128.99483,36.70287],[128.99481,36.70291],[128.99467,36.7033],[128.99443,36.704],[128.99439,36.70417],[128.99438,36.70425],[128.99439,36.70429],[128.99442,36.70436],[128.99452,36.70454],[128.99458,36.70463],[128.99474,36.70485],[128.99483,36.70495],[128.99495,36.70505],[128.99639,36.70615],[128.99948,36.71441],[128.99974,36.7174],[128.99974,36.71751],[128.99953,36.71901],[128.99948,36.71907],[128.9985,36.71976],[128.9973,36.72098],[128.99621,36.72227],[128.99616,36.72234],[128.9961,36.72247],[128.99608,36.72254],[128.99607,36.72259],[128.99607,36.72262],[128.99608,36.72268],[128.99622,36.72307],[128.99643,36.72358],[128.99646,36.72364],[128.99653,36.72373],[128.99663,36.72386],[128.99691,36.72418],[128.99722,36.72724],[128.99722,36.72728],[128.9972,36.72732],[128.99718,36.72737],[128.99522,36.72937],[128.99511,36.72947],[128.99503,36.72954],[128.99257,36.73135],[128.99252,36.73138],[128.99248,36.7314],[128.99152,36.73159],[128.99097,36.73164],[128.99088,36.73165],[128.9908,36.73167],[128.9899,36.73193],[128.98937,36.73217],[128.98741,36.73562],[128.98737,36.7357],[128.98737,36.73577],[128.98737,36.7358],[128.98745,36.73623],[128.98757,36.7368],[128.98759,36.73689],[128.98763,36.73695],[128.98769,36.737],[128.98774,36.73705],[128.98831,36.73753],[128.9884,36.7376],[128.98848,36.73765],[128.9886,36.73771],[128.98868,36.73776],[128.98876,36.73779],[128.98895,36.73787],[128.9891,36.73792],[128.98919,36.73797],[128.98933,36.73805],[128.98941,36.73811],[128.98949,36.73817],[128.98952,36.73822],[128.98956,36.73829],[128.98959,36.73837],[128.99027,36.74031],[128.99058,36.74127],[128.99104,36.74453],[128.99105,36.74462],[128.99105,36.74469],[128.99105,36.74482],[128.99103,36.74516],[128.99101,36.74568],[128.99099,36.74572],[128.99097,36.74578],[128.9904,36.74679],[128.99033,36.7469],[128.99022,36.74703],[128.99016,36.74707],[128.99013,36.74961],[128.98928,36.7507],[128.98926,36.75074],[128.98926,36.7508],[128.98927,36.75084],[128.98931,36.75098],[128.98939,36.75115],[128.98958,36.7515],[128.99075,36.75333],[128.99099,36.75363],[128.99124,36.75389],[128.99142,36.75403],[128.99166,36.75417],[128.99196,36.7543],[128.99204,36.75436],[128.99214,36.75448],[128.9922,36.75459],[128.99224,36.75473],[128.99227,36.75499],[128.99232,36.75563],[128.99232,36.75579],[128.99232,36.75591],[128.99227,36.75604],[128.99216,36.75627],[128.99062,36.75803],[128.99048,36.75813],[128.99038,36.75819],[128.98999,36.75823],[128.98947,36.75828],[128.98876,36.75839],[128.98859,36.75845],[128.98842,36.75854],[128.98819,36.75872],[128.98786,36.75903],[128.98753,36.7594],[128.98722,36.75993],[128.98709,36.76022],[128.98698,36.76055],[128.98683,36.76118],[128.98658,36.76194],[128.98647,36.76218],[128.98637,36.76233],[128.98508,36.76326],[128.98427,36.76377],[128.984,36.76396],[128.98387,36.7641],[128.98373,36.76428],[128.98365,36.76448],[128.98359,36.76471],[128.98357,36.76498],[128.98357,36.76552],[128.9839,36.77258],[128.98395,36.77278],[128.98407,36.7729],[128.9901,36.77695],[128.99033,36.77705],[128.99046,36.77709],[128.99428,36.77818],[128.99497,36.77827],[128.99709,36.77919],[128.99728,36.77935],[128.99802,36.7798],[128.99838,36.77992],[128.99975,36.7803],[129.00069,36.78053],[129.00124,36.78057],[129.0019,36.78055],[129.0025,36.78042],[129.00393,36.78002],[129.00701,36.77982],[129.00721,36.77982],[129.0074,36.7799],[129.00996,36.78164],[129.01008,36.78175],[129.01019,36.78185],[129.01077,36.78245],[129.01138,36.78283],[129.01162,36.78291],[129.01177,36.78296],[129.01578,36.78428],[129.01661,36.78454],[129.01684,36.78456],[129.01783,36.78456],[129.01906,36.78453],[129.01928,36.78447],[129.01959,36.78432],[129.02036,36.78379],[129.02072,36.78361],[129.02089,36.78358],[129.0212,36.78358],[129.02154,36.78365],[129.02723,36.78527],[129.02739,36.78532],[129.03329,36.78823],[129.03436,36.78879],[129.03452,36.78884],[129.03487,36.78887],[129.0356,36.78888],[129.03569,36.78893],[129.03578,36.78905],[129.03674,36.79061],[129.03686,36.79087],[129.03705,36.7925],[129.03712,36.79328],[129.03724,36.79396],[129.03743,36.7943],[129.03834,36.79518],[129.03865,36.79538],[129.0433,36.79771],[129.04365,36.79786],[129.04397,36.79794],[129.0442,36.79798],[129.04457,36.79796],[129.04484,36.79794],[129.04788,36.79999],[129.04909,36.80189],[129.05088,36.8041],[129.0527,36.80619],[129.05285,36.80629],[129.0529,36.80631],[129.053,36.80634],[129.05318,36.80634],[129.05328,36.80634],[129.05679,36.80813],[129.06171,36.81256],[129.06215,36.81304],[129.06224,36.81321],[129.06243,36.81372],[129.06282,36.8148],[129.06328,36.81656],[129.06366,36.81767],[129.06396,36.81827],[129.06425,36.81856],[129.0647,36.81896],[129.06867,36.82064],[129.06914,36.82074],[129.07045,36.82082],[129.07237,36.82093],[129.07323,36.82087],[129.07357,36.82076],[129.07442,36.82028],[129.07643,36.82056],[129.0768,36.82057],[129.07719,36.82053],[129.07803,36.82025],[129.07846,36.82005],[129.08024,36.81889]]]]}},{"type":"Feature","properties":{"code":"47760330","name":"일월면","parent":"47760"},"geometry":{"type":"MultiPolygon","coordinates":[[[[129.18066,36.69776],[129.1806,36.69771],[129.17969,36.69765],[129.17962,36.69765],[129.17951,36.69766],[129.17821,36.69785],[129.17817,36.69787],[129.17811,36.6979],[129.178,36.69799],[129.17788,36.69811],[129.17776,36.69824],[129.17755,36.69843],[129.17734,36.69863],[129.17704,36.69888],[129.17567,36.69999],[129.17563,36.70002],[129.17556,36.70007],[129.17517,36.70031],[129.17495,36.70043],[129.17491,36.70046],[129.17486,36.70046],[129.17483,36.70045],[129.17379,36.69973],[129.17328,36.69924],[129.17323,36.69918],[129.17313,36.6991],[129.17299,36.699],[129.17291,36.69897],[129.17282,36.69895],[129.1724,36.69887],[129.17234,36.69886],[129.17227,36.69886],[129.17223,36.69887],[129.17156,36.69916],[129.17125,36.69932],[129.16692,36.70204],[129.16209,36.70304],[129.16202,36.70305],[129.16186,36.70307],[129.16179,36.70307],[129.16151,36.70305],[129.16113,36.70301],[129.16093,36.70309],[129.16083,36.70313],[129.16076,36.70314],[129.16065,36.70317],[129.16056,36.70317],[129.16046,36.70317],[129.16037,36.70315],[129.16029,36.70314],[129.16013,36.7031],[129.1589,36.70278],[129.1588,36.70274],[129.15869,36.70267],[129.15866,36.70264],[129.15864,36.70261],[129.15861,36.70252],[129.1586,36.70246],[129.15859,36.70236],[129.15855,36.70217],[129.15852,36.70206],[129.15847,36.70194],[129.15771,36.70104],[129.15767,36.701],[129.15763,36.70098],[129.15758,36.70096],[129.15485,36.70038],[129.15324,36.70044],[129.14958,36.69975],[129.14954,36.69974],[129.1495,36.69971],[129.14902,36.69929],[129.14899,36.69926],[129.14896,36.69919],[129.14894,36.69909],[129.14886,36.6988],[129.14879,36.69852],[129.14873,36.69839],[129.14868,36.6983],[129.14862,36.69824],[129.14857,36.6982],[129.14846,36.69814],[129.14668,36.69719],[129.14022,36.69575],[129.14015,36.69573],[129.14009,36.69572],[129.14002,36.69573],[129.13989,36.69575],[129.13972,36.69579],[129.13946,36.69586],[129.13889,36.696],[129.13806,36.69611],[129.13799,36.69612],[129.13714,36.69617],[129.1371,36.69617],[129.13635,36.69608],[129.13628,36.69606],[129.1359,36.69592],[129.13577,36.69586],[129.13569,36.69582],[129.13565,36.69579],[129.134,36.69367],[129.13386,36.69341],[129.13383,36.69335],[129.13382,36.69326],[129.13371,36.69251],[129.13371,36.69245],[129.13373,36.6924],[129.13377,36.69232],[129.13383,36.69224],[129.13389,36.69216],[129.13393,36.69202],[129.13393,36.69198],[129.13392,36.69196],[129.13337,36.69034],[129.13309,36.68961],[129.13239,36.6881],[129.13207,36.68768],[129.13077,36.68499],[129.13075,36.68494],[129.12893,36.68084],[129.12887,36.67837],[129.12886,36.6783],[129.12884,36.67822],[129.12879,36.67813],[129.12876,36.67809],[129.12873,36.67804],[129.12861,36.67788],[129.12856,36.67785],[129.12842,36.67776],[129.12831,36.67771],[129.12826,36.67769],[129.12818,36.67767],[129.128,36.67764],[129.12787,36.67764],[129.1277,36.67764],[129.12679,36.6777],[129.1267,36.67772],[129.12657,36.67776],[129.12642,36.67781],[129.12614,36.67791],[129.12449,36.67854],[129.12436,36.67859],[129.12373,36.67889],[129.12227,36.6799],[129.12202,36.68013],[129.12189,36.68026],[129.11837,36.68439],[129.11837,36.68445],[129.1181,36.68618],[129.1178,36.68705],[129.11773,36.68717],[129.11764,36.68732],[129.11748,36.68756],[129.11529,36.69066],[129.11523,36.69074],[129.11356,36.6924],[129.11351,36.69245],[129.1127,36.69318],[129.11262,36.69323],[129.11253,36.69328],[129.1124,36.69334],[129.11225,36.69341],[129.11188,36.69353],[129.11168,36.69359],[129.11156,36.69363],[129.11135,36.69371],[129.11109,36.69381],[129.11102,36.69386],[129.1102,36.69563],[129.11015,36.69577],[129.10977,36.69686],[129.10969,36.69713],[129.10967,36.69718],[129.10955,36.69763],[129.10944,36.69804],[129.10941,36.69812],[129.10831,36.69905],[129.10821,36.69911],[129.09875,36.70241],[129.09606,36.70319],[129.09594,36.70319],[129.09584,36.70315],[129.09557,36.70298],[129.09552,36.70291],[129.09526,36.70245],[129.09402,36.70142],[129.09242,36.70055],[129.09072,36.69976],[129.08932,36.69938],[129.0888,36.69991],[129.0886,36.70013],[129.08632,36.70271],[129.08623,36.70291],[129.0862,36.70299],[129.08613,36.70322],[129.0861,36.70343],[129.08615,36.70368],[129.08624,36.70382],[129.08631,36.70391],[129.08647,36.70402],[129.08687,36.70429],[129.08737,36.7046],[129.08797,36.70496],[129.08839,36.70517],[129.0887,36.7053],[129.08903,36.70542],[129.08973,36.70562],[129.09037,36.70581],[129.09061,36.70586],[129.09083,36.70584],[129.09173,36.70571],[129.09229,36.70564],[129.0924,36.70566],[129.0925,36.70575],[129.09257,36.70589],[129.09361,36.70807],[129.0936,36.70813],[129.09319,36.70861],[129.09182,36.71091],[129.09184,36.71112],[129.09139,36.71334],[129.09114,36.71452],[129.09107,36.71467],[129.09097,36.71474],[129.09077,36.71484],[129.08942,36.71556],[129.08767,36.71653],[129.08744,36.71672],[129.08728,36.71692],[129.08714,36.7171],[129.0871,36.71719],[129.08735,36.71833],[129.08776,36.72012],[129.08546,36.72368],[129.08533,36.72387],[129.0851,36.72405],[129.08451,36.72442],[129.08433,36.72446],[129.08423,36.72447],[129.08346,36.72429],[129.08326,36.72422],[129.08203,36.7236],[129.08069,36.72277],[129.07649,36.722],[129.07632,36.72199],[129.07607,36.72202],[129.07589,36.72206],[129.07556,36.72214],[129.07222,36.72309],[129.07186,36.72322],[129.06933,36.72424],[129.06871,36.72457],[129.06852,36.72482],[129.06636,36.729],[129.0663,36.72913],[129.0662,36.72938],[129.06573,36.73112],[129.0657,36.73125],[129.06559,36.73189],[129.06558,36.73227],[129.06557,36.73241],[129.06557,36.73834],[129.06476,36.74176],[129.06579,36.74657],[129.06686,36.7498],[129.06864,36.75254],[129.0687,36.75567],[129.06904,36.75602],[129.07046,36.75779],[129.07065,36.75808],[129.07083,36.75854],[129.07083,36.75896],[129.0708,36.76025],[129.07068,36.76052],[129.07014,36.76107],[129.07006,36.76129],[129.07014,36.76172],[129.07068,36.76343],[129.07114,36.76596],[129.07108,36.76636],[129.07023,36.76925],[129.07005,36.76973],[129.06969,36.77031],[129.06866,36.77137],[129.06844,36.77164],[129.06788,36.77273],[129.06782,36.77296],[129.06715,36.7757],[129.06715,36.77591],[129.06723,36.77621],[129.06845,36.77918],[129.06866,36.77952],[129.06888,36.77966],[129.0697,36.77992],[129.07151,36.78041],[129.07189,36.78059],[129.07207,36.78075],[129.07406,36.78284],[129.07414,36.78311],[129.07426,36.78401],[129.07436,36.78441],[129.07478,36.78506],[129.07556,36.78588],[129.07604,36.78611],[129.07638,36.78613],[129.07681,36.78609],[129.07803,36.78574],[129.07829,36.78569],[129.07844,36.78572],[129.07862,36.78582],[129.0828,36.79003],[129.08366,36.791],[129.0846,36.79254],[129.08488,36.79286],[129.08521,36.79308],[129.08619,36.79354],[129.08766,36.79422],[129.08822,36.79438],[129.08856,36.79443],[129.08919,36.79437],[129.08963,36.79435],[129.09013,36.79442],[129.09035,36.79448],[129.09069,36.79474],[129.09612,36.79963],[129.09698,36.80045],[129.09791,36.80157],[129.09873,36.80296],[129.09871,36.8031],[129.09661,36.80428],[129.09243,36.80653],[129.0878,36.80873],[129.0873,36.80889],[129.08699,36.80909],[129.08658,36.80952],[129.08631,36.80992],[129.08599,36.81061],[129.08583,36.8112],[129.08464,36.81343],[129.08341,36.815],[129.08202,36.81657],[129.08024,36.81889],[129.08225,36.82006],[129.08318,36.82071],[129.08481,36.8219],[129.08553,36.82246],[129.08594,36.82295],[129.08651,36.82354],[129.08722,36.82406],[129.08876,36.82493],[129.08982,36.82387],[129.09108,36.82356],[129.09458,36.82366],[129.09575,36.82385],[129.09614,36.82403],[129.09977,36.82602],[129.10281,36.82824],[129.10295,36.82848],[129.10352,36.82913],[129.10558,36.83121],[129.10624,36.83161],[129.10659,36.83174],[129.1072,36.83178],[129.10786,36.83177],[129.10834,36.83166],[129.11131,36.83241],[129.11321,36.83461],[129.11369,36.83503],[129.11411,36.83518],[129.11465,36.8352],[129.11548,36.83513],[129.11637,36.83485],[129.12032,36.83329],[129.12098,36.83316],[129.12139,36.83321],[129.1218,36.8334],[129.12272,36.83407],[129.12304,36.83422],[129.12387,36.83456],[129.12459,36.83471],[129.12587,36.83488],[129.12727,36.83497],[129.12849,36.835],[129.12884,36.83497],[129.13083,36.83466],[129.13126,36.83448],[129.1321,36.83404],[129.1349,36.8343],[129.13987,36.83524],[129.14123,36.83609],[129.14141,36.83628],[129.14186,36.8365],[129.14242,36.83659],[129.14294,36.83663],[129.1432,36.83664],[129.14423,36.83643],[129.15035,36.83496],[129.15096,36.8345],[129.1515,36.83391],[129.15167,36.83371],[129.15209,36.83329],[129.15242,36.83299],[129.15253,36.83291],[129.15263,36.83284],[129.15273,36.83284],[129.15417,36.83307],[129.15455,36.83321],[129.15624,36.83392],[129.15665,36.83418],[129.15683,36.83439],[129.15699,36.83463],[129.15702,36.83502],[129.15701,36.8353],[129.15689,36.83561],[129.15667,36.83606],[129.15636,36.83668],[129.15612,36.83699],[129.15547,36.83793],[129.15548,36.83813],[129.15565,36.83859],[129.15585,36.83883],[129.15635,36.83922],[129.15675,36.83946],[129.15718,36.83971],[129.15928,36.84052],[129.15962,36.84062],[129.16016,36.8407],[129.16373,36.84101],[129.16429,36.84095],[129.16477,36.84085],[129.16788,36.84035],[129.16818,36.84018],[129.16835,36.83987],[129.16837,36.83984],[129.16835,36.83979],[129.16819,36.83928],[129.16779,36.83834],[129.16773,36.83768],[129.16769,36.83566],[129.16773,36.83542],[129.16796,36.83481],[129.1692,36.83292],[129.16942,36.83259],[129.16962,36.83232],[129.17019,36.83182],[129.17055,36.83146],[129.17109,36.83075],[129.17141,36.83032],[129.17186,36.82946],[129.17211,36.82873],[129.17216,36.82846],[129.17209,36.82814],[129.172,36.8278],[129.17177,36.82698],[129.17164,36.82667],[129.17156,36.82631],[129.17154,36.82603],[129.17153,36.82573],[129.17153,36.82529],[129.17154,36.82473],[129.17157,36.82317],[129.17219,36.82131],[129.17344,36.8181],[129.17372,36.81754],[129.17403,36.81704],[129.17425,36.81685],[129.1735,36.81547],[129.1729,36.81474],[129.17129,36.81359],[129.17068,36.81334],[129.17015,36.81266],[129.16726,36.80777],[129.16611,36.8047],[129.16599,36.80434],[129.16571,36.80174],[129.16573,36.80155],[129.16587,36.80134],[129.1662,36.80071],[129.16665,36.79975],[129.16682,36.79923],[129.16687,36.79897],[129.16688,36.79881],[129.16622,36.79555],[129.16601,36.79472],[129.16572,36.79399],[129.16362,36.79042],[129.16353,36.79037],[129.1628,36.79008],[129.1591,36.78893],[129.15679,36.78825],[129.15628,36.78812],[129.15608,36.78799],[129.15573,36.78762],[129.15528,36.78715],[129.1553,36.78669],[129.15544,36.78488],[129.15551,36.78474],[129.15565,36.78462],[129.15582,36.78453],[129.15613,36.78443],[129.15641,36.78432],[129.15659,36.78408],[129.15822,36.7806],[129.15841,36.78014],[129.15834,36.77967],[129.15808,36.77819],[129.15777,36.77611],[129.15787,36.77558],[129.15801,36.77539],[129.15836,36.77511],[129.15866,36.77488],[129.15913,36.77474],[129.15964,36.77451],[129.15978,36.77435],[129.16093,36.77235],[129.1612,36.77157],[129.16125,36.77102],[129.16135,36.76732],[129.16114,36.76562],[129.16082,36.76452],[129.16071,36.76429],[129.16056,36.76405],[129.16039,36.76397],[129.16041,36.76338],[129.16198,36.76124],[129.16212,36.76108],[129.16234,36.76083],[129.1626,36.7607],[129.16291,36.76064],[129.16318,36.7607],[129.16339,36.7608],[129.16364,36.76113],[129.16368,36.7614],[129.16371,36.76174],[129.16375,36.76223],[129.16386,36.76315],[129.16395,36.7635],[129.16444,36.76409],[129.16579,36.76561],[129.16598,36.76573],[129.1663,36.76576],[129.16667,36.76572],[129.16682,36.76566],[129.16785,36.76505],[129.16856,36.76427],[129.17029,36.76182],[129.17042,36.76152],[129.17042,36.76105],[129.1705,36.76056],[129.17059,36.76027],[129.17161,36.75873],[129.172,36.75836],[129.17217,36.75828],[129.17246,36.75819],[129.17294,36.75815],[129.17412,36.75832],[129.17467,36.75843],[129.17486,36.75853],[129.17524,36.75871],[129.17572,36.75893],[129.17593,36.759],[129.17621,36.75896],[129.17647,36.75892],[129.17691,36.75874],[129.17951,36.75771],[129.18019,36.7573],[129.1806,36.75705],[129.18116,36.75669],[129.18165,36.75623],[129.18336,36.75434],[129.18366,36.75399],[129.18374,36.75361],[129.18361,36.75291],[129.18335,36.75258],[129.18268,36.75189],[129.1826,36.75181],[129.18255,36.75178],[129.18249,36.75176],[129.18239,36.75172],[129.18229,36.7517],[129.18211,36.75168],[129.18179,36.75165],[129.18148,36.75161],[129.18102,36.75152],[129.18073,36.75143],[129.18056,36.75138],[129.17852,36.75067],[129.17827,36.75051],[129.17775,36.75012],[129.17709,36.74948],[129.17688,36.74912],[129.17694,36.74883],[129.17789,36.74528],[129.17919,36.74036],[129.17795,36.73915],[129.17782,36.73905],[129.17776,36.73903],[129.17769,36.739],[129.17724,36.73596],[129.17904,36.73574],[129.17918,36.7357],[129.17925,36.73566],[129.17949,36.73543],[129.17981,36.73508],[129.17995,36.7349],[129.18096,36.73358],[129.18102,36.7335],[129.18121,36.73322],[129.18278,36.73047],[129.18461,36.72808],[129.18731,36.72585],[129.18752,36.72572],[129.18781,36.7255],[129.188,36.72534],[129.18808,36.72527],[129.18823,36.72507],[129.18837,36.72485],[129.1885,36.72464],[129.18862,36.72442],[129.18873,36.72421],[129.18876,36.72413],[129.18882,36.72398],[129.18914,36.72311],[129.18921,36.7229],[129.18926,36.72267],[129.18937,36.72222],[129.18942,36.722],[129.18943,36.72195],[129.18945,36.72177],[129.18945,36.72168],[129.18837,36.71487],[129.18634,36.71316],[129.18628,36.71315],[129.18622,36.71314],[129.18613,36.71311],[129.18608,36.71309],[129.18603,36.71305],[129.18601,36.71303],[129.18596,36.71296],[129.18502,36.71126],[129.18494,36.71112],[129.1849,36.71104],[129.18487,36.71098],[129.18479,36.71076],[129.18477,36.71069],[129.18475,36.71058],[129.1847,36.7103],[129.1841,36.70686],[129.18409,36.70681],[129.1841,36.70675],[129.18411,36.70669],[129.18414,36.70664],[129.18418,36.7066],[129.18425,36.70652],[129.18488,36.70583],[129.1856,36.70496],[129.18562,36.70493],[129.18562,36.70489],[129.18563,36.70484],[129.18562,36.70479],[129.18524,36.70311],[129.18523,36.70307],[129.18521,36.70304],[129.18447,36.7024],[129.18436,36.7023],[129.18427,36.70225],[129.1842,36.70221],[129.18414,36.70219],[129.18404,36.70215],[129.18396,36.70213],[129.18387,36.70211],[129.18377,36.70207],[129.18371,36.70205],[129.18362,36.70201],[129.18355,36.70197],[129.18291,36.70155],[129.18267,36.70139],[129.18263,36.70135],[129.1825,36.70124],[129.18246,36.7012],[129.1814,36.69998],[129.18138,36.69994],[129.18132,36.69977],[129.1813,36.69973],[129.18066,36.69776]]]]}},{"type":"Feature","properties":{"code":"47760340","name":"수비면","parent":"47760"},"geometry":{"type":"MultiPolygon","coordinates":[[[[129.29488,36.82488],[129.29487,36.82478],[129.29472,36.82433],[129.29444,36.82376],[129.29293,36.82195],[129.29263,36.82162],[129.29187,36.82107],[129.29173,36.82076],[129.29084,36.8179],[129.28985,36.81449],[129.29018,36.81247],[129.29028,36.81214],[129.29022,36.8119],[129.28955,36.81044],[129.28906,36.80885],[129.28899,36.80844],[129.28902,36.80833],[129.28916,36.80819],[129.28973,36.80784],[129.29043,36.80752],[129.29265,36.80603],[129.29339,36.8055],[129.29355,36.80521],[129.29359,36.80469],[129.29347,36.80413],[129.29354,36.80342],[129.29356,36.80323],[129.29362,36.80307],[129.2937,36.80291],[129.29495,36.80087],[129.29512,36.80064],[129.2956,36.80026],[129.29802,36.7977],[129.29976,36.79457],[129.29986,36.79443],[129.30063,36.79359],[129.30079,36.79347],[129.301,36.79338],[129.30151,36.79329],[129.30275,36.7933],[129.30425,36.7931],[129.30576,36.7928],[129.30634,36.79259],[129.3067,36.7923],[129.30719,36.79143],[129.30951,36.78813],[129.31171,36.78633],[129.31199,36.78592],[129.31322,36.783],[129.31346,36.78152],[129.3135,36.78089],[129.31136,36.77815],[129.31131,36.77792],[129.3113,36.77762],[129.31145,36.77724],[129.31178,36.77653],[129.31184,36.77613],[129.31174,36.77556],[129.3116,36.77521],[129.31133,36.77482],[129.31077,36.77426],[129.31058,36.77409],[129.31023,36.77391],[129.30996,36.77383],[129.30964,36.77378],[129.30933,36.7738],[129.30899,36.77387],[129.30849,36.77423],[129.30679,36.77574],[129.30615,36.7764],[129.3057,36.77669],[129.30458,36.77682],[129.30359,36.77673],[129.30314,36.77656],[129.3029,36.77641],[129.3009,36.77431],[129.2987,36.77197],[129.29836,36.77161],[129.29816,36.77127],[129.29626,36.76804],[129.29617,36.76786],[129.2961,36.76761],[129.29579,36.76571],[129.29582,36.76546],[129.29683,36.76061],[129.29716,36.75985],[129.29758,36.75906],[129.29794,36.75845],[129.29821,36.75798],[129.29821,36.75771],[129.29816,36.7575],[129.2952,36.75402],[129.2948,36.75372],[129.29425,36.7534],[129.29363,36.75315],[129.29327,36.75303],[129.29316,36.75302],[129.2926,36.753],[129.29207,36.75303],[129.29132,36.7532],[129.29065,36.75348],[129.29044,36.75352],[129.2902,36.75351],[129.28872,36.75329],[129.28507,36.75218],[129.28471,36.75203],[129.28064,36.74965],[129.27737,36.74761],[129.27303,36.74514],[129.27251,36.74489],[129.27244,36.74481],[129.27239,36.74475],[129.27238,36.74464],[129.27248,36.74441],[129.27309,36.74344],[129.27385,36.74252],[129.27404,36.74222],[129.2741,36.74193],[129.2741,36.74123],[129.27401,36.74044],[129.2738,36.73938],[129.27334,36.73827],[129.27312,36.7378],[129.27204,36.73686],[129.27153,36.73625],[129.27091,36.73529],[129.2705,36.73447],[129.27004,36.73329],[129.27,36.73292],[129.26999,36.73228],[129.27114,36.72604],[129.2713,36.72553],[129.27142,36.72536],[129.27388,36.72387],[129.27682,36.72271],[129.27859,36.72251],[129.27898,36.72252],[129.27925,36.72259],[129.27947,36.72273],[129.2799,36.72317],[129.28023,36.72348],[129.28044,36.72355],[129.28069,36.7236],[129.28095,36.7236],[129.2812,36.72352],[129.28188,36.72327],[129.28379,36.72233],[129.28416,36.72205],[129.28491,36.72143],[129.28556,36.72082],[129.28593,36.72033],[129.28627,36.71995],[129.28654,36.71972],[129.28684,36.71958],[129.28714,36.71947],[129.29008,36.71856],[129.29166,36.71814],[129.29209,36.71803],[129.29259,36.71796],[129.2934,36.71779],[129.29367,36.7177],[129.29382,36.71764],[129.29393,36.71747],[129.29403,36.71727],[129.29403,36.71706],[129.29389,36.71666],[129.29355,36.71611],[129.29295,36.7153],[129.29216,36.71454],[129.29098,36.71371],[129.29015,36.71307],[129.28952,36.71255],[129.28794,36.71102],[129.28647,36.70875],[129.28636,36.70859],[129.28626,36.70838],[129.28592,36.70607],[129.28596,36.70558],[129.28602,36.70509],[129.28613,36.70453],[129.28633,36.70402],[129.28661,36.70345],[129.28669,36.70305],[129.28673,36.70276],[129.28664,36.70239],[129.28492,36.69975],[129.28472,36.69954],[129.28456,36.69945],[129.28434,36.69943],[129.28382,36.69943],[129.28339,36.69944],[129.283,36.69944],[129.28291,36.69943],[129.28267,36.69936],[129.28255,36.6992],[129.28242,36.699],[129.28221,36.69847],[129.28215,36.69813],[129.28224,36.69783],[129.28252,36.69722],[129.2828,36.69682],[129.28292,36.69659],[129.28292,36.69627],[129.2829,36.69592],[129.28281,36.69553],[129.28219,36.69443],[129.28186,36.69403],[129.28143,36.69357],[129.28067,36.69306],[129.27903,36.6922],[129.27861,36.69206],[129.27827,36.69195],[129.27686,36.69159],[129.27465,36.69161],[129.27435,36.69166],[129.27385,36.69184],[129.2735,36.69203],[129.2716,36.69345],[129.26925,36.69511],[129.26889,36.69536],[129.26848,36.69554],[129.26796,36.69565],[129.26733,36.69577],[129.25921,36.69722],[129.25884,36.69724],[129.25842,36.69717],[129.25741,36.69701],[129.25607,36.69861],[129.25579,36.70019],[129.25238,36.70026],[129.25222,36.70027],[129.25194,36.70026],[129.25012,36.70006],[129.2498,36.69999],[129.24963,36.69994],[129.24525,36.69916],[129.24419,36.70006],[129.24412,36.70011],[129.24403,36.70016],[129.24394,36.70019],[129.24386,36.7002],[129.24377,36.7002],[129.24257,36.69991],[129.24148,36.69964],[129.23828,36.69873],[129.23821,36.69871],[129.23817,36.69868],[129.23813,36.69863],[129.2381,36.69857],[129.23802,36.69846],[129.23792,36.69829],[129.23784,36.69819],[129.23779,36.69815],[129.23775,36.69811],[129.23665,36.69767],[129.23119,36.69586],[129.22972,36.69588],[129.2296,36.69588],[129.22954,36.69587],[129.2294,36.69584],[129.2293,36.6958],[129.22918,36.69574],[129.22905,36.69564],[129.22568,36.69322],[129.22561,36.69316],[129.22556,36.69312],[129.22445,36.69201],[129.22424,36.69137],[129.22388,36.69055],[129.22383,36.69048],[129.22375,36.69043],[129.22371,36.6904],[129.21903,36.68817],[129.219,36.68816],[129.21895,36.68816],[129.2189,36.68816],[129.21837,36.68822],[129.21816,36.68826],[129.21805,36.68828],[129.21794,36.6883],[129.21779,36.68831],[129.21706,36.68836],[129.21691,36.68836],[129.21667,36.68836],[129.21651,36.68836],[129.21594,36.68834],[129.2159,36.68834],[129.21585,36.68833],[129.21575,36.6883],[129.21571,36.68828],[129.21567,36.68825],[129.21561,36.68819],[129.21557,36.68814],[129.21405,36.68597],[129.21403,36.68593],[129.21363,36.68489],[129.21362,36.68483],[129.21362,36.68477],[129.21363,36.68467],[129.21364,36.68454],[129.21367,36.68446],[129.21169,36.68159],[129.20524,36.67672],[129.20353,36.67545],[129.20348,36.67542],[129.20341,36.6754],[129.20194,36.67504],[129.20189,36.67503],[129.20185,36.67503],[129.20177,36.67504],[129.20171,36.67505],[129.20162,36.67508],[129.20034,36.67568],[129.19897,36.67635],[129.19721,36.67744],[129.19718,36.67746],[129.19714,36.6775],[129.19711,36.67753],[129.19708,36.6776],[129.19691,36.67807],[129.19397,36.68244],[129.19246,36.68405],[129.19241,36.68411],[129.19234,36.68423],[129.19233,36.68426],[129.19197,36.68612],[129.19178,36.68759],[129.19178,36.68776],[129.19178,36.68811],[129.19177,36.68825],[129.19176,36.68831],[129.19176,36.68835],[129.19173,36.68838],[129.19169,36.6884],[129.19152,36.68846],[129.19126,36.68853],[129.1912,36.68855],[129.19095,36.68862],[129.18838,36.68911],[129.18832,36.68911],[129.18826,36.68911],[129.18813,36.68904],[129.18783,36.68888],[129.18742,36.68871],[129.18723,36.68863],[129.187,36.6886],[129.18678,36.68859],[129.18668,36.68859],[129.18659,36.68861],[129.1839,36.68952],[129.18381,36.68956],[129.18375,36.6896],[129.18257,36.69037],[129.1825,36.69042],[129.18074,36.69178],[129.18071,36.69183],[129.1807,36.69188],[129.1807,36.69427],[129.18071,36.69432],[129.18096,36.69525],[129.18098,36.69532],[129.18102,36.69544],[129.18107,36.69556],[129.18113,36.69564],[129.18121,36.69572],[129.1813,36.69579],[129.18136,36.69582],[129.18143,36.69584],[129.18154,36.69588],[129.1816,36.69591],[129.18165,36.69594],[129.18168,36.69597],[129.18169,36.696],[129.18169,36.69604],[129.1814,36.69678],[129.18138,36.69682],[129.18131,36.69693],[129.18124,36.69702],[129.18096,36.6974],[129.18081,36.6976],[129.18066,36.69776],[129.1813,36.69973],[129.18132,36.69977],[129.18138,36.69994],[129.1814,36.69998],[129.18246,36.7012],[129.1825,36.70124],[129.18263,36.70135],[129.18267,36.70139],[129.18291,36.70155],[129.18355,36.70197],[129.18362,36.70201],[129.18371,36.70205],[129.18377,36.70207],[129.18387,36.70211],[129.18396,36.70213],[129.18404,36.70215],[129.18414,36.70219],[129.1842,36.70221],[129.18427,36.70225],[129.18436,36.7023],[129.18447,36.7024],[129.18521,36.70304],[129.18523,36.70307],[129.18524,36.70311],[129.18562,36.70479],[129.18563,36.70484],[129.18562,36.70489],[129.18562,36.70493],[129.1856,36.70496],[129.18488,36.70583],[129.18425,36.70652],[129.18418,36.7066],[129.18414,36.70664],[129.18411,36.70669],[129.1841,36.70675],[129.18409,36.70681],[129.1841,36.70686],[129.1847,36.7103],[129.18475,36.71058],[129.18477,36.71069],[129.18479,36.71076],[129.18487,36.71098],[129.1849,36.71104],[129.18494,36.71112],[129.18502,36.71126],[129.18596,36.71296],[129.18601,36.71303],[129.18603,36.71305],[129.18608,36.71309],[129.18613,36.71311],[129.18622,36.71314],[129.18628,36.71315],[129.18634,36.71316],[129.18837,36.71487],[129.18945,36.72168],[129.18945,36.72177],[129.18943,36.72195],[129.18942,36.722],[129.18937,36.72222],[129.18926,36.72267],[129.18921,36.7229],[129.18914,36.72311],[129.18882,36.72398],[129.18876,36.72413],[129.18873,36.72421],[129.18862,36.72442],[129.1885,36.72464],[129.18837,36.72485],[129.18823,36.72507],[129.18808,36.72527],[129.188,36.72534],[129.18781,36.7255],[129.18752,36.72572],[129.18731,36.72585],[129.18461,36.72808],[129.18278,36.73047],[129.18121,36.73322],[129.18102,36.7335],[129.18096,36.73358],[129.17995,36.7349],[129.17981,36.73508],[129.17949,36.73543],[129.17925,36.73566],[129.17918,36.7357],[129.17904,36.73574],[129.17724,36.73596],[129.17769,36.739],[129.17776,36.73903],[129.17782,36.73905],[129.17795,36.73915],[129.17919,36.74036],[129.17789,36.74528],[129.17694,36.74883],[129.17688,36.74912],[129.17709,36.74948],[129.17775,36.75012],[129.17827,36.75051],[129.17852,36.75067],[129.18056,36.75138],[129.18073,36.75143],[129.18102,36.75152],[129.18148,36.75161],[129.18179,36.75165],[129.18211,36.75168],[129.18229,36.7517],[129.18239,36.75172],[129.18249,36.75176],[129.18255,36.75178],[129.1826,36.75181],[129.18268,36.75189],[129.18335,36.75258],[129.18361,36.75291],[129.18374,36.75361],[129.18366,36.75399],[129.18336,36.75434],[129.18165,36.75623],[129.18116,36.75669],[129.1806,36.75705],[129.18019,36.7573],[129.17951,36.75771],[129.17691,36.75874],[129.17647,36.75892],[129.17621,36.75896],[129.17593,36.759],[129.17572,36.75893],[129.17524,36.75871],[129.17486,36.75853],[129.17467,36.75843],[129.17412,36.75832],[129.17294,36.75815],[129.17246,36.75819],[129.17217,36.75828],[129.172,36.75836],[129.17161,36.75873],[129.17059,36.76027],[129.1705,36.76056],[129.17042,36.76105],[129.17042,36.76152],[129.17029,36.76182],[129.16856,36.76427],[129.16785,36.76505],[129.16682,36.76566],[129.16667,36.76572],[129.1663,36.76576],[129.16598,36.76573],[129.16579,36.76561],[129.16444,36.76409],[129.16395,36.7635],[129.16386,36.76315],[129.16375,36.76223],[129.16371,36.76174],[129.16368,36.7614],[129.16364,36.76113],[129.16339,36.7608],[129.16318,36.7607],[129.16291,36.76064],[129.1626,36.7607],[129.16234,36.76083],[129.16212,36.76108],[129.16198,36.76124],[129.16041,36.76338],[129.16039,36.76397],[129.16056,36.76405],[129.16071,36.76429],[129.16082,36.76452],[129.16114,36.76562],[129.16135,36.76732],[129.16125,36.77102],[129.1612,36.77157],[129.16093,36.77235],[129.15978,36.77435],[129.15964,36.77451],[129.15913,36.77474],[129.15866,36.77488],[129.15836,36.77511],[129.15801,36.77539],[129.15787,36.77558],[129.15777,36.77611],[129.15808,36.77819],[129.15834,36.77967],[129.15841,36.78014],[129.15822,36.7806],[129.15659,36.78408],[129.15641,36.78432],[129.15613,36.78443],[129.15582,36.78453],[129.15565,36.78462],[129.15551,36.78474],[129.15544,36.78488],[129.1553,36.78669],[129.15528,36.78715],[129.15573,36.78762],[129.15608,36.78799],[129.15628,36.78812],[129.15679,36.78825],[129.1591,36.78893],[129.1628,36.79008],[129.16353,36.79037],[129.16362,36.79042],[129.16572,36.79399],[129.16601,36.79472],[129.16622,36.79555],[129.16688,36.79881],[129.16687,36.79897],[129.16682,36.79923],[129.16665,36.79975],[129.1662,36.80071],[129.16587,36.80134],[129.16573,36.80155],[129.16571,36.80174],[129.16599,36.80434],[129.16611,36.8047],[129.16726,36.80777],[129.17015,36.81266],[129.17068,36.81334],[129.17129,36.81359],[129.1729,36.81474],[129.1735,36.81547],[129.17425,36.81685],[129.17403,36.81704],[129.17372,36.81754],[129.17344,36.8181],[129.17219,36.82131],[129.17157,36.82317],[129.17154,36.82473],[129.17153,36.82529],[129.17153,36.82573],[129.17154,36.82603],[129.17156,36.82631],[129.17164,36.82667],[129.17177,36.82698],[129.172,36.8278],[129.17209,36.82814],[129.17216,36.82846],[129.17211,36.82873],[129.17186,36.82946],[129.17141,36.83032],[129.17109,36.83075],[129.17055,36.83146],[129.17019,36.83182],[129.16962,36.83232],[129.16942,36.83259],[129.1692,36.83292],[129.16796,36.83481],[129.16773,36.83542],[129.16769,36.83566],[129.16773,36.83768],[129.16779,36.83834],[129.16819,36.83928],[129.16835,36.83979],[129.16837,36.83984],[129.16835,36.83987],[129.16818,36.84018],[129.16788,36.84035],[129.16477,36.84085],[129.16429,36.84095],[129.16373,36.84101],[129.16016,36.8407],[129.15962,36.84062],[129.15928,36.84052],[129.15718,36.83971],[129.15675,36.83946],[129.15635,36.83922],[129.15585,36.83883],[129.15565,36.83859],[129.15548,36.83813],[129.15547,36.83793],[129.15612,36.83699],[129.15636,36.83668],[129.15667,36.83606],[129.15689,36.83561],[129.15701,36.8353],[129.15702,36.83502],[129.15699,36.83463],[129.15683,36.83439],[129.15665,36.83418],[129.15624,36.83392],[129.15455,36.83321],[129.15417,36.83307],[129.15273,36.83284],[129.15263,36.83284],[129.15253,36.83291],[129.15242,36.83299],[129.15209,36.83329],[129.15167,36.83371],[129.1515,36.83391],[129.15096,36.8345],[129.15035,36.83496],[129.14423,36.83643],[129.1432,36.83664],[129.14294,36.83663],[129.14242,36.83659],[129.14186,36.8365],[129.14141,36.83628],[129.14123,36.83609],[129.13987,36.83524],[129.1349,36.8343],[129.1321,36.83404],[129.13126,36.83448],[129.13083,36.83466],[129.12884,36.83497],[129.12849,36.835],[129.12727,36.83497],[129.12587,36.83488],[129.12459,36.83471],[129.12387,36.83456],[129.12304,36.83422],[129.12272,36.83407],[129.1218,36.8334],[129.12139,36.83321],[129.12098,36.83316],[129.12032,36.83329],[129.11637,36.83485],[129.11548,36.83513],[129.11465,36.8352],[129.11411,36.83518],[129.11369,36.83503],[129.11321,36.83461],[129.11131,36.83241],[129.10834,36.83166],[129.10786,36.83177],[129.1072,36.83178],[129.10659,36.83174],[129.10624,36.83161],[129.10558,36.83121],[129.10352,36.82913],[129.10295,36.82848],[129.10281,36.82824],[129.09977,36.82602],[129.09614,36.82403],[129.09575,36.82385],[129.09458,36.82366],[129.09108,36.82356],[129.08982,36.82387],[129.08876,36.82493],[129.08955,36.8264],[129.08978,36.82654],[129.09001,36.82659],[129.09039,36.82663],[129.09073,36.82661],[129.09104,36.82649],[129.09165,36.82618],[129.09248,36.82598],[129.09303,36.82601],[129.09635,36.82676],[129.0966,36.82687],[129.0982,36.82768],[129.09879,36.82801],[129.09994,36.82885],[129.10024,36.82914],[129.10077,36.82974],[129.10094,36.83009],[129.10103,36.83041],[129.10109,36.83095],[129.1008,36.83258],[129.1015,36.83433],[129.10176,36.83459],[129.10322,36.83587],[129.10433,36.83657],[129.10878,36.83914],[129.11267,36.84127],[129.11292,36.84141],[129.11307,36.84152],[129.11336,36.84207],[129.11357,36.84296],[129.11382,36.84337],[129.1142,36.8437],[129.11497,36.84423],[129.11549,36.84447],[129.11624,36.84452],[129.11669,36.84409],[129.11699,36.84409],[129.11765,36.84413],[129.11803,36.84422],[129.11882,36.84472],[129.12188,36.84792],[129.12198,36.84803],[129.12382,36.85196],[129.12413,36.85265],[129.1243,36.85331],[129.12432,36.85429],[129.12436,36.85537],[129.12448,36.85626],[129.12462,36.85677],[129.12488,36.85721],[129.1254,36.85763],[129.12583,36.85781],[129.1262,36.85787],[129.12738,36.8579],[129.1276,36.85797],[129.12804,36.85827],[129.12834,36.85854],[129.12842,36.85887],[129.12849,36.85927],[129.12865,36.86121],[129.12848,36.86175],[129.12844,36.86208],[129.1286,36.86312],[129.12936,36.86501],[129.13008,36.8656],[129.13062,36.86585],[129.13099,36.86597],[129.13181,36.86614],[129.13555,36.86911],[129.13576,36.86928],[129.13696,36.87138],[129.13702,36.87155],[129.13684,36.872],[129.1383,36.87288],[129.14283,36.87361],[129.14784,36.87407],[129.14865,36.87379],[129.14896,36.87369],[129.15037,36.8735],[129.15065,36.87348],[129.15262,36.87384],[129.1529,36.87395],[129.15316,36.87409],[129.1533,36.87419],[129.15381,36.87478],[129.15406,36.87512],[129.15479,36.87673],[129.155,36.87727],[129.15513,36.87821],[129.15646,36.87754],[129.15697,36.87694],[129.15752,36.87627],[129.158,36.87565],[129.15826,36.87536],[129.15854,36.87505],[129.15879,36.87492],[129.15903,36.87482],[129.16205,36.87428],[129.16379,36.87423],[129.16413,36.87432],[129.16489,36.87466],[129.16547,36.87501],[129.16572,36.87531],[129.16612,36.87737],[129.16555,36.87913],[129.16553,36.87922],[129.16566,36.87938],[129.16885,36.88117],[129.16926,36.88134],[129.16969,36.88142],[129.17005,36.88142],[129.17075,36.88137],[129.17113,36.88133],[129.17177,36.88116],[129.17275,36.88088],[129.17373,36.88095],[129.17401,36.88095],[129.17427,36.88089],[129.17466,36.88066],[129.17491,36.88049],[129.17522,36.88011],[129.17581,36.87948],[129.17626,36.87916],[129.17654,36.87902],[129.17694,36.87894],[129.18268,36.87851],[129.18305,36.87849],[129.18334,36.87849],[129.18754,36.87924],[129.18956,36.87969],[129.19023,36.87982],[129.1909,36.8798],[129.19168,36.87961],[129.19197,36.87949],[129.19236,36.87919],[129.1934,36.87791],[129.19557,36.87519],[129.19564,36.87496],[129.19568,36.87454],[129.19556,36.87381],[129.19538,36.87332],[129.1952,36.87228],[129.19524,36.87195],[129.19552,36.87078],[129.19568,36.87035],[129.19593,36.86997],[129.19709,36.86889],[129.20138,36.86543],[129.20166,36.86531],[129.20291,36.86489],[129.20346,36.86472],[129.21029,36.86342],[129.21045,36.86341],[129.21435,36.86363],[129.21567,36.86372],[129.21684,36.86389],[129.21737,36.86398],[129.21766,36.86405],[129.21809,36.86423],[129.21878,36.86459],[129.22088,36.86551],[129.2261,36.86741],[129.22688,36.86766],[129.22755,36.86786],[129.22782,36.86786],[129.22845,36.86781],[129.23003,36.86763],[129.2309,36.86752],[129.23192,36.86736],[129.23312,36.86716],[129.23364,36.86698],[129.2369,36.86433],[129.23754,36.86376],[129.23788,36.86343],[129.23804,36.86317],[129.23806,36.86294],[129.23717,36.86095],[129.23647,36.86],[129.23603,36.85951],[129.23566,36.85925],[129.23497,36.85873],[129.23379,36.85778],[129.23358,36.85758],[129.23102,36.85394],[129.23102,36.85388],[129.23108,36.85382],[129.23133,36.85362],[129.23153,36.85348],[129.23174,36.85339],[129.23348,36.85292],[129.23978,36.85193],[129.24006,36.85191],[129.24459,36.85217],[129.245,36.85223],[129.24664,36.85251],[129.2477,36.85279],[129.2488,36.85365],[129.24979,36.85446],[129.25021,36.85483],[129.2504,36.85535],[129.25033,36.85604],[129.2504,36.8563],[129.2508,36.85682],[129.25217,36.85815],[129.25245,36.8584],[129.25278,36.85853],[129.25309,36.85859],[129.25367,36.85853],[129.25393,36.85858],[129.25458,36.85914],[129.25503,36.85986],[129.25524,36.8604],[129.2562,36.86694],[129.25583,36.87002],[129.2558,36.87037],[129.25593,36.87117],[129.25688,36.87302],[129.25751,36.87365],[129.26107,36.87704],[129.26121,36.87713],[129.26137,36.87719],[129.26187,36.87737],[129.26207,36.87744],[129.26232,36.87744],[129.26277,36.87738],[129.26298,36.8773],[129.26312,36.87717],[129.2632,36.87705],[129.26338,36.87635],[129.2633,36.8758],[129.26319,36.87557],[129.26303,36.87537],[129.26192,36.87444],[129.26133,36.87387],[129.26108,36.87334],[129.26035,36.87104],[129.26029,36.87077],[129.26028,36.87059],[129.26033,36.87041],[129.26045,36.87021],[129.2607,36.87009],[129.26098,36.87007],[129.26115,36.87011],[129.26142,36.8702],[129.26223,36.87062],[129.26729,36.87265],[129.26748,36.8727],[129.26781,36.87271],[129.26957,36.87237],[129.27053,36.8719],[129.27186,36.87147],[129.27212,36.87144],[129.27242,36.87147],[129.27267,36.87155],[129.27286,36.87167],[129.27307,36.87186],[129.27319,36.87199],[129.27348,36.87285],[129.2738,36.87374],[129.27423,36.87429],[129.27471,36.87467],[129.27516,36.87497],[129.27549,36.87507],[129.2759,36.87515],[129.27626,36.87516],[129.27729,36.87507],[129.27768,36.87497],[129.27816,36.87478],[129.27872,36.87433],[129.27895,36.87395],[129.28127,36.87007],[129.28398,36.86621],[129.28555,36.86453],[129.28566,36.86435],[129.28573,36.86419],[129.28575,36.8638],[129.28571,36.86344],[129.28558,36.86313],[129.28555,36.8631],[129.28541,36.86301],[129.2852,36.86299],[129.28391,36.86312],[129.2824,36.86352],[129.28146,36.86396],[129.28064,36.8644],[129.28007,36.86475],[129.27996,36.8648],[129.27974,36.86486],[129.27923,36.8649],[129.27882,36.86486],[129.27866,36.86483],[129.27847,36.86474],[129.27816,36.86453],[129.2781,36.86433],[129.27813,36.86418],[129.27817,36.86411],[129.27856,36.86356],[129.27932,36.863],[129.28011,36.8626],[129.28047,36.86229],[129.28054,36.86213],[129.28058,36.86179],[129.28053,36.86145],[129.28042,36.86122],[129.2803,36.86106],[129.28017,36.86095],[129.27903,36.86012],[129.2789,36.86003],[129.27868,36.85995],[129.27726,36.85977],[129.27694,36.85968],[129.27557,36.85912],[129.27544,36.85904],[129.27519,36.85879],[129.27478,36.85809],[129.27478,36.85794],[129.27515,36.85697],[129.27524,36.85681],[129.27502,36.8536],[129.27443,36.8511],[129.27442,36.85096],[129.27453,36.85047],[129.27463,36.85022],[129.27472,36.85008],[129.27558,36.84902],[129.27601,36.8486],[129.27664,36.8482],[129.27696,36.8479],[129.27707,36.84766],[129.27711,36.84746],[129.27712,36.84716],[129.27704,36.84689],[129.27674,36.84645],[129.27618,36.84589],[129.27546,36.8452],[129.2745,36.84453],[129.27307,36.84362],[129.27268,36.84326],[129.27066,36.84065],[129.27062,36.84039],[129.27068,36.84024],[129.2724,36.83727],[129.27258,36.83412],[129.27266,36.83369],[129.27292,36.83357],[129.2747,36.83313],[129.2784,36.83248],[129.28081,36.83253],[129.281,36.83254],[129.28115,36.83258],[129.28168,36.83292],[129.28192,36.8332],[129.28241,36.83339],[129.28301,36.83345],[129.28319,36.83341],[129.28673,36.83197],[129.28747,36.83165],[129.29078,36.82897],[129.29348,36.82642],[129.29488,36.82488]]]]}},{"type":"Feature","properties":{"code":"47760350","name":"석보면","parent":"47760"},"geometry":{"type":"MultiPolygon","coordinates":[[[[129.23253,36.57738],[129.23347,36.5766],[129.23359,36.57648],[129.23401,36.57597],[129.23406,36.57589],[129.23407,36.57583],[129.23407,36.57575],[129.23405,36.5756],[129.23403,36.57552],[129.23397,36.5754],[129.23381,36.57519],[129.23365,36.57503],[129.23354,36.5749],[129.23348,36.5748],[129.23346,36.57475],[129.23392,36.57367],[129.23424,36.57295],[129.23617,36.57042],[129.2369,36.56948],[129.24075,36.5678],[129.24081,36.5678],[129.2426,36.56753],[129.24268,36.56752],[129.2428,36.56746],[129.24325,36.56715],[129.24339,36.56702],[129.24578,36.56346],[129.24736,36.56056],[129.24744,36.55981],[129.24215,36.55991],[129.24204,36.55986],[129.24195,36.55981],[129.24189,36.55972],[129.24081,36.55759],[129.23932,36.55369],[129.2393,36.55364],[129.23917,36.55029],[129.23977,36.54798],[129.23983,36.5457],[129.2377,36.5421],[129.23697,36.53918],[129.23597,36.53471],[129.23555,36.53134],[129.23554,36.53122],[129.23554,36.53104],[129.23568,36.52958],[129.2357,36.52951],[129.23577,36.52943],[129.23585,36.52935],[129.23593,36.5293],[129.2363,36.52914],[129.23646,36.52906],[129.2367,36.52886],[129.23682,36.52876],[129.23697,36.52862],[129.23788,36.52764],[129.23791,36.52759],[129.23792,36.52754],[129.23825,36.52508],[129.2385,36.52312],[129.24073,36.52113],[129.24615,36.51575],[129.2462,36.51566],[129.24664,36.51485],[129.24684,36.51444],[129.24792,36.51131],[129.24767,36.51018],[129.24706,36.5098],[129.24399,36.50867],[129.23987,36.50946],[129.23737,36.5103],[129.23731,36.51032],[129.23722,36.51042],[129.2363,36.51148],[129.23629,36.51151],[129.23625,36.51164],[129.23615,36.51192],[129.23608,36.51204],[129.236,36.51213],[129.2358,36.51233],[129.23495,36.5131],[129.2349,36.51313],[129.23486,36.51313],[129.23307,36.51236],[129.23192,36.51181],[129.23185,36.51177],[129.2318,36.51178],[129.22783,36.51334],[129.22659,36.51387],[129.2264,36.51391],[129.2263,36.51392],[129.22621,36.51393],[129.22613,36.51391],[129.22604,36.51388],[129.22593,36.5138],[129.22586,36.51371],[129.22577,36.5127],[129.22499,36.50865],[129.2239,36.50599],[129.2228,36.50364],[129.22274,36.50158],[129.22274,36.5015],[129.22275,36.50131],[129.22276,36.50112],[129.22278,36.50101],[129.22314,36.4995],[129.22316,36.49946],[129.22318,36.49941],[129.22324,36.49935],[129.22331,36.49929],[129.22341,36.49923],[129.22509,36.49702],[129.22661,36.4944],[129.22661,36.49435],[129.22593,36.49397],[129.22575,36.49387],[129.22565,36.4938],[129.22537,36.49359],[129.2241,36.49254],[129.22406,36.49249],[129.22404,36.49246],[129.22404,36.49243],[129.22412,36.49221],[129.22417,36.49208],[129.22427,36.49191],[129.22436,36.49178],[129.22444,36.49168],[129.22463,36.49148],[129.22483,36.49128],[129.22498,36.49113],[129.2251,36.491],[129.22523,36.49085],[129.2253,36.49077],[129.22532,36.49071],[129.22533,36.49063],[129.22532,36.49053],[129.22529,36.49043],[129.22493,36.48945],[129.22488,36.48937],[129.22474,36.48927],[129.22457,36.48916],[129.2244,36.48907],[129.22436,36.48906],[129.22237,36.49009],[129.21814,36.49049],[129.21811,36.49052],[129.21809,36.49057],[129.21771,36.4917],[129.21806,36.493],[129.21821,36.49474],[129.21817,36.49499],[129.21814,36.4951],[129.21804,36.49546],[129.21584,36.49888],[129.21574,36.49898],[129.21561,36.49907],[129.21546,36.49915],[129.21376,36.49997],[129.21232,36.5001],[129.21219,36.50009],[129.21117,36.5],[129.21104,36.50001],[129.21092,36.50003],[129.2091,36.50054],[129.20905,36.50056],[129.20633,36.50172],[129.20512,36.50243],[129.205,36.50252],[129.20493,36.50254],[129.20488,36.50253],[129.204,36.50235],[129.20384,36.5023],[129.20353,36.50214],[129.20342,36.50207],[129.20332,36.502],[129.20176,36.501],[129.1991,36.50089],[129.19892,36.5009],[129.19872,36.50093],[129.19785,36.50105],[129.19766,36.50109],[129.19761,36.50111],[129.19754,36.50115],[129.19745,36.50121],[129.19672,36.50164],[129.1952,36.50231],[129.19292,36.50331],[129.19287,36.50333],[129.19114,36.50327],[129.19109,36.50326],[129.19095,36.50322],[129.19059,36.50311],[129.19058,36.50307],[129.19062,36.50303],[129.19032,36.50202],[129.1892,36.50043],[129.18878,36.49992],[129.18868,36.49982],[129.18862,36.49977],[129.18848,36.4997],[129.18842,36.49969],[129.18838,36.4997],[129.18833,36.49973],[129.18825,36.4998],[129.18807,36.49995],[129.18757,36.50042],[129.18743,36.50057],[129.18736,36.50067],[129.18569,36.50293],[129.18201,36.50745],[129.18186,36.50753],[129.18114,36.50772],[129.17607,36.50806],[129.17603,36.50807],[129.17399,36.5079],[129.17371,36.50785],[129.17354,36.5078],[129.17335,36.50771],[129.17143,36.50652],[129.17063,36.50602],[129.16958,36.50548],[129.16796,36.50503],[129.16683,36.50473],[129.16557,36.50442],[129.16241,36.50417],[129.16129,36.50411],[129.15997,36.50356],[129.15989,36.50349],[129.15982,36.50339],[129.15975,36.50313],[129.15964,36.50289],[129.1596,36.50281],[129.15955,36.50277],[129.15849,36.5021],[129.15816,36.50193],[129.15779,36.50177],[129.15752,36.50166],[129.15212,36.50033],[129.14989,36.50111],[129.14976,36.50115],[129.14696,36.50152],[129.1469,36.50152],[129.14685,36.50152],[129.1468,36.5015],[129.14675,36.50147],[129.14671,36.50144],[129.14605,36.50087],[129.14599,36.50082],[129.14593,36.50072],[129.14586,36.50062],[129.1458,36.50051],[129.14573,36.50038],[129.14571,36.50036],[129.14564,36.50027],[129.14551,36.50014],[129.14509,36.49971],[129.14467,36.49931],[129.14434,36.49903],[129.14427,36.499],[129.1442,36.49898],[129.14413,36.49897],[129.14401,36.49897],[129.14373,36.499],[129.1435,36.49903],[129.1433,36.49906],[129.14315,36.49909],[129.14003,36.49981],[129.13883,36.50027],[129.13677,36.5011],[129.13358,36.50114],[129.13352,36.50111],[129.13336,36.50105],[129.13283,36.50088],[129.13277,36.50091],[129.13074,36.50281],[129.12987,36.50364],[129.12981,36.5037],[129.12979,36.50373],[129.12976,36.50378],[129.12977,36.50382],[129.12978,36.50385],[129.13081,36.50574],[129.1309,36.5059],[129.13106,36.50607],[129.13124,36.50625],[129.13136,36.50638],[129.13148,36.50651],[129.13155,36.50665],[129.13157,36.50672],[129.13161,36.50691],[129.13161,36.50706],[129.13159,36.5071],[129.13152,36.50721],[129.12939,36.51031],[129.12841,36.51107],[129.12778,36.51308],[129.12927,36.51528],[129.13048,36.5185],[129.13039,36.51858],[129.12696,36.52181],[129.1269,36.5219],[129.12687,36.52193],[129.12685,36.52199],[129.12683,36.52206],[129.12682,36.52212],[129.1269,36.52227],[129.1284,36.52493],[129.12843,36.52498],[129.1285,36.52501],[129.12864,36.52503],[129.12881,36.52504],[129.12901,36.52504],[129.12915,36.52506],[129.12934,36.52511],[129.12947,36.5252],[129.12961,36.5253],[129.12999,36.52564],[129.13024,36.52588],[129.13107,36.5267],[129.13108,36.52674],[129.13108,36.52687],[129.13051,36.5295],[129.13038,36.52989],[129.1303,36.53015],[129.12869,36.53376],[129.12867,36.53382],[129.12843,36.53401],[129.12808,36.53427],[129.12761,36.53457],[129.12689,36.53499],[129.12676,36.53507],[129.12666,36.5351],[129.12634,36.53511],[129.12622,36.5351],[129.12612,36.53508],[129.12524,36.53487],[129.12474,36.5347],[129.12464,36.5347],[129.12451,36.5347],[129.12433,36.53472],[129.12402,36.53476],[129.12387,36.53478],[129.12239,36.53506],[129.12232,36.53509],[129.12219,36.53515],[129.1219,36.53533],[129.12176,36.53542],[129.12158,36.53561],[129.12152,36.5357],[129.12113,36.53615],[129.12061,36.53674],[129.12045,36.53691],[129.12023,36.53709],[129.11827,36.53852],[129.11637,36.5387],[129.11438,36.53917],[129.11188,36.53978],[129.1118,36.53981],[129.11081,36.54031],[129.11068,36.54041],[129.108,36.54337],[129.10787,36.54353],[129.10767,36.54381],[129.10762,36.54395],[129.10763,36.54406],[129.10815,36.54614],[129.10845,36.54654],[129.10914,36.5477],[129.10918,36.5478],[129.10919,36.5479],[129.10918,36.54795],[129.10916,36.548],[129.10914,36.54809],[129.10904,36.54813],[129.10893,36.54815],[129.10879,36.54815],[129.10856,36.54814],[129.10845,36.54812],[129.10825,36.54807],[129.10816,36.54804],[129.10796,36.54804],[129.10775,36.54804],[129.1076,36.54804],[129.10701,36.54809],[129.10506,36.54839],[129.10425,36.54851],[129.10198,36.54919],[129.10067,36.54959],[129.09951,36.54997],[129.09933,36.54999],[129.09665,36.54997],[129.09654,36.54996],[129.09645,36.54989],[129.0963,36.54974],[129.09609,36.54951],[129.09599,36.5494],[129.0959,36.54933],[129.09575,36.54929],[129.0956,36.54926],[129.09542,36.54923],[129.09521,36.54925],[129.09514,36.54929],[129.09328,36.55252],[129.09319,36.55269],[129.09321,36.55278],[129.09337,36.55344],[129.09347,36.55372],[129.09501,36.55723],[129.09515,36.55745],[129.0961,36.55844],[129.09642,36.55873],[129.09676,36.55893],[129.09826,36.55972],[129.09862,36.55989],[129.09905,36.56235],[129.09941,36.56381],[129.10028,36.56696],[129.10077,36.56822],[129.10087,36.56839],[129.10142,36.56906],[129.10182,36.56934],[129.10417,36.57096],[129.10462,36.57122],[129.1051,36.5714],[129.10595,36.5717],[129.10635,36.57183],[129.10686,36.57191],[129.10732,36.57199],[129.10776,36.57213],[129.10819,36.57232],[129.10888,36.57269],[129.11032,36.57364],[129.11074,36.57401],[129.11101,36.57437],[129.11124,36.5747],[129.11196,36.57627],[129.11211,36.57985],[129.11213,36.58077],[129.11223,36.58275],[129.11427,36.58677],[129.11701,36.5904],[129.11705,36.59044],[129.11709,36.59048],[129.11769,36.59103],[129.11779,36.59111],[129.11839,36.59144],[129.11879,36.59148],[129.11887,36.59151],[129.1189,36.59153],[129.11893,36.59156],[129.11918,36.59187],[129.11959,36.59245],[129.12052,36.59386],[129.12056,36.59393],[129.12059,36.59398],[129.12069,36.5942],[129.12176,36.59733],[129.12198,36.59879],[129.12445,36.59902],[129.12633,36.59908],[129.12722,36.59959],[129.12886,36.60088],[129.13237,36.60597],[129.13251,36.60618],[129.133,36.60803],[129.13315,36.60986],[129.13671,36.61183],[129.13685,36.61183],[129.13696,36.61186],[129.13708,36.6119],[129.13717,36.61197],[129.13724,36.61207],[129.1383,36.61369],[129.1388,36.61509],[129.13942,36.61696],[129.13976,36.6187],[129.13976,36.61876],[129.13975,36.61882],[129.13927,36.62046],[129.13909,36.62072],[129.13895,36.62089],[129.13862,36.62126],[129.13834,36.62153],[129.13817,36.62168],[129.13805,36.62177],[129.14039,36.62389],[129.14222,36.62544],[129.14226,36.62545],[129.14291,36.6254],[129.14304,36.62538],[129.14318,36.62533],[129.1433,36.62527],[129.14339,36.62517],[129.14399,36.62438],[129.14639,36.62534],[129.14645,36.62539],[129.14795,36.62637],[129.1482,36.62647],[129.14838,36.6265],[129.14871,36.62652],[129.14885,36.62652],[129.14905,36.6265],[129.14939,36.62646],[129.14949,36.62645],[129.15042,36.62643],[129.1506,36.62642],[129.15069,36.62641],[129.15087,36.62635],[129.15498,36.6249],[129.15508,36.62486],[129.15517,36.62479],[129.15622,36.62395],[129.1618,36.61902],[129.16301,36.61623],[129.16313,36.61594],[129.1633,36.61567],[129.16349,36.61545],[129.16353,36.61543],[129.16358,36.61543],[129.16458,36.61537],[129.16765,36.61625],[129.16776,36.6163],[129.16867,36.61674],[129.16882,36.61688],[129.17062,36.61794],[129.17293,36.61843],[129.17527,36.61888],[129.17957,36.61934],[129.18139,36.61913],[129.18157,36.61907],[129.18216,36.61864],[129.18246,36.6183],[129.1825,36.6178],[129.18261,36.61709],[129.18329,36.61605],[129.18333,36.61599],[129.1835,36.61588],[129.18415,36.61551],[129.1852,36.6151],[129.18572,36.61492],[129.18847,36.61425],[129.19069,36.61373],[129.19309,36.61284],[129.19561,36.61016],[129.19566,36.61009],[129.19569,36.61],[129.19574,36.60974],[129.19577,36.60962],[129.19578,36.60949],[129.19581,36.60927],[129.1958,36.60919],[129.19561,36.60836],[129.19556,36.60828],[129.19499,36.6078],[129.19456,36.60747],[129.19446,36.6074],[129.1944,36.60734],[129.19298,36.60263],[129.19071,36.59929],[129.19075,36.59881],[129.19081,36.59868],[129.19126,36.598],[129.19188,36.59778],[129.19293,36.5978],[129.19325,36.59781],[129.19346,36.59784],[129.19525,36.59821],[129.19539,36.59825],[129.19551,36.5983],[129.19574,36.59842],[129.19759,36.5977],[129.19969,36.59547],[129.19973,36.59539],[129.19976,36.59523],[129.19983,36.59458],[129.19984,36.59443],[129.19981,36.59422],[129.20115,36.59068],[129.20374,36.58592],[129.20385,36.58581],[129.2044,36.58548],[129.20464,36.58535],[129.20507,36.58521],[129.20584,36.5849],[129.20617,36.58474],[129.20763,36.584],[129.20784,36.58374],[129.20788,36.58369],[129.20797,36.58357],[129.20807,36.58336],[129.20832,36.58264],[129.20844,36.58205],[129.20843,36.58194],[129.20826,36.58165],[129.20827,36.58146],[129.20846,36.5808],[129.20929,36.57793],[129.20932,36.57783],[129.20942,36.57765],[129.20946,36.57761],[129.20952,36.57759],[129.20985,36.57763],[129.21015,36.57766],[129.21039,36.57768],[129.21049,36.57768],[129.21055,36.57764],[129.21214,36.57557],[129.21222,36.57469],[129.2122,36.57458],[129.21227,36.57384],[129.21321,36.57157],[129.2144,36.5712],[129.2145,36.5713],[129.21466,36.57145],[129.21508,36.57171],[129.21522,36.57179],[129.21566,36.572],[129.21746,36.57268],[129.21761,36.57272],[129.21989,36.57291],[129.2218,36.57291],[129.22191,36.57289],[129.22201,36.57289],[129.22209,36.57293],[129.2232,36.5738],[129.22459,36.5755],[129.22778,36.57851],[129.23125,36.5773],[129.23143,36.57724],[129.23153,36.57723],[129.23164,36.57724],[129.23253,36.57738]]]]}}]}