{"type":"FeatureCollection","features":[{"type":"Feature","properties":{"code":"47770250","name":"영덕읍","parent":"47770"},"geometry":{"type":"MultiPolygon","coordinates":[[[[129.43617,36.47103],[129.43702,36.46971],[129.43775,36.46735],[129.43795,36.46592],[129.43802,36.46292],[129.43754,36.46052],[129.43649,36.4554],[129.43604,36.45398],[129.43554,36.45327],[129.43625,36.45046],[129.43677,36.44901],[129.43695,36.44702],[129.43668,36.44612],[129.43561,36.44282],[129.43535,36.44217],[129.435,36.4414],[129.43464,36.44112],[129.43347,36.44048],[129.43393,36.43704],[129.43519,36.43374],[129.43637,36.4289],[129.43637,36.42857],[129.43638,36.42702],[129.43552,36.42348],[129.43446,36.42233],[129.43303,36.41971],[129.43136,36.41608],[129.43059,36.41218],[129.43097,36.41125],[129.43059,36.40959],[129.42834,36.40647],[129.42703,36.40516],[129.42659,36.40519],[129.42627,36.40632],[129.42517,36.40563],[129.42264,36.40165],[129.42282,36.40065],[129.42075,36.39856],[129.41893,36.40031],[129.41649,36.4021],[129.41622,36.40222],[129.41582,36.40242],[129.41576,36.40246],[129.41552,36.40264],[129.41537,36.40279],[129.41337,36.40622],[129.41351,36.40826],[129.41353,36.40847],[129.41414,36.40994],[129.41421,36.41003],[129.41495,36.41113],[129.41559,36.41212],[129.41562,36.41222],[129.4156,36.41361],[129.41557,36.4137],[129.41381,36.4165],[129.41377,36.41657],[129.41144,36.41883],[129.4113,36.41895],[129.41115,36.41904],[129.41105,36.41907],[129.41063,36.41917],[129.40703,36.41941],[129.40601,36.41939],[129.40456,36.4196],[129.40232,36.41922],[129.40228,36.41911],[129.40223,36.41901],[129.40155,36.41804],[129.401,36.41786],[129.3994,36.41759],[129.39924,36.41758],[129.39764,36.41767],[129.39747,36.41784],[129.39726,36.41802],[129.39706,36.41814],[129.39379,36.41876],[129.3917,36.41867],[129.39153,36.41861],[129.39132,36.41849],[129.38915,36.41707],[129.38724,36.41576],[129.3872,36.41569],[129.38721,36.41553],[129.38733,36.41525],[129.38778,36.41423],[129.38769,36.41276],[129.38765,36.41254],[129.38752,36.41234],[129.38604,36.41021],[129.38453,36.40837],[129.38391,36.40567],[129.38357,36.40394],[129.38353,36.40359],[129.38358,36.40313],[129.38337,36.40197],[129.38335,36.40186],[129.3804,36.3968],[129.38031,36.39665],[129.38026,36.39664],[129.38019,36.39663],[129.38006,36.39661],[129.37996,36.39661],[129.37981,36.3966],[129.37973,36.39661],[129.37943,36.39661],[129.37939,36.39661],[129.37915,36.3966],[129.37889,36.39656],[129.37872,36.39651],[129.37857,36.39646],[129.37604,36.39493],[129.3727,36.39263],[129.37235,36.39222],[129.37203,36.39179],[129.37169,36.39121],[129.37161,36.391],[129.37153,36.39071],[129.37151,36.39036],[129.37152,36.38999],[129.37154,36.38959],[129.37156,36.38932],[129.37171,36.38886],[129.37183,36.3886],[129.37238,36.38767],[129.37269,36.38716],[129.37323,36.38662],[129.37371,36.38618],[129.374,36.3859],[129.37406,36.38583],[129.37433,36.38548],[129.37493,36.38474],[129.37495,36.38467],[129.37492,36.38463],[129.37097,36.38312],[129.37082,36.38308],[129.36969,36.38286],[129.3683,36.38277],[129.36822,36.38278],[129.36814,36.38281],[129.36354,36.38572],[129.36284,36.3863],[129.362,36.38714],[129.35664,36.3898],[129.35525,36.3908],[129.3539,36.39207],[129.35385,36.39213],[129.35383,36.3922],[129.35381,36.39234],[129.35383,36.39251],[129.35387,36.39283],[129.35386,36.39304],[129.35382,36.39318],[129.35346,36.39392],[129.35329,36.39424],[129.35315,36.39449],[129.35303,36.39462],[129.35293,36.39471],[129.35285,36.39476],[129.35264,36.39483],[129.35247,36.39487],[129.35073,36.39522],[129.3505,36.39525],[129.3502,36.39529],[129.34988,36.39528],[129.34969,36.39527],[129.34949,36.39524],[129.34704,36.39533],[129.34692,36.39538],[129.34502,36.39676],[129.34493,36.39686],[129.34437,36.3978],[129.34439,36.39785],[129.34456,36.39794],[129.3456,36.39834],[129.34598,36.39847],[129.3472,36.39881],[129.34735,36.39885],[129.3477,36.39889],[129.34778,36.399],[129.34788,36.39915],[129.34863,36.40057],[129.34865,36.40064],[129.349,36.40286],[129.34901,36.40295],[129.34899,36.40302],[129.34892,36.40319],[129.34876,36.40341],[129.34867,36.40354],[129.34533,36.40665],[129.34512,36.40682],[129.34285,36.40796],[129.3385,36.41031],[129.33683,36.41156],[129.33727,36.41205],[129.33741,36.41212],[129.34261,36.41416],[129.34553,36.415],[129.3457,36.41512],[129.35023,36.41852],[129.35031,36.41859],[129.35037,36.4187],[129.35038,36.41876],[129.35026,36.42188],[129.35019,36.4223],[129.34988,36.42359],[129.34985,36.42369],[129.34916,36.42465],[129.34892,36.42494],[129.34881,36.42513],[129.34873,36.42527],[129.34854,36.42568],[129.34995,36.427],[129.3504,36.42761],[129.3506,36.42803],[129.3512,36.43057],[129.34984,36.43123],[129.34895,36.43164],[129.34827,36.43179],[129.34683,36.43218],[129.34475,36.43282],[129.34204,36.43433],[129.34205,36.43464],[129.3421,36.43481],[129.34215,36.43497],[129.34236,36.43541],[129.34247,36.43561],[129.34258,36.43574],[129.34305,36.43617],[129.34322,36.43632],[129.34336,36.43643],[129.34481,36.4376],[129.34571,36.44022],[129.34572,36.44031],[129.34571,36.44045],[129.34569,36.44066],[129.3456,36.44117],[129.34524,36.44248],[129.34519,36.44264],[129.34512,36.44273],[129.34374,36.44397],[129.34242,36.44538],[129.34228,36.44557],[129.34209,36.44637],[129.34207,36.44648],[129.34198,36.44794],[129.34202,36.44841],[129.34215,36.44916],[129.34217,36.44926],[129.34219,36.44932],[129.34173,36.45042],[129.33967,36.45199],[129.33958,36.45202],[129.33948,36.45203],[129.33794,36.45222],[129.33584,36.45268],[129.33578,36.45272],[129.33577,36.45275],[129.33573,36.45294],[129.33587,36.45435],[129.33599,36.45541],[129.33529,36.45765],[129.33363,36.4616],[129.33206,36.4641],[129.33202,36.46414],[129.33119,36.46475],[129.33111,36.4648],[129.33028,36.46522],[129.33017,36.46527],[129.33,36.46533],[129.3299,36.46536],[129.32915,36.46569],[129.32769,36.46675],[129.3276,36.46683],[129.32755,36.46688],[129.32683,36.46806],[129.3268,36.46812],[129.32677,36.46819],[129.32674,36.4683],[129.32672,36.46846],[129.32669,36.46889],[129.32669,36.46893],[129.3267,36.46898],[129.32572,36.47339],[129.32408,36.48068],[129.32352,36.48143],[129.32344,36.48164],[129.32339,36.48201],[129.32368,36.48259],[129.32455,36.48298],[129.3254,36.4831],[129.32937,36.48235],[129.33032,36.48194],[129.33299,36.4807],[129.33783,36.47883],[129.33844,36.4787],[129.34299,36.47867],[129.34393,36.47904],[129.34553,36.47943],[129.34646,36.47919],[129.34887,36.47767],[129.35107,36.47582],[129.35157,36.47554],[129.35263,36.47531],[129.35459,36.47499],[129.35655,36.47463],[129.35752,36.47438],[129.36066,36.47347],[129.36643,36.47183],[129.36622,36.47488],[129.36574,36.4752],[129.36566,36.47637],[129.36925,36.47695],[129.37038,36.47686],[129.37434,36.47649],[129.37391,36.47246],[129.37713,36.47074],[129.37757,36.47033],[129.37904,36.46654],[129.386,36.46504],[129.38624,36.46499],[129.38696,36.46483],[129.38715,36.46316],[129.38731,36.4618],[129.38751,36.45971],[129.38738,36.45801],[129.38684,36.45709],[129.38652,36.45516],[129.39009,36.45337],[129.39726,36.45133],[129.39741,36.45119],[129.39757,36.45105],[129.3977,36.45093],[129.39812,36.45086],[129.39834,36.45086],[129.39852,36.45089],[129.39884,36.45102],[129.40119,36.45242],[129.40132,36.45251],[129.40215,36.45334],[129.40252,36.45466],[129.40278,36.45587],[129.4028,36.45643],[129.40282,36.45663],[129.40291,36.45726],[129.40361,36.45906],[129.40366,36.45916],[129.40374,36.45927],[129.40509,36.46035],[129.40515,36.46038],[129.40525,36.46043],[129.40547,36.46052],[129.4056,36.46055],[129.40565,36.46054],[129.40664,36.46024],[129.40678,36.46018],[129.40707,36.46004],[129.40745,36.45988],[129.40774,36.45978],[129.40798,36.45974],[129.40806,36.45974],[129.40816,36.4598],[129.40833,36.45991],[129.40854,36.46005],[129.41001,36.46115],[129.41108,36.46226],[129.41105,36.46237],[129.41092,36.46314],[129.41092,36.46321],[129.41139,36.46403],[129.41145,36.46412],[129.41205,36.46487],[129.41217,36.46497],[129.4165,36.46812],[129.41772,36.46862],[129.41789,36.46859],[129.41909,36.46853],[129.41924,36.46854],[129.41946,36.46863],[129.41955,36.46868],[129.42134,36.47002],[129.42134,36.47007],[129.42134,36.4701],[129.42124,36.47045],[129.4212,36.47056],[129.42114,36.47068],[129.42105,36.47081],[129.41877,36.47393],[129.41871,36.47397],[129.41864,36.47399],[129.41848,36.474],[129.41816,36.47401],[129.41774,36.47403],[129.41767,36.47406],[129.41758,36.47411],[129.41747,36.47417],[129.41626,36.47515],[129.41623,36.47521],[129.41599,36.47742],[129.41598,36.4776],[129.416,36.47834],[129.41601,36.47838],[129.41601,36.47845],[129.4166,36.48198],[129.41662,36.48205],[129.41748,36.48351],[129.41752,36.48353],[129.41758,36.48353],[129.41763,36.48353],[129.41935,36.48333],[129.41944,36.4833],[129.4195,36.48324],[129.42012,36.48247],[129.42206,36.48295],[129.42435,36.47838],[129.42454,36.4784],[129.426,36.47841],[129.42619,36.47841],[129.42647,36.47835],[129.42677,36.47828],[129.42709,36.47818],[129.42729,36.47804],[129.42743,36.47783],[129.42752,36.47763],[129.42805,36.4762],[129.42841,36.47461],[129.42847,36.47436],[129.42859,36.47396],[129.42873,36.47371],[129.42894,36.47347],[129.43138,36.4711],[129.4315,36.47105],[129.43327,36.47056],[129.43376,36.47061],[129.43404,36.47065],[129.43617,36.47103]]]]}},{"type":"Feature","properties":{"code":"47770310","name":"강구면","parent":"47770"},"geometry":{"type":"MultiPolygon","coordinates":[[[[129.42075,36.39856],[129.41366,36.38996],[129.41143,36.38903],[129.40845,36.38801],[129.40808,36.38284],[129.40798,36.38152],[129.40554,36.3778],[129.4047,36.37653],[129.40461,36.37639],[129.39967,36.37042],[129.39649,36.36658],[129.39588,36.36584],[129.39433,36.36006],[129.39373,36.35779],[129.38936,36.35676],[129.38899,36.35588],[129.3888,36.35544],[129.38866,36.35342],[129.38976,36.34759],[129.38741,36.34293],[129.38706,36.34278],[129.3857,36.34223],[129.38438,36.34169],[129.38431,36.3412],[129.38411,36.33988],[129.38351,36.33624],[129.38159,36.33452],[129.38047,36.3345],[129.38014,36.33448],[129.3801,36.33449],[129.37992,36.33449],[129.37972,36.33449],[129.37953,36.3345],[129.37936,36.33452],[129.37903,36.33457],[129.37746,36.33486],[129.37737,36.33488],[129.37723,36.33492],[129.37708,36.33499],[129.37697,36.33506],[129.37685,36.33517],[129.37502,36.33689],[129.37243,36.34068],[129.37098,36.34319],[129.36812,36.34715],[129.36798,36.3472],[129.36756,36.34738],[129.36596,36.34817],[129.36586,36.34822],[129.36564,36.34836],[129.36549,36.34848],[129.3654,36.34855],[129.36533,36.34862],[129.36229,36.35178],[129.35879,36.35567],[129.35521,36.35727],[129.35177,36.35939],[129.35073,36.36142],[129.34931,36.36416],[129.34855,36.36496],[129.34726,36.36548],[129.34598,36.36604],[129.34359,36.36821],[129.34272,36.3692],[129.34162,36.37053],[129.34044,36.37198],[129.3403,36.3722],[129.34025,36.37226],[129.34016,36.37234],[129.33873,36.37317],[129.33793,36.37363],[129.33778,36.37371],[129.33769,36.37373],[129.33416,36.37383],[129.33247,36.37379],[129.33017,36.37381],[129.32745,36.37408],[129.32737,36.37409],[129.32704,36.37424],[129.32695,36.3743],[129.32588,36.37521],[129.32158,36.37532],[129.32153,36.37535],[129.32143,36.37545],[129.32129,36.37567],[129.32117,36.37588],[129.32089,36.37662],[129.32089,36.37672],[129.32109,36.37831],[129.32115,36.37852],[129.3212,36.37863],[129.32126,36.37876],[129.32276,36.38148],[129.32294,36.38167],[129.32352,36.38262],[129.32377,36.38394],[129.32375,36.38399],[129.32356,36.38436],[129.32346,36.3845],[129.32335,36.3846],[129.32315,36.38477],[129.32288,36.38508],[129.32277,36.38519],[129.32274,36.38526],[129.32274,36.38532],[129.32328,36.38812],[129.32334,36.38843],[129.32342,36.38859],[129.32349,36.38869],[129.32368,36.38887],[129.32385,36.38899],[129.32409,36.38913],[129.32429,36.38919],[129.3244,36.38922],[129.32448,36.38929],[129.32453,36.38938],[129.32455,36.38944],[129.32486,36.39047],[129.32486,36.39063],[129.3248,36.39108],[129.32477,36.39111],[129.3236,36.39184],[129.32349,36.39189],[129.32341,36.39192],[129.3226,36.39192],[129.32256,36.39191],[129.3225,36.39188],[129.32228,36.3917],[129.32197,36.39148],[129.32164,36.39137],[129.32141,36.39132],[129.32121,36.39129],[129.32094,36.39126],[129.32077,36.39128],[129.32066,36.3913],[129.31936,36.39244],[129.31922,36.39261],[129.3191,36.3928],[129.31904,36.39295],[129.31897,36.39314],[129.31871,36.39402],[129.31869,36.39414],[129.31867,36.39429],[129.31871,36.39535],[129.31873,36.39549],[129.31954,36.39707],[129.31862,36.39975],[129.31718,36.40159],[129.31587,36.4059],[129.31564,36.40694],[129.31565,36.40708],[129.3157,36.40717],[129.31588,36.40732],[129.31621,36.40756],[129.31663,36.4078],[129.31709,36.40812],[129.31732,36.40834],[129.31816,36.40978],[129.3196,36.4131],[129.31966,36.41335],[129.31963,36.41364],[129.31954,36.41399],[129.31986,36.41389],[129.32136,36.41351],[129.32384,36.41303],[129.32401,36.41302],[129.32435,36.41312],[129.32754,36.41342],[129.3288,36.41319],[129.33127,36.41265],[129.33165,36.41247],[129.33253,36.41187],[129.33358,36.41114],[129.33447,36.41109],[129.336,36.41103],[129.33614,36.41107],[129.33668,36.41145],[129.33683,36.41156],[129.3385,36.41031],[129.34285,36.40796],[129.34512,36.40682],[129.34533,36.40665],[129.34867,36.40354],[129.34876,36.40341],[129.34892,36.40319],[129.34899,36.40302],[129.34901,36.40295],[129.349,36.40286],[129.34865,36.40064],[129.34863,36.40057],[129.34788,36.39915],[129.34778,36.399],[129.3477,36.39889],[129.34735,36.39885],[129.3472,36.39881],[129.34598,36.39847],[129.3456,36.39834],[129.34456,36.39794],[129.34439,36.39785],[129.34437,36.3978],[129.34493,36.39686],[129.34502,36.39676],[129.34692,36.39538],[129.34704,36.39533],[129.34949,36.39524],[129.34969,36.39527],[129.34988,36.39528],[129.3502,36.39529],[129.3505,36.39525],[129.35073,36.39522],[129.35247,36.39487],[129.35264,36.39483],[129.35285,36.39476],[129.35293,36.39471],[129.35303,36.39462],[129.35315,36.39449],[129.35329,36.39424],[129.35346,36.39392],[129.35382,36.39318],[129.35386,36.39304],[129.35387,36.39283],[129.35383,36.39251],[129.35381,36.39234],[129.35383,36.3922],[129.35385,36.39213],[129.3539,36.39207],[129.35525,36.3908],[129.35664,36.3898],[129.362,36.38714],[129.36284,36.3863],[129.36354,36.38572],[129.36814,36.38281],[129.36822,36.38278],[129.3683,36.38277],[129.36969,36.38286],[129.37082,36.38308],[129.37097,36.38312],[129.37492,36.38463],[129.37495,36.38467],[129.37493,36.38474],[129.37433,36.38548],[129.37406,36.38583],[129.374,36.3859],[129.37371,36.38618],[129.37323,36.38662],[129.37269,36.38716],[129.37238,36.38767],[129.37183,36.3886],[129.37171,36.38886],[129.37156,36.38932],[129.37154,36.38959],[129.37152,36.38999],[129.37151,36.39036],[129.37153,36.39071],[129.37161,36.391],[129.37169,36.39121],[129.37203,36.39179],[129.37235,36.39222],[129.3727,36.39263],[129.37604,36.39493],[129.37857,36.39646],[129.37872,36.39651],[129.37889,36.39656],[129.37915,36.3966],[129.37939,36.39661],[129.37943,36.39661],[129.37973,36.39661],[129.37981,36.3966],[129.37996,36.39661],[129.38006,36.39661],[129.38019,36.39663],[129.38026,36.39664],[129.38031,36.39665],[129.3804,36.3968],[129.38335,36.40186],[129.38337,36.40197],[129.38358,36.40313],[129.38353,36.40359],[129.38357,36.40394],[129.38391,36.40567],[129.38453,36.40837],[129.38604,36.41021],[129.38752,36.41234],[129.38765,36.41254],[129.38769,36.41276],[129.38778,36.41423],[129.38733,36.41525],[129.38721,36.41553],[129.3872,36.41569],[129.38724,36.41576],[129.38915,36.41707],[129.39132,36.41849],[129.39153,36.41861],[129.3917,36.41867],[129.39379,36.41876],[129.39706,36.41814],[129.39726,36.41802],[129.39747,36.41784],[129.39764,36.41767],[129.39924,36.41758],[129.3994,36.41759],[129.401,36.41786],[129.40155,36.41804],[129.40223,36.41901],[129.40228,36.41911],[129.40232,36.41922],[129.40456,36.4196],[129.40601,36.41939],[129.40703,36.41941],[129.41063,36.41917],[129.41105,36.41907],[129.41115,36.41904],[129.4113,36.41895],[129.41144,36.41883],[129.41377,36.41657],[129.41381,36.4165],[129.41557,36.4137],[129.4156,36.41361],[129.41562,36.41222],[129.41559,36.41212],[129.41495,36.41113],[129.41421,36.41003],[129.41414,36.40994],[129.41353,36.40847],[129.41351,36.40826],[129.41337,36.40622],[129.41537,36.40279],[129.41552,36.40264],[129.41576,36.40246],[129.41582,36.40242],[129.41622,36.40222],[129.41649,36.4021],[129.41893,36.40031],[129.42075,36.39856]]]]}},{"type":"Feature","properties":{"code":"47770320","name":"남정면","parent":"47770"},"geometry":{"type":"MultiPolygon","coordinates":[[[[129.38047,36.3345],[129.38036,36.33436],[129.37984,36.3336],[129.37953,36.33302],[129.3795,36.33205],[129.37971,36.33066],[129.38026,36.32816],[129.38102,36.32552],[129.38125,36.32526],[129.38141,36.32533],[129.38172,36.32529],[129.38206,36.3249],[129.38233,36.32427],[129.38264,36.32348],[129.38276,36.3229],[129.38275,36.32252],[129.38267,36.32213],[129.3825,36.32176],[129.38148,36.31953],[129.38109,36.31918],[129.37979,36.31809],[129.37993,36.31391],[129.38032,36.31153],[129.38035,36.31105],[129.38038,36.30887],[129.3803,36.30846],[129.38013,36.30819],[129.37959,36.30798],[129.37909,36.30815],[129.37864,36.30794],[129.37816,36.30767],[129.37782,36.30737],[129.37758,36.30667],[129.37767,36.30602],[129.37782,36.30532],[129.37922,36.30167],[129.38,36.30009],[129.38009,36.2996],[129.38014,36.29659],[129.38014,36.29391],[129.37974,36.29086],[129.3796,36.29063],[129.37814,36.28999],[129.37751,36.28975],[129.37633,36.28976],[129.37544,36.28986],[129.37523,36.28954],[129.37513,36.2892],[129.37496,36.28867],[129.3749,36.2879],[129.37495,36.28679],[129.37536,36.28482],[129.37623,36.28275],[129.37727,36.28048],[129.37823,36.2784],[129.37887,36.27752],[129.3792,36.27755],[129.3793,36.27757],[129.37963,36.27761],[129.38011,36.27759],[129.3808,36.27744],[129.38101,36.27707],[129.38145,36.27629],[129.38159,36.27487],[129.38147,36.27462],[129.38037,36.27344],[129.37854,36.27192],[129.37642,36.27004],[129.37601,36.26963],[129.376,36.2694],[129.37609,36.26873],[129.37627,36.2683],[129.37614,36.26827],[129.37509,36.26804],[129.37492,36.268],[129.37475,36.26797],[129.37305,36.26772],[129.3727,36.26769],[129.37225,36.2677],[129.37155,36.26777],[129.37099,36.26784],[129.3661,36.26856],[129.36594,36.26859],[129.36572,36.26865],[129.36559,36.26871],[129.36554,36.26873],[129.36529,36.26887],[129.36503,36.26908],[129.36486,36.26926],[129.36453,36.26959],[129.36412,36.27002],[129.36386,36.27026],[129.36329,36.27073],[129.36319,36.27081],[129.36301,36.27092],[129.36286,36.27099],[129.35793,36.27268],[129.35763,36.27276],[129.35737,36.27281],[129.35555,36.2731],[129.35524,36.27315],[129.35475,36.27319],[129.35439,36.27319],[129.35412,36.27318],[129.35374,36.27314],[129.35363,36.27312],[129.3535,36.27306],[129.35342,36.27301],[129.35337,36.27294],[129.35288,36.27241],[129.35192,36.27144],[129.35149,36.27115],[129.35125,36.271],[129.35114,36.27095],[129.3477,36.2698],[129.34747,36.26974],[129.34731,36.26971],[129.34716,36.26969],[129.34699,36.26969],[129.34692,36.2697],[129.34677,36.26976],[129.34649,36.2699],[129.34631,36.26998],[129.34608,36.27006],[129.34441,36.27033],[129.34427,36.27035],[129.34402,36.27035],[129.34387,36.27033],[129.34378,36.27031],[129.34354,36.27023],[129.34303,36.27004],[129.34281,36.26995],[129.34278,36.26992],[129.34272,36.26987],[129.34267,36.2698],[129.34208,36.26897],[129.34204,36.26889],[129.34202,36.26883],[129.34198,36.26861],[129.34198,36.26844],[129.342,36.26826],[129.34198,36.26821],[129.34195,36.26815],[129.3419,36.2681],[129.34022,36.26705],[129.34016,36.26701],[129.34001,36.26694],[129.33936,36.26665],[129.33927,36.26664],[129.3392,36.26664],[129.33913,36.26667],[129.33841,36.26692],[129.33823,36.26699],[129.33633,36.26802],[129.33259,36.26754],[129.33229,36.26752],[129.32843,36.26746],[129.3283,36.26747],[129.32808,36.26752],[129.32804,36.26754],[129.32799,36.26758],[129.32441,36.26908],[129.31612,36.27058],[129.31442,36.27087],[129.31422,36.2709],[129.31407,36.27089],[129.31391,36.27083],[129.3136,36.27069],[129.31336,36.27049],[129.31271,36.2699],[129.31241,36.26962],[129.31216,36.26944],[129.312,36.26935],[129.3117,36.26924],[129.30837,36.26821],[129.30662,36.26783],[129.30451,36.26773],[129.30436,36.26773],[129.30417,36.26776],[129.30412,36.26779],[129.304,36.26789],[129.30381,36.26807],[129.30347,36.26842],[129.30127,36.27075],[129.30027,36.27235],[129.30027,36.27275],[129.30027,36.27313],[129.30022,36.27341],[129.30017,36.27351],[129.3001,36.27358],[129.29983,36.27371],[129.29952,36.27385],[129.29901,36.27402],[129.29866,36.27412],[129.29829,36.2742],[129.29771,36.27431],[129.29732,36.27442],[129.29588,36.27485],[129.29578,36.2749],[129.29357,36.2762],[129.29344,36.27628],[129.29338,36.27637],[129.29243,36.27818],[129.29238,36.27828],[129.29235,36.27839],[129.29222,36.27906],[129.29184,36.2793],[129.29178,36.27936],[129.29172,36.27943],[129.28661,36.2861],[129.28653,36.28623],[129.28641,36.28646],[129.28638,36.28655],[129.28633,36.28676],[129.28631,36.28689],[129.28632,36.28697],[129.28636,36.28708],[129.28647,36.28718],[129.2869,36.28751],[129.28716,36.28771],[129.28744,36.28789],[129.28751,36.28796],[129.28765,36.28813],[129.28774,36.28826],[129.2878,36.28837],[129.28786,36.28856],[129.28788,36.28865],[129.28789,36.28888],[129.28763,36.29144],[129.28751,36.292],[129.2872,36.29302],[129.28714,36.29318],[129.28707,36.29335],[129.28649,36.2984],[129.28662,36.29845],[129.2874,36.29883],[129.28959,36.30037],[129.29436,36.30438],[129.29608,36.30483],[129.29619,36.30487],[129.29652,36.30498],[129.29873,36.30587],[129.29931,36.30611],[129.29938,36.30616],[129.29945,36.30622],[129.30021,36.30731],[129.30026,36.30741],[129.30028,36.30749],[129.30028,36.30768],[129.30025,36.30777],[129.30021,36.30786],[129.30041,36.31198],[129.30091,36.31485],[129.30215,36.31609],[129.30218,36.31611],[129.30219,36.31615],[129.30189,36.31772],[129.30184,36.31787],[129.30176,36.31799],[129.30166,36.3181],[129.29386,36.32352],[129.29366,36.32354],[129.29355,36.32355],[129.29323,36.3236],[129.2931,36.32364],[129.29299,36.32368],[129.29292,36.32373],[129.29167,36.32472],[129.28876,36.32865],[129.28874,36.32868],[129.28874,36.32871],[129.28874,36.3288],[129.28894,36.32979],[129.28895,36.32986],[129.28899,36.32994],[129.289,36.32998],[129.28904,36.33003],[129.28908,36.33006],[129.2893,36.33022],[129.28938,36.33028],[129.28942,36.33032],[129.28944,36.33035],[129.28945,36.33038],[129.28941,36.33052],[129.28937,36.33066],[129.28934,36.33074],[129.28928,36.33084],[129.28806,36.33186],[129.28747,36.33234],[129.28726,36.3325],[129.28742,36.33272],[129.28778,36.33317],[129.28784,36.33323],[129.28803,36.33337],[129.28809,36.33342],[129.2906,36.33509],[129.29404,36.33695],[129.29411,36.33698],[129.29419,36.337],[129.2943,36.33702],[129.29437,36.33702],[129.29459,36.33704],[129.29509,36.33706],[129.302,36.33957],[129.30636,36.34398],[129.30643,36.34406],[129.30748,36.34565],[129.30804,36.34696],[129.30806,36.34703],[129.30812,36.34712],[129.30831,36.34741],[129.30838,36.34751],[129.30846,36.34759],[129.3085,36.34761],[129.30854,36.34763],[129.30857,36.34763],[129.30872,36.34764],[129.30908,36.34767],[129.30928,36.34766],[129.30937,36.34764],[129.31037,36.34724],[129.31078,36.34707],[129.31119,36.34685],[129.31158,36.34659],[129.31179,36.34643],[129.31192,36.34636],[129.31208,36.34634],[129.31261,36.34637],[129.31538,36.3466],[129.31553,36.34666],[129.31566,36.34679],[129.31733,36.34936],[129.31764,36.35287],[129.31761,36.35295],[129.31683,36.35462],[129.31672,36.35478],[129.31661,36.35488],[129.31654,36.35492],[129.31681,36.35805],[129.3178,36.36257],[129.31783,36.36268],[129.3179,36.36282],[129.31869,36.36438],[129.31927,36.36861],[129.31961,36.37182],[129.32158,36.37532],[129.32588,36.37521],[129.32695,36.3743],[129.32704,36.37424],[129.32737,36.37409],[129.32745,36.37408],[129.33017,36.37381],[129.33247,36.37379],[129.33416,36.37383],[129.33769,36.37373],[129.33778,36.37371],[129.33793,36.37363],[129.33873,36.37317],[129.34016,36.37234],[129.34025,36.37226],[129.3403,36.3722],[129.34044,36.37198],[129.34162,36.37053],[129.34272,36.3692],[129.34359,36.36821],[129.34598,36.36604],[129.34726,36.36548],[129.34855,36.36496],[129.34931,36.36416],[129.35073,36.36142],[129.35177,36.35939],[129.35521,36.35727],[129.35879,36.35567],[129.36229,36.35178],[129.36533,36.34862],[129.3654,36.34855],[129.36549,36.34848],[129.36564,36.34836],[129.36586,36.34822],[129.36596,36.34817],[129.36756,36.34738],[129.36798,36.3472],[129.36812,36.34715],[129.37098,36.34319],[129.37243,36.34068],[129.37502,36.33689],[129.37685,36.33517],[129.37697,36.33506],[129.37708,36.33499],[129.37723,36.33492],[129.37737,36.33488],[129.37746,36.33486],[129.37903,36.33457],[129.37936,36.33452],[129.37953,36.3345],[129.37972,36.33449],[129.37992,36.33449],[129.3801,36.33449],[129.38014,36.33448],[129.38047,36.3345]]]]}},{"type":"Feature","properties":{"code":"47770330","name":"달산면","parent":"47770"},"geometry":{"type":"MultiPolygon","coordinates":[[[[129.31954,36.41399],[129.31963,36.41364],[129.31966,36.41335],[129.3196,36.4131],[129.31816,36.40978],[129.31732,36.40834],[129.31709,36.40812],[129.31663,36.4078],[129.31621,36.40756],[129.31588,36.40732],[129.3157,36.40717],[129.31565,36.40708],[129.31564,36.40694],[129.31587,36.4059],[129.31718,36.40159],[129.31862,36.39975],[129.31954,36.39707],[129.31873,36.39549],[129.31871,36.39535],[129.31867,36.39429],[129.31869,36.39414],[129.31871,36.39402],[129.31897,36.39314],[129.31904,36.39295],[129.3191,36.3928],[129.31922,36.39261],[129.31936,36.39244],[129.32066,36.3913],[129.32077,36.39128],[129.32094,36.39126],[129.32121,36.39129],[129.32141,36.39132],[129.32164,36.39137],[129.32197,36.39148],[129.32228,36.3917],[129.3225,36.39188],[129.32256,36.39191],[129.3226,36.39192],[129.32341,36.39192],[129.32349,36.39189],[129.3236,36.39184],[129.32477,36.39111],[129.3248,36.39108],[129.32486,36.39063],[129.32486,36.39047],[129.32455,36.38944],[129.32453,36.38938],[129.32448,36.38929],[129.3244,36.38922],[129.32429,36.38919],[129.32409,36.38913],[129.32385,36.38899],[129.32368,36.38887],[129.32349,36.38869],[129.32342,36.38859],[129.32334,36.38843],[129.32328,36.38812],[129.32274,36.38532],[129.32274,36.38526],[129.32277,36.38519],[129.32288,36.38508],[129.32315,36.38477],[129.32335,36.3846],[129.32346,36.3845],[129.32356,36.38436],[129.32375,36.38399],[129.32377,36.38394],[129.32352,36.38262],[129.32294,36.38167],[129.32276,36.38148],[129.32126,36.37876],[129.3212,36.37863],[129.32115,36.37852],[129.32109,36.37831],[129.32089,36.37672],[129.32089,36.37662],[129.32117,36.37588],[129.32129,36.37567],[129.32143,36.37545],[129.32153,36.37535],[129.32158,36.37532],[129.31961,36.37182],[129.31927,36.36861],[129.31869,36.36438],[129.3179,36.36282],[129.31783,36.36268],[129.3178,36.36257],[129.31681,36.35805],[129.31654,36.35492],[129.31661,36.35488],[129.31672,36.35478],[129.31683,36.35462],[129.31761,36.35295],[129.31764,36.35287],[129.31733,36.34936],[129.31566,36.34679],[129.31553,36.34666],[129.31538,36.3466],[129.31261,36.34637],[129.31208,36.34634],[129.31192,36.34636],[129.31179,36.34643],[129.31158,36.34659],[129.31119,36.34685],[129.31078,36.34707],[129.31037,36.34724],[129.30937,36.34764],[129.30928,36.34766],[129.30908,36.34767],[129.30872,36.34764],[129.30857,36.34763],[129.30854,36.34763],[129.3085,36.34761],[129.30846,36.34759],[129.30838,36.34751],[129.30831,36.34741],[129.30812,36.34712],[129.30806,36.34703],[129.30804,36.34696],[129.30748,36.34565],[129.30643,36.34406],[129.30636,36.34398],[129.302,36.33957],[129.29509,36.33706],[129.29459,36.33704],[129.29437,36.33702],[129.2943,36.33702],[129.29419,36.337],[129.29411,36.33698],[129.29404,36.33695],[129.2906,36.33509],[129.28809,36.33342],[129.28803,36.33337],[129.28784,36.33323],[129.28778,36.33317],[129.28742,36.33272],[129.28726,36.3325],[129.28597,36.33313],[129.2859,36.33316],[129.28582,36.33318],[129.28552,36.33326],[129.28542,36.33328],[129.28528,36.33331],[129.28521,36.33331],[129.28512,36.3333],[129.28505,36.33329],[129.28499,36.33327],[129.28494,36.33323],[129.28293,36.33147],[129.27577,36.32777],[129.27301,36.3278],[129.27269,36.32799],[129.27265,36.32803],[129.27142,36.32945],[129.27072,36.3304],[129.27056,36.33068],[129.2704,36.33088],[129.27022,36.33105],[129.27,36.33124],[129.2699,36.3313],[129.26979,36.33132],[129.26973,36.33132],[129.26956,36.33128],[129.26941,36.33122],[129.26927,36.33116],[129.26886,36.33099],[129.26855,36.33086],[129.26824,36.3307],[129.26778,36.33043],[129.26772,36.3304],[129.26763,36.33032],[129.26756,36.33024],[129.2675,36.33017],[129.26747,36.33011],[129.26745,36.33004],[129.26734,36.32559],[129.26682,36.32165],[129.26679,36.32145],[129.26667,36.3208],[129.26664,36.32073],[129.26652,36.32059],[129.26643,36.32052],[129.26638,36.3205],[129.26631,36.32049],[129.26617,36.32047],[129.26594,36.32045],[129.26562,36.32045],[129.26549,36.32045],[129.26536,36.32045],[129.26504,36.32048],[129.26382,36.32068],[129.26288,36.32093],[129.26271,36.32101],[129.25877,36.32106],[129.25751,36.32074],[129.25726,36.32069],[129.25701,36.32067],[129.2558,36.32053],[129.25242,36.32078],[129.2522,36.32082],[129.25204,36.32084],[129.25198,36.32087],[129.25195,36.32091],[129.25254,36.3214],[129.25527,36.32374],[129.25548,36.32394],[129.25566,36.32416],[129.25635,36.32517],[129.25645,36.32537],[129.25652,36.32559],[129.25655,36.32568],[129.25654,36.32583],[129.2562,36.32721],[129.25791,36.33037],[129.25808,36.33043],[129.25827,36.33051],[129.25838,36.33056],[129.25845,36.33061],[129.25853,36.33068],[129.25866,36.33081],[129.25874,36.33088],[129.2588,36.33096],[129.25885,36.33104],[129.25895,36.33122],[129.25966,36.33265],[129.25972,36.33278],[129.25974,36.33286],[129.25984,36.33342],[129.25986,36.33352],[129.25985,36.33359],[129.25983,36.33371],[129.25936,36.33509],[129.25932,36.33515],[129.25928,36.33519],[129.25916,36.33528],[129.25902,36.33536],[129.25891,36.3354],[129.25729,36.33583],[129.25714,36.33586],[129.25703,36.33587],[129.2568,36.33587],[129.25671,36.33587],[129.25636,36.33582],[129.25609,36.33577],[129.25574,36.33572],[129.25561,36.33573],[129.2555,36.33575],[129.25541,36.33579],[129.25508,36.336],[129.25344,36.33723],[129.25139,36.3389],[129.25126,36.33902],[129.25109,36.33918],[129.25094,36.33932],[129.25062,36.33964],[129.25049,36.33979],[129.2504,36.33992],[129.25032,36.34007],[129.25029,36.34015],[129.25027,36.34023],[129.25026,36.3403],[129.25027,36.3404],[129.25028,36.3405],[129.25028,36.34072],[129.25025,36.34094],[129.25021,36.34105],[129.25015,36.34113],[129.24998,36.3413],[129.24722,36.34385],[129.24704,36.34399],[129.24681,36.34411],[129.2447,36.3452],[129.24326,36.34587],[129.24305,36.34597],[129.24282,36.346],[129.24241,36.34597],[129.24208,36.34589],[129.24173,36.34578],[129.24127,36.34556],[129.24021,36.34505],[129.23975,36.34491],[129.23591,36.34403],[129.23568,36.344],[129.23457,36.34393],[129.22811,36.34387],[129.228,36.34388],[129.22753,36.34408],[129.22613,36.34484],[129.22548,36.34531],[129.22405,36.34649],[129.22425,36.34702],[129.22464,36.34787],[129.2247,36.34802],[129.22474,36.34826],[129.22475,36.34835],[129.22465,36.34887],[129.22453,36.34924],[129.22427,36.34973],[129.22414,36.34989],[129.22403,36.34999],[129.22352,36.35043],[129.22291,36.35096],[129.22271,36.35113],[129.22149,36.35232],[129.2213,36.35255],[129.22091,36.35338],[129.2205,36.35454],[129.22037,36.35527],[129.22022,36.35701],[129.22017,36.35837],[129.22018,36.35879],[129.22014,36.35899],[129.22008,36.35911],[129.21916,36.35967],[129.21882,36.35987],[129.21848,36.36002],[129.21795,36.36018],[129.21746,36.36027],[129.217,36.36039],[129.2168,36.36047],[129.21643,36.36069],[129.21634,36.36077],[129.2163,36.36081],[129.21625,36.36097],[129.21621,36.36364],[129.21621,36.36381],[129.21621,36.3639],[129.21627,36.36428],[129.21652,36.3651],[129.21662,36.36527],[129.21668,36.36534],[129.21701,36.36572],[129.21727,36.36604],[129.21749,36.36644],[129.21776,36.36696],[129.2183,36.36924],[129.2183,36.36935],[129.21817,36.37033],[129.218,36.37095],[129.21784,36.37129],[129.21775,36.3714],[129.21768,36.37157],[129.21768,36.37167],[129.21773,36.3719],[129.21783,36.37219],[129.21798,36.37241],[129.2181,36.37253],[129.21879,36.37314],[129.21932,36.37355],[129.22212,36.37568],[129.22513,36.37777],[129.22552,36.37795],[129.2258,36.37812],[129.22791,36.37987],[129.22798,36.37998],[129.228,36.38005],[129.228,36.38009],[129.22758,36.38217],[129.22755,36.38229],[129.22747,36.38246],[129.22726,36.38275],[129.2271,36.38296],[129.22699,36.38308],[129.22688,36.3832],[129.22664,36.38338],[129.22654,36.38345],[129.22639,36.38352],[129.22628,36.38356],[129.22357,36.38462],[129.22338,36.38468],[129.22319,36.38473],[129.22303,36.38475],[129.22296,36.38476],[129.22156,36.38563],[129.2207,36.38657],[129.22083,36.38781],[129.22248,36.39186],[129.22439,36.39354],[129.22809,36.39593],[129.22813,36.39601],[129.22814,36.39605],[129.22815,36.39613],[129.22815,36.3962],[129.22811,36.3963],[129.22745,36.39777],[129.22735,36.39798],[129.22728,36.3981],[129.22713,36.39831],[129.22704,36.39844],[129.22693,36.39858],[129.22677,36.39871],[129.2266,36.39881],[129.22659,36.39899],[129.2266,36.39925],[129.22712,36.40234],[129.22715,36.40244],[129.22727,36.40265],[129.22745,36.40283],[129.22779,36.40312],[129.22808,36.40335],[129.22825,36.40347],[129.22836,36.40354],[129.23538,36.40605],[129.23557,36.40611],[129.23587,36.4062],[129.23608,36.40625],[129.23814,36.40647],[129.2383,36.40648],[129.23849,36.40646],[129.23866,36.40643],[129.23886,36.40638],[129.23921,36.40626],[129.24095,36.40601],[129.24345,36.40568],[129.2436,36.40568],[129.24379,36.40569],[129.24392,36.40572],[129.24857,36.40663],[129.2531,36.40747],[129.25362,36.40754],[129.25544,36.40769],[129.25549,36.40769],[129.25556,36.40762],[129.25582,36.40731],[129.25601,36.40714],[129.25625,36.40701],[129.25641,36.40694],[129.25729,36.40662],[129.25738,36.4066],[129.25744,36.4066],[129.2575,36.40663],[129.26104,36.40882],[129.26171,36.41062],[129.26393,36.41323],[129.26514,36.41355],[129.26591,36.41382],[129.26614,36.41391],[129.26633,36.41404],[129.26773,36.41514],[129.26787,36.41527],[129.26789,36.41538],[129.26784,36.41568],[129.26781,36.41582],[129.26782,36.41593],[129.26784,36.41602],[129.26906,36.41791],[129.26919,36.41808],[129.26934,36.41821],[129.27149,36.41963],[129.27324,36.42053],[129.27337,36.42058],[129.2736,36.42069],[129.27382,36.42078],[129.27402,36.42085],[129.27415,36.42089],[129.27434,36.42093],[129.27632,36.42122],[129.27639,36.42122],[129.27643,36.42121],[129.28227,36.41955],[129.28235,36.41952],[129.2824,36.41949],[129.28248,36.41944],[129.28253,36.41941],[129.28258,36.41934],[129.28262,36.41929],[129.28264,36.41919],[129.28266,36.41915],[129.28272,36.41905],[129.28281,36.41893],[129.28298,36.41872],[129.28311,36.41862],[129.28316,36.41858],[129.28333,36.41845],[129.2836,36.41827],[129.28369,36.4182],[129.28378,36.41814],[129.28391,36.41806],[129.284,36.41801],[129.28434,36.41783],[129.28459,36.41773],[129.28476,36.41766],[129.28483,36.41764],[129.28493,36.4176],[129.28652,36.41788],[129.28838,36.41876],[129.29015,36.41958],[129.29027,36.41962],[129.29044,36.41967],[129.29091,36.41973],[129.29131,36.41974],[129.29223,36.41965],[129.29254,36.41961],[129.29277,36.41957],[129.29296,36.41952],[129.29319,36.41946],[129.29327,36.41916],[129.29326,36.41883],[129.29352,36.41853],[129.29407,36.4179],[129.29451,36.41743],[129.29567,36.41614],[129.29572,36.4161],[129.29579,36.41606],[129.29592,36.41601],[129.29612,36.41598],[129.29636,36.41596],[129.29668,36.41594],[129.2987,36.41589],[129.2991,36.4159],[129.29923,36.41594],[129.29941,36.41605],[129.29947,36.41607],[129.2996,36.41612],[129.29985,36.41619],[129.30026,36.41625],[129.30143,36.4164],[129.30173,36.41643],[129.302,36.41645],[129.30243,36.41642],[129.30297,36.41636],[129.30356,36.41627],[129.30384,36.4162],[129.30408,36.41608],[129.30446,36.41582],[129.30459,36.41573],[129.30469,36.4156],[129.30481,36.41539],[129.30497,36.41513],[129.30508,36.41502],[129.30588,36.41446],[129.30602,36.41438],[129.30613,36.41434],[129.30621,36.41432],[129.30751,36.4141],[129.30759,36.41409],[129.31179,36.41388],[129.31397,36.41488],[129.31407,36.41491],[129.31417,36.41493],[129.31683,36.41526],[129.31698,36.41526],[129.3171,36.41524],[129.31732,36.41516],[129.31938,36.41409],[129.31954,36.41399]]]]}},{"type":"Feature","properties":{"code":"47770340","name":"지품면","parent":"47770"},"geometry":{"type":"MultiPolygon","coordinates":[[[[129.24767,36.51018],[129.24937,36.51007],[129.25134,36.50842],[129.25371,36.50576],[129.25408,36.50493],[129.25421,36.50466],[129.25404,36.50369],[129.25692,36.50476],[129.25832,36.50565],[129.25972,36.50669],[129.26136,36.50827],[129.26193,36.50853],[129.26521,36.50842],[129.26784,36.50801],[129.27125,36.50643],[129.27254,36.50687],[129.27574,36.5081],[129.27779,36.50897],[129.27816,36.50933],[129.27817,36.50989],[129.27845,36.51012],[129.28043,36.5103],[129.28153,36.51033],[129.28227,36.51026],[129.28391,36.50952],[129.28641,36.50818],[129.28693,36.50767],[129.2901,36.50442],[129.29395,36.50179],[129.29405,36.50171],[129.2941,36.50165],[129.29414,36.50157],[129.29416,36.50149],[129.29412,36.50083],[129.29413,36.50074],[129.29416,36.50067],[129.29422,36.50062],[129.29557,36.49982],[129.29565,36.49982],[129.29585,36.49983],[129.29611,36.49988],[129.29625,36.49995],[129.29662,36.50017],[129.29841,36.49892],[129.2985,36.49887],[129.29897,36.49868],[129.29932,36.49855],[129.2996,36.49841],[129.30052,36.4977],[129.30406,36.49448],[129.30543,36.49151],[129.30776,36.49041],[129.30885,36.4897],[129.31033,36.48876],[129.31043,36.48864],[129.31192,36.4863],[129.31773,36.48232],[129.32352,36.48143],[129.32408,36.48068],[129.32572,36.47339],[129.3267,36.46898],[129.32669,36.46893],[129.32669,36.46889],[129.32672,36.46846],[129.32674,36.4683],[129.32677,36.46819],[129.3268,36.46812],[129.32683,36.46806],[129.32755,36.46688],[129.3276,36.46683],[129.32769,36.46675],[129.32915,36.46569],[129.3299,36.46536],[129.33,36.46533],[129.33017,36.46527],[129.33028,36.46522],[129.33111,36.4648],[129.33119,36.46475],[129.33202,36.46414],[129.33206,36.4641],[129.33363,36.4616],[129.33529,36.45765],[129.33599,36.45541],[129.33587,36.45435],[129.33573,36.45294],[129.33577,36.45275],[129.33578,36.45272],[129.33584,36.45268],[129.33794,36.45222],[129.33948,36.45203],[129.33958,36.45202],[129.33967,36.45199],[129.34173,36.45042],[129.34219,36.44932],[129.34217,36.44926],[129.34215,36.44916],[129.34202,36.44841],[129.34198,36.44794],[129.34207,36.44648],[129.34209,36.44637],[129.34228,36.44557],[129.34242,36.44538],[129.34374,36.44397],[129.34512,36.44273],[129.34519,36.44264],[129.34524,36.44248],[129.3456,36.44117],[129.34569,36.44066],[129.34571,36.44045],[129.34572,36.44031],[129.34571,36.44022],[129.34481,36.4376],[129.34336,36.43643],[129.34322,36.43632],[129.34305,36.43617],[129.34258,36.43574],[129.34247,36.43561],[129.34236,36.43541],[129.34215,36.43497],[129.3421,36.43481],[129.34205,36.43464],[129.34204,36.43433],[129.34475,36.43282],[129.34683,36.43218],[129.34827,36.43179],[129.34895,36.43164],[129.34984,36.43123],[129.3512,36.43057],[129.3506,36.42803],[129.3504,36.42761],[129.34995,36.427],[129.34854,36.42568],[129.34873,36.42527],[129.34881,36.42513],[129.34892,36.42494],[129.34916,36.42465],[129.34985,36.42369],[129.34988,36.42359],[129.35019,36.4223],[129.35026,36.42188],[129.35038,36.41876],[129.35037,36.4187],[129.35031,36.41859],[129.35023,36.41852],[129.3457,36.41512],[129.34553,36.415],[129.34261,36.41416],[129.33741,36.41212],[129.33727,36.41205],[129.33683,36.41156],[129.33668,36.41145],[129.33614,36.41107],[129.336,36.41103],[129.33447,36.41109],[129.33358,36.41114],[129.33253,36.41187],[129.33165,36.41247],[129.33127,36.41265],[129.3288,36.41319],[129.32754,36.41342],[129.32435,36.41312],[129.32401,36.41302],[129.32384,36.41303],[129.32136,36.41351],[129.31986,36.41389],[129.31954,36.41399],[129.31938,36.41409],[129.31732,36.41516],[129.3171,36.41524],[129.31698,36.41526],[129.31683,36.41526],[129.31417,36.41493],[129.31407,36.41491],[129.31397,36.41488],[129.31179,36.41388],[129.30759,36.41409],[129.30751,36.4141],[129.30621,36.41432],[129.30613,36.41434],[129.30602,36.41438],[129.30588,36.41446],[129.30508,36.41502],[129.30497,36.41513],[129.30481,36.41539],[129.30469,36.4156],[129.30459,36.41573],[129.30446,36.41582],[129.30408,36.41608],[129.30384,36.4162],[129.30356,36.41627],[129.30297,36.41636],[129.30243,36.41642],[129.302,36.41645],[129.30173,36.41643],[129.30143,36.4164],[129.30026,36.41625],[129.29985,36.41619],[129.2996,36.41612],[129.29947,36.41607],[129.29941,36.41605],[129.29923,36.41594],[129.2991,36.4159],[129.2987,36.41589],[129.29668,36.41594],[129.29636,36.41596],[129.29612,36.41598],[129.29592,36.41601],[129.29579,36.41606],[129.29572,36.4161],[129.29567,36.41614],[129.29451,36.41743],[129.29407,36.4179],[129.29352,36.41853],[129.29326,36.41883],[129.29327,36.41916],[129.29319,36.41946],[129.29296,36.41952],[129.29277,36.41957],[129.29254,36.41961],[129.29223,36.41965],[129.29131,36.41974],[129.29091,36.41973],[129.29044,36.41967],[129.29027,36.41962],[129.29015,36.41958],[129.28838,36.41876],[129.28652,36.41788],[129.28493,36.4176],[129.28483,36.41764],[129.28476,36.41766],[129.28459,36.41773],[129.28434,36.41783],[129.284,36.41801],[129.28391,36.41806],[129.28378,36.41814],[129.28369,36.4182],[129.2836,36.41827],[129.28333,36.41845],[129.28316,36.41858],[129.28311,36.41862],[129.28298,36.41872],[129.28281,36.41893],[129.28272,36.41905],[129.28266,36.41915],[129.28264,36.41919],[129.28262,36.41929],[129.28258,36.41934],[129.28253,36.41941],[129.28248,36.41944],[129.2824,36.41949],[129.28235,36.41952],[129.28227,36.41955],[129.27643,36.42121],[129.27639,36.42122],[129.27632,36.42122],[129.27434,36.42093],[129.27415,36.42089],[129.27402,36.42085],[129.27382,36.42078],[129.2736,36.42069],[129.27337,36.42058],[129.27324,36.42053],[129.27149,36.41963],[129.26934,36.41821],[129.26919,36.41808],[129.26906,36.41791],[129.26784,36.41602],[129.26782,36.41593],[129.26781,36.41582],[129.26784,36.41568],[129.26789,36.41538],[129.26787,36.41527],[129.26773,36.41514],[129.26633,36.41404],[129.26614,36.41391],[129.26591,36.41382],[129.26514,36.41355],[129.26393,36.41323],[129.26171,36.41062],[129.26104,36.40882],[129.2575,36.40663],[129.25744,36.4066],[129.25738,36.4066],[129.25729,36.40662],[129.25641,36.40694],[129.25625,36.40701],[129.25601,36.40714],[129.25582,36.40731],[129.25556,36.40762],[129.25549,36.40769],[129.25544,36.40769],[129.25362,36.40754],[129.2531,36.40747],[129.24857,36.40663],[129.24392,36.40572],[129.24379,36.40569],[129.2436,36.40568],[129.24345,36.40568],[129.24095,36.40601],[129.23921,36.40626],[129.23886,36.40638],[129.23866,36.40643],[129.23849,36.40646],[129.2383,36.40648],[129.23814,36.40647],[129.23608,36.40625],[129.23587,36.4062],[129.23557,36.40611],[129.23538,36.40605],[129.22836,36.40354],[129.22825,36.40347],[129.22808,36.40335],[129.22779,36.40312],[129.22745,36.40283],[129.22727,36.40265],[129.22715,36.40244],[129.22712,36.40234],[129.2266,36.39925],[129.22659,36.39899],[129.2266,36.39881],[129.22562,36.39903],[129.22545,36.39908],[129.22525,36.39913],[129.22508,36.39919],[129.22291,36.40005],[129.22278,36.40012],[129.22258,36.40025],[129.2181,36.40331],[129.21582,36.40568],[129.21497,36.40699],[129.21495,36.40703],[129.21491,36.40706],[129.21483,36.40709],[129.21199,36.40772],[129.21172,36.40959],[129.21186,36.40974],[129.21197,36.4099],[129.21202,36.40999],[129.21206,36.4101],[129.21206,36.41021],[129.21186,36.41334],[129.21169,36.41418],[129.21168,36.41425],[129.21057,36.41829],[129.21054,36.4184],[129.21049,36.41852],[129.20997,36.41958],[129.20958,36.42022],[129.209,36.42107],[129.20892,36.42116],[129.20662,36.42342],[129.20512,36.42454],[129.20405,36.42548],[129.20308,36.42651],[129.20253,36.4274],[129.2023,36.42794],[129.20194,36.42868],[129.20186,36.42884],[129.20181,36.42891],[129.2017,36.42896],[129.20162,36.42899],[129.20106,36.4292],[129.20086,36.42927],[129.20075,36.4293],[129.20066,36.42931],[129.19941,36.42929],[129.1981,36.43031],[129.19805,36.43034],[129.19798,36.43036],[129.1979,36.43036],[129.19771,36.43035],[129.19739,36.4303],[129.19577,36.42998],[129.19315,36.4293],[129.19305,36.42927],[129.19296,36.42921],[129.19285,36.42913],[129.19234,36.42873],[129.19172,36.42827],[129.19156,36.42819],[129.191,36.42794],[129.1908,36.42785],[129.18878,36.42698],[129.18864,36.42693],[129.18848,36.42689],[129.18827,36.42684],[129.18807,36.42681],[129.18786,36.42678],[129.18758,36.42675],[129.18736,36.42675],[129.18724,36.42675],[129.18714,36.42676],[129.18693,36.42679],[129.18683,36.42684],[129.18673,36.42693],[129.18722,36.42745],[129.18729,36.42754],[129.18732,36.42761],[129.18736,36.42769],[129.18737,36.42773],[129.18737,36.42778],[129.18738,36.42794],[129.18737,36.42806],[129.18735,36.42816],[129.18731,36.42825],[129.18726,36.42832],[129.18719,36.42842],[129.18706,36.42851],[129.18681,36.42866],[129.18643,36.42886],[129.18614,36.42902],[129.18592,36.42911],[129.18573,36.42917],[129.18376,36.42975],[129.18359,36.42978],[129.18345,36.42978],[129.18322,36.42973],[129.18294,36.42968],[129.18277,36.4297],[129.18263,36.42971],[129.18241,36.42975],[129.18025,36.43018],[129.17928,36.43047],[129.17844,36.43077],[129.17626,36.43164],[129.17599,36.43176],[129.17571,36.43191],[129.17511,36.43224],[129.17502,36.43228],[129.17176,36.43426],[129.17164,36.43434],[129.17151,36.43444],[129.17143,36.43456],[129.17071,36.43581],[129.17062,36.43598],[129.16924,36.43881],[129.16915,36.439],[129.16908,36.43928],[129.1686,36.44153],[129.16867,36.44321],[129.16869,36.44348],[129.16899,36.44558],[129.16907,36.44583],[129.16911,36.44612],[129.16908,36.4464],[129.16894,36.44669],[129.16878,36.44694],[129.16723,36.44888],[129.16702,36.44915],[129.16654,36.44968],[129.16624,36.45001],[129.16609,36.4501],[129.1659,36.45017],[129.16253,36.45265],[129.16119,36.4537],[129.16095,36.45382],[129.16088,36.45386],[129.16086,36.45388],[129.16088,36.45461],[129.16088,36.45471],[129.16089,36.45495],[129.16093,36.45515],[129.16097,36.45531],[129.161,36.45541],[129.16103,36.4555],[129.16106,36.45557],[129.16114,36.4557],[129.16121,36.4558],[129.16128,36.45589],[129.16133,36.45594],[129.16137,36.45598],[129.16144,36.4561],[129.16148,36.45618],[129.1615,36.45623],[129.16198,36.45777],[129.16198,36.45783],[129.162,36.45798],[129.16197,36.45811],[129.16193,36.4582],[129.16076,36.45971],[129.1582,36.46286],[129.1563,36.46476],[129.1557,36.46535],[129.15564,36.46542],[129.15557,36.46547],[129.15552,36.46552],[129.15539,36.46563],[129.1552,36.46574],[129.15516,36.46576],[129.15506,36.46581],[129.15498,36.46584],[129.1549,36.46587],[129.15483,36.46588],[129.15474,36.46591],[129.15455,36.46597],[129.1545,36.46599],[129.15436,36.46606],[129.15409,36.46619],[129.15297,36.46681],[129.15288,36.46686],[129.15284,36.46692],[129.15189,36.46848],[129.1517,36.46885],[129.14843,36.47605],[129.14834,36.47624],[129.14831,36.47633],[129.14793,36.47781],[129.15009,36.48105],[129.15101,36.48547],[129.15195,36.48758],[129.15337,36.49085],[129.15348,36.49112],[129.15403,36.49254],[129.15407,36.49269],[129.15406,36.49279],[129.15403,36.49289],[129.15395,36.49299],[129.1538,36.49312],[129.15316,36.49366],[129.15302,36.49376],[129.15282,36.49391],[129.1526,36.49404],[129.15247,36.49415],[129.15234,36.49428],[129.15174,36.49493],[129.15166,36.49504],[129.15164,36.49509],[129.15135,36.49886],[129.15136,36.49892],[129.15191,36.50004],[129.15198,36.50014],[129.15212,36.50033],[129.15752,36.50166],[129.15779,36.50177],[129.15816,36.50193],[129.15849,36.5021],[129.15955,36.50277],[129.1596,36.50281],[129.15964,36.50289],[129.15975,36.50313],[129.15982,36.50339],[129.15989,36.50349],[129.15997,36.50356],[129.16129,36.50411],[129.16241,36.50417],[129.16557,36.50442],[129.16683,36.50473],[129.16796,36.50503],[129.16958,36.50548],[129.17063,36.50602],[129.17143,36.50652],[129.17335,36.50771],[129.17354,36.5078],[129.17371,36.50785],[129.17399,36.5079],[129.17603,36.50807],[129.17607,36.50806],[129.18114,36.50772],[129.18186,36.50753],[129.18201,36.50745],[129.18569,36.50293],[129.18736,36.50067],[129.18743,36.50057],[129.18757,36.50042],[129.18807,36.49995],[129.18825,36.4998],[129.18833,36.49973],[129.18838,36.4997],[129.18842,36.49969],[129.18848,36.4997],[129.18862,36.49977],[129.18868,36.49982],[129.18878,36.49992],[129.1892,36.50043],[129.19032,36.50202],[129.19062,36.50303],[129.19058,36.50307],[129.19059,36.50311],[129.19095,36.50322],[129.19109,36.50326],[129.19114,36.50327],[129.19287,36.50333],[129.19292,36.50331],[129.1952,36.50231],[129.19672,36.50164],[129.19745,36.50121],[129.19754,36.50115],[129.19761,36.50111],[129.19766,36.50109],[129.19785,36.50105],[129.19872,36.50093],[129.19892,36.5009],[129.1991,36.50089],[129.20176,36.501],[129.20332,36.502],[129.20342,36.50207],[129.20353,36.50214],[129.20384,36.5023],[129.204,36.50235],[129.20488,36.50253],[129.20493,36.50254],[129.205,36.50252],[129.20512,36.50243],[129.20633,36.50172],[129.20905,36.50056],[129.2091,36.50054],[129.21092,36.50003],[129.21104,36.50001],[129.21117,36.5],[129.21219,36.50009],[129.21232,36.5001],[129.21376,36.49997],[129.21546,36.49915],[129.21561,36.49907],[129.21574,36.49898],[129.21584,36.49888],[129.21804,36.49546],[129.21814,36.4951],[129.21817,36.49499],[129.21821,36.49474],[129.21806,36.493],[129.21771,36.4917],[129.21809,36.49057],[129.21811,36.49052],[129.21814,36.49049],[129.22237,36.49009],[129.22436,36.48906],[129.2244,36.48907],[129.22457,36.48916],[129.22474,36.48927],[129.22488,36.48937],[129.22493,36.48945],[129.22529,36.49043],[129.22532,36.49053],[129.22533,36.49063],[129.22532,36.49071],[129.2253,36.49077],[129.22523,36.49085],[129.2251,36.491],[129.22498,36.49113],[129.22483,36.49128],[129.22463,36.49148],[129.22444,36.49168],[129.22436,36.49178],[129.22427,36.49191],[129.22417,36.49208],[129.22412,36.49221],[129.22404,36.49243],[129.22404,36.49246],[129.22406,36.49249],[129.2241,36.49254],[129.22537,36.49359],[129.22565,36.4938],[129.22575,36.49387],[129.22593,36.49397],[129.22661,36.49435],[129.22661,36.4944],[129.22509,36.49702],[129.22341,36.49923],[129.22331,36.49929],[129.22324,36.49935],[129.22318,36.49941],[129.22316,36.49946],[129.22314,36.4995],[129.22278,36.50101],[129.22276,36.50112],[129.22275,36.50131],[129.22274,36.5015],[129.22274,36.50158],[129.2228,36.50364],[129.2239,36.50599],[129.22499,36.50865],[129.22577,36.5127],[129.22586,36.51371],[129.22593,36.5138],[129.22604,36.51388],[129.22613,36.51391],[129.22621,36.51393],[129.2263,36.51392],[129.2264,36.51391],[129.22659,36.51387],[129.22783,36.51334],[129.2318,36.51178],[129.23185,36.51177],[129.23192,36.51181],[129.23307,36.51236],[129.23486,36.51313],[129.2349,36.51313],[129.23495,36.5131],[129.2358,36.51233],[129.236,36.51213],[129.23608,36.51204],[129.23615,36.51192],[129.23625,36.51164],[129.23629,36.51151],[129.2363,36.51148],[129.23722,36.51042],[129.23731,36.51032],[129.23737,36.5103],[129.23987,36.50946],[129.24399,36.50867],[129.24706,36.5098],[129.24767,36.51018]]]]}},{"type":"Feature","properties":{"code":"47770350","name":"축산면","parent":"47770"},"geometry":{"type":"MultiPolygon","coordinates":[[[[129.44419,36.51226],[129.44701,36.51287],[129.45014,36.51268],[129.45029,36.51238],[129.44956,36.51165],[129.44897,36.51122],[129.44878,36.51109],[129.44685,36.50874],[129.44714,36.50829],[129.44744,36.50818],[129.44772,36.50809],[129.44844,36.50789],[129.44908,36.50783],[129.4493,36.50813],[129.44983,36.50964],[129.45306,36.50971],[129.45326,36.5092],[129.45352,36.50811],[129.45257,36.50614],[129.45151,36.50552],[129.45019,36.50496],[129.44953,36.50534],[129.44878,36.50553],[129.44815,36.50544],[129.44706,36.50421],[129.4467,36.50327],[129.44654,36.50226],[129.44652,36.50145],[129.4465,36.49948],[129.44674,36.49907],[129.44679,36.4968],[129.44615,36.49501],[129.44482,36.49264],[129.44473,36.4899],[129.44517,36.48911],[129.44524,36.48871],[129.4398,36.48517],[129.43734,36.48395],[129.4372,36.48391],[129.43662,36.48372],[129.43608,36.48397],[129.43434,36.4832],[129.4339,36.4826],[129.4334,36.48122],[129.43318,36.47687],[129.43315,36.47613],[129.4333,36.47517],[129.43347,36.47488],[129.43402,36.4742],[129.43417,36.47428],[129.43535,36.47395],[129.43617,36.47103],[129.43404,36.47065],[129.43376,36.47061],[129.43327,36.47056],[129.4315,36.47105],[129.43138,36.4711],[129.42894,36.47347],[129.42873,36.47371],[129.42859,36.47396],[129.42847,36.47436],[129.42841,36.47461],[129.42805,36.4762],[129.42752,36.47763],[129.42743,36.47783],[129.42729,36.47804],[129.42709,36.47818],[129.42677,36.47828],[129.42647,36.47835],[129.42619,36.47841],[129.426,36.47841],[129.42454,36.4784],[129.42435,36.47838],[129.42206,36.48295],[129.42012,36.48247],[129.4195,36.48324],[129.41944,36.4833],[129.41935,36.48333],[129.41763,36.48353],[129.41758,36.48353],[129.41752,36.48353],[129.41748,36.48351],[129.41662,36.48205],[129.4166,36.48198],[129.41601,36.47845],[129.41601,36.47838],[129.416,36.47834],[129.41598,36.4776],[129.41599,36.47742],[129.41623,36.47521],[129.41626,36.47515],[129.41747,36.47417],[129.41758,36.47411],[129.41767,36.47406],[129.41774,36.47403],[129.41816,36.47401],[129.41848,36.474],[129.41864,36.47399],[129.41871,36.47397],[129.41877,36.47393],[129.42105,36.47081],[129.42114,36.47068],[129.4212,36.47056],[129.42124,36.47045],[129.42134,36.4701],[129.42134,36.47007],[129.42134,36.47002],[129.41955,36.46868],[129.41946,36.46863],[129.41924,36.46854],[129.41909,36.46853],[129.41789,36.46859],[129.41772,36.46862],[129.4165,36.46812],[129.41217,36.46497],[129.41205,36.46487],[129.41145,36.46412],[129.41139,36.46403],[129.41092,36.46321],[129.41092,36.46314],[129.41105,36.46237],[129.41108,36.46226],[129.41001,36.46115],[129.40854,36.46005],[129.40833,36.45991],[129.40816,36.4598],[129.40806,36.45974],[129.40798,36.45974],[129.40774,36.45978],[129.40745,36.45988],[129.40707,36.46004],[129.40678,36.46018],[129.40664,36.46024],[129.40565,36.46054],[129.4056,36.46055],[129.40547,36.46052],[129.40525,36.46043],[129.40515,36.46038],[129.40509,36.46035],[129.40374,36.45927],[129.40366,36.45916],[129.40361,36.45906],[129.40291,36.45726],[129.40282,36.45663],[129.4028,36.45643],[129.40278,36.45587],[129.40252,36.45466],[129.40215,36.45334],[129.40132,36.45251],[129.40119,36.45242],[129.39884,36.45102],[129.39852,36.45089],[129.39834,36.45086],[129.39812,36.45086],[129.3977,36.45093],[129.39757,36.45105],[129.39741,36.45119],[129.39726,36.45133],[129.39009,36.45337],[129.38652,36.45516],[129.38684,36.45709],[129.38738,36.45801],[129.38751,36.45971],[129.38731,36.4618],[129.38715,36.46316],[129.38696,36.46483],[129.38624,36.46499],[129.386,36.46504],[129.37904,36.46654],[129.37757,36.47033],[129.37713,36.47074],[129.37391,36.47246],[129.37434,36.47649],[129.37038,36.47686],[129.36925,36.47695],[129.36566,36.47637],[129.36574,36.4752],[129.36622,36.47488],[129.36643,36.47183],[129.36066,36.47347],[129.35752,36.47438],[129.35655,36.47463],[129.35459,36.47499],[129.35263,36.47531],[129.35157,36.47554],[129.35107,36.47582],[129.34887,36.47767],[129.34646,36.47919],[129.34553,36.47943],[129.34393,36.47904],[129.34299,36.47867],[129.33844,36.4787],[129.33783,36.47883],[129.33299,36.4807],[129.33032,36.48194],[129.32937,36.48235],[129.3254,36.4831],[129.32455,36.48298],[129.32368,36.48259],[129.32339,36.48201],[129.32344,36.48164],[129.32352,36.48143],[129.31773,36.48232],[129.31192,36.4863],[129.31043,36.48864],[129.31033,36.48876],[129.30885,36.4897],[129.30776,36.49041],[129.30543,36.49151],[129.30406,36.49448],[129.30052,36.4977],[129.2996,36.49841],[129.29932,36.49855],[129.29897,36.49868],[129.2985,36.49887],[129.29841,36.49892],[129.29662,36.50017],[129.29684,36.50106],[129.2969,36.50113],[129.29696,36.50115],[129.29843,36.50175],[129.29955,36.50216],[129.30129,36.50271],[129.30135,36.50273],[129.30368,36.5031],[129.3058,36.50357],[129.30634,36.50387],[129.30705,36.50488],[129.30797,36.50599],[129.30965,36.50701],[129.31007,36.50725],[129.31108,36.50765],[129.31494,36.5086],[129.31714,36.50839],[129.31883,36.50799],[129.32223,36.50881],[129.32622,36.50856],[129.33019,36.50818],[129.33085,36.50797],[129.33199,36.50638],[129.33262,36.50594],[129.33403,36.50551],[129.33783,36.50462],[129.34157,36.50421],[129.34692,36.50539],[129.34711,36.5058],[129.34714,36.50642],[129.34689,36.50785],[129.34829,36.51013],[129.34937,36.51047],[129.35108,36.51031],[129.35134,36.51022],[129.35256,36.50886],[129.35363,36.50852],[129.35562,36.50819],[129.35621,36.50837],[129.35611,36.50971],[129.35644,36.51114],[129.35751,36.51419],[129.35895,36.51554],[129.35987,36.5169],[129.36001,36.51754],[129.3598,36.5187],[129.35981,36.51924],[129.36045,36.52231],[129.36093,36.52386],[129.36143,36.52427],[129.36482,36.52611],[129.36632,36.52651],[129.37056,36.52543],[129.3727,36.52416],[129.37337,36.52282],[129.37339,36.52279],[129.37343,36.52276],[129.37348,36.52272],[129.37353,36.52269],[129.37793,36.52052],[129.37819,36.5204],[129.37822,36.52038],[129.37827,36.52038],[129.37874,36.52034],[129.38484,36.52108],[129.38693,36.52071],[129.39444,36.52016],[129.39454,36.52016],[129.39461,36.52016],[129.39472,36.52017],[129.39479,36.52018],[129.39487,36.5202],[129.39544,36.52036],[129.39556,36.5204],[129.39572,36.52047],[129.39575,36.52049],[129.39635,36.52099],[129.39642,36.52105],[129.39651,36.52116],[129.39657,36.52124],[129.39693,36.5218],[129.39697,36.52187],[129.397,36.52195],[129.39707,36.5221],[129.39709,36.52218],[129.39713,36.52236],[129.39718,36.52249],[129.39723,36.52258],[129.39735,36.52277],[129.39781,36.5235],[129.39784,36.52355],[129.39789,36.52358],[129.39803,36.52364],[129.39813,36.52368],[129.39818,36.52369],[129.3983,36.5237],[129.39834,36.52371],[129.40522,36.52295],[129.40529,36.52293],[129.4054,36.52285],[129.40619,36.52204],[129.40627,36.52194],[129.40631,36.52187],[129.40672,36.52087],[129.40698,36.52005],[129.40699,36.51995],[129.40703,36.51993],[129.40795,36.51949],[129.408,36.51947],[129.40804,36.51946],[129.4081,36.51947],[129.41079,36.51983],[129.41501,36.52049],[129.41641,36.52107],[129.42021,36.52278],[129.42069,36.52354],[129.42075,36.52361],[129.42088,36.52369],[129.42892,36.52689],[129.43095,36.52676],[129.43126,36.52554],[129.43266,36.52362],[129.43269,36.52357],[129.4327,36.52352],[129.43259,36.52341],[129.43242,36.52326],[129.43228,36.52319],[129.43176,36.52303],[129.43142,36.52288],[129.43135,36.52282],[129.43129,36.52274],[129.43168,36.5177],[129.43181,36.51725],[129.43186,36.51719],[129.43315,36.51663],[129.4347,36.51619],[129.4354,36.516],[129.43637,36.51571],[129.43802,36.51522],[129.43822,36.51515],[129.43841,36.51501],[129.43867,36.51479],[129.43971,36.51385],[129.44023,36.51317],[129.44027,36.51296],[129.44034,36.51282],[129.44045,36.51268],[129.44056,36.51259],[129.4412,36.51219],[129.44124,36.51217],[129.44163,36.51208],[129.4419,36.51205],[129.44361,36.51211],[129.44408,36.51222],[129.44419,36.51226]]]]}},{"type":"Feature","properties":{"code":"47770360","name":"영해면","parent":"47770"},"geometry":{"type":"MultiPolygon","coordinates":[[[[129.44419,36.51226],[129.44408,36.51222],[129.44361,36.51211],[129.4419,36.51205],[129.44163,36.51208],[129.44124,36.51217],[129.4412,36.51219],[129.44056,36.51259],[129.44045,36.51268],[129.44034,36.51282],[129.44027,36.51296],[129.44023,36.51317],[129.43971,36.51385],[129.43867,36.51479],[129.43841,36.51501],[129.43822,36.51515],[129.43802,36.51522],[129.43637,36.51571],[129.4354,36.516],[129.4347,36.51619],[129.43315,36.51663],[129.43186,36.51719],[129.43181,36.51725],[129.43168,36.5177],[129.43129,36.52274],[129.43135,36.52282],[129.43142,36.52288],[129.43176,36.52303],[129.43228,36.52319],[129.43242,36.52326],[129.43259,36.52341],[129.4327,36.52352],[129.43269,36.52357],[129.43266,36.52362],[129.43126,36.52554],[129.43095,36.52676],[129.42892,36.52689],[129.42088,36.52369],[129.42075,36.52361],[129.42069,36.52354],[129.42021,36.52278],[129.41641,36.52107],[129.41501,36.52049],[129.41079,36.51983],[129.4081,36.51947],[129.40804,36.51946],[129.408,36.51947],[129.40795,36.51949],[129.40703,36.51993],[129.40699,36.51995],[129.40698,36.52005],[129.40672,36.52087],[129.40631,36.52187],[129.40627,36.52194],[129.40619,36.52204],[129.4054,36.52285],[129.40529,36.52293],[129.40522,36.52295],[129.39834,36.52371],[129.3983,36.5237],[129.39818,36.52369],[129.39813,36.52368],[129.39803,36.52364],[129.39789,36.52358],[129.39784,36.52355],[129.39781,36.5235],[129.39735,36.52277],[129.39723,36.52258],[129.39718,36.52249],[129.39713,36.52236],[129.39709,36.52218],[129.39707,36.5221],[129.397,36.52195],[129.39697,36.52187],[129.39693,36.5218],[129.39657,36.52124],[129.39651,36.52116],[129.39642,36.52105],[129.39635,36.52099],[129.39575,36.52049],[129.39572,36.52047],[129.39556,36.5204],[129.39544,36.52036],[129.39487,36.5202],[129.39479,36.52018],[129.39472,36.52017],[129.39461,36.52016],[129.39454,36.52016],[129.39444,36.52016],[129.38693,36.52071],[129.38484,36.52108],[129.37874,36.52034],[129.37827,36.52038],[129.37822,36.52038],[129.37819,36.5204],[129.37793,36.52052],[129.37353,36.52269],[129.37348,36.52272],[129.37343,36.52276],[129.37339,36.52279],[129.37337,36.52282],[129.3727,36.52416],[129.37056,36.52543],[129.36632,36.52651],[129.36482,36.52611],[129.36143,36.52427],[129.36093,36.52386],[129.36045,36.52231],[129.35981,36.51924],[129.3598,36.5187],[129.36001,36.51754],[129.35987,36.5169],[129.35895,36.51554],[129.35751,36.51419],[129.35644,36.51114],[129.35611,36.50971],[129.35621,36.50837],[129.35562,36.50819],[129.35363,36.50852],[129.35256,36.50886],[129.35134,36.51022],[129.35108,36.51031],[129.34937,36.51047],[129.34829,36.51013],[129.34689,36.50785],[129.34714,36.50642],[129.34711,36.5058],[129.34692,36.50539],[129.34157,36.50421],[129.33783,36.50462],[129.33403,36.50551],[129.33262,36.50594],[129.33199,36.50638],[129.33085,36.50797],[129.33019,36.50818],[129.32622,36.50856],[129.32223,36.50881],[129.31883,36.50799],[129.31714,36.50839],[129.31494,36.5086],[129.31108,36.50765],[129.31007,36.50725],[129.30965,36.50701],[129.30797,36.50599],[129.30705,36.50488],[129.30634,36.50387],[129.3058,36.50357],[129.30368,36.5031],[129.30135,36.50273],[129.30129,36.50271],[129.29955,36.50216],[129.29843,36.50175],[129.29696,36.50115],[129.2969,36.50113],[129.29684,36.50106],[129.29662,36.50017],[129.29625,36.49995],[129.29611,36.49988],[129.29585,36.49983],[129.29565,36.49982],[129.29557,36.49982],[129.29422,36.50062],[129.29416,36.50067],[129.29413,36.50074],[129.29412,36.50083],[129.29416,36.50149],[129.29414,36.50157],[129.2941,36.50165],[129.29405,36.50171],[129.29395,36.50179],[129.2901,36.50442],[129.28693,36.50767],[129.28641,36.50818],[129.28391,36.50952],[129.28227,36.51026],[129.28153,36.51033],[129.28043,36.5103],[129.27845,36.51012],[129.27817,36.50989],[129.27816,36.50933],[129.27779,36.50897],[129.27574,36.5081],[129.27254,36.50687],[129.27125,36.50643],[129.26784,36.50801],[129.26521,36.50842],[129.26193,36.50853],[129.26136,36.50827],[129.25972,36.50669],[129.25832,36.50565],[129.25692,36.50476],[129.25404,36.50369],[129.25421,36.50466],[129.25408,36.50493],[129.25371,36.50576],[129.25134,36.50842],[129.24937,36.51007],[129.24767,36.51018],[129.24792,36.51131],[129.24684,36.51444],[129.24664,36.51485],[129.2462,36.51566],[129.24615,36.51575],[129.24073,36.52113],[129.2385,36.52312],[129.23825,36.52508],[129.23792,36.52754],[129.23791,36.52759],[129.23788,36.52764],[129.23697,36.52862],[129.23682,36.52876],[129.2367,36.52886],[129.23646,36.52906],[129.2363,36.52914],[129.23593,36.5293],[129.23585,36.52935],[129.23577,36.52943],[129.2357,36.52951],[129.23568,36.52958],[129.23554,36.53104],[129.23554,36.53122],[129.23555,36.53134],[129.23597,36.53471],[129.23697,36.53918],[129.2377,36.5421],[129.23983,36.5457],[129.23977,36.54798],[129.23917,36.55029],[129.2393,36.55364],[129.23932,36.55369],[129.24081,36.55759],[129.24189,36.55972],[129.24195,36.55981],[129.24204,36.55986],[129.24215,36.55991],[129.24744,36.55981],[129.24957,36.55993],[129.25072,36.55985],[129.25177,36.55956],[129.25342,36.55888],[129.25553,36.55867],[129.25695,36.55923],[129.25849,36.5593],[129.2599,36.5591],[129.2602,36.55901],[129.26176,36.55858],[129.26262,36.55816],[129.26333,36.5573],[129.26586,36.55709],[129.26904,36.55659],[129.27069,36.55558],[129.27281,36.55483],[129.27342,36.55466],[129.2752,36.55547],[129.27525,36.5555],[129.27554,36.55563],[129.27831,36.5555],[129.27917,36.55476],[129.28012,36.55349],[129.28054,36.55264],[129.2802,36.55205],[129.27844,36.55122],[129.27753,36.55023],[129.27544,36.54769],[129.27542,36.54641],[129.27616,36.5458],[129.276,36.54477],[129.27558,36.54303],[129.27485,36.54219],[129.27412,36.54068],[129.27291,36.53585],[129.27361,36.53489],[129.27514,36.53336],[129.27618,36.53264],[129.28291,36.52909],[129.28378,36.52879],[129.28723,36.5279],[129.28812,36.52791],[129.28883,36.52819],[129.2894,36.52881],[129.29109,36.52873],[129.29331,36.52804],[129.29377,36.52783],[129.29519,36.52645],[129.29613,36.52654],[129.30091,36.5283],[129.30143,36.52866],[129.30288,36.5298],[129.30343,36.53038],[129.30503,36.53253],[129.30496,36.53315],[129.30449,36.53368],[129.30469,36.5349],[129.30517,36.53615],[129.30909,36.5404],[129.30945,36.54052],[129.31484,36.53891],[129.31672,36.53802],[129.31904,36.53725],[129.32072,36.53746],[129.3226,36.53812],[129.3234,36.53849],[129.32362,36.53906],[129.32376,36.53997],[129.3241,36.5404],[129.327,36.54076],[129.33023,36.54035],[129.33558,36.53818],[129.33875,36.53659],[129.33982,36.53616],[129.34215,36.53578],[129.34307,36.53583],[129.34512,36.53603],[129.34633,36.53617],[129.35349,36.5376],[129.35563,36.53892],[129.35808,36.54117],[129.35851,36.54245],[129.35896,36.54368],[129.35965,36.54443],[129.3598,36.5446],[129.36125,36.54512],[129.36383,36.54544],[129.36509,36.54542],[129.36642,36.54571],[129.36767,36.54632],[129.37023,36.54797],[129.3727,36.54897],[129.37281,36.549],[129.37305,36.54904],[129.37354,36.54911],[129.37372,36.54912],[129.37396,36.54914],[129.37415,36.54914],[129.37446,36.54912],[129.37478,36.54908],[129.38013,36.54832],[129.38028,36.54829],[129.3804,36.54825],[129.38079,36.54801],[129.38098,36.54782],[129.38116,36.54755],[129.38188,36.54652],[129.38205,36.5462],[129.3824,36.54544],[129.38256,36.54517],[129.38272,36.54497],[129.38298,36.5447],[129.38315,36.54459],[129.38338,36.54447],[129.38354,36.54441],[129.38372,36.54436],[129.3841,36.54428],[129.38467,36.54417],[129.38506,36.54411],[129.38523,36.54411],[129.38717,36.54408],[129.38723,36.54409],[129.38729,36.54413],[129.3874,36.54427],[129.38749,36.54435],[129.38754,36.54438],[129.38759,36.5444],[129.38766,36.5444],[129.38958,36.54422],[129.3898,36.54418],[129.39017,36.5441],[129.39063,36.54397],[129.39089,36.54387],[129.39157,36.54348],[129.39192,36.54327],[129.39226,36.54302],[129.39256,36.54279],[129.39264,36.54275],[129.39272,36.54273],[129.39279,36.54271],[129.39295,36.54269],[129.39348,36.54269],[129.39388,36.54272],[129.39428,36.54278],[129.39488,36.5429],[129.39527,36.54301],[129.39598,36.54324],[129.39618,36.54332],[129.39655,36.54346],[129.39694,36.54366],[129.39719,36.5438],[129.39758,36.54405],[129.39769,36.54413],[129.39796,36.54434],[129.39825,36.54458],[129.39862,36.5449],[129.39893,36.54518],[129.3991,36.54534],[129.3993,36.54557],[129.3994,36.54569],[129.40069,36.54729],[129.40201,36.5491],[129.40411,36.55226],[129.40417,36.55237],[129.40421,36.55249],[129.40417,36.55282],[129.40417,36.5529],[129.40418,36.55293],[129.40429,36.55313],[129.40433,36.55321],[129.40454,36.55355],[129.40465,36.5537],[129.40477,36.55385],[129.40489,36.55396],[129.40597,36.55487],[129.40603,36.55492],[129.40813,36.55632],[129.40818,36.55634],[129.40823,36.55636],[129.40828,36.55638],[129.40916,36.55656],[129.40923,36.55656],[129.40929,36.55656],[129.40942,36.55655],[129.40948,36.55653],[129.41046,36.55628],[129.41067,36.55622],[129.41115,36.55605],[129.4126,36.55538],[129.41272,36.55532],[129.41333,36.55504],[129.41511,36.55424],[129.41533,36.55415],[129.41573,36.55398],[129.41662,36.55364],[129.41681,36.55357],[129.41715,36.55347],[129.41734,36.55342],[129.41753,36.55337],[129.41777,36.55335],[129.41807,36.55335],[129.41816,36.55335],[129.41843,36.55341],[129.41853,36.55344],[129.41857,36.55348],[129.42019,36.55501],[129.42028,36.5551],[129.42036,36.5553],[129.42043,36.5555],[129.42073,36.55688],[129.42077,36.55719],[129.42079,36.55756],[129.42079,36.55797],[129.42076,36.55822],[129.42072,36.5584],[129.42059,36.55871],[129.42045,36.55902],[129.4204,36.55911],[129.4202,36.55943],[129.42006,36.55967],[129.42003,36.55973],[129.42001,36.55982],[129.42001,36.56014],[129.42011,36.56233],[129.42012,36.56237],[129.42018,36.56266],[129.42021,36.56278],[129.42039,36.56343],[129.42044,36.56353],[129.4206,36.56382],[129.42065,36.56387],[129.42079,36.56403],[129.42082,36.56406],[129.42094,36.56415],[129.42233,36.56508],[129.42242,36.56513],[129.42269,36.56528],[129.42313,36.5655],[129.42349,36.56565],[129.42393,36.56576],[129.4264,36.56609],[129.42679,36.56582],[129.42722,36.56511],[129.42824,36.5643],[129.43121,36.56218],[129.43312,36.56065],[129.43705,36.55677],[129.44043,36.55219],[129.4407,36.55182],[129.44044,36.55128],[129.44032,36.54754],[129.44031,36.54596],[129.44066,36.54396],[129.44079,36.5437],[129.44086,36.5435],[129.44088,36.54319],[129.44065,36.54152],[129.44032,36.5408],[129.44006,36.54021],[129.44004,36.53875],[129.44031,36.53372],[129.44072,36.53023],[129.44123,36.52974],[129.44193,36.52864],[129.44483,36.51903],[129.4451,36.51748],[129.44513,36.51621],[129.44447,36.51317],[129.44419,36.51226]]]]}},{"type":"Feature","properties":{"code":"47770370","name":"병곡면","parent":"47770"},"geometry":{"type":"MultiPolygon","coordinates":[[[[129.39688,36.66545],[129.39596,36.66333],[129.39595,36.6633],[129.39592,36.66316],[129.39592,36.66308],[129.39593,36.66296],[129.396,36.66273],[129.3964,36.66169],[129.39646,36.66158],[129.3965,36.66152],[129.39657,36.66146],[129.3967,36.66138],[129.39677,36.66135],[129.39775,36.66108],[129.40435,36.65933],[129.40539,36.65928],[129.40549,36.65929],[129.40563,36.65928],[129.40673,36.6592],[129.40682,36.65917],[129.40693,36.65908],[129.4103,36.65612],[129.41098,36.65469],[129.41441,36.65258],[129.41452,36.65258],[129.41465,36.65256],[129.41477,36.65253],[129.41578,36.65227],[129.41605,36.65219],[129.41943,36.65028],[129.41946,36.65025],[129.41948,36.65021],[129.41947,36.65006],[129.41944,36.64989],[129.41931,36.64947],[129.41925,36.64934],[129.41918,36.64925],[129.41902,36.64908],[129.41834,36.64806],[129.41831,36.64803],[129.41829,36.64792],[129.4183,36.64777],[129.41832,36.64757],[129.41836,36.64738],[129.41845,36.64702],[129.41849,36.64688],[129.41858,36.64661],[129.41861,36.64654],[129.41924,36.64531],[129.41945,36.64494],[129.41954,36.6448],[129.41965,36.64467],[129.41969,36.64462],[129.42028,36.64411],[129.42038,36.64403],[129.42069,36.64388],[129.42079,36.64384],[129.42105,36.64376],[129.42121,36.64373],[129.42375,36.64326],[129.42261,36.64202],[129.42209,36.64167],[129.42136,36.64128],[129.42024,36.64081],[129.41909,36.64035],[129.41878,36.6402],[129.41845,36.64001],[129.41833,36.63993],[129.41779,36.63937],[129.41767,36.63905],[129.41765,36.63898],[129.41725,36.6373],[129.41713,36.63661],[129.41711,36.63646],[129.41708,36.63602],[129.41704,36.63504],[129.41713,36.63446],[129.41717,36.63377],[129.4172,36.63322],[129.41722,36.63257],[129.41724,36.63182],[129.41726,36.63065],[129.41726,36.63057],[129.41723,36.63048],[129.41721,36.63044],[129.41716,36.63033],[129.41701,36.63008],[129.41642,36.62918],[129.41506,36.6273],[129.41318,36.6248],[129.41313,36.62471],[129.41224,36.62257],[129.4122,36.62243],[129.41219,36.62227],[129.41209,36.62055],[129.41208,36.62038],[129.41229,36.61816],[129.4126,36.61633],[129.41292,36.61481],[129.41353,36.61197],[129.41386,36.61087],[129.41509,36.6076],[129.41611,36.60496],[129.41612,36.60492],[129.41617,36.60459],[129.41624,36.60238],[129.41621,36.6021],[129.4162,36.60202],[129.4155,36.59871],[129.41546,36.59861],[129.4154,36.59854],[129.41531,36.59849],[129.41521,36.59848],[129.41514,36.59847],[129.41506,36.59849],[129.41495,36.59853],[129.41486,36.59861],[129.41475,36.59915],[129.41467,36.59961],[129.41467,36.59966],[129.41466,36.59969],[129.41366,36.59994],[129.41362,36.59994],[129.41353,36.59993],[129.41343,36.59992],[129.41291,36.59982],[129.41271,36.59975],[129.41255,36.59967],[129.41244,36.59961],[129.4122,36.59941],[129.4121,36.59934],[129.41192,36.59917],[129.41184,36.59909],[129.41167,36.59892],[129.41159,36.59883],[129.41152,36.59875],[129.41143,36.59865],[129.41137,36.59858],[129.41117,36.59831],[129.41111,36.59823],[129.41106,36.59815],[129.41102,36.59807],[129.41099,36.598],[129.41095,36.59789],[129.41091,36.59776],[129.41088,36.59766],[129.41086,36.59753],[129.41071,36.59624],[129.4106,36.59502],[129.41058,36.59473],[129.41072,36.59338],[129.41087,36.5924],[129.41127,36.59069],[129.41128,36.59063],[129.41154,36.58961],[129.41157,36.58951],[129.41316,36.58454],[129.41338,36.584],[129.41381,36.58309],[129.41396,36.58279],[129.41558,36.57971],[129.41567,36.57955],[129.41621,36.57867],[129.41681,36.57767],[129.41747,36.57659],[129.41817,36.57556],[129.41926,36.57405],[129.41989,36.57319],[129.42013,36.57289],[129.42154,36.57117],[129.42205,36.57058],[129.42297,36.56958],[129.42495,36.56745],[129.4258,36.56659],[129.42586,36.56654],[129.42595,36.56646],[129.4264,36.56609],[129.42393,36.56576],[129.42349,36.56565],[129.42313,36.5655],[129.42269,36.56528],[129.42242,36.56513],[129.42233,36.56508],[129.42094,36.56415],[129.42082,36.56406],[129.42079,36.56403],[129.42065,36.56387],[129.4206,36.56382],[129.42044,36.56353],[129.42039,36.56343],[129.42021,36.56278],[129.42018,36.56266],[129.42012,36.56237],[129.42011,36.56233],[129.42001,36.56014],[129.42001,36.55982],[129.42003,36.55973],[129.42006,36.55967],[129.4202,36.55943],[129.4204,36.55911],[129.42045,36.55902],[129.42059,36.55871],[129.42072,36.5584],[129.42076,36.55822],[129.42079,36.55797],[129.42079,36.55756],[129.42077,36.55719],[129.42073,36.55688],[129.42043,36.5555],[129.42036,36.5553],[129.42028,36.5551],[129.42019,36.55501],[129.41857,36.55348],[129.41853,36.55344],[129.41843,36.55341],[129.41816,36.55335],[129.41807,36.55335],[129.41777,36.55335],[129.41753,36.55337],[129.41734,36.55342],[129.41715,36.55347],[129.41681,36.55357],[129.41662,36.55364],[129.41573,36.55398],[129.41533,36.55415],[129.41511,36.55424],[129.41333,36.55504],[129.41272,36.55532],[129.4126,36.55538],[129.41115,36.55605],[129.41067,36.55622],[129.41046,36.55628],[129.40948,36.55653],[129.40942,36.55655],[129.40929,36.55656],[129.40923,36.55656],[129.40916,36.55656],[129.40828,36.55638],[129.40823,36.55636],[129.40818,36.55634],[129.40813,36.55632],[129.40603,36.55492],[129.40597,36.55487],[129.40489,36.55396],[129.40477,36.55385],[129.40465,36.5537],[129.40454,36.55355],[129.40433,36.55321],[129.40429,36.55313],[129.40418,36.55293],[129.40417,36.5529],[129.40417,36.55282],[129.40421,36.55249],[129.40417,36.55237],[129.40411,36.55226],[129.40201,36.5491],[129.40069,36.54729],[129.3994,36.54569],[129.3993,36.54557],[129.3991,36.54534],[129.39893,36.54518],[129.39862,36.5449],[129.39825,36.54458],[129.39796,36.54434],[129.39769,36.54413],[129.39758,36.54405],[129.39719,36.5438],[129.39694,36.54366],[129.39655,36.54346],[129.39618,36.54332],[129.39598,36.54324],[129.39527,36.54301],[129.39488,36.5429],[129.39428,36.54278],[129.39388,36.54272],[129.39348,36.54269],[129.39295,36.54269],[129.39279,36.54271],[129.39272,36.54273],[129.39264,36.54275],[129.39256,36.54279],[129.39226,36.54302],[129.39192,36.54327],[129.39157,36.54348],[129.39089,36.54387],[129.39063,36.54397],[129.39017,36.5441],[129.3898,36.54418],[129.38958,36.54422],[129.38766,36.5444],[129.38759,36.5444],[129.38754,36.54438],[129.38749,36.54435],[129.3874,36.54427],[129.38729,36.54413],[129.38723,36.54409],[129.38717,36.54408],[129.38523,36.54411],[129.38506,36.54411],[129.38467,36.54417],[129.3841,36.54428],[129.38438,36.54667],[129.3844,36.54684],[129.38441,36.54694],[129.38441,36.54698],[129.3844,36.54703],[129.38438,36.54709],[129.38435,36.54713],[129.38083,36.55106],[129.37749,36.55344],[129.3775,36.55362],[129.37375,36.5587],[129.37212,36.56277],[129.37209,36.56279],[129.37066,36.56337],[129.36931,36.56518],[129.3695,36.56667],[129.36797,36.5705],[129.36374,36.57414],[129.36181,36.57448],[129.36093,36.57453],[129.35689,36.57456],[129.35367,36.57465],[129.35263,36.57789],[129.35219,36.57981],[129.35153,36.58123],[129.35044,36.5827],[129.34945,36.58405],[129.3493,36.5857],[129.34946,36.58913],[129.35102,36.59231],[129.35131,36.59307],[129.35111,36.59355],[129.35042,36.59519],[129.34975,36.59651],[129.34934,36.60029],[129.34936,36.60367],[129.34936,36.60409],[129.34883,36.60534],[129.34782,36.60618],[129.34735,36.60922],[129.34845,36.61087],[129.35049,36.61107],[129.35091,36.6114],[129.35094,36.61143],[129.35105,36.61432],[129.35194,36.61783],[129.3534,36.61995],[129.35334,36.62062],[129.35301,36.62241],[129.3514,36.62441],[129.3513,36.62454],[129.35084,36.62518],[129.35043,36.62628],[129.35081,36.62773],[129.35092,36.62799],[129.35127,36.62856],[129.35142,36.62876],[129.35188,36.62903],[129.35233,36.62931],[129.354,36.63043],[129.35528,36.63145],[129.35555,36.63176],[129.35568,36.63191],[129.35714,36.63412],[129.35718,36.6342],[129.35715,36.6343],[129.35619,36.63611],[129.35439,36.63927],[129.35414,36.63969],[129.35391,36.63997],[129.35365,36.64014],[129.35342,36.64025],[129.35279,36.64043],[129.35174,36.64088],[129.35116,36.64116],[129.35098,36.64141],[129.3509,36.64157],[129.35086,36.64187],[129.35087,36.64214],[129.35125,36.64278],[129.35159,36.64337],[129.35185,36.6438],[129.3521,36.64412],[129.35255,36.64453],[129.35303,36.64487],[129.35322,36.64506],[129.35327,36.64526],[129.3533,36.6456],[129.35314,36.64718],[129.35301,36.64825],[129.35314,36.64924],[129.35333,36.64984],[129.35348,36.65012],[129.35371,36.65041],[129.35408,36.65071],[129.35458,36.65103],[129.35504,36.65131],[129.35752,36.65293],[129.35775,36.65313],[129.35915,36.65521],[129.35952,36.65582],[129.36105,36.65874],[129.36291,36.66061],[129.36673,36.66285],[129.36696,36.66298],[129.36733,36.66305],[129.36749,36.66304],[129.37074,36.66273],[129.37381,36.66382],[129.37381,36.6639],[129.37381,36.66399],[129.37382,36.66411],[129.37388,36.66428],[129.37391,36.66433],[129.37401,36.66447],[129.37441,36.66466],[129.37479,36.66483],[129.38157,36.66801],[129.3829,36.66895],[129.38309,36.66911],[129.3832,36.66927],[129.3833,36.6695],[129.38335,36.66953],[129.38443,36.67012],[129.38457,36.67016],[129.38757,36.67059],[129.38768,36.67058],[129.38772,36.67057],[129.38779,36.67051],[129.38797,36.67023],[129.38801,36.67014],[129.388,36.67006],[129.38798,36.66999],[129.38789,36.66987],[129.38778,36.66959],[129.38759,36.66852],[129.38759,36.66848],[129.38764,36.66838],[129.38777,36.66818],[129.388,36.66797],[129.38807,36.66793],[129.38845,36.6677],[129.38849,36.66769],[129.39058,36.66679],[129.39176,36.66633],[129.39187,36.66631],[129.39192,36.66631],[129.39388,36.66626],[129.39474,36.66626],[129.39688,36.66545]]]]}},{"type":"Feature","properties":{"code":"47770380","name":"창수면","parent":"47770"},"geometry":{"type":"MultiPolygon","coordinates":[[[[129.35458,36.65103],[129.35408,36.65071],[129.35371,36.65041],[129.35348,36.65012],[129.35333,36.64984],[129.35314,36.64924],[129.35301,36.64825],[129.35314,36.64718],[129.3533,36.6456],[129.35327,36.64526],[129.35322,36.64506],[129.35303,36.64487],[129.35255,36.64453],[129.3521,36.64412],[129.35185,36.6438],[129.35159,36.64337],[129.35125,36.64278],[129.35087,36.64214],[129.35086,36.64187],[129.3509,36.64157],[129.35098,36.64141],[129.35116,36.64116],[129.35174,36.64088],[129.35279,36.64043],[129.35342,36.64025],[129.35365,36.64014],[129.35391,36.63997],[129.35414,36.63969],[129.35439,36.63927],[129.35619,36.63611],[129.35715,36.6343],[129.35718,36.6342],[129.35714,36.63412],[129.35568,36.63191],[129.35555,36.63176],[129.35528,36.63145],[129.354,36.63043],[129.35233,36.62931],[129.35188,36.62903],[129.35142,36.62876],[129.35127,36.62856],[129.35092,36.62799],[129.35081,36.62773],[129.35043,36.62628],[129.35084,36.62518],[129.3513,36.62454],[129.3514,36.62441],[129.35301,36.62241],[129.35334,36.62062],[129.3534,36.61995],[129.35194,36.61783],[129.35105,36.61432],[129.35094,36.61143],[129.35091,36.6114],[129.35049,36.61107],[129.34845,36.61087],[129.34735,36.60922],[129.34782,36.60618],[129.34883,36.60534],[129.34936,36.60409],[129.34936,36.60367],[129.34934,36.60029],[129.34975,36.59651],[129.35042,36.59519],[129.35111,36.59355],[129.35131,36.59307],[129.35102,36.59231],[129.34946,36.58913],[129.3493,36.5857],[129.34945,36.58405],[129.35044,36.5827],[129.35153,36.58123],[129.35219,36.57981],[129.35263,36.57789],[129.35367,36.57465],[129.35689,36.57456],[129.36093,36.57453],[129.36181,36.57448],[129.36374,36.57414],[129.36797,36.5705],[129.3695,36.56667],[129.36931,36.56518],[129.37066,36.56337],[129.37209,36.56279],[129.37212,36.56277],[129.37375,36.5587],[129.3775,36.55362],[129.37749,36.55344],[129.38083,36.55106],[129.38435,36.54713],[129.38438,36.54709],[129.3844,36.54703],[129.38441,36.54698],[129.38441,36.54694],[129.3844,36.54684],[129.38438,36.54667],[129.3841,36.54428],[129.38372,36.54436],[129.38354,36.54441],[129.38338,36.54447],[129.38315,36.54459],[129.38298,36.5447],[129.38272,36.54497],[129.38256,36.54517],[129.3824,36.54544],[129.38205,36.5462],[129.38188,36.54652],[129.38116,36.54755],[129.38098,36.54782],[129.38079,36.54801],[129.3804,36.54825],[129.38028,36.54829],[129.38013,36.54832],[129.37478,36.54908],[129.37446,36.54912],[129.37415,36.54914],[129.37396,36.54914],[129.37372,36.54912],[129.37354,36.54911],[129.37305,36.54904],[129.37281,36.549],[129.3727,36.54897],[129.37023,36.54797],[129.36767,36.54632],[129.36642,36.54571],[129.36509,36.54542],[129.36383,36.54544],[129.36125,36.54512],[129.3598,36.5446],[129.35965,36.54443],[129.35896,36.54368],[129.35851,36.54245],[129.35808,36.54117],[129.35563,36.53892],[129.35349,36.5376],[129.34633,36.53617],[129.34512,36.53603],[129.34307,36.53583],[129.34215,36.53578],[129.33982,36.53616],[129.33875,36.53659],[129.33558,36.53818],[129.33023,36.54035],[129.327,36.54076],[129.3241,36.5404],[129.32376,36.53997],[129.32362,36.53906],[129.3234,36.53849],[129.3226,36.53812],[129.32072,36.53746],[129.31904,36.53725],[129.31672,36.53802],[129.31484,36.53891],[129.30945,36.54052],[129.30909,36.5404],[129.30517,36.53615],[129.30469,36.5349],[129.30449,36.53368],[129.30496,36.53315],[129.30503,36.53253],[129.30343,36.53038],[129.30288,36.5298],[129.30143,36.52866],[129.30091,36.5283],[129.29613,36.52654],[129.29519,36.52645],[129.29377,36.52783],[129.29331,36.52804],[129.29109,36.52873],[129.2894,36.52881],[129.28883,36.52819],[129.28812,36.52791],[129.28723,36.5279],[129.28378,36.52879],[129.28291,36.52909],[129.27618,36.53264],[129.27514,36.53336],[129.27361,36.53489],[129.27291,36.53585],[129.27412,36.54068],[129.27485,36.54219],[129.27558,36.54303],[129.276,36.54477],[129.27616,36.5458],[129.27542,36.54641],[129.27544,36.54769],[129.27753,36.55023],[129.27844,36.55122],[129.2802,36.55205],[129.28054,36.55264],[129.28012,36.55349],[129.27917,36.55476],[129.27831,36.5555],[129.27554,36.55563],[129.27525,36.5555],[129.2752,36.55547],[129.27342,36.55466],[129.27281,36.55483],[129.27069,36.55558],[129.26904,36.55659],[129.26586,36.55709],[129.26333,36.5573],[129.26262,36.55816],[129.26176,36.55858],[129.2602,36.55901],[129.2599,36.5591],[129.25849,36.5593],[129.25695,36.55923],[129.25553,36.55867],[129.25342,36.55888],[129.25177,36.55956],[129.25072,36.55985],[129.24957,36.55993],[129.24744,36.55981],[129.24736,36.56056],[129.24578,36.56346],[129.24339,36.56702],[129.24325,36.56715],[129.2428,36.56746],[129.24268,36.56752],[129.2426,36.56753],[129.24081,36.5678],[129.24075,36.5678],[129.2369,36.56948],[129.23617,36.57042],[129.23424,36.57295],[129.23392,36.57367],[129.23346,36.57475],[129.23348,36.5748],[129.23354,36.5749],[129.23365,36.57503],[129.23381,36.57519],[129.23397,36.5754],[129.23403,36.57552],[129.23405,36.5756],[129.23407,36.57575],[129.23407,36.57583],[129.23406,36.57589],[129.23401,36.57597],[129.23359,36.57648],[129.23347,36.5766],[129.23253,36.57738],[129.23232,36.57822],[129.2323,36.57829],[129.2323,36.57834],[129.23231,36.5785],[129.23232,36.57856],[129.23236,36.5787],[129.23242,36.57885],[129.23251,36.57897],[129.23266,36.57917],[129.23279,36.57934],[129.23303,36.5811],[129.23075,36.58413],[129.23069,36.58418],[129.23063,36.58422],[129.22903,36.58524],[129.22884,36.58536],[129.22864,36.58543],[129.22707,36.5858],[129.22685,36.58585],[129.22665,36.58589],[129.2263,36.58595],[129.22614,36.58598],[129.22601,36.58599],[129.22586,36.58599],[129.22307,36.58599],[129.22127,36.58561],[129.22122,36.5856],[129.22117,36.58562],[129.21727,36.58784],[129.21722,36.58788],[129.21659,36.5902],[129.21725,36.5916],[129.21876,36.59433],[129.21893,36.59448],[129.21958,36.59498],[129.21985,36.59515],[129.22018,36.59531],[129.22036,36.59535],[129.22178,36.59595],[129.22401,36.59752],[129.22405,36.59756],[129.22408,36.59759],[129.22409,36.59763],[129.22408,36.59767],[129.22279,36.59945],[129.22274,36.5995],[129.22271,36.59953],[129.22263,36.59958],[129.2225,36.59964],[129.22236,36.59968],[129.22215,36.5997],[129.22194,36.59972],[129.22178,36.59977],[129.22168,36.59985],[129.22165,36.59994],[129.22164,36.60007],[129.22166,36.60111],[129.22212,36.6042],[129.22217,36.60431],[129.2222,36.60437],[129.2223,36.60448],[129.22247,36.6046],[129.2225,36.60462],[129.22254,36.60462],[129.22307,36.60449],[129.22318,36.60439],[129.22321,36.60427],[129.22337,36.60402],[129.22349,36.60387],[129.22354,36.60381],[129.22462,36.60292],[129.22466,36.6029],[129.22477,36.60287],[129.22496,36.60285],[129.22518,36.60283],[129.22525,36.60283],[129.22531,36.60284],[129.22537,36.60286],[129.23114,36.60517],[129.23116,36.60522],[129.23052,36.61151],[129.22986,36.61307],[129.22972,36.61341],[129.22929,36.61504],[129.22954,36.61628],[129.22971,36.61679],[129.22996,36.6175],[129.23006,36.61784],[129.23013,36.61824],[129.23015,36.61834],[129.23018,36.61902],[129.23018,36.61911],[129.23017,36.61918],[129.2298,36.62102],[129.22977,36.62116],[129.22958,36.62169],[129.2294,36.62189],[129.22926,36.62203],[129.22912,36.62217],[129.229,36.62227],[129.22894,36.62231],[129.22887,36.62239],[129.22883,36.62244],[129.22876,36.62263],[129.22869,36.62281],[129.22867,36.62292],[129.22866,36.623],[129.22866,36.62312],[129.22867,36.62323],[129.22874,36.62339],[129.22879,36.62347],[129.22945,36.62439],[129.2296,36.62453],[129.2301,36.62498],[129.23109,36.6257],[129.23113,36.62573],[129.23318,36.6263],[129.23459,36.62648],[129.23475,36.62649],[129.23497,36.62649],[129.23719,36.62719],[129.23985,36.62879],[129.23987,36.62881],[129.24011,36.62948],[129.24014,36.62957],[129.24015,36.62961],[129.23868,36.63601],[129.23866,36.63607],[129.23726,36.63843],[129.23491,36.64227],[129.23486,36.64234],[129.23482,36.64238],[129.23478,36.64241],[129.23473,36.64245],[129.23387,36.64284],[129.23365,36.64292],[129.2335,36.64298],[129.23344,36.643],[129.23338,36.643],[129.23332,36.643],[129.2324,36.64303],[129.23228,36.64303],[129.23216,36.64302],[129.232,36.64298],[129.23189,36.64296],[129.23071,36.64425],[129.2309,36.64588],[129.23091,36.64747],[129.23089,36.64979],[129.23082,36.65211],[129.23075,36.65231],[129.23072,36.65242],[129.23071,36.65258],[129.23068,36.65352],[129.23068,36.65356],[129.23069,36.65361],[129.23071,36.65367],[129.23107,36.65461],[129.23144,36.65499],[129.23246,36.65676],[129.23276,36.65775],[129.23265,36.65944],[129.23248,36.65964],[129.23242,36.65974],[129.23232,36.65995],[129.23229,36.66005],[129.23227,36.66014],[129.23227,36.66024],[129.23228,36.66032],[129.23229,36.66035],[129.23266,36.66114],[129.23314,36.66168],[129.23396,36.66228],[129.2347,36.66282],[129.23482,36.6629],[129.23489,36.66293],[129.23498,36.66297],[129.23503,36.66299],[129.23507,36.66299],[129.23512,36.66299],[129.23516,36.663],[129.23523,36.66299],[129.23532,36.66297],[129.23541,36.66295],[129.23569,36.66287],[129.23583,36.66283],[129.236,36.66278],[129.23608,36.66277],[129.23618,36.66277],[129.23625,36.66278],[129.2374,36.66286],[129.23748,36.66287],[129.23762,36.66291],[129.23767,36.66293],[129.23975,36.66372],[129.24193,36.66489],[129.24554,36.66681],[129.24835,36.66806],[129.25369,36.67105],[129.25402,36.67123],[129.25434,36.67133],[129.25462,36.67137],[129.25508,36.67137],[129.25568,36.67124],[129.25637,36.67099],[129.25679,36.67076],[129.25712,36.67046],[129.25753,36.67015],[129.25801,36.66992],[129.26008,36.66903],[129.26028,36.66897],[129.26038,36.66896],[129.26051,36.66896],[129.26064,36.66898],[129.26083,36.66907],[129.26391,36.67063],[129.26607,36.67245],[129.26614,36.67265],[129.26632,36.67292],[129.26658,36.67326],[129.26685,36.67345],[129.26723,36.67358],[129.26894,36.67371],[129.2698,36.67361],[129.27076,36.67318],[129.27109,36.67295],[129.27141,36.67266],[129.27192,36.67214],[129.27309,36.67129],[129.27404,36.67063],[129.27467,36.67033],[129.27521,36.67017],[129.27717,36.67021],[129.27974,36.6696],[129.27999,36.6693],[129.28039,36.66901],[129.28174,36.66811],[129.28198,36.66798],[129.28226,36.66786],[129.28263,36.66778],[129.28416,36.66751],[129.28457,36.66747],[129.2848,36.66748],[129.28507,36.6675],[129.28554,36.66763],[129.28746,36.66826],[129.28971,36.669],[129.29476,36.67024],[129.29573,36.66946],[129.29624,36.66916],[129.29701,36.66879],[129.29744,36.6686],[129.29769,36.66854],[129.30064,36.66816],[129.3012,36.6681],[129.30163,36.66808],[129.3022,36.66808],[129.30411,36.66814],[129.30455,36.66815],[129.30488,36.66819],[129.3053,36.66827],[129.3061,36.66833],[129.30679,36.66834],[129.30852,36.66821],[129.30966,36.66803],[129.31074,36.66784],[129.313,36.66729],[129.3144,36.66679],[129.31545,36.66625],[129.31643,36.66582],[129.31715,36.66557],[129.31751,36.66546],[129.31776,36.66545],[129.31791,36.66545],[129.31816,36.66549],[129.31856,36.66566],[129.31918,36.66587],[129.32082,36.66626],[129.32452,36.66702],[129.32479,36.66706],[129.32531,36.66708],[129.32577,36.66707],[129.32598,36.66704],[129.32605,36.66702],[129.32635,36.66693],[129.32655,36.66683],[129.3268,36.66664],[129.32775,36.66546],[129.32796,36.66511],[129.32836,36.66429],[129.3287,36.66346],[129.32933,36.66208],[129.32952,36.66178],[129.32967,36.66163],[129.32998,36.66147],[129.33043,36.66128],[129.33072,36.66119],[129.33393,36.66061],[129.33472,36.66051],[129.33533,36.66049],[129.33567,36.66052],[129.33611,36.66061],[129.33671,36.66074],[129.33691,36.66074],[129.33706,36.66071],[129.33721,36.66067],[129.33738,36.66058],[129.3392,36.65953],[129.33932,36.65945],[129.34164,36.65853],[129.34449,36.65757],[129.34474,36.65748],[129.34658,36.65714],[129.34786,36.65706],[129.34827,36.65706],[129.34849,36.65703],[129.34862,36.65701],[129.34882,36.65693],[129.34904,36.65683],[129.34973,36.65635],[129.35047,36.65582],[129.35161,36.65484],[129.35185,36.65458],[129.35237,36.6538],[129.35263,36.65326],[129.35273,36.65286],[129.35285,36.65259],[129.35339,36.65172],[129.35402,36.65121],[129.35424,36.6511],[129.35458,36.65103]]]]}}]}