{"type":"FeatureCollection","features":[{"type":"Feature","properties":{"code":"41595510","name":"진안동","parent":"41595"},"geometry":{"type":"MultiPolygon","coordinates":[[[[127.05041,37.19633],[127.0499,37.19598],[127.04985,37.19596],[127.04975,37.19592],[127.04962,37.1959],[127.04944,37.19591],[127.04919,37.19592],[127.047,37.19611],[127.0461,37.19626],[127.04251,37.19764],[127.0436,37.1978],[127.04405,37.1981],[127.04411,37.19828],[127.04425,37.19992],[127.04378,37.20089],[127.04358,37.20095],[127.04308,37.20081],[127.04302,37.20082],[127.04285,37.20084],[127.04271,37.20092],[127.04325,37.20164],[127.04412,37.20219],[127.04442,37.20221],[127.04583,37.20283],[127.04719,37.20394],[127.04789,37.20497],[127.04823,37.20576],[127.04859,37.20661],[127.04862,37.20683],[127.04867,37.20712],[127.04891,37.20661],[127.04913,37.20636],[127.04947,37.20597],[127.05028,37.20531],[127.05073,37.20495],[127.05162,37.2041],[127.05261,37.20315],[127.05283,37.20293],[127.05295,37.20275],[127.05297,37.20266],[127.053,37.20252],[127.0531,37.20201],[127.0531,37.20171],[127.05307,37.20166],[127.05297,37.20148],[127.05241,37.20102],[127.05166,37.20039],[127.05001,37.19806],[127.04997,37.19799],[127.04994,37.19795],[127.04958,37.19684],[127.05041,37.19633]]],[[[127.04499,37.23317],[127.04481,37.23251],[127.04422,37.22869],[127.04428,37.22869],[127.04745,37.22614],[127.05105,37.2216],[127.05156,37.22101],[127.05169,37.221],[127.05186,37.22109],[127.05207,37.22129],[127.05219,37.22136],[127.0524,37.22149],[127.05246,37.22152],[127.05334,37.22131],[127.05372,37.22105],[127.05381,37.22099],[127.05492,37.22016],[127.05654,37.21864],[127.05587,37.21823],[127.05553,37.21785],[127.05284,37.21486],[127.05294,37.21466],[127.05334,37.21428],[127.05483,37.2131],[127.05627,37.2122],[127.05622,37.21067],[127.05438,37.20845],[127.0542,37.2083],[127.05396,37.20817],[127.05387,37.20813],[127.05349,37.20817],[127.05331,37.2082],[127.05326,37.2082],[127.05262,37.20834],[127.05258,37.20835],[127.05161,37.20867],[127.05143,37.20874],[127.05109,37.20999],[127.05103,37.21027],[127.05105,37.21041],[127.05107,37.21048],[127.05134,37.21087],[127.05147,37.21088],[127.05173,37.21119],[127.05194,37.21146],[127.05353,37.21357],[127.05322,37.21399],[127.05316,37.21404],[127.05295,37.21423],[127.05241,37.21418],[127.05227,37.21419],[127.05192,37.21423],[127.05187,37.21425],[127.05124,37.21453],[127.0478,37.21703],[127.04623,37.21816],[127.04549,37.21831],[127.04547,37.21724],[127.04528,37.21573],[127.04237,37.21341],[127.04104,37.21136],[127.03892,37.21081],[127.03889,37.21084],[127.03875,37.21074],[127.03863,37.21065],[127.03856,37.21059],[127.03665,37.20906],[127.03539,37.20801],[127.03392,37.20693],[127.03209,37.20638],[127.03166,37.20701],[127.02381,37.20418],[127.02393,37.20452],[127.0241,37.20504],[127.02404,37.20553],[127.02391,37.20579],[127.02366,37.20616],[127.02364,37.20618],[127.02358,37.20624],[127.02348,37.20633],[127.02302,37.20674],[127.02254,37.20695],[127.02179,37.20736],[127.02144,37.20773],[127.02115,37.20831],[127.02114,37.20841],[127.02195,37.20872],[127.02349,37.20927],[127.02473,37.20972],[127.02779,37.21082],[127.02791,37.21086],[127.02891,37.21123],[127.02625,37.21512],[127.02596,37.21538],[127.02544,37.21809],[127.02548,37.21813],[127.0256,37.21834],[127.02567,37.21848],[127.02573,37.21861],[127.02623,37.22003],[127.02591,37.22064],[127.02409,37.22412],[127.02341,37.22539],[127.02263,37.2249],[127.0239,37.22706],[127.02396,37.22718],[127.02397,37.22742],[127.0229,37.22951],[127.02614,37.23067],[127.02964,37.23201],[127.03347,37.2353],[127.0367,37.2384],[127.03714,37.2405],[127.03899,37.24273],[127.03968,37.2435],[127.04,37.24327],[127.04029,37.24331],[127.04054,37.24342],[127.04085,37.24377],[127.041,37.24443],[127.04104,37.24504],[127.04084,37.24585],[127.04042,37.24633],[127.04043,37.24669],[127.04043,37.247],[127.04069,37.24724],[127.04109,37.24737],[127.04127,37.24727],[127.04262,37.24675],[127.04213,37.24543],[127.04197,37.2451],[127.04071,37.24159],[127.03953,37.23837],[127.03927,37.23764],[127.03912,37.23724],[127.03913,37.23719],[127.04164,37.2352],[127.04171,37.23517],[127.04296,37.23471],[127.04354,37.23459],[127.04421,37.23444],[127.0445,37.23426],[127.04498,37.23379],[127.04499,37.23317]]]]}},{"type":"Feature","properties":{"code":"41595520","name":"병점1동","parent":"41595"},"geometry":{"type":"MultiPolygon","coordinates":[[[[127.03892,37.21081],[127.03934,37.21028],[127.03983,37.20965],[127.0405,37.20879],[127.04282,37.20572],[127.04459,37.20327],[127.04446,37.20237],[127.04442,37.20221],[127.04412,37.20219],[127.04325,37.20164],[127.04271,37.20092],[127.04285,37.20084],[127.04302,37.20082],[127.04308,37.20081],[127.04358,37.20095],[127.04378,37.20089],[127.04425,37.19992],[127.04411,37.19828],[127.04405,37.1981],[127.0436,37.1978],[127.04251,37.19764],[127.04154,37.19749],[127.03872,37.19833],[127.03854,37.19842],[127.0384,37.1985],[127.03763,37.19897],[127.03739,37.19914],[127.03735,37.19927],[127.03734,37.19945],[127.03734,37.1995],[127.03733,37.19961],[127.03728,37.19971],[127.03718,37.19981],[127.03706,37.19991],[127.03702,37.19991],[127.03698,37.19992],[127.03689,37.19994],[127.0368,37.19995],[127.03666,37.19996],[127.03485,37.20009],[127.03426,37.2001],[127.03388,37.2001],[127.03332,37.2001],[127.03266,37.20009],[127.03246,37.20007],[127.03124,37.19991],[127.02824,37.20013],[127.02665,37.20042],[127.02452,37.20089],[127.02302,37.20151],[127.02304,37.20158],[127.02381,37.20418],[127.03166,37.20701],[127.03209,37.20638],[127.03392,37.20693],[127.03539,37.20801],[127.03665,37.20906],[127.03856,37.21059],[127.03863,37.21065],[127.03875,37.21074],[127.03889,37.21084],[127.03892,37.21081]]]]}},{"type":"Feature","properties":{"code":"41595530","name":"병점2동","parent":"41595"},"geometry":{"type":"MultiPolygon","coordinates":[[[[127.05134,37.21087],[127.05096,37.21132],[127.05051,37.21181],[127.04954,37.21073],[127.04931,37.21028],[127.04911,37.20991],[127.04895,37.2096],[127.04884,37.2094],[127.04866,37.20854],[127.04867,37.20712],[127.04862,37.20683],[127.04859,37.20661],[127.04823,37.20576],[127.04789,37.20497],[127.04719,37.20394],[127.04583,37.20283],[127.04442,37.20221],[127.04446,37.20237],[127.04459,37.20327],[127.04282,37.20572],[127.0405,37.20879],[127.03983,37.20965],[127.03934,37.21028],[127.03892,37.21081],[127.04104,37.21136],[127.04237,37.21341],[127.04528,37.21573],[127.04547,37.21724],[127.04549,37.21831],[127.04623,37.21816],[127.0478,37.21703],[127.05124,37.21453],[127.05187,37.21425],[127.05192,37.21423],[127.05227,37.21419],[127.05241,37.21418],[127.05295,37.21423],[127.05316,37.21404],[127.05322,37.21399],[127.05353,37.21357],[127.05194,37.21146],[127.05173,37.21119],[127.05147,37.21088],[127.05134,37.21087]]]]}},{"type":"Feature","properties":{"code":"41595540","name":"반월동","parent":"41595"},"geometry":{"type":"MultiPolygon","coordinates":[[[[127.06668,37.24015],[127.06778,37.23905],[127.06798,37.23884],[127.06805,37.23876],[127.06818,37.23851],[127.06843,37.23765],[127.06849,37.23732],[127.0685,37.23719],[127.0685,37.23715],[127.06842,37.23713],[127.06836,37.23713],[127.06829,37.23711],[127.06822,37.2371],[127.06802,37.23672],[127.06802,37.23669],[127.068,37.23468],[127.06876,37.23015],[127.06877,37.23011],[127.06879,37.23009],[127.06881,37.23005],[127.06884,37.23002],[127.06892,37.22993],[127.06963,37.22929],[127.07071,37.22891],[127.07124,37.22901],[127.07155,37.22906],[127.0718,37.22909],[127.0726,37.22916],[127.0727,37.22914],[127.07329,37.22882],[127.07456,37.22813],[127.07458,37.22801],[127.07482,37.22674],[127.07558,37.2259],[127.07322,37.22632],[127.07281,37.22619],[127.07261,37.22612],[127.07159,37.22553],[127.07058,37.22495],[127.06825,37.22313],[127.06753,37.22214],[127.068,37.22087],[127.06822,37.22033],[127.06836,37.22016],[127.06909,37.21972],[127.06943,37.21864],[127.07072,37.2137],[127.07042,37.21362],[127.06892,37.21318],[127.06438,37.21208],[127.06436,37.21212],[127.06322,37.21659],[127.06305,37.21708],[127.06234,37.21909],[127.06181,37.22041],[127.06161,37.22065],[127.06129,37.22086],[127.06033,37.22148],[127.05995,37.22131],[127.05956,37.22109],[127.05951,37.22106],[127.0594,37.22099],[127.05868,37.22051],[127.05851,37.22037],[127.05668,37.21884],[127.05665,37.21879],[127.05661,37.21875],[127.05654,37.21864],[127.05492,37.22016],[127.05381,37.22099],[127.05372,37.22105],[127.05334,37.22131],[127.05246,37.22152],[127.0524,37.22149],[127.05219,37.22136],[127.05207,37.22129],[127.05186,37.22109],[127.05169,37.221],[127.05156,37.22101],[127.05105,37.2216],[127.04745,37.22614],[127.04428,37.22869],[127.04422,37.22869],[127.04481,37.23251],[127.04499,37.23317],[127.04595,37.23279],[127.04599,37.23279],[127.04663,37.23288],[127.04813,37.23339],[127.049,37.23384],[127.04919,37.23394],[127.0495,37.23409],[127.05131,37.23436],[127.05154,37.23436],[127.05166,37.23431],[127.05196,37.23418],[127.05234,37.23404],[127.05346,37.23358],[127.05356,37.23352],[127.05359,37.23349],[127.05362,37.23344],[127.05376,37.23274],[127.05383,37.23242],[127.05383,37.23232],[127.05379,37.23223],[127.05257,37.23148],[127.05255,37.23133],[127.05256,37.23106],[127.05487,37.23216],[127.05604,37.23273],[127.05632,37.23287],[127.05673,37.23313],[127.05827,37.23413],[127.0583,37.23415],[127.05833,37.23418],[127.05838,37.23421],[127.05924,37.23498],[127.05934,37.23508],[127.05942,37.23516],[127.05964,37.23543],[127.05972,37.23553],[127.0599,37.23579],[127.05991,37.23582],[127.05998,37.23594],[127.06002,37.23609],[127.06005,37.23626],[127.06213,37.23801],[127.06326,37.23917],[127.0644,37.23927],[127.065,37.24004],[127.06545,37.24014],[127.066,37.24016],[127.06615,37.24016],[127.06635,37.24009],[127.06668,37.24015]]]]}},{"type":"Feature","properties":{"code":"41595550","name":"화산동","parent":"41595"},"geometry":{"type":"MultiPolygon","coordinates":[[[[127.02263,37.2249],[127.02341,37.22539],[127.02409,37.22412],[127.02591,37.22064],[127.02623,37.22003],[127.02573,37.21861],[127.02567,37.21848],[127.0256,37.21834],[127.02548,37.21813],[127.02544,37.21809],[127.02596,37.21538],[127.02625,37.21512],[127.02891,37.21123],[127.02791,37.21086],[127.02779,37.21082],[127.02473,37.20972],[127.02349,37.20927],[127.02195,37.20872],[127.02114,37.20841],[127.02115,37.20831],[127.02144,37.20773],[127.02179,37.20736],[127.02254,37.20695],[127.02302,37.20674],[127.02348,37.20633],[127.02358,37.20624],[127.02364,37.20618],[127.02366,37.20616],[127.02391,37.20579],[127.02404,37.20553],[127.0241,37.20504],[127.02393,37.20452],[127.02381,37.20418],[127.02304,37.20158],[127.02302,37.20151],[127.02452,37.20089],[127.02665,37.20042],[127.02665,37.20036],[127.02661,37.20026],[127.02649,37.2001],[127.02468,37.19809],[127.02444,37.19798],[127.02413,37.19784],[127.0216,37.19679],[127.02146,37.19675],[127.02105,37.19661],[127.01874,37.19586],[127.01753,37.19546],[127.01698,37.19539],[127.01636,37.19531],[127.01564,37.1952],[127.01509,37.19512],[127.0136,37.19481],[127.01188,37.19421],[127.01132,37.1939],[127.01104,37.19375],[127.01032,37.19306],[127.01001,37.19265],[127.00982,37.1924],[127.0093,37.19121],[127.00874,37.18992],[127.00872,37.1899],[127.00845,37.18922],[127.00785,37.187],[127.00702,37.18773],[127.0036,37.18871],[126.99767,37.19049],[126.99742,37.19172],[126.99744,37.19251],[126.99701,37.19288],[126.99522,37.19397],[126.99088,37.19452],[126.9893,37.19453],[126.98827,37.19454],[126.98755,37.19459],[126.98539,37.19493],[126.98486,37.19517],[126.98477,37.19523],[126.98422,37.19573],[126.98387,37.19649],[126.98373,37.19758],[126.98407,37.19838],[126.98417,37.1986],[126.98492,37.19954],[126.98557,37.20023],[126.9851,37.20194],[126.98152,37.20573],[126.98057,37.20654],[126.97999,37.20682],[126.97988,37.20708],[126.97925,37.2088],[126.97923,37.20918],[126.97923,37.20964],[126.97924,37.20991],[126.97974,37.21248],[126.97976,37.21252],[126.97984,37.21264],[126.97993,37.21276],[126.98002,37.21282],[126.98011,37.21286],[126.98161,37.2133],[126.98419,37.21406],[126.98772,37.21494],[126.99386,37.21687],[126.99677,37.21858],[126.99702,37.21872],[126.99733,37.21889],[126.99951,37.21966],[127.00127,37.21986],[127.00343,37.22005],[127.00336,37.2203],[127.00323,37.22075],[127.00311,37.22267],[127.00313,37.2228],[127.00435,37.22417],[127.00699,37.22699],[127.00757,37.22753],[127.0081,37.22784],[127.00987,37.22731],[127.0107,37.22729],[127.01127,37.22727],[127.01158,37.22726],[127.01189,37.22721],[127.0136,37.22688],[127.01403,37.22671],[127.01449,37.22654],[127.01517,37.22624],[127.01636,37.22576],[127.01658,37.22567],[127.017,37.22553],[127.02137,37.22424],[127.02166,37.22429],[127.02199,37.22446],[127.0225,37.22479],[127.02263,37.2249]]]]}}]}