{"type":"FeatureCollection","features":[{"type":"Feature","properties":{"code":"51730250","name":"횡성읍","parent":"51730"},"geometry":{"type":"MultiPolygon","coordinates":[[[[128.04745,37.51664],[128.04698,37.51632],[128.04655,37.51582],[128.04631,37.51553],[128.04623,37.51543],[128.04569,37.51478],[128.04561,37.51453],[128.04581,37.5123],[128.04621,37.51196],[128.04677,37.51148],[128.04732,37.51099],[128.04748,37.51037],[128.04806,37.50801],[128.04809,37.50762],[128.04749,37.50648],[128.04722,37.50596],[128.04677,37.50337],[128.04673,37.50283],[128.04706,37.50123],[128.04757,37.50018],[128.04748,37.4992],[128.04646,37.49693],[128.04628,37.49676],[128.04453,37.49591],[128.04426,37.49564],[128.04413,37.49504],[128.04426,37.49276],[128.04563,37.49183],[128.04638,37.49128],[128.04802,37.48998],[128.04651,37.48525],[128.04558,37.4847],[128.04257,37.47974],[128.04227,37.4783],[128.04228,37.47776],[128.04235,37.47714],[128.04196,37.4763],[128.04086,37.47531],[128.04026,37.47491],[128.03902,37.47449],[128.03897,37.47448],[128.03841,37.47429],[128.03747,37.4737],[128.03706,37.47306],[128.03682,37.4727],[128.03672,37.47207],[128.03675,37.47154],[128.03769,37.46452],[128.03898,37.4623],[128.03918,37.46197],[128.04127,37.46004],[128.04163,37.45948],[128.04296,37.45714],[128.04296,37.45657],[128.04207,37.45435],[128.04061,37.45096],[128.04041,37.45056],[128.0398,37.45017],[128.03827,37.44926],[128.03734,37.44791],[128.0336,37.44963],[128.02933,37.45047],[128.02879,37.4505],[128.02565,37.4499],[128.02404,37.449],[128.02235,37.44822],[128.02019,37.44764],[128.01667,37.44692],[128.01531,37.44667],[128.01503,37.44667],[128.01477,37.44703],[128.01465,37.44766],[128.01392,37.44821],[128.01284,37.44851],[128.01112,37.44879],[128.00829,37.4486],[128.00747,37.44864],[128.00698,37.44876],[128.0065,37.44917],[128.00622,37.44956],[128.00613,37.44986],[128.00618,37.4502],[128.00622,37.45054],[128.00607,37.45172],[128.00555,37.45458],[128.00484,37.45574],[128.00477,37.45583],[128.00451,37.45616],[128.00435,37.45631],[128.0038,37.4568],[128.00207,37.45713],[128.00172,37.45714],[127.99684,37.4567],[127.99517,37.45652],[127.99507,37.4565],[127.99473,37.45628],[127.99447,37.45612],[127.99438,37.4561],[127.99258,37.45632],[127.98829,37.45872],[127.98807,37.45886],[127.98791,37.45894],[127.98787,37.45893],[127.98665,37.45873],[127.98638,37.45863],[127.9858,37.45822],[127.98421,37.45741],[127.98352,37.45712],[127.98205,37.45717],[127.98168,37.45723],[127.98135,37.45736],[127.97969,37.45808],[127.97928,37.4583],[127.97891,37.45846],[127.97857,37.4586],[127.97797,37.45868],[127.97726,37.45869],[127.97704,37.45867],[127.97671,37.45865],[127.97665,37.4586],[127.97615,37.45813],[127.97605,37.45802],[127.97562,37.45754],[127.97498,37.45686],[127.97293,37.45523],[127.97177,37.45436],[127.97153,37.4542],[127.97148,37.45416],[127.97141,37.45412],[127.97017,37.45351],[127.96901,37.45302],[127.96541,37.45099],[127.96431,37.45034],[127.9635,37.45145],[127.9617,37.45151],[127.95971,37.45306],[127.95608,37.45566],[127.95458,37.45559],[127.95374,37.45518],[127.95308,37.45498],[127.95224,37.45479],[127.95174,37.45477],[127.95119,37.45478],[127.95015,37.45684],[127.94958,37.45858],[127.94866,37.45975],[127.94674,37.46151],[127.94483,37.46322],[127.94315,37.4668],[127.94223,37.46889],[127.94058,37.47322],[127.94036,37.47518],[127.93931,37.4762],[127.93806,37.47608],[127.93763,37.47744],[127.93811,37.47933],[127.93882,37.48018],[127.93894,37.48049],[127.93828,37.4826],[127.93758,37.48372],[127.93602,37.48546],[127.93454,37.48618],[127.93338,37.48646],[127.9327,37.48825],[127.93292,37.49035],[127.93568,37.49414],[127.93612,37.49449],[127.93666,37.49493],[127.93836,37.49624],[127.93914,37.50026],[127.93753,37.50132],[127.93548,37.5024],[127.93459,37.50321],[127.93404,37.50356],[127.93328,37.50357],[127.93261,37.50378],[127.93056,37.50518],[127.9285,37.50682],[127.92868,37.50718],[127.93036,37.51076],[127.93142,37.51303],[127.93209,37.51388],[127.93305,37.51408],[127.93387,37.51524],[127.93449,37.51636],[127.93575,37.51627],[127.93895,37.51541],[127.93909,37.51504],[127.94035,37.51471],[127.94375,37.51421],[127.94903,37.51385],[127.95097,37.5139],[127.95642,37.51374],[127.95872,37.51323],[127.9636,37.51278],[127.96375,37.51331],[127.96305,37.51395],[127.96325,37.51515],[127.9634,37.51571],[127.96415,37.51714],[127.96556,37.51849],[127.96604,37.51851],[127.96643,37.51839],[127.97288,37.51511],[127.97568,37.51348],[127.97777,37.5121],[127.97833,37.51169],[127.98356,37.50777],[127.98357,37.50727],[127.98358,37.50666],[127.98392,37.50621],[127.98425,37.50593],[127.98564,37.50549],[127.98614,37.50566],[127.98697,37.50693],[127.98886,37.50912],[127.98908,37.50934],[127.99073,37.51097],[127.99167,37.51158],[127.99246,37.51133],[127.99339,37.5115],[127.99406,37.51273],[127.99478,37.51689],[127.99583,37.5222],[127.9962,37.5228],[127.99714,37.52366],[128.0028,37.52688],[128.00495,37.5279],[128.00933,37.53064],[128.01033,37.53128],[128.01232,37.53305],[128.01297,37.53377],[128.01556,37.53813],[128.01536,37.53922],[128.01524,37.54075],[128.01546,37.54095],[128.0156,37.54235],[128.01587,37.54299],[128.01617,37.5436],[128.01681,37.54431],[128.01807,37.54496],[128.01955,37.54547],[128.02114,37.54602],[128.02271,37.54652],[128.02355,37.54674],[128.024,37.5467],[128.02455,37.54646],[128.02487,37.54603],[128.02534,37.54476],[128.02546,37.54449],[128.02564,37.54406],[128.02629,37.54304],[128.0275,37.54172],[128.03257,37.5378],[128.0328,37.53766],[128.03345,37.5374],[128.03393,37.5373],[128.03473,37.53713],[128.03539,37.53712],[128.0356,37.53714],[128.03656,37.5372],[128.03736,37.53736],[128.03823,37.53767],[128.03862,37.53793],[128.03921,37.53846],[128.0397,37.53915],[128.03987,37.53958],[128.03997,37.54014],[128.03983,37.5406],[128.03958,37.54086],[128.03942,37.54101],[128.03926,37.54116],[128.03927,37.54148],[128.03935,37.54175],[128.03947,37.54199],[128.0396,37.54213],[128.03969,37.54224],[128.04006,37.54253],[128.04055,37.54279],[128.04093,37.54296],[128.04133,37.54307],[128.0421,37.5432],[128.04408,37.53645],[128.04424,37.53578],[128.04451,37.53387],[128.04465,37.53197],[128.04458,37.53163],[128.04436,37.5312],[128.04379,37.53072],[128.04642,37.52791],[128.04741,37.52652],[128.04751,37.52634],[128.04769,37.52373],[128.04766,37.52349],[128.04752,37.52312],[128.04701,37.52246],[128.04677,37.5221],[128.04656,37.5217],[128.04597,37.51975],[128.04596,37.51936],[128.04678,37.51744],[128.04712,37.51693],[128.04745,37.51664]]]]}},{"type":"Feature","properties":{"code":"51730310","name":"우천면","parent":"51730"},"geometry":{"type":"MultiPolygon","coordinates":[[[[128.1397,37.52139],[128.13838,37.51989],[128.13815,37.51962],[128.13805,37.51874],[128.13844,37.51355],[128.13852,37.51316],[128.13873,37.5129],[128.13903,37.51262],[128.14306,37.50897],[128.14438,37.50825],[128.14477,37.5081],[128.14539,37.50799],[128.14569,37.5079],[128.14621,37.5075],[128.14624,37.50728],[128.14626,37.50234],[128.14391,37.5004],[128.14291,37.4987],[128.14256,37.49785],[128.14256,37.49769],[128.1434,37.49551],[128.14343,37.49546],[128.14347,37.4954],[128.14354,37.49536],[128.14363,37.49531],[128.14371,37.49528],[128.1438,37.49525],[128.14389,37.49524],[128.14405,37.49524],[128.14414,37.49526],[128.14423,37.49527],[128.14776,37.496],[128.14889,37.49672],[128.15161,37.49823],[128.15171,37.49825],[128.15177,37.49826],[128.15188,37.49825],[128.15206,37.49818],[128.15217,37.49814],[128.1523,37.49807],[128.15243,37.49801],[128.15246,37.49797],[128.1525,37.49785],[128.15266,37.49702],[128.15278,37.49613],[128.1528,37.49606],[128.15332,37.49521],[128.15453,37.49364],[128.15552,37.49236],[128.15566,37.4922],[128.15576,37.49214],[128.15588,37.4921],[128.15647,37.49198],[128.15719,37.49183],[128.16092,37.48585],[128.16105,37.48558],[128.16105,37.48554],[128.16102,37.48545],[128.16051,37.48436],[128.15843,37.48217],[128.15836,37.4821],[128.15758,37.48132],[128.15748,37.48123],[128.15325,37.47812],[128.15136,37.47706],[128.14645,37.48032],[128.14632,37.48045],[128.14599,37.48067],[128.14581,37.48066],[128.14469,37.48013],[128.14451,37.47994],[128.14431,37.47967],[128.14428,37.47942],[128.14423,37.47919],[128.14115,37.47723],[128.13574,37.47518],[128.13545,37.4751],[128.13526,37.47507],[128.13504,37.47506],[128.13494,37.47506],[128.13483,37.47506],[128.13464,37.47508],[128.13448,37.47509],[128.13439,37.4751],[128.13424,37.47513],[128.13412,37.47518],[128.13392,37.47528],[128.13387,37.47531],[128.13381,37.47535],[128.13367,37.47542],[128.13351,37.47548],[128.13342,37.47551],[128.13333,37.47553],[128.13324,37.47554],[128.133,37.47556],[128.13273,37.47557],[128.13255,37.47557],[128.1325,37.47557],[128.13245,37.47556],[128.13242,37.47553],[128.1324,37.47548],[128.13239,37.47531],[128.13234,37.47457],[128.13232,37.4724],[128.13255,37.47015],[128.13257,37.47006],[128.13256,37.47002],[128.13254,37.46998],[128.13247,37.46994],[128.13228,37.4699],[128.13208,37.46986],[128.13195,37.46985],[128.13183,37.46983],[128.12945,37.46981],[128.12939,37.46982],[128.12883,37.46988],[128.1231,37.47094],[128.12173,37.47145],[128.12066,37.47194],[128.11956,37.47004],[128.11933,37.46931],[128.12066,37.46469],[128.12104,37.4636],[128.12137,37.46338],[128.12168,37.46318],[128.12731,37.45984],[128.12737,37.45981],[128.12742,37.45978],[128.13305,37.45855],[128.13482,37.45708],[128.13744,37.45575],[128.1394,37.4554],[128.13954,37.45536],[128.13957,37.45534],[128.13961,37.45532],[128.14055,37.45472],[128.14065,37.45465],[128.14089,37.45435],[128.14094,37.45425],[128.14093,37.45415],[128.14079,37.45321],[128.14077,37.45313],[128.14034,37.45175],[128.14006,37.45092],[128.13965,37.45014],[128.13951,37.44985],[128.13943,37.44964],[128.13943,37.44956],[128.13949,37.44941],[128.13975,37.44899],[128.14069,37.44646],[128.14146,37.44365],[128.1415,37.44315],[128.1415,37.44304],[128.14149,37.44294],[128.14148,37.4429],[128.13915,37.43997],[128.13663,37.43724],[128.1366,37.43722],[128.13653,37.43718],[128.13545,37.43681],[128.13479,37.43662],[128.13426,37.43648],[128.13381,37.43636],[128.13326,37.43622],[128.13145,37.4361],[128.13,37.436],[128.12964,37.43469],[128.1292,37.4331],[128.12647,37.42919],[128.12298,37.42675],[128.12363,37.42419],[128.12385,37.42397],[128.12426,37.42355],[128.1248,37.42281],[128.12495,37.42259],[128.12498,37.42245],[128.1252,37.42094],[128.12526,37.42041],[128.12524,37.42029],[128.1228,37.41866],[128.1194,37.41812],[128.11855,37.41811],[128.11787,37.4181],[128.11707,37.41801],[128.11607,37.41791],[128.11431,37.41694],[128.11407,37.41668],[128.11334,37.41462],[128.11335,37.41427],[128.11345,37.414],[128.11386,37.41357],[128.11468,37.41291],[128.11486,37.41107],[128.11488,37.40982],[128.11393,37.40779],[128.11347,37.40707],[128.10957,37.40548],[128.10926,37.40535],[128.10901,37.40538],[128.10864,37.40541],[128.10789,37.40576],[128.1075,37.40605],[128.1031,37.40633],[128.10271,37.40625],[128.10107,37.40611],[128.09697,37.40608],[128.09679,37.40621],[128.0974,37.4065],[128.09783,37.40688],[128.0978,37.40708],[128.09737,37.40785],[128.09519,37.4111],[128.09476,37.41166],[128.09438,37.41212],[128.09346,37.41244],[128.09162,37.41287],[128.09041,37.41326],[128.08977,37.41378],[128.0892,37.41424],[128.08686,37.41713],[128.0856,37.41909],[128.08428,37.42127],[128.08309,37.42344],[128.08153,37.42666],[128.08123,37.42762],[128.08048,37.42838],[128.07907,37.42938],[128.07804,37.43003],[128.07595,37.43143],[128.07276,37.43384],[128.06968,37.43626],[128.06923,37.43625],[128.06776,37.43623],[128.06512,37.4364],[128.0645,37.43684],[128.06381,37.43765],[128.0635,37.43861],[128.06338,37.44042],[128.06357,37.44117],[128.06383,37.44211],[128.06405,37.44274],[128.064,37.44296],[128.06351,37.44399],[128.06073,37.44715],[128.06047,37.44722],[128.0602,37.4472],[128.05816,37.44658],[128.05462,37.44538],[128.05176,37.44497],[128.04987,37.44543],[128.04185,37.44553],[128.04138,37.44584],[128.04075,37.44659],[128.04033,37.44693],[128.03987,37.44717],[128.0397,37.44726],[128.03867,37.44763],[128.03769,37.44794],[128.03734,37.44791],[128.03827,37.44926],[128.0398,37.45017],[128.04041,37.45056],[128.04061,37.45096],[128.04207,37.45435],[128.04296,37.45657],[128.04296,37.45714],[128.04163,37.45948],[128.04127,37.46004],[128.03918,37.46197],[128.03898,37.4623],[128.03769,37.46452],[128.03675,37.47154],[128.03672,37.47207],[128.03682,37.4727],[128.03706,37.47306],[128.03747,37.4737],[128.03841,37.47429],[128.03897,37.47448],[128.03902,37.47449],[128.04026,37.47491],[128.04086,37.47531],[128.04196,37.4763],[128.04235,37.47714],[128.04228,37.47776],[128.04227,37.4783],[128.04257,37.47974],[128.04558,37.4847],[128.04651,37.48525],[128.04802,37.48998],[128.04638,37.49128],[128.04563,37.49183],[128.04426,37.49276],[128.04413,37.49504],[128.04426,37.49564],[128.04453,37.49591],[128.04628,37.49676],[128.04646,37.49693],[128.04748,37.4992],[128.04757,37.50018],[128.04706,37.50123],[128.04673,37.50283],[128.04677,37.50337],[128.04722,37.50596],[128.04749,37.50648],[128.04809,37.50762],[128.04806,37.50801],[128.04748,37.51037],[128.04732,37.51099],[128.04677,37.51148],[128.04621,37.51196],[128.04581,37.5123],[128.04561,37.51453],[128.04569,37.51478],[128.04623,37.51543],[128.04631,37.51553],[128.04655,37.51582],[128.04698,37.51632],[128.04745,37.51664],[128.04838,37.51705],[128.04916,37.51759],[128.05008,37.51856],[128.05048,37.51924],[128.05086,37.51973],[128.0518,37.51982],[128.05276,37.51947],[128.05341,37.51921],[128.05403,37.51908],[128.05506,37.51932],[128.0566,37.51997],[128.0599,37.521],[128.07078,37.52071],[128.07123,37.52069],[128.07164,37.5206],[128.0722,37.52035],[128.07268,37.52001],[128.07281,37.5192],[128.07267,37.5176],[128.07279,37.51727],[128.07304,37.51701],[128.07357,37.51658],[128.07474,37.51634],[128.07527,37.51641],[128.07587,37.51669],[128.07862,37.5183],[128.0791,37.51908],[128.08057,37.52206],[128.08079,37.52269],[128.08086,37.52357],[128.08065,37.52431],[128.08048,37.52491],[128.08086,37.52558],[128.08144,37.52582],[128.08415,37.5257],[128.08776,37.52398],[128.08831,37.52347],[128.08939,37.52194],[128.09077,37.52037],[128.09161,37.52016],[128.09248,37.52029],[128.09293,37.52038],[128.09422,37.52071],[128.09529,37.52101],[128.0957,37.521],[128.09948,37.52076],[128.10009,37.52067],[128.10069,37.5203],[128.10112,37.52001],[128.10163,37.51989],[128.10449,37.52102],[128.10541,37.52159],[128.10561,37.52174],[128.10746,37.52408],[128.10832,37.52528],[128.10977,37.52632],[128.10997,37.52634],[128.11202,37.5277],[128.11224,37.52814],[128.11207,37.53012],[128.11226,37.53091],[128.11283,37.53112],[128.11398,37.53108],[128.11486,37.5308],[128.11695,37.52982],[128.11792,37.52935],[128.11861,37.52897],[128.11908,37.52851],[128.11959,37.52809],[128.12021,37.52791],[128.12126,37.52797],[128.12142,37.52798],[128.12216,37.52832],[128.12359,37.52929],[128.12414,37.52972],[128.12437,37.53007],[128.12445,37.53037],[128.12454,37.5308],[128.12483,37.53142],[128.12507,37.5316],[128.12536,37.5318],[128.12542,37.53181],[128.12568,37.53185],[128.1273,37.53126],[128.1277,37.53103],[128.12862,37.53042],[128.13159,37.53038],[128.13414,37.53002],[128.13442,37.5297],[128.1353,37.52845],[128.13538,37.52821],[128.13781,37.52614],[128.13993,37.52529],[128.14051,37.52507],[128.14089,37.52495],[128.14113,37.52462],[128.14113,37.52427],[128.1397,37.52139]]]]}},{"type":"Feature","properties":{"code":"51730320","name":"안흥면","parent":"51730"},"geometry":{"type":"MultiPolygon","coordinates":[[[[128.15136,37.47706],[128.15112,37.47666],[128.15014,37.47478],[128.14984,37.4737],[128.14981,37.47354],[128.14984,37.47337],[128.15025,37.47237],[128.15048,37.47207],[128.15073,37.47182],[128.15103,37.47166],[128.15142,37.47156],[128.15698,37.47065],[128.15715,37.47063],[128.15815,37.47055],[128.15837,37.47056],[128.15851,37.47058],[128.15864,37.4707],[128.1587,37.4708],[128.15875,37.47094],[128.16238,37.47274],[128.16695,37.47465],[128.1686,37.47593],[128.16881,37.47601],[128.16943,37.47627],[128.17031,37.47657],[128.17044,37.47659],[128.17157,37.4765],[128.17461,37.47598],[128.1754,37.47554],[128.1762,37.47488],[128.1763,37.47479],[128.17638,37.47468],[128.17752,37.47298],[128.18067,37.47038],[128.18091,37.47027],[128.18154,37.46988],[128.18179,37.46969],[128.18225,37.46921],[128.18222,37.46913],[128.18199,37.46861],[128.18121,37.46706],[128.18065,37.46528],[128.18082,37.46082],[128.18103,37.45796],[128.18104,37.4579],[128.18106,37.4578],[128.18107,37.45771],[128.18114,37.45749],[128.18136,37.45714],[128.18241,37.45563],[128.18267,37.45538],[128.18297,37.45516],[128.18705,37.45305],[128.19245,37.45047],[128.19253,37.45044],[128.19265,37.4504],[128.19371,37.45009],[128.19388,37.45005],[128.19779,37.44935],[128.20097,37.44881],[128.20134,37.44882],[128.20402,37.44924],[128.20415,37.44927],[128.2061,37.45014],[128.20627,37.45026],[128.20638,37.45048],[128.20641,37.45072],[128.20645,37.45091],[128.20649,37.45096],[128.20664,37.45103],[128.20718,37.45124],[128.20987,37.45217],[128.20992,37.45217],[128.2109,37.45208],[128.21106,37.45205],[128.21122,37.45198],[128.21161,37.45171],[128.21169,37.45167],[128.21177,37.45164],[128.21188,37.45161],[128.21197,37.45161],[128.21277,37.45169],[128.21308,37.45178],[128.2156,37.45297],[128.21573,37.45305],[128.21807,37.45403],[128.22556,37.45433],[128.22567,37.45433],[128.22579,37.45431],[128.22708,37.45402],[128.22732,37.45389],[128.22763,37.45368],[128.22812,37.45321],[128.22827,37.45306],[128.22839,37.45299],[128.22858,37.45296],[128.23152,37.45242],[128.23166,37.45242],[128.2374,37.45294],[128.23759,37.45298],[128.23773,37.45306],[128.2392,37.45424],[128.23938,37.45441],[128.2395,37.45458],[128.23964,37.45478],[128.23981,37.45503],[128.24004,37.45534],[128.24012,37.4554],[128.24024,37.4554],[128.24087,37.45533],[128.24498,37.45486],[128.24561,37.4547],[128.24682,37.45338],[128.24757,37.44893],[128.24761,37.44579],[128.24889,37.44249],[128.24909,37.44214],[128.24969,37.44149],[128.25021,37.44123],[128.25096,37.44128],[128.25275,37.44138],[128.25374,37.4412],[128.25586,37.44006],[128.25708,37.43876],[128.25766,37.43815],[128.25783,37.43755],[128.2579,37.43671],[128.25736,37.43508],[128.25559,37.43066],[128.25442,37.42895],[128.25439,37.4285],[128.25473,37.4279],[128.25616,37.42653],[128.25669,37.42598],[128.25685,37.42565],[128.25695,37.42544],[128.258,37.42322],[128.25819,37.4228],[128.25819,37.42249],[128.25778,37.42184],[128.25772,37.42155],[128.25776,37.42095],[128.25912,37.41667],[128.25927,37.41644],[128.26071,37.41539],[128.26119,37.41484],[128.26455,37.41011],[128.26485,37.40961],[128.26564,37.40799],[128.26436,37.40688],[128.2637,37.40664],[128.26274,37.40658],[128.26209,37.40629],[128.26059,37.40499],[128.25968,37.40362],[128.25877,37.40208],[128.25848,37.40106],[128.25863,37.39995],[128.25854,37.3988],[128.25813,37.39751],[128.25764,37.39656],[128.25664,37.39526],[128.25634,37.39487],[128.2552,37.39376],[128.25484,37.39347],[128.25448,37.39344],[128.25064,37.39368],[128.247,37.39377],[128.24609,37.39378],[128.24576,37.39375],[128.2409,37.39128],[128.24081,37.39123],[128.24076,37.39119],[128.23937,37.39025],[128.23924,37.39013],[128.23918,37.39005],[128.23912,37.38981],[128.23902,37.3897],[128.23672,37.3882],[128.23658,37.38816],[128.23637,37.38812],[128.23627,37.38816],[128.23565,37.38852],[128.23481,37.38902],[128.23463,37.38932],[128.23448,37.38949],[128.23437,37.38955],[128.23297,37.39001],[128.23285,37.39004],[128.2312,37.3899],[128.22991,37.38978],[128.22951,37.38979],[128.22929,37.38984],[128.22892,37.38999],[128.22779,37.39095],[128.22661,37.39188],[128.22618,37.39221],[128.22583,37.3924],[128.22558,37.39251],[128.22397,37.3932],[128.22122,37.39409],[128.22108,37.39412],[128.22097,37.39414],[128.22069,37.39414],[128.22042,37.39414],[128.21988,37.394],[128.21961,37.3939],[128.21954,37.39385],[128.21946,37.39379],[128.21902,37.39343],[128.2186,37.39319],[128.21676,37.39267],[128.21645,37.39259],[128.21577,37.39259],[128.21548,37.39259],[128.21519,37.3926],[128.21397,37.3928],[128.21387,37.39289],[128.21371,37.39316],[128.21358,37.39348],[128.21338,37.39381],[128.21312,37.39416],[128.21292,37.39434],[128.21277,37.39438],[128.21015,37.39486],[128.20928,37.39497],[128.20919,37.39497],[128.2091,37.39497],[128.2088,37.39489],[128.20776,37.39453],[128.20754,37.39445],[128.20729,37.39436],[128.20472,37.39331],[128.20452,37.39319],[128.20438,37.3931],[128.20315,37.39228],[128.20174,37.39137],[128.20089,37.39081],[128.20079,37.39079],[128.19385,37.39024],[128.18928,37.39138],[128.18914,37.39144],[128.18807,37.39223],[128.18787,37.3924],[128.184,37.39077],[128.17983,37.38794],[128.17968,37.38783],[128.17956,37.38773],[128.17953,37.38771],[128.17942,37.38751],[128.17877,37.38588],[128.17877,37.38581],[128.17966,37.38297],[128.1798,37.38285],[128.18,37.38266],[128.18008,37.3826],[128.18016,37.38254],[128.18034,37.3823],[128.18056,37.382],[128.1806,37.38194],[128.1806,37.3819],[128.18018,37.38114],[128.17976,37.38065],[128.17958,37.38059],[128.1793,37.38049],[128.17909,37.38041],[128.17727,37.37962],[128.17648,37.37917],[128.17622,37.37896],[128.17593,37.37868],[128.17564,37.37847],[128.17543,37.37835],[128.17518,37.37823],[128.17325,37.37759],[128.17296,37.37752],[128.16635,37.37658],[128.16623,37.37658],[128.16615,37.37661],[128.16606,37.37664],[128.16585,37.37673],[128.16572,37.37679],[128.16561,37.37689],[128.16555,37.377],[128.1655,37.37715],[128.16544,37.37742],[128.16541,37.3776],[128.16541,37.37783],[128.16544,37.37839],[128.16535,37.37861],[128.16511,37.37887],[128.159,37.3839],[128.15876,37.38393],[128.15368,37.38395],[128.15327,37.38394],[128.15222,37.38368],[128.15098,37.38329],[128.1457,37.38236],[128.14133,37.38172],[128.13947,37.38209],[128.1374,37.38331],[128.13713,37.38354],[128.13593,37.38472],[128.13361,37.38679],[128.13067,37.38924],[128.12508,37.39256],[128.125,37.3926],[128.12417,37.39286],[128.12411,37.39286],[128.12403,37.39284],[128.12398,37.3928],[128.12327,37.39213],[128.12306,37.39184],[128.12292,37.39158],[128.1228,37.39131],[128.12156,37.39069],[128.12042,37.39023],[128.11984,37.39027],[128.1182,37.39117],[128.11628,37.39176],[128.11431,37.39179],[128.11117,37.3917],[128.11051,37.39191],[128.10482,37.39435],[128.10298,37.39558],[128.10088,37.39798],[128.10006,37.39945],[128.0983,37.40303],[128.09777,37.40466],[128.09697,37.40608],[128.10107,37.40611],[128.10271,37.40625],[128.1031,37.40633],[128.1075,37.40605],[128.10789,37.40576],[128.10864,37.40541],[128.10901,37.40538],[128.10926,37.40535],[128.10957,37.40548],[128.11347,37.40707],[128.11393,37.40779],[128.11488,37.40982],[128.11486,37.41107],[128.11468,37.41291],[128.11386,37.41357],[128.11345,37.414],[128.11335,37.41427],[128.11334,37.41462],[128.11407,37.41668],[128.11431,37.41694],[128.11607,37.41791],[128.11707,37.41801],[128.11787,37.4181],[128.11855,37.41811],[128.1194,37.41812],[128.1228,37.41866],[128.12524,37.42029],[128.12526,37.42041],[128.1252,37.42094],[128.12498,37.42245],[128.12495,37.42259],[128.1248,37.42281],[128.12426,37.42355],[128.12385,37.42397],[128.12363,37.42419],[128.12298,37.42675],[128.12647,37.42919],[128.1292,37.4331],[128.12964,37.43469],[128.13,37.436],[128.13145,37.4361],[128.13326,37.43622],[128.13381,37.43636],[128.13426,37.43648],[128.13479,37.43662],[128.13545,37.43681],[128.13653,37.43718],[128.1366,37.43722],[128.13663,37.43724],[128.13915,37.43997],[128.14148,37.4429],[128.14149,37.44294],[128.1415,37.44304],[128.1415,37.44315],[128.14146,37.44365],[128.14069,37.44646],[128.13975,37.44899],[128.13949,37.44941],[128.13943,37.44956],[128.13943,37.44964],[128.13951,37.44985],[128.13965,37.45014],[128.14006,37.45092],[128.14034,37.45175],[128.14077,37.45313],[128.14079,37.45321],[128.14093,37.45415],[128.14094,37.45425],[128.14089,37.45435],[128.14065,37.45465],[128.14055,37.45472],[128.13961,37.45532],[128.13957,37.45534],[128.13954,37.45536],[128.1394,37.4554],[128.13744,37.45575],[128.13482,37.45708],[128.13305,37.45855],[128.12742,37.45978],[128.12737,37.45981],[128.12731,37.45984],[128.12168,37.46318],[128.12137,37.46338],[128.12104,37.4636],[128.12066,37.46469],[128.11933,37.46931],[128.11956,37.47004],[128.12066,37.47194],[128.12173,37.47145],[128.1231,37.47094],[128.12883,37.46988],[128.12939,37.46982],[128.12945,37.46981],[128.13183,37.46983],[128.13195,37.46985],[128.13208,37.46986],[128.13228,37.4699],[128.13247,37.46994],[128.13254,37.46998],[128.13256,37.47002],[128.13257,37.47006],[128.13255,37.47015],[128.13232,37.4724],[128.13234,37.47457],[128.13239,37.47531],[128.1324,37.47548],[128.13242,37.47553],[128.13245,37.47556],[128.1325,37.47557],[128.13255,37.47557],[128.13273,37.47557],[128.133,37.47556],[128.13324,37.47554],[128.13333,37.47553],[128.13342,37.47551],[128.13351,37.47548],[128.13367,37.47542],[128.13381,37.47535],[128.13387,37.47531],[128.13392,37.47528],[128.13412,37.47518],[128.13424,37.47513],[128.13439,37.4751],[128.13448,37.47509],[128.13464,37.47508],[128.13483,37.47506],[128.13494,37.47506],[128.13504,37.47506],[128.13526,37.47507],[128.13545,37.4751],[128.13574,37.47518],[128.14115,37.47723],[128.14423,37.47919],[128.14428,37.47942],[128.14431,37.47967],[128.14451,37.47994],[128.14469,37.48013],[128.14581,37.48066],[128.14599,37.48067],[128.14632,37.48045],[128.14645,37.48032],[128.15136,37.47706]]]]}},{"type":"Feature","properties":{"code":"51730330","name":"둔내면","parent":"51730"},"geometry":{"type":"MultiPolygon","coordinates":[[[[128.29921,37.51158],[128.29858,37.51176],[128.29668,37.512],[128.29598,37.51198],[128.29476,37.51184],[128.29421,37.51177],[128.294,37.51171],[128.29316,37.51146],[128.29272,37.5113],[128.29215,37.51098],[128.29162,37.51043],[128.29124,37.50997],[128.29122,37.50948],[128.29123,37.5084],[128.29112,37.50799],[128.29102,37.50787],[128.2906,37.50779],[128.29008,37.50776],[128.28854,37.50771],[128.28712,37.50758],[128.28663,37.50752],[128.28608,37.50732],[128.28502,37.50603],[128.28447,37.50526],[128.28397,37.50475],[128.28389,37.50467],[128.28328,37.50405],[128.282,37.50392],[128.28142,37.50395],[128.27892,37.50282],[128.2778,37.502],[128.27716,37.50148],[128.27662,37.50104],[128.27372,37.49735],[128.27144,37.49513],[128.26847,37.49225],[128.26812,37.49159],[128.26706,37.48862],[128.267,37.4881],[128.26691,37.48715],[128.26652,37.48672],[128.26426,37.48493],[128.26367,37.48466],[128.2611,37.48438],[128.2596,37.48382],[128.2573,37.48273],[128.25485,37.48149],[128.25351,37.48087],[128.25169,37.48068],[128.24845,37.48048],[128.24486,37.48007],[128.24351,37.47982],[128.24382,37.47938],[128.24533,37.47779],[128.2456,37.4773],[128.24567,37.47685],[128.24575,37.47558],[128.24548,37.47128],[128.24469,37.46669],[128.2446,37.46628],[128.24474,37.46529],[128.24565,37.46229],[128.24574,37.46199],[128.24694,37.46082],[128.24696,37.46076],[128.24706,37.46053],[128.24718,37.46025],[128.2471,37.45972],[128.24657,37.45832],[128.24575,37.45699],[128.24548,37.45523],[128.24561,37.4547],[128.24498,37.45486],[128.24087,37.45533],[128.24024,37.4554],[128.24012,37.4554],[128.24004,37.45534],[128.23981,37.45503],[128.23964,37.45478],[128.2395,37.45458],[128.23938,37.45441],[128.2392,37.45424],[128.23773,37.45306],[128.23759,37.45298],[128.2374,37.45294],[128.23166,37.45242],[128.23152,37.45242],[128.22858,37.45296],[128.22839,37.45299],[128.22827,37.45306],[128.22812,37.45321],[128.22763,37.45368],[128.22732,37.45389],[128.22708,37.45402],[128.22579,37.45431],[128.22567,37.45433],[128.22556,37.45433],[128.21807,37.45403],[128.21573,37.45305],[128.2156,37.45297],[128.21308,37.45178],[128.21277,37.45169],[128.21197,37.45161],[128.21188,37.45161],[128.21177,37.45164],[128.21169,37.45167],[128.21161,37.45171],[128.21122,37.45198],[128.21106,37.45205],[128.2109,37.45208],[128.20992,37.45217],[128.20987,37.45217],[128.20718,37.45124],[128.20664,37.45103],[128.20649,37.45096],[128.20645,37.45091],[128.20641,37.45072],[128.20638,37.45048],[128.20627,37.45026],[128.2061,37.45014],[128.20415,37.44927],[128.20402,37.44924],[128.20134,37.44882],[128.20097,37.44881],[128.19779,37.44935],[128.19388,37.45005],[128.19371,37.45009],[128.19265,37.4504],[128.19253,37.45044],[128.19245,37.45047],[128.18705,37.45305],[128.18297,37.45516],[128.18267,37.45538],[128.18241,37.45563],[128.18136,37.45714],[128.18114,37.45749],[128.18107,37.45771],[128.18106,37.4578],[128.18104,37.4579],[128.18103,37.45796],[128.18082,37.46082],[128.18065,37.46528],[128.18121,37.46706],[128.18199,37.46861],[128.18222,37.46913],[128.18225,37.46921],[128.18179,37.46969],[128.18154,37.46988],[128.18091,37.47027],[128.18067,37.47038],[128.17752,37.47298],[128.17638,37.47468],[128.1763,37.47479],[128.1762,37.47488],[128.1754,37.47554],[128.17461,37.47598],[128.17157,37.4765],[128.17044,37.47659],[128.17031,37.47657],[128.16943,37.47627],[128.16881,37.47601],[128.1686,37.47593],[128.16695,37.47465],[128.16238,37.47274],[128.15875,37.47094],[128.1587,37.4708],[128.15864,37.4707],[128.15851,37.47058],[128.15837,37.47056],[128.15815,37.47055],[128.15715,37.47063],[128.15698,37.47065],[128.15142,37.47156],[128.15103,37.47166],[128.15073,37.47182],[128.15048,37.47207],[128.15025,37.47237],[128.14984,37.47337],[128.14981,37.47354],[128.14984,37.4737],[128.15014,37.47478],[128.15112,37.47666],[128.15136,37.47706],[128.15325,37.47812],[128.15748,37.48123],[128.15758,37.48132],[128.15836,37.4821],[128.15843,37.48217],[128.16051,37.48436],[128.16102,37.48545],[128.16105,37.48554],[128.16105,37.48558],[128.16092,37.48585],[128.15719,37.49183],[128.15647,37.49198],[128.15588,37.4921],[128.15576,37.49214],[128.15566,37.4922],[128.15552,37.49236],[128.15453,37.49364],[128.15332,37.49521],[128.1528,37.49606],[128.15278,37.49613],[128.15266,37.49702],[128.1525,37.49785],[128.15246,37.49797],[128.15243,37.49801],[128.1523,37.49807],[128.15217,37.49814],[128.15206,37.49818],[128.15188,37.49825],[128.15177,37.49826],[128.15171,37.49825],[128.15161,37.49823],[128.14889,37.49672],[128.14776,37.496],[128.14423,37.49527],[128.14414,37.49526],[128.14405,37.49524],[128.14389,37.49524],[128.1438,37.49525],[128.14371,37.49528],[128.14363,37.49531],[128.14354,37.49536],[128.14347,37.4954],[128.14343,37.49546],[128.1434,37.49551],[128.14256,37.49769],[128.14256,37.49785],[128.14291,37.4987],[128.14391,37.5004],[128.14626,37.50234],[128.14624,37.50728],[128.14621,37.5075],[128.14569,37.5079],[128.14539,37.50799],[128.14477,37.5081],[128.14438,37.50825],[128.14306,37.50897],[128.13903,37.51262],[128.13873,37.5129],[128.13852,37.51316],[128.13844,37.51355],[128.13805,37.51874],[128.13815,37.51962],[128.13838,37.51989],[128.1397,37.52139],[128.14148,37.51936],[128.14216,37.51799],[128.1423,37.51762],[128.14234,37.51736],[128.14233,37.51691],[128.14268,37.51643],[128.1433,37.51585],[128.14585,37.51435],[128.14629,37.51413],[128.14649,37.51411],[128.1467,37.5141],[128.14706,37.51417],[128.14728,37.51428],[128.14747,37.51447],[128.14785,37.51504],[128.14803,37.51528],[128.14824,37.51545],[128.14858,37.51554],[128.14878,37.51551],[128.14898,37.51548],[128.14959,37.51515],[128.15,37.51476],[128.15041,37.51421],[128.15067,37.5137],[128.15096,37.51276],[128.15345,37.51127],[128.15404,37.51093],[128.15569,37.51055],[128.15652,37.51165],[128.15715,37.51165],[128.15933,37.51069],[128.16472,37.50862],[128.17128,37.50623],[128.1764,37.50772],[128.17982,37.50721],[128.18292,37.50718],[128.18332,37.50722],[128.18363,37.50725],[128.18443,37.50748],[128.18487,37.50768],[128.18493,37.50779],[128.18502,37.50794],[128.18506,37.50824],[128.18503,37.50874],[128.18515,37.50938],[128.18534,37.51028],[128.18546,37.51075],[128.18563,37.51131],[128.18601,37.51198],[128.18624,37.51229],[128.18932,37.51434],[128.19281,37.51706],[128.19365,37.51777],[128.19445,37.51851],[128.19471,37.51893],[128.19481,37.51953],[128.19503,37.52084],[128.19486,37.52166],[128.19425,37.52262],[128.19387,37.5229],[128.19368,37.52295],[128.19353,37.523],[128.19308,37.52306],[128.19267,37.52329],[128.19245,37.52356],[128.19212,37.52406],[128.19192,37.52445],[128.19152,37.52603],[128.19145,37.5264],[128.19143,37.52659],[128.19172,37.5322],[128.19189,37.53263],[128.19213,37.53286],[128.19498,37.53339],[128.19606,37.53369],[128.19672,37.53389],[128.19741,37.53411],[128.19765,37.53425],[128.19789,37.53441],[128.19812,37.53465],[128.19924,37.53615],[128.20002,37.5372],[128.20025,37.53754],[128.20049,37.53773],[128.20069,37.53786],[128.20149,37.53822],[128.20471,37.53947],[128.20642,37.54009],[128.20729,37.5405],[128.20795,37.5412],[128.20941,37.54362],[128.20917,37.54751],[128.20911,37.54784],[128.20902,37.54804],[128.20893,37.5482],[128.20886,37.54827],[128.20869,37.54842],[128.20812,37.54886],[128.20775,37.54932],[128.20768,37.5496],[128.20772,37.54977],[128.20787,37.55017],[128.20815,37.55074],[128.21405,37.55486],[128.21426,37.555],[128.21446,37.55511],[128.21459,37.55514],[128.21517,37.55519],[128.21569,37.55516],[128.21607,37.55533],[128.21626,37.55566],[128.21826,37.56227],[128.21871,37.56379],[128.21876,37.565],[128.21874,37.56601],[128.21886,37.56644],[128.22156,37.56974],[128.22232,37.57055],[128.22264,37.5707],[128.22378,37.57073],[128.22422,37.57051],[128.22498,37.57036],[128.22806,37.57032],[128.22824,37.57034],[128.22832,37.57039],[128.22843,37.57052],[128.22851,37.57063],[128.22863,37.57082],[128.23079,37.57605],[128.23077,37.57946],[128.2308,37.57973],[128.23135,37.58116],[128.23148,37.5815],[128.23241,37.58206],[128.23302,37.58226],[128.23345,37.58234],[128.23408,37.5823],[128.23643,37.58213],[128.23824,37.58163],[128.24388,37.58095],[128.24433,37.58105],[128.24648,37.5819],[128.2478,37.58251],[128.24839,37.58252],[128.249,37.58227],[128.2501,37.58208],[128.2508,37.58204],[128.25103,37.58211],[128.25146,37.58224],[128.25175,37.58234],[128.25293,37.58283],[128.25628,37.58444],[128.25692,37.5848],[128.25887,37.58644],[128.25708,37.58858],[128.25551,37.59],[128.25538,37.59072],[128.25555,37.59124],[128.25582,37.59149],[128.25623,37.5919],[128.25659,37.59303],[128.25677,37.59366],[128.25684,37.59447],[128.25629,37.59638],[128.25582,37.59716],[128.25567,37.59733],[128.25543,37.5975],[128.25518,37.59753],[128.25507,37.59751],[128.24945,37.59495],[128.24925,37.59479],[128.24822,37.59386],[128.24771,37.59324],[128.24684,37.59278],[128.24619,37.59271],[128.24529,37.59268],[128.24341,37.59262],[128.24249,37.59294],[128.24224,37.59316],[128.2422,37.59357],[128.2446,37.59611],[128.24479,37.5963],[128.24534,37.59671],[128.24626,37.59731],[128.24782,37.5984],[128.24963,37.60098],[128.25021,37.60229],[128.25053,37.60288],[128.25109,37.60355],[128.25233,37.60433],[128.25309,37.60562],[128.25495,37.60972],[128.25641,37.6145],[128.25654,37.61548],[128.25659,37.6167],[128.25648,37.61746],[128.25587,37.61841],[128.25526,37.61913],[128.25459,37.62036],[128.25439,37.62091],[128.25345,37.62428],[128.25351,37.62497],[128.25399,37.62606],[128.25413,37.62638],[128.25415,37.62704],[128.25345,37.62773],[128.25477,37.62946],[128.25567,37.62912],[128.25644,37.62838],[128.25678,37.6278],[128.25645,37.62644],[128.25635,37.62577],[128.25639,37.62529],[128.2566,37.62512],[128.25989,37.62529],[128.26171,37.62549],[128.26532,37.62488],[128.26607,37.62451],[128.26877,37.623],[128.27447,37.62029],[128.27618,37.61971],[128.27939,37.6194],[128.28308,37.61963],[128.2832,37.61943],[128.28334,37.61919],[128.28335,37.61886],[128.28297,37.61818],[128.28104,37.61594],[128.27994,37.6149],[128.27977,37.61478],[128.27933,37.61443],[128.27918,37.61417],[128.27895,37.61186],[128.27891,37.61135],[128.27912,37.60999],[128.28031,37.6061],[128.28059,37.60521],[128.28066,37.60509],[128.28087,37.6048],[128.28123,37.6045],[128.28172,37.60434],[128.28249,37.60409],[128.28348,37.60384],[128.28415,37.6036],[128.28506,37.60293],[128.28556,37.60246],[128.28584,37.60188],[128.28584,37.60182],[128.28585,37.6016],[128.28578,37.60129],[128.28561,37.60107],[128.28515,37.60076],[128.28393,37.60019],[128.28345,37.60001],[128.2825,37.59972],[128.28222,37.59958],[128.28101,37.59851],[128.28035,37.5979],[128.28007,37.59742],[128.27946,37.59571],[128.27941,37.59385],[128.27951,37.59351],[128.27973,37.59307],[128.28033,37.59248],[128.28072,37.59215],[128.281,37.59187],[128.28125,37.59157],[128.28254,37.58873],[128.28279,37.58756],[128.283,37.58703],[128.2836,37.58672],[128.28409,37.58648],[128.28445,37.58617],[128.28537,37.58492],[128.28566,37.58395],[128.28577,37.58308],[128.28568,37.58205],[128.28534,37.58089],[128.28527,37.58081],[128.28475,37.58018],[128.28465,37.57974],[128.28459,37.57893],[128.28459,37.57837],[128.28516,37.57784],[128.28522,37.57781],[128.28579,37.57746],[128.28646,37.57724],[128.2872,37.5771],[128.28776,37.5768],[128.29023,37.57483],[128.29112,37.57392],[128.29445,37.56943],[128.29461,37.5692],[128.29473,37.56901],[128.29564,37.56557],[128.29608,37.56304],[128.29639,37.56054],[128.29643,37.55978],[128.29626,37.55903],[128.2962,37.55839],[128.2962,37.55813],[128.29656,37.5573],[128.29762,37.55609],[128.29801,37.55564],[128.29826,37.55531],[128.29829,37.55498],[128.29795,37.5543],[128.29681,37.55246],[128.29564,37.55033],[128.29554,37.54999],[128.29467,37.54548],[128.29481,37.54475],[128.29499,37.54409],[128.29623,37.5426],[128.29775,37.54127],[128.29933,37.53994],[128.30078,37.53888],[128.30184,37.53843],[128.30216,37.53818],[128.30212,37.53795],[128.30164,37.53739],[128.30112,37.53686],[128.30039,37.53607],[128.30012,37.53543],[128.29991,37.53484],[128.29991,37.53454],[128.30006,37.53418],[128.30045,37.5334],[128.3014,37.53263],[128.30193,37.53221],[128.30218,37.53191],[128.3024,37.53102],[128.30227,37.52982],[128.30151,37.52503],[128.30093,37.52332],[128.30041,37.52307],[128.3001,37.52273],[128.29934,37.52175],[128.29765,37.51878],[128.29748,37.51828],[128.29742,37.5175],[128.29788,37.51677],[128.29867,37.5141],[128.29921,37.51158]]]]}},{"type":"Feature","properties":{"code":"51730340","name":"갑천면","parent":"51730"},"geometry":{"type":"MultiPolygon","coordinates":[[[[128.10152,37.65059],[128.10126,37.6492],[128.10107,37.64886],[128.10067,37.64843],[128.1001,37.64799],[128.09953,37.64755],[128.09832,37.64587],[128.0978,37.64474],[128.09761,37.64422],[128.09763,37.64392],[128.09797,37.64336],[128.09915,37.6423],[128.09927,37.64217],[128.09996,37.64123],[128.10029,37.64073],[128.10028,37.64038],[128.10011,37.63993],[128.0988,37.63819],[128.09851,37.63747],[128.09814,37.63607],[128.09804,37.62867],[128.1012,37.62538],[128.10303,37.62367],[128.1075,37.62162],[128.10856,37.62116],[128.10895,37.62113],[128.10934,37.62109],[128.11031,37.62092],[128.11059,37.62083],[128.11086,37.62074],[128.11377,37.61957],[128.11426,37.61932],[128.11471,37.61909],[128.11626,37.61771],[128.11654,37.6174],[128.11599,37.61597],[128.11378,37.61358],[128.11359,37.61293],[128.11307,37.61102],[128.11308,37.60898],[128.11317,37.6084],[128.11391,37.60741],[128.11533,37.60619],[128.11544,37.6061],[128.11557,37.60599],[128.11734,37.60423],[128.11795,37.60358],[128.11959,37.6014],[128.11971,37.60116],[128.11984,37.6009],[128.1206,37.59714],[128.12056,37.59679],[128.12054,37.59667],[128.1201,37.59603],[128.11915,37.59582],[128.11827,37.59558],[128.11756,37.59538],[128.11504,37.59444],[128.11434,37.59372],[128.11426,37.59271],[128.11454,37.59117],[128.11461,37.59075],[128.11464,37.59056],[128.11418,37.58985],[128.11306,37.58868],[128.11311,37.58488],[128.11313,37.58461],[128.1129,37.58412],[128.11236,37.58335],[128.11213,37.58145],[128.1122,37.58087],[128.11265,37.58017],[128.11321,37.57947],[128.11355,37.5788],[128.11397,37.57732],[128.11403,37.57641],[128.11389,37.57574],[128.11358,37.57541],[128.1135,37.57532],[128.11362,37.57476],[128.11384,37.57382],[128.11413,37.57346],[128.11797,37.57009],[128.11854,37.56968],[128.11898,37.56936],[128.11982,37.56889],[128.12003,37.56893],[128.12033,37.56898],[128.12222,37.56846],[128.12213,37.5673],[128.12229,37.56534],[128.1224,37.56435],[128.12281,37.56335],[128.12607,37.56034],[128.13135,37.55622],[128.1316,37.55607],[128.13206,37.5559],[128.1365,37.55412],[128.13679,37.55375],[128.13814,37.55218],[128.13946,37.55084],[128.13962,37.55072],[128.13977,37.5506],[128.14003,37.55052],[128.14048,37.55056],[128.14234,37.55093],[128.14761,37.5528],[128.14794,37.55295],[128.14808,37.55305],[128.14832,37.55329],[128.14847,37.55356],[128.14853,37.55389],[128.14868,37.55548],[128.14859,37.5559],[128.1487,37.55686],[128.14902,37.55724],[128.14947,37.55763],[128.14974,37.55775],[128.15016,37.55794],[128.15082,37.55801],[128.15402,37.55836],[128.15406,37.55836],[128.1541,37.55836],[128.15435,37.55835],[128.15455,37.55835],[128.15502,37.55828],[128.15544,37.55814],[128.15559,37.55805],[128.15571,37.55798],[128.15599,37.55774],[128.15616,37.55747],[128.15814,37.556],[128.1609,37.5545],[128.16415,37.55299],[128.16649,37.55082],[128.1666,37.55058],[128.16667,37.55045],[128.16683,37.55028],[128.16932,37.54788],[128.16958,37.54772],[128.16969,37.54767],[128.16981,37.5476],[128.17021,37.54746],[128.171,37.54731],[128.17144,37.54733],[128.17189,37.54722],[128.1722,37.54707],[128.17244,37.54688],[128.17517,37.5447],[128.17536,37.54451],[128.17543,37.54443],[128.17557,37.54421],[128.17586,37.54364],[128.17625,37.54288],[128.17638,37.54275],[128.1765,37.54261],[128.17667,37.54244],[128.177,37.5422],[128.17753,37.54191],[128.17866,37.54143],[128.18274,37.53984],[128.18895,37.53781],[128.1898,37.53762],[128.19027,37.53756],[128.19066,37.53752],[128.19179,37.53725],[128.19201,37.53713],[128.19222,37.537],[128.19352,37.53618],[128.19345,37.53583],[128.19309,37.53418],[128.19258,37.53348],[128.19213,37.53286],[128.19189,37.53263],[128.19172,37.5322],[128.19143,37.52659],[128.19145,37.5264],[128.19152,37.52603],[128.19192,37.52445],[128.19212,37.52406],[128.19245,37.52356],[128.19267,37.52329],[128.19308,37.52306],[128.19353,37.523],[128.19368,37.52295],[128.19387,37.5229],[128.19425,37.52262],[128.19486,37.52166],[128.19503,37.52084],[128.19481,37.51953],[128.19471,37.51893],[128.19445,37.51851],[128.19365,37.51777],[128.19281,37.51706],[128.18932,37.51434],[128.18624,37.51229],[128.18601,37.51198],[128.18563,37.51131],[128.18546,37.51075],[128.18534,37.51028],[128.18515,37.50938],[128.18503,37.50874],[128.18506,37.50824],[128.18502,37.50794],[128.18493,37.50779],[128.18487,37.50768],[128.18443,37.50748],[128.18363,37.50725],[128.18332,37.50722],[128.18292,37.50718],[128.17982,37.50721],[128.1764,37.50772],[128.17128,37.50623],[128.16472,37.50862],[128.15933,37.51069],[128.15715,37.51165],[128.15652,37.51165],[128.15569,37.51055],[128.15404,37.51093],[128.15345,37.51127],[128.15096,37.51276],[128.15067,37.5137],[128.15041,37.51421],[128.15,37.51476],[128.14959,37.51515],[128.14898,37.51548],[128.14878,37.51551],[128.14858,37.51554],[128.14824,37.51545],[128.14803,37.51528],[128.14785,37.51504],[128.14747,37.51447],[128.14728,37.51428],[128.14706,37.51417],[128.1467,37.5141],[128.14649,37.51411],[128.14629,37.51413],[128.14585,37.51435],[128.1433,37.51585],[128.14268,37.51643],[128.14233,37.51691],[128.14234,37.51736],[128.1423,37.51762],[128.14216,37.51799],[128.14148,37.51936],[128.1397,37.52139],[128.14113,37.52427],[128.14113,37.52462],[128.14089,37.52495],[128.14051,37.52507],[128.13993,37.52529],[128.13781,37.52614],[128.13538,37.52821],[128.1353,37.52845],[128.13442,37.5297],[128.13414,37.53002],[128.13159,37.53038],[128.12862,37.53042],[128.1277,37.53103],[128.1273,37.53126],[128.12568,37.53185],[128.12542,37.53181],[128.12536,37.5318],[128.12507,37.5316],[128.12483,37.53142],[128.12454,37.5308],[128.12445,37.53037],[128.12437,37.53007],[128.12414,37.52972],[128.12359,37.52929],[128.12216,37.52832],[128.12142,37.52798],[128.12126,37.52797],[128.12021,37.52791],[128.11959,37.52809],[128.11908,37.52851],[128.11861,37.52897],[128.11792,37.52935],[128.11695,37.52982],[128.11486,37.5308],[128.11398,37.53108],[128.11283,37.53112],[128.11226,37.53091],[128.11207,37.53012],[128.11224,37.52814],[128.11202,37.5277],[128.10997,37.52634],[128.10977,37.52632],[128.10832,37.52528],[128.10746,37.52408],[128.10561,37.52174],[128.10541,37.52159],[128.10449,37.52102],[128.10163,37.51989],[128.10112,37.52001],[128.10069,37.5203],[128.10009,37.52067],[128.09948,37.52076],[128.0957,37.521],[128.09529,37.52101],[128.09422,37.52071],[128.09293,37.52038],[128.09248,37.52029],[128.09161,37.52016],[128.09077,37.52037],[128.08939,37.52194],[128.08831,37.52347],[128.08776,37.52398],[128.08415,37.5257],[128.08144,37.52582],[128.08086,37.52558],[128.08048,37.52491],[128.08065,37.52431],[128.08086,37.52357],[128.08079,37.52269],[128.08057,37.52206],[128.0791,37.51908],[128.07862,37.5183],[128.07587,37.51669],[128.07527,37.51641],[128.07474,37.51634],[128.07357,37.51658],[128.07304,37.51701],[128.07279,37.51727],[128.07267,37.5176],[128.07281,37.5192],[128.07268,37.52001],[128.0722,37.52035],[128.07164,37.5206],[128.07123,37.52069],[128.07078,37.52071],[128.0599,37.521],[128.0566,37.51997],[128.05506,37.51932],[128.05403,37.51908],[128.05341,37.51921],[128.05276,37.51947],[128.0518,37.51982],[128.05086,37.51973],[128.05048,37.51924],[128.05008,37.51856],[128.04916,37.51759],[128.04838,37.51705],[128.04745,37.51664],[128.04712,37.51693],[128.04678,37.51744],[128.04596,37.51936],[128.04597,37.51975],[128.04656,37.5217],[128.04677,37.5221],[128.04701,37.52246],[128.04752,37.52312],[128.04766,37.52349],[128.04769,37.52373],[128.04751,37.52634],[128.04741,37.52652],[128.04642,37.52791],[128.04379,37.53072],[128.04436,37.5312],[128.04458,37.53163],[128.04465,37.53197],[128.04451,37.53387],[128.04424,37.53578],[128.04408,37.53645],[128.0421,37.5432],[128.04133,37.54307],[128.04093,37.54296],[128.04055,37.54279],[128.04006,37.54253],[128.03969,37.54224],[128.0396,37.54213],[128.03947,37.54199],[128.03935,37.54175],[128.03927,37.54148],[128.03926,37.54116],[128.03942,37.54101],[128.03958,37.54086],[128.03983,37.5406],[128.03997,37.54014],[128.03987,37.53958],[128.0397,37.53915],[128.03921,37.53846],[128.03862,37.53793],[128.03823,37.53767],[128.03736,37.53736],[128.03656,37.5372],[128.0356,37.53714],[128.03539,37.53712],[128.03473,37.53713],[128.03393,37.5373],[128.03345,37.5374],[128.0328,37.53766],[128.03257,37.5378],[128.0275,37.54172],[128.02629,37.54304],[128.02564,37.54406],[128.02546,37.54449],[128.02534,37.54476],[128.02487,37.54603],[128.02455,37.54646],[128.024,37.5467],[128.02355,37.54674],[128.02271,37.54652],[128.02114,37.54602],[128.01955,37.54547],[128.01807,37.54496],[128.01681,37.54431],[128.01617,37.5436],[128.01587,37.54299],[128.0156,37.54235],[128.01546,37.54095],[128.01452,37.542],[128.01404,37.54268],[128.01403,37.54333],[128.01458,37.54466],[128.01538,37.54596],[128.01506,37.54658],[128.0147,37.5472],[128.0143,37.54819],[128.01413,37.54887],[128.01448,37.54949],[128.01529,37.54984],[128.01569,37.55005],[128.01615,37.5507],[128.01618,37.55145],[128.01598,37.55225],[128.01566,37.55271],[128.01362,37.55547],[128.01307,37.55584],[128.01174,37.55648],[128.01139,37.55719],[128.01138,37.55722],[128.01136,37.5573],[128.01125,37.55803],[128.01124,37.55902],[128.0134,37.56593],[128.01443,37.56808],[128.01508,37.56842],[128.0159,37.56877],[128.01707,37.57246],[128.01706,37.57351],[128.01728,37.57426],[128.01798,37.57482],[128.01902,37.57533],[128.01996,37.57534],[128.02081,37.57547],[128.02164,37.57639],[128.02166,37.57763],[128.02203,37.57948],[128.02217,37.58015],[128.02287,37.58056],[128.02361,37.58059],[128.02462,37.58079],[128.02544,37.58162],[128.02738,37.58437],[128.02731,37.58473],[128.02664,37.58557],[128.02523,37.58715],[128.02468,37.58761],[128.02323,37.58863],[128.02271,37.58921],[128.02366,37.59243],[128.02401,37.59305],[128.02474,37.59387],[128.02637,37.59435],[128.02854,37.59495],[128.02943,37.59533],[128.0302,37.59605],[128.03128,37.59862],[128.0316,37.60039],[128.03233,37.60176],[128.03433,37.60483],[128.03695,37.60678],[128.03777,37.60719],[128.03791,37.60784],[128.03738,37.60823],[128.03702,37.60891],[128.03724,37.61021],[128.04232,37.6181],[128.04648,37.62097],[128.04789,37.62109],[128.05213,37.622],[128.05189,37.62248],[128.05139,37.62362],[128.05106,37.62464],[128.05094,37.62514],[128.05105,37.62579],[128.05201,37.62673],[128.05282,37.62698],[128.05375,37.62739],[128.05416,37.62797],[128.0541,37.62827],[128.05373,37.62895],[128.05239,37.63096],[128.0534,37.63145],[128.05813,37.63293],[128.06661,37.63583],[128.06741,37.63614],[128.06758,37.63631],[128.06763,37.63654],[128.06751,37.63676],[128.06722,37.6372],[128.06679,37.63761],[128.0667,37.63811],[128.06694,37.64078],[128.06701,37.64108],[128.06736,37.64148],[128.07233,37.64321],[128.07523,37.64445],[128.07538,37.64454],[128.07619,37.64635],[128.07714,37.64872],[128.07856,37.65171],[128.07936,37.65221],[128.07973,37.65232],[128.08063,37.65233],[128.08291,37.65218],[128.084,37.65198],[128.08846,37.65193],[128.09353,37.65319],[128.09414,37.65314],[128.0957,37.65294],[128.09805,37.65218],[128.09839,37.65185],[128.10152,37.65059]]]]}},{"type":"Feature","properties":{"code":"51730350","name":"청일면","parent":"51730"},"geometry":{"type":"MultiPolygon","coordinates":[[[[128.25345,37.62773],[128.25415,37.62704],[128.25413,37.62638],[128.25399,37.62606],[128.25351,37.62497],[128.25345,37.62428],[128.25439,37.62091],[128.25459,37.62036],[128.25526,37.61913],[128.25587,37.61841],[128.25648,37.61746],[128.25659,37.6167],[128.25654,37.61548],[128.25641,37.6145],[128.25495,37.60972],[128.25309,37.60562],[128.25233,37.60433],[128.25109,37.60355],[128.25053,37.60288],[128.25021,37.60229],[128.24963,37.60098],[128.24782,37.5984],[128.24626,37.59731],[128.24534,37.59671],[128.24479,37.5963],[128.2446,37.59611],[128.2422,37.59357],[128.24224,37.59316],[128.24249,37.59294],[128.24341,37.59262],[128.24529,37.59268],[128.24619,37.59271],[128.24684,37.59278],[128.24771,37.59324],[128.24822,37.59386],[128.24925,37.59479],[128.24945,37.59495],[128.25507,37.59751],[128.25518,37.59753],[128.25543,37.5975],[128.25567,37.59733],[128.25582,37.59716],[128.25629,37.59638],[128.25684,37.59447],[128.25677,37.59366],[128.25659,37.59303],[128.25623,37.5919],[128.25582,37.59149],[128.25555,37.59124],[128.25538,37.59072],[128.25551,37.59],[128.25708,37.58858],[128.25887,37.58644],[128.25692,37.5848],[128.25628,37.58444],[128.25293,37.58283],[128.25175,37.58234],[128.25146,37.58224],[128.25103,37.58211],[128.2508,37.58204],[128.2501,37.58208],[128.249,37.58227],[128.24839,37.58252],[128.2478,37.58251],[128.24648,37.5819],[128.24433,37.58105],[128.24388,37.58095],[128.23824,37.58163],[128.23643,37.58213],[128.23408,37.5823],[128.23345,37.58234],[128.23302,37.58226],[128.23241,37.58206],[128.23148,37.5815],[128.23135,37.58116],[128.2308,37.57973],[128.23077,37.57946],[128.23079,37.57605],[128.22863,37.57082],[128.22851,37.57063],[128.22843,37.57052],[128.22832,37.57039],[128.22824,37.57034],[128.22806,37.57032],[128.22498,37.57036],[128.22422,37.57051],[128.22378,37.57073],[128.22264,37.5707],[128.22232,37.57055],[128.22156,37.56974],[128.21886,37.56644],[128.21874,37.56601],[128.21876,37.565],[128.21871,37.56379],[128.21826,37.56227],[128.21626,37.55566],[128.21607,37.55533],[128.21569,37.55516],[128.21517,37.55519],[128.21459,37.55514],[128.21446,37.55511],[128.21426,37.555],[128.21405,37.55486],[128.20815,37.55074],[128.20787,37.55017],[128.20772,37.54977],[128.20768,37.5496],[128.20775,37.54932],[128.20812,37.54886],[128.20869,37.54842],[128.20886,37.54827],[128.20893,37.5482],[128.20902,37.54804],[128.20911,37.54784],[128.20917,37.54751],[128.20941,37.54362],[128.20795,37.5412],[128.20729,37.5405],[128.20642,37.54009],[128.20471,37.53947],[128.20149,37.53822],[128.20069,37.53786],[128.20049,37.53773],[128.20025,37.53754],[128.20002,37.5372],[128.19924,37.53615],[128.19812,37.53465],[128.19789,37.53441],[128.19765,37.53425],[128.19741,37.53411],[128.19672,37.53389],[128.19606,37.53369],[128.19498,37.53339],[128.19213,37.53286],[128.19258,37.53348],[128.19309,37.53418],[128.19345,37.53583],[128.19352,37.53618],[128.19222,37.537],[128.19201,37.53713],[128.19179,37.53725],[128.19066,37.53752],[128.19027,37.53756],[128.1898,37.53762],[128.18895,37.53781],[128.18274,37.53984],[128.17866,37.54143],[128.17753,37.54191],[128.177,37.5422],[128.17667,37.54244],[128.1765,37.54261],[128.17638,37.54275],[128.17625,37.54288],[128.17586,37.54364],[128.17557,37.54421],[128.17543,37.54443],[128.17536,37.54451],[128.17517,37.5447],[128.17244,37.54688],[128.1722,37.54707],[128.17189,37.54722],[128.17144,37.54733],[128.171,37.54731],[128.17021,37.54746],[128.16981,37.5476],[128.16969,37.54767],[128.16958,37.54772],[128.16932,37.54788],[128.16683,37.55028],[128.16667,37.55045],[128.1666,37.55058],[128.16649,37.55082],[128.16415,37.55299],[128.1609,37.5545],[128.15814,37.556],[128.15616,37.55747],[128.15599,37.55774],[128.15571,37.55798],[128.15559,37.55805],[128.15544,37.55814],[128.15502,37.55828],[128.15455,37.55835],[128.15435,37.55835],[128.1541,37.55836],[128.15406,37.55836],[128.15402,37.55836],[128.15082,37.55801],[128.15016,37.55794],[128.14974,37.55775],[128.14947,37.55763],[128.14902,37.55724],[128.1487,37.55686],[128.14859,37.5559],[128.14868,37.55548],[128.14853,37.55389],[128.14847,37.55356],[128.14832,37.55329],[128.14808,37.55305],[128.14794,37.55295],[128.14761,37.5528],[128.14234,37.55093],[128.14048,37.55056],[128.14003,37.55052],[128.13977,37.5506],[128.13962,37.55072],[128.13946,37.55084],[128.13814,37.55218],[128.13679,37.55375],[128.1365,37.55412],[128.13206,37.5559],[128.1316,37.55607],[128.13135,37.55622],[128.12607,37.56034],[128.12281,37.56335],[128.1224,37.56435],[128.12229,37.56534],[128.12213,37.5673],[128.12222,37.56846],[128.12033,37.56898],[128.12003,37.56893],[128.11982,37.56889],[128.11898,37.56936],[128.11854,37.56968],[128.11797,37.57009],[128.11413,37.57346],[128.11384,37.57382],[128.11362,37.57476],[128.1135,37.57532],[128.11358,37.57541],[128.11389,37.57574],[128.11403,37.57641],[128.11397,37.57732],[128.11355,37.5788],[128.11321,37.57947],[128.11265,37.58017],[128.1122,37.58087],[128.11213,37.58145],[128.11236,37.58335],[128.1129,37.58412],[128.11313,37.58461],[128.11311,37.58488],[128.11306,37.58868],[128.11418,37.58985],[128.11464,37.59056],[128.11461,37.59075],[128.11454,37.59117],[128.11426,37.59271],[128.11434,37.59372],[128.11504,37.59444],[128.11756,37.59538],[128.11827,37.59558],[128.11915,37.59582],[128.1201,37.59603],[128.12054,37.59667],[128.12056,37.59679],[128.1206,37.59714],[128.11984,37.6009],[128.11971,37.60116],[128.11959,37.6014],[128.11795,37.60358],[128.11734,37.60423],[128.11557,37.60599],[128.11544,37.6061],[128.11533,37.60619],[128.11391,37.60741],[128.11317,37.6084],[128.11308,37.60898],[128.11307,37.61102],[128.11359,37.61293],[128.11378,37.61358],[128.11599,37.61597],[128.11654,37.6174],[128.11626,37.61771],[128.11471,37.61909],[128.11426,37.61932],[128.11377,37.61957],[128.11086,37.62074],[128.11059,37.62083],[128.11031,37.62092],[128.10934,37.62109],[128.10895,37.62113],[128.10856,37.62116],[128.1075,37.62162],[128.10303,37.62367],[128.1012,37.62538],[128.09804,37.62867],[128.09814,37.63607],[128.09851,37.63747],[128.0988,37.63819],[128.10011,37.63993],[128.10028,37.64038],[128.10029,37.64073],[128.09996,37.64123],[128.09927,37.64217],[128.09915,37.6423],[128.09797,37.64336],[128.09763,37.64392],[128.09761,37.64422],[128.0978,37.64474],[128.09832,37.64587],[128.09953,37.64755],[128.1001,37.64799],[128.10067,37.64843],[128.10107,37.64886],[128.10126,37.6492],[128.10152,37.65059],[128.10305,37.65035],[128.10514,37.65012],[128.10567,37.65009],[128.1076,37.6505],[128.10822,37.65067],[128.10902,37.65092],[128.10923,37.65099],[128.10958,37.65119],[128.11194,37.65364],[128.11171,37.65477],[128.11107,37.65491],[128.1107,37.65505],[128.11033,37.65519],[128.10916,37.6558],[128.10817,37.65632],[128.10731,37.65702],[128.10608,37.65934],[128.10602,37.65949],[128.10567,37.66061],[128.10578,37.66153],[128.10604,37.66248],[128.10677,37.66329],[128.10715,37.66357],[128.10743,37.66379],[128.10891,37.66445],[128.11067,37.66519],[128.11164,37.66577],[128.11175,37.66598],[128.11199,37.66962],[128.11219,37.67189],[128.114,37.67396],[128.1178,37.67741],[128.12019,37.67853],[128.12361,37.67887],[128.12424,37.67841],[128.125,37.67784],[128.12637,37.67795],[128.12868,37.6782],[128.12963,37.67844],[128.13149,37.67992],[128.13388,37.68052],[128.13663,37.68111],[128.1377,37.67995],[128.13808,37.6788],[128.13871,37.6764],[128.13923,37.67503],[128.13975,37.67501],[128.1404,37.67498],[128.14231,37.67437],[128.14585,37.67307],[128.14595,37.67292],[128.14665,37.67197],[128.14814,37.66969],[128.14909,37.66797],[128.14965,37.66616],[128.14972,37.66526],[128.14998,37.66429],[128.15092,37.66205],[128.15221,37.65986],[128.1529,37.65901],[128.15346,37.65938],[128.1541,37.66068],[128.15462,37.66145],[128.15529,37.66182],[128.1593,37.66339],[128.16292,37.66438],[128.1639,37.66462],[128.16436,37.66443],[128.16476,37.66216],[128.16493,37.66119],[128.16503,37.66078],[128.16603,37.65957],[128.16719,37.65853],[128.1676,37.65829],[128.16822,37.65803],[128.16918,37.65817],[128.16989,37.65832],[128.17025,37.65825],[128.17412,37.65574],[128.17705,37.65485],[128.18053,37.65365],[128.18087,37.65352],[128.18125,37.65306],[128.18135,37.65276],[128.18156,37.65232],[128.18177,37.65196],[128.18193,37.6518],[128.18344,37.65098],[128.1844,37.65058],[128.18517,37.65026],[128.18556,37.65016],[128.18611,37.64982],[128.18703,37.64903],[128.18736,37.64861],[128.18752,37.64828],[128.18765,37.64784],[128.18767,37.64748],[128.18767,37.6472],[128.18773,37.64696],[128.1878,37.64669],[128.18789,37.64653],[128.18799,37.64644],[128.18808,37.64637],[128.18818,37.64631],[128.18828,37.64626],[128.18855,37.6462],[128.18888,37.64612],[128.1897,37.64612],[128.19046,37.64642],[128.19248,37.64774],[128.1978,37.65069],[128.19812,37.65083],[128.19845,37.65097],[128.19873,37.65105],[128.19895,37.6511],[128.19918,37.65112],[128.20432,37.6506],[128.20449,37.65056],[128.2047,37.65052],[128.20497,37.6504],[128.20518,37.65031],[128.20559,37.65015],[128.20582,37.65005],[128.20604,37.64995],[128.20652,37.64974],[128.20693,37.64948],[128.20733,37.64922],[128.20761,37.64899],[128.20795,37.64872],[128.2081,37.64859],[128.20844,37.64809],[128.20911,37.64695],[128.21093,37.64554],[128.21518,37.64305],[128.21864,37.64153],[128.21949,37.64126],[128.21966,37.64116],[128.21981,37.64107],[128.22021,37.64068],[128.22045,37.64044],[128.22068,37.64021],[128.22118,37.63955],[128.22158,37.63901],[128.22216,37.63819],[128.22256,37.63764],[128.22312,37.63672],[128.22326,37.6364],[128.22345,37.6359],[128.22353,37.6355],[128.22358,37.63472],[128.22351,37.63445],[128.22344,37.6338],[128.22345,37.63331],[128.22346,37.63306],[128.2236,37.63264],[128.22383,37.63197],[128.22595,37.6273],[128.22624,37.62696],[128.22647,37.62681],[128.22699,37.62662],[128.22712,37.62658],[128.22726,37.62654],[128.23362,37.62538],[128.23429,37.62532],[128.23493,37.62527],[128.23557,37.62522],[128.23597,37.6252],[128.23865,37.62528],[128.24704,37.62507],[128.24751,37.6251],[128.24784,37.62514],[128.24844,37.62539],[128.24875,37.62555],[128.24907,37.6257],[128.24938,37.62591],[128.25032,37.62645],[128.25113,37.62691],[128.25158,37.62712],[128.25345,37.62773]]]]}},{"type":"Feature","properties":{"code":"51730360","name":"공근면","parent":"51730"},"geometry":{"type":"MultiPolygon","coordinates":[[[[128.05239,37.63096],[128.05373,37.62895],[128.0541,37.62827],[128.05416,37.62797],[128.05375,37.62739],[128.05282,37.62698],[128.05201,37.62673],[128.05105,37.62579],[128.05094,37.62514],[128.05106,37.62464],[128.05139,37.62362],[128.05189,37.62248],[128.05213,37.622],[128.04789,37.62109],[128.04648,37.62097],[128.04232,37.6181],[128.03724,37.61021],[128.03702,37.60891],[128.03738,37.60823],[128.03791,37.60784],[128.03777,37.60719],[128.03695,37.60678],[128.03433,37.60483],[128.03233,37.60176],[128.0316,37.60039],[128.03128,37.59862],[128.0302,37.59605],[128.02943,37.59533],[128.02854,37.59495],[128.02637,37.59435],[128.02474,37.59387],[128.02401,37.59305],[128.02366,37.59243],[128.02271,37.58921],[128.02323,37.58863],[128.02468,37.58761],[128.02523,37.58715],[128.02664,37.58557],[128.02731,37.58473],[128.02738,37.58437],[128.02544,37.58162],[128.02462,37.58079],[128.02361,37.58059],[128.02287,37.58056],[128.02217,37.58015],[128.02203,37.57948],[128.02166,37.57763],[128.02164,37.57639],[128.02081,37.57547],[128.01996,37.57534],[128.01902,37.57533],[128.01798,37.57482],[128.01728,37.57426],[128.01706,37.57351],[128.01707,37.57246],[128.0159,37.56877],[128.01508,37.56842],[128.01443,37.56808],[128.0134,37.56593],[128.01124,37.55902],[128.01125,37.55803],[128.01136,37.5573],[128.01138,37.55722],[128.01139,37.55719],[128.01174,37.55648],[128.01307,37.55584],[128.01362,37.55547],[128.01566,37.55271],[128.01598,37.55225],[128.01618,37.55145],[128.01615,37.5507],[128.01569,37.55005],[128.01529,37.54984],[128.01448,37.54949],[128.01413,37.54887],[128.0143,37.54819],[128.0147,37.5472],[128.01506,37.54658],[128.01538,37.54596],[128.01458,37.54466],[128.01403,37.54333],[128.01404,37.54268],[128.01452,37.542],[128.01546,37.54095],[128.01524,37.54075],[128.01536,37.53922],[128.01556,37.53813],[128.01297,37.53377],[128.01232,37.53305],[128.01033,37.53128],[128.00933,37.53064],[128.00495,37.5279],[128.0028,37.52688],[127.99714,37.52366],[127.9962,37.5228],[127.99583,37.5222],[127.99478,37.51689],[127.99406,37.51273],[127.99339,37.5115],[127.99246,37.51133],[127.99167,37.51158],[127.99073,37.51097],[127.98908,37.50934],[127.98886,37.50912],[127.98697,37.50693],[127.98614,37.50566],[127.98564,37.50549],[127.98425,37.50593],[127.98392,37.50621],[127.98358,37.50666],[127.98357,37.50727],[127.98356,37.50777],[127.97833,37.51169],[127.97777,37.5121],[127.97568,37.51348],[127.97288,37.51511],[127.96643,37.51839],[127.96604,37.51851],[127.96556,37.51849],[127.96415,37.51714],[127.9634,37.51571],[127.96325,37.51515],[127.96305,37.51395],[127.96375,37.51331],[127.9636,37.51278],[127.95872,37.51323],[127.95642,37.51374],[127.95097,37.5139],[127.94903,37.51385],[127.94375,37.51421],[127.94035,37.51471],[127.93909,37.51504],[127.93895,37.51541],[127.93575,37.51627],[127.93449,37.51636],[127.93387,37.51524],[127.93305,37.51408],[127.93209,37.51388],[127.93061,37.51529],[127.92486,37.5178],[127.92379,37.51739],[127.92244,37.51688],[127.92191,37.51649],[127.91956,37.51514],[127.91903,37.51489],[127.91858,37.5149],[127.91697,37.51512],[127.91663,37.51534],[127.91428,37.51868],[127.91414,37.51959],[127.91384,37.52006],[127.91317,37.52096],[127.91172,37.5215],[127.9088,37.52189],[127.90593,37.52054],[127.90581,37.52041],[127.90195,37.52013],[127.90037,37.52012],[127.89612,37.52306],[127.89595,37.52509],[127.89593,37.5268],[127.89648,37.52772],[127.89703,37.52972],[127.89635,37.53223],[127.89572,37.53476],[127.89559,37.53527],[127.89557,37.53533],[127.89572,37.53616],[127.89587,37.53639],[127.89805,37.53825],[127.89983,37.53949],[127.90005,37.53981],[127.90003,37.5401],[127.90002,37.54024],[127.89996,37.54067],[127.89984,37.54081],[127.89969,37.54099],[127.89556,37.54532],[127.89505,37.54565],[127.89452,37.54584],[127.89336,37.54617],[127.89286,37.54616],[127.89246,37.54616],[127.89118,37.54707],[127.88871,37.54913],[127.88743,37.55049],[127.88711,37.55145],[127.88179,37.55526],[127.88121,37.5554],[127.88031,37.55543],[127.87784,37.55592],[127.87731,37.55621],[127.87647,37.55692],[127.87574,37.55735],[127.8739,37.55745],[127.87199,37.55676],[127.87176,37.55809],[127.87145,37.56149],[127.87162,37.56212],[127.87213,37.56246],[127.87435,37.56367],[127.87708,37.56499],[127.8778,37.5655],[127.88005,37.56722],[127.88068,37.56778],[127.88361,37.57066],[127.88422,37.57154],[127.88456,37.57229],[127.88454,37.5728],[127.88438,37.57337],[127.88423,37.57426],[127.88413,37.57509],[127.88425,37.57525],[127.88475,37.57558],[127.88575,37.57592],[127.88602,37.576],[127.88662,37.5759],[127.88712,37.57588],[127.88764,37.57597],[127.88808,37.57625],[127.88861,37.57661],[127.8888,37.57683],[127.88887,37.57701],[127.88889,37.57877],[127.88888,37.5797],[127.88889,37.58019],[127.8911,37.58261],[127.8931,37.58469],[127.89339,37.58502],[127.89354,37.58561],[127.89404,37.59157],[127.89404,37.59231],[127.89398,37.59266],[127.89335,37.59437],[127.89318,37.59468],[127.89307,37.59477],[127.89299,37.59484],[127.89283,37.59503],[127.89254,37.59547],[127.89241,37.5958],[127.89237,37.59645],[127.89266,37.59691],[127.89277,37.59715],[127.89323,37.59792],[127.89359,37.59838],[127.89373,37.59847],[127.8938,37.59851],[127.89444,37.5986],[127.89917,37.59832],[127.90117,37.59809],[127.90361,37.59788],[127.90529,37.5979],[127.9066,37.59804],[127.90698,37.59827],[127.90863,37.59942],[127.90884,37.59963],[127.90921,37.60021],[127.90956,37.60045],[127.90987,37.60054],[127.91032,37.60055],[127.911,37.60056],[127.91136,37.60048],[127.9128,37.6001],[127.91326,37.59994],[127.91392,37.59981],[127.91465,37.59985],[127.91558,37.60016],[127.91642,37.60061],[127.91727,37.60137],[127.91816,37.60224],[127.91912,37.60324],[127.92005,37.60421],[127.92077,37.60492],[127.92172,37.60543],[127.92232,37.60564],[127.9234,37.60539],[127.92403,37.60524],[127.92506,37.605],[127.92661,37.60447],[127.92679,37.60446],[127.92741,37.60493],[127.92795,37.6054],[127.92836,37.60595],[127.92979,37.60769],[127.93158,37.60916],[127.93308,37.60994],[127.93442,37.60997],[127.93598,37.60975],[127.93884,37.60942],[127.9454,37.60899],[127.94576,37.60902],[127.94867,37.60994],[127.94966,37.61032],[127.95052,37.61079],[127.95109,37.61141],[127.95163,37.61219],[127.95187,37.61294],[127.95226,37.61526],[127.95436,37.61817],[127.95585,37.61901],[127.95667,37.61955],[127.95761,37.62151],[127.9596,37.62531],[127.95994,37.62591],[127.96036,37.62612],[127.96109,37.62636],[127.96205,37.62666],[127.96303,37.62667],[127.96345,37.6266],[127.96434,37.62615],[127.96468,37.62602],[127.96483,37.626],[127.96516,37.62598],[127.96566,37.62609],[127.96677,37.62662],[127.96757,37.62713],[127.96992,37.63349],[127.97025,37.63494],[127.97049,37.63675],[127.97104,37.63783],[127.97142,37.63811],[127.97161,37.63817],[127.9718,37.63816],[127.97406,37.63772],[127.98143,37.6331],[127.98166,37.63285],[127.98178,37.63256],[127.98072,37.63225],[127.98133,37.63128],[127.98214,37.63087],[127.99175,37.62821],[127.99382,37.62777],[127.99563,37.62749],[127.99625,37.62732],[127.99872,37.62625],[128.00137,37.62646],[128.00368,37.62678],[128.0048,37.62679],[128.01189,37.62657],[128.01241,37.62646],[128.01258,37.62627],[128.01361,37.62325],[128.01355,37.62274],[128.0132,37.62051],[128.01267,37.61882],[128.0125,37.61801],[128.0127,37.61651],[128.01366,37.61512],[128.01448,37.61424],[128.01541,37.61376],[128.01771,37.61331],[128.01852,37.61319],[128.01921,37.6133],[128.02125,37.61437],[128.02219,37.61498],[128.02416,37.61639],[128.02784,37.61914],[128.02866,37.61981],[128.02893,37.62011],[128.02925,37.62051],[128.02995,37.62131],[128.03122,37.62223],[128.03537,37.6244],[128.0386,37.62491],[128.04229,37.62569],[128.04569,37.62677],[128.04796,37.6277],[128.04976,37.62906],[128.0497,37.62978],[128.04989,37.63047],[128.0503,37.6308],[128.05088,37.6309],[128.05239,37.63096]]]]}},{"type":"Feature","properties":{"code":"51730370","name":"서원면","parent":"51730"},"geometry":{"type":"MultiPolygon","coordinates":[[[[127.87199,37.55676],[127.8739,37.55745],[127.87574,37.55735],[127.87647,37.55692],[127.87731,37.55621],[127.87784,37.55592],[127.88031,37.55543],[127.88121,37.5554],[127.88179,37.55526],[127.88711,37.55145],[127.88743,37.55049],[127.88871,37.54913],[127.89118,37.54707],[127.89246,37.54616],[127.89286,37.54616],[127.89336,37.54617],[127.89452,37.54584],[127.89505,37.54565],[127.89556,37.54532],[127.89969,37.54099],[127.89984,37.54081],[127.89996,37.54067],[127.90002,37.54024],[127.90003,37.5401],[127.90005,37.53981],[127.89983,37.53949],[127.89805,37.53825],[127.89587,37.53639],[127.89572,37.53616],[127.89557,37.53533],[127.89559,37.53527],[127.89572,37.53476],[127.89635,37.53223],[127.89703,37.52972],[127.89648,37.52772],[127.89593,37.5268],[127.89595,37.52509],[127.89612,37.52306],[127.90037,37.52012],[127.90195,37.52013],[127.90581,37.52041],[127.90593,37.52054],[127.9088,37.52189],[127.91172,37.5215],[127.91317,37.52096],[127.91384,37.52006],[127.91414,37.51959],[127.91428,37.51868],[127.91663,37.51534],[127.91697,37.51512],[127.91858,37.5149],[127.91903,37.51489],[127.91956,37.51514],[127.92191,37.51649],[127.92244,37.51688],[127.92379,37.51739],[127.92486,37.5178],[127.93061,37.51529],[127.93209,37.51388],[127.93142,37.51303],[127.93036,37.51076],[127.92868,37.50718],[127.9285,37.50682],[127.92682,37.50581],[127.92258,37.50152],[127.92241,37.50099],[127.9223,37.49958],[127.92197,37.49912],[127.92096,37.49782],[127.91928,37.49781],[127.91838,37.4975],[127.91811,37.4972],[127.918,37.49532],[127.91913,37.49292],[127.91729,37.49194],[127.91653,37.4917],[127.91506,37.49111],[127.91412,37.49064],[127.9133,37.49013],[127.91016,37.48711],[127.90979,37.4866],[127.90962,37.48606],[127.90944,37.48544],[127.90853,37.48182],[127.90825,37.4787],[127.90782,37.47803],[127.90493,37.47397],[127.90408,37.47321],[127.90237,37.47202],[127.89928,37.47137],[127.89338,37.4698],[127.89163,37.46887],[127.8898,37.46766],[127.88847,37.4667],[127.88773,37.4668],[127.88723,37.46687],[127.88565,37.4671],[127.88536,37.46738],[127.88507,37.46766],[127.88376,37.46775],[127.87763,37.46705],[127.87702,37.46684],[127.87694,37.46681],[127.87629,37.46651],[127.87535,37.46602],[127.87516,37.46569],[127.87432,37.46198],[127.87446,37.46033],[127.87439,37.45964],[127.874,37.456],[127.87368,37.45501],[127.87318,37.45449],[127.87064,37.45346],[127.86848,37.45081],[127.86698,37.44786],[127.86598,37.44474],[127.86598,37.44031],[127.86468,37.43851],[127.864,37.43796],[127.86388,37.43788],[127.86363,37.43772],[127.86336,37.43581],[127.86425,37.43394],[127.86504,37.43192],[127.86518,37.43093],[127.86494,37.42995],[127.8644,37.42843],[127.8639,37.42761],[127.86364,37.42594],[127.86413,37.4244],[127.86566,37.42236],[127.86745,37.42003],[127.86785,37.41975],[127.86826,37.41947],[127.87047,37.41828],[127.87071,37.41784],[127.87095,37.41628],[127.8709,37.41523],[127.87014,37.41006],[127.86952,37.40773],[127.8687,37.40584],[127.86788,37.40344],[127.86774,37.40138],[127.86718,37.39991],[127.86652,37.39945],[127.86513,37.399],[127.86468,37.39891],[127.86401,37.39877],[127.86281,37.39875],[127.86179,37.39885],[127.86034,37.39909],[127.85976,37.39933],[127.85827,37.39974],[127.85729,37.39952],[127.85663,37.39938],[127.85572,37.39887],[127.85459,37.39823],[127.85288,37.39605],[127.85146,37.39448],[127.85138,37.39455],[127.85134,37.3946],[127.84868,37.39953],[127.84846,37.40012],[127.84875,37.40081],[127.84951,37.40254],[127.85026,37.40441],[127.85088,37.4062],[127.85126,37.40768],[127.85118,37.40847],[127.85088,37.40908],[127.84979,37.40987],[127.84904,37.41075],[127.84819,37.41341],[127.8465,37.41828],[127.84559,37.42085],[127.84366,37.42611],[127.84158,37.43081],[127.83822,37.43227],[127.83726,37.43217],[127.83666,37.43239],[127.83375,37.43488],[127.82807,37.43899],[127.82636,37.44067],[127.82422,37.44259],[127.82248,37.44389],[127.82122,37.44431],[127.81447,37.44263],[127.81104,37.43912],[127.8018,37.43533],[127.8014,37.43627],[127.79862,37.44238],[127.79891,37.44474],[127.79893,37.44484],[127.79895,37.44489],[127.79905,37.44503],[127.79918,37.44518],[127.79921,37.44521],[127.79932,37.44534],[127.79935,37.44539],[127.79945,37.44556],[127.7995,37.44567],[127.79952,37.44572],[127.79953,37.44575],[127.79954,37.44579],[127.79958,37.44613],[127.79959,37.4462],[127.79971,37.44928],[127.79971,37.44935],[127.79955,37.45168],[127.79906,37.4529],[127.79828,37.4547],[127.7975,37.45635],[127.79656,37.45979],[127.7963,37.46282],[127.79635,37.46361],[127.79767,37.46504],[127.79771,37.46507],[127.79777,37.46509],[127.79783,37.46511],[127.79789,37.46511],[127.79797,37.46512],[127.79815,37.46517],[127.79832,37.46521],[127.7985,37.46527],[127.79891,37.46545],[127.79894,37.46547],[127.799,37.4655],[127.79906,37.46554],[127.79909,37.46558],[127.79914,37.46564],[127.79931,37.46594],[127.80049,37.46801],[127.80052,37.46805],[127.80055,37.46811],[127.80056,37.46816],[127.80058,37.46822],[127.80058,37.46828],[127.80059,37.46833],[127.80069,37.46978],[127.8007,37.46981],[127.80069,37.46998],[127.80068,37.47002],[127.80066,37.47007],[127.80063,37.47014],[127.79968,37.47219],[127.79966,37.47222],[127.7996,37.47227],[127.79955,37.47231],[127.79948,37.47234],[127.79942,37.47236],[127.79936,37.47238],[127.7993,37.47239],[127.79912,37.4724],[127.79862,37.47241],[127.79655,37.47251],[127.79645,37.47252],[127.79499,37.47271],[127.79491,37.47272],[127.78984,37.475],[127.78796,37.47596],[127.78793,37.47598],[127.78784,37.47605],[127.78205,37.48165],[127.78139,37.48413],[127.78125,37.48644],[127.78097,37.4872],[127.7806,37.48818],[127.77886,37.48801],[127.77801,37.48793],[127.77627,37.48843],[127.77505,37.48984],[127.77484,37.49051],[127.77465,37.49111],[127.77456,37.49138],[127.77448,37.49165],[127.76588,37.49305],[127.76575,37.49306],[127.76541,37.49309],[127.76533,37.49309],[127.76523,37.49308],[127.76434,37.49251],[127.76033,37.49234],[127.75974,37.49295],[127.75931,37.49587],[127.75925,37.49629],[127.75923,37.49656],[127.75923,37.49661],[127.75923,37.49664],[127.75923,37.49675],[127.75925,37.49683],[127.75958,37.49832],[127.75959,37.49836],[127.75961,37.49838],[127.75963,37.49841],[127.75966,37.49845],[127.75971,37.49849],[127.75991,37.49865],[127.76007,37.49973],[127.76004,37.50251],[127.76004,37.50262],[127.76003,37.50271],[127.75989,37.50323],[127.75936,37.50366],[127.76486,37.50272],[127.77394,37.50609],[127.77858,37.50959],[127.77888,37.51011],[127.77947,37.51117],[127.77969,37.51156],[127.78114,37.513],[127.78155,37.51306],[127.78184,37.5131],[127.7822,37.51294],[127.78375,37.51229],[127.78386,37.51224],[127.78399,37.51219],[127.78608,37.51387],[127.78685,37.51465],[127.78771,37.51579],[127.78785,37.51606],[127.78825,37.51685],[127.78849,37.51733],[127.78885,37.51771],[127.78993,37.51883],[127.79014,37.51906],[127.79337,37.52115],[127.79657,37.52344],[127.79662,37.52348],[127.79675,37.52357],[127.79686,37.52382],[127.79688,37.52398],[127.79674,37.52422],[127.79658,37.52447],[127.7965,37.52457],[127.79648,37.5246],[127.79629,37.5249],[127.79626,37.52506],[127.79624,37.52535],[127.79621,37.52664],[127.79653,37.52851],[127.79782,37.52876],[127.79854,37.5289],[127.80067,37.52931],[127.80201,37.5296],[127.80269,37.52974],[127.80507,37.53024],[127.80652,37.53134],[127.80642,37.53411],[127.80639,37.53486],[127.80639,37.53489],[127.80639,37.53493],[127.80639,37.53496],[127.80638,37.53501],[127.8095,37.53674],[127.81123,37.5371],[127.81278,37.53723],[127.81326,37.53714],[127.81399,37.53701],[127.81478,37.53667],[127.8151,37.53653],[127.81961,37.53729],[127.82045,37.53746],[127.82193,37.53802],[127.82493,37.53776],[127.82594,37.53735],[127.82686,37.53697],[127.82816,37.53643],[127.82862,37.53639],[127.82878,37.53647],[127.83043,37.53739],[127.83068,37.53752],[127.83108,37.53775],[127.83238,37.53827],[127.83321,37.5384],[127.83375,37.53849],[127.8346,37.53852],[127.83805,37.53866],[127.8424,37.53902],[127.84273,37.53933],[127.84293,37.53951],[127.84644,37.5436],[127.84663,37.54394],[127.84668,37.54402],[127.84671,37.5441],[127.84684,37.54441],[127.84684,37.54469],[127.84678,37.54489],[127.84665,37.54503],[127.84656,37.54514],[127.84613,37.54569],[127.84612,37.54591],[127.84612,37.54601],[127.84612,37.54604],[127.84629,37.54755],[127.84635,37.54779],[127.84646,37.54796],[127.84683,37.54825],[127.84695,37.54833],[127.84724,37.54851],[127.84742,37.5486],[127.8475,37.54865],[127.84787,37.54878],[127.84844,37.54907],[127.84849,37.54911],[127.84877,37.54931],[127.8491,37.54959],[127.84914,37.54966],[127.8492,37.54979],[127.84939,37.5503],[127.8494,37.55034],[127.84947,37.55071],[127.84944,37.55318],[127.84977,37.55342],[127.85179,37.55427],[127.85217,37.55426],[127.85278,37.55417],[127.85447,37.55409],[127.85467,37.55408],[127.855,37.55415],[127.85537,37.5543],[127.85689,37.55528],[127.85737,37.55565],[127.85781,37.55614],[127.85825,37.5567],[127.85875,37.55708],[127.85927,37.55742],[127.85973,37.55754],[127.86008,37.55763],[127.86042,37.55766],[127.86074,37.55765],[127.86119,37.55761],[127.86347,37.55725],[127.86461,37.55726],[127.86512,37.55724],[127.86575,37.55712],[127.86616,37.5569],[127.86654,37.55663],[127.86678,37.55652],[127.86739,37.55645],[127.87117,37.55644],[127.87168,37.5565],[127.87199,37.55676]]]]}},{"type":"Feature","properties":{"code":"51730380","name":"강림면","parent":"51730"},"geometry":{"type":"MultiPolygon","coordinates":[[[[128.09697,37.40608],[128.09777,37.40466],[128.0983,37.40303],[128.10006,37.39945],[128.10088,37.39798],[128.10298,37.39558],[128.10482,37.39435],[128.11051,37.39191],[128.11117,37.3917],[128.11431,37.39179],[128.11628,37.39176],[128.1182,37.39117],[128.11984,37.39027],[128.12042,37.39023],[128.12156,37.39069],[128.1228,37.39131],[128.12292,37.39158],[128.12306,37.39184],[128.12327,37.39213],[128.12398,37.3928],[128.12403,37.39284],[128.12411,37.39286],[128.12417,37.39286],[128.125,37.3926],[128.12508,37.39256],[128.13067,37.38924],[128.13361,37.38679],[128.13593,37.38472],[128.13713,37.38354],[128.1374,37.38331],[128.13947,37.38209],[128.14133,37.38172],[128.1457,37.38236],[128.15098,37.38329],[128.15222,37.38368],[128.15327,37.38394],[128.15368,37.38395],[128.15876,37.38393],[128.159,37.3839],[128.16511,37.37887],[128.16535,37.37861],[128.16544,37.37839],[128.16541,37.37783],[128.16541,37.3776],[128.16544,37.37742],[128.1655,37.37715],[128.16555,37.377],[128.16561,37.37689],[128.16572,37.37679],[128.16585,37.37673],[128.16606,37.37664],[128.16615,37.37661],[128.16623,37.37658],[128.16635,37.37658],[128.17296,37.37752],[128.17325,37.37759],[128.17518,37.37823],[128.17543,37.37835],[128.17564,37.37847],[128.17593,37.37868],[128.17622,37.37896],[128.17648,37.37917],[128.17727,37.37962],[128.17909,37.38041],[128.1793,37.38049],[128.17958,37.38059],[128.17976,37.38065],[128.17994,37.37988],[128.17995,37.37972],[128.17996,37.37834],[128.17995,37.3782],[128.17987,37.3781],[128.17974,37.37803],[128.17965,37.37798],[128.17944,37.37785],[128.17941,37.37783],[128.1786,37.3772],[128.17847,37.3771],[128.17829,37.37694],[128.17818,37.3768],[128.17806,37.37663],[128.17799,37.37645],[128.17798,37.37634],[128.17791,37.37488],[128.17861,37.37183],[128.17936,37.3704],[128.17945,37.37026],[128.17948,37.37025],[128.17951,37.37023],[128.18027,37.36981],[128.18114,37.36872],[128.1815,37.36734],[128.18161,37.36557],[128.18393,37.35846],[128.18411,37.35415],[128.18553,37.34786],[128.18632,37.34133],[128.18631,37.34129],[128.18628,37.34123],[128.18618,37.34104],[128.18604,37.34088],[128.18589,37.34074],[128.18574,37.34064],[128.18377,37.33937],[128.18362,37.33929],[128.18355,37.33927],[128.18348,37.33925],[128.18217,37.33897],[128.18208,37.33896],[128.18199,37.33897],[128.18184,37.33905],[128.18166,37.33914],[128.1814,37.3393],[128.18128,37.33936],[128.18115,37.3394],[128.18101,37.33944],[128.18093,37.33944],[128.18082,37.33943],[128.18075,37.33943],[128.18069,37.33942],[128.18061,37.3394],[128.18054,37.33938],[128.18043,37.33934],[128.17808,37.33841],[128.17606,37.33771],[128.17595,37.33768],[128.17578,37.33765],[128.17527,37.33756],[128.17517,37.33754],[128.17502,37.33752],[128.17479,37.33754],[128.1735,37.33784],[128.16968,37.3389],[128.16779,37.33675],[128.1684,37.33606],[128.16949,37.33471],[128.16965,37.33443],[128.17235,37.32933],[128.17254,37.32892],[128.17279,37.32832],[128.17294,37.32783],[128.17322,37.32423],[128.17211,37.32258],[128.16806,37.32163],[128.16787,37.32159],[128.16778,37.32158],[128.16767,37.32158],[128.16031,37.32322],[128.15985,37.32334],[128.1582,37.32386],[128.1581,37.3239],[128.15791,37.324],[128.15634,37.32483],[128.15525,37.32577],[128.15519,37.32584],[128.1551,37.32599],[128.15508,37.32607],[128.15506,37.32628],[128.15504,37.32643],[128.15501,37.32659],[128.15495,37.32668],[128.15479,37.3269],[128.15476,37.32693],[128.15474,37.32696],[128.15464,37.32704],[128.15436,37.32719],[128.15405,37.32733],[128.15387,37.32741],[128.15371,37.32746],[128.15367,37.32746],[128.15363,37.32746],[128.15217,37.32729],[128.15213,37.32729],[128.15209,37.32728],[128.14954,37.32663],[128.14895,37.32591],[128.14889,37.32569],[128.14885,37.32558],[128.1487,37.32522],[128.1486,37.32501],[128.1485,37.32485],[128.14836,37.32467],[128.14826,37.32455],[128.14717,37.32334],[128.14693,37.32313],[128.1467,37.32295],[128.14612,37.32252],[128.14599,37.32242],[128.14592,37.3224],[128.14587,37.32241],[128.14584,37.32243],[128.14578,37.32258],[128.14572,37.32278],[128.14567,37.32292],[128.1456,37.32304],[128.14553,37.32312],[128.14417,37.3241],[128.14406,37.32417],[128.14145,37.32535],[128.14125,37.32542],[128.14117,37.32543],[128.14112,37.32544],[128.14095,37.32545],[128.14063,37.32541],[128.14049,37.3254],[128.14031,37.32539],[128.13998,37.32536],[128.13966,37.32535],[128.13932,37.32535],[128.13905,37.32536],[128.1389,37.32538],[128.13874,37.32541],[128.13695,37.32585],[128.13679,37.3259],[128.1364,37.32603],[128.13623,37.3261],[128.13606,37.32618],[128.13593,37.32625],[128.13584,37.3263],[128.13578,37.32635],[128.13569,37.32641],[128.13549,37.32658],[128.13543,37.32665],[128.13533,37.32684],[128.13158,37.32926],[128.13152,37.32928],[128.1313,37.32929],[128.13116,37.32926],[128.13103,37.32923],[128.13042,37.32909],[128.13018,37.32901],[128.12653,37.32734],[128.12631,37.32724],[128.12608,37.32713],[128.12603,37.32711],[128.12599,37.32708],[128.11973,37.32382],[128.11967,37.32378],[128.11963,37.32376],[128.11917,37.32334],[128.11914,37.32327],[128.11915,37.32258],[128.1192,37.3219],[128.11923,37.32141],[128.11922,37.32122],[128.11915,37.32098],[128.11906,37.32081],[128.119,37.32069],[128.11891,37.32061],[128.11746,37.31946],[128.11596,37.3183],[128.11569,37.31804],[128.11437,37.31632],[128.11433,37.31622],[128.11414,37.31531],[128.11412,37.31515],[128.11434,37.31016],[128.11435,37.31006],[128.11438,37.30994],[128.11527,37.3077],[128.11633,37.30614],[128.11666,37.30574],[128.11701,37.30531],[128.11774,37.30426],[128.11777,37.30417],[128.11781,37.30404],[128.1178,37.30398],[128.11777,37.30391],[128.11773,37.30387],[128.11765,37.30386],[128.11758,37.30384],[128.11654,37.30365],[128.11588,37.30355],[128.11581,37.30353],[128.11563,37.30348],[128.11554,37.30344],[128.11546,37.3034],[128.1144,37.30283],[128.11428,37.30276],[128.11422,37.3027],[128.11416,37.30261],[128.11414,37.30251],[128.11414,37.30203],[128.11218,37.30279],[128.11139,37.3032],[128.1106,37.3036],[128.1103,37.30368],[128.11,37.30375],[128.10312,37.30399],[128.10081,37.30324],[128.10001,37.30308],[128.09864,37.30341],[128.09392,37.30384],[128.09362,37.30371],[128.0933,37.30357],[128.08981,37.30436],[128.08947,37.30445],[128.08913,37.30455],[128.08842,37.3049],[128.08801,37.30518],[128.08759,37.30546],[128.08673,37.30572],[128.08364,37.30632],[128.08218,37.30643],[128.08038,37.30657],[128.07982,37.30671],[128.07922,37.30686],[128.07676,37.309],[128.07618,37.30957],[128.07546,37.31028],[128.07444,37.31055],[128.07355,37.31078],[128.07197,37.31103],[128.06889,37.31135],[128.06139,37.31161],[128.06065,37.31156],[128.05977,37.3115],[128.0571,37.3109],[128.05184,37.31529],[128.04993,37.31681],[128.04914,37.31792],[128.04774,37.31947],[128.04701,37.32001],[128.04666,37.32017],[128.04626,37.32036],[128.04577,37.32053],[128.04532,37.3207],[128.04528,37.32072],[128.04479,37.32117],[128.04375,37.32282],[128.04268,37.32458],[128.04231,37.32595],[128.04162,37.32883],[128.04014,37.32957],[128.03992,37.32978],[128.03964,37.33004],[128.03944,37.33063],[128.03922,37.33293],[128.03848,37.33277],[128.03794,37.33372],[128.03736,37.33472],[128.0383,37.33642],[128.03936,37.33753],[128.04042,37.33864],[128.04109,37.33953],[128.04144,37.34005],[128.04212,37.34196],[128.04316,37.34596],[128.04232,37.34693],[128.04166,37.34768],[128.04133,37.3482],[128.04077,37.34944],[128.04087,37.35272],[128.04093,37.35391],[128.04121,37.35501],[128.0414,37.35572],[128.04183,37.35654],[128.04205,37.35688],[128.04225,37.3571],[128.04288,37.35726],[128.04319,37.35733],[128.045,37.35998],[128.0453,37.3607],[128.0456,37.36131],[128.04714,37.36342],[128.04756,37.36381],[128.04834,37.36452],[128.05,37.36601],[128.05086,37.3663],[128.05102,37.36635],[128.05176,37.36625],[128.05372,37.36601],[128.05498,37.3659],[128.05637,37.36582],[128.05662,37.36586],[128.0574,37.36597],[128.05871,37.36638],[128.06003,37.3669],[128.06035,37.36699],[128.06065,37.36706],[128.0613,37.36706],[128.06234,37.36688],[128.06334,37.36671],[128.06562,37.36656],[128.06675,37.36658],[128.06787,37.36661],[128.06951,37.36672],[128.0707,37.367],[128.0716,37.36726],[128.07234,37.36761],[128.07247,37.36774],[128.07285,37.36811],[128.07322,37.36848],[128.07629,37.37449],[128.07655,37.3752],[128.0766,37.37612],[128.07576,37.38262],[128.07529,37.38436],[128.07453,37.38541],[128.07365,37.38659],[128.07313,37.38741],[128.07199,37.38942],[128.07177,37.39006],[128.0715,37.39117],[128.07152,37.39205],[128.07173,37.39301],[128.07207,37.39352],[128.07675,37.39855],[128.07703,37.39881],[128.07732,37.39907],[128.07768,37.39921],[128.07804,37.39935],[128.07853,37.39947],[128.07902,37.3996],[128.08449,37.40336],[128.08509,37.40328],[128.08643,37.40333],[128.08699,37.40339],[128.09012,37.40393],[128.09438,37.40517],[128.09636,37.406],[128.09679,37.40621],[128.09697,37.40608]]]]}}]}