{"type":"FeatureCollection","features":[{"type":"Feature","properties":{"code":"43770250","name":"음성읍","parent":"43770"},"geometry":{"type":"MultiPolygon","coordinates":[[[[127.65101,36.98377],[127.65088,36.98349],[127.65102,36.98288],[127.6557,36.97973],[127.65861,36.97857],[127.6611,36.97774],[127.66164,36.97768],[127.66266,36.97983],[127.66359,36.98219],[127.66577,36.98537],[127.66664,36.98646],[127.66866,36.98766],[127.66887,36.98778],[127.66959,36.98817],[127.67013,36.98805],[127.67086,36.98696],[127.6722,36.98602],[127.67503,36.98553],[127.68116,36.98539],[127.68236,36.98562],[127.6845,36.98598],[127.68575,36.98569],[127.68744,36.98421],[127.68761,36.98316],[127.68758,36.98249],[127.6878,36.98162],[127.68799,36.9814],[127.68854,36.98106],[127.68912,36.9807],[127.69184,36.97946],[127.69308,36.97936],[127.69354,36.97943],[127.69544,36.97802],[127.69526,36.97642],[127.69495,36.97507],[127.69788,36.97409],[127.69958,36.97421],[127.70058,36.97398],[127.7018,36.9733],[127.70397,36.9718],[127.70416,36.97071],[127.70428,36.96995],[127.70468,36.96879],[127.70523,36.96742],[127.70632,36.96617],[127.70681,36.96564],[127.7075,36.96505],[127.70759,36.96498],[127.70941,36.96495],[127.71023,36.96471],[127.71075,36.96255],[127.71117,36.96194],[127.71222,36.96146],[127.71573,36.95913],[127.71637,36.95844],[127.7163,36.95632],[127.71601,36.95238],[127.71593,36.95137],[127.71659,36.94871],[127.71667,36.94846],[127.71725,36.94805],[127.71819,36.94764],[127.71935,36.94699],[127.7198,36.94656],[127.72054,36.94547],[127.72251,36.94175],[127.72267,36.94037],[127.72267,36.94022],[127.72266,36.93979],[127.72263,36.93913],[127.72241,36.9387],[127.72212,36.93857],[127.72188,36.93853],[127.72168,36.9385],[127.72144,36.93817],[127.72139,36.9379],[127.7218,36.93778],[127.72448,36.93704],[127.72614,36.93682],[127.72714,36.93683],[127.7283,36.93677],[127.72972,36.93666],[127.73179,36.93482],[127.73179,36.93479],[127.73178,36.93457],[127.73098,36.93145],[127.73046,36.92923],[127.73038,36.92888],[127.73045,36.92828],[127.73047,36.92814],[127.73048,36.92811],[127.73049,36.92801],[127.73051,36.92796],[127.73067,36.92761],[127.73071,36.92753],[127.7308,36.92734],[127.73088,36.92732],[127.73096,36.9273],[127.73124,36.92715],[127.73139,36.92707],[127.73138,36.92697],[127.73102,36.92654],[127.73011,36.92597],[127.72952,36.92565],[127.72912,36.92545],[127.72717,36.92448],[127.72565,36.92333],[127.72258,36.92066],[127.72193,36.91882],[127.72175,36.91807],[127.72178,36.9177],[127.72187,36.91665],[127.72182,36.91614],[127.72068,36.9146],[127.71783,36.91131],[127.71688,36.91046],[127.71629,36.91002],[127.71595,36.90979],[127.71485,36.90919],[127.7123,36.90798],[127.71106,36.90862],[127.71032,36.90901],[127.70921,36.91002],[127.70812,36.91101],[127.7069,36.91188],[127.70627,36.91202],[127.70543,36.91222],[127.70451,36.9122],[127.70426,36.91213],[127.7039,36.91203],[127.70293,36.91222],[127.70202,36.91265],[127.70039,36.91393],[127.6992,36.91494],[127.69883,36.91575],[127.69859,36.91645],[127.69838,36.91708],[127.69835,36.91712],[127.69738,36.91842],[127.69631,36.91983],[127.69626,36.9199],[127.69356,36.91986],[127.69259,36.91838],[127.69207,36.9176],[127.69131,36.91732],[127.68738,36.91675],[127.687,36.91673],[127.68662,36.91672],[127.68116,36.91701],[127.68044,36.91741],[127.67923,36.91754],[127.67562,36.91564],[127.67504,36.91529],[127.67466,36.91457],[127.67423,36.91329],[127.67366,36.91301],[127.66661,36.91471],[127.66432,36.91568],[127.66164,36.91638],[127.66136,36.91615],[127.66041,36.91486],[127.66001,36.91424],[127.65953,36.91327],[127.65865,36.91192],[127.65841,36.91175],[127.65822,36.91162],[127.65588,36.91127],[127.65484,36.90984],[127.65339,36.90772],[127.65261,36.90618],[127.652,36.90474],[127.65096,36.90215],[127.65053,36.90187],[127.65022,36.90168],[127.65009,36.90159],[127.64451,36.89995],[127.64367,36.89978],[127.64116,36.89991],[127.6368,36.90183],[127.63265,36.9024],[127.63015,36.90348],[127.61972,36.9051],[127.61845,36.90508],[127.61838,36.90508],[127.61371,36.90467],[127.61333,36.90442],[127.61213,36.90366],[127.6114,36.90322],[127.60865,36.90186],[127.60791,36.90179],[127.60731,36.90173],[127.60635,36.90161],[127.60377,36.90032],[127.60331,36.89971],[127.60269,36.8991],[127.60195,36.89846],[127.59989,36.89794],[127.59971,36.89838],[127.59982,36.89981],[127.59962,36.9006],[127.59821,36.90142],[127.59693,36.90194],[127.5933,36.90323],[127.59252,36.90419],[127.59207,36.90486],[127.59197,36.90504],[127.59184,36.90528],[127.5919,36.90628],[127.59218,36.90705],[127.59242,36.90819],[127.59223,36.90902],[127.58995,36.90987],[127.58771,36.91056],[127.58658,36.91264],[127.58688,36.91351],[127.58667,36.91593],[127.58505,36.9207],[127.58433,36.92397],[127.5839,36.92574],[127.58279,36.92796],[127.58217,36.92846],[127.58112,36.92889],[127.58005,36.92859],[127.57939,36.92829],[127.57912,36.92811],[127.57877,36.92787],[127.5782,36.92753],[127.57669,36.92749],[127.57673,36.92777],[127.5768,36.92821],[127.5773,36.92995],[127.57799,36.93159],[127.57848,36.93187],[127.57898,36.93214],[127.57967,36.93239],[127.58103,36.93475],[127.58169,36.93747],[127.58188,36.93839],[127.58219,36.9405],[127.58237,36.94072],[127.58327,36.94185],[127.58373,36.94217],[127.58426,36.94254],[127.58512,36.94305],[127.58615,36.94307],[127.59287,36.94249],[127.59409,36.94141],[127.59417,36.94107],[127.59423,36.94042],[127.59574,36.93878],[127.59613,36.93868],[127.5965,36.93859],[127.59804,36.93826],[127.60119,36.93808],[127.60162,36.93806],[127.60204,36.93804],[127.60197,36.93901],[127.60128,36.9408],[127.60379,36.94777],[127.60457,36.94883],[127.60832,36.95173],[127.60956,36.95192],[127.61028,36.95164],[127.61067,36.95138],[127.61264,36.95093],[127.61562,36.95206],[127.6181,36.9538],[127.61858,36.95436],[127.6214,36.95828],[127.62139,36.96058],[127.61927,36.96536],[127.6189,36.96574],[127.61857,36.96605],[127.6176,36.96603],[127.61665,36.96584],[127.61566,36.965],[127.61513,36.96474],[127.61477,36.96466],[127.61426,36.96455],[127.61296,36.96429],[127.61273,36.9644],[127.61253,36.9645],[127.61231,36.96507],[127.61252,36.96709],[127.61279,36.96778],[127.61227,36.97065],[127.61115,36.9724],[127.61016,36.97393],[127.60985,36.97432],[127.60951,36.97635],[127.60943,36.97697],[127.60987,36.97822],[127.61124,36.97974],[127.61209,36.9806],[127.61296,36.98067],[127.6131,36.98068],[127.61445,36.9806],[127.6175,36.97952],[127.61794,36.97905],[127.61838,36.97838],[127.61862,36.97793],[127.61935,36.97727],[127.61965,36.97709],[127.62001,36.97709],[127.62067,36.9771],[127.62118,36.9774],[127.62227,36.97819],[127.62366,36.97951],[127.62396,36.97998],[127.62526,36.9821],[127.62785,36.98527],[127.62818,36.98537],[127.62852,36.98547],[127.62962,36.98522],[127.63014,36.98495],[127.6307,36.98464],[127.63197,36.98511],[127.63321,36.98575],[127.63505,36.98674],[127.63575,36.98683],[127.63727,36.98659],[127.63907,36.98714],[127.64063,36.98768],[127.64098,36.98788],[127.64133,36.98809],[127.64343,36.98862],[127.64414,36.98875],[127.64726,36.98694],[127.64854,36.98601],[127.64901,36.98502],[127.65101,36.98377]]]]}},{"type":"Feature","properties":{"code":"43770253","name":"금왕읍","parent":"43770"},"geometry":{"type":"MultiPolygon","coordinates":[[[[127.56241,37.04461],[127.56288,37.04367],[127.56315,37.04288],[127.56347,37.04157],[127.5618,37.04001],[127.5605,37.0374],[127.56012,37.03589],[127.5596,37.03402],[127.55959,37.03397],[127.55791,37.03361],[127.55625,37.03283],[127.554,37.03176],[127.55318,37.03099],[127.55172,37.0296],[127.55163,37.02881],[127.55226,37.02812],[127.55375,37.02654],[127.55442,37.02587],[127.55603,37.02627],[127.55652,37.02673],[127.55738,37.02662],[127.5592,37.0263],[127.55981,37.02556],[127.56091,37.02264],[127.5609,37.02239],[127.5604,37.02121],[127.56021,37.01984],[127.56122,37.01843],[127.56294,37.01653],[127.5676,37.01401],[127.56873,37.01362],[127.57348,37.01323],[127.57457,37.01353],[127.57587,37.01471],[127.57668,37.01502],[127.57969,37.01488],[127.58015,37.0142],[127.57987,37.01365],[127.58045,37.01306],[127.58148,37.01242],[127.58247,37.01263],[127.58315,37.01278],[127.58429,37.01319],[127.58728,37.01309],[127.58895,37.01269],[127.58922,37.01278],[127.58961,37.01369],[127.59016,37.01454],[127.59378,37.01449],[127.59707,37.01445],[127.59747,37.01398],[127.59739,37.01348],[127.59554,37.01032],[127.59709,37.00896],[127.59783,37.00877],[127.59836,37.00975],[127.59838,37.00979],[127.59839,37.01036],[127.59841,37.01087],[127.60113,37.01043],[127.6039,37.01001],[127.60509,37.01008],[127.60674,37.01029],[127.60866,37.01048],[127.6139,37.01041],[127.6157,37.00955],[127.61739,37.00714],[127.61801,37.00709],[127.61831,37.00706],[127.61891,37.00775],[127.62131,37.00979],[127.62548,37.01265],[127.62769,37.01172],[127.63006,37.01065],[127.63005,37.00945],[127.63517,37.00637],[127.6363,37.00583],[127.63758,37.00565],[127.63895,37.00546],[127.64053,37.00468],[127.64155,36.99928],[127.64108,36.99851],[127.64139,36.99629],[127.64218,36.99264],[127.64329,36.98974],[127.64414,36.98875],[127.64343,36.98862],[127.64133,36.98809],[127.64098,36.98788],[127.64063,36.98768],[127.63907,36.98714],[127.63727,36.98659],[127.63575,36.98683],[127.63505,36.98674],[127.63321,36.98575],[127.63197,36.98511],[127.6307,36.98464],[127.63014,36.98495],[127.62962,36.98522],[127.62852,36.98547],[127.62818,36.98537],[127.62785,36.98527],[127.62526,36.9821],[127.62396,36.97998],[127.62366,36.97951],[127.62227,36.97819],[127.62118,36.9774],[127.62067,36.9771],[127.62001,36.97709],[127.61965,36.97709],[127.61935,36.97727],[127.61862,36.97793],[127.61838,36.97838],[127.61794,36.97905],[127.6175,36.97952],[127.61445,36.9806],[127.6131,36.98068],[127.61296,36.98067],[127.61209,36.9806],[127.61124,36.97974],[127.60987,36.97822],[127.60943,36.97697],[127.60951,36.97635],[127.60985,36.97432],[127.61016,36.97393],[127.61115,36.9724],[127.61227,36.97065],[127.61279,36.96778],[127.61252,36.96709],[127.61231,36.96507],[127.61253,36.9645],[127.61273,36.9644],[127.61296,36.96429],[127.61426,36.96455],[127.61477,36.96466],[127.61513,36.96474],[127.61566,36.965],[127.61665,36.96584],[127.6176,36.96603],[127.61857,36.96605],[127.6189,36.96574],[127.61927,36.96536],[127.62139,36.96058],[127.6214,36.95828],[127.61858,36.95436],[127.6181,36.9538],[127.61562,36.95206],[127.61264,36.95093],[127.61067,36.95138],[127.61028,36.95164],[127.60956,36.95192],[127.60832,36.95173],[127.60457,36.94883],[127.60379,36.94777],[127.60128,36.9408],[127.60197,36.93901],[127.60204,36.93804],[127.60162,36.93806],[127.60119,36.93808],[127.59804,36.93826],[127.5965,36.93859],[127.59613,36.93868],[127.59574,36.93878],[127.59423,36.94042],[127.59417,36.94107],[127.59409,36.94141],[127.59287,36.94249],[127.58615,36.94307],[127.58512,36.94305],[127.58516,36.94455],[127.58539,36.9455],[127.58578,36.94611],[127.58565,36.94664],[127.58562,36.94671],[127.58506,36.94791],[127.58051,36.95171],[127.57898,36.95281],[127.57741,36.95361],[127.57705,36.95323],[127.57635,36.95159],[127.57465,36.94977],[127.57339,36.94849],[127.56868,36.94896],[127.56833,36.94906],[127.56742,36.94935],[127.56708,36.94956],[127.56592,36.94958],[127.56329,36.94933],[127.55877,36.94571],[127.55696,36.9434],[127.55692,36.94281],[127.55679,36.94224],[127.55629,36.94208],[127.55503,36.94168],[127.55101,36.94179],[127.55067,36.9418],[127.54895,36.94251],[127.54871,36.94308],[127.54827,36.94442],[127.54495,36.94596],[127.5445,36.94612],[127.54444,36.94981],[127.54466,36.95067],[127.54496,36.95104],[127.54497,36.95171],[127.54497,36.9519],[127.5434,36.95455],[127.54309,36.95469],[127.53978,36.95472],[127.53875,36.95644],[127.53732,36.95775],[127.53722,36.95783],[127.53714,36.95788],[127.53705,36.9579],[127.53698,36.95791],[127.5369,36.9579],[127.53668,36.95781],[127.53662,36.9578],[127.53657,36.95778],[127.53651,36.95778],[127.53645,36.95777],[127.53633,36.95778],[127.53587,36.95788],[127.53553,36.95799],[127.53534,36.95806],[127.53531,36.95809],[127.53527,36.95812],[127.53525,36.95814],[127.53539,36.95989],[127.5354,36.95993],[127.53543,36.96002],[127.53546,36.96008],[127.53566,36.96047],[127.53585,36.96067],[127.53598,36.96081],[127.53613,36.96095],[127.53626,36.96102],[127.53634,36.96106],[127.53638,36.96106],[127.53641,36.96107],[127.53656,36.96108],[127.53709,36.9612],[127.5373,36.96126],[127.53791,36.96166],[127.53797,36.9617],[127.53857,36.96263],[127.53861,36.96268],[127.54013,36.96648],[127.54036,36.96737],[127.54113,36.97057],[127.54113,36.97068],[127.54111,36.97081],[127.54105,36.97102],[127.54097,36.97126],[127.54092,36.97136],[127.54081,36.97148],[127.54063,36.97169],[127.54051,36.97184],[127.54041,36.97204],[127.54036,36.97215],[127.54034,36.97231],[127.54033,36.97242],[127.54051,36.97452],[127.54057,36.97488],[127.54064,36.97512],[127.54075,36.97541],[127.54082,36.9756],[127.54088,36.97571],[127.54095,36.97583],[127.541,36.9759],[127.54107,36.97599],[127.53749,36.97615],[127.5289,36.97787],[127.52766,36.97817],[127.52755,36.97824],[127.52732,36.9783],[127.52534,36.97854],[127.52505,36.97856],[127.52477,36.97853],[127.52448,36.97851],[127.52425,36.97846],[127.52395,36.97839],[127.52388,36.97841],[127.52381,36.97842],[127.52337,36.97859],[127.52314,36.9787],[127.52186,36.97936],[127.52166,36.97948],[127.5215,36.97957],[127.52144,36.97962],[127.52137,36.97968],[127.52044,36.98193],[127.51924,36.98488],[127.51518,36.98867],[127.51651,36.98994],[127.51664,36.99242],[127.51664,36.99251],[127.51664,36.99258],[127.51657,36.99285],[127.51552,36.99631],[127.51384,36.99767],[127.51378,37.00004],[127.51379,37.00009],[127.51386,37.00016],[127.51411,37.0004],[127.51448,37.00061],[127.51455,37.00062],[127.51464,37.00064],[127.51479,37.00062],[127.51517,37.00054],[127.51543,37.00053],[127.51579,37.00056],[127.51607,37.00059],[127.51621,37.00064],[127.51638,37.00074],[127.51821,37.00208],[127.51898,37.00328],[127.51901,37.00332],[127.51904,37.00337],[127.51913,37.00361],[127.51916,37.0037],[127.51923,37.00396],[127.51924,37.00402],[127.51925,37.00412],[127.51947,37.00758],[127.51949,37.00792],[127.51951,37.00817],[127.51958,37.01082],[127.51958,37.01094],[127.51957,37.011],[127.51956,37.01104],[127.51932,37.01176],[127.51907,37.01247],[127.51902,37.01261],[127.51901,37.01266],[127.519,37.01272],[127.51901,37.01279],[127.51902,37.01284],[127.51926,37.01342],[127.51929,37.01346],[127.51932,37.01351],[127.51936,37.01355],[127.51939,37.01356],[127.5218,37.01498],[127.52183,37.01501],[127.52189,37.01503],[127.52196,37.01505],[127.52202,37.01507],[127.52307,37.01536],[127.5232,37.01538],[127.52327,37.01539],[127.52335,37.0154],[127.52355,37.01539],[127.52387,37.01537],[127.52392,37.01536],[127.52398,37.01535],[127.52412,37.01529],[127.52418,37.01527],[127.52423,37.01524],[127.52426,37.01523],[127.52441,37.01514],[127.52449,37.01508],[127.52453,37.01506],[127.52456,37.01503],[127.52462,37.01498],[127.52469,37.01491],[127.52492,37.01465],[127.52545,37.01388],[127.52565,37.01344],[127.52705,37.01332],[127.52994,37.01451],[127.52996,37.01453],[127.53,37.01459],[127.53004,37.01465],[127.53009,37.01476],[127.53011,37.01481],[127.53022,37.01533],[127.53026,37.01558],[127.53026,37.01562],[127.53024,37.01567],[127.53006,37.0162],[127.53003,37.01628],[127.53003,37.01635],[127.53002,37.01649],[127.53003,37.01654],[127.53005,37.01664],[127.53006,37.01668],[127.53008,37.01671],[127.53145,37.01869],[127.53244,37.01961],[127.5325,37.01965],[127.53276,37.01985],[127.53558,37.02286],[127.53914,37.02925],[127.53917,37.02932],[127.53953,37.03023],[127.53954,37.03026],[127.53955,37.03031],[127.5403,37.03745],[127.5403,37.03759],[127.5403,37.03766],[127.54016,37.03895],[127.54015,37.03903],[127.54012,37.03911],[127.54009,37.03917],[127.53927,37.04049],[127.53829,37.0425],[127.53712,37.04495],[127.53709,37.04501],[127.53704,37.04515],[127.53696,37.04551],[127.53685,37.04614],[127.53682,37.04632],[127.53682,37.04636],[127.53682,37.04642],[127.53683,37.04651],[127.53687,37.04664],[127.53708,37.04704],[127.53714,37.04719],[127.53716,37.04726],[127.53721,37.04751],[127.53722,37.04759],[127.53722,37.04796],[127.53721,37.04803],[127.5372,37.04807],[127.53718,37.04811],[127.53634,37.04946],[127.53632,37.04949],[127.53629,37.04953],[127.53626,37.04956],[127.53621,37.0496],[127.53598,37.04975],[127.53591,37.0498],[127.53549,37.05005],[127.53504,37.05033],[127.53497,37.05037],[127.53495,37.0504],[127.53491,37.05043],[127.53488,37.05047],[127.53486,37.05049],[127.5348,37.05059],[127.53477,37.05066],[127.53477,37.0507],[127.53489,37.05185],[127.53494,37.05225],[127.53499,37.05248],[127.53502,37.05261],[127.5357,37.05357],[127.54011,37.05096],[127.54075,37.05093],[127.54388,37.04953],[127.54416,37.04933],[127.54423,37.04922],[127.5443,37.04908],[127.54446,37.04871],[127.54643,37.04758],[127.55004,37.04558],[127.55043,37.0454],[127.55558,37.04386],[127.55811,37.04318],[127.55953,37.04298],[127.5598,37.04295],[127.55989,37.04295],[127.55998,37.04296],[127.56009,37.04298],[127.56023,37.04303],[127.56037,37.04307],[127.5607,37.04318],[127.56095,37.04327],[127.5618,37.04371],[127.56199,37.04382],[127.56214,37.04392],[127.5622,37.04399],[127.56225,37.04404],[127.56228,37.0441],[127.56241,37.04461]]]]}},{"type":"Feature","properties":{"code":"43770310","name":"소이면","parent":"43770"},"geometry":{"type":"MultiPolygon","coordinates":[[[[127.74785,36.96092],[127.74844,36.96047],[127.75007,36.95922],[127.75148,36.95845],[127.75232,36.95812],[127.75273,36.95799],[127.75345,36.95731],[127.75447,36.95508],[127.75451,36.95462],[127.75643,36.95217],[127.75836,36.95156],[127.76072,36.95012],[127.76267,36.94867],[127.76289,36.94848],[127.764,36.94625],[127.76397,36.94612],[127.76388,36.94577],[127.76358,36.94552],[127.7634,36.94541],[127.76317,36.94529],[127.76279,36.94515],[127.76244,36.94502],[127.762,36.94487],[127.76176,36.94444],[127.7617,36.94417],[127.76197,36.94372],[127.76421,36.94071],[127.76455,36.94039],[127.76479,36.94016],[127.76539,36.93998],[127.76583,36.93988],[127.76648,36.93988],[127.76699,36.9398],[127.76723,36.93968],[127.76923,36.93854],[127.76974,36.93809],[127.77026,36.93748],[127.77076,36.93645],[127.77097,36.93561],[127.77122,36.93468],[127.7713,36.93442],[127.77164,36.93376],[127.77222,36.9332],[127.77243,36.93314],[127.77262,36.93308],[127.77309,36.93305],[127.77363,36.93302],[127.77498,36.93318],[127.78059,36.93495],[127.78177,36.93605],[127.78279,36.93704],[127.78403,36.93741],[127.78527,36.9374],[127.78621,36.9369],[127.78755,36.9368],[127.78799,36.93696],[127.78873,36.93723],[127.78874,36.9341],[127.7886,36.93357],[127.78794,36.93271],[127.7875,36.93159],[127.78771,36.93124],[127.7884,36.93065],[127.78934,36.92925],[127.78929,36.92841],[127.7891,36.9273],[127.78862,36.92646],[127.78638,36.92473],[127.78265,36.92451],[127.78212,36.92399],[127.7822,36.92368],[127.78363,36.91879],[127.78401,36.91767],[127.7869,36.91598],[127.78738,36.91587],[127.78946,36.91603],[127.7899,36.91627],[127.79056,36.91686],[127.79112,36.91689],[127.79151,36.91689],[127.79295,36.91688],[127.79368,36.91663],[127.79429,36.91618],[127.7945,36.91576],[127.79445,36.91544],[127.7944,36.91513],[127.79435,36.91408],[127.79508,36.91356],[127.79638,36.91295],[127.79737,36.91225],[127.79763,36.91173],[127.79826,36.90984],[127.7984,36.90729],[127.79771,36.90566],[127.79707,36.90416],[127.79632,36.90312],[127.79515,36.90317],[127.79346,36.90394],[127.79157,36.90532],[127.78815,36.90659],[127.78711,36.90643],[127.78571,36.90588],[127.7857,36.90558],[127.78575,36.90539],[127.78601,36.90469],[127.78639,36.90403],[127.78734,36.90343],[127.78833,36.90283],[127.79049,36.90212],[127.79166,36.90155],[127.79205,36.90113],[127.79252,36.90039],[127.79255,36.8997],[127.79219,36.89803],[127.79144,36.89726],[127.78978,36.89654],[127.78751,36.8945],[127.7878,36.89248],[127.78824,36.88948],[127.78847,36.88856],[127.78879,36.88724],[127.78912,36.88561],[127.78916,36.88415],[127.78909,36.88352],[127.78888,36.88234],[127.78842,36.88152],[127.78794,36.88091],[127.7874,36.8806],[127.78595,36.88011],[127.78281,36.87977],[127.77919,36.87894],[127.77868,36.87849],[127.7764,36.87783],[127.77429,36.87765],[127.77252,36.87763],[127.77119,36.87727],[127.77055,36.87705],[127.76947,36.87558],[127.76712,36.87479],[127.76623,36.87477],[127.76461,36.87636],[127.76425,36.87663],[127.76304,36.87722],[127.76282,36.87728],[127.76256,36.87728],[127.76154,36.87696],[127.76136,36.8769],[127.76112,36.87671],[127.76102,36.87644],[127.76099,36.8762],[127.7607,36.87566],[127.76033,36.87508],[127.75964,36.87454],[127.75908,36.87415],[127.75609,36.87337],[127.75015,36.87306],[127.748,36.87401],[127.74791,36.87416],[127.74785,36.87539],[127.74735,36.87619],[127.74583,36.87758],[127.7454,36.87784],[127.74435,36.87763],[127.74345,36.8774],[127.74321,36.87735],[127.7428,36.87739],[127.73864,36.87835],[127.73574,36.8794],[127.73509,36.87946],[127.73441,36.87924],[127.73414,36.87916],[127.73149,36.87837],[127.73117,36.87838],[127.7305,36.87856],[127.72706,36.87945],[127.72667,36.87948],[127.72609,36.87938],[127.72538,36.87903],[127.72483,36.87877],[127.72207,36.87754],[127.72057,36.87704],[127.72052,36.87705],[127.72048,36.87706],[127.71902,36.87732],[127.71808,36.87727],[127.717,36.87722],[127.71639,36.87841],[127.71565,36.88015],[127.71565,36.88042],[127.71578,36.88075],[127.71631,36.88114],[127.71665,36.88121],[127.71699,36.88131],[127.71899,36.88468],[127.71919,36.88527],[127.71942,36.88702],[127.71942,36.88893],[127.71787,36.89164],[127.71652,36.89311],[127.71599,36.89341],[127.71541,36.89378],[127.7145,36.89472],[127.71412,36.89533],[127.71333,36.89915],[127.71296,36.90121],[127.7128,36.90464],[127.71275,36.90716],[127.7123,36.90798],[127.71485,36.90919],[127.71595,36.90979],[127.71629,36.91002],[127.71688,36.91046],[127.71783,36.91131],[127.72068,36.9146],[127.72182,36.91614],[127.72187,36.91665],[127.72178,36.9177],[127.72175,36.91807],[127.72193,36.91882],[127.72258,36.92066],[127.72565,36.92333],[127.72717,36.92448],[127.72912,36.92545],[127.72952,36.92565],[127.73011,36.92597],[127.73102,36.92654],[127.73138,36.92697],[127.73139,36.92707],[127.73124,36.92715],[127.73096,36.9273],[127.73088,36.92732],[127.7308,36.92734],[127.73071,36.92753],[127.73067,36.92761],[127.73051,36.92796],[127.73049,36.92801],[127.73048,36.92811],[127.73047,36.92814],[127.73045,36.92828],[127.73038,36.92888],[127.73046,36.92923],[127.73098,36.93145],[127.73178,36.93457],[127.73179,36.93479],[127.73179,36.93482],[127.72972,36.93666],[127.7283,36.93677],[127.72714,36.93683],[127.72614,36.93682],[127.72448,36.93704],[127.7218,36.93778],[127.72139,36.9379],[127.72144,36.93817],[127.72168,36.9385],[127.72188,36.93853],[127.72212,36.93857],[127.72241,36.9387],[127.72263,36.93913],[127.72266,36.93979],[127.72267,36.94022],[127.72267,36.94037],[127.72251,36.94175],[127.72054,36.94547],[127.7198,36.94656],[127.71935,36.94699],[127.71819,36.94764],[127.71725,36.94805],[127.71667,36.94846],[127.71659,36.94871],[127.71593,36.95137],[127.71601,36.95238],[127.7163,36.95632],[127.71637,36.95844],[127.71857,36.95873],[127.71909,36.95878],[127.72205,36.95901],[127.7277,36.95905],[127.72809,36.95889],[127.73016,36.95793],[127.73071,36.95741],[127.73091,36.9571],[127.7314,36.95595],[127.733,36.95357],[127.73317,36.95352],[127.73326,36.95351],[127.73335,36.9535],[127.73413,36.95353],[127.73766,36.95352],[127.73941,36.95234],[127.73965,36.95231],[127.7403,36.95246],[127.74089,36.9526],[127.74181,36.95289],[127.74247,36.95341],[127.74225,36.9536],[127.74217,36.95364],[127.74206,36.95368],[127.74193,36.95373],[127.74176,36.95383],[127.74162,36.95392],[127.7415,36.95401],[127.74141,36.9541],[127.74134,36.95418],[127.74013,36.95547],[127.74012,36.9555],[127.7401,36.95553],[127.73985,36.95697],[127.73983,36.9571],[127.73982,36.95722],[127.73986,36.95807],[127.73997,36.95851],[127.74005,36.95872],[127.74018,36.9589],[127.74035,36.9591],[127.74049,36.95927],[127.74062,36.95939],[127.74258,36.96075],[127.74289,36.96088],[127.74317,36.96097],[127.74338,36.96098],[127.74373,36.96099],[127.74398,36.96097],[127.74419,36.96087],[127.74477,36.96057],[127.74785,36.96092]]]]}},{"type":"Feature","properties":{"code":"43770320","name":"원남면","parent":"43770"},"geometry":{"type":"MultiPolygon","coordinates":[[[[127.7123,36.90798],[127.71275,36.90716],[127.7128,36.90464],[127.71296,36.90121],[127.71333,36.89915],[127.71412,36.89533],[127.7145,36.89472],[127.71541,36.89378],[127.71599,36.89341],[127.71652,36.89311],[127.71787,36.89164],[127.71942,36.88893],[127.71942,36.88702],[127.71919,36.88527],[127.71899,36.88468],[127.71699,36.88131],[127.71665,36.88121],[127.71631,36.88114],[127.71578,36.88075],[127.71565,36.88042],[127.71565,36.88015],[127.71639,36.87841],[127.717,36.87722],[127.70841,36.87732],[127.7078,36.87582],[127.70023,36.87862],[127.69882,36.87995],[127.698,36.8805],[127.69474,36.88001],[127.69352,36.87964],[127.68991,36.87851],[127.68967,36.87815],[127.68941,36.87777],[127.68991,36.87731],[127.69034,36.87721],[127.69081,36.87711],[127.69148,36.87585],[127.69145,36.87532],[127.69038,36.87253],[127.69007,36.872],[127.6898,36.87154],[127.68817,36.8706],[127.68624,36.86849],[127.68623,36.86844],[127.68614,36.8657],[127.68638,36.86405],[127.68724,36.86236],[127.68696,36.86079],[127.68677,36.86013],[127.68641,36.85954],[127.68609,36.8593],[127.68606,36.85928],[127.68537,36.85916],[127.68467,36.85904],[127.68439,36.85898],[127.68412,36.85893],[127.68377,36.85838],[127.68345,36.85726],[127.68344,36.85648],[127.68359,36.856],[127.68124,36.85402],[127.67892,36.85264],[127.67823,36.852],[127.67792,36.85152],[127.67786,36.85079],[127.67735,36.85066],[127.67649,36.85064],[127.67611,36.85078],[127.67597,36.85118],[127.67605,36.85143],[127.67612,36.85164],[127.67598,36.85183],[127.67477,36.85291],[127.67163,36.85424],[127.66833,36.8565],[127.66601,36.85777],[127.6594,36.85986],[127.65708,36.86058],[127.6561,36.86077],[127.65574,36.86076],[127.6543,36.86045],[127.65338,36.86075],[127.65277,36.86079],[127.64896,36.85992],[127.64823,36.85965],[127.64518,36.85823],[127.64203,36.85543],[127.64059,36.85337],[127.63836,36.84989],[127.63827,36.84968],[127.63796,36.84865],[127.63784,36.8473],[127.63573,36.84715],[127.63556,36.84712],[127.63539,36.84705],[127.63112,36.84513],[127.62657,36.84259],[127.62652,36.84256],[127.62644,36.84245],[127.62636,36.84232],[127.62619,36.84195],[127.62603,36.84141],[127.62594,36.84078],[127.62594,36.84067],[127.62596,36.84061],[127.62598,36.84052],[127.626,36.84033],[127.62595,36.84013],[127.62578,36.8396],[127.62572,36.83944],[127.62513,36.83808],[127.62499,36.83786],[127.62485,36.8377],[127.62478,36.83764],[127.62473,36.83761],[127.62461,36.83757],[127.62344,36.83732],[127.62326,36.8373],[127.62285,36.83728],[127.62187,36.83719],[127.62103,36.8371],[127.62029,36.83698],[127.62007,36.83693],[127.61859,36.8365],[127.61847,36.83645],[127.61833,36.83636],[127.61824,36.8363],[127.61815,36.8362],[127.61808,36.83604],[127.61795,36.83571],[127.61788,36.83557],[127.61776,36.8354],[127.61724,36.83488],[127.61704,36.83472],[127.61687,36.8346],[127.61667,36.83451],[127.61646,36.83444],[127.61594,36.83435],[127.61573,36.83431],[127.61464,36.83426],[127.61435,36.83425],[127.61425,36.83425],[127.61412,36.83431],[127.61391,36.83443],[127.61372,36.83458],[127.61361,36.83471],[127.61355,36.83486],[127.61353,36.83496],[127.61349,36.83618],[127.61343,36.83921],[127.61293,36.84396],[127.61275,36.84407],[127.61187,36.84526],[127.61184,36.84532],[127.61133,36.84772],[127.61131,36.84783],[127.61133,36.84794],[127.61139,36.84814],[127.61143,36.84824],[127.61273,36.85106],[127.61289,36.85129],[127.61434,36.85296],[127.61443,36.853],[127.61453,36.85302],[127.61476,36.85302],[127.61491,36.85299],[127.61509,36.85298],[127.61522,36.85298],[127.61529,36.85301],[127.61541,36.85312],[127.61573,36.85365],[127.61593,36.85402],[127.616,36.85415],[127.6168,36.85594],[127.61697,36.85631],[127.61742,36.85756],[127.6174,36.85765],[127.61735,36.85771],[127.61695,36.85815],[127.61665,36.85845],[127.61647,36.85861],[127.61628,36.8587],[127.61623,36.8587],[127.61607,36.85872],[127.61582,36.85871],[127.61563,36.85869],[127.61378,36.85818],[127.61353,36.85809],[127.61274,36.85764],[127.61263,36.85756],[127.61239,36.85732],[127.61169,36.85672],[127.6114,36.8565],[127.60643,36.85338],[127.6032,36.852],[127.60297,36.85195],[127.59785,36.85202],[127.59547,36.85301],[127.59535,36.85327],[127.59523,36.85352],[127.595,36.85386],[127.59452,36.85456],[127.59441,36.85472],[127.59417,36.85502],[127.59272,36.85671],[127.59257,36.85687],[127.59238,36.85702],[127.59221,36.85716],[127.59199,36.85731],[127.59185,36.85741],[127.59162,36.85753],[127.59148,36.85759],[127.59133,36.85761],[127.59121,36.85759],[127.59102,36.85754],[127.59001,36.8574],[127.58747,36.85725],[127.58447,36.85733],[127.58415,36.85735],[127.58393,36.85738],[127.58365,36.85744],[127.58291,36.85769],[127.58275,36.85776],[127.58251,36.85788],[127.58198,36.85818],[127.58174,36.85834],[127.5815,36.85851],[127.58106,36.85873],[127.58084,36.85878],[127.5805,36.85873],[127.58001,36.8585],[127.57935,36.85805],[127.57901,36.85777],[127.57864,36.85732],[127.57848,36.8571],[127.57835,36.85684],[127.57826,36.85644],[127.57821,36.85617],[127.57822,36.85604],[127.57826,36.85553],[127.57829,36.85486],[127.57825,36.85434],[127.57813,36.8539],[127.57798,36.85344],[127.57791,36.85327],[127.57563,36.85699],[127.57515,36.85781],[127.57516,36.85854],[127.57608,36.86012],[127.57708,36.86151],[127.57765,36.8631],[127.57715,36.86377],[127.57627,36.86444],[127.57724,36.86583],[127.57869,36.86587],[127.57994,36.86584],[127.58168,36.86647],[127.58465,36.86923],[127.58497,36.86977],[127.58514,36.87041],[127.58455,36.87449],[127.58333,36.87564],[127.58179,36.87652],[127.58147,36.87664],[127.58116,36.8768],[127.581,36.87724],[127.58101,36.8774],[127.58145,36.87792],[127.58262,36.87792],[127.58343,36.87846],[127.58533,36.88193],[127.58876,36.88683],[127.58993,36.89124],[127.59038,36.89418],[127.59021,36.89478],[127.59015,36.89515],[127.59027,36.89538],[127.59126,36.89697],[127.59192,36.89787],[127.59298,36.89967],[127.59261,36.90162],[127.5923,36.90208],[127.59243,36.90249],[127.5933,36.90323],[127.59693,36.90194],[127.59821,36.90142],[127.59962,36.9006],[127.59982,36.89981],[127.59971,36.89838],[127.59989,36.89794],[127.60195,36.89846],[127.60269,36.8991],[127.60331,36.89971],[127.60377,36.90032],[127.60635,36.90161],[127.60731,36.90173],[127.60791,36.90179],[127.60865,36.90186],[127.6114,36.90322],[127.61213,36.90366],[127.61333,36.90442],[127.61371,36.90467],[127.61838,36.90508],[127.61845,36.90508],[127.61972,36.9051],[127.63015,36.90348],[127.63265,36.9024],[127.6368,36.90183],[127.64116,36.89991],[127.64367,36.89978],[127.64451,36.89995],[127.65009,36.90159],[127.65022,36.90168],[127.65053,36.90187],[127.65096,36.90215],[127.652,36.90474],[127.65261,36.90618],[127.65339,36.90772],[127.65484,36.90984],[127.65588,36.91127],[127.65822,36.91162],[127.65841,36.91175],[127.65865,36.91192],[127.65953,36.91327],[127.66001,36.91424],[127.66041,36.91486],[127.66136,36.91615],[127.66164,36.91638],[127.66432,36.91568],[127.66661,36.91471],[127.67366,36.91301],[127.67423,36.91329],[127.67466,36.91457],[127.67504,36.91529],[127.67562,36.91564],[127.67923,36.91754],[127.68044,36.91741],[127.68116,36.91701],[127.68662,36.91672],[127.687,36.91673],[127.68738,36.91675],[127.69131,36.91732],[127.69207,36.9176],[127.69259,36.91838],[127.69356,36.91986],[127.69626,36.9199],[127.69631,36.91983],[127.69738,36.91842],[127.69835,36.91712],[127.69838,36.91708],[127.69859,36.91645],[127.69883,36.91575],[127.6992,36.91494],[127.70039,36.91393],[127.70202,36.91265],[127.70293,36.91222],[127.7039,36.91203],[127.70426,36.91213],[127.70451,36.9122],[127.70543,36.91222],[127.70627,36.91202],[127.7069,36.91188],[127.70812,36.91101],[127.70921,36.91002],[127.71032,36.90901],[127.71106,36.90862],[127.7123,36.90798]]]]}},{"type":"Feature","properties":{"code":"43770330","name":"맹동면","parent":"43770"},"geometry":{"type":"MultiPolygon","coordinates":[[[[127.58512,36.94305],[127.58426,36.94254],[127.58373,36.94217],[127.58327,36.94185],[127.58237,36.94072],[127.58219,36.9405],[127.58188,36.93839],[127.58169,36.93747],[127.58103,36.93475],[127.57967,36.93239],[127.57898,36.93214],[127.57848,36.93187],[127.57799,36.93159],[127.5773,36.92995],[127.5768,36.92821],[127.57673,36.92777],[127.57669,36.92749],[127.5782,36.92753],[127.57877,36.92787],[127.57912,36.92811],[127.57939,36.92829],[127.58005,36.92859],[127.58112,36.92889],[127.58217,36.92846],[127.58279,36.92796],[127.5839,36.92574],[127.58433,36.92397],[127.58505,36.9207],[127.58667,36.91593],[127.58688,36.91351],[127.58658,36.91264],[127.58771,36.91056],[127.58995,36.90987],[127.59223,36.90902],[127.59242,36.90819],[127.59218,36.90705],[127.5919,36.90628],[127.59184,36.90528],[127.59197,36.90504],[127.59207,36.90486],[127.59252,36.90419],[127.5933,36.90323],[127.59243,36.90249],[127.5923,36.90208],[127.59261,36.90162],[127.59298,36.89967],[127.59192,36.89787],[127.59126,36.89697],[127.59027,36.89538],[127.59015,36.89515],[127.59021,36.89478],[127.59038,36.89418],[127.58993,36.89124],[127.58876,36.88683],[127.58533,36.88193],[127.58343,36.87846],[127.58262,36.87792],[127.58145,36.87792],[127.58101,36.8774],[127.581,36.87724],[127.58116,36.8768],[127.58147,36.87664],[127.58179,36.87652],[127.58067,36.87664],[127.57906,36.8769],[127.57319,36.8779],[127.57178,36.87855],[127.57211,36.87981],[127.57211,36.88029],[127.57185,36.88097],[127.57142,36.88206],[127.56927,36.88519],[127.56906,36.88548],[127.56867,36.88577],[127.56826,36.88587],[127.56741,36.88492],[127.56688,36.88394],[127.56672,36.88337],[127.56702,36.88303],[127.56684,36.88272],[127.56363,36.88234],[127.56218,36.88252],[127.56179,36.88311],[127.56118,36.88461],[127.56124,36.88526],[127.56117,36.88594],[127.55989,36.8867],[127.55855,36.88643],[127.55742,36.88585],[127.55606,36.88629],[127.55603,36.88632],[127.55535,36.88702],[127.55499,36.88872],[127.55496,36.88911],[127.55523,36.88975],[127.55564,36.89035],[127.55514,36.89128],[127.55269,36.89258],[127.55191,36.89397],[127.555,36.89646],[127.55391,36.8979],[127.55373,36.89812],[127.55366,36.89821],[127.55306,36.89818],[127.55203,36.89771],[127.55167,36.89768],[127.5508,36.89783],[127.5496,36.89821],[127.54589,36.90075],[127.54606,36.90185],[127.54635,36.90272],[127.54497,36.90487],[127.5448,36.90497],[127.54474,36.90498],[127.54374,36.90519],[127.54326,36.90523],[127.54245,36.9054],[127.54152,36.90563],[127.53892,36.90842],[127.53757,36.90992],[127.53723,36.91032],[127.536,36.91137],[127.53555,36.91175],[127.53464,36.91227],[127.53246,36.91222],[127.53168,36.91156],[127.53,36.91115],[127.52714,36.9107],[127.52566,36.91133],[127.5232,36.91571],[127.523,36.91692],[127.52293,36.91787],[127.52261,36.91891],[127.52034,36.92245],[127.52006,36.92287],[127.51986,36.92317],[127.5147,36.92788],[127.51172,36.93058],[127.51135,36.9309],[127.51145,36.93088],[127.51181,36.93084],[127.51256,36.93122],[127.51287,36.93142],[127.51505,36.93322],[127.51636,36.93487],[127.51639,36.93494],[127.5165,36.93501],[127.52264,36.93914],[127.52614,36.94125],[127.52647,36.94137],[127.52689,36.94151],[127.52707,36.94156],[127.52729,36.94158],[127.53034,36.94324],[127.53074,36.94412],[127.53111,36.94495],[127.53113,36.94498],[127.53146,36.94568],[127.53167,36.94608],[127.53202,36.94664],[127.53217,36.94684],[127.53451,36.94943],[127.53632,36.95023],[127.53774,36.95193],[127.53978,36.95472],[127.54309,36.95469],[127.5434,36.95455],[127.54497,36.9519],[127.54497,36.95171],[127.54496,36.95104],[127.54466,36.95067],[127.54444,36.94981],[127.5445,36.94612],[127.54495,36.94596],[127.54827,36.94442],[127.54871,36.94308],[127.54895,36.94251],[127.55067,36.9418],[127.55101,36.94179],[127.55503,36.94168],[127.55629,36.94208],[127.55679,36.94224],[127.55692,36.94281],[127.55696,36.9434],[127.55877,36.94571],[127.56329,36.94933],[127.56592,36.94958],[127.56708,36.94956],[127.56742,36.94935],[127.56833,36.94906],[127.56868,36.94896],[127.57339,36.94849],[127.57465,36.94977],[127.57635,36.95159],[127.57705,36.95323],[127.57741,36.95361],[127.57898,36.95281],[127.58051,36.95171],[127.58506,36.94791],[127.58562,36.94671],[127.58565,36.94664],[127.58578,36.94611],[127.58539,36.9455],[127.58516,36.94455],[127.58512,36.94305]]]]}},{"type":"Feature","properties":{"code":"43770256","name":"대소읍","parent":"43770"},"geometry":{"type":"MultiPolygon","coordinates":[[[[127.52395,36.97839],[127.52425,36.97846],[127.52448,36.97851],[127.52477,36.97853],[127.52505,36.97856],[127.52534,36.97854],[127.52732,36.9783],[127.52755,36.97824],[127.52766,36.97817],[127.5289,36.97787],[127.53749,36.97615],[127.54107,36.97599],[127.541,36.9759],[127.54095,36.97583],[127.54088,36.97571],[127.54082,36.9756],[127.54075,36.97541],[127.54064,36.97512],[127.54057,36.97488],[127.54051,36.97452],[127.54033,36.97242],[127.54034,36.97231],[127.54036,36.97215],[127.54041,36.97204],[127.54051,36.97184],[127.54063,36.97169],[127.54081,36.97148],[127.54092,36.97136],[127.54097,36.97126],[127.54105,36.97102],[127.54111,36.97081],[127.54113,36.97068],[127.54113,36.97057],[127.54036,36.96737],[127.54013,36.96648],[127.53861,36.96268],[127.53857,36.96263],[127.53797,36.9617],[127.53791,36.96166],[127.5373,36.96126],[127.53709,36.9612],[127.53656,36.96108],[127.53641,36.96107],[127.53638,36.96106],[127.53634,36.96106],[127.53626,36.96102],[127.53613,36.96095],[127.53598,36.96081],[127.53585,36.96067],[127.53566,36.96047],[127.53546,36.96008],[127.53543,36.96002],[127.5354,36.95993],[127.53539,36.95989],[127.53525,36.95814],[127.53527,36.95812],[127.53531,36.95809],[127.53534,36.95806],[127.53553,36.95799],[127.53587,36.95788],[127.53633,36.95778],[127.53645,36.95777],[127.53651,36.95778],[127.53657,36.95778],[127.53662,36.9578],[127.53668,36.95781],[127.5369,36.9579],[127.53698,36.95791],[127.53705,36.9579],[127.53714,36.95788],[127.53722,36.95783],[127.53732,36.95775],[127.53875,36.95644],[127.53978,36.95472],[127.53774,36.95193],[127.53632,36.95023],[127.53451,36.94943],[127.53217,36.94684],[127.53202,36.94664],[127.53167,36.94608],[127.53146,36.94568],[127.53113,36.94498],[127.53111,36.94495],[127.53074,36.94412],[127.53034,36.94324],[127.52729,36.94158],[127.52707,36.94156],[127.52689,36.94151],[127.52647,36.94137],[127.52614,36.94125],[127.52264,36.93914],[127.5165,36.93501],[127.51639,36.93494],[127.51636,36.93487],[127.51505,36.93322],[127.51287,36.93142],[127.51256,36.93122],[127.51181,36.93084],[127.51145,36.93088],[127.51135,36.9309],[127.51022,36.9304],[127.50706,36.9316],[127.50202,36.93339],[127.49981,36.93407],[127.49848,36.9348],[127.49503,36.93681],[127.49415,36.93734],[127.4916,36.93871],[127.49149,36.93876],[127.49128,36.93879],[127.49076,36.93879],[127.4905,36.93879],[127.4855,36.93823],[127.48364,36.93729],[127.48352,36.93721],[127.48329,36.93699],[127.4829,36.93646],[127.48284,36.93635],[127.48286,36.93555],[127.4829,36.93525],[127.4829,36.93518],[127.48277,36.93468],[127.4827,36.93455],[127.48135,36.93368],[127.47822,36.93587],[127.4781,36.93593],[127.47669,36.93635],[127.47634,36.93643],[127.47582,36.93636],[127.47505,36.93621],[127.47407,36.93597],[127.47393,36.93593],[127.4738,36.93591],[127.47341,36.93584],[127.47311,36.93581],[127.47286,36.93582],[127.4706,36.93625],[127.47012,36.93641],[127.47007,36.93643],[127.47002,36.93646],[127.46533,36.93961],[127.46523,36.9397],[127.46396,36.94141],[127.46392,36.94159],[127.46391,36.94171],[127.46387,36.94208],[127.46386,36.94218],[127.46386,36.94334],[127.46388,36.94343],[127.464,36.9436],[127.46404,36.94376],[127.46403,36.94394],[127.464,36.94412],[127.46331,36.94606],[127.46327,36.94618],[127.4632,36.94628],[127.46274,36.94677],[127.46223,36.9473],[127.46213,36.94736],[127.46144,36.94763],[127.46103,36.94777],[127.4606,36.94787],[127.46035,36.94793],[127.45992,36.94798],[127.45955,36.94799],[127.45936,36.94799],[127.45932,36.94797],[127.45643,36.94729],[127.45091,36.94798],[127.45079,36.948],[127.45068,36.94802],[127.44961,36.94849],[127.44942,36.94859],[127.44922,36.9487],[127.44895,36.94891],[127.44867,36.94922],[127.44802,36.95002],[127.44693,36.95085],[127.44686,36.95097],[127.44683,36.95106],[127.44528,36.95856],[127.44531,36.95881],[127.4456,36.95983],[127.44573,36.96004],[127.44599,36.9604],[127.44661,36.96109],[127.44712,36.96152],[127.44915,36.96289],[127.44944,36.96307],[127.44974,36.9632],[127.45,36.96331],[127.45023,36.96333],[127.45047,36.96333],[127.45066,36.96331],[127.45072,36.9633],[127.45077,36.96329],[127.45083,36.96326],[127.45089,36.96323],[127.45095,36.96315],[127.45102,36.96302],[127.45108,36.96273],[127.4512,36.96248],[127.45129,36.96234],[127.45139,36.9622],[127.45161,36.96203],[127.45186,36.96193],[127.45206,36.9619],[127.45221,36.96191],[127.45314,36.96206],[127.45374,36.96216],[127.45537,36.9628],[127.45622,36.96324],[127.45648,36.96339],[127.45694,36.96365],[127.45712,36.96376],[127.4572,36.96383],[127.45721,36.96391],[127.4572,36.96406],[127.45705,36.96544],[127.45588,36.96837],[127.4556,36.96861],[127.45532,36.96884],[127.45444,36.96952],[127.45423,36.9711],[127.45351,36.97368],[127.45329,36.97432],[127.45318,36.97448],[127.45291,36.97475],[127.45245,36.97497],[127.45238,36.97499],[127.4523,36.97503],[127.45184,36.97511],[127.45167,36.97509],[127.45159,36.97503],[127.45141,36.97479],[127.44949,36.97662],[127.44896,36.98033],[127.44812,36.98877],[127.44873,36.99221],[127.44878,36.99242],[127.44889,36.99257],[127.44896,36.99267],[127.45018,36.99389],[127.45032,36.99384],[127.45081,36.99363],[127.45098,36.99355],[127.45147,36.99324],[127.4515,36.99321],[127.45155,36.99318],[127.45185,36.99297],[127.45233,36.99259],[127.45279,36.99212],[127.45297,36.99169],[127.45349,36.99134],[127.45495,36.99049],[127.45518,36.99046],[127.4564,36.99031],[127.45939,36.98978],[127.46082,36.98943],[127.46099,36.9894],[127.46123,36.98936],[127.46149,36.98933],[127.46235,36.98926],[127.4629,36.98922],[127.46331,36.9892],[127.46788,36.98918],[127.46821,36.9892],[127.46839,36.98925],[127.47179,36.99046],[127.47196,36.99056],[127.47211,36.99069],[127.4758,36.99053],[127.48282,36.98988],[127.48477,36.98951],[127.48546,36.989],[127.48635,36.98827],[127.4864,36.98822],[127.48643,36.98817],[127.48645,36.98812],[127.48654,36.9879],[127.48655,36.98785],[127.48658,36.98774],[127.48673,36.98695],[127.48696,36.98496],[127.487,36.98422],[127.48699,36.98418],[127.48695,36.98412],[127.48676,36.98383],[127.48667,36.98373],[127.48663,36.98367],[127.48662,36.98362],[127.48667,36.98354],[127.48675,36.98345],[127.48795,36.98209],[127.49177,36.97886],[127.49254,36.97843],[127.49258,36.97842],[127.4934,36.97824],[127.49361,36.97824],[127.4966,36.97838],[127.4987,36.97931],[127.49975,36.97989],[127.50051,36.98059],[127.50258,36.98065],[127.50347,36.98024],[127.50368,36.98015],[127.50497,36.97742],[127.50752,36.97507],[127.50759,36.97501],[127.50775,36.97492],[127.50882,36.97437],[127.51103,36.97355],[127.51397,36.9728],[127.51408,36.97277],[127.51418,36.97276],[127.51433,36.97276],[127.51443,36.97277],[127.51709,36.97319],[127.51721,36.97321],[127.51742,36.97327],[127.51766,36.97336],[127.51779,36.97343],[127.52045,36.97506],[127.52194,36.97599],[127.522,36.97606],[127.52208,36.97617],[127.52216,36.97632],[127.5222,36.97644],[127.5222,36.97653],[127.5222,36.97674],[127.52218,36.97689],[127.52254,36.97735],[127.52286,36.9777],[127.52316,36.97797],[127.52329,36.97805],[127.52395,36.97839]]]]}},{"type":"Feature","properties":{"code":"43770350","name":"삼성면","parent":"43770"},"geometry":{"type":"MultiPolygon","coordinates":[[[[127.5357,37.05357],[127.53502,37.05261],[127.53499,37.05248],[127.53494,37.05225],[127.53489,37.05185],[127.53477,37.0507],[127.53477,37.05066],[127.5348,37.05059],[127.53486,37.05049],[127.53488,37.05047],[127.53491,37.05043],[127.53495,37.0504],[127.53497,37.05037],[127.53504,37.05033],[127.53549,37.05005],[127.53591,37.0498],[127.53598,37.04975],[127.53621,37.0496],[127.53626,37.04956],[127.53629,37.04953],[127.53632,37.04949],[127.53634,37.04946],[127.53718,37.04811],[127.5372,37.04807],[127.53721,37.04803],[127.53722,37.04796],[127.53722,37.04759],[127.53721,37.04751],[127.53716,37.04726],[127.53714,37.04719],[127.53708,37.04704],[127.53687,37.04664],[127.53683,37.04651],[127.53682,37.04642],[127.53682,37.04636],[127.53682,37.04632],[127.53685,37.04614],[127.53696,37.04551],[127.53704,37.04515],[127.53709,37.04501],[127.53712,37.04495],[127.53829,37.0425],[127.53927,37.04049],[127.54009,37.03917],[127.54012,37.03911],[127.54015,37.03903],[127.54016,37.03895],[127.5403,37.03766],[127.5403,37.03759],[127.5403,37.03745],[127.53955,37.03031],[127.53954,37.03026],[127.53953,37.03023],[127.53917,37.02932],[127.53914,37.02925],[127.53558,37.02286],[127.53276,37.01985],[127.5325,37.01965],[127.53244,37.01961],[127.53145,37.01869],[127.53008,37.01671],[127.53006,37.01668],[127.53005,37.01664],[127.53003,37.01654],[127.53002,37.01649],[127.53003,37.01635],[127.53003,37.01628],[127.53006,37.0162],[127.53024,37.01567],[127.53026,37.01562],[127.53026,37.01558],[127.53022,37.01533],[127.53011,37.01481],[127.53009,37.01476],[127.53004,37.01465],[127.53,37.01459],[127.52996,37.01453],[127.52994,37.01451],[127.52705,37.01332],[127.52565,37.01344],[127.52545,37.01388],[127.52492,37.01465],[127.52469,37.01491],[127.52462,37.01498],[127.52456,37.01503],[127.52453,37.01506],[127.52449,37.01508],[127.52441,37.01514],[127.52426,37.01523],[127.52423,37.01524],[127.52418,37.01527],[127.52412,37.01529],[127.52398,37.01535],[127.52392,37.01536],[127.52387,37.01537],[127.52355,37.01539],[127.52335,37.0154],[127.52327,37.01539],[127.5232,37.01538],[127.52307,37.01536],[127.52202,37.01507],[127.52196,37.01505],[127.52189,37.01503],[127.52183,37.01501],[127.5218,37.01498],[127.51939,37.01356],[127.51936,37.01355],[127.51932,37.01351],[127.51929,37.01346],[127.51926,37.01342],[127.51902,37.01284],[127.51901,37.01279],[127.519,37.01272],[127.51901,37.01266],[127.51902,37.01261],[127.51907,37.01247],[127.51932,37.01176],[127.51956,37.01104],[127.51957,37.011],[127.51958,37.01094],[127.51958,37.01082],[127.51951,37.00817],[127.51949,37.00792],[127.51947,37.00758],[127.51925,37.00412],[127.51924,37.00402],[127.51923,37.00396],[127.51916,37.0037],[127.51913,37.00361],[127.51904,37.00337],[127.51901,37.00332],[127.51898,37.00328],[127.51821,37.00208],[127.51638,37.00074],[127.51621,37.00064],[127.51607,37.00059],[127.51579,37.00056],[127.51543,37.00053],[127.51517,37.00054],[127.51479,37.00062],[127.51464,37.00064],[127.51455,37.00062],[127.51448,37.00061],[127.51411,37.0004],[127.51386,37.00016],[127.51379,37.00009],[127.51378,37.00004],[127.51384,36.99767],[127.51552,36.99631],[127.51657,36.99285],[127.51664,36.99258],[127.51664,36.99251],[127.51664,36.99242],[127.51651,36.98994],[127.51518,36.98867],[127.51924,36.98488],[127.52044,36.98193],[127.52137,36.97968],[127.52144,36.97962],[127.5215,36.97957],[127.52166,36.97948],[127.52186,36.97936],[127.52314,36.9787],[127.52337,36.97859],[127.52381,36.97842],[127.52388,36.97841],[127.52395,36.97839],[127.52329,36.97805],[127.52316,36.97797],[127.52286,36.9777],[127.52254,36.97735],[127.52218,36.97689],[127.5222,36.97674],[127.5222,36.97653],[127.5222,36.97644],[127.52216,36.97632],[127.52208,36.97617],[127.522,36.97606],[127.52194,36.97599],[127.52045,36.97506],[127.51779,36.97343],[127.51766,36.97336],[127.51742,36.97327],[127.51721,36.97321],[127.51709,36.97319],[127.51443,36.97277],[127.51433,36.97276],[127.51418,36.97276],[127.51408,36.97277],[127.51397,36.9728],[127.51103,36.97355],[127.50882,36.97437],[127.50775,36.97492],[127.50759,36.97501],[127.50752,36.97507],[127.50497,36.97742],[127.50368,36.98015],[127.50347,36.98024],[127.50258,36.98065],[127.50051,36.98059],[127.49975,36.97989],[127.4987,36.97931],[127.4966,36.97838],[127.49361,36.97824],[127.4934,36.97824],[127.49258,36.97842],[127.49254,36.97843],[127.49177,36.97886],[127.48795,36.98209],[127.48675,36.98345],[127.48667,36.98354],[127.48662,36.98362],[127.48663,36.98367],[127.48667,36.98373],[127.48676,36.98383],[127.48695,36.98412],[127.48699,36.98418],[127.487,36.98422],[127.48696,36.98496],[127.48673,36.98695],[127.48658,36.98774],[127.48655,36.98785],[127.48654,36.9879],[127.48645,36.98812],[127.48643,36.98817],[127.4864,36.98822],[127.48635,36.98827],[127.48546,36.989],[127.48477,36.98951],[127.48282,36.98988],[127.4758,36.99053],[127.47211,36.99069],[127.47196,36.99056],[127.47179,36.99046],[127.46839,36.98925],[127.46821,36.9892],[127.46788,36.98918],[127.46331,36.9892],[127.4629,36.98922],[127.46235,36.98926],[127.46149,36.98933],[127.46123,36.98936],[127.46099,36.9894],[127.46082,36.98943],[127.45939,36.98978],[127.4564,36.99031],[127.45518,36.99046],[127.45495,36.99049],[127.45349,36.99134],[127.45297,36.99169],[127.45279,36.99212],[127.45233,36.99259],[127.45185,36.99297],[127.45155,36.99318],[127.4515,36.99321],[127.45147,36.99324],[127.45098,36.99355],[127.45081,36.99363],[127.45032,36.99384],[127.45018,36.99389],[127.44998,36.99417],[127.44797,36.99784],[127.4478,36.99847],[127.44777,36.9986],[127.44745,37.00057],[127.44743,37.00069],[127.44746,37.00081],[127.44899,37.00435],[127.44856,37.00559],[127.44828,37.00749],[127.4483,37.0077],[127.44852,37.00849],[127.44868,37.00879],[127.44896,37.00972],[127.44892,37.00985],[127.44879,37.00995],[127.44845,37.01018],[127.44806,37.0104],[127.44786,37.01049],[127.4467,37.01103],[127.44764,37.01258],[127.44832,37.01628],[127.44833,37.01645],[127.44837,37.01653],[127.44934,37.01791],[127.44952,37.01814],[127.44959,37.01821],[127.45095,37.01926],[127.45418,37.02137],[127.45424,37.02141],[127.45428,37.02143],[127.45439,37.02145],[127.4546,37.02145],[127.45477,37.02142],[127.4551,37.02131],[127.4559,37.02093],[127.45682,37.02056],[127.45764,37.02046],[127.45787,37.02047],[127.45797,37.02053],[127.45801,37.02058],[127.45857,37.02187],[127.45885,37.02256],[127.45941,37.02537],[127.4594,37.02608],[127.4593,37.02719],[127.45814,37.03],[127.4581,37.03006],[127.45804,37.03012],[127.458,37.03015],[127.45788,37.0302],[127.45784,37.03021],[127.45806,37.03297],[127.45841,37.03342],[127.45973,37.03545],[127.45974,37.03547],[127.45976,37.03554],[127.45975,37.03648],[127.4595,37.03845],[127.45943,37.03875],[127.45934,37.03897],[127.45905,37.03932],[127.45825,37.03991],[127.45801,37.04007],[127.45798,37.04009],[127.45729,37.04044],[127.45724,37.04053],[127.45721,37.04059],[127.45716,37.04203],[127.45719,37.04223],[127.45772,37.0436],[127.46034,37.04623],[127.46058,37.04645],[127.46127,37.04706],[127.46288,37.04798],[127.46311,37.0481],[127.4636,37.04834],[127.46448,37.04873],[127.46498,37.0489],[127.46566,37.0491],[127.46589,37.04916],[127.46613,37.04927],[127.46673,37.04959],[127.4683,37.05055],[127.46843,37.05065],[127.46846,37.05069],[127.46851,37.05083],[127.46857,37.05111],[127.4686,37.05137],[127.46859,37.05148],[127.46859,37.05159],[127.46853,37.05177],[127.46804,37.053],[127.47137,37.05254],[127.47546,37.0529],[127.48179,37.05332],[127.48465,37.05315],[127.48922,37.05241],[127.48928,37.05241],[127.48939,37.05242],[127.4897,37.05249],[127.48996,37.05282],[127.48994,37.05274],[127.48988,37.05246],[127.49036,37.05166],[127.49049,37.05149],[127.49072,37.0513],[127.49609,37.04872],[127.49636,37.0486],[127.49689,37.04838],[127.49914,37.0478],[127.49921,37.04778],[127.49929,37.04777],[127.49936,37.04778],[127.5045,37.04795],[127.50465,37.04796],[127.50469,37.04796],[127.50476,37.04798],[127.50502,37.04806],[127.50716,37.04878],[127.50897,37.04944],[127.50901,37.04946],[127.50905,37.04948],[127.5091,37.04952],[127.50912,37.04954],[127.50917,37.04958],[127.5092,37.04962],[127.50977,37.05074],[127.51009,37.05162],[127.50995,37.05207],[127.50998,37.05254],[127.51,37.05258],[127.51148,37.05527],[127.51151,37.0553],[127.51154,37.05533],[127.51242,37.05614],[127.51252,37.05622],[127.51649,37.05802],[127.51821,37.0584],[127.51826,37.0584],[127.51838,37.05806],[127.51835,37.05799],[127.51837,37.05791],[127.51841,37.05778],[127.51858,37.05756],[127.51872,37.05747],[127.5198,37.05677],[127.5211,37.05616],[127.52138,37.05603],[127.52207,37.05575],[127.5222,37.05569],[127.52226,37.05567],[127.52236,37.05564],[127.5227,37.05555],[127.52313,37.05544],[127.52336,37.0554],[127.52363,37.05537],[127.52367,37.05536],[127.52386,37.05534],[127.5279,37.05515],[127.52801,37.05515],[127.5283,37.05519],[127.5291,37.0554],[127.52993,37.05562],[127.53036,37.05574],[127.53055,37.05578],[127.5307,37.05581],[127.5308,37.0558],[127.53188,37.05567],[127.53199,37.05564],[127.53404,37.05473],[127.53482,37.05425],[127.5352,37.05402],[127.5357,37.05357]]]]}},{"type":"Feature","properties":{"code":"43770360","name":"생극면","parent":"43770"},"geometry":{"type":"MultiPolygon","coordinates":[[[[127.60425,37.06859],[127.60468,37.06859],[127.60509,37.06855],[127.60536,37.06852],[127.60566,37.06844],[127.60591,37.06832],[127.60612,37.06817],[127.60637,37.06797],[127.60659,37.06776],[127.60705,37.06736],[127.60717,37.06726],[127.60741,37.06711],[127.60763,37.06697],[127.60781,37.06687],[127.6082,37.06671],[127.60843,37.06664],[127.60859,37.0666],[127.6089,37.06654],[127.60948,37.06649],[127.60989,37.06648],[127.61012,37.06648],[127.61095,37.0665],[127.6114,37.06656],[127.61181,37.06661],[127.61628,37.06588],[127.61635,37.06572],[127.61697,37.06492],[127.617,37.06488],[127.61798,37.06403],[127.61802,37.06401],[127.61811,37.064],[127.61999,37.06393],[127.62002,37.06393],[127.6201,37.06399],[127.62296,37.06603],[127.62301,37.06606],[127.62304,37.0661],[127.62317,37.06626],[127.62362,37.06741],[127.62368,37.06758],[127.62368,37.06761],[127.62368,37.06768],[127.62367,37.06776],[127.62429,37.06987],[127.62661,37.07223],[127.62684,37.07244],[127.62701,37.07256],[127.62725,37.07269],[127.62733,37.07273],[127.62748,37.07278],[127.62755,37.0728],[127.62761,37.07281],[127.62782,37.07282],[127.62794,37.07281],[127.62801,37.07279],[127.62818,37.07271],[127.62829,37.07262],[127.62832,37.07258],[127.62838,37.07245],[127.62838,37.0724],[127.62838,37.07231],[127.62818,37.07038],[127.62814,37.07011],[127.62795,37.06923],[127.62779,37.06864],[127.62773,37.06853],[127.6277,37.06845],[127.62767,37.06833],[127.62761,37.06806],[127.62757,37.06783],[127.62755,37.06769],[127.62756,37.06754],[127.62774,37.06394],[127.62777,37.06367],[127.62782,37.06346],[127.62786,37.06331],[127.62794,37.06318],[127.62851,37.06229],[127.63217,37.0574],[127.63227,37.05729],[127.63234,37.05723],[127.63238,37.0572],[127.63255,37.05708],[127.63419,37.05587],[127.63429,37.0558],[127.63439,37.05577],[127.63443,37.05576],[127.63448,37.05575],[127.6346,37.05575],[127.63543,37.05575],[127.63562,37.05578],[127.6357,37.05581],[127.63575,37.05583],[127.63579,37.05585],[127.63591,37.05596],[127.63647,37.05633],[127.63748,37.05691],[127.6376,37.05697],[127.63768,37.057],[127.63785,37.05705],[127.63794,37.05707],[127.63805,37.05708],[127.63814,37.05708],[127.63826,37.05708],[127.63848,37.05705],[127.63898,37.05695],[127.63907,37.05694],[127.63924,37.05689],[127.63955,37.05675],[127.63963,37.05671],[127.63967,37.05668],[127.63971,37.05664],[127.63976,37.0566],[127.6398,37.05656],[127.64077,37.0557],[127.64237,37.05471],[127.64324,37.05429],[127.64331,37.05427],[127.64339,37.05427],[127.64349,37.05428],[127.64467,37.05418],[127.64761,37.05341],[127.64768,37.05339],[127.64781,37.05334],[127.64927,37.05276],[127.64934,37.05273],[127.65432,37.05016],[127.65442,37.0501],[127.65447,37.05007],[127.65461,37.04995],[127.65529,37.0491],[127.65533,37.04905],[127.6554,37.0489],[127.65543,37.04883],[127.65548,37.04871],[127.65552,37.04855],[127.65564,37.04821],[127.65573,37.048],[127.65578,37.04792],[127.65603,37.04754],[127.65623,37.04725],[127.6571,37.0464],[127.65991,37.04372],[127.66011,37.04353],[127.66026,37.04343],[127.66042,37.04334],[127.66052,37.04329],[127.66288,37.0423],[127.66296,37.04227],[127.66304,37.04225],[127.6632,37.04223],[127.66381,37.04216],[127.664,37.04214],[127.66409,37.04213],[127.66419,37.04213],[127.66429,37.04214],[127.66445,37.04217],[127.66488,37.04228],[127.66496,37.04231],[127.66551,37.04248],[127.6664,37.04258],[127.66656,37.04259],[127.66663,37.04259],[127.66671,37.04259],[127.6682,37.04245],[127.66838,37.04242],[127.66844,37.04241],[127.66848,37.0424],[127.66855,37.04237],[127.6686,37.04233],[127.67136,37.04028],[127.67148,37.03998],[127.67164,37.03482],[127.67134,37.03472],[127.66657,37.03311],[127.66381,37.03069],[127.66408,37.02443],[127.66424,37.02316],[127.66417,37.02312],[127.66272,37.02236],[127.6614,37.02166],[127.65786,37.01865],[127.65755,37.01834],[127.65622,37.01595],[127.65696,37.01257],[127.65741,37.01084],[127.66082,37.007],[127.66238,37.00545],[127.66528,37.004],[127.66543,37.0031],[127.66383,37.00301],[127.6635,37.00306],[127.66054,37.00349],[127.65982,37.00347],[127.65924,37.00341],[127.65873,37.00326],[127.65859,37.0032],[127.6582,37.00303],[127.65794,37.00285],[127.65762,37.00264],[127.65554,37.00092],[127.65353,36.99758],[127.65368,36.9964],[127.65468,36.9944],[127.65347,36.99244],[127.65317,36.99206],[127.65291,36.99173],[127.6529,36.99114],[127.65294,36.98915],[127.65363,36.98648],[127.65216,36.98507],[127.65101,36.98377],[127.64901,36.98502],[127.64854,36.98601],[127.64726,36.98694],[127.64414,36.98875],[127.64329,36.98974],[127.64218,36.99264],[127.64139,36.99629],[127.64108,36.99851],[127.64155,36.99928],[127.64053,37.00468],[127.63895,37.00546],[127.63758,37.00565],[127.6363,37.00583],[127.63517,37.00637],[127.63005,37.00945],[127.63006,37.01065],[127.62769,37.01172],[127.62548,37.01265],[127.62131,37.00979],[127.61891,37.00775],[127.61831,37.00706],[127.61801,37.00709],[127.61739,37.00714],[127.6157,37.00955],[127.6139,37.01041],[127.60866,37.01048],[127.60674,37.01029],[127.60509,37.01008],[127.6039,37.01001],[127.60113,37.01043],[127.59841,37.01087],[127.59839,37.01036],[127.59838,37.00979],[127.59836,37.00975],[127.59783,37.00877],[127.59709,37.00896],[127.59554,37.01032],[127.59739,37.01348],[127.59747,37.01398],[127.59707,37.01445],[127.59378,37.01449],[127.59016,37.01454],[127.58961,37.01369],[127.58922,37.01278],[127.58895,37.01269],[127.58728,37.01309],[127.58429,37.01319],[127.58315,37.01278],[127.58247,37.01263],[127.58148,37.01242],[127.58045,37.01306],[127.57987,37.01365],[127.58015,37.0142],[127.57969,37.01488],[127.57668,37.01502],[127.57587,37.01471],[127.57457,37.01353],[127.57348,37.01323],[127.56873,37.01362],[127.5676,37.01401],[127.56294,37.01653],[127.56122,37.01843],[127.56021,37.01984],[127.5604,37.02121],[127.5609,37.02239],[127.56091,37.02264],[127.55981,37.02556],[127.5592,37.0263],[127.55738,37.02662],[127.55652,37.02673],[127.55603,37.02627],[127.55442,37.02587],[127.55375,37.02654],[127.55226,37.02812],[127.55163,37.02881],[127.55172,37.0296],[127.55318,37.03099],[127.554,37.03176],[127.55625,37.03283],[127.55791,37.03361],[127.55959,37.03397],[127.5596,37.03402],[127.56012,37.03589],[127.5605,37.0374],[127.5618,37.04001],[127.56347,37.04157],[127.56315,37.04288],[127.56288,37.04367],[127.56241,37.04461],[127.56279,37.04477],[127.56301,37.04487],[127.56495,37.04587],[127.56813,37.0477],[127.56846,37.04911],[127.56711,37.05252],[127.56763,37.0538],[127.56792,37.05554],[127.56747,37.05643],[127.56625,37.05778],[127.56567,37.0584],[127.56513,37.05882],[127.56504,37.05889],[127.56501,37.05894],[127.56498,37.05902],[127.56495,37.05907],[127.56494,37.05916],[127.56495,37.05923],[127.56496,37.05929],[127.5651,37.06016],[127.56513,37.06027],[127.56519,37.06044],[127.56597,37.06216],[127.56648,37.06314],[127.56784,37.06418],[127.56982,37.06588],[127.56986,37.06592],[127.56994,37.06601],[127.5736,37.06987],[127.57501,37.07198],[127.5755,37.07303],[127.57551,37.07307],[127.57552,37.07315],[127.57555,37.0732],[127.57558,37.07327],[127.57563,37.07336],[127.57566,37.0734],[127.57572,37.0735],[127.57581,37.07361],[127.57592,37.07373],[127.57599,37.0738],[127.57622,37.07395],[127.5763,37.07399],[127.5778,37.07468],[127.57839,37.07493],[127.57938,37.07534],[127.57945,37.07536],[127.5795,37.07536],[127.57964,37.07536],[127.58039,37.07529],[127.58407,37.07489],[127.58768,37.0738],[127.58857,37.07294],[127.58862,37.0729],[127.58865,37.07289],[127.58868,37.07287],[127.589,37.07274],[127.58907,37.07274],[127.58914,37.07273],[127.58919,37.07274],[127.59218,37.07314],[127.59238,37.07319],[127.59265,37.07326],[127.59295,37.07334],[127.59414,37.07367],[127.59503,37.07395],[127.59509,37.07396],[127.59519,37.07398],[127.59534,37.07399],[127.59555,37.07398],[127.59564,37.07397],[127.59573,37.07396],[127.59589,37.07394],[127.59601,37.07391],[127.59616,37.07386],[127.59785,37.07309],[127.60211,37.07063],[127.60263,37.06947],[127.60299,37.06861],[127.60303,37.0686],[127.60401,37.06848],[127.60405,37.06848],[127.60411,37.06849],[127.60415,37.0685],[127.6042,37.06853],[127.60422,37.06855],[127.60425,37.06859]]]]}},{"type":"Feature","properties":{"code":"43770370","name":"감곡면","parent":"43770"},"geometry":{"type":"MultiPolygon","coordinates":[[[[127.69543,37.14045],[127.6956,37.14024],[127.69587,37.13995],[127.69612,37.13975],[127.69688,37.13922],[127.69874,37.13828],[127.70513,37.13686],[127.70544,37.13686],[127.70553,37.13691],[127.70568,37.13698],[127.706,37.13705],[127.7061,37.13705],[127.70717,37.13657],[127.70876,37.13583],[127.70931,37.13514],[127.71025,37.13374],[127.71032,37.13357],[127.71066,37.13241],[127.71069,37.13223],[127.71063,37.13203],[127.71048,37.13185],[127.71035,37.13169],[127.71,37.13133],[127.70993,37.13124],[127.7099,37.13121],[127.70987,37.13105],[127.70993,37.13077],[127.71051,37.12959],[127.71065,37.12932],[127.71168,37.12768],[127.71176,37.12758],[127.71432,37.12549],[127.71441,37.12543],[127.71452,37.12539],[127.71475,37.12537],[127.71542,37.12538],[127.71608,37.12538],[127.71642,37.12532],[127.71711,37.1252],[127.71745,37.12512],[127.71763,37.12505],[127.71783,37.12495],[127.7179,37.12489],[127.71798,37.12484],[127.72024,37.12305],[127.7207,37.12263],[127.72194,37.12111],[127.722,37.12103],[127.72207,37.12089],[127.72209,37.12085],[127.72275,37.11583],[127.72272,37.11474],[127.72271,37.11469],[127.72101,37.11121],[127.72095,37.11114],[127.72078,37.11097],[127.7206,37.11087],[127.72026,37.11082],[127.71787,37.11043],[127.71486,37.10992],[127.71406,37.10949],[127.71269,37.10853],[127.71265,37.10848],[127.71251,37.10797],[127.71247,37.10775],[127.71248,37.10752],[127.71251,37.10734],[127.71255,37.10722],[127.71266,37.10707],[127.7127,37.10699],[127.71272,37.10688],[127.71272,37.10684],[127.71263,37.10668],[127.71252,37.10654],[127.71104,37.10596],[127.71056,37.10586],[127.70881,37.10555],[127.70821,37.10557],[127.70806,37.10558],[127.70791,37.10559],[127.70779,37.1056],[127.70767,37.1056],[127.70758,37.1056],[127.70733,37.10557],[127.70714,37.10552],[127.70695,37.10548],[127.70611,37.10527],[127.70576,37.10515],[127.70537,37.10498],[127.70199,37.10313],[127.70077,37.10184],[127.69921,37.09964],[127.69837,37.09802],[127.6984,37.09798],[127.69999,37.09558],[127.70001,37.09554],[127.70002,37.09542],[127.6999,37.09439],[127.69939,37.09212],[127.69894,37.09137],[127.69493,37.08667],[127.69405,37.08592],[127.69377,37.08568],[127.69363,37.08554],[127.69344,37.08531],[127.69336,37.08518],[127.69331,37.08509],[127.69311,37.08473],[127.69302,37.08457],[127.693,37.08453],[127.69252,37.08308],[127.69245,37.08286],[127.69241,37.08262],[127.69239,37.08229],[127.69232,37.08139],[127.69231,37.08136],[127.69227,37.08134],[127.69201,37.08131],[127.68953,37.08102],[127.68926,37.08101],[127.68889,37.08099],[127.68861,37.08098],[127.68837,37.08097],[127.68785,37.08097],[127.68771,37.08096],[127.68759,37.08096],[127.68752,37.08095],[127.68743,37.08094],[127.68726,37.08092],[127.68717,37.0809],[127.68706,37.08087],[127.68689,37.08083],[127.68668,37.08077],[127.68654,37.08071],[127.68649,37.08069],[127.68386,37.07846],[127.68383,37.07843],[127.68381,37.07839],[127.68379,37.07832],[127.68319,37.07646],[127.68316,37.07632],[127.68314,37.07623],[127.68314,37.07612],[127.68316,37.07598],[127.68318,37.07593],[127.6832,37.07587],[127.68326,37.07573],[127.68331,37.07566],[127.68337,37.07557],[127.68341,37.07551],[127.68346,37.07545],[127.68356,37.07537],[127.6837,37.07527],[127.6838,37.07521],[127.68387,37.07517],[127.68395,37.07513],[127.68424,37.07502],[127.68446,37.07495],[127.68458,37.07488],[127.68473,37.0748],[127.68497,37.07465],[127.6851,37.07455],[127.68521,37.07447],[127.68667,37.07326],[127.68671,37.07323],[127.68673,37.07319],[127.68676,37.07314],[127.68678,37.07308],[127.68681,37.07303],[127.68737,37.07147],[127.68899,37.06572],[127.69028,37.05953],[127.69067,37.05745],[127.69067,37.05735],[127.69064,37.05709],[127.69057,37.05673],[127.69053,37.05656],[127.69048,37.05642],[127.69043,37.0563],[127.69039,37.05624],[127.69037,37.0562],[127.69017,37.05597],[127.68985,37.05563],[127.68956,37.05533],[127.68928,37.05497],[127.6892,37.05484],[127.68918,37.05476],[127.68916,37.05466],[127.68916,37.05461],[127.68917,37.05455],[127.68893,37.05137],[127.68648,37.04801],[127.68597,37.04739],[127.68591,37.04733],[127.68583,37.04724],[127.6858,37.04721],[127.68577,37.04719],[127.68564,37.04709],[127.68119,37.04487],[127.68082,37.04471],[127.68062,37.04464],[127.68046,37.0446],[127.68025,37.04454],[127.6799,37.04446],[127.6797,37.04444],[127.67961,37.04444],[127.67953,37.04444],[127.67948,37.04444],[127.67943,37.04444],[127.67939,37.04445],[127.6793,37.04448],[127.67895,37.04463],[127.67878,37.04472],[127.67861,37.0448],[127.67849,37.04484],[127.67845,37.04485],[127.67842,37.04485],[127.67831,37.04486],[127.67819,37.04486],[127.67697,37.04475],[127.67673,37.04473],[127.67645,37.0447],[127.67638,37.04468],[127.67633,37.04467],[127.67627,37.04463],[127.67603,37.04445],[127.67515,37.04369],[127.67506,37.0436],[127.67494,37.04347],[127.67472,37.04314],[127.67458,37.04294],[127.67442,37.04273],[127.67419,37.04245],[127.67377,37.04195],[127.6736,37.04178],[127.67349,37.04166],[127.67212,37.0403],[127.67198,37.04024],[127.67188,37.04023],[127.6718,37.04022],[127.67159,37.04021],[127.67136,37.04028],[127.6686,37.04233],[127.66855,37.04237],[127.66848,37.0424],[127.66844,37.04241],[127.66838,37.04242],[127.6682,37.04245],[127.66671,37.04259],[127.66663,37.04259],[127.66656,37.04259],[127.6664,37.04258],[127.66551,37.04248],[127.66496,37.04231],[127.66488,37.04228],[127.66445,37.04217],[127.66429,37.04214],[127.66419,37.04213],[127.66409,37.04213],[127.664,37.04214],[127.66381,37.04216],[127.6632,37.04223],[127.66304,37.04225],[127.66296,37.04227],[127.66288,37.0423],[127.66052,37.04329],[127.66042,37.04334],[127.66026,37.04343],[127.66011,37.04353],[127.65991,37.04372],[127.6571,37.0464],[127.65623,37.04725],[127.65603,37.04754],[127.65578,37.04792],[127.65573,37.048],[127.65564,37.04821],[127.65552,37.04855],[127.65548,37.04871],[127.65543,37.04883],[127.6554,37.0489],[127.65533,37.04905],[127.65529,37.0491],[127.65461,37.04995],[127.65447,37.05007],[127.65442,37.0501],[127.65432,37.05016],[127.64934,37.05273],[127.64927,37.05276],[127.64781,37.05334],[127.64768,37.05339],[127.64761,37.05341],[127.64467,37.05418],[127.64349,37.05428],[127.64339,37.05427],[127.64331,37.05427],[127.64324,37.05429],[127.64237,37.05471],[127.64077,37.0557],[127.6398,37.05656],[127.63976,37.0566],[127.63971,37.05664],[127.63967,37.05668],[127.63963,37.05671],[127.63955,37.05675],[127.63924,37.05689],[127.63907,37.05694],[127.63898,37.05695],[127.63848,37.05705],[127.63826,37.05708],[127.63814,37.05708],[127.63805,37.05708],[127.63794,37.05707],[127.63785,37.05705],[127.63768,37.057],[127.6376,37.05697],[127.63748,37.05691],[127.63647,37.05633],[127.63591,37.05596],[127.63579,37.05585],[127.63575,37.05583],[127.6357,37.05581],[127.63562,37.05578],[127.63543,37.05575],[127.6346,37.05575],[127.63448,37.05575],[127.63443,37.05576],[127.63439,37.05577],[127.63429,37.0558],[127.63419,37.05587],[127.63255,37.05708],[127.63238,37.0572],[127.63234,37.05723],[127.63227,37.05729],[127.63217,37.0574],[127.62851,37.06229],[127.62794,37.06318],[127.62786,37.06331],[127.62782,37.06346],[127.62777,37.06367],[127.62774,37.06394],[127.62756,37.06754],[127.62755,37.06769],[127.62757,37.06783],[127.62761,37.06806],[127.62767,37.06833],[127.6277,37.06845],[127.62773,37.06853],[127.62779,37.06864],[127.62795,37.06923],[127.62814,37.07011],[127.62818,37.07038],[127.62838,37.07231],[127.62838,37.0724],[127.62838,37.07245],[127.62832,37.07258],[127.62829,37.07262],[127.62818,37.07271],[127.62801,37.07279],[127.62794,37.07281],[127.62782,37.07282],[127.62761,37.07281],[127.62755,37.0728],[127.62748,37.07278],[127.62733,37.07273],[127.62725,37.07269],[127.62701,37.07256],[127.62684,37.07244],[127.62661,37.07223],[127.62429,37.06987],[127.62367,37.06776],[127.62368,37.06768],[127.62368,37.06761],[127.62368,37.06758],[127.62362,37.06741],[127.62317,37.06626],[127.62304,37.0661],[127.62301,37.06606],[127.62296,37.06603],[127.6201,37.06399],[127.62002,37.06393],[127.61999,37.06393],[127.61811,37.064],[127.61802,37.06401],[127.61798,37.06403],[127.617,37.06488],[127.61697,37.06492],[127.61635,37.06572],[127.61628,37.06588],[127.61181,37.06661],[127.6114,37.06656],[127.61095,37.0665],[127.61012,37.06648],[127.60989,37.06648],[127.60948,37.06649],[127.6089,37.06654],[127.60859,37.0666],[127.60843,37.06664],[127.6082,37.06671],[127.60781,37.06687],[127.60763,37.06697],[127.60741,37.06711],[127.60717,37.06726],[127.60705,37.06736],[127.60659,37.06776],[127.60637,37.06797],[127.60612,37.06817],[127.60591,37.06832],[127.60566,37.06844],[127.60536,37.06852],[127.60509,37.06855],[127.60468,37.06859],[127.60425,37.06859],[127.60445,37.0689],[127.60455,37.06907],[127.60458,37.06912],[127.6047,37.06933],[127.60474,37.06939],[127.60487,37.06964],[127.60491,37.06972],[127.60499,37.06991],[127.60501,37.06998],[127.60505,37.07017],[127.60506,37.07023],[127.60507,37.07031],[127.60516,37.07321],[127.60516,37.07328],[127.60514,37.0734],[127.60513,37.07359],[127.6045,37.07747],[127.60448,37.07752],[127.60444,37.07761],[127.60441,37.07768],[127.60432,37.0778],[127.60374,37.0784],[127.60306,37.07906],[127.60145,37.08023],[127.60114,37.08045],[127.60099,37.08064],[127.60017,37.08185],[127.59979,37.08281],[127.59977,37.08306],[127.59974,37.08337],[127.59977,37.08352],[127.59982,37.08384],[127.59993,37.08414],[127.60007,37.08443],[127.60057,37.08518],[127.60071,37.08534],[127.60089,37.08553],[127.60108,37.08566],[127.60128,37.08574],[127.60339,37.08601],[127.6037,37.08605],[127.60428,37.08609],[127.60514,37.08613],[127.60566,37.08614],[127.60791,37.08605],[127.60827,37.08605],[127.60869,37.08605],[127.60897,37.08605],[127.60944,37.08606],[127.60974,37.08609],[127.60989,37.0861],[127.61025,37.08618],[127.61243,37.08699],[127.61344,37.08742],[127.61452,37.08789],[127.61656,37.08888],[127.61672,37.08898],[127.61704,37.08919],[127.61713,37.08924],[127.61723,37.08931],[127.61754,37.08952],[127.6181,37.08989],[127.62026,37.09127],[127.6221,37.09243],[127.62223,37.09251],[127.62285,37.09287],[127.62368,37.09326],[127.62443,37.09362],[127.62486,37.09382],[127.62573,37.09416],[127.62578,37.09418],[127.62682,37.09453],[127.6272,37.09464],[127.62745,37.09472],[127.63111,37.09629],[127.6315,37.09652],[127.63195,37.09684],[127.63247,37.09733],[127.6325,37.09736],[127.63283,37.09775],[127.63286,37.09778],[127.63334,37.09839],[127.63448,37.10105],[127.6345,37.10111],[127.63455,37.10123],[127.63478,37.10194],[127.63483,37.10209],[127.63485,37.1022],[127.63494,37.10259],[127.63498,37.10285],[127.63501,37.10364],[127.63468,37.10521],[127.63449,37.10579],[127.63443,37.10598],[127.63462,37.11193],[127.63492,37.11411],[127.63509,37.11604],[127.63507,37.11715],[127.63494,37.1183],[127.63493,37.11833],[127.63484,37.11877],[127.63475,37.11919],[127.63445,37.12019],[127.63405,37.12154],[127.63415,37.12373],[127.63493,37.12771],[127.6366,37.1357],[127.63676,37.13639],[127.63752,37.13968],[127.63776,37.14049],[127.63778,37.14057],[127.6378,37.14063],[127.63782,37.14078],[127.63783,37.14093],[127.63783,37.14103],[127.63782,37.14118],[127.63779,37.14133],[127.6377,37.14158],[127.63759,37.14182],[127.63757,37.14185],[127.63755,37.14187],[127.63709,37.14231],[127.63698,37.1424],[127.63679,37.14252],[127.63664,37.1426],[127.63636,37.14276],[127.63597,37.14297],[127.63568,37.14315],[127.63488,37.14368],[127.6332,37.14516],[127.63315,37.14523],[127.63312,37.14526],[127.63028,37.14938],[127.63022,37.14948],[127.63018,37.14954],[127.62894,37.1531],[127.62882,37.15354],[127.62879,37.15364],[127.62877,37.15373],[127.62876,37.1538],[127.63263,37.15251],[127.63356,37.1531],[127.6336,37.15312],[127.63364,37.15314],[127.63368,37.15315],[127.63372,37.15316],[127.63377,37.15317],[127.63381,37.15317],[127.63669,37.15315],[127.63826,37.15311],[127.63833,37.15311],[127.63839,37.15311],[127.63846,37.1531],[127.63853,37.1531],[127.63857,37.15309],[127.63861,37.15309],[127.63866,37.15308],[127.6387,37.15308],[127.63873,37.15307],[127.63876,37.15307],[127.6388,37.15306],[127.63883,37.15305],[127.63898,37.15302],[127.63902,37.15301],[127.63906,37.153],[127.6391,37.15299],[127.63914,37.15298],[127.63918,37.15297],[127.63922,37.15296],[127.63927,37.15294],[127.63931,37.15292],[127.63934,37.15291],[127.63937,37.15289],[127.63939,37.15286],[127.63942,37.15283],[127.64181,37.15138],[127.64419,37.15126],[127.64647,37.15106],[127.64655,37.15105],[127.64662,37.15104],[127.6467,37.15103],[127.64679,37.15101],[127.64689,37.15099],[127.64697,37.15097],[127.64707,37.15094],[127.64713,37.15093],[127.64717,37.15091],[127.64728,37.15088],[127.64739,37.15084],[127.6475,37.1508],[127.64761,37.15075],[127.64772,37.1507],[127.64782,37.15064],[127.64791,37.15058],[127.65365,37.14679],[127.65386,37.14664],[127.65406,37.1465],[127.65425,37.14637],[127.65442,37.14623],[127.65455,37.14613],[127.65458,37.14611],[127.65473,37.14599],[127.65486,37.14588],[127.65496,37.14579],[127.65506,37.1457],[127.65514,37.14562],[127.65553,37.14523],[127.65556,37.14519],[127.6556,37.14515],[127.65563,37.1451],[127.65567,37.14505],[127.65752,37.14201],[127.65989,37.14014],[127.65991,37.14008],[127.65994,37.14002],[127.65997,37.13997],[127.65999,37.13994],[127.66,37.13991],[127.66003,37.13987],[127.66007,37.13983],[127.6601,37.1398],[127.66014,37.13977],[127.66019,37.13974],[127.66024,37.13971],[127.66028,37.13969],[127.66031,37.13968],[127.66039,37.13964],[127.66045,37.13962],[127.66048,37.1396],[127.66059,37.13956],[127.66071,37.13951],[127.66085,37.13945],[127.66092,37.13942],[127.66099,37.1394],[127.66113,37.13934],[127.66127,37.13929],[127.66142,37.13924],[127.66155,37.13919],[127.66168,37.13916],[127.6618,37.13913],[127.66192,37.1391],[127.66204,37.13908],[127.66215,37.13907],[127.66226,37.13906],[127.66232,37.13906],[127.66238,37.13905],[127.6625,37.13906],[127.66255,37.13906],[127.66262,37.13906],[127.66275,37.13907],[127.66288,37.13908],[127.66301,37.13909],[127.66315,37.13911],[127.66329,37.13913],[127.66343,37.13914],[127.66357,37.13916],[127.66371,37.13918],[127.66376,37.13919],[127.66385,37.1392],[127.66399,37.13921],[127.66413,37.13923],[127.66427,37.13924],[127.6644,37.13926],[127.66453,37.13927],[127.66461,37.13928],[127.66465,37.13928],[127.66477,37.13929],[127.66483,37.1393],[127.66488,37.1393],[127.66499,37.13931],[127.66509,37.13932],[127.66519,37.13932],[127.66528,37.13932],[127.66537,37.13932],[127.66544,37.13931],[127.66552,37.1393],[127.66558,37.13929],[127.66561,37.13929],[127.66565,37.13928],[127.66571,37.13926],[127.66576,37.13924],[127.66582,37.13922],[127.66587,37.1392],[127.66592,37.13917],[127.66597,37.13915],[127.66602,37.13912],[127.66607,37.13909],[127.66612,37.13906],[127.66617,37.13902],[127.66622,37.13898],[127.66627,37.13895],[127.66633,37.1389],[127.66639,37.13884],[127.66646,37.13879],[127.66652,37.13873],[127.66659,37.13867],[127.66665,37.13861],[127.66672,37.13854],[127.66676,37.1385],[127.66679,37.13847],[127.66685,37.1384],[127.66691,37.13834],[127.66697,37.13827],[127.66703,37.1382],[127.66708,37.13812],[127.66714,37.13804],[127.6672,37.13795],[127.66727,37.13786],[127.66734,37.13776],[127.66741,37.13764],[127.66749,37.13753],[127.66756,37.1374],[127.66764,37.13728],[127.66772,37.13717],[127.66775,37.13712],[127.6678,37.13706],[127.66784,37.137],[127.66787,37.13696],[127.66793,37.13687],[127.66799,37.1368],[127.66805,37.13675],[127.66807,37.13673],[127.6681,37.1367],[127.66816,37.13667],[127.66822,37.13665],[127.66829,37.13663],[127.66839,37.1366],[127.66849,37.13658],[127.66863,37.13656],[127.66878,37.13653],[127.66893,37.13651],[127.6691,37.13648],[127.66924,37.13646],[127.66927,37.13646],[127.66944,37.13643],[127.66961,37.13641],[127.66968,37.1364],[127.66976,37.13638],[127.6699,37.13637],[127.67004,37.13635],[127.67016,37.13634],[127.67027,37.13632],[127.67036,37.13632],[127.67044,37.13631],[127.67052,37.13631],[127.67057,37.1363],[127.67063,37.1363],[127.67067,37.13631],[127.67508,37.13655],[127.67513,37.13656],[127.67596,37.13669],[127.67599,37.1367],[127.67603,37.13671],[127.67607,37.13672],[127.67612,37.13674],[127.67616,37.13676],[127.67973,37.13654],[127.68226,37.13616],[127.68627,37.13506],[127.68631,37.13505],[127.68637,37.13504],[127.68642,37.13503],[127.68647,37.13502],[127.68654,37.13502],[127.68658,37.13502],[127.68664,37.13503],[127.68669,37.13503],[127.68674,37.13503],[127.68677,37.13503],[127.6868,37.13504],[127.68743,37.1351],[127.68749,37.13511],[127.68755,37.13512],[127.68761,37.13514],[127.68767,37.13516],[127.68771,37.13518],[127.68774,37.1352],[127.68777,37.13522],[127.68781,37.13524],[127.68784,37.13526],[127.68787,37.13528],[127.68791,37.13531],[127.68912,37.13627],[127.69013,37.13707],[127.69014,37.13709],[127.69018,37.13713],[127.69021,37.13716],[127.69024,37.13719],[127.69027,37.1372],[127.6903,37.13722],[127.69034,37.13723],[127.69037,37.13724],[127.69093,37.1374],[127.69097,37.13741],[127.691,37.13742],[127.69116,37.13745],[127.69122,37.13746],[127.69126,37.13746],[127.69131,37.13747],[127.69136,37.13747],[127.6914,37.13747],[127.69147,37.13747],[127.69152,37.13747],[127.69158,37.13747],[127.69164,37.13748],[127.6917,37.13749],[127.69173,37.1375],[127.69177,37.13751],[127.6918,37.13752],[127.69184,37.13753],[127.6919,37.13755],[127.69195,37.13757],[127.69199,37.13759],[127.69202,37.1376],[127.69205,37.13763],[127.6921,37.13766],[127.69259,37.13804],[127.6952,37.14015],[127.69523,37.14018],[127.69526,37.14021],[127.6953,37.14024],[127.69533,37.14027],[127.69536,37.14031],[127.69538,37.14034],[127.6954,37.14037],[127.69542,37.14041],[127.69543,37.14045]]]]}}]}