{"type":"FeatureCollection","features":[{"type":"Feature","properties":{"code":"51830250","name":"양양읍","parent":"51830"},"geometry":{"type":"MultiPolygon","coordinates":[[[[128.64524,38.10791],[128.64477,38.10612],[128.64314,38.10071],[128.64278,38.10011],[128.64248,38.09947],[128.64236,38.099],[128.64231,38.09841],[128.64234,38.09531],[128.64239,38.09492],[128.64291,38.09289],[128.64307,38.09228],[128.64311,38.09215],[128.64316,38.09182],[128.64315,38.09163],[128.64307,38.09115],[128.64261,38.08947],[128.64211,38.08849],[128.64195,38.08828],[128.64157,38.08779],[128.64069,38.08691],[128.64005,38.08638],[128.63884,38.08488],[128.63846,38.08433],[128.63831,38.08404],[128.63825,38.08377],[128.63825,38.08347],[128.63829,38.08294],[128.63829,38.08276],[128.63822,38.08249],[128.6381,38.08233],[128.63742,38.08162],[128.63555,38.07981],[128.63536,38.07968],[128.63525,38.07962],[128.63445,38.07925],[128.63374,38.07892],[128.63361,38.07886],[128.63346,38.07879],[128.63325,38.07865],[128.63293,38.07841],[128.63285,38.0783],[128.63279,38.07811],[128.63274,38.07776],[128.63261,38.0754],[128.63318,38.07388],[128.63331,38.07381],[128.63428,38.07298],[128.63456,38.07232],[128.63366,38.07015],[128.63267,38.06779],[128.63261,38.06774],[128.6303,38.06529],[128.62984,38.06377],[128.62989,38.06129],[128.62782,38.06031],[128.62573,38.05907],[128.62527,38.05872],[128.6249,38.05826],[128.6248,38.05798],[128.62499,38.05759],[128.62512,38.05738],[128.62523,38.05709],[128.62519,38.05702],[128.62402,38.05506],[128.62386,38.05485],[128.62274,38.05387],[128.62115,38.05323],[128.62,38.0529],[128.61806,38.05243],[128.61768,38.05212],[128.61749,38.05176],[128.61746,38.05164],[128.61723,38.05065],[128.61701,38.05031],[128.61653,38.04982],[128.6152,38.04873],[128.61459,38.04842],[128.61306,38.04792],[128.60996,38.04746],[128.61002,38.0483],[128.61015,38.0517],[128.60974,38.05259],[128.60995,38.05382],[128.6103,38.05478],[128.61145,38.05595],[128.61217,38.05633],[128.61323,38.05689],[128.61315,38.05856],[128.61298,38.06013],[128.6128,38.0682],[128.61267,38.06824],[128.60928,38.06928],[128.60647,38.07012],[128.6052,38.0705],[128.60157,38.07191],[128.59768,38.07342],[128.59187,38.07516],[128.59045,38.07541],[128.58823,38.07645],[128.58678,38.07721],[128.58528,38.07844],[128.58353,38.08025],[128.58137,38.08252],[128.58116,38.08303],[128.58053,38.08369],[128.57813,38.08478],[128.57513,38.08669],[128.57381,38.08892],[128.57352,38.09009],[128.57395,38.09056],[128.57349,38.09141],[128.57144,38.09159],[128.57021,38.09138],[128.56908,38.09093],[128.56873,38.09062],[128.56825,38.0902],[128.56778,38.09011],[128.56281,38.09638],[128.56148,38.09627],[128.5611,38.09624],[128.55837,38.09695],[128.55482,38.0982],[128.55428,38.09916],[128.55414,38.09942],[128.55005,38.10003],[128.54811,38.09959],[128.54711,38.09947],[128.5464,38.09938],[128.5398,38.10021],[128.53647,38.10076],[128.53196,38.10383],[128.53036,38.10634],[128.52751,38.10836],[128.52557,38.11174],[128.52987,38.11171],[128.54025,38.11107],[128.54645,38.11268],[128.55594,38.11528],[128.56102,38.11495],[128.56125,38.11493],[128.56212,38.1143],[128.56228,38.11407],[128.56293,38.11224],[128.56391,38.11156],[128.56737,38.11202],[128.56809,38.11196],[128.57008,38.1107],[128.57124,38.1108],[128.57365,38.11068],[128.57663,38.1094],[128.57843,38.10824],[128.57839,38.10734],[128.57916,38.1056],[128.58036,38.10493],[128.58098,38.1047],[128.58317,38.10444],[128.58432,38.10531],[128.58437,38.10623],[128.58575,38.1073],[128.58676,38.10772],[128.58745,38.1078],[128.58783,38.10778],[128.58941,38.10754],[128.59053,38.10558],[128.5956,38.10271],[128.5985,38.10199],[128.59947,38.10203],[128.60222,38.103],[128.60269,38.10322],[128.60847,38.10515],[128.61224,38.1057],[128.61226,38.10738],[128.61194,38.10856],[128.61015,38.10934],[128.60617,38.10892],[128.6058,38.10967],[128.60547,38.112],[128.61178,38.11432],[128.61337,38.11488],[128.61546,38.11446],[128.61647,38.11414],[128.61825,38.11365],[128.62308,38.1129],[128.62846,38.11248],[128.62873,38.11254],[128.63438,38.11555],[128.63515,38.11598],[128.63591,38.1164],[128.6372,38.11523],[128.63758,38.11481],[128.63884,38.11363],[128.64091,38.11169],[128.64172,38.1111],[128.64272,38.1103],[128.64444,38.10881],[128.64482,38.10845],[128.64524,38.10791]]]]}},{"type":"Feature","properties":{"code":"51830310","name":"서면","parent":"51830"},"geometry":{"type":"MultiPolygon","coordinates":[[[[128.46538,38.11949],[128.46642,38.11928],[128.46827,38.118],[128.46859,38.11692],[128.46872,38.1168],[128.46932,38.11658],[128.46999,38.11647],[128.47179,38.11633],[128.47557,38.11551],[128.47611,38.11532],[128.47758,38.11477],[128.48472,38.11073],[128.4913,38.10894],[128.49381,38.11013],[128.49664,38.10929],[128.49774,38.10941],[128.49937,38.11032],[128.49967,38.11049],[128.50178,38.11082],[128.50209,38.11077],[128.50589,38.11013],[128.50678,38.10978],[128.50822,38.10922],[128.50983,38.10917],[128.51132,38.11006],[128.51196,38.11044],[128.52392,38.11175],[128.52557,38.11174],[128.52751,38.10836],[128.53036,38.10634],[128.53196,38.10383],[128.53647,38.10076],[128.5398,38.10021],[128.5464,38.09938],[128.54711,38.09947],[128.54811,38.09959],[128.55005,38.10003],[128.55414,38.09942],[128.55428,38.09916],[128.55482,38.0982],[128.55837,38.09695],[128.5611,38.09624],[128.56148,38.09627],[128.56281,38.09638],[128.56778,38.09011],[128.56825,38.0902],[128.56873,38.09062],[128.56908,38.09093],[128.57021,38.09138],[128.57144,38.09159],[128.57349,38.09141],[128.57395,38.09056],[128.57352,38.09009],[128.57381,38.08892],[128.57513,38.08669],[128.57813,38.08478],[128.58053,38.08369],[128.58116,38.08303],[128.58137,38.08252],[128.58353,38.08025],[128.58528,38.07844],[128.58678,38.07721],[128.58823,38.07645],[128.59045,38.07541],[128.59187,38.07516],[128.59768,38.07342],[128.60157,38.07191],[128.6052,38.0705],[128.60647,38.07012],[128.60928,38.06928],[128.61267,38.06824],[128.6128,38.0682],[128.61298,38.06013],[128.61315,38.05856],[128.61323,38.05689],[128.61217,38.05633],[128.61145,38.05595],[128.6103,38.05478],[128.60995,38.05382],[128.60974,38.05259],[128.61015,38.0517],[128.61002,38.0483],[128.60996,38.04746],[128.60989,38.04522],[128.60989,38.04492],[128.60996,38.04412],[128.61009,38.04352],[128.61094,38.04115],[128.61127,38.04023],[128.61356,38.03405],[128.6156,38.02854],[128.6161,38.02746],[128.61609,38.02718],[128.61598,38.02677],[128.61592,38.02656],[128.61408,38.02397],[128.61277,38.02251],[128.61277,38.0219],[128.61327,38.02131],[128.61422,38.02092],[128.61475,38.0207],[128.61711,38.02018],[128.61767,38.02022],[128.61801,38.02039],[128.619,38.02162],[128.61954,38.02183],[128.62239,38.01903],[128.62264,38.01809],[128.62224,38.0165],[128.61641,38.01301],[128.61303,38.01117],[128.6115,38.01054],[128.61,38.00907],[128.609,38.00805],[128.60886,38.00772],[128.60887,38.00746],[128.60887,38.00711],[128.60883,38.00684],[128.60873,38.00626],[128.60858,38.00586],[128.60824,38.00552],[128.60775,38.00504],[128.60725,38.00478],[128.60601,38.00428],[128.60573,38.00353],[128.60556,38.00274],[128.60562,38.00234],[128.60567,38.00225],[128.60575,38.00216],[128.60672,38.0018],[128.6068,38.00171],[128.60792,37.99785],[128.60711,37.99677],[128.60684,37.99662],[128.60593,37.99649],[128.6056,37.99586],[128.60518,37.99443],[128.60499,37.99212],[128.60533,37.99001],[128.60539,37.98979],[128.60588,37.98906],[128.60636,37.98776],[128.60599,37.986],[128.60597,37.98593],[128.60588,37.98583],[128.60483,37.98562],[128.60446,37.98561],[128.60295,37.98309],[128.60294,37.98271],[128.60294,37.98246],[128.60288,37.98211],[128.60253,37.98123],[128.60143,37.98029],[128.60005,37.97954],[128.59988,37.9791],[128.60007,37.9778],[128.59991,37.97683],[128.59938,37.97513],[128.5992,37.97502],[128.59895,37.97487],[128.59845,37.97487],[128.59704,37.97535],[128.59494,37.97596],[128.59487,37.97597],[128.59481,37.97598],[128.5946,37.97597],[128.5939,37.97579],[128.59348,37.97565],[128.59288,37.97545],[128.59238,37.9753],[128.5922,37.97525],[128.59196,37.97521],[128.59192,37.97521],[128.59185,37.97521],[128.58924,37.97553],[128.58909,37.97556],[128.58853,37.97618],[128.58801,37.97637],[128.58736,37.9763],[128.58712,37.97606],[128.58576,37.97423],[128.58571,37.97412],[128.58569,37.97385],[128.5859,37.97245],[128.58592,37.97238],[128.58599,37.97228],[128.5865,37.97184],[128.58697,37.97158],[128.58726,37.97105],[128.58772,37.96971],[128.58759,37.96955],[128.58687,37.96832],[128.58671,37.96471],[128.58688,37.96423],[128.58699,37.96403],[128.58712,37.96387],[128.58749,37.96343],[128.58816,37.96283],[128.58853,37.96261],[128.58863,37.96256],[128.5887,37.96256],[128.58874,37.96256],[128.58902,37.96259],[128.58914,37.96258],[128.58929,37.96247],[128.59111,37.96091],[128.59114,37.96082],[128.59083,37.95997],[128.58892,37.95708],[128.58851,37.95662],[128.58303,37.95205],[128.58049,37.94871],[128.57958,37.9474],[128.57941,37.94631],[128.57939,37.94628],[128.57933,37.94605],[128.57752,37.94377],[128.57639,37.9427],[128.57651,37.94233],[128.57754,37.94202],[128.57813,37.94164],[128.5816,37.93843],[128.58173,37.9383],[128.58174,37.93817],[128.58174,37.93797],[128.57944,37.93523],[128.57785,37.93363],[128.57751,37.93331],[128.57474,37.93143],[128.57269,37.93015],[128.57182,37.92983],[128.57108,37.92943],[128.57103,37.92932],[128.5709,37.92904],[128.57077,37.92833],[128.57039,37.92537],[128.57053,37.92493],[128.57152,37.92389],[128.5715,37.92336],[128.57145,37.92208],[128.57037,37.92028],[128.56916,37.91887],[128.56836,37.91846],[128.56735,37.91794],[128.56755,37.91647],[128.56784,37.91433],[128.56815,37.91219],[128.56841,37.91102],[128.56862,37.91049],[128.56983,37.90856],[128.57141,37.90604],[128.57181,37.90504],[128.57157,37.90401],[128.57054,37.90326],[128.56969,37.90311],[128.56888,37.90213],[128.56857,37.90091],[128.56858,37.9006],[128.56862,37.90006],[128.56864,37.89983],[128.56959,37.89593],[128.56968,37.89585],[128.57049,37.89454],[128.57146,37.89275],[128.57351,37.88671],[128.57357,37.8864],[128.57329,37.88424],[128.57326,37.88416],[128.57321,37.88401],[128.57256,37.88252],[128.56967,37.87817],[128.56862,37.87701],[128.56818,37.87662],[128.5669,37.87567],[128.5642,37.87562],[128.55999,37.87548],[128.55979,37.8756],[128.55951,37.87577],[128.55932,37.87617],[128.55921,37.87641],[128.55884,37.87745],[128.55812,37.87922],[128.55654,37.88056],[128.55592,37.88108],[128.55549,37.88144],[128.55496,37.88174],[128.55123,37.88366],[128.55024,37.88416],[128.54694,37.88566],[128.54384,37.88698],[128.54353,37.88734],[128.54282,37.88814],[128.54238,37.8888],[128.54222,37.88927],[128.54218,37.88942],[128.54187,37.88985],[128.54182,37.88992],[128.54072,37.89082],[128.5395,37.89116],[128.53378,37.8899],[128.53089,37.88894],[128.52902,37.88784],[128.52732,37.88644],[128.52728,37.8861],[128.52753,37.88533],[128.52752,37.88528],[128.52751,37.88516],[128.52744,37.885],[128.52739,37.88488],[128.52615,37.88295],[128.52597,37.88276],[128.52577,37.88269],[128.52559,37.88263],[128.5252,37.88267],[128.52449,37.88271],[128.52145,37.88253],[128.52097,37.88241],[128.51915,37.88095],[128.51881,37.88083],[128.51317,37.88005],[128.51282,37.88005],[128.51241,37.88004],[128.51178,37.88031],[128.51135,37.8805],[128.50834,37.88417],[128.50696,37.88592],[128.5069,37.88618],[128.50678,37.88674],[128.5059,37.88694],[128.5046,37.88711],[128.50416,37.88711],[128.50368,37.88697],[128.50332,37.88679],[128.50187,37.88609],[128.49834,37.8852],[128.49783,37.88519],[128.49748,37.88522],[128.49715,37.88535],[128.49646,37.88562],[128.49611,37.88586],[128.49582,37.88657],[128.49508,37.88757],[128.49224,37.88853],[128.49096,37.88885],[128.4905,37.88896],[128.4892,37.88901],[128.48894,37.88939],[128.48879,37.88955],[128.48871,37.88963],[128.48792,37.89012],[128.48552,37.89153],[128.48333,37.89257],[128.48172,37.89311],[128.48189,37.89355],[128.48203,37.89431],[128.48199,37.89456],[128.48195,37.89483],[128.4819,37.89489],[128.48177,37.89504],[128.48054,37.89547],[128.47865,37.8959],[128.47718,37.89643],[128.4766,37.8969],[128.47357,37.90007],[128.47342,37.90054],[128.47349,37.90098],[128.47384,37.90152],[128.47493,37.90326],[128.47586,37.9062],[128.47589,37.90658],[128.47552,37.90782],[128.47481,37.90954],[128.47474,37.91267],[128.47541,37.91721],[128.47528,37.91932],[128.47517,37.91979],[128.47558,37.92096],[128.47582,37.92108],[128.47654,37.92143],[128.4765,37.92231],[128.47505,37.92537],[128.47446,37.92599],[128.46976,37.92982],[128.46832,37.93095],[128.46707,37.93183],[128.4662,37.93237],[128.46575,37.93266],[128.46559,37.9328],[128.46551,37.93286],[128.46341,37.93553],[128.46342,37.93584],[128.46364,37.93622],[128.46379,37.93646],[128.46391,37.93667],[128.46401,37.93674],[128.46412,37.93681],[128.46478,37.93712],[128.46569,37.93771],[128.46672,37.93897],[128.46704,37.93954],[128.46744,37.94025],[128.46734,37.94471],[128.46695,37.9469],[128.46651,37.94787],[128.46643,37.94815],[128.46634,37.9494],[128.46669,37.94968],[128.46721,37.94972],[128.46767,37.94986],[128.4678,37.9499],[128.46961,37.9507],[128.47022,37.95117],[128.47312,37.95376],[128.47342,37.95667],[128.473,37.95794],[128.47193,37.95922],[128.47202,37.96007],[128.47203,37.96024],[128.47439,37.96161],[128.4761,37.9624],[128.47743,37.96278],[128.4783,37.96275],[128.47891,37.96256],[128.47922,37.96233],[128.47957,37.962],[128.4807,37.96167],[128.48237,37.96136],[128.48653,37.96092],[128.48783,37.96097],[128.48801,37.96098],[128.48841,37.96102],[128.48848,37.96108],[128.48861,37.96119],[128.48954,37.96216],[128.49126,37.96343],[128.49158,37.96365],[128.49221,37.96407],[128.49263,37.96414],[128.49332,37.964],[128.49348,37.96397],[128.4939,37.96394],[128.49429,37.96391],[128.49449,37.9639],[128.49499,37.96398],[128.49507,37.96407],[128.49626,37.96591],[128.4969,37.96723],[128.4969,37.96731],[128.49691,37.9675],[128.49654,37.9679],[128.49641,37.96832],[128.49608,37.96967],[128.49604,37.96983],[128.49604,37.96997],[128.49604,37.97025],[128.49644,37.97336],[128.49771,37.97582],[128.49785,37.97615],[128.49788,37.97654],[128.49777,37.9767],[128.49607,37.97978],[128.4965,37.98233],[128.49808,37.9841],[128.49842,37.98421],[128.49855,37.98426],[128.49991,37.98484],[128.50013,37.985],[128.50124,37.98628],[128.5013,37.987],[128.50126,37.98721],[128.5012,37.98746],[128.50118,37.9875],[128.50012,37.98958],[128.50108,37.99328],[128.50224,37.99677],[128.50501,37.99909],[128.5054,37.99931],[128.50746,38.00038],[128.51165,38.00428],[128.51197,38.0046],[128.51202,38.00465],[128.51212,38.00488],[128.51216,38.00497],[128.51305,38.01007],[128.51311,38.01087],[128.51303,38.01168],[128.51283,38.01254],[128.51274,38.01271],[128.51219,38.01275],[128.51123,38.01253],[128.51058,38.01238],[128.50988,38.01227],[128.50943,38.0122],[128.50897,38.01219],[128.50817,38.01218],[128.50788,38.01222],[128.50756,38.01226],[128.50721,38.01241],[128.50696,38.01273],[128.50674,38.01341],[128.50586,38.0149],[128.50468,38.01596],[128.50314,38.01683],[128.5022,38.01756],[128.50227,38.01826],[128.50284,38.01893],[128.50336,38.01971],[128.50357,38.0202],[128.50364,38.02063],[128.50301,38.02252],[128.50251,38.02268],[128.50223,38.02284],[128.50145,38.0233],[128.49992,38.0248],[128.49961,38.02566],[128.49832,38.02942],[128.49842,38.03223],[128.49849,38.03345],[128.49863,38.0341],[128.49875,38.0345],[128.49878,38.03464],[128.4997,38.0359],[128.50031,38.03697],[128.50034,38.03706],[128.50042,38.03729],[128.5003,38.03768],[128.5001,38.03834],[128.49884,38.03921],[128.4981,38.03972],[128.49697,38.04069],[128.49648,38.04136],[128.49602,38.04227],[128.49592,38.04279],[128.49561,38.04439],[128.49442,38.0466],[128.49299,38.04909],[128.49253,38.04935],[128.49212,38.04958],[128.49128,38.0499],[128.48963,38.05085],[128.4873,38.05249],[128.48701,38.05295],[128.48678,38.0533],[128.4862,38.05356],[128.48575,38.05367],[128.48558,38.05372],[128.48541,38.05376],[128.48505,38.05378],[128.48476,38.0538],[128.48359,38.05346],[128.47917,38.05086],[128.47815,38.04999],[128.47758,38.04927],[128.4768,38.04828],[128.47561,38.04833],[128.47492,38.04836],[128.47228,38.04871],[128.4722,38.04877],[128.47192,38.04899],[128.47129,38.04993],[128.47126,38.04997],[128.46976,38.05037],[128.46738,38.05067],[128.46565,38.05021],[128.46524,38.05014],[128.4646,38.05005],[128.46407,38.05005],[128.4634,38.05004],[128.46198,38.05091],[128.46189,38.05171],[128.46181,38.05232],[128.46162,38.05257],[128.46141,38.05283],[128.4549,38.05584],[128.45422,38.05611],[128.45326,38.05627],[128.452,38.05643],[128.45127,38.05619],[128.45022,38.0556],[128.45014,38.05561],[128.44973,38.05565],[128.44943,38.05573],[128.4492,38.05579],[128.44856,38.05611],[128.44582,38.05784],[128.44495,38.05792],[128.44309,38.05786],[128.44165,38.05813],[128.44085,38.05793],[128.43648,38.05357],[128.43583,38.05306],[128.43536,38.05282],[128.4346,38.05273],[128.43269,38.05279],[128.43196,38.05261],[128.43094,38.0522],[128.4302,38.05174],[128.43009,38.05164],[128.4285,38.05007],[128.42828,38.04992],[128.42805,38.04978],[128.42762,38.04958],[128.42724,38.04941],[128.42535,38.04927],[128.42445,38.05076],[128.42329,38.05378],[128.42271,38.05431],[128.42135,38.05528],[128.41843,38.05804],[128.41593,38.0614],[128.41479,38.06306],[128.41242,38.06785],[128.41094,38.07167],[128.40974,38.07478],[128.40948,38.07557],[128.40924,38.0763],[128.40905,38.07717],[128.40917,38.07793],[128.40965,38.07837],[128.41086,38.07922],[128.41108,38.07961],[128.41059,38.08061],[128.40888,38.08256],[128.40924,38.08575],[128.40957,38.08839],[128.40944,38.08898],[128.40634,38.09343],[128.40424,38.09582],[128.40414,38.09638],[128.40502,38.09782],[128.40511,38.09784],[128.40687,38.09833],[128.40821,38.09895],[128.40878,38.09934],[128.40931,38.09996],[128.41167,38.10338],[128.41218,38.10417],[128.41226,38.10469],[128.41196,38.10523],[128.41148,38.10573],[128.41065,38.10822],[128.41052,38.10874],[128.4105,38.10927],[128.41145,38.11153],[128.41187,38.11185],[128.41231,38.11186],[128.41834,38.11135],[128.41998,38.11094],[128.42231,38.11021],[128.42756,38.10953],[128.42839,38.1096],[128.43376,38.11074],[128.43701,38.11219],[128.44015,38.11487],[128.44074,38.11512],[128.44406,38.11583],[128.44651,38.11618],[128.45085,38.116],[128.45307,38.11745],[128.4538,38.11887],[128.45419,38.1193],[128.45543,38.12025],[128.45748,38.12152],[128.45833,38.12157],[128.46062,38.12123],[128.46344,38.12005],[128.4643,38.1197],[128.46538,38.11949]]]]}},{"type":"Feature","properties":{"code":"51830320","name":"손양면","parent":"51830"},"geometry":{"type":"MultiPolygon","coordinates":[[[[128.70438,38.0399],[128.70301,38.03906],[128.70286,38.03881],[128.70287,38.03847],[128.70288,38.03818],[128.70272,38.03698],[128.70251,38.0357],[128.70246,38.03559],[128.70149,38.03488],[128.70128,38.03477],[128.70103,38.03472],[128.69958,38.03449],[128.69929,38.03448],[128.6985,38.03473],[128.69709,38.03137],[128.69644,38.03016],[128.69273,38.03042],[128.69032,38.03062],[128.68859,38.03101],[128.68834,38.03106],[128.68682,38.03138],[128.68658,38.03138],[128.6863,38.03134],[128.68206,38.03059],[128.67898,38.02977],[128.67339,38.02904],[128.67307,38.02874],[128.67255,38.02793],[128.67247,38.02776],[128.67246,38.02771],[128.67248,38.02766],[128.67267,38.02738],[128.67274,38.0273],[128.67309,38.02695],[128.67381,38.02596],[128.67385,38.02588],[128.67387,38.02582],[128.67383,38.02566],[128.6738,38.02551],[128.67374,38.02539],[128.67365,38.02524],[128.67259,38.02375],[128.67078,38.02149],[128.66754,38.01787],[128.66747,38.01779],[128.66733,38.01753],[128.66726,38.01742],[128.66723,38.01735],[128.66722,38.01728],[128.66722,38.01724],[128.66726,38.01698],[128.66726,38.01692],[128.66724,38.01686],[128.66649,38.01579],[128.66378,38.01235],[128.6631,38.01161],[128.66192,38.01046],[128.6602,38.0104],[128.65874,38.01035],[128.65565,38.00966],[128.65538,38.00957],[128.65485,38.00935],[128.65286,38.00833],[128.65281,38.00826],[128.65275,38.00813],[128.6527,38.00799],[128.65252,38.00712],[128.65235,38.00628],[128.65234,38.00626],[128.6497,38.00427],[128.6496,38.0042],[128.64953,38.00416],[128.64782,38.00334],[128.64778,38.00333],[128.64774,38.00332],[128.64752,38.00332],[128.6472,38.00333],[128.64705,38.00334],[128.64686,38.00337],[128.64666,38.00343],[128.64639,38.00354],[128.64625,38.00359],[128.64602,38.00364],[128.64571,38.00368],[128.64535,38.00371],[128.64517,38.00372],[128.64507,38.0037],[128.64328,38.00276],[128.64298,38.00245],[128.6428,38.00213],[128.64234,38.00135],[128.64202,38.00103],[128.64184,38.0009],[128.64166,38.0008],[128.64139,38.00067],[128.64102,38.00055],[128.64045,38.00044],[128.64024,38.00041],[128.6379,38.001],[128.63669,38.00142],[128.63629,38.00159],[128.63153,38.00479],[128.63104,38.00515],[128.63061,38.00553],[128.62903,38.00693],[128.62886,38.00709],[128.6286,38.00742],[128.62812,38.00804],[128.62797,38.00825],[128.62791,38.00839],[128.62787,38.00854],[128.62787,38.00864],[128.62792,38.00882],[128.62805,38.00917],[128.62823,38.00964],[128.62843,38.01006],[128.62849,38.01013],[128.62857,38.0102],[128.629,38.01044],[128.62925,38.01054],[128.62966,38.01075],[128.63014,38.01102],[128.63112,38.01158],[128.63133,38.01171],[128.63148,38.01184],[128.63156,38.01196],[128.63159,38.01207],[128.63159,38.01217],[128.63155,38.01227],[128.63072,38.01352],[128.63058,38.0137],[128.63045,38.01382],[128.63028,38.01391],[128.63006,38.01401],[128.62982,38.01408],[128.62929,38.01417],[128.62905,38.01418],[128.62863,38.0141],[128.62812,38.01392],[128.62758,38.01374],[128.62729,38.01365],[128.62707,38.01362],[128.62691,38.01361],[128.62667,38.01363],[128.62645,38.01367],[128.6263,38.01372],[128.6262,38.01379],[128.62563,38.01438],[128.62546,38.01457],[128.62516,38.01504],[128.62453,38.01641],[128.62264,38.01809],[128.62239,38.01903],[128.61954,38.02183],[128.619,38.02162],[128.61801,38.02039],[128.61767,38.02022],[128.61711,38.02018],[128.61475,38.0207],[128.61422,38.02092],[128.61327,38.02131],[128.61277,38.0219],[128.61277,38.02251],[128.61408,38.02397],[128.61592,38.02656],[128.61598,38.02677],[128.61609,38.02718],[128.6161,38.02746],[128.6156,38.02854],[128.61356,38.03405],[128.61127,38.04023],[128.61094,38.04115],[128.61009,38.04352],[128.60996,38.04412],[128.60989,38.04492],[128.60989,38.04522],[128.60996,38.04746],[128.61306,38.04792],[128.61459,38.04842],[128.6152,38.04873],[128.61653,38.04982],[128.61701,38.05031],[128.61723,38.05065],[128.61746,38.05164],[128.61749,38.05176],[128.61768,38.05212],[128.61806,38.05243],[128.62,38.0529],[128.62115,38.05323],[128.62274,38.05387],[128.62386,38.05485],[128.62402,38.05506],[128.62519,38.05702],[128.62523,38.05709],[128.62512,38.05738],[128.62499,38.05759],[128.6248,38.05798],[128.6249,38.05826],[128.62527,38.05872],[128.62573,38.05907],[128.62782,38.06031],[128.62989,38.06129],[128.62984,38.06377],[128.6303,38.06529],[128.63261,38.06774],[128.63267,38.06779],[128.63366,38.07015],[128.63456,38.07232],[128.63428,38.07298],[128.63331,38.07381],[128.63318,38.07388],[128.63261,38.0754],[128.63274,38.07776],[128.63279,38.07811],[128.63285,38.0783],[128.63293,38.07841],[128.63325,38.07865],[128.63346,38.07879],[128.63361,38.07886],[128.63374,38.07892],[128.63445,38.07925],[128.63525,38.07962],[128.63536,38.07968],[128.63555,38.07981],[128.63742,38.08162],[128.6381,38.08233],[128.63822,38.08249],[128.63829,38.08276],[128.63829,38.08294],[128.63825,38.08347],[128.63825,38.08377],[128.63831,38.08404],[128.63846,38.08433],[128.63884,38.08488],[128.64005,38.08638],[128.64069,38.08691],[128.64157,38.08779],[128.64195,38.08828],[128.64211,38.08849],[128.64261,38.08947],[128.64307,38.09115],[128.64315,38.09163],[128.64316,38.09182],[128.64311,38.09215],[128.64307,38.09228],[128.64291,38.09289],[128.64239,38.09492],[128.64234,38.09531],[128.64231,38.09841],[128.64236,38.099],[128.64248,38.09947],[128.64278,38.10011],[128.64314,38.10071],[128.64477,38.10612],[128.64524,38.10791],[128.64882,38.10474],[128.65179,38.10231],[128.65649,38.09776],[128.65759,38.0967],[128.66044,38.09419],[128.66245,38.09246],[128.66368,38.09185],[128.66536,38.09242],[128.66644,38.09249],[128.66719,38.09196],[128.66789,38.08991],[128.66851,38.08863],[128.66954,38.0867],[128.67111,38.08433],[128.67196,38.08398],[128.67233,38.08397],[128.67304,38.08396],[128.67345,38.08311],[128.6734,38.08089],[128.67333,38.08049],[128.67329,38.07853],[128.6743,38.07761],[128.67633,38.07682],[128.67834,38.07509],[128.67784,38.07203],[128.67707,38.07136],[128.67631,38.07111],[128.67645,38.06813],[128.67664,38.06771],[128.67686,38.06719],[128.67791,38.06581],[128.67887,38.0652],[128.68129,38.06276],[128.68221,38.06079],[128.68644,38.05605],[128.68652,38.05596],[128.69116,38.05152],[128.69318,38.05005],[128.69718,38.04616],[128.70256,38.04115],[128.70438,38.0399]]]]}},{"type":"Feature","properties":{"code":"51830330","name":"현북면","parent":"51830"},"geometry":{"type":"MultiPolygon","coordinates":[[[[128.74451,37.99425],[128.74454,37.99378],[128.74457,37.99335],[128.74462,37.99264],[128.7444,37.99231],[128.74411,37.99202],[128.74389,37.9918],[128.74376,37.99172],[128.74347,37.99158],[128.74204,37.99107],[128.74195,37.99106],[128.74183,37.99108],[128.74169,37.99112],[128.74155,37.99117],[128.74148,37.9912],[128.7414,37.99124],[128.74136,37.99126],[128.74132,37.99128],[128.74123,37.99135],[128.74116,37.99142],[128.74103,37.99161],[128.74092,37.99183],[128.74016,37.99214],[128.73808,37.99199],[128.73773,37.99193],[128.73301,37.99001],[128.73291,37.98996],[128.73172,37.98903],[128.73168,37.98899],[128.73082,37.98684],[128.73029,37.98535],[128.72711,37.98379],[128.7255,37.98303],[128.72285,37.98183],[128.72088,37.97898],[128.72025,37.97775],[128.71975,37.97706],[128.71961,37.97693],[128.71949,37.97681],[128.71924,37.97662],[128.71895,37.97648],[128.7188,37.97643],[128.7176,37.97609],[128.71733,37.97606],[128.71451,37.97608],[128.71353,37.97613],[128.71175,37.97654],[128.71164,37.97656],[128.71155,37.97658],[128.71147,37.97657],[128.7114,37.97657],[128.71135,37.97654],[128.71129,37.9765],[128.71058,37.9759],[128.71036,37.97569],[128.70856,37.97378],[128.70661,37.97069],[128.70633,37.96875],[128.7062,37.96817],[128.70607,37.96772],[128.70491,37.96433],[128.70483,37.96413],[128.7046,37.96392],[128.70441,37.96378],[128.70288,37.96272],[128.70164,37.96225],[128.70132,37.96216],[128.7011,37.96209],[128.70101,37.96205],[128.6987,37.96041],[128.69576,37.95736],[128.69569,37.95723],[128.69394,37.95375],[128.69201,37.94768],[128.69199,37.94758],[128.69197,37.94743],[128.69188,37.94569],[128.69188,37.94523],[128.6919,37.94506],[128.69204,37.94395],[128.69224,37.94265],[128.69283,37.93924],[128.69285,37.93917],[128.69366,37.93774],[128.69374,37.93763],[128.69378,37.93759],[128.69383,37.93754],[128.69387,37.93751],[128.69399,37.93747],[128.69405,37.93747],[128.69417,37.93746],[128.69429,37.93744],[128.69433,37.93742],[128.69436,37.93738],[128.69477,37.93665],[128.69564,37.93288],[128.6956,37.93275],[128.69534,37.93221],[128.69528,37.93211],[128.69521,37.93202],[128.69453,37.9304],[128.69401,37.9285],[128.694,37.92839],[128.69404,37.92819],[128.6941,37.92803],[128.69414,37.92793],[128.69418,37.92782],[128.69462,37.92727],[128.69493,37.92696],[128.69509,37.92684],[128.6954,37.92663],[128.69565,37.92634],[128.69613,37.92521],[128.69618,37.9248],[128.69592,37.92189],[128.69585,37.92166],[128.69576,37.92156],[128.69376,37.91759],[128.69214,37.91209],[128.69267,37.9093],[128.69296,37.90543],[128.69293,37.90531],[128.69278,37.90495],[128.69174,37.90365],[128.69154,37.90351],[128.69101,37.90303],[128.69092,37.90286],[128.69055,37.90194],[128.6896,37.89683],[128.68944,37.8947],[128.68945,37.89456],[128.68942,37.89414],[128.68891,37.8933],[128.68878,37.8931],[128.68864,37.89293],[128.68843,37.8927],[128.6883,37.8926],[128.68731,37.89254],[128.68716,37.89252],[128.68699,37.89247],[128.68688,37.89243],[128.68674,37.89239],[128.6861,37.89214],[128.68605,37.89211],[128.68601,37.89208],[128.68596,37.89202],[128.68586,37.89187],[128.68574,37.89171],[128.68564,37.8916],[128.6856,37.89156],[128.68545,37.89141],[128.68497,37.89096],[128.68478,37.89081],[128.68377,37.89011],[128.68327,37.8898],[128.68156,37.89032],[128.67901,37.89048],[128.67897,37.89047],[128.67893,37.89047],[128.67659,37.88996],[128.67654,37.88995],[128.67628,37.88976],[128.67414,37.88843],[128.6713,37.88674],[128.67089,37.88651],[128.66956,37.88591],[128.6695,37.88589],[128.66944,37.88587],[128.66934,37.88585],[128.66924,37.88583],[128.66729,37.88574],[128.6671,37.88574],[128.66686,37.88578],[128.66648,37.887],[128.66511,37.8898],[128.66476,37.8905],[128.66471,37.89058],[128.66466,37.89061],[128.66458,37.89063],[128.66419,37.89074],[128.66372,37.89086],[128.66225,37.89123],[128.6607,37.89156],[128.65986,37.89172],[128.65971,37.89175],[128.65956,37.89177],[128.65944,37.89178],[128.65926,37.89178],[128.65842,37.89176],[128.65811,37.89175],[128.65772,37.89172],[128.65678,37.89161],[128.65665,37.8916],[128.65653,37.89158],[128.65649,37.89157],[128.65641,37.89156],[128.6561,37.89147],[128.65603,37.89145],[128.65595,37.89143],[128.65572,37.89135],[128.65552,37.89127],[128.65537,37.8912],[128.65513,37.8911],[128.65505,37.89106],[128.65483,37.89098],[128.65457,37.89092],[128.65447,37.8909],[128.65416,37.89085],[128.65327,37.89075],[128.65319,37.89074],[128.65312,37.89074],[128.65079,37.89077],[128.64916,37.89081],[128.64836,37.89084],[128.64828,37.89085],[128.64814,37.8909],[128.64793,37.89099],[128.64787,37.89103],[128.64779,37.89107],[128.64775,37.89111],[128.64546,37.89281],[128.64538,37.89288],[128.64535,37.8929],[128.64532,37.89295],[128.64533,37.89318],[128.64545,37.89341],[128.6457,37.89371],[128.64566,37.89376],[128.64494,37.89429],[128.64488,37.89432],[128.64347,37.89503],[128.64335,37.89507],[128.64328,37.89508],[128.64321,37.89508],[128.64314,37.89508],[128.64308,37.89507],[128.64159,37.89489],[128.64141,37.89486],[128.64116,37.89477],[128.63954,37.89394],[128.63928,37.89381],[128.63906,37.89367],[128.63882,37.89352],[128.63859,37.89338],[128.63841,37.89324],[128.63822,37.89305],[128.63811,37.89293],[128.63675,37.89109],[128.63588,37.88976],[128.63582,37.88962],[128.63542,37.88876],[128.63492,37.88772],[128.63477,37.8876],[128.63464,37.88755],[128.63215,37.88654],[128.62916,37.88535],[128.62904,37.8853],[128.62843,37.88493],[128.62474,37.88202],[128.6246,37.8819],[128.62451,37.88179],[128.62448,37.88175],[128.62435,37.88152],[128.62424,37.88127],[128.62414,37.88098],[128.6235,37.87847],[128.6237,37.87685],[128.62379,37.87595],[128.62353,37.87504],[128.62079,37.87242],[128.62071,37.87237],[128.62061,37.8723],[128.62042,37.87222],[128.62023,37.87214],[128.62014,37.8721],[128.62004,37.87206],[128.61985,37.87199],[128.61948,37.87187],[128.61936,37.87185],[128.61922,37.87182],[128.61908,37.87179],[128.61896,37.87178],[128.61876,37.8718],[128.61865,37.87183],[128.61852,37.87188],[128.61834,37.87191],[128.61814,37.87195],[128.61746,37.87204],[128.61733,37.87204],[128.61723,37.87205],[128.61705,37.87205],[128.61561,37.872],[128.61136,37.87123],[128.60672,37.87043],[128.60655,37.8704],[128.6064,37.87039],[128.60628,37.87039],[128.60606,37.87041],[128.60587,37.87045],[128.60573,37.8705],[128.60563,37.87054],[128.60548,37.87065],[128.60528,37.8708],[128.60402,37.87093],[128.60091,37.87073],[128.60086,37.87068],[128.60021,37.86993],[128.59983,37.86947],[128.5966,37.86596],[128.59576,37.86612],[128.59526,37.86614],[128.59514,37.86614],[128.59499,37.86612],[128.59166,37.86555],[128.59153,37.8655],[128.59145,37.86546],[128.59138,37.86542],[128.59122,37.8653],[128.59115,37.86523],[128.59099,37.86505],[128.59068,37.86459],[128.58906,37.86296],[128.58785,37.86188],[128.5876,37.862],[128.58329,37.8632],[128.58315,37.86324],[128.58309,37.86324],[128.58299,37.86324],[128.58289,37.86323],[128.58277,37.86322],[128.58248,37.86317],[128.58239,37.86316],[128.58181,37.86298],[128.58155,37.8629],[128.58144,37.86287],[128.58131,37.86282],[128.58107,37.86275],[128.58079,37.8627],[128.58064,37.86268],[128.58048,37.86268],[128.57865,37.86279],[128.57836,37.86281],[128.57825,37.86283],[128.57813,37.86288],[128.57376,37.86457],[128.57371,37.86461],[128.57368,37.86466],[128.57336,37.86616],[128.57329,37.86713],[128.57332,37.86737],[128.57329,37.86763],[128.57319,37.86789],[128.57308,37.86815],[128.57189,37.87042],[128.57087,37.87138],[128.57024,37.87188],[128.56906,37.87299],[128.56891,37.87314],[128.56872,37.87334],[128.56862,37.87346],[128.56823,37.87395],[128.5669,37.87567],[128.56818,37.87662],[128.56862,37.87701],[128.56967,37.87817],[128.57256,37.88252],[128.57321,37.88401],[128.57326,37.88416],[128.57329,37.88424],[128.57357,37.8864],[128.57351,37.88671],[128.57146,37.89275],[128.57049,37.89454],[128.56968,37.89585],[128.56959,37.89593],[128.56864,37.89983],[128.56862,37.90006],[128.56858,37.9006],[128.56857,37.90091],[128.56888,37.90213],[128.56969,37.90311],[128.57054,37.90326],[128.57157,37.90401],[128.57181,37.90504],[128.57141,37.90604],[128.56983,37.90856],[128.56862,37.91049],[128.56841,37.91102],[128.56815,37.91219],[128.56784,37.91433],[128.56755,37.91647],[128.56735,37.91794],[128.56836,37.91846],[128.56916,37.91887],[128.57037,37.92028],[128.57145,37.92208],[128.5715,37.92336],[128.57152,37.92389],[128.57053,37.92493],[128.57039,37.92537],[128.57077,37.92833],[128.5709,37.92904],[128.57103,37.92932],[128.57108,37.92943],[128.57182,37.92983],[128.57269,37.93015],[128.57474,37.93143],[128.57751,37.93331],[128.57785,37.93363],[128.57944,37.93523],[128.58174,37.93797],[128.58174,37.93817],[128.58173,37.9383],[128.5816,37.93843],[128.57813,37.94164],[128.57754,37.94202],[128.57651,37.94233],[128.57639,37.9427],[128.57752,37.94377],[128.57933,37.94605],[128.57939,37.94628],[128.57941,37.94631],[128.57958,37.9474],[128.58049,37.94871],[128.58303,37.95205],[128.58851,37.95662],[128.58892,37.95708],[128.59083,37.95997],[128.59114,37.96082],[128.59111,37.96091],[128.58929,37.96247],[128.58914,37.96258],[128.58902,37.96259],[128.58874,37.96256],[128.5887,37.96256],[128.58863,37.96256],[128.58853,37.96261],[128.58816,37.96283],[128.58749,37.96343],[128.58712,37.96387],[128.58699,37.96403],[128.58688,37.96423],[128.58671,37.96471],[128.58687,37.96832],[128.58759,37.96955],[128.58772,37.96971],[128.58726,37.97105],[128.58697,37.97158],[128.5865,37.97184],[128.58599,37.97228],[128.58592,37.97238],[128.5859,37.97245],[128.58569,37.97385],[128.58571,37.97412],[128.58576,37.97423],[128.58712,37.97606],[128.58736,37.9763],[128.58801,37.97637],[128.58853,37.97618],[128.58909,37.97556],[128.58924,37.97553],[128.59185,37.97521],[128.59192,37.97521],[128.59196,37.97521],[128.5922,37.97525],[128.59238,37.9753],[128.59288,37.97545],[128.59348,37.97565],[128.5939,37.97579],[128.5946,37.97597],[128.59481,37.97598],[128.59487,37.97597],[128.59494,37.97596],[128.59704,37.97535],[128.59845,37.97487],[128.59895,37.97487],[128.5992,37.97502],[128.59938,37.97513],[128.59991,37.97683],[128.60007,37.9778],[128.59988,37.9791],[128.60005,37.97954],[128.60143,37.98029],[128.60253,37.98123],[128.60288,37.98211],[128.60294,37.98246],[128.60294,37.98271],[128.60295,37.98309],[128.60446,37.98561],[128.60483,37.98562],[128.60588,37.98583],[128.60597,37.98593],[128.60599,37.986],[128.60636,37.98776],[128.60588,37.98906],[128.60539,37.98979],[128.60533,37.99001],[128.60499,37.99212],[128.60518,37.99443],[128.6056,37.99586],[128.60593,37.99649],[128.60684,37.99662],[128.60711,37.99677],[128.60792,37.99785],[128.6068,38.00171],[128.60672,38.0018],[128.60575,38.00216],[128.60567,38.00225],[128.60562,38.00234],[128.60556,38.00274],[128.60573,38.00353],[128.60601,38.00428],[128.60725,38.00478],[128.60775,38.00504],[128.60824,38.00552],[128.60858,38.00586],[128.60873,38.00626],[128.60883,38.00684],[128.60887,38.00711],[128.60887,38.00746],[128.60886,38.00772],[128.609,38.00805],[128.61,38.00907],[128.6115,38.01054],[128.61303,38.01117],[128.61641,38.01301],[128.62224,38.0165],[128.62264,38.01809],[128.62453,38.01641],[128.62516,38.01504],[128.62546,38.01457],[128.62563,38.01438],[128.6262,38.01379],[128.6263,38.01372],[128.62645,38.01367],[128.62667,38.01363],[128.62691,38.01361],[128.62707,38.01362],[128.62729,38.01365],[128.62758,38.01374],[128.62812,38.01392],[128.62863,38.0141],[128.62905,38.01418],[128.62929,38.01417],[128.62982,38.01408],[128.63006,38.01401],[128.63028,38.01391],[128.63045,38.01382],[128.63058,38.0137],[128.63072,38.01352],[128.63155,38.01227],[128.63159,38.01217],[128.63159,38.01207],[128.63156,38.01196],[128.63148,38.01184],[128.63133,38.01171],[128.63112,38.01158],[128.63014,38.01102],[128.62966,38.01075],[128.62925,38.01054],[128.629,38.01044],[128.62857,38.0102],[128.62849,38.01013],[128.62843,38.01006],[128.62823,38.00964],[128.62805,38.00917],[128.62792,38.00882],[128.62787,38.00864],[128.62787,38.00854],[128.62791,38.00839],[128.62797,38.00825],[128.62812,38.00804],[128.6286,38.00742],[128.62886,38.00709],[128.62903,38.00693],[128.63061,38.00553],[128.63104,38.00515],[128.63153,38.00479],[128.63629,38.00159],[128.63669,38.00142],[128.6379,38.001],[128.64024,38.00041],[128.64045,38.00044],[128.64102,38.00055],[128.64139,38.00067],[128.64166,38.0008],[128.64184,38.0009],[128.64202,38.00103],[128.64234,38.00135],[128.6428,38.00213],[128.64298,38.00245],[128.64328,38.00276],[128.64507,38.0037],[128.64517,38.00372],[128.64535,38.00371],[128.64571,38.00368],[128.64602,38.00364],[128.64625,38.00359],[128.64639,38.00354],[128.64666,38.00343],[128.64686,38.00337],[128.64705,38.00334],[128.6472,38.00333],[128.64752,38.00332],[128.64774,38.00332],[128.64778,38.00333],[128.64782,38.00334],[128.64953,38.00416],[128.6496,38.0042],[128.6497,38.00427],[128.65234,38.00626],[128.65235,38.00628],[128.65252,38.00712],[128.6527,38.00799],[128.65275,38.00813],[128.65281,38.00826],[128.65286,38.00833],[128.65485,38.00935],[128.65538,38.00957],[128.65565,38.00966],[128.65874,38.01035],[128.6602,38.0104],[128.66192,38.01046],[128.6631,38.01161],[128.66378,38.01235],[128.66649,38.01579],[128.66724,38.01686],[128.66726,38.01692],[128.66726,38.01698],[128.66722,38.01724],[128.66722,38.01728],[128.66723,38.01735],[128.66726,38.01742],[128.66733,38.01753],[128.66747,38.01779],[128.66754,38.01787],[128.67078,38.02149],[128.67259,38.02375],[128.67365,38.02524],[128.67374,38.02539],[128.6738,38.02551],[128.67383,38.02566],[128.67387,38.02582],[128.67385,38.02588],[128.67381,38.02596],[128.67309,38.02695],[128.67274,38.0273],[128.67267,38.02738],[128.67248,38.02766],[128.67246,38.02771],[128.67247,38.02776],[128.67255,38.02793],[128.67307,38.02874],[128.67339,38.02904],[128.67898,38.02977],[128.68206,38.03059],[128.6863,38.03134],[128.68658,38.03138],[128.68682,38.03138],[128.68834,38.03106],[128.68859,38.03101],[128.69032,38.03062],[128.69273,38.03042],[128.69644,38.03016],[128.69709,38.03137],[128.6985,38.03473],[128.69929,38.03448],[128.69958,38.03449],[128.70103,38.03472],[128.70128,38.03477],[128.70149,38.03488],[128.70246,38.03559],[128.70251,38.0357],[128.70272,38.03698],[128.70288,38.03818],[128.70287,38.03847],[128.70286,38.03881],[128.70301,38.03906],[128.70438,38.0399],[128.72224,38.02721],[128.72559,38.02465],[128.72638,38.02404],[128.72779,38.02361],[128.72919,38.02329],[128.73105,38.023],[128.73186,38.02358],[128.73326,38.02427],[128.73518,38.02399],[128.73694,38.02245],[128.73744,38.02046],[128.7365,38.01895],[128.73528,38.01793],[128.73466,38.01723],[128.7342,38.00757],[128.736,38.00522],[128.73809,38.00326],[128.73986,38.001],[128.74048,37.99983],[128.74106,37.99875],[128.74265,37.99584],[128.74395,37.99471],[128.74451,37.99425]]]]}},{"type":"Feature","properties":{"code":"51830340","name":"현남면","parent":"51830"},"geometry":{"type":"MultiPolygon","coordinates":[[[[128.81003,37.91834],[128.80966,37.91815],[128.80912,37.91786],[128.80821,37.91731],[128.8072,37.9166],[128.80682,37.91632],[128.80649,37.91597],[128.80533,37.91466],[128.80437,37.91358],[128.80407,37.91332],[128.80386,37.91318],[128.80367,37.91309],[128.80343,37.913],[128.80324,37.91296],[128.80298,37.91291],[128.80274,37.91288],[128.79332,37.91208],[128.79321,37.91208],[128.7931,37.9121],[128.79301,37.91214],[128.79274,37.91231],[128.79225,37.91263],[128.79201,37.91274],[128.78555,37.91454],[128.7829,37.91501],[128.78258,37.91504],[128.78245,37.91503],[128.78239,37.915],[128.77936,37.91333],[128.77718,37.91095],[128.77709,37.91085],[128.77594,37.91016],[128.77575,37.91012],[128.77558,37.91013],[128.77399,37.9103],[128.77389,37.91032],[128.77376,37.91041],[128.77354,37.91058],[128.77339,37.91075],[128.77334,37.91089],[128.77145,37.91088],[128.76851,37.91066],[128.76259,37.90963],[128.76238,37.90959],[128.7622,37.90957],[128.76207,37.90958],[128.75959,37.90998],[128.75953,37.90999],[128.75819,37.91068],[128.75802,37.91079],[128.75792,37.91087],[128.75775,37.91103],[128.75762,37.91119],[128.7574,37.91154],[128.75728,37.91181],[128.75719,37.91195],[128.75709,37.9121],[128.75698,37.91218],[128.75686,37.91226],[128.7566,37.91238],[128.75647,37.91242],[128.75636,37.91245],[128.75613,37.91246],[128.75568,37.91249],[128.75553,37.91249],[128.75532,37.91247],[128.75382,37.9123],[128.75375,37.9123],[128.7527,37.91189],[128.75262,37.91185],[128.75259,37.91181],[128.75137,37.91053],[128.74966,37.91006],[128.74767,37.90975],[128.74762,37.90975],[128.74715,37.90969],[128.74708,37.90968],[128.74704,37.90966],[128.74699,37.90961],[128.74691,37.9095],[128.74639,37.90887],[128.7463,37.90873],[128.74627,37.90864],[128.74611,37.90796],[128.74609,37.90782],[128.74612,37.90768],[128.74621,37.90741],[128.74629,37.90695],[128.74627,37.90681],[128.74625,37.90677],[128.74469,37.90436],[128.74462,37.90428],[128.74452,37.90422],[128.74052,37.90364],[128.74027,37.90363],[128.74016,37.90364],[128.74002,37.90367],[128.73984,37.90374],[128.73965,37.90383],[128.73914,37.90406],[128.7391,37.90406],[128.739,37.90405],[128.73874,37.904],[128.73852,37.90396],[128.73822,37.90389],[128.73799,37.90383],[128.7368,37.90351],[128.73633,37.90338],[128.73622,37.90334],[128.736,37.9032],[128.73569,37.90296],[128.73553,37.90281],[128.73551,37.90277],[128.7355,37.90273],[128.73547,37.90258],[128.73547,37.90234],[128.73545,37.90213],[128.73541,37.90195],[128.73537,37.90185],[128.73525,37.90166],[128.73515,37.90156],[128.73513,37.90154],[128.73486,37.90127],[128.73468,37.90114],[128.73358,37.90045],[128.73338,37.90034],[128.73211,37.89988],[128.73193,37.89983],[128.73182,37.89981],[128.73168,37.89984],[128.7314,37.89993],[128.72881,37.90085],[128.72865,37.90096],[128.72848,37.90113],[128.72832,37.90139],[128.72817,37.9017],[128.72811,37.90181],[128.72804,37.90192],[128.72777,37.90225],[128.72742,37.90259],[128.72701,37.90296],[128.7269,37.90301],[128.72682,37.90303],[128.72673,37.90303],[128.72562,37.90293],[128.72544,37.90291],[128.72407,37.9026],[128.72397,37.90255],[128.7239,37.90251],[128.72373,37.90237],[128.72353,37.90219],[128.72344,37.90213],[128.72337,37.9021],[128.72326,37.90209],[128.72311,37.90211],[128.71943,37.90276],[128.71928,37.90281],[128.71921,37.90286],[128.71914,37.90291],[128.71892,37.90321],[128.7188,37.90342],[128.71876,37.90347],[128.71867,37.90352],[128.71832,37.9037],[128.71824,37.90373],[128.71819,37.90374],[128.71816,37.90373],[128.71812,37.90371],[128.71481,37.90109],[128.71322,37.89973],[128.71314,37.89963],[128.71308,37.89947],[128.71308,37.89941],[128.7132,37.89882],[128.71326,37.89863],[128.71326,37.89858],[128.7117,37.89802],[128.70966,37.89766],[128.70426,37.89774],[128.70415,37.89775],[128.70399,37.89782],[128.70323,37.89811],[128.70204,37.89833],[128.70197,37.89833],[128.69791,37.89677],[128.69436,37.89541],[128.69412,37.89531],[128.6939,37.89522],[128.69383,37.89516],[128.69372,37.89502],[128.69364,37.89486],[128.6936,37.89472],[128.69104,37.89311],[128.6883,37.8926],[128.68843,37.8927],[128.68864,37.89293],[128.68878,37.8931],[128.68891,37.8933],[128.68942,37.89414],[128.68945,37.89456],[128.68944,37.8947],[128.6896,37.89683],[128.69055,37.90194],[128.69092,37.90286],[128.69101,37.90303],[128.69154,37.90351],[128.69174,37.90365],[128.69278,37.90495],[128.69293,37.90531],[128.69296,37.90543],[128.69267,37.9093],[128.69214,37.91209],[128.69376,37.91759],[128.69576,37.92156],[128.69585,37.92166],[128.69592,37.92189],[128.69618,37.9248],[128.69613,37.92521],[128.69565,37.92634],[128.6954,37.92663],[128.69509,37.92684],[128.69493,37.92696],[128.69462,37.92727],[128.69418,37.92782],[128.69414,37.92793],[128.6941,37.92803],[128.69404,37.92819],[128.694,37.92839],[128.69401,37.9285],[128.69453,37.9304],[128.69521,37.93202],[128.69528,37.93211],[128.69534,37.93221],[128.6956,37.93275],[128.69564,37.93288],[128.69477,37.93665],[128.69436,37.93738],[128.69433,37.93742],[128.69429,37.93744],[128.69417,37.93746],[128.69405,37.93747],[128.69399,37.93747],[128.69387,37.93751],[128.69383,37.93754],[128.69378,37.93759],[128.69374,37.93763],[128.69366,37.93774],[128.69285,37.93917],[128.69283,37.93924],[128.69224,37.94265],[128.69204,37.94395],[128.6919,37.94506],[128.69188,37.94523],[128.69188,37.94569],[128.69197,37.94743],[128.69199,37.94758],[128.69201,37.94768],[128.69394,37.95375],[128.69569,37.95723],[128.69576,37.95736],[128.6987,37.96041],[128.70101,37.96205],[128.7011,37.96209],[128.70132,37.96216],[128.70164,37.96225],[128.70288,37.96272],[128.70441,37.96378],[128.7046,37.96392],[128.70483,37.96413],[128.70491,37.96433],[128.70607,37.96772],[128.7062,37.96817],[128.70633,37.96875],[128.70661,37.97069],[128.70856,37.97378],[128.71036,37.97569],[128.71058,37.9759],[128.71129,37.9765],[128.71135,37.97654],[128.7114,37.97657],[128.71147,37.97657],[128.71155,37.97658],[128.71164,37.97656],[128.71175,37.97654],[128.71353,37.97613],[128.71451,37.97608],[128.71733,37.97606],[128.7176,37.97609],[128.7188,37.97643],[128.71895,37.97648],[128.71924,37.97662],[128.71949,37.97681],[128.71961,37.97693],[128.71975,37.97706],[128.72025,37.97775],[128.72088,37.97898],[128.72285,37.98183],[128.7255,37.98303],[128.72711,37.98379],[128.73029,37.98535],[128.73082,37.98684],[128.73168,37.98899],[128.73172,37.98903],[128.73291,37.98996],[128.73301,37.99001],[128.73773,37.99193],[128.73808,37.99199],[128.74016,37.99214],[128.74092,37.99183],[128.74103,37.99161],[128.74116,37.99142],[128.74123,37.99135],[128.74132,37.99128],[128.74136,37.99126],[128.7414,37.99124],[128.74148,37.9912],[128.74155,37.99117],[128.74169,37.99112],[128.74183,37.99108],[128.74195,37.99106],[128.74204,37.99107],[128.74347,37.99158],[128.74376,37.99172],[128.74389,37.9918],[128.74411,37.99202],[128.7444,37.99231],[128.74462,37.99264],[128.74457,37.99335],[128.74454,37.99378],[128.74451,37.99425],[128.74603,37.99375],[128.74809,37.99333],[128.75015,37.99292],[128.75055,37.99203],[128.75059,37.99159],[128.75125,37.99096],[128.75124,37.99035],[128.75052,37.98993],[128.7501,37.98958],[128.74998,37.98919],[128.75036,37.9882],[128.75223,37.9863],[128.75488,37.98447],[128.75507,37.98434],[128.75719,37.98342],[128.75929,37.98299],[128.75962,37.98301],[128.75991,37.98361],[128.76143,37.98389],[128.76255,37.9831],[128.76491,37.9803],[128.76511,37.9794],[128.7642,37.97894],[128.76315,37.97929],[128.76258,37.9793],[128.76078,37.97785],[128.76026,37.97668],[128.76028,37.97658],[128.76043,37.97602],[128.7617,37.97373],[128.76232,37.97351],[128.76312,37.97371],[128.7657,37.97346],[128.76686,37.97276],[128.76715,37.9716],[128.76641,37.96946],[128.76574,37.9694],[128.76459,37.9693],[128.76438,37.96923],[128.76416,37.96854],[128.76445,37.96786],[128.76466,37.96737],[128.76553,37.96615],[128.76806,37.96355],[128.76864,37.96356],[128.76998,37.96273],[128.7713,37.95991],[128.77061,37.95962],[128.77023,37.95838],[128.77313,37.95501],[128.77675,37.95227],[128.78212,37.94824],[128.78315,37.94748],[128.78383,37.94725],[128.78435,37.94727],[128.78443,37.94745],[128.78495,37.94815],[128.78669,37.94799],[128.78809,37.94716],[128.78928,37.94625],[128.79053,37.94514],[128.78979,37.94411],[128.78976,37.94379],[128.78962,37.94185],[128.79068,37.94054],[128.79098,37.93836],[128.7896,37.93748],[128.78878,37.93797],[128.78882,37.93757],[128.78958,37.93616],[128.79045,37.93457],[128.79306,37.93201],[128.79909,37.92659],[128.80307,37.92359],[128.81003,37.91834]]]]}},{"type":"Feature","properties":{"code":"51830350","name":"강현면","parent":"51830"},"geometry":{"type":"MultiPolygon","coordinates":[[[[128.60908,38.16105],[128.61127,38.15837],[128.61147,38.15524],[128.61052,38.15472],[128.60997,38.15455],[128.60977,38.15416],[128.60974,38.15408],[128.60937,38.15313],[128.60932,38.15195],[128.60954,38.15129],[128.6096,38.15112],[128.61278,38.14575],[128.61308,38.14524],[128.61542,38.14196],[128.6187,38.13744],[128.61976,38.1366],[128.622,38.13509],[128.62383,38.13319],[128.62322,38.13235],[128.62385,38.13091],[128.6254,38.12927],[128.6261,38.12884],[128.62637,38.12883],[128.62685,38.12895],[128.62741,38.12935],[128.62839,38.12954],[128.62915,38.12952],[128.6295,38.12952],[128.63025,38.12887],[128.63403,38.12412],[128.6342,38.12362],[128.63335,38.12008],[128.63591,38.1164],[128.63515,38.11598],[128.63438,38.11555],[128.62873,38.11254],[128.62846,38.11248],[128.62308,38.1129],[128.61825,38.11365],[128.61647,38.11414],[128.61546,38.11446],[128.61337,38.11488],[128.61178,38.11432],[128.60547,38.112],[128.6058,38.10967],[128.60617,38.10892],[128.61015,38.10934],[128.61194,38.10856],[128.61226,38.10738],[128.61224,38.1057],[128.60847,38.10515],[128.60269,38.10322],[128.60222,38.103],[128.59947,38.10203],[128.5985,38.10199],[128.5956,38.10271],[128.59053,38.10558],[128.58941,38.10754],[128.58783,38.10778],[128.58745,38.1078],[128.58676,38.10772],[128.58575,38.1073],[128.58437,38.10623],[128.58432,38.10531],[128.58317,38.10444],[128.58098,38.1047],[128.58036,38.10493],[128.57916,38.1056],[128.57839,38.10734],[128.57843,38.10824],[128.57663,38.1094],[128.57365,38.11068],[128.57124,38.1108],[128.57008,38.1107],[128.56809,38.11196],[128.56737,38.11202],[128.56391,38.11156],[128.56293,38.11224],[128.56228,38.11407],[128.56212,38.1143],[128.56125,38.11493],[128.56102,38.11495],[128.55594,38.11528],[128.54645,38.11268],[128.54025,38.11107],[128.52987,38.11171],[128.52557,38.11174],[128.52392,38.11175],[128.51196,38.11044],[128.51132,38.11006],[128.50983,38.10917],[128.50822,38.10922],[128.50678,38.10978],[128.50589,38.11013],[128.50209,38.11077],[128.50178,38.11082],[128.49967,38.11049],[128.49937,38.11032],[128.49774,38.10941],[128.49664,38.10929],[128.49381,38.11013],[128.4913,38.10894],[128.48472,38.11073],[128.47758,38.11477],[128.47611,38.11532],[128.47557,38.11551],[128.47179,38.11633],[128.46999,38.11647],[128.46932,38.11658],[128.46872,38.1168],[128.46859,38.11692],[128.46827,38.118],[128.46642,38.11928],[128.46809,38.12003],[128.4713,38.12079],[128.47195,38.12097],[128.47383,38.1218],[128.47429,38.12227],[128.4752,38.12324],[128.4767,38.12542],[128.47691,38.12574],[128.47762,38.12732],[128.47963,38.12956],[128.48231,38.13177],[128.48307,38.13228],[128.48468,38.1329],[128.48529,38.13323],[128.48974,38.13598],[128.48996,38.13615],[128.49083,38.13683],[128.49123,38.13723],[128.49137,38.13736],[128.49182,38.13805],[128.49331,38.13786],[128.4971,38.1373],[128.49776,38.1371],[128.49816,38.13697],[128.49866,38.13656],[128.49928,38.13623],[128.4995,38.13612],[128.50058,38.13572],[128.50144,38.13554],[128.50464,38.1364],[128.50585,38.13658],[128.50975,38.13667],[128.51247,38.13641],[128.51355,38.13621],[128.51403,38.13607],[128.51525,38.13572],[128.51593,38.1357],[128.51611,38.13571],[128.51658,38.13575],[128.51733,38.13594],[128.52039,38.13672],[128.52048,38.13676],[128.52056,38.13679],[128.52213,38.13746],[128.52297,38.13787],[128.52331,38.13811],[128.52382,38.13824],[128.52524,38.13794],[128.52752,38.13676],[128.52782,38.13664],[128.52792,38.1366],[128.52814,38.13652],[128.52871,38.13637],[128.5292,38.13654],[128.52976,38.13687],[128.53026,38.13796],[128.5311,38.14022],[128.53112,38.14038],[128.53123,38.14134],[128.53134,38.1421],[128.53152,38.14229],[128.5321,38.14289],[128.53382,38.14403],[128.53446,38.14492],[128.53495,38.14568],[128.53502,38.14712],[128.5345,38.14789],[128.53456,38.14834],[128.53509,38.14841],[128.53684,38.14862],[128.53803,38.14874],[128.5401,38.14877],[128.54255,38.14823],[128.54428,38.14839],[128.54684,38.14886],[128.54929,38.14916],[128.55046,38.14916],[128.55087,38.14907],[128.55122,38.14901],[128.55167,38.14882],[128.55239,38.14854],[128.55288,38.14844],[128.55941,38.14915],[128.56121,38.14979],[128.56127,38.14981],[128.56183,38.15011],[128.56233,38.15048],[128.56306,38.15102],[128.56463,38.15197],[128.5674,38.15351],[128.56756,38.15352],[128.56825,38.15355],[128.56926,38.15373],[128.56938,38.15376],[128.56944,38.15377],[128.5706,38.1544],[128.57062,38.15443],[128.5707,38.15451],[128.57022,38.15602],[128.56982,38.15749],[128.56982,38.15767],[128.57061,38.16076],[128.57077,38.161],[128.57394,38.1616],[128.57449,38.16168],[128.57499,38.16162],[128.57546,38.16153],[128.57596,38.16131],[128.57686,38.16085],[128.57701,38.16079],[128.5776,38.16062],[128.57956,38.16018],[128.58012,38.16009],[128.58229,38.16013],[128.58759,38.1603],[128.58971,38.1604],[128.59412,38.1605],[128.59725,38.16009],[128.60207,38.15971],[128.60273,38.15971],[128.60523,38.1599],[128.60522,38.16014],[128.60517,38.16105],[128.60792,38.16108],[128.60848,38.16109],[128.60908,38.16105]]]]}}]}