{"type":"FeatureCollection","features":[{"type":"Feature","properties":{"code":"26260510","name":"수민동","parent":"26260"},"geometry":{"type":"MultiPolygon","coordinates":[[[[129.09241,35.19967],[129.09251,35.19964],[129.09279,35.19953],[129.09396,35.1991],[129.09435,35.19895],[129.09452,35.19889],[129.0955,35.19818],[129.0975,35.19612],[129.09785,35.19553],[129.09798,35.19527],[129.09818,35.19482],[129.09848,35.19414],[129.09849,35.19412],[129.09897,35.19302],[129.09906,35.19278],[129.09941,35.19175],[129.09543,35.19238],[129.09499,35.19242],[129.09073,35.19346],[129.09039,35.19351],[129.08955,35.19362],[129.08711,35.19416],[129.08651,35.19434],[129.08637,35.19438],[129.08588,35.1946],[129.08561,35.19472],[129.08472,35.19521],[129.08406,35.19563],[129.0831,35.19642],[129.08033,35.19927],[129.07845,35.20195],[129.07917,35.20196],[129.0832,35.20204],[129.08365,35.20234],[129.08379,35.20263],[129.08409,35.20438],[129.08552,35.20329],[129.08556,35.20358],[129.08639,35.20395],[129.08703,35.20397],[129.08717,35.20396],[129.0884,35.20258],[129.08898,35.20139],[129.08899,35.20078],[129.09241,35.19967]]]]}},{"type":"Feature","properties":{"code":"26260520","name":"복산동","parent":"26260"},"geometry":{"type":"MultiPolygon","coordinates":[[[[129.09239,35.21004],[129.0926,35.21003],[129.09278,35.20995],[129.09315,35.20976],[129.09378,35.20942],[129.09388,35.2093],[129.0955,35.20699],[129.09581,35.20651],[129.0959,35.20624],[129.09594,35.20592],[129.0959,35.20571],[129.09589,35.20565],[129.09561,35.2048],[129.09545,35.2047],[129.09241,35.19967],[129.08899,35.20078],[129.08898,35.20139],[129.0884,35.20258],[129.08717,35.20396],[129.08703,35.20397],[129.08639,35.20395],[129.08556,35.20358],[129.08552,35.20329],[129.08409,35.20438],[129.08395,35.2044],[129.08385,35.20443],[129.08359,35.20461],[129.08343,35.20484],[129.08324,35.20532],[129.08326,35.2054],[129.08594,35.20853],[129.086,35.20857],[129.08774,35.20954],[129.08813,35.20971],[129.0906,35.21047],[129.0907,35.21048],[129.0908,35.21047],[129.09089,35.21044],[129.09111,35.21037],[129.09184,35.21008],[129.09239,35.21004]]]]}},{"type":"Feature","properties":{"code":"26260550","name":"온천1동","parent":"26260"},"geometry":{"type":"MultiPolygon","coordinates":[[[[129.08192,35.22451],[129.0825,35.2239],[129.08509,35.22193],[129.08726,35.22166],[129.08494,35.21792],[129.08327,35.21623],[129.08082,35.21362],[129.08048,35.21369],[129.08003,35.21379],[129.079,35.21222],[129.07876,35.21183],[129.07793,35.21285],[129.07725,35.21357],[129.07711,35.21371],[129.07703,35.2138],[129.07309,35.21486],[129.07267,35.21484],[129.0726,35.2148],[129.07079,35.21666],[129.06313,35.22179],[129.06226,35.22172],[129.06189,35.22169],[129.06151,35.22263],[129.05926,35.22404],[129.0602,35.22622],[129.06065,35.2265],[129.06222,35.22683],[129.06269,35.22685],[129.06366,35.22689],[129.06535,35.22694],[129.06611,35.22687],[129.06649,35.22648],[129.06653,35.2253],[129.06687,35.22518],[129.06859,35.22509],[129.06882,35.22508],[129.06917,35.2251],[129.07047,35.22574],[129.07155,35.22627],[129.07675,35.2264],[129.0775,35.22635],[129.07771,35.22627],[129.0807,35.22383],[129.08192,35.22451]]]]}},{"type":"Feature","properties":{"code":"26260560","name":"온천2동","parent":"26260"},"geometry":{"type":"MultiPolygon","coordinates":[[[[129.07876,35.21183],[129.07885,35.20407],[129.07315,35.20647],[129.0685,35.20829],[129.06631,35.20897],[129.06588,35.2091],[129.06528,35.20935],[129.06518,35.20941],[129.06446,35.2099],[129.06442,35.21014],[129.06296,35.21109],[129.06272,35.21123],[129.0624,35.21141],[129.06167,35.21172],[129.06155,35.21174],[129.06083,35.21184],[129.05988,35.21127],[129.05967,35.21114],[129.05776,35.21101],[129.05401,35.21087],[129.05257,35.2111],[129.05145,35.21136],[129.05141,35.21167],[129.05137,35.21223],[129.05134,35.21298],[129.05134,35.21324],[129.05164,35.21374],[129.05183,35.21397],[129.05334,35.21565],[129.05479,35.2172],[129.05627,35.21908],[129.05689,35.2208],[129.05779,35.22273],[129.05807,35.22322],[129.0587,35.22373],[129.05926,35.22404],[129.06151,35.22263],[129.06189,35.22169],[129.06226,35.22172],[129.06313,35.22179],[129.07079,35.21666],[129.0726,35.2148],[129.07267,35.21484],[129.07309,35.21486],[129.07703,35.2138],[129.07711,35.21371],[129.07725,35.21357],[129.07793,35.21285],[129.07876,35.21183]]]]}},{"type":"Feature","properties":{"code":"26260570","name":"온천3동","parent":"26260"},"geometry":{"type":"MultiPolygon","coordinates":[[[[129.07885,35.20407],[129.0783,35.20253],[129.07641,35.20262],[129.07382,35.20202],[129.07183,35.20126],[129.06864,35.20045],[129.06815,35.20061],[129.06753,35.20082],[129.0674,35.20087],[129.06717,35.20094],[129.0654,35.20175],[129.06449,35.20216],[129.06444,35.20219],[129.06376,35.20251],[129.06369,35.20254],[129.06358,35.20259],[129.06299,35.20285],[129.06251,35.20305],[129.06248,35.20307],[129.05965,35.20195],[129.05968,35.20208],[129.0595,35.20238],[129.05942,35.20247],[129.05884,35.20318],[129.0582,35.20366],[129.05715,35.20408],[129.05541,35.2055],[129.05098,35.20844],[129.05145,35.21136],[129.05257,35.2111],[129.05401,35.21087],[129.05776,35.21101],[129.05967,35.21114],[129.05988,35.21127],[129.06083,35.21184],[129.06155,35.21174],[129.06167,35.21172],[129.0624,35.21141],[129.06272,35.21123],[129.06296,35.21109],[129.06442,35.21014],[129.06446,35.2099],[129.06518,35.20941],[129.06528,35.20935],[129.06588,35.2091],[129.06631,35.20897],[129.0685,35.20829],[129.07315,35.20647],[129.07885,35.20407]]]]}},{"type":"Feature","properties":{"code":"26260580","name":"사직1동","parent":"26260"},"geometry":{"type":"MultiPolygon","coordinates":[[[[129.0654,35.20175],[129.06454,35.20057],[129.06564,35.1968],[129.06569,35.19666],[129.06648,35.19416],[129.0642,35.1937],[129.06355,35.19586],[129.06345,35.19619],[129.06187,35.19589],[129.06102,35.19572],[129.05905,35.19966],[129.0587,35.20083],[129.05965,35.20195],[129.06248,35.20307],[129.06251,35.20305],[129.06299,35.20285],[129.06358,35.20259],[129.06369,35.20254],[129.06376,35.20251],[129.06444,35.20219],[129.06449,35.20216],[129.0654,35.20175]]]]}},{"type":"Feature","properties":{"code":"26260590","name":"사직2동","parent":"26260"},"geometry":{"type":"MultiPolygon","coordinates":[[[[129.05965,35.20195],[129.0587,35.20083],[129.05905,35.19966],[129.06102,35.19572],[129.06187,35.19589],[129.06345,35.19619],[129.06355,35.19586],[129.0642,35.1937],[129.06462,35.19225],[129.06275,35.19187],[129.05988,35.1913],[129.05577,35.19237],[129.05322,35.19208],[129.05306,35.19208],[129.05279,35.19217],[129.04769,35.19421],[129.04606,35.19599],[129.0441,35.19794],[129.04387,35.19839],[129.0436,35.19896],[129.04353,35.19929],[129.04347,35.20125],[129.04351,35.20191],[129.04358,35.20216],[129.0451,35.20197],[129.04738,35.20408],[129.05,35.20666],[129.0504,35.20722],[129.05098,35.20844],[129.05541,35.2055],[129.05715,35.20408],[129.0582,35.20366],[129.05884,35.20318],[129.05942,35.20247],[129.0595,35.20238],[129.05968,35.20208],[129.05965,35.20195]]]]}},{"type":"Feature","properties":{"code":"26260600","name":"사직3동","parent":"26260"},"geometry":{"type":"MultiPolygon","coordinates":[[[[129.0783,35.20253],[129.07845,35.20195],[129.08033,35.19927],[129.07816,35.19938],[129.07809,35.19938],[129.07791,35.1994],[129.0764,35.19885],[129.07626,35.1988],[129.07487,35.19828],[129.07426,35.19806],[129.07341,35.19716],[129.07296,35.19668],[129.07123,35.19512],[129.06648,35.19416],[129.06569,35.19666],[129.06564,35.1968],[129.06454,35.20057],[129.0654,35.20175],[129.06717,35.20094],[129.0674,35.20087],[129.06753,35.20082],[129.06815,35.20061],[129.06864,35.20045],[129.07183,35.20126],[129.07382,35.20202],[129.07641,35.20262],[129.0783,35.20253]]]]}},{"type":"Feature","properties":{"code":"26260740","name":"안락1동","parent":"26260"},"geometry":{"type":"MultiPolygon","coordinates":[[[[129.09953,35.20266],[129.09964,35.20243],[129.10006,35.2015],[129.1001,35.2015],[129.10083,35.20136],[129.10105,35.20132],[129.10378,35.20083],[129.10445,35.20071],[129.10458,35.20072],[129.10436,35.19817],[129.10422,35.19659],[129.10326,35.19674],[129.10324,35.19671],[129.10319,35.19663],[129.10305,35.19637],[129.10252,35.1953],[129.10247,35.19521],[129.10098,35.19224],[129.10083,35.19194],[129.10062,35.19144],[129.09941,35.19175],[129.09906,35.19278],[129.09897,35.19302],[129.09849,35.19412],[129.09848,35.19414],[129.09818,35.19482],[129.09798,35.19527],[129.09785,35.19553],[129.0975,35.19612],[129.0955,35.19818],[129.09452,35.19889],[129.09435,35.19895],[129.09396,35.1991],[129.09279,35.19953],[129.09251,35.19964],[129.09241,35.19967],[129.09545,35.2047],[129.09779,35.20403],[129.09953,35.20266]]]]}},{"type":"Feature","properties":{"code":"26260750","name":"안락2동","parent":"26260"},"geometry":{"type":"MultiPolygon","coordinates":[[[[129.11638,35.20109],[129.11587,35.20042],[129.11583,35.20034],[129.1158,35.20027],[129.11557,35.19975],[129.11521,35.19891],[129.11517,35.19879],[129.11455,35.19664],[129.11436,35.19556],[129.11434,35.19532],[129.11425,35.19439],[129.11424,35.19419],[129.11423,35.19415],[129.11421,35.19352],[129.11421,35.19348],[129.1142,35.19309],[129.11529,35.18966],[129.11552,35.18783],[129.11516,35.18318],[129.11498,35.18331],[129.11459,35.18362],[129.11448,35.18374],[129.11416,35.18404],[129.11391,35.18434],[129.11241,35.18627],[129.1122,35.187],[129.11216,35.18715],[129.11052,35.18964],[129.10838,35.19041],[129.10818,35.19044],[129.10563,35.19074],[129.10526,35.19076],[129.10378,35.19086],[129.10237,35.19099],[129.10062,35.19144],[129.10083,35.19194],[129.10098,35.19224],[129.10247,35.19521],[129.10252,35.1953],[129.10305,35.19637],[129.10319,35.19663],[129.10324,35.19671],[129.10326,35.19674],[129.10422,35.19659],[129.10436,35.19817],[129.10458,35.20072],[129.10809,35.20056],[129.11292,35.20031],[129.11303,35.20031],[129.11309,35.20033],[129.11316,35.20039],[129.11348,35.20084],[129.11373,35.20153],[129.11378,35.20172],[129.11378,35.20177],[129.11506,35.20177],[129.11638,35.20109]]]]}},{"type":"Feature","properties":{"code":"26260761","name":"명장1동","parent":"26260"},"geometry":{"type":"MultiPolygon","coordinates":[[[[129.11004,35.21011],[129.10992,35.20993],[129.10987,35.20967],[129.11012,35.20739],[129.11016,35.20706],[129.11023,35.20686],[129.11138,35.20387],[129.11211,35.20321],[129.11378,35.20177],[129.11378,35.20172],[129.11373,35.20153],[129.11348,35.20084],[129.11316,35.20039],[129.11309,35.20033],[129.11303,35.20031],[129.11292,35.20031],[129.10809,35.20056],[129.10458,35.20072],[129.10445,35.20071],[129.10378,35.20083],[129.10105,35.20132],[129.10083,35.20136],[129.1001,35.2015],[129.10006,35.2015],[129.09964,35.20243],[129.09953,35.20266],[129.10015,35.20314],[129.10087,35.20377],[129.10337,35.20712],[129.10344,35.2075],[129.10346,35.20764],[129.10351,35.20793],[129.10352,35.20809],[129.10352,35.20817],[129.10353,35.20838],[129.10354,35.20866],[129.10356,35.20909],[129.10357,35.20939],[129.1038,35.20974],[129.10419,35.20993],[129.10507,35.21036],[129.10627,35.20965],[129.10636,35.20959],[129.10864,35.21019],[129.11004,35.21011]]]]}},{"type":"Feature","properties":{"code":"26260762","name":"명장2동","parent":"26260"},"geometry":{"type":"MultiPolygon","coordinates":[[[[129.09754,35.21408],[129.10136,35.21274],[129.10177,35.21259],[129.10187,35.21255],[129.10203,35.21247],[129.10231,35.21232],[129.10252,35.2122],[129.10249,35.21203],[129.10247,35.21193],[129.10243,35.21179],[129.10241,35.2117],[129.10233,35.21135],[129.10245,35.21129],[129.10437,35.21049],[129.10444,35.21047],[129.10497,35.21034],[129.10507,35.21036],[129.10419,35.20993],[129.1038,35.20974],[129.10357,35.20939],[129.10356,35.20909],[129.10354,35.20866],[129.10353,35.20838],[129.10352,35.20817],[129.10352,35.20809],[129.10351,35.20793],[129.10346,35.20764],[129.10344,35.2075],[129.10337,35.20712],[129.10087,35.20377],[129.10015,35.20314],[129.09953,35.20266],[129.09779,35.20403],[129.09545,35.2047],[129.09561,35.2048],[129.09589,35.20565],[129.0959,35.20571],[129.09594,35.20592],[129.0959,35.20624],[129.09581,35.20651],[129.0955,35.20699],[129.09388,35.2093],[129.09378,35.20942],[129.09315,35.20976],[129.09278,35.20995],[129.0926,35.21003],[129.09239,35.21004],[129.09273,35.21052],[129.09288,35.21075],[129.09301,35.21214],[129.09299,35.21224],[129.09295,35.21234],[129.09274,35.21271],[129.09262,35.21287],[129.09252,35.21313],[129.0932,35.21416],[129.09327,35.21425],[129.09359,35.21467],[129.09372,35.21477],[129.09399,35.21496],[129.09436,35.21543],[129.09563,35.21454],[129.09754,35.21408]]]]}},{"type":"Feature","properties":{"code":"26260545","name":"명륜동","parent":"26260"},"geometry":{"type":"MultiPolygon","coordinates":[[[[129.09399,35.21496],[129.09372,35.21477],[129.09359,35.21467],[129.09327,35.21425],[129.0932,35.21416],[129.09252,35.21313],[129.09262,35.21287],[129.09274,35.21271],[129.09295,35.21234],[129.09299,35.21224],[129.09301,35.21214],[129.09288,35.21075],[129.09273,35.21052],[129.09239,35.21004],[129.09184,35.21008],[129.09111,35.21037],[129.09089,35.21044],[129.0908,35.21047],[129.0907,35.21048],[129.0906,35.21047],[129.08813,35.20971],[129.08774,35.20954],[129.086,35.20857],[129.08594,35.20853],[129.08326,35.2054],[129.08324,35.20532],[129.08343,35.20484],[129.08359,35.20461],[129.08385,35.20443],[129.08395,35.2044],[129.08409,35.20438],[129.08379,35.20263],[129.08365,35.20234],[129.0832,35.20204],[129.07917,35.20196],[129.07845,35.20195],[129.0783,35.20253],[129.07885,35.20407],[129.07876,35.21183],[129.079,35.21222],[129.08003,35.21379],[129.08048,35.21369],[129.08082,35.21362],[129.08327,35.21623],[129.08494,35.21792],[129.08656,35.21705],[129.08789,35.21764],[129.08833,35.21768],[129.09239,35.2165],[129.09333,35.21585],[129.09369,35.21553],[129.09399,35.21496]]]]}}]}