{"type":"FeatureCollection","features":[{"type":"Feature","properties":{"code":"51760250","name":"평창읍","parent":"51760"},"geometry":{"type":"MultiPolygon","coordinates":[[[[128.50638,37.41858],[128.50624,37.41832],[128.50612,37.41708],[128.50608,37.41666],[128.5062,37.41647],[128.50636,37.41632],[128.50751,37.41564],[128.50792,37.41519],[128.50806,37.4149],[128.50818,37.41444],[128.50826,37.41395],[128.50837,37.41112],[128.50784,37.41107],[128.50715,37.41089],[128.50478,37.40989],[128.50405,37.40945],[128.50362,37.40916],[128.50148,37.40726],[128.49986,37.40579],[128.49776,37.40425],[128.49575,37.40295],[128.49559,37.40287],[128.49539,37.40285],[128.49505,37.40298],[128.49343,37.40468],[128.49306,37.40504],[128.49245,37.40535],[128.49145,37.4057],[128.49105,37.40577],[128.49042,37.40576],[128.48965,37.40566],[128.48799,37.40514],[128.48745,37.40494],[128.48463,37.40338],[128.48434,37.40314],[128.48099,37.40028],[128.47903,37.39789],[128.47857,37.39726],[128.47582,37.39516],[128.47534,37.39498],[128.47467,37.39466],[128.47421,37.39429],[128.47339,37.39348],[128.47199,37.39172],[128.4674,37.38676],[128.46717,37.38661],[128.46659,37.38629],[128.46618,37.38616],[128.46607,37.38608],[128.46595,37.38586],[128.46589,37.38552],[128.46599,37.38525],[128.46688,37.38293],[128.46757,37.38221],[128.46785,37.38185],[128.468,37.38163],[128.46802,37.38138],[128.46796,37.37783],[128.46794,37.37723],[128.46792,37.37696],[128.46763,37.37454],[128.46679,37.3709],[128.46677,37.37083],[128.46602,37.37002],[128.46586,37.36988],[128.46574,37.3698],[128.46495,37.36895],[128.46387,37.36775],[128.4638,37.36765],[128.46146,37.36124],[128.46142,37.361],[128.46102,37.35763],[128.46169,37.35321],[128.46174,37.35303],[128.46182,37.3529],[128.46203,37.35259],[128.46209,37.35255],[128.46213,37.35251],[128.46272,37.3522],[128.463,37.35197],[128.46321,37.35175],[128.46337,37.35148],[128.46346,37.35108],[128.46349,37.35093],[128.46348,37.35056],[128.46325,37.34849],[128.46304,37.34742],[128.46302,37.34739],[128.46294,37.34736],[128.46193,37.34719],[128.45956,37.34618],[128.45944,37.34612],[128.45937,37.34606],[128.45906,37.34563],[128.45796,37.34406],[128.45579,37.34083],[128.45558,37.34046],[128.45554,37.34033],[128.4553,37.33932],[128.45506,37.33827],[128.45503,37.3379],[128.45499,37.33746],[128.45495,37.33735],[128.45384,37.33585],[128.45287,37.33466],[128.45191,37.33507],[128.45065,37.3357],[128.45047,37.33578],[128.45028,37.33597],[128.44962,37.33685],[128.44941,37.337],[128.44915,37.33706],[128.44777,37.33727],[128.44743,37.33726],[128.44717,37.33723],[128.44605,37.33703],[128.44555,37.33691],[128.44458,37.33668],[128.44428,37.33662],[128.44404,37.33663],[128.44356,37.33674],[128.44236,37.3371],[128.43981,37.33793],[128.43954,37.33807],[128.4344,37.33927],[128.43424,37.33922],[128.43396,37.33916],[128.4336,37.33913],[128.43336,37.33914],[128.43281,37.33924],[128.43086,37.3396],[128.43064,37.33964],[128.42952,37.33987],[128.42932,37.33994],[128.42906,37.34016],[128.42746,37.34158],[128.42689,37.34211],[128.42678,37.34218],[128.42534,37.34283],[128.42524,37.34286],[128.42473,37.3429],[128.42404,37.34291],[128.42277,37.3437],[128.4224,37.34378],[128.42205,37.34385],[128.42111,37.34396],[128.42088,37.34397],[128.42078,37.34397],[128.42068,37.34396],[128.417,37.3422],[128.41106,37.33866],[128.40947,37.33676],[128.40996,37.33596],[128.41017,37.33559],[128.41163,37.33238],[128.41171,37.33216],[128.41197,37.33134],[128.41206,37.33102],[128.4121,37.33084],[128.41218,37.33047],[128.4122,37.33028],[128.41213,37.33018],[128.41132,37.32913],[128.41124,37.32905],[128.4087,37.32669],[128.40768,37.32617],[128.40756,37.32613],[128.4074,37.32602],[128.40712,37.32573],[128.40631,37.32492],[128.40601,37.32462],[128.40539,37.32387],[128.4052,37.32361],[128.40515,37.32342],[128.40513,37.32336],[128.40474,37.3219],[128.40468,37.32158],[128.40453,37.32078],[128.40437,37.31961],[128.4043,37.319],[128.4043,37.31862],[128.40469,37.31638],[128.40489,37.31572],[128.40633,37.31125],[128.40643,37.31112],[128.40992,37.30936],[128.41034,37.30916],[128.41102,37.30894],[128.41112,37.30891],[128.41113,37.30886],[128.4107,37.30773],[128.41059,37.30757],[128.41031,37.30733],[128.40982,37.30696],[128.40921,37.30661],[128.40815,37.30613],[128.40785,37.30601],[128.40768,37.30588],[128.40748,37.30568],[128.40646,37.3042],[128.40642,37.30411],[128.40621,37.30262],[128.40626,37.30245],[128.40635,37.30231],[128.40649,37.30222],[128.40697,37.30193],[128.40723,37.30174],[128.40801,37.30116],[128.4082,37.301],[128.40842,37.30071],[128.40963,37.29704],[128.40956,37.29663],[128.40927,37.29515],[128.409,37.29476],[128.4087,37.29433],[128.40857,37.29427],[128.40628,37.2941],[128.406,37.29408],[128.40562,37.29414],[128.40283,37.29498],[128.40129,37.29574],[128.40107,37.296],[128.40088,37.29632],[128.40057,37.29673],[128.40037,37.2969],[128.40023,37.29696],[128.39777,37.29725],[128.3974,37.29727],[128.39708,37.29727],[128.39696,37.29727],[128.39678,37.29718],[128.39484,37.29602],[128.39394,37.29534],[128.39382,37.29522],[128.38863,37.2912],[128.38848,37.29109],[128.38825,37.29102],[128.38125,37.28908],[128.38057,37.28893],[128.38014,37.28889],[128.3797,37.28892],[128.37776,37.28936],[128.37755,37.28941],[128.37749,37.28947],[128.37741,37.28967],[128.3773,37.28978],[128.37709,37.28991],[128.37697,37.28999],[128.37312,37.29125],[128.37177,37.29157],[128.37035,37.29389],[128.37013,37.2943],[128.36943,37.29583],[128.36939,37.29595],[128.36932,37.29679],[128.36918,37.29758],[128.36903,37.29802],[128.36855,37.2991],[128.36832,37.29933],[128.36793,37.29947],[128.3676,37.29953],[128.36677,37.29951],[128.3653,37.29942],[128.36464,37.29941],[128.36439,37.29943],[128.364,37.29958],[128.36378,37.29974],[128.36356,37.29998],[128.36317,37.30075],[128.36075,37.30449],[128.35799,37.30856],[128.35751,37.30881],[128.3559,37.30947],[128.34996,37.30931],[128.34657,37.30807],[128.34296,37.30795],[128.34218,37.30787],[128.34171,37.30778],[128.34138,37.30763],[128.34117,37.30747],[128.34102,37.30735],[128.34088,37.30715],[128.34054,37.30659],[128.34025,37.30616],[128.34004,37.30587],[128.3399,37.30572],[128.33952,37.30536],[128.33937,37.30525],[128.33872,37.30489],[128.33857,37.30483],[128.33213,37.3037],[128.33206,37.30371],[128.33188,37.30374],[128.3316,37.30382],[128.33144,37.30388],[128.33133,37.30394],[128.33128,37.30401],[128.3312,37.30416],[128.33057,37.30581],[128.33054,37.30593],[128.33024,37.30856],[128.33021,37.30934],[128.33033,37.30977],[128.32971,37.31173],[128.32957,37.31188],[128.32949,37.31194],[128.32911,37.3121],[128.32842,37.31238],[128.32828,37.31243],[128.3282,37.31248],[128.32808,37.31257],[128.32795,37.31268],[128.32769,37.31293],[128.32624,37.31442],[128.32378,37.3177],[128.32369,37.31785],[128.32274,37.3198],[128.32273,37.32026],[128.32271,37.32106],[128.32275,37.32157],[128.32278,37.32169],[128.3231,37.32195],[128.32324,37.32201],[128.32405,37.32747],[128.32398,37.32903],[128.32387,37.33161],[128.32385,37.33175],[128.32345,37.33358],[128.32342,37.33372],[128.32334,37.33387],[128.32293,37.33454],[128.32282,37.33467],[128.32193,37.33604],[128.32131,37.33799],[128.32117,37.33889],[128.32115,37.3391],[128.32114,37.33925],[128.32116,37.33935],[128.3221,37.34309],[128.32212,37.34315],[128.32217,37.34322],[128.32237,37.3434],[128.32248,37.34355],[128.32256,37.34375],[128.32265,37.3442],[128.32262,37.34447],[128.32232,37.34635],[128.32194,37.34759],[128.32193,37.34763],[128.32167,37.34814],[128.32161,37.34823],[128.32078,37.34912],[128.32072,37.34915],[128.3193,37.35035],[128.31708,37.35293],[128.31704,37.35301],[128.31688,37.35362],[128.31686,37.35373],[128.31687,37.35382],[128.31689,37.35405],[128.31691,37.35411],[128.31834,37.35921],[128.31907,37.36131],[128.31913,37.36142],[128.31952,37.36239],[128.31954,37.36245],[128.3195,37.36254],[128.31944,37.36265],[128.31921,37.36308],[128.31889,37.36367],[128.31857,37.36414],[128.31855,37.36421],[128.31851,37.36456],[128.3185,37.36469],[128.31853,37.36475],[128.31858,37.3648],[128.31905,37.36526],[128.32134,37.36819],[128.32349,37.37188],[128.32371,37.37287],[128.32372,37.3729],[128.32375,37.37294],[128.32379,37.37299],[128.32386,37.37303],[128.32492,37.37356],[128.32677,37.37461],[128.32682,37.37464],[128.32688,37.3747],[128.32694,37.37477],[128.32699,37.37486],[128.32702,37.37495],[128.32713,37.3753],[128.32716,37.37548],[128.32719,37.37562],[128.32719,37.37567],[128.32715,37.37573],[128.32556,37.37783],[128.32486,37.37844],[128.32455,37.3786],[128.32418,37.37867],[128.32384,37.37867],[128.32095,37.37838],[128.3171,37.37815],[128.31695,37.37821],[128.31556,37.37944],[128.31376,37.38174],[128.31293,37.38297],[128.31205,37.38362],[128.30817,37.38637],[128.30522,37.38791],[128.30314,37.38921],[128.29765,37.38915],[128.29755,37.38952],[128.29521,37.39365],[128.29438,37.39475],[128.29426,37.395],[128.29384,37.39595],[128.29357,37.39679],[128.29377,37.39955],[128.29383,37.40016],[128.29422,37.40063],[128.29634,37.40222],[128.29652,37.40229],[128.29695,37.40222],[128.29832,37.40194],[128.29932,37.40184],[128.2997,37.40187],[128.30008,37.40214],[128.30077,37.40336],[128.30136,37.40397],[128.30192,37.40451],[128.30305,37.40519],[128.31143,37.41017],[128.31431,37.41154],[128.3148,37.41174],[128.31556,37.41193],[128.31599,37.4119],[128.31846,37.41131],[128.3204,37.41134],[128.32191,37.41149],[128.32826,37.41222],[128.33207,37.41267],[128.332,37.41287],[128.3309,37.41419],[128.33046,37.41511],[128.33008,37.41614],[128.33,37.41696],[128.33206,37.4206],[128.33282,37.42162],[128.3333,37.4219],[128.33691,37.4239],[128.33782,37.42411],[128.34182,37.425],[128.3453,37.4253],[128.34694,37.42513],[128.34743,37.42514],[128.34969,37.4255],[128.35137,37.4261],[128.35423,37.42654],[128.35474,37.42654],[128.3566,37.42611],[128.35858,37.4256],[128.35891,37.42558],[128.35975,37.42581],[128.36205,37.42654],[128.36378,37.42694],[128.37019,37.4284],[128.37062,37.42844],[128.37108,37.42835],[128.37278,37.42771],[128.3756,37.42595],[128.37621,37.42568],[128.37651,37.42558],[128.37654,37.42557],[128.37667,37.42553],[128.37705,37.42549],[128.37787,37.4257],[128.37832,37.4258],[128.37923,37.42587],[128.38005,37.42583],[128.38228,37.42554],[128.38473,37.42475],[128.38546,37.42444],[128.38586,37.42423],[128.38648,37.42362],[128.38812,37.42149],[128.38831,37.42137],[128.39176,37.42013],[128.39403,37.41821],[128.39426,37.4179],[128.39624,37.41613],[128.39667,37.41587],[128.3991,37.41441],[128.3995,37.41421],[128.39978,37.41413],[128.40713,37.41512],[128.41022,37.41691],[128.41047,37.41711],[128.41196,37.41889],[128.4126,37.41974],[128.41273,37.41993],[128.41288,37.42003],[128.41518,37.42085],[128.41541,37.4209],[128.41595,37.42091],[128.4195,37.4201],[128.42658,37.41864],[128.4279,37.41846],[128.42838,37.41834],[128.42903,37.41806],[128.43079,37.41692],[128.43107,37.41674],[128.43153,37.4163],[128.43219,37.41549],[128.43269,37.41463],[128.43294,37.41436],[128.43325,37.41413],[128.4342,37.41366],[128.4351,37.41337],[128.43605,37.4131],[128.43681,37.41294],[128.43712,37.41294],[128.43738,37.41302],[128.43772,37.4134],[128.43833,37.41425],[128.44044,37.4185],[128.44255,37.42297],[128.44321,37.42506],[128.44335,37.42544],[128.44353,37.42566],[128.4438,37.42593],[128.44403,37.42608],[128.44429,37.42622],[128.44806,37.42786],[128.44837,37.42793],[128.4487,37.42791],[128.45266,37.42767],[128.45284,37.42763],[128.45326,37.42746],[128.45467,37.42655],[128.45541,37.42613],[128.45617,37.42583],[128.45651,37.42572],[128.45678,37.42568],[128.45862,37.42599],[128.45937,37.42608],[128.46075,37.42614],[128.46135,37.42609],[128.46204,37.42602],[128.46271,37.42579],[128.46359,37.42546],[128.46484,37.42497],[128.46514,37.42487],[128.46551,37.42486],[128.46579,37.42496],[128.46647,37.42549],[128.46706,37.42595],[128.46831,37.42672],[128.46867,37.42682],[128.46905,37.42688],[128.46941,37.4269],[128.47275,37.42685],[128.47294,37.42682],[128.47345,37.42664],[128.4747,37.42596],[128.47491,37.42593],[128.47514,37.42593],[128.47554,37.42614],[128.47656,37.42677],[128.4779,37.42794],[128.47837,37.42816],[128.47898,37.42842],[128.4796,37.42857],[128.47991,37.42855],[128.48022,37.42843],[128.48326,37.42671],[128.48392,37.42631],[128.485,37.4254],[128.48538,37.42518],[128.48632,37.42496],[128.48762,37.4248],[128.48981,37.42467],[128.49117,37.42462],[128.49182,37.42448],[128.49222,37.42438],[128.49265,37.4241],[128.4938,37.42334],[128.49718,37.42147],[128.49751,37.42132],[128.49776,37.42124],[128.50081,37.42072],[128.50356,37.42033],[128.50428,37.42014],[128.50453,37.42001],[128.50638,37.41858]]]]}},{"type":"Feature","properties":{"code":"51760310","name":"미탄면","parent":"51760"},"geometry":{"type":"MultiPolygon","coordinates":[[[[128.58459,37.31051],[128.58413,37.30971],[128.58379,37.30896],[128.58373,37.30871],[128.58376,37.30852],[128.58412,37.30813],[128.58458,37.30736],[128.58475,37.30664],[128.58472,37.30604],[128.58459,37.30563],[128.58411,37.30496],[128.58175,37.30191],[128.58067,37.30072],[128.57971,37.29896],[128.57966,37.29866],[128.57988,37.29834],[128.58276,37.29442],[128.58303,37.29416],[128.58355,37.29404],[128.58471,37.29402],[128.58536,37.29383],[128.58636,37.29334],[128.58737,37.29265],[128.58864,37.29111],[128.5894,37.2901],[128.59003,37.28846],[128.59044,37.28785],[128.59085,37.28753],[128.59268,37.287],[128.59306,37.28672],[128.59529,37.28409],[128.59578,37.2831],[128.596,37.28191],[128.59606,37.28067],[128.59607,37.28037],[128.59585,37.28021],[128.59512,37.27997],[128.59385,37.27973],[128.59307,37.2795],[128.59272,37.27932],[128.59035,37.27793],[128.585,37.27468],[128.58454,37.27429],[128.5832,37.27219],[128.58254,37.27061],[128.5822,37.26941],[128.58215,37.26898],[128.58183,37.26828],[128.58151,37.26781],[128.581,37.26744],[128.57924,37.26683],[128.57862,37.26676],[128.5777,37.26674],[128.57619,37.26686],[128.57581,37.26701],[128.57554,37.26742],[128.57487,37.26899],[128.57574,37.26876],[128.57632,37.26869],[128.57661,37.26873],[128.57696,37.26885],[128.57744,37.2691],[128.57795,37.26956],[128.57837,37.26996],[128.57866,37.27063],[128.57893,37.27135],[128.57898,37.27167],[128.57893,37.27191],[128.57849,37.27266],[128.57798,37.27328],[128.57727,37.2741],[128.57653,37.27498],[128.57613,37.27554],[128.57511,37.27843],[128.57462,37.27931],[128.57408,37.27979],[128.57324,37.28017],[128.57237,37.28036],[128.57191,37.28043],[128.57059,37.2801],[128.57,37.27984],[128.5683,37.27888],[128.56621,37.27822],[128.56597,37.27826],[128.56518,37.2786],[128.5644,37.27916],[128.56391,37.27979],[128.56328,37.28063],[128.56293,37.28127],[128.56268,37.28222],[128.56248,37.28285],[128.56172,37.28392],[128.56031,37.28552],[128.55751,37.28814],[128.55651,37.28859],[128.55518,37.28901],[128.55434,37.28916],[128.55319,37.28931],[128.55143,37.2895],[128.54483,37.28957],[128.54466,37.28955],[128.54423,37.28941],[128.5436,37.28907],[128.54299,37.28857],[128.5421,37.28768],[128.54044,37.28558],[128.53966,37.285],[128.53896,37.28469],[128.53801,37.28469],[128.53685,37.28486],[128.5352,37.28543],[128.53455,37.28577],[128.53404,37.2862],[128.53391,37.28653],[128.53389,37.28657],[128.53332,37.28797],[128.53208,37.28991],[128.53107,37.29077],[128.52947,37.29201],[128.52912,37.29219],[128.52879,37.29214],[128.52858,37.29208],[128.52836,37.2919],[128.52809,37.29149],[128.52686,37.28984],[128.52648,37.28967],[128.52594,37.28958],[128.52506,37.28958],[128.524,37.28962],[128.52319,37.28983],[128.52273,37.28981],[128.52241,37.28974],[128.52172,37.28935],[128.51997,37.28809],[128.51838,37.28698],[128.51766,37.2867],[128.51644,37.28663],[128.51617,37.28667],[128.51319,37.28774],[128.51168,37.28857],[128.51003,37.28932],[128.50962,37.28936],[128.50935,37.28932],[128.509,37.28912],[128.50873,37.2888],[128.50844,37.28873],[128.5055,37.28881],[128.50407,37.28893],[128.5029,37.28919],[128.50155,37.28948],[128.50112,37.28983],[128.50084,37.29032],[128.5006,37.29099],[128.50065,37.29157],[128.50083,37.29268],[128.50083,37.29283],[128.50046,37.29498],[128.49823,37.30218],[128.49812,37.30235],[128.49682,37.30324],[128.49648,37.30337],[128.49618,37.30339],[128.49588,37.30331],[128.49091,37.30247],[128.48292,37.30251],[128.48242,37.30256],[128.48186,37.30261],[128.48,37.3029],[128.4763,37.3042],[128.47604,37.3043],[128.47504,37.30473],[128.47483,37.30487],[128.47458,37.3051],[128.47382,37.30584],[128.4736,37.30609],[128.47346,37.3062],[128.47155,37.30689],[128.47148,37.3069],[128.46897,37.30719],[128.46891,37.30718],[128.46823,37.30689],[128.46798,37.30678],[128.46764,37.30652],[128.46754,37.30647],[128.46678,37.30626],[128.46655,37.30623],[128.46628,37.30624],[128.4653,37.30639],[128.46491,37.30649],[128.46468,37.30658],[128.46275,37.3081],[128.46158,37.31077],[128.4615,37.31113],[128.46152,37.31143],[128.46166,37.31203],[128.46179,37.31242],[128.4627,37.31442],[128.46402,37.31724],[128.46497,37.31894],[128.46496,37.31911],[128.46407,37.32189],[128.46359,37.32293],[128.46342,37.32326],[128.46328,37.32344],[128.45955,37.32648],[128.45647,37.32963],[128.45415,37.33298],[128.45287,37.33466],[128.45384,37.33585],[128.45495,37.33735],[128.45499,37.33746],[128.45503,37.3379],[128.45506,37.33827],[128.4553,37.33932],[128.45554,37.34033],[128.45558,37.34046],[128.45579,37.34083],[128.45796,37.34406],[128.45906,37.34563],[128.45937,37.34606],[128.45944,37.34612],[128.45956,37.34618],[128.46193,37.34719],[128.46294,37.34736],[128.46302,37.34739],[128.46304,37.34742],[128.46325,37.34849],[128.46348,37.35056],[128.46349,37.35093],[128.46346,37.35108],[128.46337,37.35148],[128.46321,37.35175],[128.463,37.35197],[128.46272,37.3522],[128.46213,37.35251],[128.46209,37.35255],[128.46203,37.35259],[128.46182,37.3529],[128.46174,37.35303],[128.46169,37.35321],[128.46102,37.35763],[128.46142,37.361],[128.46146,37.36124],[128.4638,37.36765],[128.46387,37.36775],[128.46495,37.36895],[128.46574,37.3698],[128.46586,37.36988],[128.46602,37.37002],[128.46677,37.37083],[128.46679,37.3709],[128.46763,37.37454],[128.46792,37.37696],[128.46794,37.37723],[128.46796,37.37783],[128.46802,37.38138],[128.468,37.38163],[128.46785,37.38185],[128.46757,37.38221],[128.46688,37.38293],[128.46599,37.38525],[128.46589,37.38552],[128.46595,37.38586],[128.46607,37.38608],[128.46618,37.38616],[128.46659,37.38629],[128.46717,37.38661],[128.4674,37.38676],[128.47199,37.39172],[128.47339,37.39348],[128.47421,37.39429],[128.47467,37.39466],[128.47534,37.39498],[128.47582,37.39516],[128.47857,37.39726],[128.47903,37.39789],[128.48099,37.40028],[128.48434,37.40314],[128.48463,37.40338],[128.48745,37.40494],[128.48799,37.40514],[128.48965,37.40566],[128.49042,37.40576],[128.49105,37.40577],[128.49145,37.4057],[128.49245,37.40535],[128.49306,37.40504],[128.49343,37.40468],[128.49505,37.40298],[128.49539,37.40285],[128.49559,37.40287],[128.49575,37.40295],[128.49776,37.40425],[128.49986,37.40579],[128.50148,37.40726],[128.50362,37.40916],[128.50405,37.40945],[128.50478,37.40989],[128.50715,37.41089],[128.50784,37.41107],[128.50837,37.41112],[128.50839,37.41084],[128.50844,37.41046],[128.50898,37.40972],[128.50981,37.40904],[128.51096,37.40839],[128.51111,37.40825],[128.51151,37.4075],[128.5124,37.40583],[128.51265,37.40547],[128.51523,37.40421],[128.51625,37.40371],[128.51901,37.40387],[128.5195,37.40387],[128.51993,37.4038],[128.52505,37.40231],[128.52788,37.4014],[128.52825,37.40121],[128.53053,37.39992],[128.53082,37.39993],[128.53131,37.39995],[128.53216,37.40007],[128.53335,37.40045],[128.534,37.40059],[128.53444,37.4006],[128.53743,37.40013],[128.53823,37.39992],[128.53895,37.3996],[128.54038,37.39679],[128.54045,37.3966],[128.54053,37.39611],[128.54054,37.39568],[128.54029,37.39283],[128.54036,37.3926],[128.54092,37.39146],[128.54352,37.3871],[128.54475,37.38434],[128.54481,37.38245],[128.54497,37.38148],[128.54563,37.37944],[128.54578,37.37929],[128.54617,37.37905],[128.54669,37.37882],[128.54775,37.37838],[128.5499,37.37607],[128.55049,37.37526],[128.55265,37.37129],[128.55336,37.36946],[128.55362,37.3675],[128.55364,37.36405],[128.55276,37.36109],[128.55266,37.36079],[128.55188,37.36029],[128.55002,37.35919],[128.5494,37.3586],[128.54868,37.3578],[128.54801,37.35654],[128.54731,37.35503],[128.54729,37.3547],[128.54748,37.35455],[128.54792,37.35439],[128.5481,37.35432],[128.54881,37.35419],[128.54959,37.35432],[128.5504,37.35443],[128.55151,37.35429],[128.55667,37.35271],[128.55743,37.35226],[128.56006,37.35048],[128.56047,37.35019],[128.564,37.34735],[128.56492,37.34656],[128.56577,37.34572],[128.56617,37.3452],[128.5664,37.3432],[128.56633,37.34104],[128.56626,37.34032],[128.56628,37.34017],[128.56634,37.33985],[128.56675,37.33927],[128.56794,37.33777],[128.56944,37.33631],[128.5696,37.33603],[128.5696,37.33577],[128.56955,37.33549],[128.56901,37.33486],[128.56885,37.3344],[128.56888,37.33356],[128.56925,37.33122],[128.57003,37.32626],[128.57014,37.32587],[128.57044,37.32551],[128.57104,37.32525],[128.57326,37.32454],[128.57361,37.32429],[128.57418,37.32343],[128.57582,37.32072],[128.57598,37.32042],[128.57604,37.31953],[128.57708,37.31703],[128.57814,37.31554],[128.57832,37.31531],[128.57836,37.31527],[128.57969,37.31376],[128.58157,37.31185],[128.58192,37.31165],[128.58459,37.31051]]]]}},{"type":"Feature","properties":{"code":"51760320","name":"방림면","parent":"51760"},"geometry":{"type":"MultiPolygon","coordinates":[[[[128.29921,37.51158],[128.29987,37.51139],[128.30022,37.51129],[128.30352,37.51105],[128.30521,37.51121],[128.30649,37.51142],[128.30756,37.51149],[128.30881,37.51138],[128.3102,37.51107],[128.31144,37.51059],[128.31295,37.50992],[128.31453,37.50916],[128.31667,37.50783],[128.31686,37.50765],[128.31736,37.50707],[128.31772,37.50644],[128.31837,37.50583],[128.31891,37.50547],[128.3194,37.50524],[128.32001,37.50516],[128.32099,37.50534],[128.32199,37.50538],[128.32264,37.50528],[128.32851,37.50332],[128.3298,37.50283],[128.33168,37.50206],[128.33454,37.50076],[128.3355,37.50041],[128.33774,37.49966],[128.33834,37.49961],[128.34078,37.49947],[128.34126,37.49897],[128.34168,37.49823],[128.34227,37.49647],[128.3426,37.49481],[128.34281,37.49431],[128.34485,37.4915],[128.34525,37.49125],[128.34938,37.48978],[128.34985,37.48961],[128.35053,37.48959],[128.35222,37.48991],[128.35326,37.49],[128.35372,37.48998],[128.3541,37.48991],[128.35425,37.48978],[128.35425,37.48957],[128.35404,37.48911],[128.35334,37.48832],[128.35306,37.48446],[128.3531,37.48394],[128.35337,37.48304],[128.35388,37.48252],[128.35425,37.48213],[128.35512,37.48056],[128.35567,37.47911],[128.3562,37.47699],[128.35632,37.4768],[128.35728,37.47678],[128.35759,37.47672],[128.36001,37.47611],[128.36019,37.47598],[128.36126,37.47272],[128.36131,37.47218],[128.36122,37.47156],[128.36018,37.46795],[128.35998,37.46749],[128.35993,37.46725],[128.36022,37.467],[128.36249,37.4655],[128.36293,37.46543],[128.36546,37.46485],[128.36577,37.46468],[128.36682,37.46326],[128.37239,37.45723],[128.37278,37.45703],[128.37324,37.45686],[128.37365,37.45682],[128.37409,37.45685],[128.37461,37.45709],[128.37499,37.45733],[128.37537,37.45784],[128.37561,37.45819],[128.37579,37.45832],[128.376,37.45838],[128.37965,37.45821],[128.38096,37.45806],[128.38116,37.45803],[128.38672,37.4566],[128.38719,37.45636],[128.38777,37.4559],[128.38838,37.45533],[128.38879,37.45486],[128.38903,37.45447],[128.38918,37.45394],[128.38936,37.45331],[128.38948,37.45299],[128.38958,37.45288],[128.39586,37.4505],[128.39608,37.45045],[128.39636,37.45042],[128.39652,37.45042],[128.39665,37.45043],[128.39694,37.45054],[128.40009,37.4515],[128.4036,37.44974],[128.40663,37.4483],[128.40774,37.44812],[128.41094,37.44752],[128.41122,37.44743],[128.41164,37.4472],[128.41195,37.4469],[128.41215,37.44658],[128.41235,37.4464],[128.41266,37.44624],[128.41296,37.44623],[128.41325,37.44623],[128.41439,37.44665],[128.41521,37.44712],[128.41573,37.4475],[128.41644,37.44811],[128.4168,37.44847],[128.41693,37.44873],[128.41709,37.44929],[128.41728,37.44964],[128.41786,37.45046],[128.41945,37.45207],[128.4198,37.45233],[128.42015,37.45254],[128.42048,37.45266],[128.421,37.45275],[128.42145,37.45277],[128.42578,37.4527],[128.42647,37.45266],[128.42706,37.45259],[128.42753,37.45253],[128.42788,37.45241],[128.43133,37.45123],[128.43157,37.45112],[128.43184,37.45099],[128.43288,37.4504],[128.4366,37.448],[128.4391,37.44625],[128.44524,37.44067],[128.44553,37.44037],[128.44581,37.43992],[128.44638,37.43878],[128.44655,37.43799],[128.44661,37.43762],[128.44649,37.43706],[128.44625,37.43667],[128.44612,37.43647],[128.44604,37.43617],[128.44599,37.43592],[128.446,37.43265],[128.44608,37.43226],[128.44621,37.43195],[128.44775,37.42923],[128.44838,37.42828],[128.4487,37.42791],[128.44837,37.42793],[128.44806,37.42786],[128.44429,37.42622],[128.44403,37.42608],[128.4438,37.42593],[128.44353,37.42566],[128.44335,37.42544],[128.44321,37.42506],[128.44255,37.42297],[128.44044,37.4185],[128.43833,37.41425],[128.43772,37.4134],[128.43738,37.41302],[128.43712,37.41294],[128.43681,37.41294],[128.43605,37.4131],[128.4351,37.41337],[128.4342,37.41366],[128.43325,37.41413],[128.43294,37.41436],[128.43269,37.41463],[128.43219,37.41549],[128.43153,37.4163],[128.43107,37.41674],[128.43079,37.41692],[128.42903,37.41806],[128.42838,37.41834],[128.4279,37.41846],[128.42658,37.41864],[128.4195,37.4201],[128.41595,37.42091],[128.41541,37.4209],[128.41518,37.42085],[128.41288,37.42003],[128.41273,37.41993],[128.4126,37.41974],[128.41196,37.41889],[128.41047,37.41711],[128.41022,37.41691],[128.40713,37.41512],[128.39978,37.41413],[128.3995,37.41421],[128.3991,37.41441],[128.39667,37.41587],[128.39624,37.41613],[128.39426,37.4179],[128.39403,37.41821],[128.39176,37.42013],[128.38831,37.42137],[128.38812,37.42149],[128.38648,37.42362],[128.38586,37.42423],[128.38546,37.42444],[128.38473,37.42475],[128.38228,37.42554],[128.38005,37.42583],[128.37923,37.42587],[128.37832,37.4258],[128.37787,37.4257],[128.37705,37.42549],[128.37667,37.42553],[128.37654,37.42557],[128.37651,37.42558],[128.37621,37.42568],[128.3756,37.42595],[128.37278,37.42771],[128.37108,37.42835],[128.37062,37.42844],[128.37019,37.4284],[128.36378,37.42694],[128.36205,37.42654],[128.35975,37.42581],[128.35891,37.42558],[128.35858,37.4256],[128.3566,37.42611],[128.35474,37.42654],[128.35423,37.42654],[128.35137,37.4261],[128.34969,37.4255],[128.34743,37.42514],[128.34694,37.42513],[128.3453,37.4253],[128.34182,37.425],[128.33782,37.42411],[128.33691,37.4239],[128.3333,37.4219],[128.33282,37.42162],[128.33206,37.4206],[128.33,37.41696],[128.33008,37.41614],[128.33046,37.41511],[128.3309,37.41419],[128.332,37.41287],[128.33207,37.41267],[128.32826,37.41222],[128.32191,37.41149],[128.3204,37.41134],[128.31846,37.41131],[128.31599,37.4119],[128.31556,37.41193],[128.3148,37.41174],[128.31431,37.41154],[128.31143,37.41017],[128.30305,37.40519],[128.30192,37.40451],[128.30136,37.40397],[128.30077,37.40336],[128.30008,37.40214],[128.2997,37.40187],[128.29932,37.40184],[128.29832,37.40194],[128.29695,37.40222],[128.29652,37.40229],[128.29634,37.40222],[128.29422,37.40063],[128.29118,37.40237],[128.28969,37.40283],[128.2885,37.40319],[128.28671,37.40384],[128.28447,37.40464],[128.28434,37.40477],[128.2842,37.4049],[128.28374,37.40587],[128.28341,37.40626],[128.28265,37.40652],[128.28229,37.40659],[128.28109,37.40682],[128.28046,37.40673],[128.28001,37.40666],[128.27938,37.40654],[128.27873,37.40642],[128.27802,37.40639],[128.27731,37.40635],[128.27587,37.40661],[128.27514,37.40687],[128.2729,37.40785],[128.27157,37.40821],[128.27062,37.40815],[128.27005,37.40802],[128.26664,37.408],[128.26564,37.40799],[128.26485,37.40961],[128.26455,37.41011],[128.26119,37.41484],[128.26071,37.41539],[128.25927,37.41644],[128.25912,37.41667],[128.25776,37.42095],[128.25772,37.42155],[128.25778,37.42184],[128.25819,37.42249],[128.25819,37.4228],[128.258,37.42322],[128.25695,37.42544],[128.25685,37.42565],[128.25669,37.42598],[128.25616,37.42653],[128.25473,37.4279],[128.25439,37.4285],[128.25442,37.42895],[128.25559,37.43066],[128.25736,37.43508],[128.2579,37.43671],[128.25783,37.43755],[128.25766,37.43815],[128.25708,37.43876],[128.25586,37.44006],[128.25374,37.4412],[128.25275,37.44138],[128.25096,37.44128],[128.25021,37.44123],[128.24969,37.44149],[128.24909,37.44214],[128.24889,37.44249],[128.24761,37.44579],[128.24757,37.44893],[128.24682,37.45338],[128.24561,37.4547],[128.24548,37.45523],[128.24575,37.45699],[128.24657,37.45832],[128.2471,37.45972],[128.24718,37.46025],[128.24706,37.46053],[128.24696,37.46076],[128.24694,37.46082],[128.24574,37.46199],[128.24565,37.46229],[128.24474,37.46529],[128.2446,37.46628],[128.24469,37.46669],[128.24548,37.47128],[128.24575,37.47558],[128.24567,37.47685],[128.2456,37.4773],[128.24533,37.47779],[128.24382,37.47938],[128.24351,37.47982],[128.24486,37.48007],[128.24845,37.48048],[128.25169,37.48068],[128.25351,37.48087],[128.25485,37.48149],[128.2573,37.48273],[128.2596,37.48382],[128.2611,37.48438],[128.26367,37.48466],[128.26426,37.48493],[128.26652,37.48672],[128.26691,37.48715],[128.267,37.4881],[128.26706,37.48862],[128.26812,37.49159],[128.26847,37.49225],[128.27144,37.49513],[128.27372,37.49735],[128.27662,37.50104],[128.27716,37.50148],[128.2778,37.502],[128.27892,37.50282],[128.28142,37.50395],[128.282,37.50392],[128.28328,37.50405],[128.28389,37.50467],[128.28397,37.50475],[128.28447,37.50526],[128.28502,37.50603],[128.28608,37.50732],[128.28663,37.50752],[128.28712,37.50758],[128.28854,37.50771],[128.29008,37.50776],[128.2906,37.50779],[128.29102,37.50787],[128.29112,37.50799],[128.29123,37.5084],[128.29122,37.50948],[128.29124,37.50997],[128.29162,37.51043],[128.29215,37.51098],[128.29272,37.5113],[128.29316,37.51146],[128.294,37.51171],[128.29421,37.51177],[128.29476,37.51184],[128.29598,37.51198],[128.29668,37.512],[128.29858,37.51176],[128.29921,37.51158]]]]}},{"type":"Feature","properties":{"code":"51760330","name":"대화면","parent":"51760"},"geometry":{"type":"MultiPolygon","coordinates":[[[[128.5243,37.46355],[128.52395,37.46346],[128.52379,37.46339],[128.52365,37.46322],[128.52337,37.46277],[128.52255,37.4607],[128.52239,37.46052],[128.52209,37.4603],[128.51811,37.45817],[128.5155,37.4568],[128.51501,37.4566],[128.51419,37.456],[128.51369,37.45551],[128.51332,37.45501],[128.51322,37.45469],[128.51316,37.4495],[128.51337,37.44794],[128.51345,37.4477],[128.51376,37.44717],[128.51506,37.44543],[128.51526,37.44515],[128.51528,37.44498],[128.51523,37.44331],[128.51528,37.44292],[128.51548,37.44269],[128.51736,37.44075],[128.51798,37.44022],[128.51809,37.44005],[128.51903,37.43444],[128.51903,37.43407],[128.51891,37.43364],[128.51876,37.43332],[128.51851,37.43309],[128.51806,37.43274],[128.51742,37.43231],[128.51688,37.43167],[128.515,37.42917],[128.5133,37.42626],[128.51323,37.42594],[128.51366,37.42353],[128.51361,37.42327],[128.51349,37.42309],[128.51311,37.42272],[128.51163,37.42151],[128.51118,37.42125],[128.50894,37.42],[128.50786,37.41963],[128.50687,37.41903],[128.50638,37.41858],[128.50453,37.42001],[128.50428,37.42014],[128.50356,37.42033],[128.50081,37.42072],[128.49776,37.42124],[128.49751,37.42132],[128.49718,37.42147],[128.4938,37.42334],[128.49265,37.4241],[128.49222,37.42438],[128.49182,37.42448],[128.49117,37.42462],[128.48981,37.42467],[128.48762,37.4248],[128.48632,37.42496],[128.48538,37.42518],[128.485,37.4254],[128.48392,37.42631],[128.48326,37.42671],[128.48022,37.42843],[128.47991,37.42855],[128.4796,37.42857],[128.47898,37.42842],[128.47837,37.42816],[128.4779,37.42794],[128.47656,37.42677],[128.47554,37.42614],[128.47514,37.42593],[128.47491,37.42593],[128.4747,37.42596],[128.47345,37.42664],[128.47294,37.42682],[128.47275,37.42685],[128.46941,37.4269],[128.46905,37.42688],[128.46867,37.42682],[128.46831,37.42672],[128.46706,37.42595],[128.46647,37.42549],[128.46579,37.42496],[128.46551,37.42486],[128.46514,37.42487],[128.46484,37.42497],[128.46359,37.42546],[128.46271,37.42579],[128.46204,37.42602],[128.46135,37.42609],[128.46075,37.42614],[128.45937,37.42608],[128.45862,37.42599],[128.45678,37.42568],[128.45651,37.42572],[128.45617,37.42583],[128.45541,37.42613],[128.45467,37.42655],[128.45326,37.42746],[128.45284,37.42763],[128.45266,37.42767],[128.4487,37.42791],[128.44838,37.42828],[128.44775,37.42923],[128.44621,37.43195],[128.44608,37.43226],[128.446,37.43265],[128.44599,37.43592],[128.44604,37.43617],[128.44612,37.43647],[128.44625,37.43667],[128.44649,37.43706],[128.44661,37.43762],[128.44655,37.43799],[128.44638,37.43878],[128.44581,37.43992],[128.44553,37.44037],[128.44524,37.44067],[128.4391,37.44625],[128.4366,37.448],[128.43288,37.4504],[128.43184,37.45099],[128.43157,37.45112],[128.43133,37.45123],[128.42788,37.45241],[128.42753,37.45253],[128.42706,37.45259],[128.42647,37.45266],[128.42578,37.4527],[128.42145,37.45277],[128.421,37.45275],[128.42048,37.45266],[128.42015,37.45254],[128.4198,37.45233],[128.41945,37.45207],[128.41786,37.45046],[128.41728,37.44964],[128.41709,37.44929],[128.41693,37.44873],[128.4168,37.44847],[128.41644,37.44811],[128.41573,37.4475],[128.41521,37.44712],[128.41439,37.44665],[128.41325,37.44623],[128.41296,37.44623],[128.41266,37.44624],[128.41235,37.4464],[128.41215,37.44658],[128.41195,37.4469],[128.41164,37.4472],[128.41122,37.44743],[128.41094,37.44752],[128.40774,37.44812],[128.40663,37.4483],[128.4036,37.44974],[128.40009,37.4515],[128.39694,37.45054],[128.39665,37.45043],[128.39652,37.45042],[128.39636,37.45042],[128.39608,37.45045],[128.39586,37.4505],[128.38958,37.45288],[128.38948,37.45299],[128.38936,37.45331],[128.38918,37.45394],[128.38903,37.45447],[128.38879,37.45486],[128.38838,37.45533],[128.38777,37.4559],[128.38719,37.45636],[128.38672,37.4566],[128.38116,37.45803],[128.38096,37.45806],[128.37965,37.45821],[128.376,37.45838],[128.37579,37.45832],[128.37561,37.45819],[128.37537,37.45784],[128.37499,37.45733],[128.37461,37.45709],[128.37409,37.45685],[128.37365,37.45682],[128.37324,37.45686],[128.37278,37.45703],[128.37239,37.45723],[128.36682,37.46326],[128.36577,37.46468],[128.36546,37.46485],[128.36293,37.46543],[128.36249,37.4655],[128.36022,37.467],[128.35993,37.46725],[128.35998,37.46749],[128.36018,37.46795],[128.36122,37.47156],[128.36131,37.47218],[128.36126,37.47272],[128.36019,37.47598],[128.36001,37.47611],[128.35759,37.47672],[128.35728,37.47678],[128.35632,37.4768],[128.3562,37.47699],[128.35567,37.47911],[128.35512,37.48056],[128.35425,37.48213],[128.35388,37.48252],[128.35337,37.48304],[128.3531,37.48394],[128.35306,37.48446],[128.35334,37.48832],[128.35404,37.48911],[128.35425,37.48957],[128.35425,37.48978],[128.3541,37.48991],[128.35372,37.48998],[128.35326,37.49],[128.35222,37.48991],[128.35053,37.48959],[128.34985,37.48961],[128.34938,37.48978],[128.34525,37.49125],[128.34485,37.4915],[128.34281,37.49431],[128.3426,37.49481],[128.34227,37.49647],[128.34168,37.49823],[128.34126,37.49897],[128.34078,37.49947],[128.34215,37.50045],[128.34267,37.5007],[128.3433,37.50077],[128.34478,37.50075],[128.34554,37.5008],[128.34753,37.50135],[128.34903,37.50282],[128.34732,37.50558],[128.34523,37.50777],[128.34519,37.50814],[128.34473,37.51232],[128.34471,37.51376],[128.34524,37.51488],[128.34997,37.51837],[128.35088,37.51898],[128.35171,37.51921],[128.35268,37.51948],[128.3533,37.51955],[128.35548,37.5195],[128.35713,37.51945],[128.35775,37.51945],[128.35867,37.51964],[128.35994,37.52044],[128.36281,37.52155],[128.36411,37.5219],[128.36534,37.52199],[128.36626,37.52203],[128.36669,37.52188],[128.36707,37.52161],[128.36758,37.52106],[128.36804,37.52069],[128.36858,37.5206],[128.37277,37.5202],[128.37624,37.5202],[128.37917,37.52026],[128.37964,37.52024],[128.38191,37.51957],[128.38248,37.5193],[128.38292,37.51902],[128.38357,37.51849],[128.38453,37.51821],[128.38527,37.51815],[128.3908,37.51911],[128.39159,37.51929],[128.39427,37.52009],[128.39684,37.52116],[128.39739,37.52154],[128.39771,37.52186],[128.39789,37.52252],[128.39751,37.52352],[128.39651,37.52544],[128.39612,37.52654],[128.39849,37.52581],[128.39954,37.52541],[128.40029,37.52493],[128.40186,37.5243],[128.40229,37.52416],[128.40455,37.52363],[128.40528,37.52355],[128.4063,37.52354],[128.4075,37.52342],[128.40801,37.5232],[128.40927,37.5224],[128.40981,37.52147],[128.41043,37.52087],[128.41094,37.52056],[128.4116,37.52039],[128.41739,37.51981],[128.42094,37.51983],[128.42155,37.51996],[128.42181,37.52001],[128.42265,37.52043],[128.42322,37.52104],[128.42421,37.52257],[128.42424,37.52263],[128.42466,37.52343],[128.42483,37.52411],[128.42488,37.52457],[128.42476,37.52777],[128.42467,37.52831],[128.42279,37.53151],[128.42096,37.53514],[128.41791,37.54195],[128.41789,37.54208],[128.41849,37.54425],[128.41917,37.54647],[128.42084,37.54982],[128.42193,37.55151],[128.42217,37.55183],[128.42231,37.55194],[128.42268,37.55219],[128.42583,37.55401],[128.42623,37.55419],[128.42649,37.55418],[128.42683,37.55412],[128.42727,37.5539],[128.42771,37.55374],[128.4282,37.5536],[128.42884,37.55348],[128.42964,37.55346],[128.4346,37.55574],[128.43498,37.55587],[128.43727,37.5561],[128.43931,37.55559],[128.43979,37.55543],[128.44023,37.55525],[128.44048,37.55507],[128.44113,37.55488],[128.44156,37.55486],[128.44241,37.555],[128.44317,37.55517],[128.44594,37.55594],[128.45222,37.55834],[128.45271,37.55865],[128.45471,37.56206],[128.45648,37.56416],[128.45889,37.56633],[128.45909,37.56658],[128.4591,37.56686],[128.45887,37.5672],[128.4585,37.56935],[128.45834,37.57221],[128.45832,37.57274],[128.45857,37.57344],[128.45915,37.57435],[128.45938,37.57476],[128.45949,37.57532],[128.4593,37.57691],[128.45892,37.57836],[128.45869,37.57908],[128.45844,37.57985],[128.45835,37.58063],[128.45859,37.58091],[128.45892,37.58129],[128.45922,37.58159],[128.45985,37.58207],[128.46063,37.5824],[128.46104,37.58256],[128.46154,37.58265],[128.46625,37.58201],[128.4676,37.58153],[128.46822,37.58128],[128.46911,37.58104],[128.47051,37.58068],[128.47586,37.57977],[128.47654,37.57983],[128.47728,37.57999],[128.47756,37.58016],[128.47795,37.58088],[128.47841,37.58206],[128.47864,37.5827],[128.47873,37.58324],[128.47882,37.58346],[128.47918,37.58385],[128.47993,37.58438],[128.48202,37.58584],[128.48368,37.5869],[128.48525,37.58773],[128.48603,37.58812],[128.48676,37.58847],[128.48748,37.58865],[128.48805,37.58881],[128.48875,37.58906],[128.49007,37.58974],[128.49229,37.59133],[128.49304,37.59121],[128.49776,37.59033],[128.49887,37.58985],[128.49976,37.58928],[128.50034,37.58883],[128.50073,37.5884],[128.50235,37.58542],[128.50235,37.58496],[128.50212,37.58411],[128.50186,37.58337],[128.50125,37.5825],[128.50081,37.58236],[128.49951,37.58199],[128.49919,37.5817],[128.49901,37.58146],[128.49891,37.58084],[128.49934,37.57982],[128.50001,37.57893],[128.50221,37.57614],[128.5031,37.57521],[128.5045,37.57259],[128.5046,37.57213],[128.50541,37.5677],[128.50614,37.56389],[128.50749,37.56162],[128.5079,37.561],[128.50889,37.5598],[128.50989,37.55886],[128.51024,37.5574],[128.50944,37.55525],[128.50903,37.5527],[128.50886,37.5516],[128.51012,37.54897],[128.51168,37.54628],[128.5122,37.54584],[128.51283,37.54513],[128.51551,37.5406],[128.51553,37.53818],[128.51508,37.53449],[128.51478,37.53337],[128.51459,37.53273],[128.51393,37.53194],[128.51218,37.52997],[128.51117,37.52888],[128.50825,37.52489],[128.50531,37.52065],[128.50534,37.51959],[128.50581,37.51698],[128.50622,37.51611],[128.50698,37.51527],[128.50784,37.51437],[128.5084,37.51341],[128.50891,37.51249],[128.50993,37.51043],[128.50956,37.50977],[128.50402,37.50552],[128.50271,37.50491],[128.50163,37.50453],[128.50086,37.50408],[128.50058,37.50368],[128.49849,37.49862],[128.49839,37.49832],[128.49822,37.4947],[128.49806,37.49383],[128.49776,37.49348],[128.49474,37.49023],[128.49454,37.48995],[128.49446,37.48975],[128.49363,37.48357],[128.49411,37.48316],[128.49515,37.48251],[128.49606,37.48206],[128.49677,37.48181],[128.49747,37.48165],[128.49776,37.48162],[128.49803,37.48163],[128.49837,37.48158],[128.49885,37.4814],[128.49928,37.48123],[128.49966,37.48091],[128.50001,37.48044],[128.50046,37.47949],[128.5014,37.47726],[128.50161,37.47648],[128.50199,37.47603],[128.50244,37.47569],[128.50337,37.47534],[128.50386,37.47521],[128.50421,37.47493],[128.50654,37.47259],[128.50694,37.472],[128.50699,37.47165],[128.50702,37.47144],[128.50713,37.47126],[128.50747,37.47108],[128.50819,37.47095],[128.51076,37.47072],[128.5139,37.47052],[128.51455,37.47054],[128.51592,37.47065],[128.51625,37.4707],[128.51691,37.47101],[128.51775,37.47143],[128.51804,37.47155],[128.5182,37.47158],[128.51844,37.47156],[128.51863,37.47149],[128.52054,37.46963],[128.52083,37.46934],[128.52096,37.46909],[128.52154,37.46691],[128.52175,37.46608],[128.52194,37.46558],[128.52224,37.4651],[128.52281,37.46458],[128.52329,37.46416],[128.52404,37.4637],[128.5243,37.46355]]]]}},{"type":"Feature","properties":{"code":"51760340","name":"봉평면","parent":"51760"},"geometry":{"type":"MultiPolygon","coordinates":[[[[128.43533,37.69229],[128.43856,37.69023],[128.43936,37.68967],[128.4396,37.68929],[128.44004,37.68848],[128.44148,37.68566],[128.44194,37.68443],[128.44202,37.68377],[128.44186,37.68345],[128.44135,37.68296],[128.44101,37.68253],[128.44069,37.68197],[128.44004,37.67899],[128.44,37.67865],[128.44037,37.67808],[128.44107,37.677],[128.44126,37.6767],[128.44146,37.67634],[128.44132,37.6759],[128.43982,37.6733],[128.43928,37.67266],[128.4388,37.67214],[128.43854,37.67201],[128.43793,37.6718],[128.4362,37.67045],[128.43558,37.66953],[128.43381,37.66672],[128.43353,37.66623],[128.43316,37.66545],[128.43302,37.66528],[128.43071,37.66399],[128.42997,37.6636],[128.429,37.66331],[128.42762,37.66288],[128.42643,37.66239],[128.42607,37.6622],[128.42318,37.66054],[128.42245,37.66011],[128.42171,37.65961],[128.42124,37.65899],[128.4212,37.65871],[128.42124,37.65851],[128.42152,37.65742],[128.42177,37.65656],[128.42285,37.65349],[128.42296,37.6532],[128.4233,37.65286],[128.42269,37.64994],[128.42172,37.64766],[128.41817,37.64512],[128.41393,37.64216],[128.41273,37.64103],[128.41262,37.64083],[128.41314,37.64026],[128.41468,37.63886],[128.41516,37.63846],[128.41564,37.63822],[128.41633,37.63777],[128.41839,37.63635],[128.41875,37.63576],[128.4189,37.63492],[128.41878,37.63357],[128.4196,37.63131],[128.42119,37.62992],[128.42144,37.62969],[128.42184,37.62904],[128.422,37.62857],[128.4222,37.62639],[128.42222,37.62586],[128.41974,37.62056],[128.41829,37.61838],[128.41487,37.61609],[128.41283,37.61347],[128.41039,37.61038],[128.40963,37.60951],[128.40917,37.6092],[128.40823,37.60904],[128.40767,37.60891],[128.40724,37.60868],[128.40659,37.60817],[128.40574,37.60739],[128.40095,37.60254],[128.40059,37.60203],[128.40001,37.60122],[128.3997,37.60052],[128.39939,37.59957],[128.39924,37.59897],[128.39925,37.59849],[128.3995,37.59773],[128.39902,37.59601],[128.39879,37.5958],[128.39876,37.59577],[128.39844,37.59554],[128.39792,37.59538],[128.39507,37.59492],[128.39465,37.59488],[128.39425,37.59498],[128.39209,37.59511],[128.39031,37.595],[128.38924,37.59469],[128.38813,37.59431],[128.38742,37.59379],[128.38187,37.58938],[128.38159,37.58895],[128.38147,37.58871],[128.37951,37.5845],[128.37957,37.58386],[128.37965,37.58348],[128.37966,37.58306],[128.37954,37.58264],[128.37928,37.58233],[128.3787,37.58205],[128.37763,37.58153],[128.37689,37.58134],[128.37645,37.58129],[128.37553,37.58135],[128.37488,37.58114],[128.37433,37.58078],[128.37395,37.58035],[128.373,37.57917],[128.37304,37.57886],[128.37364,37.57831],[128.37484,37.57755],[128.37891,37.57628],[128.38086,37.57588],[128.38161,37.57581],[128.38204,37.57566],[128.38397,37.57472],[128.38424,37.57448],[128.38453,37.57418],[128.3888,37.56928],[128.39059,37.56675],[128.39085,37.56631],[128.39085,37.5658],[128.39102,37.56546],[128.39133,37.56526],[128.39201,37.56527],[128.39264,37.56529],[128.39432,37.56539],[128.39456,37.56542],[128.39496,37.56553],[128.39543,37.56579],[128.39579,37.56585],[128.39753,37.56606],[128.398,37.56609],[128.39842,37.5661],[128.39881,37.5659],[128.39928,37.56554],[128.39954,37.56533],[128.40022,37.5639],[128.40022,37.5637],[128.39803,37.5572],[128.39661,37.55351],[128.3953,37.55172],[128.39447,37.55085],[128.39384,37.54987],[128.39172,37.54615],[128.39162,37.54591],[128.39162,37.54567],[128.39169,37.54523],[128.39209,37.5447],[128.39537,37.54059],[128.39605,37.54013],[128.39635,37.53998],[128.39662,37.53996],[128.39729,37.53995],[128.39778,37.54018],[128.39841,37.54044],[128.39904,37.54048],[128.39961,37.54038],[128.40007,37.54002],[128.40032,37.53958],[128.40043,37.539],[128.40045,37.53848],[128.4003,37.5379],[128.40003,37.53734],[128.39982,37.53688],[128.39925,37.536],[128.39879,37.53568],[128.39803,37.5351],[128.39768,37.53439],[128.39736,37.5326],[128.39757,37.53228],[128.39774,37.53208],[128.39823,37.53189],[128.39867,37.53169],[128.3988,37.53159],[128.39894,37.53138],[128.40036,37.52899],[128.40062,37.52851],[128.40045,37.52772],[128.4,37.52708],[128.39928,37.52682],[128.39612,37.52654],[128.39651,37.52544],[128.39751,37.52352],[128.39789,37.52252],[128.39771,37.52186],[128.39739,37.52154],[128.39684,37.52116],[128.39427,37.52009],[128.39159,37.51929],[128.3908,37.51911],[128.38527,37.51815],[128.38453,37.51821],[128.38357,37.51849],[128.38292,37.51902],[128.38248,37.5193],[128.38191,37.51957],[128.37964,37.52024],[128.37917,37.52026],[128.37624,37.5202],[128.37277,37.5202],[128.36858,37.5206],[128.36804,37.52069],[128.36758,37.52106],[128.36707,37.52161],[128.36669,37.52188],[128.36626,37.52203],[128.36534,37.52199],[128.36411,37.5219],[128.36281,37.52155],[128.35994,37.52044],[128.35867,37.51964],[128.35775,37.51945],[128.35713,37.51945],[128.35548,37.5195],[128.3533,37.51955],[128.35268,37.51948],[128.35171,37.51921],[128.35088,37.51898],[128.34997,37.51837],[128.34524,37.51488],[128.34471,37.51376],[128.34473,37.51232],[128.34519,37.50814],[128.34523,37.50777],[128.34732,37.50558],[128.34903,37.50282],[128.34753,37.50135],[128.34554,37.5008],[128.34478,37.50075],[128.3433,37.50077],[128.34267,37.5007],[128.34215,37.50045],[128.34078,37.49947],[128.33834,37.49961],[128.33774,37.49966],[128.3355,37.50041],[128.33454,37.50076],[128.33168,37.50206],[128.3298,37.50283],[128.32851,37.50332],[128.32264,37.50528],[128.32199,37.50538],[128.32099,37.50534],[128.32001,37.50516],[128.3194,37.50524],[128.31891,37.50547],[128.31837,37.50583],[128.31772,37.50644],[128.31736,37.50707],[128.31686,37.50765],[128.31667,37.50783],[128.31453,37.50916],[128.31295,37.50992],[128.31144,37.51059],[128.3102,37.51107],[128.30881,37.51138],[128.30756,37.51149],[128.30649,37.51142],[128.30521,37.51121],[128.30352,37.51105],[128.30022,37.51129],[128.29987,37.51139],[128.29921,37.51158],[128.29867,37.5141],[128.29788,37.51677],[128.29742,37.5175],[128.29748,37.51828],[128.29765,37.51878],[128.29934,37.52175],[128.3001,37.52273],[128.30041,37.52307],[128.30093,37.52332],[128.30151,37.52503],[128.30227,37.52982],[128.3024,37.53102],[128.30218,37.53191],[128.30193,37.53221],[128.3014,37.53263],[128.30045,37.5334],[128.30006,37.53418],[128.29991,37.53454],[128.29991,37.53484],[128.30012,37.53543],[128.30039,37.53607],[128.30112,37.53686],[128.30164,37.53739],[128.30212,37.53795],[128.30216,37.53818],[128.30184,37.53843],[128.30078,37.53888],[128.29933,37.53994],[128.29775,37.54127],[128.29623,37.5426],[128.29499,37.54409],[128.29481,37.54475],[128.29467,37.54548],[128.29554,37.54999],[128.29564,37.55033],[128.29681,37.55246],[128.29795,37.5543],[128.29829,37.55498],[128.29826,37.55531],[128.29801,37.55564],[128.29762,37.55609],[128.29656,37.5573],[128.2962,37.55813],[128.2962,37.55839],[128.29626,37.55903],[128.29643,37.55978],[128.29639,37.56054],[128.29608,37.56304],[128.29564,37.56557],[128.29473,37.56901],[128.29461,37.5692],[128.29445,37.56943],[128.29112,37.57392],[128.29023,37.57483],[128.28776,37.5768],[128.2872,37.5771],[128.28646,37.57724],[128.28579,37.57746],[128.28522,37.57781],[128.28516,37.57784],[128.28459,37.57837],[128.28459,37.57893],[128.28465,37.57974],[128.28475,37.58018],[128.28527,37.58081],[128.28534,37.58089],[128.28568,37.58205],[128.28577,37.58308],[128.28566,37.58395],[128.28537,37.58492],[128.28445,37.58617],[128.28409,37.58648],[128.2836,37.58672],[128.283,37.58703],[128.28279,37.58756],[128.28254,37.58873],[128.28125,37.59157],[128.281,37.59187],[128.28072,37.59215],[128.28033,37.59248],[128.27973,37.59307],[128.27951,37.59351],[128.27941,37.59385],[128.27946,37.59571],[128.28007,37.59742],[128.28035,37.5979],[128.28101,37.59851],[128.28222,37.59958],[128.2825,37.59972],[128.28345,37.60001],[128.28393,37.60019],[128.28515,37.60076],[128.28561,37.60107],[128.28578,37.60129],[128.28585,37.6016],[128.28584,37.60182],[128.28584,37.60188],[128.28556,37.60246],[128.28506,37.60293],[128.28415,37.6036],[128.28348,37.60384],[128.28249,37.60409],[128.28172,37.60434],[128.28123,37.6045],[128.28087,37.6048],[128.28066,37.60509],[128.28059,37.60521],[128.28031,37.6061],[128.27912,37.60999],[128.27891,37.61135],[128.27895,37.61186],[128.27918,37.61417],[128.27933,37.61443],[128.27977,37.61478],[128.27994,37.6149],[128.28104,37.61594],[128.28297,37.61818],[128.28335,37.61886],[128.28334,37.61919],[128.2832,37.61943],[128.28308,37.61963],[128.27939,37.6194],[128.27618,37.61971],[128.27447,37.62029],[128.26877,37.623],[128.26607,37.62451],[128.26532,37.62488],[128.26171,37.62549],[128.25989,37.62529],[128.2566,37.62512],[128.25639,37.62529],[128.25635,37.62577],[128.25645,37.62644],[128.25678,37.6278],[128.25644,37.62838],[128.25567,37.62912],[128.25477,37.62946],[128.25482,37.6303],[128.25492,37.63059],[128.25905,37.63173],[128.25989,37.63182],[128.26251,37.63207],[128.26277,37.6321],[128.26301,37.63214],[128.26331,37.63223],[128.26667,37.63382],[128.26707,37.63418],[128.26747,37.63455],[128.26764,37.63486],[128.26788,37.63553],[128.26814,37.63621],[128.26838,37.6367],[128.26892,37.63775],[128.26938,37.63849],[128.26962,37.63887],[128.26995,37.6392],[128.27021,37.63946],[128.27047,37.63962],[128.27082,37.63985],[128.27164,37.6402],[128.27243,37.64202],[128.27215,37.64329],[128.27155,37.64752],[128.27151,37.64846],[128.27204,37.65577],[128.27298,37.65638],[128.27639,37.65905],[128.27807,37.66357],[128.27755,37.66488],[128.27716,37.66724],[128.27761,37.6686],[128.27782,37.66923],[128.27986,37.67209],[128.28043,37.67254],[128.28101,37.67298],[128.28314,37.67423],[128.28693,37.67709],[128.28886,37.67939],[128.29029,37.68068],[128.29172,37.68197],[128.29278,37.68239],[128.2951,37.68296],[128.2954,37.68325],[128.29564,37.68348],[128.29653,37.68474],[128.297,37.6854],[128.29745,37.68604],[128.29793,37.68663],[128.29819,37.68693],[128.29965,37.68804],[128.30209,37.68901],[128.30372,37.69002],[128.30513,37.6909],[128.30743,37.6949],[128.30852,37.69775],[128.30927,37.69976],[128.31033,37.70155],[128.31111,37.70184],[128.31197,37.70275],[128.31251,37.70371],[128.31319,37.70363],[128.31334,37.70358],[128.31347,37.70352],[128.31417,37.70303],[128.31453,37.70256],[128.31476,37.70197],[128.31496,37.70143],[128.31603,37.69857],[128.31699,37.69627],[128.32028,37.69107],[128.32077,37.69059],[128.32127,37.6901],[128.32193,37.68975],[128.32261,37.68924],[128.32273,37.68898],[128.32281,37.68809],[128.32328,37.68893],[128.32368,37.6893],[128.32419,37.68957],[128.32492,37.68996],[128.32852,37.6915],[128.33717,37.69507],[128.33852,37.69562],[128.33929,37.69562],[128.33995,37.69557],[128.34195,37.69561],[128.34675,37.69571],[128.34747,37.69579],[128.35524,37.69753],[128.35771,37.69866],[128.35829,37.69889],[128.35904,37.699],[128.35938,37.69905],[128.3597,37.69911],[128.36367,37.69799],[128.36495,37.69763],[128.36561,37.69715],[128.36655,37.69622],[128.36727,37.69573],[128.36787,37.69533],[128.36992,37.69393],[128.37074,37.69358],[128.37506,37.69182],[128.37675,37.69146],[128.37756,37.69143],[128.37959,37.69137],[128.37986,37.69139],[128.38021,37.6915],[128.38178,37.69179],[128.38444,37.69197],[128.39045,37.69214],[128.39543,37.69201],[128.39589,37.69199],[128.39717,37.69132],[128.40018,37.69013],[128.4041,37.68878],[128.40492,37.6886],[128.40561,37.68851],[128.40592,37.68856],[128.40718,37.68948],[128.40843,37.69041],[128.40891,37.69074],[128.40939,37.69107],[128.40985,37.69109],[128.41136,37.69023],[128.41273,37.68918],[128.41302,37.68891],[128.41325,37.68869],[128.41544,37.68805],[128.41569,37.68804],[128.4159,37.68803],[128.4213,37.68905],[128.42217,37.68944],[128.4232,37.69019],[128.42341,37.69042],[128.42369,37.69073],[128.42438,37.6911],[128.42522,37.69128],[128.43178,37.69201],[128.43446,37.69227],[128.43484,37.69228],[128.43533,37.69229]]]]}},{"type":"Feature","properties":{"code":"51760350","name":"용평면","parent":"51760"},"geometry":{"type":"MultiPolygon","coordinates":[[[[128.48797,37.73374],[128.48834,37.73299],[128.48928,37.7317],[128.48958,37.73138],[128.49021,37.73073],[128.49083,37.73053],[128.49179,37.7303],[128.49254,37.72994],[128.49404,37.72914],[128.4982,37.72464],[128.49912,37.72182],[128.49917,37.72127],[128.49871,37.71441],[128.49867,37.71399],[128.498,37.71003],[128.49776,37.70888],[128.49709,37.70878],[128.49639,37.70867],[128.49548,37.70838],[128.49469,37.7081],[128.49383,37.70751],[128.49325,37.70676],[128.49281,37.7061],[128.49264,37.70371],[128.49312,37.70238],[128.49318,37.70189],[128.4931,37.70053],[128.49283,37.69968],[128.49258,37.69916],[128.49194,37.69835],[128.49183,37.69773],[128.49183,37.69391],[128.49194,37.69291],[128.49223,37.69229],[128.49489,37.6896],[128.49552,37.689],[128.49658,37.68825],[128.49712,37.68802],[128.49861,37.68783],[128.50002,37.6877],[128.50261,37.6874],[128.50875,37.6852],[128.50972,37.68479],[128.51021,37.68457],[128.51054,37.68429],[128.5108,37.68371],[128.51095,37.68317],[128.51087,37.68293],[128.51056,37.68232],[128.51002,37.68078],[128.5092,37.67829],[128.50914,37.67798],[128.50958,37.67715],[128.50972,37.67698],[128.50988,37.6766],[128.51017,37.67017],[128.50947,37.66782],[128.5082,37.66363],[128.50789,37.65906],[128.50693,37.65597],[128.50678,37.65564],[128.50688,37.65535],[128.50721,37.65487],[128.50761,37.65448],[128.51082,37.65242],[128.51152,37.65218],[128.51236,37.65189],[128.51292,37.65186],[128.51326,37.65185],[128.51356,37.65145],[128.51552,37.64877],[128.51672,37.64532],[128.51685,37.6448],[128.51684,37.64471],[128.51661,37.64414],[128.51592,37.64315],[128.51352,37.63984],[128.51198,37.63831],[128.51138,37.63768],[128.51097,37.63706],[128.51102,37.63633],[128.51143,37.63567],[128.51138,37.63539],[128.5108,37.63467],[128.51033,37.63411],[128.5094,37.63339],[128.50873,37.63313],[128.50766,37.63292],[128.50677,37.63291],[128.50642,37.6329],[128.50565,37.63283],[128.50502,37.63251],[128.50462,37.63185],[128.50439,37.63144],[128.50411,37.6307],[128.50376,37.62981],[128.50315,37.62922],[128.50034,37.62681],[128.4981,37.62484],[128.49776,37.62448],[128.49612,37.62257],[128.49578,37.62195],[128.49558,37.62142],[128.49526,37.62061],[128.4948,37.61932],[128.49443,37.61867],[128.49414,37.6184],[128.49324,37.61784],[128.49318,37.6178],[128.49196,37.61696],[128.49131,37.61632],[128.48713,37.61168],[128.48677,37.61069],[128.48654,37.60973],[128.48832,37.60563],[128.48882,37.6052],[128.48944,37.60485],[128.48972,37.60462],[128.48993,37.60418],[128.49082,37.6008],[128.49104,37.59864],[128.49168,37.59528],[128.49213,37.59453],[128.49238,37.59391],[128.49255,37.59331],[128.49259,37.59296],[128.49258,37.5925],[128.49229,37.59133],[128.49007,37.58974],[128.48875,37.58906],[128.48805,37.58881],[128.48748,37.58865],[128.48676,37.58847],[128.48603,37.58812],[128.48525,37.58773],[128.48368,37.5869],[128.48202,37.58584],[128.47993,37.58438],[128.47918,37.58385],[128.47882,37.58346],[128.47873,37.58324],[128.47864,37.5827],[128.47841,37.58206],[128.47795,37.58088],[128.47756,37.58016],[128.47728,37.57999],[128.47654,37.57983],[128.47586,37.57977],[128.47051,37.58068],[128.46911,37.58104],[128.46822,37.58128],[128.4676,37.58153],[128.46625,37.58201],[128.46154,37.58265],[128.46104,37.58256],[128.46063,37.5824],[128.45985,37.58207],[128.45922,37.58159],[128.45892,37.58129],[128.45859,37.58091],[128.45835,37.58063],[128.45844,37.57985],[128.45869,37.57908],[128.45892,37.57836],[128.4593,37.57691],[128.45949,37.57532],[128.45938,37.57476],[128.45915,37.57435],[128.45857,37.57344],[128.45832,37.57274],[128.45834,37.57221],[128.4585,37.56935],[128.45887,37.5672],[128.4591,37.56686],[128.45909,37.56658],[128.45889,37.56633],[128.45648,37.56416],[128.45471,37.56206],[128.45271,37.55865],[128.45222,37.55834],[128.44594,37.55594],[128.44317,37.55517],[128.44241,37.555],[128.44156,37.55486],[128.44113,37.55488],[128.44048,37.55507],[128.44023,37.55525],[128.43979,37.55543],[128.43931,37.55559],[128.43727,37.5561],[128.43498,37.55587],[128.4346,37.55574],[128.42964,37.55346],[128.42884,37.55348],[128.4282,37.5536],[128.42771,37.55374],[128.42727,37.5539],[128.42683,37.55412],[128.42649,37.55418],[128.42623,37.55419],[128.42583,37.55401],[128.42268,37.55219],[128.42231,37.55194],[128.42217,37.55183],[128.42193,37.55151],[128.42084,37.54982],[128.41917,37.54647],[128.41849,37.54425],[128.41789,37.54208],[128.41791,37.54195],[128.42096,37.53514],[128.42279,37.53151],[128.42467,37.52831],[128.42476,37.52777],[128.42488,37.52457],[128.42483,37.52411],[128.42466,37.52343],[128.42424,37.52263],[128.42421,37.52257],[128.42322,37.52104],[128.42265,37.52043],[128.42181,37.52001],[128.42155,37.51996],[128.42094,37.51983],[128.41739,37.51981],[128.4116,37.52039],[128.41094,37.52056],[128.41043,37.52087],[128.40981,37.52147],[128.40927,37.5224],[128.40801,37.5232],[128.4075,37.52342],[128.4063,37.52354],[128.40528,37.52355],[128.40455,37.52363],[128.40229,37.52416],[128.40186,37.5243],[128.40029,37.52493],[128.39954,37.52541],[128.39849,37.52581],[128.39612,37.52654],[128.39928,37.52682],[128.4,37.52708],[128.40045,37.52772],[128.40062,37.52851],[128.40036,37.52899],[128.39894,37.53138],[128.3988,37.53159],[128.39867,37.53169],[128.39823,37.53189],[128.39774,37.53208],[128.39757,37.53228],[128.39736,37.5326],[128.39768,37.53439],[128.39803,37.5351],[128.39879,37.53568],[128.39925,37.536],[128.39982,37.53688],[128.40003,37.53734],[128.4003,37.5379],[128.40045,37.53848],[128.40043,37.539],[128.40032,37.53958],[128.40007,37.54002],[128.39961,37.54038],[128.39904,37.54048],[128.39841,37.54044],[128.39778,37.54018],[128.39729,37.53995],[128.39662,37.53996],[128.39635,37.53998],[128.39605,37.54013],[128.39537,37.54059],[128.39209,37.5447],[128.39169,37.54523],[128.39162,37.54567],[128.39162,37.54591],[128.39172,37.54615],[128.39384,37.54987],[128.39447,37.55085],[128.3953,37.55172],[128.39661,37.55351],[128.39803,37.5572],[128.40022,37.5637],[128.40022,37.5639],[128.39954,37.56533],[128.39928,37.56554],[128.39881,37.5659],[128.39842,37.5661],[128.398,37.56609],[128.39753,37.56606],[128.39579,37.56585],[128.39543,37.56579],[128.39496,37.56553],[128.39456,37.56542],[128.39432,37.56539],[128.39264,37.56529],[128.39201,37.56527],[128.39133,37.56526],[128.39102,37.56546],[128.39085,37.5658],[128.39085,37.56631],[128.39059,37.56675],[128.3888,37.56928],[128.38453,37.57418],[128.38424,37.57448],[128.38397,37.57472],[128.38204,37.57566],[128.38161,37.57581],[128.38086,37.57588],[128.37891,37.57628],[128.37484,37.57755],[128.37364,37.57831],[128.37304,37.57886],[128.373,37.57917],[128.37395,37.58035],[128.37433,37.58078],[128.37488,37.58114],[128.37553,37.58135],[128.37645,37.58129],[128.37689,37.58134],[128.37763,37.58153],[128.3787,37.58205],[128.37928,37.58233],[128.37954,37.58264],[128.37966,37.58306],[128.37965,37.58348],[128.37957,37.58386],[128.37951,37.5845],[128.38147,37.58871],[128.38159,37.58895],[128.38187,37.58938],[128.38742,37.59379],[128.38813,37.59431],[128.38924,37.59469],[128.39031,37.595],[128.39209,37.59511],[128.39425,37.59498],[128.39465,37.59488],[128.39507,37.59492],[128.39792,37.59538],[128.39844,37.59554],[128.39876,37.59577],[128.39879,37.5958],[128.39902,37.59601],[128.3995,37.59773],[128.39925,37.59849],[128.39924,37.59897],[128.39939,37.59957],[128.3997,37.60052],[128.40001,37.60122],[128.40059,37.60203],[128.40095,37.60254],[128.40574,37.60739],[128.40659,37.60817],[128.40724,37.60868],[128.40767,37.60891],[128.40823,37.60904],[128.40917,37.6092],[128.40963,37.60951],[128.41039,37.61038],[128.41283,37.61347],[128.41487,37.61609],[128.41829,37.61838],[128.41974,37.62056],[128.42222,37.62586],[128.4222,37.62639],[128.422,37.62857],[128.42184,37.62904],[128.42144,37.62969],[128.42119,37.62992],[128.4196,37.63131],[128.41878,37.63357],[128.4189,37.63492],[128.41875,37.63576],[128.41839,37.63635],[128.41633,37.63777],[128.41564,37.63822],[128.41516,37.63846],[128.41468,37.63886],[128.41314,37.64026],[128.41262,37.64083],[128.41273,37.64103],[128.41393,37.64216],[128.41817,37.64512],[128.42172,37.64766],[128.42269,37.64994],[128.4233,37.65286],[128.42296,37.6532],[128.42285,37.65349],[128.42177,37.65656],[128.42152,37.65742],[128.42124,37.65851],[128.4212,37.65871],[128.42124,37.65899],[128.42171,37.65961],[128.42245,37.66011],[128.42318,37.66054],[128.42607,37.6622],[128.42643,37.66239],[128.42762,37.66288],[128.429,37.66331],[128.42997,37.6636],[128.43071,37.66399],[128.43302,37.66528],[128.43316,37.66545],[128.43353,37.66623],[128.43381,37.66672],[128.43558,37.66953],[128.4362,37.67045],[128.43793,37.6718],[128.43854,37.67201],[128.4388,37.67214],[128.43928,37.67266],[128.43982,37.6733],[128.44132,37.6759],[128.44146,37.67634],[128.44126,37.6767],[128.44107,37.677],[128.44037,37.67808],[128.44,37.67865],[128.44004,37.67899],[128.44069,37.68197],[128.44101,37.68253],[128.44135,37.68296],[128.44186,37.68345],[128.44202,37.68377],[128.44194,37.68443],[128.44148,37.68566],[128.44004,37.68848],[128.4396,37.68929],[128.43936,37.68967],[128.43856,37.69023],[128.43533,37.69229],[128.43583,37.69491],[128.4362,37.69545],[128.4368,37.69584],[128.4374,37.69624],[128.43818,37.69663],[128.43895,37.69702],[128.43964,37.69737],[128.44259,37.69957],[128.44389,37.70058],[128.44402,37.70101],[128.44398,37.70207],[128.4445,37.70628],[128.44478,37.70807],[128.44497,37.70881],[128.4457,37.71001],[128.44595,37.7109],[128.44626,37.71258],[128.44622,37.71277],[128.44537,37.71498],[128.44504,37.71572],[128.44495,37.71661],[128.44511,37.71751],[128.44522,37.71773],[128.44573,37.71832],[128.44782,37.72033],[128.45303,37.72743],[128.45333,37.72839],[128.45352,37.72858],[128.45395,37.72897],[128.45753,37.73057],[128.45794,37.73061],[128.45896,37.73033],[128.45961,37.73009],[128.46013,37.72977],[128.46065,37.72945],[128.46098,37.72911],[128.46189,37.72842],[128.46205,37.72833],[128.4622,37.72825],[128.4629,37.72812],[128.46343,37.72811],[128.46384,37.7281],[128.46467,37.72813],[128.46521,37.72818],[128.46568,37.72822],[128.46659,37.72862],[128.46689,37.72891],[128.46801,37.7302],[128.46855,37.73091],[128.46896,37.73152],[128.46945,37.732],[128.46982,37.73234],[128.47019,37.73268],[128.47058,37.73294],[128.47107,37.73319],[128.47149,37.7334],[128.47615,37.7344],[128.47664,37.73449],[128.4783,37.73452],[128.47927,37.73418],[128.48046,37.73359],[128.48076,37.73356],[128.48249,37.73375],[128.48484,37.73401],[128.48555,37.73416],[128.48639,37.73424],[128.48797,37.73374]]]]}},{"type":"Feature","properties":{"code":"51760360","name":"진부면","parent":"51760"},"geometry":{"type":"MultiPolygon","coordinates":[[[[128.59891,37.77411],[128.59763,37.77232],[128.59747,37.77204],[128.59737,37.77173],[128.59697,37.7705],[128.59695,37.77043],[128.59665,37.7661],[128.59665,37.76561],[128.59667,37.76543],[128.59674,37.76532],[128.59679,37.76524],[128.59685,37.7652],[128.59692,37.76514],[128.59708,37.76502],[128.59723,37.76491],[128.59739,37.7648],[128.59762,37.76453],[128.59775,37.76431],[128.59778,37.76425],[128.59782,37.76415],[128.59794,37.76372],[128.59793,37.76364],[128.59792,37.76351],[128.59788,37.76336],[128.59752,37.76215],[128.59717,37.76119],[128.59703,37.75743],[128.59717,37.75581],[128.5976,37.75429],[128.59846,37.75124],[128.59878,37.75091],[128.60057,37.75039],[128.60237,37.75011],[128.6041,37.74984],[128.60527,37.74944],[128.60571,37.74909],[128.60593,37.74861],[128.60565,37.74794],[128.6056,37.74744],[128.60644,37.74544],[128.607,37.74502],[128.60876,37.74316],[128.60992,37.74179],[128.60957,37.74009],[128.60837,37.7352],[128.60765,37.73283],[128.60717,37.73118],[128.60718,37.73058],[128.60759,37.72961],[128.60798,37.72892],[128.6084,37.72815],[128.6081,37.72729],[128.60614,37.72502],[128.60589,37.72458],[128.60607,37.7233],[128.60614,37.72313],[128.60653,37.72257],[128.60673,37.7221],[128.60628,37.71844],[128.60593,37.71216],[128.6058,37.70942],[128.60543,37.70757],[128.60481,37.70569],[128.6044,37.70539],[128.60389,37.70502],[128.60317,37.70434],[128.603,37.70353],[128.60305,37.70315],[128.60346,37.70252],[128.60416,37.70209],[128.60475,37.70169],[128.60526,37.70135],[128.60682,37.69961],[128.60702,37.69915],[128.60759,37.69741],[128.60786,37.69634],[128.60819,37.69551],[128.60882,37.69464],[128.60936,37.69429],[128.61007,37.69408],[128.61058,37.69385],[128.61118,37.69357],[128.61183,37.69321],[128.61254,37.69269],[128.61505,37.69052],[128.61458,37.68953],[128.61327,37.68796],[128.61299,37.68771],[128.61258,37.6875],[128.61218,37.68755],[128.6117,37.68759],[128.61081,37.68767],[128.61005,37.68728],[128.60952,37.68693],[128.6093,37.68672],[128.60896,37.68639],[128.60851,37.68569],[128.60828,37.68368],[128.60824,37.68324],[128.60824,37.68235],[128.60802,37.68198],[128.60794,37.68184],[128.60743,37.68119],[128.6059,37.67923],[128.6016,37.67458],[128.59913,37.6723],[128.59844,37.67174],[128.59787,37.67132],[128.59731,37.67094],[128.59531,37.66863],[128.59532,37.66841],[128.59543,37.66582],[128.5942,37.66537],[128.59297,37.66491],[128.58747,37.66167],[128.58715,37.66124],[128.58878,37.65934],[128.58981,37.65849],[128.59005,37.65837],[128.59028,37.65825],[128.59804,37.65752],[128.60008,37.65765],[128.60059,37.65773],[128.60185,37.65842],[128.60232,37.65919],[128.60243,37.65982],[128.60245,37.66011],[128.60287,37.66037],[128.60311,37.66041],[128.60336,37.66045],[128.60539,37.66063],[128.60587,37.66058],[128.6096,37.65869],[128.61074,37.65751],[128.61111,37.65692],[128.61194,37.65609],[128.61272,37.65562],[128.6135,37.65515],[128.61406,37.65499],[128.61444,37.65484],[128.61483,37.6547],[128.61514,37.65413],[128.61536,37.65345],[128.61527,37.65152],[128.61454,37.64946],[128.61295,37.64754],[128.61199,37.64648],[128.61176,37.64598],[128.61204,37.64457],[128.61261,37.64361],[128.61406,37.64144],[128.61592,37.64021],[128.61685,37.6397],[128.61717,37.63952],[128.61742,37.63933],[128.61759,37.63896],[128.6175,37.63752],[128.61742,37.63716],[128.6171,37.63701],[128.61638,37.6365],[128.61626,37.63604],[128.61551,37.63231],[128.61539,37.63109],[128.61536,37.63048],[128.61547,37.62973],[128.61499,37.6278],[128.61429,37.62604],[128.61409,37.62554],[128.6139,37.62513],[128.61349,37.62453],[128.61323,37.62419],[128.61308,37.62391],[128.61307,37.6225],[128.61309,37.62214],[128.6133,37.62178],[128.61349,37.62165],[128.61828,37.61867],[128.61866,37.61844],[128.61909,37.61837],[128.61959,37.61833],[128.62193,37.61822],[128.62238,37.61829],[128.62362,37.61872],[128.62482,37.61933],[128.62514,37.61942],[128.62589,37.61921],[128.62663,37.61852],[128.62705,37.61803],[128.62945,37.61504],[128.62965,37.61398],[128.62992,37.61332],[128.63052,37.61263],[128.6313,37.61226],[128.63168,37.61226],[128.63206,37.61227],[128.63291,37.61235],[128.63359,37.6125],[128.63388,37.61241],[128.63399,37.6119],[128.63421,37.61055],[128.63431,37.60996],[128.63438,37.60915],[128.63418,37.60867],[128.63398,37.6082],[128.63381,37.60746],[128.63369,37.6068],[128.63408,37.60571],[128.63441,37.60536],[128.63568,37.60457],[128.63594,37.60446],[128.63624,37.60433],[128.63679,37.60416],[128.63726,37.60401],[128.63759,37.60396],[128.638,37.60389],[128.63961,37.60369],[128.64037,37.60374],[128.64095,37.60394],[128.64342,37.60484],[128.6441,37.60529],[128.64461,37.60571],[128.64718,37.60673],[128.64948,37.60585],[128.65037,37.60563],[128.65228,37.60544],[128.65388,37.60543],[128.65589,37.60542],[128.65647,37.60543],[128.65714,37.60544],[128.65877,37.6052],[128.66174,37.60457],[128.6622,37.60422],[128.66279,37.60371],[128.66308,37.60339],[128.66337,37.60307],[128.66371,37.60294],[128.66426,37.60302],[128.66541,37.60325],[128.66609,37.60347],[128.66653,37.60372],[128.66689,37.60392],[128.66815,37.60439],[128.66905,37.60467],[128.6695,37.60467],[128.66995,37.60458],[128.67041,37.60384],[128.67133,37.60266],[128.6735,37.60016],[128.67713,37.59749],[128.67949,37.59589],[128.68026,37.59551],[128.68183,37.59436],[128.68319,37.59326],[128.68362,37.5929],[128.68405,37.59193],[128.68407,37.59164],[128.68409,37.59145],[128.68406,37.59022],[128.68399,37.58976],[128.68191,37.58113],[128.68157,37.57654],[128.68047,37.57219],[128.67912,37.56769],[128.67888,37.56699],[128.67843,37.56681],[128.67804,37.56678],[128.67754,37.56674],[128.67577,37.56695],[128.66959,37.56714],[128.6689,37.56701],[128.66849,37.56691],[128.6684,37.56672],[128.6683,37.56611],[128.66829,37.56163],[128.6685,37.56112],[128.66865,37.56081],[128.6692,37.56037],[128.66925,37.56035],[128.66981,37.56008],[128.67007,37.56],[128.67048,37.56001],[128.67107,37.56013],[128.67171,37.56025],[128.67204,37.56025],[128.67247,37.5602],[128.67312,37.55982],[128.67355,37.55934],[128.67356,37.55931],[128.67383,37.55883],[128.674,37.55593],[128.67125,37.55682],[128.67053,37.55694],[128.66982,37.55702],[128.66911,37.55709],[128.66796,37.55691],[128.66625,37.55661],[128.66587,37.55651],[128.66512,37.55626],[128.66426,37.55601],[128.66113,37.55545],[128.66002,37.55538],[128.65295,37.55494],[128.65031,37.55495],[128.65002,37.55502],[128.64915,37.55493],[128.64836,37.5548],[128.64774,37.55453],[128.64595,37.55375],[128.64495,37.55327],[128.64451,37.55264],[128.6429,37.54853],[128.6416,37.54471],[128.64139,37.54324],[128.64145,37.54281],[128.64166,37.54212],[128.64175,37.54153],[128.64144,37.54116],[128.64083,37.54086],[128.63704,37.53972],[128.63552,37.53946],[128.63518,37.53945],[128.63471,37.54009],[128.63332,37.54203],[128.63283,37.54276],[128.63249,37.54329],[128.63233,37.54387],[128.63221,37.54491],[128.6323,37.54578],[128.63241,37.54771],[128.6324,37.54827],[128.63238,37.5492],[128.63185,37.55038],[128.63056,37.55248],[128.63026,37.55279],[128.62897,37.55348],[128.62798,37.55409],[128.6276,37.55441],[128.62726,37.55494],[128.62701,37.55552],[128.62701,37.55861],[128.62707,37.55937],[128.62675,37.56135],[128.62619,37.5639],[128.62553,37.56475],[128.62506,37.56531],[128.62472,37.56609],[128.62458,37.56673],[128.62462,37.56792],[128.625,37.56915],[128.62514,37.56974],[128.62538,37.57098],[128.6255,37.57182],[128.6256,37.57276],[128.62537,37.5734],[128.62047,37.57494],[128.6199,37.57484],[128.61928,37.57448],[128.61844,37.57439],[128.61785,37.57438],[128.61676,37.57466],[128.61514,37.57528],[128.61353,37.5745],[128.60853,37.5726],[128.60602,37.57171],[128.6015,37.56983],[128.60071,37.56945],[128.59993,37.56901],[128.59919,37.56842],[128.59871,37.56772],[128.59802,37.56671],[128.59301,37.5625],[128.59241,37.56207],[128.59161,37.56151],[128.59119,37.56125],[128.59052,37.56101],[128.58978,37.56052],[128.58912,37.55907],[128.58857,37.5573],[128.58848,37.557],[128.58847,37.55654],[128.58883,37.55506],[128.58921,37.55425],[128.58926,37.55378],[128.58878,37.55024],[128.58855,37.54996],[128.58781,37.54931],[128.58764,37.54888],[128.58749,37.5484],[128.58749,37.54806],[128.58762,37.54748],[128.58846,37.54606],[128.58904,37.5449],[128.58963,37.54284],[128.58979,37.54121],[128.58973,37.54075],[128.58934,37.53951],[128.58875,37.53882],[128.58798,37.53822],[128.58747,37.53813],[128.58654,37.53815],[128.58548,37.53804],[128.58508,37.53787],[128.58349,37.53588],[128.58267,37.53324],[128.58187,37.52912],[128.58113,37.52524],[128.58059,37.52227],[128.58015,37.51958],[128.57947,37.51703],[128.57879,37.51598],[128.57852,37.51537],[128.57748,37.51168],[128.57678,37.50463],[128.57712,37.50144],[128.5768,37.49649],[128.57682,37.49595],[128.57702,37.4953],[128.57729,37.49478],[128.57769,37.49436],[128.57939,37.49285],[128.58065,37.49191],[128.58169,37.49118],[128.58242,37.49087],[128.58284,37.49069],[128.58338,37.49038],[128.5838,37.49006],[128.58418,37.48968],[128.58446,37.48936],[128.58462,37.48909],[128.58468,37.48874],[128.58473,37.48779],[128.58468,37.48761],[128.58462,37.48733],[128.58449,37.48732],[128.58436,37.48735],[128.58398,37.48755],[128.58354,37.48784],[128.58238,37.48874],[128.5822,37.48896],[128.58122,37.49015],[128.58091,37.49036],[128.58061,37.49045],[128.58026,37.4905],[128.57989,37.49045],[128.57937,37.49032],[128.57627,37.48963],[128.57457,37.48943],[128.57393,37.48946],[128.57329,37.48959],[128.57257,37.48982],[128.5721,37.49007],[128.5717,37.4905],[128.57125,37.49127],[128.57098,37.49197],[128.57082,37.49256],[128.57031,37.49583],[128.57019,37.49641],[128.57004,37.49695],[128.56969,37.49742],[128.56933,37.49781],[128.56881,37.49814],[128.56821,37.49848],[128.5652,37.49997],[128.56483,37.50008],[128.56456,37.50008],[128.56427,37.50001],[128.56389,37.49986],[128.56358,37.49959],[128.56307,37.49903],[128.55963,37.49409],[128.5568,37.48961],[128.55662,37.48927],[128.55638,37.48865],[128.5563,37.4873],[128.5564,37.48614],[128.5578,37.4809],[128.558,37.48051],[128.55923,37.47897],[128.56,37.47779],[128.56033,37.47719],[128.56107,37.47431],[128.56132,37.47334],[128.56148,37.47032],[128.5612,37.46609],[128.56127,37.46596],[128.56224,37.46493],[128.56298,37.4634],[128.5634,37.46169],[128.56335,37.46142],[128.56325,37.4613],[128.5624,37.461],[128.56155,37.46069],[128.56102,37.46044],[128.55928,37.45947],[128.55773,37.45857],[128.55481,37.45734],[128.55448,37.4572],[128.5533,37.45687],[128.55287,37.4568],[128.55252,37.45683],[128.5521,37.45692],[128.5518,37.45701],[128.55063,37.45755],[128.54753,37.45928],[128.54715,37.45951],[128.54671,37.45967],[128.54404,37.46029],[128.53823,37.46127],[128.53773,37.46136],[128.5347,37.46179],[128.5343,37.46184],[128.53235,37.46185],[128.53034,37.46281],[128.52958,37.46303],[128.52925,37.46308],[128.52873,37.46312],[128.52724,37.46315],[128.52655,37.46322],[128.5243,37.46355],[128.52404,37.4637],[128.52329,37.46416],[128.52281,37.46458],[128.52224,37.4651],[128.52194,37.46558],[128.52175,37.46608],[128.52154,37.46691],[128.52096,37.46909],[128.52083,37.46934],[128.52054,37.46963],[128.51863,37.47149],[128.51844,37.47156],[128.5182,37.47158],[128.51804,37.47155],[128.51775,37.47143],[128.51691,37.47101],[128.51625,37.4707],[128.51592,37.47065],[128.51455,37.47054],[128.5139,37.47052],[128.51076,37.47072],[128.50819,37.47095],[128.50747,37.47108],[128.50713,37.47126],[128.50702,37.47144],[128.50699,37.47165],[128.50694,37.472],[128.50654,37.47259],[128.50421,37.47493],[128.50386,37.47521],[128.50337,37.47534],[128.50244,37.47569],[128.50199,37.47603],[128.50161,37.47648],[128.5014,37.47726],[128.50046,37.47949],[128.50001,37.48044],[128.49966,37.48091],[128.49928,37.48123],[128.49885,37.4814],[128.49837,37.48158],[128.49803,37.48163],[128.49776,37.48162],[128.49747,37.48165],[128.49677,37.48181],[128.49606,37.48206],[128.49515,37.48251],[128.49411,37.48316],[128.49363,37.48357],[128.49446,37.48975],[128.49454,37.48995],[128.49474,37.49023],[128.49776,37.49348],[128.49806,37.49383],[128.49822,37.4947],[128.49839,37.49832],[128.49849,37.49862],[128.50058,37.50368],[128.50086,37.50408],[128.50163,37.50453],[128.50271,37.50491],[128.50402,37.50552],[128.50956,37.50977],[128.50993,37.51043],[128.50891,37.51249],[128.5084,37.51341],[128.50784,37.51437],[128.50698,37.51527],[128.50622,37.51611],[128.50581,37.51698],[128.50534,37.51959],[128.50531,37.52065],[128.50825,37.52489],[128.51117,37.52888],[128.51218,37.52997],[128.51393,37.53194],[128.51459,37.53273],[128.51478,37.53337],[128.51508,37.53449],[128.51553,37.53818],[128.51551,37.5406],[128.51283,37.54513],[128.5122,37.54584],[128.51168,37.54628],[128.51012,37.54897],[128.50886,37.5516],[128.50903,37.5527],[128.50944,37.55525],[128.51024,37.5574],[128.50989,37.55886],[128.50889,37.5598],[128.5079,37.561],[128.50749,37.56162],[128.50614,37.56389],[128.50541,37.5677],[128.5046,37.57213],[128.5045,37.57259],[128.5031,37.57521],[128.50221,37.57614],[128.50001,37.57893],[128.49934,37.57982],[128.49891,37.58084],[128.49901,37.58146],[128.49919,37.5817],[128.49951,37.58199],[128.50081,37.58236],[128.50125,37.5825],[128.50186,37.58337],[128.50212,37.58411],[128.50235,37.58496],[128.50235,37.58542],[128.50073,37.5884],[128.50034,37.58883],[128.49976,37.58928],[128.49887,37.58985],[128.49776,37.59033],[128.49304,37.59121],[128.49229,37.59133],[128.49258,37.5925],[128.49259,37.59296],[128.49255,37.59331],[128.49238,37.59391],[128.49213,37.59453],[128.49168,37.59528],[128.49104,37.59864],[128.49082,37.6008],[128.48993,37.60418],[128.48972,37.60462],[128.48944,37.60485],[128.48882,37.6052],[128.48832,37.60563],[128.48654,37.60973],[128.48677,37.61069],[128.48713,37.61168],[128.49131,37.61632],[128.49196,37.61696],[128.49318,37.6178],[128.49324,37.61784],[128.49414,37.6184],[128.49443,37.61867],[128.4948,37.61932],[128.49526,37.62061],[128.49558,37.62142],[128.49578,37.62195],[128.49612,37.62257],[128.49776,37.62448],[128.4981,37.62484],[128.50034,37.62681],[128.50315,37.62922],[128.50376,37.62981],[128.50411,37.6307],[128.50439,37.63144],[128.50462,37.63185],[128.50502,37.63251],[128.50565,37.63283],[128.50642,37.6329],[128.50677,37.63291],[128.50766,37.63292],[128.50873,37.63313],[128.5094,37.63339],[128.51033,37.63411],[128.5108,37.63467],[128.51138,37.63539],[128.51143,37.63567],[128.51102,37.63633],[128.51097,37.63706],[128.51138,37.63768],[128.51198,37.63831],[128.51352,37.63984],[128.51592,37.64315],[128.51661,37.64414],[128.51684,37.64471],[128.51685,37.6448],[128.51672,37.64532],[128.51552,37.64877],[128.51356,37.65145],[128.51326,37.65185],[128.51292,37.65186],[128.51236,37.65189],[128.51152,37.65218],[128.51082,37.65242],[128.50761,37.65448],[128.50721,37.65487],[128.50688,37.65535],[128.50678,37.65564],[128.50693,37.65597],[128.50789,37.65906],[128.5082,37.66363],[128.50947,37.66782],[128.51017,37.67017],[128.50988,37.6766],[128.50972,37.67698],[128.50958,37.67715],[128.50914,37.67798],[128.5092,37.67829],[128.51002,37.68078],[128.51056,37.68232],[128.51087,37.68293],[128.51095,37.68317],[128.5108,37.68371],[128.51054,37.68429],[128.51021,37.68457],[128.50972,37.68479],[128.50875,37.6852],[128.50261,37.6874],[128.50002,37.6877],[128.49861,37.68783],[128.49712,37.68802],[128.49658,37.68825],[128.49552,37.689],[128.49489,37.6896],[128.49223,37.69229],[128.49194,37.69291],[128.49183,37.69391],[128.49183,37.69773],[128.49194,37.69835],[128.49258,37.69916],[128.49283,37.69968],[128.4931,37.70053],[128.49318,37.70189],[128.49312,37.70238],[128.49264,37.70371],[128.49281,37.7061],[128.49325,37.70676],[128.49383,37.70751],[128.49469,37.7081],[128.49548,37.70838],[128.49639,37.70867],[128.49709,37.70878],[128.49776,37.70888],[128.498,37.71003],[128.49867,37.71399],[128.49871,37.71441],[128.49917,37.72127],[128.49912,37.72182],[128.4982,37.72464],[128.49404,37.72914],[128.49254,37.72994],[128.49179,37.7303],[128.49083,37.73053],[128.49021,37.73073],[128.48958,37.73138],[128.48928,37.7317],[128.48834,37.73299],[128.48797,37.73374],[128.49054,37.73345],[128.49743,37.73258],[128.50347,37.73166],[128.50706,37.73106],[128.50831,37.73084],[128.5095,37.7305],[128.51127,37.73042],[128.5129,37.73044],[128.51388,37.73065],[128.51435,37.731],[128.51487,37.73152],[128.51563,37.73234],[128.516,37.73244],[128.51632,37.73244],[128.51665,37.73245],[128.51712,37.73237],[128.51759,37.73229],[128.52027,37.73139],[128.52065,37.73121],[128.52103,37.73103],[128.52169,37.7306],[128.52209,37.73008],[128.52226,37.72996],[128.52243,37.72984],[128.52322,37.72995],[128.52665,37.73129],[128.52723,37.73166],[128.52829,37.73254],[128.5283,37.73261],[128.52838,37.73301],[128.52814,37.73567],[128.52792,37.73623],[128.5275,37.73681],[128.52686,37.73736],[128.52617,37.73795],[128.5246,37.74145],[128.52431,37.74237],[128.52431,37.74289],[128.52506,37.74523],[128.52555,37.74602],[128.52631,37.74731],[128.52698,37.75103],[128.52702,37.75161],[128.52706,37.7522],[128.52678,37.75343],[128.52673,37.75353],[128.52669,37.75357],[128.52373,37.75707],[128.5235,37.75729],[128.52321,37.75751],[128.52221,37.75823],[128.52212,37.75829],[128.52206,37.75833],[128.52193,37.75841],[128.52179,37.75848],[128.52172,37.75851],[128.52161,37.75856],[128.52142,37.7586],[128.52136,37.75862],[128.52124,37.75867],[128.52119,37.75871],[128.52112,37.75875],[128.52107,37.75882],[128.52107,37.75885],[128.52107,37.75889],[128.52116,37.75914],[128.52234,37.76245],[128.52238,37.76254],[128.52243,37.76261],[128.52254,37.76274],[128.52348,37.76341],[128.52363,37.7635],[128.52721,37.76629],[128.53229,37.77028],[128.53237,37.77034],[128.53256,37.77054],[128.53281,37.77082],[128.53304,37.77109],[128.53308,37.77117],[128.5331,37.77125],[128.53326,37.7724],[128.53325,37.77246],[128.53314,37.77261],[128.53302,37.77283],[128.53295,37.77302],[128.53286,37.77334],[128.53281,37.7736],[128.53276,37.7738],[128.53267,37.7773],[128.53269,37.77746],[128.53296,37.77928],[128.53299,37.77946],[128.53304,37.77965],[128.53311,37.77976],[128.53433,37.78084],[128.53439,37.78089],[128.53447,37.78095],[128.53457,37.78103],[128.53478,37.78117],[128.535,37.78129],[128.53796,37.7827],[128.53854,37.78294],[128.5386,37.78295],[128.53869,37.78298],[128.53878,37.78301],[128.53885,37.78303],[128.53891,37.78308],[128.53908,37.78325],[128.53925,37.78347],[128.53976,37.78422],[128.54006,37.78467],[128.54071,37.78566],[128.54241,37.78843],[128.54248,37.78861],[128.54266,37.78936],[128.5427,37.78955],[128.54278,37.79015],[128.54327,37.79413],[128.54285,37.79719],[128.54281,37.79727],[128.54254,37.79791],[128.54248,37.79811],[128.54249,37.79822],[128.54253,37.79834],[128.54258,37.79848],[128.54355,37.79966],[128.544,37.80016],[128.54407,37.8002],[128.54512,37.80093],[128.54603,37.80153],[128.54779,37.80252],[128.54829,37.80274],[128.54832,37.80275],[128.55176,37.80526],[128.55188,37.80542],[128.55441,37.80795],[128.55484,37.80828],[128.55499,37.80837],[128.55512,37.80842],[128.55555,37.80856],[128.55566,37.80858],[128.55577,37.8086],[128.55585,37.8086],[128.55606,37.8086],[128.55632,37.80858],[128.55646,37.80856],[128.55659,37.80855],[128.55763,37.80844],[128.55772,37.80842],[128.55791,37.80835],[128.55852,37.80809],[128.55907,37.80785],[128.56168,37.80704],[128.56383,37.8064],[128.56511,37.80606],[128.56534,37.80603],[128.5656,37.80605],[128.5666,37.80614],[128.56721,37.80623],[128.56877,37.8065],[128.56903,37.8066],[128.56928,37.80673],[128.56952,37.8069],[128.56977,37.80707],[128.57001,37.80725],[128.57025,37.80743],[128.57045,37.8076],[128.5708,37.80789],[128.57084,37.80794],[128.57267,37.81058],[128.57337,37.81174],[128.57488,37.81394],[128.57699,37.81702],[128.57709,37.81714],[128.5775,37.81758],[128.57897,37.81887],[128.57908,37.81893],[128.57914,37.81895],[128.57918,37.81897],[128.57948,37.8191],[128.57958,37.81912],[128.57973,37.8191],[128.57981,37.81908],[128.57988,37.81906],[128.58,37.81905],[128.58028,37.81904],[128.58035,37.81906],[128.58045,37.81909],[128.58056,37.81913],[128.58063,37.81915],[128.58077,37.81922],[128.58089,37.81929],[128.58095,37.81934],[128.58102,37.81939],[128.58124,37.81959],[128.58223,37.82063],[128.58257,37.82098],[128.58267,37.81908],[128.58266,37.819],[128.58267,37.81887],[128.58269,37.81877],[128.58276,37.8186],[128.58282,37.81849],[128.5847,37.81528],[128.58483,37.8151],[128.58492,37.81501],[128.58498,37.81499],[128.5851,37.81497],[128.58547,37.81494],[128.58591,37.81489],[128.58608,37.81488],[128.58656,37.81479],[128.58671,37.81474],[128.58704,37.81461],[128.58718,37.81454],[128.58733,37.81446],[128.59521,37.8101],[128.59531,37.81004],[128.5954,37.80998],[128.59549,37.80993],[128.59567,37.80981],[128.59582,37.80969],[128.59598,37.80955],[128.59614,37.8094],[128.59625,37.80929],[128.59896,37.80623],[128.60076,37.80177],[128.60085,37.80151],[128.60095,37.80119],[128.60103,37.80089],[128.60104,37.80079],[128.60105,37.80068],[128.6013,37.79432],[128.60047,37.79197],[128.60029,37.79108],[128.60057,37.78937],[128.60132,37.7877],[128.60169,37.78605],[128.60187,37.7822],[128.6018,37.77988],[128.60179,37.77983],[128.60176,37.77981],[128.60174,37.77978],[128.59973,37.77792],[128.5991,37.77536],[128.59891,37.77411]]]]}},{"type":"Feature","properties":{"code":"51760380","name":"대관령면","parent":"51760"},"geometry":{"type":"MultiPolygon","coordinates":[[[[128.71331,37.76213],[128.71601,37.75883],[128.71881,37.75593],[128.72218,37.75438],[128.72281,37.75126],[128.7234,37.75009],[128.72364,37.7498],[128.72454,37.74908],[128.72502,37.74885],[128.72545,37.74864],[128.72797,37.7479],[128.73109,37.74726],[128.7315,37.74725],[128.73231,37.74693],[128.73372,37.74571],[128.73449,37.7451],[128.73511,37.74461],[128.73886,37.74168],[128.74216,37.7416],[128.74234,37.74134],[128.74438,37.73385],[128.74439,37.73379],[128.74469,37.73228],[128.74472,37.73209],[128.74466,37.73155],[128.74415,37.7281],[128.7444,37.72463],[128.74583,37.71691],[128.74615,37.71567],[128.74705,37.7138],[128.74793,37.7131],[128.74981,37.71224],[128.75142,37.71146],[128.75161,37.71137],[128.75188,37.71117],[128.7521,37.71101],[128.7538,37.70774],[128.75452,37.70247],[128.75509,37.69804],[128.75715,37.69478],[128.75876,37.6939],[128.75883,37.6924],[128.75968,37.68841],[128.76039,37.68739],[128.76122,37.6862],[128.76151,37.68531],[128.76116,37.68332],[128.76278,37.68099],[128.76391,37.6801],[128.76384,37.67771],[128.76398,37.67696],[128.76407,37.67647],[128.76419,37.67614],[128.76427,37.67594],[128.76433,37.67581],[128.76465,37.67542],[128.76509,37.67512],[128.76533,37.67484],[128.76534,37.67463],[128.76536,37.67423],[128.76469,37.67201],[128.7646,37.67181],[128.76407,37.67159],[128.76045,37.67046],[128.75986,37.67049],[128.75898,37.67074],[128.75829,37.67069],[128.7555,37.66996],[128.7538,37.66951],[128.75312,37.6692],[128.75269,37.66856],[128.75269,37.66852],[128.75263,37.66767],[128.75234,37.66702],[128.75206,37.66669],[128.75147,37.66642],[128.75053,37.66614],[128.74965,37.66609],[128.74863,37.66605],[128.748,37.6661],[128.74762,37.6663],[128.74712,37.66612],[128.74664,37.66544],[128.74649,37.66523],[128.74618,37.66473],[128.74469,37.66217],[128.74398,37.66052],[128.74374,37.6596],[128.74324,37.65878],[128.74261,37.65817],[128.74002,37.65709],[128.7387,37.65673],[128.73727,37.6562],[128.73565,37.65541],[128.73433,37.65465],[128.73338,37.65397],[128.73221,37.64994],[128.73219,37.64984],[128.7321,37.64944],[128.73226,37.6489],[128.73255,37.64793],[128.73319,37.64704],[128.73344,37.6467],[128.73309,37.646],[128.7319,37.64451],[128.73101,37.64275],[128.72875,37.63795],[128.72854,37.63717],[128.72854,37.63699],[128.72853,37.63616],[128.72881,37.63547],[128.72942,37.63454],[128.73037,37.63406],[128.73051,37.63399],[128.73182,37.63289],[128.73255,37.63226],[128.73435,37.63055],[128.73542,37.62929],[128.73587,37.6286],[128.73603,37.62761],[128.73635,37.62348],[128.73617,37.62286],[128.73618,37.62205],[128.73627,37.6203],[128.73669,37.61755],[128.73719,37.61514],[128.73725,37.61431],[128.73729,37.61381],[128.7366,37.61013],[128.73654,37.60999],[128.73601,37.6096],[128.73593,37.60954],[128.73574,37.60941],[128.73495,37.60917],[128.73404,37.60903],[128.73337,37.609],[128.73188,37.609],[128.72983,37.60931],[128.7289,37.60948],[128.72834,37.60962],[128.72749,37.60973],[128.72563,37.60982],[128.7248,37.60979],[128.72439,37.6096],[128.72308,37.6087],[128.72032,37.60676],[128.71942,37.60605],[128.7183,37.60486],[128.71757,37.6037],[128.71703,37.60144],[128.71661,37.5996],[128.71647,37.59759],[128.71616,37.59367],[128.71584,37.59335],[128.71468,37.59277],[128.71397,37.59246],[128.71287,37.59182],[128.71243,37.59148],[128.7122,37.59123],[128.71199,37.5909],[128.71194,37.59063],[128.71192,37.59024],[128.71203,37.58987],[128.71207,37.58973],[128.71226,37.58887],[128.71196,37.58864],[128.70893,37.58853],[128.70747,37.58891],[128.70608,37.58933],[128.7049,37.58976],[128.7034,37.59061],[128.70318,37.59096],[128.70255,37.59159],[128.69957,37.5934],[128.69905,37.5936],[128.6985,37.59348],[128.69805,37.59319],[128.69712,37.59273],[128.69671,37.59257],[128.6962,37.5924],[128.69564,37.59236],[128.69256,37.59238],[128.68869,37.59294],[128.68747,37.59317],[128.68688,37.59344],[128.68658,37.59358],[128.68622,37.59376],[128.68595,37.5938],[128.68561,37.59381],[128.68515,37.59372],[128.68431,37.5934],[128.68375,37.59307],[128.68362,37.5929],[128.68319,37.59326],[128.68183,37.59436],[128.68026,37.59551],[128.67949,37.59589],[128.67713,37.59749],[128.6735,37.60016],[128.67133,37.60266],[128.67041,37.60384],[128.66995,37.60458],[128.6695,37.60467],[128.66905,37.60467],[128.66815,37.60439],[128.66689,37.60392],[128.66653,37.60372],[128.66609,37.60347],[128.66541,37.60325],[128.66426,37.60302],[128.66371,37.60294],[128.66337,37.60307],[128.66308,37.60339],[128.66279,37.60371],[128.6622,37.60422],[128.66174,37.60457],[128.65877,37.6052],[128.65714,37.60544],[128.65647,37.60543],[128.65589,37.60542],[128.65388,37.60543],[128.65228,37.60544],[128.65037,37.60563],[128.64948,37.60585],[128.64718,37.60673],[128.64461,37.60571],[128.6441,37.60529],[128.64342,37.60484],[128.64095,37.60394],[128.64037,37.60374],[128.63961,37.60369],[128.638,37.60389],[128.63759,37.60396],[128.63726,37.60401],[128.63679,37.60416],[128.63624,37.60433],[128.63594,37.60446],[128.63568,37.60457],[128.63441,37.60536],[128.63408,37.60571],[128.63369,37.6068],[128.63381,37.60746],[128.63398,37.6082],[128.63418,37.60867],[128.63438,37.60915],[128.63431,37.60996],[128.63421,37.61055],[128.63399,37.6119],[128.63388,37.61241],[128.63359,37.6125],[128.63291,37.61235],[128.63206,37.61227],[128.63168,37.61226],[128.6313,37.61226],[128.63052,37.61263],[128.62992,37.61332],[128.62965,37.61398],[128.62945,37.61504],[128.62705,37.61803],[128.62663,37.61852],[128.62589,37.61921],[128.62514,37.61942],[128.62482,37.61933],[128.62362,37.61872],[128.62238,37.61829],[128.62193,37.61822],[128.61959,37.61833],[128.61909,37.61837],[128.61866,37.61844],[128.61828,37.61867],[128.61349,37.62165],[128.6133,37.62178],[128.61309,37.62214],[128.61307,37.6225],[128.61308,37.62391],[128.61323,37.62419],[128.61349,37.62453],[128.6139,37.62513],[128.61409,37.62554],[128.61429,37.62604],[128.61499,37.6278],[128.61547,37.62973],[128.61536,37.63048],[128.61539,37.63109],[128.61551,37.63231],[128.61626,37.63604],[128.61638,37.6365],[128.6171,37.63701],[128.61742,37.63716],[128.6175,37.63752],[128.61759,37.63896],[128.61742,37.63933],[128.61717,37.63952],[128.61685,37.6397],[128.61592,37.64021],[128.61406,37.64144],[128.61261,37.64361],[128.61204,37.64457],[128.61176,37.64598],[128.61199,37.64648],[128.61295,37.64754],[128.61454,37.64946],[128.61527,37.65152],[128.61536,37.65345],[128.61514,37.65413],[128.61483,37.6547],[128.61444,37.65484],[128.61406,37.65499],[128.6135,37.65515],[128.61272,37.65562],[128.61194,37.65609],[128.61111,37.65692],[128.61074,37.65751],[128.6096,37.65869],[128.60587,37.66058],[128.60539,37.66063],[128.60336,37.66045],[128.60311,37.66041],[128.60287,37.66037],[128.60245,37.66011],[128.60243,37.65982],[128.60232,37.65919],[128.60185,37.65842],[128.60059,37.65773],[128.60008,37.65765],[128.59804,37.65752],[128.59028,37.65825],[128.59005,37.65837],[128.58981,37.65849],[128.58878,37.65934],[128.58715,37.66124],[128.58747,37.66167],[128.59297,37.66491],[128.5942,37.66537],[128.59543,37.66582],[128.59532,37.66841],[128.59531,37.66863],[128.59731,37.67094],[128.59787,37.67132],[128.59844,37.67174],[128.59913,37.6723],[128.6016,37.67458],[128.6059,37.67923],[128.60743,37.68119],[128.60794,37.68184],[128.60802,37.68198],[128.60824,37.68235],[128.60824,37.68324],[128.60828,37.68368],[128.60851,37.68569],[128.60896,37.68639],[128.6093,37.68672],[128.60952,37.68693],[128.61005,37.68728],[128.61081,37.68767],[128.6117,37.68759],[128.61218,37.68755],[128.61258,37.6875],[128.61299,37.68771],[128.61327,37.68796],[128.61458,37.68953],[128.61505,37.69052],[128.61254,37.69269],[128.61183,37.69321],[128.61118,37.69357],[128.61058,37.69385],[128.61007,37.69408],[128.60936,37.69429],[128.60882,37.69464],[128.60819,37.69551],[128.60786,37.69634],[128.60759,37.69741],[128.60702,37.69915],[128.60682,37.69961],[128.60526,37.70135],[128.60475,37.70169],[128.60416,37.70209],[128.60346,37.70252],[128.60305,37.70315],[128.603,37.70353],[128.60317,37.70434],[128.60389,37.70502],[128.6044,37.70539],[128.60481,37.70569],[128.60543,37.70757],[128.6058,37.70942],[128.60593,37.71216],[128.60628,37.71844],[128.60673,37.7221],[128.60653,37.72257],[128.60614,37.72313],[128.60607,37.7233],[128.60589,37.72458],[128.60614,37.72502],[128.6081,37.72729],[128.6084,37.72815],[128.60798,37.72892],[128.60759,37.72961],[128.60718,37.73058],[128.60717,37.73118],[128.60765,37.73283],[128.60837,37.7352],[128.60957,37.74009],[128.60992,37.74179],[128.60876,37.74316],[128.607,37.74502],[128.60644,37.74544],[128.6056,37.74744],[128.60565,37.74794],[128.60593,37.74861],[128.60571,37.74909],[128.60527,37.74944],[128.6041,37.74984],[128.60237,37.75011],[128.60057,37.75039],[128.59878,37.75091],[128.59846,37.75124],[128.5976,37.75429],[128.59717,37.75581],[128.59703,37.75743],[128.59717,37.76119],[128.59752,37.76215],[128.59788,37.76336],[128.59792,37.76351],[128.59793,37.76364],[128.59794,37.76372],[128.59782,37.76415],[128.59778,37.76425],[128.59775,37.76431],[128.59762,37.76453],[128.59739,37.7648],[128.59723,37.76491],[128.59708,37.76502],[128.59692,37.76514],[128.59685,37.7652],[128.59679,37.76524],[128.59674,37.76532],[128.59667,37.76543],[128.59665,37.76561],[128.59665,37.7661],[128.59695,37.77043],[128.59697,37.7705],[128.59737,37.77173],[128.59747,37.77204],[128.59763,37.77232],[128.59891,37.77411],[128.60073,37.77132],[128.60083,37.77116],[128.60094,37.77099],[128.60153,37.77012],[128.60167,37.76994],[128.60188,37.76969],[128.6022,37.76944],[128.60238,37.76934],[128.60287,37.7691],[128.6087,37.76621],[128.60877,37.76618],[128.60888,37.76616],[128.60898,37.76615],[128.60912,37.76616],[128.6093,37.7662],[128.60949,37.76628],[128.60967,37.76637],[128.60985,37.76647],[128.61165,37.76785],[128.61174,37.76794],[128.61183,37.76805],[128.61186,37.76823],[128.61191,37.76841],[128.61196,37.76857],[128.61203,37.76874],[128.61208,37.7688],[128.61386,37.77043],[128.6139,37.77045],[128.61402,37.77045],[128.61408,37.77044],[128.61432,37.77035],[128.61443,37.7703],[128.61455,37.77023],[128.61473,37.77012],[128.61656,37.76938],[128.62323,37.76965],[128.62337,37.76966],[128.62352,37.7697],[128.62374,37.76977],[128.62396,37.76984],[128.62419,37.76995],[128.62498,37.77037],[128.62509,37.77044],[128.62518,37.77055],[128.62523,37.77062],[128.62529,37.7707],[128.62589,37.77155],[128.62642,37.77232],[128.6267,37.77267],[128.62696,37.77292],[128.62714,37.77306],[128.62725,37.77307],[128.62744,37.77307],[128.62756,37.77305],[128.62812,37.77294],[128.62865,37.7728],[128.62896,37.77271],[128.62912,37.77268],[128.62925,37.77268],[128.62968,37.77271],[128.62973,37.77272],[128.62978,37.77275],[128.62989,37.77285],[128.63002,37.77301],[128.63007,37.77309],[128.63095,37.77459],[128.63105,37.77485],[128.63105,37.77493],[128.63115,37.77563],[128.63129,37.77649],[128.63132,37.77658],[128.63137,37.7767],[128.63322,37.77996],[128.63331,37.78009],[128.63339,37.78022],[128.63352,37.78034],[128.63448,37.78122],[128.6346,37.78132],[128.6347,37.7814],[128.63668,37.78247],[128.63671,37.78248],[128.63677,37.78249],[128.63893,37.78248],[128.63949,37.78035],[128.63953,37.78027],[128.64091,37.77913],[128.6433,37.77716],[128.64337,37.77713],[128.64368,37.77707],[128.64386,37.77704],[128.64854,37.77499],[128.65034,37.77374],[128.65547,37.77138],[128.65572,37.77129],[128.65611,37.77116],[128.66045,37.77059],[128.6658,37.77041],[128.66597,37.7704],[128.66612,37.77037],[128.66618,37.77035],[128.66722,37.76983],[128.66903,37.76867],[128.66915,37.76857],[128.66925,37.7685],[128.66948,37.76825],[128.66963,37.76807],[128.6697,37.76797],[128.66971,37.76789],[128.66973,37.76771],[128.66975,37.76766],[128.66984,37.76756],[128.66995,37.76749],[128.67054,37.76712],[128.67063,37.76707],[128.67072,37.76705],[128.67081,37.76704],[128.67097,37.76705],[128.67111,37.76708],[128.67122,37.76713],[128.67136,37.76722],[128.67358,37.7688],[128.67363,37.76884],[128.6739,37.7691],[128.67442,37.76959],[128.67458,37.76974],[128.67468,37.76988],[128.67471,37.76992],[128.67473,37.76995],[128.67476,37.77002],[128.67482,37.77026],[128.67487,37.77047],[128.67491,37.77071],[128.67491,37.77079],[128.67493,37.77089],[128.67494,37.77098],[128.67497,37.77104],[128.67505,37.77116],[128.67684,37.77315],[128.67692,37.77323],[128.67699,37.77327],[128.67707,37.77328],[128.67745,37.77328],[128.678,37.77329],[128.67854,37.77327],[128.68155,37.77315],[128.68626,37.77292],[128.68649,37.77291],[128.6868,37.77286],[128.68712,37.7728],[128.68744,37.77273],[128.68768,37.77264],[128.6879,37.77255],[128.68907,37.77192],[128.69076,37.77079],[128.69085,37.77072],[128.69188,37.76994],[128.69331,37.7698],[128.69634,37.77018],[128.69814,37.77062],[128.70018,37.77103],[128.70034,37.77101],[128.70055,37.77098],[128.70069,37.77094],[128.70762,37.76888],[128.70778,37.76881],[128.70854,37.76828],[128.71029,37.76681],[128.71041,37.76671],[128.71107,37.76586],[128.71112,37.76576],[128.71125,37.76551],[128.71141,37.76517],[128.71144,37.76508],[128.71144,37.76501],[128.71141,37.76496],[128.71132,37.76494],[128.7111,37.76491],[128.71104,37.7649],[128.711,37.76487],[128.71036,37.76423],[128.70982,37.76369],[128.70979,37.76365],[128.7098,37.7636],[128.70983,37.76355],[128.70999,37.76343],[128.71017,37.76331],[128.71051,37.76309],[128.71077,37.76294],[128.71131,37.76263],[128.71155,37.7625],[128.71181,37.76237],[128.71203,37.76229],[128.71216,37.76227],[128.71331,37.76213]]]]}}]}