{"type":"FeatureCollection","features":[{"type":"Feature","properties":{"code":"52130250","name":"옥구읍","parent":"52130"},"geometry":{"type":"MultiPolygon","coordinates":[[[[126.70935,35.94287],[126.70952,35.94266],[126.70954,35.94263],[126.70966,35.94249],[126.70966,35.94185],[126.70967,35.94035],[126.70959,35.93976],[126.70949,35.93903],[126.7096,35.93829],[126.7102,35.93698],[126.71261,35.93393],[126.71489,35.93103],[126.71662,35.9286],[126.71774,35.92803],[126.71824,35.9278],[126.72074,35.92844],[126.72106,35.92845],[126.72397,35.92855],[126.72647,35.92853],[126.72821,35.93012],[126.72845,35.93029],[126.72874,35.93035],[126.72938,35.93034],[126.72942,35.9285],[126.7295,35.92243],[126.7295,35.91996],[126.7295,35.91981],[126.72952,35.9184],[126.72961,35.91622],[126.72979,35.91139],[126.72988,35.90582],[126.72682,35.90354],[126.72573,35.90433],[126.72387,35.90534],[126.72403,35.903],[126.72474,35.90194],[126.72167,35.90179],[126.71979,35.90178],[126.71971,35.90178],[126.71919,35.90149],[126.71857,35.90072],[126.71827,35.90005],[126.71826,35.90002],[126.71787,35.89936],[126.71605,35.8991],[126.7149,35.89921],[126.71512,35.89577],[126.71583,35.89544],[126.71464,35.89291],[126.71363,35.89049],[126.71313,35.88927],[126.71248,35.88969],[126.69913,35.89374],[126.68989,35.89409],[126.67809,35.8946],[126.67639,35.89466],[126.67588,35.89453],[126.67563,35.89432],[126.67504,35.89361],[126.67489,35.88914],[126.67456,35.88888],[126.6711,35.88611],[126.66767,35.88343],[126.66243,35.88347],[126.66146,35.88384],[126.66074,35.88421],[126.66016,35.88442],[126.65865,35.88467],[126.65426,35.88461],[126.65051,35.88412],[126.65249,35.88527],[126.65657,35.89376],[126.65687,35.89439],[126.65897,35.89865],[126.66033,35.89824],[126.66073,35.89907],[126.65914,35.89958],[126.65256,35.90166],[126.65172,35.90189],[126.651,35.90199],[126.65041,35.90201],[126.65012,35.90214],[126.65011,35.90296],[126.6501,35.90441],[126.6501,35.90496],[126.65012,35.91367],[126.65014,35.91678],[126.65018,35.91805],[126.65061,35.93065],[126.65528,35.92954],[126.66159,35.92833],[126.66707,35.92754],[126.66746,35.92751],[126.6675,35.92751],[126.67377,35.92715],[126.67664,35.92733],[126.67934,35.93003],[126.67951,35.93098],[126.68037,35.93338],[126.68049,35.9337],[126.68082,35.93378],[126.68133,35.93382],[126.68181,35.93379],[126.68277,35.93381],[126.6882,35.93405],[126.68873,35.93461],[126.68933,35.93546],[126.68962,35.93593],[126.69005,35.93676],[126.69156,35.9375],[126.69403,35.93836],[126.69428,35.93844],[126.69458,35.93847],[126.69565,35.93824],[126.69588,35.93819],[126.69737,35.93913],[126.69747,35.93919],[126.70121,35.94198],[126.7016,35.94266],[126.70661,35.94318],[126.70935,35.94287]]]]}},{"type":"Feature","properties":{"code":"52130310","name":"옥산면","parent":"52130"},"geometry":{"type":"MultiPolygon","coordinates":[[[[126.76859,35.955],[126.7683,35.95214],[126.76901,35.94796],[126.7693,35.94769],[126.76982,35.94705],[126.76991,35.94692],[126.77096,35.94536],[126.77133,35.94471],[126.77195,35.94301],[126.77202,35.94257],[126.77186,35.94236],[126.77177,35.94225],[126.77217,35.94145],[126.77223,35.94135],[126.77232,35.94122],[126.77242,35.94109],[126.77259,35.94091],[126.77384,35.93972],[126.7737,35.93748],[126.77447,35.93435],[126.77432,35.93351],[126.77415,35.93327],[126.77215,35.93239],[126.76522,35.9323],[126.76251,35.93262],[126.76034,35.93337],[126.7579,35.93237],[126.75787,35.93233],[126.75783,35.93231],[126.75608,35.93166],[126.75601,35.93166],[126.75559,35.93166],[126.75556,35.93167],[126.75552,35.93167],[126.75537,35.93171],[126.75528,35.93173],[126.75418,35.93212],[126.75126,35.9338],[126.75107,35.9339],[126.7483,35.93499],[126.74797,35.93505],[126.74778,35.93507],[126.74774,35.93502],[126.74769,35.93493],[126.74762,35.9341],[126.74762,35.93365],[126.74783,35.93277],[126.74786,35.93266],[126.74793,35.93248],[126.74802,35.93238],[126.74814,35.93225],[126.74827,35.93209],[126.74831,35.93201],[126.74834,35.93194],[126.74834,35.93188],[126.74829,35.93132],[126.74824,35.9311],[126.74817,35.9309],[126.74636,35.9302],[126.74525,35.93029],[126.7442,35.93037],[126.74402,35.93039],[126.74299,35.92846],[126.74187,35.92672],[126.74055,35.9259],[126.7404,35.92571],[126.74036,35.92556],[126.74031,35.92536],[126.74028,35.92488],[126.74135,35.92059],[126.74191,35.92023],[126.74257,35.92005],[126.74265,35.91944],[126.74259,35.91744],[126.74247,35.9172],[126.74085,35.9142],[126.73905,35.914],[126.7354,35.91502],[126.73071,35.91899],[126.7295,35.91996],[126.7295,35.92243],[126.72942,35.9285],[126.72938,35.93034],[126.72874,35.93035],[126.72845,35.93029],[126.72821,35.93012],[126.72647,35.92853],[126.72397,35.92855],[126.72106,35.92845],[126.72074,35.92844],[126.71824,35.9278],[126.71774,35.92803],[126.71662,35.9286],[126.71489,35.93103],[126.71261,35.93393],[126.7102,35.93698],[126.7096,35.93829],[126.70949,35.93903],[126.70959,35.93976],[126.70967,35.94035],[126.70966,35.94185],[126.70966,35.94249],[126.70954,35.94263],[126.70952,35.94266],[126.70935,35.94287],[126.71029,35.94456],[126.71392,35.94962],[126.71455,35.95322],[126.71459,35.95322],[126.71845,35.95318],[126.71847,35.95522],[126.72137,35.95525],[126.72404,35.95527],[126.7241,35.95527],[126.72414,35.95527],[126.7253,35.9553],[126.72545,35.95578],[126.7253,35.95665],[126.72529,35.95671],[126.72528,35.95677],[126.73286,35.95891],[126.73569,35.95895],[126.73656,35.95736],[126.73715,35.95721],[126.74103,35.95756],[126.74218,35.95767],[126.74286,35.95755],[126.74545,35.95662],[126.75128,35.95536],[126.75455,35.95475],[126.7586,35.95469],[126.76095,35.95465],[126.76208,35.95476],[126.76859,35.955]]]]}},{"type":"Feature","properties":{"code":"52130320","name":"회현면","parent":"52130"},"geometry":{"type":"MultiPolygon","coordinates":[[[[126.78536,35.93442],[126.78496,35.9325],[126.78689,35.92395],[126.79812,35.91629],[126.79979,35.91597],[126.80072,35.91641],[126.80095,35.91639],[126.80271,35.91625],[126.80416,35.9137],[126.80599,35.90997],[126.80688,35.90814],[126.80519,35.90806],[126.79895,35.90688],[126.79441,35.90573],[126.79118,35.90483],[126.7861,35.90313],[126.78494,35.90268],[126.78415,35.90237],[126.77771,35.89641],[126.77498,35.89329],[126.77127,35.88976],[126.76999,35.88901],[126.76627,35.88949],[126.76343,35.89035],[126.76305,35.89147],[126.75688,35.89113],[126.7508,35.89072],[126.7497,35.89064],[126.74175,35.89003],[126.73931,35.89064],[126.73678,35.89144],[126.73634,35.89157],[126.73284,35.89035],[126.73181,35.8898],[126.73016,35.88892],[126.72888,35.88756],[126.7267,35.88616],[126.725,35.88577],[126.71313,35.88927],[126.71363,35.89049],[126.71464,35.89291],[126.71583,35.89544],[126.71512,35.89577],[126.7149,35.89921],[126.71605,35.8991],[126.71787,35.89936],[126.71826,35.90002],[126.71827,35.90005],[126.71857,35.90072],[126.71919,35.90149],[126.71971,35.90178],[126.71979,35.90178],[126.72167,35.90179],[126.72474,35.90194],[126.72403,35.903],[126.72387,35.90534],[126.72573,35.90433],[126.72682,35.90354],[126.72988,35.90582],[126.72979,35.91139],[126.72961,35.91622],[126.72952,35.9184],[126.7295,35.91981],[126.7295,35.91996],[126.73071,35.91899],[126.7354,35.91502],[126.73905,35.914],[126.74085,35.9142],[126.74247,35.9172],[126.74259,35.91744],[126.74265,35.91944],[126.74257,35.92005],[126.74191,35.92023],[126.74135,35.92059],[126.74028,35.92488],[126.74031,35.92536],[126.74036,35.92556],[126.7404,35.92571],[126.74055,35.9259],[126.74187,35.92672],[126.74299,35.92846],[126.74402,35.93039],[126.7442,35.93037],[126.74525,35.93029],[126.74636,35.9302],[126.74817,35.9309],[126.74824,35.9311],[126.74829,35.93132],[126.74834,35.93188],[126.74834,35.93194],[126.74831,35.93201],[126.74827,35.93209],[126.74814,35.93225],[126.74802,35.93238],[126.74793,35.93248],[126.74786,35.93266],[126.74783,35.93277],[126.74762,35.93365],[126.74762,35.9341],[126.74769,35.93493],[126.74774,35.93502],[126.74778,35.93507],[126.74797,35.93505],[126.7483,35.93499],[126.75107,35.9339],[126.75126,35.9338],[126.75418,35.93212],[126.75528,35.93173],[126.75537,35.93171],[126.75552,35.93167],[126.75556,35.93167],[126.75559,35.93166],[126.75601,35.93166],[126.75608,35.93166],[126.75783,35.93231],[126.75787,35.93233],[126.7579,35.93237],[126.76034,35.93337],[126.76251,35.93262],[126.76522,35.9323],[126.77215,35.93239],[126.77415,35.93327],[126.77432,35.93351],[126.77447,35.93435],[126.7737,35.93748],[126.77384,35.93972],[126.77583,35.93816],[126.77698,35.9375],[126.77717,35.93739],[126.77906,35.93673],[126.78011,35.9364],[126.78079,35.93617],[126.7811,35.93602],[126.78136,35.93582],[126.78234,35.93496],[126.78261,35.93475],[126.78422,35.93526],[126.78536,35.93442]]]]}},{"type":"Feature","properties":{"code":"52130330","name":"임피면","parent":"52130"},"geometry":{"type":"MultiPolygon","coordinates":[[[[126.84367,36.00641],[126.84475,36.00573],[126.84483,36.00564],[126.84499,36.00548],[126.84501,36.00469],[126.84745,36.00132],[126.85353,35.99839],[126.85519,35.99763],[126.85593,35.99768],[126.85649,35.99767],[126.85841,35.99754],[126.86359,35.99463],[126.86727,35.99317],[126.86568,35.9874],[126.86543,35.98672],[126.86203,35.98257],[126.85875,35.97998],[126.85719,35.97882],[126.8572,35.97861],[126.85865,35.97725],[126.85885,35.97697],[126.85863,35.97668],[126.85802,35.97612],[126.857,35.97582],[126.85598,35.97536],[126.85582,35.97528],[126.85566,35.9752],[126.85591,35.97401],[126.85694,35.97358],[126.85845,35.97355],[126.85964,35.97384],[126.86053,35.97396],[126.86357,35.97438],[126.86509,35.97453],[126.87001,35.97453],[126.87407,35.97405],[126.87586,35.97388],[126.87752,35.97515],[126.88071,35.97639],[126.88313,35.97701],[126.88364,35.97712],[126.88464,35.97696],[126.88533,35.97645],[126.88607,35.97588],[126.88818,35.97733],[126.88946,35.97794],[126.89608,35.98008],[126.90026,35.98095],[126.90777,35.98338],[126.90919,35.98354],[126.90947,35.98191],[126.90464,35.97998],[126.90226,35.97863],[126.90227,35.97798],[126.90241,35.97687],[126.90261,35.97512],[126.90293,35.9723],[126.90295,35.97216],[126.90293,35.97208],[126.9029,35.97205],[126.89976,35.97092],[126.89409,35.96691],[126.8882,35.96285],[126.88623,35.96151],[126.88521,35.96085],[126.88517,35.96081],[126.88517,35.96076],[126.88541,35.96027],[126.88583,35.95969],[126.88685,35.95948],[126.88764,35.95933],[126.88864,35.95916],[126.89057,35.95872],[126.89098,35.95854],[126.8913,35.9583],[126.89374,35.95512],[126.89374,35.95506],[126.8921,35.95381],[126.89184,35.95364],[126.89181,35.95362],[126.89095,35.95306],[126.89034,35.95268],[126.88335,35.95446],[126.88199,35.95481],[126.88031,35.95274],[126.88011,35.95244],[126.87999,35.95221],[126.87982,35.95187],[126.87958,35.95128],[126.87914,35.95016],[126.87906,35.95004],[126.87126,35.95193],[126.86716,35.95083],[126.86449,35.94916],[126.86199,35.95054],[126.85897,35.95221],[126.85233,35.95179],[126.85022,35.95144],[126.85011,35.95143],[126.84943,35.95141],[126.84845,35.95216],[126.84792,35.95256],[126.84766,35.95275],[126.84276,35.95337],[126.83737,35.9519],[126.83723,35.95178],[126.83568,35.95156],[126.8329,35.95186],[126.83263,35.9519],[126.8326,35.95313],[126.83335,35.95531],[126.83401,35.95724],[126.83437,35.95828],[126.83403,35.9618],[126.83354,35.96692],[126.8341,35.96903],[126.83456,35.97081],[126.83502,35.97205],[126.83353,35.97527],[126.8325,35.97609],[126.83198,35.97651],[126.83286,35.97734],[126.83319,35.97762],[126.8335,35.97788],[126.83388,35.97796],[126.83433,35.97803],[126.83432,35.97805],[126.83396,35.97878],[126.83232,35.98152],[126.83155,35.98181],[126.82992,35.98197],[126.82858,35.98442],[126.83199,35.98982],[126.8328,35.99139],[126.8332,35.99168],[126.83483,35.99319],[126.84042,35.99849],[126.84048,35.99859],[126.84119,35.99987],[126.84121,35.99996],[126.84097,36.00312],[126.84095,36.00321],[126.84088,36.00333],[126.84073,36.00348],[126.84053,36.0037],[126.84047,36.00378],[126.84045,36.00393],[126.84051,36.00427],[126.84061,36.00483],[126.84064,36.00496],[126.84066,36.00498],[126.84161,36.00581],[126.84275,36.00637],[126.84292,36.00642],[126.84317,36.00649],[126.84341,36.0065],[126.84356,36.00649],[126.84363,36.00645],[126.84367,36.00641]]]]}},{"type":"Feature","properties":{"code":"52130340","name":"서수면","parent":"52130"},"geometry":{"type":"MultiPolygon","coordinates":[[[[126.91479,36.00435],[126.91548,36.00131],[126.91551,36.00114],[126.91551,36.00093],[126.91532,35.9979],[126.91527,35.99723],[126.91522,35.99676],[126.91511,35.99639],[126.91489,35.99566],[126.91414,35.99343],[126.91399,35.993],[126.91324,35.99098],[126.91315,35.99078],[126.91294,35.99037],[126.91278,35.99013],[126.91226,35.98949],[126.91201,35.98922],[126.91181,35.9891],[126.9106,35.98844],[126.90906,35.98759],[126.90857,35.9873],[126.90836,35.98713],[126.90827,35.98704],[126.90821,35.98693],[126.90816,35.98654],[126.90783,35.98423],[126.90777,35.98338],[126.90026,35.98095],[126.89608,35.98008],[126.88946,35.97794],[126.88818,35.97733],[126.88607,35.97588],[126.88533,35.97645],[126.88464,35.97696],[126.88364,35.97712],[126.88313,35.97701],[126.88071,35.97639],[126.87752,35.97515],[126.87586,35.97388],[126.87407,35.97405],[126.87001,35.97453],[126.86509,35.97453],[126.86357,35.97438],[126.86053,35.97396],[126.85964,35.97384],[126.85845,35.97355],[126.85694,35.97358],[126.85591,35.97401],[126.85566,35.9752],[126.85582,35.97528],[126.85598,35.97536],[126.857,35.97582],[126.85802,35.97612],[126.85863,35.97668],[126.85885,35.97697],[126.85865,35.97725],[126.8572,35.97861],[126.85719,35.97882],[126.85875,35.97998],[126.86203,35.98257],[126.86543,35.98672],[126.86568,35.9874],[126.86727,35.99317],[126.86359,35.99463],[126.85841,35.99754],[126.85649,35.99767],[126.85593,35.99768],[126.85519,35.99763],[126.85353,35.99839],[126.84745,36.00132],[126.84501,36.00469],[126.84499,36.00548],[126.84483,36.00564],[126.84475,36.00573],[126.84367,36.00641],[126.84376,36.00751],[126.84514,36.01125],[126.84567,36.01221],[126.84378,36.01436],[126.84341,36.01456],[126.84316,36.01478],[126.84129,36.01652],[126.84024,36.0187],[126.84024,36.01873],[126.84284,36.01983],[126.84376,36.02015],[126.84403,36.02022],[126.84925,36.0206],[126.85356,36.02037],[126.85362,36.02036],[126.85464,36.0194],[126.85488,36.01916],[126.85592,36.01829],[126.8628,36.01672],[126.86512,36.01682],[126.86516,36.01682],[126.86524,36.01683],[126.86541,36.01688],[126.86567,36.01699],[126.86596,36.01712],[126.86652,36.01737],[126.86658,36.01744],[126.86795,36.01963],[126.86812,36.01992],[126.86818,36.02004],[126.86823,36.02017],[126.86823,36.02033],[126.86822,36.02044],[126.86819,36.0206],[126.86814,36.02084],[126.86808,36.021],[126.86805,36.02107],[126.868,36.02111],[126.86794,36.02116],[126.86781,36.02121],[126.86774,36.02126],[126.8675,36.02142],[126.86738,36.02153],[126.86732,36.02162],[126.86691,36.02235],[126.86688,36.0224],[126.86687,36.02248],[126.86686,36.02258],[126.8669,36.02269],[126.86736,36.02363],[126.86742,36.02373],[126.86869,36.02558],[126.86875,36.02564],[126.86879,36.02567],[126.86948,36.02605],[126.86971,36.02618],[126.86996,36.02625],[126.87031,36.0263],[126.87048,36.02632],[126.87053,36.02633],[126.87065,36.02634],[126.87072,36.02636],[126.87076,36.02638],[126.8708,36.02644],[126.87137,36.02732],[126.87142,36.0274],[126.87145,36.02744],[126.87147,36.02754],[126.87148,36.0276],[126.87147,36.02872],[126.87146,36.0289],[126.87139,36.02904],[126.87122,36.02931],[126.87102,36.02962],[126.87096,36.0297],[126.86964,36.03085],[126.8703,36.03283],[126.87167,36.03278],[126.87385,36.03105],[126.87898,36.02899],[126.88401,36.02612],[126.88423,36.02594],[126.88537,36.02476],[126.88551,36.02455],[126.88501,36.02359],[126.89066,36.01744],[126.89353,36.01533],[126.896,36.01392],[126.89623,36.01384],[126.89636,36.01378],[126.89646,36.0137],[126.89657,36.0136],[126.89807,36.01207],[126.89852,36.0116],[126.89874,36.01134],[126.8992,36.01076],[126.90056,36.00877],[126.90101,36.00786],[126.90855,36.00642],[126.913,36.00569],[126.91336,36.00568],[126.91368,36.00557],[126.91448,36.00491],[126.91458,36.00477],[126.91479,36.00435]]]]}},{"type":"Feature","properties":{"code":"52130350","name":"대야면","parent":"52130"},"geometry":{"type":"MultiPolygon","coordinates":[[[[126.89034,35.95268],[126.88722,35.9507],[126.88557,35.94965],[126.88405,35.94867],[126.88183,35.94725],[126.88062,35.94441],[126.8806,35.94427],[126.88095,35.94415],[126.8813,35.94407],[126.88238,35.94383],[126.8824,35.94381],[126.8823,35.94324],[126.88165,35.93984],[126.88153,35.93938],[126.88143,35.93908],[126.88133,35.93889],[126.88117,35.9386],[126.88098,35.93832],[126.87917,35.93574],[126.87859,35.93495],[126.87719,35.93327],[126.87703,35.93319],[126.87442,35.93132],[126.87036,35.92804],[126.86965,35.92744],[126.8691,35.92697],[126.86611,35.92439],[126.86602,35.9243],[126.86598,35.92426],[126.8655,35.9236],[126.86542,35.92347],[126.86534,35.92334],[126.86464,35.92215],[126.8615,35.91942],[126.86105,35.91904],[126.86076,35.91889],[126.85602,35.91703],[126.85583,35.91696],[126.85562,35.9169],[126.85525,35.91682],[126.85487,35.91676],[126.85394,35.91662],[126.8536,35.91679],[126.85339,35.91735],[126.85327,35.9176],[126.85312,35.91782],[126.85276,35.9183],[126.85234,35.91877],[126.85211,35.91898],[126.85186,35.91918],[126.85165,35.91934],[126.85143,35.91949],[126.85124,35.9196],[126.85106,35.91969],[126.85051,35.91992],[126.84994,35.92011],[126.84959,35.9202],[126.84923,35.92027],[126.84899,35.92031],[126.8487,35.92032],[126.84838,35.92032],[126.84803,35.9203],[126.84787,35.92029],[126.84749,35.92021],[126.84621,35.91925],[126.84491,35.91734],[126.84487,35.91727],[126.84397,35.91638],[126.84299,35.91539],[126.84286,35.91528],[126.84181,35.91438],[126.84036,35.91327],[126.83985,35.91299],[126.83728,35.91156],[126.83193,35.90877],[126.82812,35.90678],[126.82324,35.90761],[126.81928,35.90814],[126.81383,35.9081],[126.80914,35.90843],[126.80688,35.90814],[126.80599,35.90997],[126.80416,35.9137],[126.80271,35.91625],[126.80095,35.91639],[126.80072,35.91641],[126.79979,35.91597],[126.79812,35.91629],[126.78689,35.92395],[126.78496,35.9325],[126.78536,35.93442],[126.80329,35.9402],[126.80351,35.94027],[126.80355,35.94085],[126.80359,35.94137],[126.80365,35.94199],[126.80369,35.94254],[126.80366,35.9431],[126.8036,35.94442],[126.8036,35.94452],[126.80371,35.94474],[126.80413,35.94561],[126.80521,35.94568],[126.80669,35.94579],[126.80719,35.94643],[126.80815,35.95117],[126.80818,35.95345],[126.80758,35.95633],[126.80708,35.95799],[126.80615,35.95996],[126.80662,35.96235],[126.80696,35.96402],[126.80731,35.9658],[126.80623,35.96841],[126.80471,35.97093],[126.80584,35.97189],[126.80978,35.97134],[126.81175,35.97141],[126.81307,35.97151],[126.81543,35.97189],[126.81615,35.972],[126.81804,35.97176],[126.81941,35.97087],[126.82051,35.97074],[126.82054,35.97074],[126.82135,35.97083],[126.82261,35.972],[126.8231,35.97329],[126.82335,35.97348],[126.82536,35.97397],[126.82678,35.97404],[126.8286,35.97471],[126.83073,35.97574],[126.83198,35.97651],[126.8325,35.97609],[126.83353,35.97527],[126.83502,35.97205],[126.83456,35.97081],[126.8341,35.96903],[126.83354,35.96692],[126.83403,35.9618],[126.83437,35.95828],[126.83401,35.95724],[126.83335,35.95531],[126.8326,35.95313],[126.83263,35.9519],[126.8329,35.95186],[126.83568,35.95156],[126.83723,35.95178],[126.83737,35.9519],[126.84276,35.95337],[126.84766,35.95275],[126.84792,35.95256],[126.84845,35.95216],[126.84943,35.95141],[126.85011,35.95143],[126.85022,35.95144],[126.85233,35.95179],[126.85897,35.95221],[126.86199,35.95054],[126.86449,35.94916],[126.86716,35.95083],[126.87126,35.95193],[126.87906,35.95004],[126.87914,35.95016],[126.87958,35.95128],[126.87982,35.95187],[126.87999,35.95221],[126.88011,35.95244],[126.88031,35.95274],[126.88199,35.95481],[126.88335,35.95446],[126.89034,35.95268]]]]}},{"type":"Feature","properties":{"code":"52130360","name":"개정면","parent":"52130"},"geometry":{"type":"MultiPolygon","coordinates":[[[[126.80584,35.97189],[126.80471,35.97093],[126.80623,35.96841],[126.80731,35.9658],[126.80696,35.96402],[126.80662,35.96235],[126.80615,35.95996],[126.80708,35.95799],[126.80758,35.95633],[126.80818,35.95345],[126.80815,35.95117],[126.80719,35.94643],[126.80669,35.94579],[126.80521,35.94568],[126.80413,35.94561],[126.80371,35.94474],[126.8036,35.94452],[126.8036,35.94442],[126.80366,35.9431],[126.80369,35.94254],[126.80365,35.94199],[126.80359,35.94137],[126.80355,35.94085],[126.80351,35.94027],[126.80329,35.9402],[126.78536,35.93442],[126.78422,35.93526],[126.78261,35.93475],[126.78234,35.93496],[126.78136,35.93582],[126.7811,35.93602],[126.78079,35.93617],[126.78011,35.9364],[126.77906,35.93673],[126.77717,35.93739],[126.77698,35.9375],[126.77583,35.93816],[126.77384,35.93972],[126.77259,35.94091],[126.77242,35.94109],[126.77232,35.94122],[126.77223,35.94135],[126.77217,35.94145],[126.77177,35.94225],[126.77186,35.94236],[126.77202,35.94257],[126.77195,35.94301],[126.77133,35.94471],[126.77096,35.94536],[126.76991,35.94692],[126.76982,35.94705],[126.7693,35.94769],[126.76901,35.94796],[126.7683,35.95214],[126.76859,35.955],[126.76864,35.955],[126.76866,35.95502],[126.76867,35.95507],[126.76873,35.95544],[126.76897,35.95713],[126.76964,35.96191],[126.76883,35.96223],[126.76821,35.96244],[126.76801,35.96251],[126.76734,35.9633],[126.76688,35.96449],[126.76668,35.96573],[126.76659,35.96684],[126.7666,35.9678],[126.76661,35.96827],[126.76665,35.96843],[126.76672,35.96862],[126.76681,35.96875],[126.76693,35.96886],[126.76706,35.96892],[126.76768,35.96921],[126.76806,35.96939],[126.7682,35.9695],[126.76921,35.97129],[126.76924,35.97137],[126.76819,35.97213],[126.76684,35.97321],[126.7668,35.9733],[126.76653,35.97429],[126.76654,35.97439],[126.7666,35.97446],[126.76728,35.97491],[126.76768,35.97516],[126.76786,35.9753],[126.76795,35.97538],[126.76794,35.97612],[126.76793,35.97621],[126.76787,35.9769],[126.76515,35.97893],[126.76352,35.97991],[126.76339,35.97999],[126.76331,35.98006],[126.76328,35.9801],[126.76325,35.98017],[126.76326,35.98026],[126.7633,35.98043],[126.76148,35.98341],[126.76145,35.98347],[126.76143,35.98353],[126.76143,35.9836],[126.76144,35.98375],[126.76171,35.98512],[126.76181,35.9856],[126.76187,35.98578],[126.76202,35.98623],[126.76216,35.98653],[126.76232,35.98683],[126.76235,35.98685],[126.76239,35.98687],[126.76247,35.98688],[126.76254,35.98689],[126.76272,35.98692],[126.76296,35.98698],[126.76334,35.98709],[126.76361,35.98717],[126.76376,35.98724],[126.76385,35.98729],[126.76392,35.98737],[126.76484,35.98861],[126.76488,35.98869],[126.76489,35.98876],[126.76501,35.99043],[126.76744,35.98948],[126.7679,35.98942],[126.7697,35.98866],[126.76973,35.98865],[126.77031,35.98804],[126.7704,35.98794],[126.77059,35.98768],[126.77075,35.98744],[126.77094,35.98715],[126.77115,35.98681],[126.77074,35.98637],[126.77087,35.98551],[126.77159,35.98437],[126.77164,35.98433],[126.77561,35.98113],[126.77578,35.98103],[126.77596,35.981],[126.77616,35.98101],[126.77722,35.98118],[126.77744,35.98124],[126.77957,35.98111],[126.78462,35.98029],[126.78952,35.9794],[126.78981,35.97935],[126.79094,35.97926],[126.79151,35.97921],[126.79345,35.97981],[126.79448,35.98013],[126.79615,35.98058],[126.79742,35.98076],[126.79841,35.98065],[126.80017,35.97991],[126.80031,35.97983],[126.80495,35.97659],[126.80561,35.9737],[126.80584,35.97189]]]]}},{"type":"Feature","properties":{"code":"52130370","name":"성산면","parent":"52130"},"geometry":{"type":"MultiPolygon","coordinates":[[[[126.78822,36.03068],[126.78836,36.02797],[126.788,36.0258],[126.78794,36.02564],[126.78719,36.02377],[126.78713,36.02365],[126.78697,36.02348],[126.78687,36.02339],[126.78678,36.02333],[126.78639,36.02308],[126.78626,36.02295],[126.786,36.02269],[126.7859,36.02254],[126.78573,36.02219],[126.78561,36.02186],[126.7854,36.02112],[126.78473,36.01713],[126.7847,36.01682],[126.78471,36.01676],[126.78473,36.01672],[126.78484,36.01667],[126.78497,36.01665],[126.78542,36.0167],[126.78575,36.01672],[126.78629,36.01675],[126.78659,36.01675],[126.78674,36.01673],[126.78678,36.01673],[126.78697,36.01665],[126.78722,36.01651],[126.78996,36.01489],[126.7919,36.01323],[126.79199,36.01312],[126.79259,36.01253],[126.79291,36.01231],[126.79344,36.01197],[126.79351,36.01196],[126.79354,36.01196],[126.79361,36.01197],[126.79368,36.012],[126.79371,36.01202],[126.79383,36.01209],[126.79456,36.0126],[126.79594,36.01364],[126.79602,36.01372],[126.79691,36.01498],[126.79651,36.01625],[126.79687,36.01627],[126.79772,36.01631],[126.79944,36.01627],[126.79962,36.01627],[126.80068,36.01623],[126.80189,36.016],[126.80228,36.01587],[126.80255,36.01576],[126.80629,36.01406],[126.80628,36.01351],[126.80618,36.01339],[126.80608,36.0132],[126.80601,36.01287],[126.806,36.01254],[126.806,36.01226],[126.80604,36.01212],[126.80607,36.01204],[126.80655,36.01067],[126.80664,36.01051],[126.80762,36.00997],[126.80777,36.00991],[126.80794,36.00988],[126.80811,36.00988],[126.80827,36.00986],[126.80856,36.00982],[126.80899,36.00971],[126.80915,36.00964],[126.80935,36.00952],[126.81024,36.00854],[126.81147,36.00717],[126.81221,36.00625],[126.81417,36.00421],[126.81424,36.00416],[126.81435,36.00413],[126.81453,36.00411],[126.81466,36.00412],[126.81487,36.00413],[126.81501,36.00417],[126.81514,36.00422],[126.81544,36.00447],[126.81662,36.00568],[126.81674,36.00581],[126.81683,36.00601],[126.8168,36.00632],[126.81679,36.00655],[126.81682,36.00662],[126.81687,36.0067],[126.81695,36.00676],[126.81716,36.0069],[126.81739,36.00705],[126.81909,36.00783],[126.81927,36.00789],[126.81989,36.00698],[126.82036,36.00628],[126.82056,36.00598],[126.82066,36.00581],[126.82067,36.0056],[126.82066,36.00534],[126.82048,36.00442],[126.82037,36.00388],[126.82024,36.0031],[126.82031,36.00298],[126.82293,36.00253],[126.82599,35.99871],[126.826,35.99868],[126.82597,35.99861],[126.82563,35.99806],[126.82558,35.99801],[126.82574,35.99734],[126.82702,35.99601],[126.82721,35.99583],[126.82792,35.99517],[126.83215,35.99153],[126.83242,35.99141],[126.8328,35.99139],[126.83199,35.98982],[126.82858,35.98442],[126.82992,35.98197],[126.83155,35.98181],[126.83232,35.98152],[126.83396,35.97878],[126.83432,35.97805],[126.83433,35.97803],[126.83388,35.97796],[126.8335,35.97788],[126.83319,35.97762],[126.83286,35.97734],[126.83198,35.97651],[126.83073,35.97574],[126.8286,35.97471],[126.82678,35.97404],[126.82536,35.97397],[126.82335,35.97348],[126.8231,35.97329],[126.82261,35.972],[126.82135,35.97083],[126.82054,35.97074],[126.82051,35.97074],[126.81941,35.97087],[126.81804,35.97176],[126.81615,35.972],[126.81543,35.97189],[126.81307,35.97151],[126.81175,35.97141],[126.80978,35.97134],[126.80584,35.97189],[126.80561,35.9737],[126.80495,35.97659],[126.80031,35.97983],[126.80017,35.97991],[126.79841,35.98065],[126.79742,35.98076],[126.79615,35.98058],[126.79448,35.98013],[126.79345,35.97981],[126.79151,35.97921],[126.79094,35.97926],[126.78981,35.97935],[126.78952,35.9794],[126.78462,35.98029],[126.77957,35.98111],[126.77744,35.98124],[126.77722,35.98118],[126.77616,35.98101],[126.77596,35.981],[126.77578,35.98103],[126.77561,35.98113],[126.77164,35.98433],[126.77159,35.98437],[126.77087,35.98551],[126.77074,35.98637],[126.77115,35.98681],[126.77094,35.98715],[126.77075,35.98744],[126.77059,35.98768],[126.7704,35.98794],[126.77031,35.98804],[126.76973,35.98865],[126.7697,35.98866],[126.7679,35.98942],[126.76744,35.98948],[126.76501,35.99043],[126.7646,35.99122],[126.76436,35.99482],[126.76634,35.99572],[126.76774,35.99604],[126.76816,35.99593],[126.76866,35.9961],[126.76919,35.99638],[126.76963,35.99668],[126.76995,35.99695],[126.77001,35.99743],[126.76981,35.99805],[126.76942,35.99876],[126.76908,35.99964],[126.76912,36.00005],[126.76926,36.0004],[126.76948,36.00086],[126.76994,36.0014],[126.77038,36.00176],[126.76987,36.00329],[126.76924,36.00555],[126.7697,36.00654],[126.77046,36.00967],[126.77045,36.0097],[126.7703,36.00995],[126.76943,36.01028],[126.76909,36.01033],[126.76889,36.01026],[126.76858,36.01003],[126.76828,36.00978],[126.768,36.0095],[126.76784,36.00919],[126.7677,36.00891],[126.7674,36.00852],[126.76703,36.00809],[126.76484,36.00641],[126.76453,36.00645],[126.76398,36.00662],[126.76295,36.00703],[126.76275,36.00723],[126.76259,36.00755],[126.76235,36.00799],[126.76208,36.00827],[126.7615,36.00862],[126.7593,36.00966],[126.75913,36.00967],[126.75891,36.00961],[126.75831,36.0088],[126.74916,36.01304],[126.7448,36.01814],[126.74739,36.02174],[126.74868,36.02354],[126.7498,36.02385],[126.75205,36.02446],[126.75667,36.02576],[126.75838,36.02629],[126.75969,36.02669],[126.76227,36.02792],[126.76323,36.02842],[126.76419,36.02892],[126.76514,36.02941],[126.76606,36.02976],[126.76688,36.02999],[126.76797,36.03028],[126.76906,36.03056],[126.7723,36.03128],[126.77365,36.03151],[126.77527,36.03164],[126.78291,36.03109],[126.78424,36.03099],[126.78822,36.03068]]]]}},{"type":"Feature","properties":{"code":"52130380","name":"나포면","parent":"52130"},"geometry":{"type":"MultiPolygon","coordinates":[[[[126.87292,36.03963],[126.87214,36.03875],[126.87145,36.03795],[126.8703,36.03283],[126.86964,36.03085],[126.87096,36.0297],[126.87102,36.02962],[126.87122,36.02931],[126.87139,36.02904],[126.87146,36.0289],[126.87147,36.02872],[126.87148,36.0276],[126.87147,36.02754],[126.87145,36.02744],[126.87142,36.0274],[126.87137,36.02732],[126.8708,36.02644],[126.87076,36.02638],[126.87072,36.02636],[126.87065,36.02634],[126.87053,36.02633],[126.87048,36.02632],[126.87031,36.0263],[126.86996,36.02625],[126.86971,36.02618],[126.86948,36.02605],[126.86879,36.02567],[126.86875,36.02564],[126.86869,36.02558],[126.86742,36.02373],[126.86736,36.02363],[126.8669,36.02269],[126.86686,36.02258],[126.86687,36.02248],[126.86688,36.0224],[126.86691,36.02235],[126.86732,36.02162],[126.86738,36.02153],[126.8675,36.02142],[126.86774,36.02126],[126.86781,36.02121],[126.86794,36.02116],[126.868,36.02111],[126.86805,36.02107],[126.86808,36.021],[126.86814,36.02084],[126.86819,36.0206],[126.86822,36.02044],[126.86823,36.02033],[126.86823,36.02017],[126.86818,36.02004],[126.86812,36.01992],[126.86795,36.01963],[126.86658,36.01744],[126.86652,36.01737],[126.86596,36.01712],[126.86567,36.01699],[126.86541,36.01688],[126.86524,36.01683],[126.86516,36.01682],[126.86512,36.01682],[126.8628,36.01672],[126.85592,36.01829],[126.85488,36.01916],[126.85464,36.0194],[126.85362,36.02036],[126.85356,36.02037],[126.84925,36.0206],[126.84403,36.02022],[126.84376,36.02015],[126.84284,36.01983],[126.84024,36.01873],[126.84024,36.0187],[126.84129,36.01652],[126.84316,36.01478],[126.84341,36.01456],[126.84378,36.01436],[126.84567,36.01221],[126.84514,36.01125],[126.84376,36.00751],[126.84367,36.00641],[126.84363,36.00645],[126.84356,36.00649],[126.84341,36.0065],[126.84317,36.00649],[126.84292,36.00642],[126.84275,36.00637],[126.84161,36.00581],[126.84066,36.00498],[126.84064,36.00496],[126.84061,36.00483],[126.84051,36.00427],[126.84045,36.00393],[126.84047,36.00378],[126.84053,36.0037],[126.84073,36.00348],[126.84088,36.00333],[126.84095,36.00321],[126.84097,36.00312],[126.84121,35.99996],[126.84119,35.99987],[126.84048,35.99859],[126.84042,35.99849],[126.83483,35.99319],[126.8332,35.99168],[126.8328,35.99139],[126.83242,35.99141],[126.83215,35.99153],[126.82792,35.99517],[126.82721,35.99583],[126.82702,35.99601],[126.82574,35.99734],[126.82558,35.99801],[126.82563,35.99806],[126.82597,35.99861],[126.826,35.99868],[126.82599,35.99871],[126.82293,36.00253],[126.82031,36.00298],[126.82024,36.0031],[126.82037,36.00388],[126.82048,36.00442],[126.82066,36.00534],[126.82067,36.0056],[126.82066,36.00581],[126.82056,36.00598],[126.82036,36.00628],[126.81989,36.00698],[126.81927,36.00789],[126.81909,36.00783],[126.81739,36.00705],[126.81716,36.0069],[126.81695,36.00676],[126.81687,36.0067],[126.81682,36.00662],[126.81679,36.00655],[126.8168,36.00632],[126.81683,36.00601],[126.81674,36.00581],[126.81662,36.00568],[126.81544,36.00447],[126.81514,36.00422],[126.81501,36.00417],[126.81487,36.00413],[126.81466,36.00412],[126.81453,36.00411],[126.81435,36.00413],[126.81424,36.00416],[126.81417,36.00421],[126.81221,36.00625],[126.81147,36.00717],[126.81024,36.00854],[126.80935,36.00952],[126.80915,36.00964],[126.80899,36.00971],[126.80856,36.00982],[126.80827,36.00986],[126.80811,36.00988],[126.80794,36.00988],[126.80777,36.00991],[126.80762,36.00997],[126.80664,36.01051],[126.80655,36.01067],[126.80607,36.01204],[126.80604,36.01212],[126.806,36.01226],[126.806,36.01254],[126.80601,36.01287],[126.80608,36.0132],[126.80618,36.01339],[126.80628,36.01351],[126.80629,36.01406],[126.80255,36.01576],[126.80228,36.01587],[126.80189,36.016],[126.80068,36.01623],[126.79962,36.01627],[126.79944,36.01627],[126.79772,36.01631],[126.79687,36.01627],[126.79651,36.01625],[126.79691,36.01498],[126.79602,36.01372],[126.79594,36.01364],[126.79456,36.0126],[126.79383,36.01209],[126.79371,36.01202],[126.79368,36.012],[126.79361,36.01197],[126.79354,36.01196],[126.79351,36.01196],[126.79344,36.01197],[126.79291,36.01231],[126.79259,36.01253],[126.79199,36.01312],[126.7919,36.01323],[126.78996,36.01489],[126.78722,36.01651],[126.78697,36.01665],[126.78678,36.01673],[126.78674,36.01673],[126.78659,36.01675],[126.78629,36.01675],[126.78575,36.01672],[126.78542,36.0167],[126.78497,36.01665],[126.78484,36.01667],[126.78473,36.01672],[126.78471,36.01676],[126.7847,36.01682],[126.78473,36.01713],[126.7854,36.02112],[126.78561,36.02186],[126.78573,36.02219],[126.7859,36.02254],[126.786,36.02269],[126.78626,36.02295],[126.78639,36.02308],[126.78678,36.02333],[126.78687,36.02339],[126.78697,36.02348],[126.78713,36.02365],[126.78719,36.02377],[126.78794,36.02564],[126.788,36.0258],[126.78836,36.02797],[126.78822,36.03068],[126.78955,36.03058],[126.79089,36.03048],[126.79275,36.03042],[126.79295,36.03042],[126.79559,36.0305],[126.79767,36.03077],[126.802,36.0317],[126.80617,36.03276],[126.80748,36.03316],[126.81009,36.03397],[126.81333,36.03557],[126.81978,36.04001],[126.82443,36.04335],[126.82527,36.04395],[126.8261,36.04455],[126.82693,36.04515],[126.82777,36.04574],[126.8297,36.0469],[126.83694,36.04987],[126.83796,36.05027],[126.83852,36.05048],[126.83898,36.05066],[126.83983,36.05099],[126.84363,36.05245],[126.8459,36.05354],[126.84751,36.0543],[126.84817,36.05462],[126.85125,36.05581],[126.85433,36.057],[126.86153,36.05978],[126.86358,36.06057],[126.8647,36.05684],[126.86717,36.0497],[126.86862,36.04598],[126.86872,36.0458],[126.8689,36.04562],[126.86913,36.04542],[126.86925,36.04532],[126.86981,36.04493],[126.8702,36.04471],[126.8704,36.04465],[126.87062,36.0446],[126.87067,36.04459],[126.87106,36.04453],[126.87157,36.04451],[126.87181,36.04451],[126.87192,36.04447],[126.87203,36.0444],[126.87292,36.04358],[126.87369,36.04253],[126.87358,36.04018],[126.87357,36.0401],[126.87346,36.03994],[126.87292,36.03963]]]]}},{"type":"Feature","properties":{"code":"52130390","name":"옥도면","parent":"52130"},"geometry":{"type":"MultiPolygon","coordinates":[[[[126.46056,35.72598],[126.46023,35.7259],[126.46009,35.7259],[126.45969,35.72601],[126.45958,35.72606],[126.45937,35.72618],[126.45929,35.72624],[126.45922,35.72631],[126.45916,35.7264],[126.45914,35.72651],[126.45906,35.72699],[126.45905,35.72711],[126.45905,35.7272],[126.45908,35.7273],[126.45988,35.72857],[126.45998,35.72871],[126.46015,35.72878],[126.4606,35.7289],[126.46075,35.72892],[126.46226,35.72902],[126.46251,35.72896],[126.46256,35.72877],[126.46255,35.72844],[126.46248,35.72829],[126.46188,35.72713],[126.46178,35.72701],[126.46108,35.72624],[126.46097,35.72613],[126.46069,35.72602],[126.46056,35.72598]]],[[[126.53328,35.72727],[126.53199,35.72588],[126.52956,35.72749],[126.52636,35.72986],[126.52672,35.73096],[126.52865,35.73137],[126.53106,35.73147],[126.53179,35.73108],[126.53242,35.73055],[126.53328,35.72727]]],[[[126.52355,35.73136],[126.5211,35.73128],[126.52029,35.73166],[126.51838,35.7366],[126.51793,35.73778],[126.51947,35.73806],[126.52072,35.73764],[126.52279,35.73626],[126.52448,35.73276],[126.52455,35.73235],[126.52355,35.73136]]],[[[126.47115,35.73977],[126.47142,35.73957],[126.47195,35.73974],[126.47216,35.73973],[126.47232,35.73964],[126.4724,35.73953],[126.47246,35.73938],[126.47248,35.73928],[126.47249,35.73917],[126.47245,35.73903],[126.47232,35.73891],[126.47216,35.73887],[126.46933,35.73829],[126.46917,35.73829],[126.46888,35.73835],[126.46875,35.73841],[126.46863,35.73848],[126.46854,35.73857],[126.46848,35.73868],[126.46845,35.73879],[126.46843,35.7389],[126.46844,35.73901],[126.46847,35.73913],[126.46867,35.73961],[126.46875,35.73972],[126.46914,35.74016],[126.46926,35.74028],[126.46936,35.74037],[126.46958,35.74051],[126.46971,35.74058],[126.46995,35.74058],[126.47115,35.73977]]],[[[126.46367,35.73862],[126.46357,35.73862],[126.46347,35.73863],[126.46334,35.73868],[126.46288,35.73894],[126.46279,35.73899],[126.46265,35.73908],[126.46259,35.7392],[126.46256,35.7393],[126.4626,35.73944],[126.46265,35.73953],[126.4627,35.73962],[126.46293,35.73996],[126.46345,35.74051],[126.46356,35.7406],[126.46368,35.74067],[126.46433,35.74104],[126.46449,35.74112],[126.46461,35.74118],[126.46476,35.74122],[126.46507,35.74126],[126.46519,35.74127],[126.46575,35.74132],[126.46588,35.74132],[126.466,35.7413],[126.4667,35.74102],[126.46684,35.74091],[126.46692,35.74072],[126.46694,35.74061],[126.46692,35.74049],[126.46687,35.74038],[126.46672,35.74013],[126.46666,35.74003],[126.46601,35.73927],[126.46571,35.73902],[126.46559,35.73893],[126.46544,35.73887],[126.46533,35.73884],[126.46375,35.73863],[126.46367,35.73862]]],[[[126.4481,35.7486],[126.44878,35.74825],[126.44912,35.74843],[126.4497,35.74853],[126.44988,35.74854],[126.45093,35.74795],[126.45227,35.74719],[126.4524,35.74709],[126.45462,35.74492],[126.45469,35.74483],[126.45479,35.74464],[126.45492,35.74433],[126.45497,35.74414],[126.45511,35.74323],[126.45512,35.74317],[126.45631,35.74049],[126.45721,35.73917],[126.45843,35.7376],[126.45859,35.73685],[126.4586,35.73487],[126.4575,35.73482],[126.45627,35.73432],[126.45613,35.73398],[126.45614,35.73262],[126.45644,35.73193],[126.45609,35.73068],[126.45556,35.7297],[126.45432,35.72852],[126.45414,35.72839],[126.45403,35.72833],[126.45372,35.72819],[126.45363,35.72815],[126.45352,35.72812],[126.4534,35.72811],[126.45329,35.72811],[126.4512,35.72837],[126.45107,35.72842],[126.45087,35.72851],[126.45031,35.72877],[126.44993,35.72898],[126.44968,35.72914],[126.44936,35.72941],[126.4491,35.72971],[126.44905,35.72979],[126.44886,35.73013],[126.44879,35.7303],[126.44845,35.73137],[126.44896,35.73345],[126.44977,35.73482],[126.45024,35.735],[126.45108,35.73572],[126.45135,35.73608],[126.45138,35.73627],[126.4514,35.73646],[126.4514,35.73661],[126.45126,35.73755],[126.45124,35.73762],[126.45112,35.73785],[126.451,35.73801],[126.45094,35.73808],[126.45083,35.73818],[126.45045,35.73845],[126.45018,35.73859],[126.44734,35.74],[126.44727,35.74003],[126.44721,35.74005],[126.44504,35.74058],[126.44147,35.74117],[126.44137,35.74109],[126.44119,35.74105],[126.44108,35.74104],[126.44094,35.74106],[126.44055,35.74122],[126.44043,35.74136],[126.44007,35.74194],[126.43991,35.74274],[126.43987,35.74291],[126.43987,35.74303],[126.4399,35.74314],[126.43994,35.74324],[126.43999,35.74333],[126.44005,35.74341],[126.44017,35.74351],[126.44028,35.74358],[126.44065,35.74374],[126.44125,35.74397],[126.44504,35.74627],[126.44757,35.74846],[126.44772,35.74856],[126.44792,35.74863],[126.4481,35.7486]]],[[[126.46947,35.74669],[126.46935,35.74668],[126.46914,35.7467],[126.46791,35.74687],[126.46597,35.74721],[126.46571,35.74726],[126.46556,35.7473],[126.46387,35.74782],[126.46372,35.74789],[126.46363,35.74795],[126.46355,35.748],[126.46312,35.74838],[126.46305,35.74849],[126.46295,35.74876],[126.46293,35.74885],[126.46291,35.74938],[126.46291,35.7495],[126.46318,35.75025],[126.46353,35.75073],[126.4636,35.7508],[126.46471,35.75155],[126.467,35.75244],[126.46708,35.75246],[126.46718,35.75246],[126.46726,35.75245],[126.46736,35.75241],[126.46746,35.75235],[126.46755,35.75228],[126.46787,35.75195],[126.46794,35.75186],[126.468,35.75135],[126.46903,35.74877],[126.46906,35.74871],[126.4691,35.74865],[126.46925,35.74849],[126.46933,35.74841],[126.46949,35.7483],[126.46953,35.74826],[126.46974,35.74811],[126.4699,35.74797],[126.46994,35.74792],[126.46998,35.74787],[126.47001,35.74782],[126.47004,35.74775],[126.47005,35.74766],[126.47005,35.74759],[126.47003,35.74751],[126.46964,35.74675],[126.46947,35.74669]]],[[[126.41144,35.79797],[126.41138,35.79796],[126.41131,35.79796],[126.41124,35.79798],[126.41119,35.798],[126.41115,35.79803],[126.41111,35.79806],[126.41087,35.79829],[126.41081,35.79837],[126.41078,35.79842],[126.41077,35.79847],[126.41039,35.80002],[126.41038,35.80006],[126.41038,35.80012],[126.41039,35.80017],[126.41083,35.80098],[126.41086,35.80102],[126.41089,35.80105],[126.41163,35.80176],[126.41171,35.80183],[126.41203,35.80209],[126.41244,35.80226],[126.41251,35.80228],[126.41281,35.80234],[126.41287,35.80234],[126.41294,35.80233],[126.41299,35.8023],[126.41306,35.80226],[126.4131,35.80222],[126.41313,35.80218],[126.41332,35.80191],[126.41334,35.80186],[126.41334,35.80181],[126.41332,35.80152],[126.41332,35.80146],[126.41235,35.79904],[126.41208,35.79838],[126.41205,35.79832],[126.41198,35.79825],[126.41194,35.79821],[126.41175,35.79808],[126.41169,35.79805],[126.41162,35.79802],[126.41144,35.79797]]],[[[126.44057,35.8061],[126.44031,35.80576],[126.44027,35.80571],[126.44023,35.80567],[126.44016,35.80563],[126.4401,35.80561],[126.44004,35.8056],[126.43998,35.80559],[126.4399,35.80558],[126.43981,35.80562],[126.43955,35.80574],[126.43951,35.80582],[126.43951,35.80587],[126.4394,35.80588],[126.43934,35.80587],[126.43896,35.80578],[126.4389,35.80577],[126.43876,35.80571],[126.43816,35.80542],[126.43761,35.80507],[126.43756,35.80494],[126.43722,35.80343],[126.43721,35.80332],[126.43753,35.80239],[126.43754,35.80235],[126.43759,35.80225],[126.43778,35.802],[126.4378,35.80198],[126.43784,35.80195],[126.43661,35.80092],[126.43489,35.80029],[126.42944,35.79738],[126.42815,35.79574],[126.42819,35.79569],[126.42818,35.79553],[126.42816,35.79541],[126.42814,35.79534],[126.42789,35.79477],[126.42775,35.79467],[126.4275,35.7945],[126.42512,35.79312],[126.41931,35.79359],[126.41925,35.79361],[126.41917,35.79364],[126.41908,35.79368],[126.41884,35.79382],[126.41445,35.79698],[126.41441,35.79703],[126.41356,35.7982],[126.41351,35.79828],[126.41345,35.79838],[126.41343,35.79844],[126.41341,35.7985],[126.41342,35.79862],[126.41343,35.79867],[126.41498,35.80214],[126.41501,35.80218],[126.41507,35.80223],[126.41566,35.80269],[126.41571,35.80272],[126.41733,35.80482],[126.41713,35.8058],[126.41717,35.80645],[126.41719,35.80691],[126.41719,35.80696],[126.42032,35.81023],[126.42036,35.81026],[126.42042,35.81029],[126.42049,35.8103],[126.42125,35.81036],[126.42131,35.81036],[126.42147,35.81032],[126.42152,35.81029],[126.42156,35.81027],[126.42159,35.81024],[126.42163,35.81021],[126.42165,35.81017],[126.42171,35.81009],[126.42182,35.80983],[126.42184,35.80978],[126.42184,35.80974],[126.42184,35.80962],[126.42183,35.80956],[126.42182,35.80952],[126.4218,35.80948],[126.42177,35.80943],[126.42173,35.80939],[126.42131,35.80903],[126.42126,35.809],[126.42119,35.80898],[126.42113,35.80897],[126.42103,35.80897],[126.42099,35.80896],[126.42095,35.80895],[126.42041,35.8087],[126.42037,35.80867],[126.42036,35.80865],[126.42035,35.8086],[126.42036,35.80855],[126.42037,35.80852],[126.42038,35.80849],[126.42039,35.80846],[126.42122,35.80681],[126.43178,35.80226],[126.43182,35.80226],[126.43252,35.80236],[126.43289,35.80285],[126.43287,35.80296],[126.43279,35.80322],[126.43278,35.80325],[126.43276,35.80327],[126.43274,35.80331],[126.43271,35.80333],[126.43269,35.80335],[126.4326,35.80343],[126.43247,35.80352],[126.43219,35.80368],[126.43236,35.80834],[126.43239,35.8085],[126.43241,35.80855],[126.43245,35.8086],[126.43271,35.80884],[126.43294,35.80898],[126.43297,35.80901],[126.43303,35.80903],[126.43406,35.80935],[126.4341,35.80936],[126.43415,35.80937],[126.43421,35.80936],[126.43427,35.80934],[126.43432,35.8093],[126.43435,35.80926],[126.43436,35.80921],[126.43437,35.80916],[126.43437,35.80877],[126.43436,35.80848],[126.43436,35.80844],[126.43426,35.80818],[126.43424,35.80813],[126.43414,35.80793],[126.43411,35.80787],[126.43408,35.80783],[126.43404,35.8078],[126.43399,35.80777],[126.4338,35.80761],[126.43356,35.80727],[126.43338,35.80695],[126.43345,35.80605],[126.4335,35.80602],[126.43362,35.80596],[126.43368,35.80593],[126.43395,35.80583],[126.4342,35.80576],[126.43444,35.80572],[126.43453,35.80572],[126.4348,35.80572],[126.43756,35.80606],[126.43756,35.80616],[126.43743,35.80711],[126.43738,35.80727],[126.43736,35.8073],[126.43733,35.80733],[126.43719,35.80743],[126.43707,35.80751],[126.43698,35.80756],[126.43676,35.80765],[126.43673,35.80766],[126.43637,35.80767],[126.43589,35.80795],[126.43585,35.80802],[126.43581,35.80826],[126.43582,35.80833],[126.43584,35.80841],[126.43644,35.81052],[126.43646,35.81059],[126.43652,35.81065],[126.4366,35.81069],[126.43667,35.8107],[126.43738,35.81077],[126.43747,35.81075],[126.43755,35.81072],[126.43976,35.8093],[126.44058,35.80816],[126.44062,35.80807],[126.44063,35.808],[126.44062,35.80626],[126.44062,35.80618],[126.44057,35.8061]]],[[[126.43023,35.80771],[126.43014,35.80769],[126.43005,35.80772],[126.43001,35.80777],[126.4299,35.80796],[126.42987,35.80802],[126.42986,35.80805],[126.42984,35.80809],[126.42983,35.80814],[126.42978,35.80848],[126.42977,35.80868],[126.42973,35.8095],[126.42974,35.80958],[126.42975,35.80962],[126.43083,35.81168],[126.43086,35.81172],[126.43099,35.81187],[126.43103,35.81191],[126.43106,35.81193],[126.43119,35.81201],[126.43124,35.81205],[126.4313,35.81206],[126.43135,35.81207],[126.4314,35.81207],[126.43146,35.81205],[126.43151,35.81202],[126.43169,35.81189],[126.43172,35.81185],[126.43185,35.81169],[126.43187,35.81165],[126.43187,35.81162],[126.43189,35.8102],[126.43188,35.81015],[126.43175,35.80963],[126.43174,35.8096],[126.43135,35.80892],[126.43119,35.8087],[126.43099,35.80847],[126.43044,35.80787],[126.43041,35.80785],[126.43028,35.80774],[126.43023,35.80771]]],[[[126.44618,35.81253],[126.44428,35.81241],[126.4442,35.81243],[126.44396,35.81253],[126.44388,35.81257],[126.44382,35.81264],[126.44377,35.81271],[126.44347,35.81338],[126.44346,35.81345],[126.44348,35.81352],[126.44413,35.81434],[126.4442,35.81437],[126.44428,35.81438],[126.44435,35.81437],[126.44452,35.81432],[126.44631,35.81347],[126.44641,35.81342],[126.44647,35.81337],[126.44658,35.81309],[126.44653,35.81292],[126.44644,35.81269],[126.44639,35.81263],[126.44633,35.81258],[126.44626,35.81255],[126.44618,35.81253]]],[[[126.39742,35.8189],[126.39758,35.81863],[126.39768,35.81843],[126.3977,35.81838],[126.39795,35.81556],[126.39741,35.81409],[126.39746,35.8128],[126.39755,35.81262],[126.39797,35.81242],[126.39824,35.8123],[126.39854,35.81218],[126.39859,35.81216],[126.39863,35.81215],[126.3988,35.81212],[126.39892,35.8121],[126.39914,35.81208],[126.39941,35.81208],[126.39945,35.81224],[126.39945,35.81237],[126.39944,35.81252],[126.39941,35.81257],[126.3994,35.81261],[126.3994,35.81265],[126.39941,35.8127],[126.39952,35.81297],[126.39956,35.81302],[126.39987,35.81331],[126.39994,35.81336],[126.40002,35.81339],[126.40011,35.81336],[126.40021,35.8133],[126.40024,35.81327],[126.40026,35.81324],[126.40032,35.81316],[126.40033,35.81313],[126.40034,35.8131],[126.40035,35.81307],[126.40036,35.81302],[126.40035,35.8128],[126.40027,35.81102],[126.40024,35.81089],[126.39885,35.8082],[126.39806,35.80752],[126.39802,35.80749],[126.39799,35.80747],[126.39794,35.80745],[126.39779,35.80738],[126.39774,35.80737],[126.39768,35.80737],[126.39762,35.80738],[126.39757,35.8074],[126.39526,35.80816],[126.3952,35.80818],[126.39516,35.80821],[126.39423,35.80874],[126.39413,35.80891],[126.39411,35.80895],[126.3941,35.80899],[126.39409,35.80904],[126.39399,35.81064],[126.39399,35.81086],[126.39401,35.81091],[126.39408,35.81096],[126.39414,35.81097],[126.39421,35.81096],[126.3943,35.8109],[126.39492,35.81038],[126.39538,35.80997],[126.39556,35.80976],[126.3956,35.80973],[126.39564,35.80974],[126.39584,35.80985],[126.39602,35.80998],[126.39618,35.8101],[126.39633,35.81023],[126.39643,35.81035],[126.39672,35.81182],[126.39684,35.81244],[126.39667,35.81418],[126.39666,35.81426],[126.39661,35.81443],[126.39657,35.81449],[126.39631,35.81472],[126.39556,35.81522],[126.39102,35.81772],[126.38959,35.81832],[126.38846,35.81868],[126.38831,35.8185],[126.38816,35.81832],[126.38798,35.81813],[126.38793,35.8181],[126.38784,35.81806],[126.38779,35.81805],[126.38774,35.81805],[126.38768,35.81806],[126.38757,35.81808],[126.38753,35.81809],[126.38746,35.81812],[126.38742,35.81814],[126.38734,35.8182],[126.3873,35.81824],[126.38717,35.81866],[126.38705,35.81918],[126.38705,35.81923],[126.38707,35.81936],[126.38708,35.81939],[126.3871,35.81943],[126.38713,35.81947],[126.38916,35.82189],[126.3892,35.82193],[126.38926,35.82196],[126.38933,35.82197],[126.3894,35.82196],[126.38946,35.82194],[126.38951,35.82191],[126.38984,35.8217],[126.38988,35.82166],[126.39015,35.82139],[126.39023,35.82129],[126.39116,35.82121],[126.39515,35.82023],[126.39727,35.81904],[126.39732,35.819],[126.39736,35.81897],[126.39742,35.8189]]],[[[126.37121,35.82066],[126.37118,35.82059],[126.37283,35.82109],[126.37289,35.82111],[126.37294,35.82111],[126.37303,35.8211],[126.37308,35.82107],[126.37332,35.82092],[126.37337,35.82089],[126.37409,35.82025],[126.37413,35.82021],[126.37493,35.81857],[126.37495,35.81852],[126.37525,35.81779],[126.37508,35.81773],[126.37494,35.81777],[126.37398,35.81821],[126.37319,35.81868],[126.37308,35.81883],[126.37253,35.81933],[126.37244,35.81933],[126.3723,35.81933],[126.37183,35.81921],[126.3718,35.8192],[126.37176,35.81919],[126.37155,35.81907],[126.37147,35.81902],[126.37113,35.81874],[126.37106,35.81867],[126.37092,35.81845],[126.37075,35.81816],[126.37122,35.81589],[126.37245,35.81498],[126.37398,35.81403],[126.37474,35.81452],[126.37478,35.81455],[126.37483,35.81457],[126.37559,35.81473],[126.37565,35.81474],[126.37571,35.81474],[126.37574,35.81474],[126.37585,35.81471],[126.3759,35.8147],[126.37595,35.81467],[126.37601,35.81462],[126.37636,35.81425],[126.37652,35.81408],[126.37655,35.81404],[126.37657,35.81401],[126.37658,35.81397],[126.37722,35.81125],[126.37952,35.80836],[126.37944,35.80662],[126.37943,35.80654],[126.37945,35.80566],[126.37946,35.80562],[126.37948,35.80557],[126.37957,35.80539],[126.37978,35.80506],[126.38005,35.80466],[126.38008,35.80462],[126.38013,35.80455],[126.38033,35.80433],[126.38038,35.80428],[126.38041,35.80427],[126.38069,35.80415],[126.38081,35.80415],[126.38088,35.80415],[126.38092,35.80416],[126.38099,35.80419],[126.38105,35.80421],[126.38112,35.80422],[126.38119,35.80422],[126.38165,35.80414],[126.38172,35.80412],[126.38296,35.80346],[126.38303,35.80342],[126.38307,35.80337],[126.38311,35.80327],[126.38314,35.80319],[126.38314,35.80313],[126.38309,35.80292],[126.38306,35.80285],[126.38293,35.80269],[126.3829,35.80267],[126.38265,35.80256],[126.3826,35.80255],[126.38256,35.80254],[126.38251,35.80253],[126.38247,35.80253],[126.38191,35.80256],[126.38184,35.80257],[126.38177,35.80259],[126.37658,35.80433],[126.37556,35.80133],[126.3756,35.80129],[126.37567,35.80121],[126.37571,35.80114],[126.3758,35.801],[126.37582,35.80096],[126.37585,35.80087],[126.37602,35.80032],[126.37603,35.80028],[126.37604,35.80024],[126.37603,35.80014],[126.37602,35.80008],[126.37597,35.79997],[126.37594,35.79993],[126.37589,35.79989],[126.37583,35.79987],[126.37575,35.79986],[126.37434,35.79981],[126.37424,35.79981],[126.37419,35.79982],[126.37414,35.79984],[126.37409,35.79988],[126.37306,35.80143],[126.37304,35.80147],[126.37302,35.80152],[126.37279,35.80244],[126.37277,35.80261],[126.37286,35.80306],[126.37293,35.80337],[126.373,35.80409],[126.37298,35.80433],[126.37278,35.80473],[126.37197,35.80593],[126.37186,35.80608],[126.37177,35.80617],[126.37174,35.8062],[126.37128,35.80661],[126.36947,35.80748],[126.36801,35.80845],[126.36795,35.80849],[126.36791,35.80853],[126.36752,35.80896],[126.36748,35.80901],[126.36745,35.80907],[126.36743,35.80912],[126.36712,35.81013],[126.36671,35.81455],[126.36671,35.8146],[126.36671,35.81491],[126.36745,35.81905],[126.36758,35.81965],[126.36763,35.81988],[126.36764,35.81993],[126.368,35.82132],[126.36802,35.82137],[126.36806,35.82142],[126.3681,35.82147],[126.36813,35.8215],[126.36818,35.82154],[126.36823,35.82156],[126.36829,35.82158],[126.37063,35.82179],[126.37072,35.82178],[126.37078,35.82175],[126.37082,35.82171],[126.37085,35.82166],[126.37117,35.82089],[126.37121,35.82076],[126.37122,35.82071],[126.37121,35.82066]]],[[[126.40466,35.83211],[126.40465,35.83204],[126.40758,35.83268],[126.40762,35.83269],[126.40767,35.83268],[126.40903,35.83245],[126.41403,35.83057],[126.41408,35.83054],[126.41413,35.8305],[126.41526,35.82952],[126.41529,35.82949],[126.41562,35.82898],[126.41604,35.82818],[126.41607,35.82813],[126.41609,35.82807],[126.4161,35.82803],[126.41611,35.82799],[126.41621,35.82649],[126.41614,35.82591],[126.41594,35.82566],[126.41726,35.82369],[126.4212,35.82095],[126.42435,35.81998],[126.42442,35.81994],[126.42453,35.81987],[126.42457,35.81984],[126.42587,35.81846],[126.4259,35.81842],[126.42592,35.81837],[126.42593,35.81833],[126.42594,35.81823],[126.42593,35.81819],[126.42592,35.81814],[126.42574,35.81781],[126.42567,35.81776],[126.42557,35.81774],[126.42536,35.81773],[126.42265,35.81789],[126.4222,35.81796],[126.42207,35.81799],[126.422,35.81802],[126.42103,35.81838],[126.42097,35.8184],[126.42076,35.81852],[126.42071,35.81855],[126.42066,35.8186],[126.42064,35.81866],[126.42066,35.81873],[126.4207,35.81878],[126.42125,35.81928],[126.4213,35.81932],[126.42136,35.81935],[126.42142,35.81937],[126.41961,35.82023],[126.41957,35.82024],[126.41931,35.82029],[126.41886,35.82036],[126.41862,35.82038],[126.41596,35.82044],[126.41592,35.82044],[126.41538,35.82011],[126.41512,35.81993],[126.41506,35.81989],[126.41489,35.8197],[126.41543,35.8184],[126.41559,35.81352],[126.41564,35.8135],[126.41633,35.813],[126.41642,35.81294],[126.41654,35.81285],[126.41659,35.81281],[126.41665,35.81275],[126.41682,35.81252],[126.41684,35.81249],[126.41686,35.81245],[126.41687,35.8124],[126.41687,35.81234],[126.41688,35.81196],[126.41687,35.81187],[126.41606,35.80793],[126.41604,35.80786],[126.41505,35.80594],[126.41499,35.8059],[126.41493,35.80587],[126.41476,35.8058],[126.40981,35.80468],[126.40975,35.80467],[126.40897,35.80458],[126.4089,35.80459],[126.40862,35.80471],[126.40856,35.80474],[126.40853,35.80476],[126.40849,35.8048],[126.40844,35.80487],[126.40842,35.8049],[126.40832,35.80513],[126.40831,35.80518],[126.40831,35.80523],[126.40837,35.80533],[126.40855,35.80562],[126.40858,35.80565],[126.4086,35.80568],[126.40914,35.80622],[126.40943,35.80649],[126.40736,35.80887],[126.40733,35.80888],[126.40703,35.809],[126.40698,35.80902],[126.40665,35.80909],[126.4064,35.80913],[126.4063,35.80913],[126.4062,35.80913],[126.40612,35.80913],[126.40607,35.80912],[126.40602,35.80909],[126.40522,35.80761],[126.40474,35.80656],[126.40269,35.80445],[126.40263,35.8044],[126.4025,35.80428],[126.40247,35.80425],[126.40244,35.80423],[126.40239,35.80422],[126.40233,35.80421],[126.40226,35.80421],[126.40219,35.80422],[126.40212,35.80424],[126.40154,35.80443],[126.40149,35.80444],[126.40145,35.80447],[126.40141,35.8045],[126.40072,35.80506],[126.40055,35.80521],[126.40049,35.80527],[126.40042,35.80538],[126.40039,35.80544],[126.40037,35.8055],[126.40036,35.80559],[126.40036,35.80567],[126.40039,35.80577],[126.4004,35.80582],[126.40285,35.81202],[126.40453,35.81244],[126.40956,35.81458],[126.4096,35.81461],[126.40964,35.81464],[126.40969,35.81468],[126.40997,35.81501],[126.41041,35.81556],[126.41046,35.81564],[126.41078,35.81623],[126.41121,35.81711],[126.41157,35.81796],[126.41163,35.81811],[126.41173,35.81848],[126.41261,35.82182],[126.41266,35.82215],[126.41268,35.82243],[126.41268,35.82249],[126.4126,35.82323],[126.41258,35.82332],[126.41249,35.82356],[126.41215,35.82424],[126.41211,35.8243],[126.41207,35.82435],[126.41195,35.82446],[126.41189,35.82451],[126.41167,35.8246],[126.4116,35.82462],[126.41157,35.82464],[126.41153,35.82464],[126.4115,35.82465],[126.40932,35.82439],[126.40522,35.82717],[126.40518,35.82719],[126.40489,35.82736],[126.40453,35.82755],[126.40445,35.82759],[126.40416,35.82768],[126.40411,35.82769],[126.40406,35.8277],[126.40395,35.82771],[126.40345,35.82771],[126.40321,35.8277],[126.40293,35.82765],[126.40284,35.82763],[126.40279,35.82762],[126.4027,35.82758],[126.40267,35.82756],[126.40264,35.82753],[126.40262,35.82751],[126.40261,35.82747],[126.40263,35.82727],[126.40262,35.82672],[126.40249,35.8259],[126.40242,35.82567],[126.4024,35.82563],[126.40237,35.82557],[126.40226,35.82549],[126.40221,35.82546],[126.40215,35.82544],[126.40196,35.82543],[126.40191,35.82543],[126.40187,35.82543],[126.40182,35.82544],[126.40177,35.82545],[126.39894,35.8265],[126.39924,35.82807],[126.39925,35.82811],[126.39926,35.82815],[126.39928,35.82818],[126.39941,35.8284],[126.40178,35.83151],[126.40181,35.83154],[126.40201,35.83167],[126.40243,35.83193],[126.40369,35.8327],[126.40381,35.83275],[126.40389,35.83277],[126.40409,35.8328],[126.40415,35.83281],[126.40424,35.83281],[126.40428,35.8328],[126.40441,35.83278],[126.40445,35.83276],[126.40451,35.83273],[126.40455,35.8327],[126.40459,35.83265],[126.40464,35.83254],[126.40465,35.8325],[126.40465,35.83244],[126.40466,35.83211]]],[[[126.48288,35.84454],[126.48322,35.84453],[126.48336,35.84454],[126.48364,35.84458],[126.48373,35.84459],[126.48381,35.84458],[126.4839,35.84457],[126.48398,35.84452],[126.48403,35.84447],[126.48407,35.84441],[126.4841,35.84436],[126.48473,35.84295],[126.48473,35.8428],[126.48456,35.84258],[126.48444,35.84245],[126.4842,35.84234],[126.484,35.84227],[126.47611,35.84157],[126.47371,35.84174],[126.47362,35.84177],[126.47355,35.84181],[126.47349,35.84186],[126.47341,35.84193],[126.47337,35.84199],[126.47333,35.84206],[126.47331,35.84213],[126.4733,35.8422],[126.47331,35.84226],[126.47332,35.84232],[126.47334,35.84239],[126.47344,35.84266],[126.47347,35.84271],[126.4735,35.84276],[126.47354,35.84281],[126.47362,35.84288],[126.47512,35.84393],[126.47971,35.84575],[126.47984,35.84579],[126.4823,35.84644],[126.48241,35.84646],[126.48251,35.84644],[126.4826,35.8464],[126.48268,35.84635],[126.48273,35.84629],[126.48277,35.84621],[126.48274,35.84611],[126.48234,35.84591],[126.48227,35.84587],[126.48223,35.84584],[126.48217,35.84578],[126.48213,35.84575],[126.48203,35.84562],[126.482,35.84557],[126.48198,35.84551],[126.48193,35.84529],[126.48193,35.84526],[126.48193,35.84523],[126.48195,35.84519],[126.48253,35.84461],[126.48258,35.84458],[126.48265,35.84457],[126.48271,35.84456],[126.48288,35.84454]]],[[[126.49065,35.84699],[126.49191,35.84679],[126.49409,35.8469],[126.49642,35.84595],[126.50045,35.84422],[126.50041,35.84114],[126.49925,35.8374],[126.49799,35.83516],[126.49657,35.83318],[126.49235,35.82981],[126.48662,35.82491],[126.48074,35.81888],[126.48122,35.81814],[126.48174,35.81758],[126.48218,35.81723],[126.48236,35.8172],[126.48245,35.8172],[126.48298,35.81724],[126.48309,35.81727],[126.48314,35.81729],[126.4875,35.81787],[126.48762,35.81788],[126.48772,35.81786],[126.48783,35.8178],[126.48785,35.81771],[126.48795,35.81656],[126.48795,35.81647],[126.48791,35.81638],[126.48769,35.81597],[126.48764,35.81586],[126.48758,35.81579],[126.48751,35.81573],[126.48742,35.81567],[126.48194,35.81262],[126.48187,35.81259],[126.48079,35.81211],[126.48069,35.81208],[126.47737,35.81134],[126.47324,35.81085],[126.47076,35.81075],[126.47034,35.81074],[126.46738,35.81149],[126.46305,35.81258],[126.46297,35.8126],[126.4629,35.81264],[126.46282,35.8127],[126.46233,35.81312],[126.46218,35.81326],[126.46213,35.81332],[126.46203,35.81359],[126.46204,35.81368],[126.46291,35.81494],[126.46295,35.81498],[126.46306,35.81508],[126.46311,35.8151],[126.46319,35.81512],[126.46327,35.81512],[126.46332,35.81512],[126.46337,35.81512],[126.46342,35.81513],[126.46347,35.81514],[126.46361,35.8152],[126.46402,35.8156],[126.46418,35.81578],[126.46498,35.81757],[126.46499,35.81762],[126.465,35.81767],[126.46497,35.81823],[126.46492,35.81881],[126.46488,35.81897],[126.46481,35.81915],[126.46479,35.81918],[126.46476,35.8192],[126.46473,35.81921],[126.4647,35.81923],[126.46463,35.81924],[126.4646,35.81925],[126.46447,35.81925],[126.46324,35.81918],[126.46181,35.81905],[126.45896,35.81706],[126.45889,35.817],[126.45884,35.81695],[126.45847,35.81643],[126.45867,35.81604],[126.45888,35.81557],[126.45884,35.81547],[126.45731,35.8145],[126.45718,35.8145],[126.4571,35.81453],[126.45676,35.81467],[126.45665,35.81471],[126.45657,35.81476],[126.45615,35.81515],[126.45592,35.81539],[126.45577,35.81556],[126.45564,35.81573],[126.45559,35.81592],[126.45559,35.81601],[126.4539,35.81568],[126.45328,35.8134],[126.45452,35.81194],[126.45463,35.81197],[126.45479,35.81196],[126.45489,35.81195],[126.45529,35.81184],[126.45576,35.81166],[126.45631,35.81133],[126.45649,35.81122],[126.45655,35.81117],[126.45661,35.81111],[126.45713,35.81028],[126.45716,35.8102],[126.45715,35.81011],[126.4571,35.81003],[126.45635,35.80886],[126.45457,35.80673],[126.45452,35.80667],[126.45421,35.80635],[126.45417,35.80631],[126.45396,35.80613],[126.4539,35.80609],[126.45382,35.80605],[126.45366,35.80599],[126.45357,35.80599],[126.45027,35.80676],[126.44927,35.80749],[126.44946,35.80915],[126.44956,35.8113],[126.44951,35.81618],[126.44836,35.81769],[126.44729,35.81804],[126.44605,35.81853],[126.44567,35.81882],[126.44601,35.8196],[126.44604,35.81966],[126.4461,35.81971],[126.44617,35.81974],[126.44624,35.81975],[126.44631,35.81975],[126.44684,35.81976],[126.4471,35.81976],[126.44766,35.81964],[126.44774,35.81962],[126.44787,35.81957],[126.44801,35.81949],[126.44841,35.81924],[126.45036,35.81793],[126.45094,35.81711],[126.451,35.81704],[126.45105,35.81704],[126.45131,35.81702],[126.45144,35.81703],[126.45158,35.81705],[126.45164,35.81706],[126.45182,35.81712],[126.45189,35.81715],[126.45234,35.81737],[126.4525,35.81745],[126.45283,35.81774],[126.453,35.81791],[126.45318,35.81812],[126.4533,35.81833],[126.45332,35.81838],[126.4522,35.82035],[126.45025,35.82089],[126.44783,35.8216],[126.44737,35.82182],[126.44479,35.8233],[126.44471,35.82336],[126.44467,35.82343],[126.44465,35.82352],[126.44471,35.82365],[126.44475,35.82371],[126.44482,35.82376],[126.44542,35.82629],[126.44388,35.8266],[126.44249,35.8271],[126.44241,35.82713],[126.44174,35.82747],[126.44168,35.8275],[126.44163,35.82755],[126.44159,35.82761],[126.44157,35.82769],[126.44187,35.82926],[126.44192,35.82933],[126.4434,35.83109],[126.44423,35.83168],[126.44854,35.83097],[126.44945,35.83175],[126.44974,35.83199],[126.44983,35.83206],[126.44992,35.83211],[126.45002,35.83213],[126.45023,35.83214],[126.45049,35.83214],[126.45372,35.83157],[126.4538,35.83155],[126.45497,35.83115],[126.45538,35.83101],[126.45561,35.83087],[126.45801,35.82896],[126.45932,35.82726],[126.45936,35.82719],[126.45939,35.82711],[126.45943,35.82697],[126.45957,35.82636],[126.45958,35.82624],[126.45956,35.82612],[126.46272,35.82503],[126.46381,35.825],[126.46822,35.82413],[126.47131,35.82319],[126.47561,35.82241],[126.47577,35.82247],[126.47588,35.82257],[126.47732,35.82403],[126.49096,35.8382],[126.49091,35.83836],[126.49081,35.83852],[126.48916,35.84103],[126.48685,35.84283],[126.48667,35.84296],[126.48584,35.84373],[126.48581,35.84376],[126.48556,35.84419],[126.48555,35.84423],[126.48552,35.84429],[126.48535,35.84494],[126.48533,35.84504],[126.48532,35.84517],[126.48533,35.84532],[126.48534,35.8454],[126.48535,35.84543],[126.48544,35.84567],[126.48547,35.84577],[126.4862,35.84636],[126.48625,35.8464],[126.48632,35.84643],[126.4864,35.84647],[126.4865,35.84649],[126.48984,35.84716],[126.48992,35.84718],[126.49001,35.84718],[126.49016,35.84717],[126.49025,35.84714],[126.49065,35.84699]]],[[[126.34125,35.85393],[126.34152,35.85389],[126.34558,35.85403],[126.34568,35.85398],[126.34738,35.85322],[126.35047,35.85305],[126.35088,35.85321],[126.35092,35.85327],[126.35094,35.85336],[126.35099,35.85341],[126.35105,35.85346],[126.35113,35.8535],[126.35124,35.85352],[126.3518,35.85356],[126.35219,35.85354],[126.3523,35.8535],[126.35238,35.85343],[126.35256,35.85307],[126.35351,35.85085],[126.35364,35.84936],[126.35245,35.84913],[126.34708,35.84921],[126.34209,35.84999],[126.34049,35.85048],[126.33769,35.85226],[126.33757,35.85235],[126.33753,35.85244],[126.33753,35.85254],[126.33791,35.8542],[126.33795,35.85429],[126.33806,35.85435],[126.33934,35.8546],[126.3395,35.85461],[126.33963,35.8546],[126.33984,35.85456],[126.33993,35.85454],[126.33998,35.85452],[126.34038,35.85435],[126.34077,35.85413],[126.34118,35.85395],[126.34125,35.85393]]],[[[126.38721,35.85556],[126.38858,35.85316],[126.38862,35.85306],[126.38858,35.85296],[126.38855,35.85293],[126.38851,35.8529],[126.38843,35.85285],[126.38835,35.85282],[126.38826,35.85279],[126.38817,35.85279],[126.38687,35.85274],[126.3842,35.85126],[126.37988,35.84748],[126.3763,35.84736],[126.3759,35.84715],[126.37276,35.8462],[126.37201,35.84602],[126.36825,35.84582],[126.36171,35.84627],[126.36148,35.84629],[126.36137,35.84631],[126.36119,35.84636],[126.36111,35.84639],[126.35888,35.84723],[126.35886,35.84735],[126.35861,35.8488],[126.35863,35.84891],[126.3587,35.84898],[126.35884,35.84909],[126.35925,35.84936],[126.35976,35.84952],[126.35986,35.84955],[126.35997,35.84955],[126.36119,35.8493],[126.36127,35.84925],[126.36134,35.84919],[126.3614,35.84913],[126.36143,35.8491],[126.3619,35.84873],[126.36202,35.84865],[126.36235,35.84847],[126.36334,35.848],[126.36348,35.84797],[126.3639,35.84795],[126.36479,35.84801],[126.36484,35.84801],[126.36489,35.84803],[126.36507,35.84813],[126.36687,35.8495],[126.36748,35.85042],[126.36756,35.85075],[126.36756,35.85079],[126.36755,35.85084],[126.36753,35.8509],[126.3675,35.85096],[126.3673,35.85127],[126.36713,35.85147],[126.36696,35.85159],[126.36689,35.85163],[126.36682,35.85169],[126.36676,35.85175],[126.36671,35.85183],[126.36667,35.85191],[126.36665,35.85199],[126.36663,35.85213],[126.36671,35.85258],[126.36706,35.85315],[126.36714,35.85322],[126.36726,35.85327],[126.36761,35.85334],[126.36764,35.85335],[126.37145,35.85387],[126.37208,35.85384],[126.37404,35.85366],[126.37504,35.85336],[126.37585,35.85334],[126.37816,35.85353],[126.38222,35.85462],[126.38246,35.85476],[126.38284,35.85507],[126.38347,35.85558],[126.38356,35.85562],[126.3852,35.8563],[126.38534,35.85635],[126.38569,35.85644],[126.38612,35.85654],[126.38623,35.85655],[126.38642,35.85655],[126.38651,35.85655],[126.3866,35.85654],[126.38667,35.85652],[126.3868,35.85648],[126.38721,35.85556]]],[[[126.33389,35.85326],[126.33037,35.85224],[126.33023,35.85226],[126.33013,35.85232],[126.33003,35.85246],[126.32999,35.85253],[126.32998,35.8526],[126.33019,35.85371],[126.33037,35.85409],[126.3306,35.85456],[126.33082,35.85486],[126.33118,35.85527],[126.3321,35.85604],[126.33223,35.85612],[126.33239,35.85615],[126.33255,35.85611],[126.33337,35.85535],[126.33343,35.85528],[126.33348,35.85522],[126.33357,35.85509],[126.33367,35.85457],[126.33389,35.85326]]],[[[126.41285,35.8586],[126.41296,35.85859],[126.41366,35.85865],[126.41372,35.85866],[126.41896,35.85751],[126.42217,35.8569],[126.42772,35.85658],[126.43273,35.856],[126.43286,35.85592],[126.43283,35.85578],[126.43272,35.85569],[126.43111,35.85484],[126.431,35.8548],[126.43089,35.85478],[126.43077,35.85477],[126.43038,35.85473],[126.42945,35.85466],[126.42933,35.85466],[126.42396,35.85489],[126.4228,35.85498],[126.41876,35.85562],[126.41862,35.85565],[126.41813,35.85576],[126.41781,35.85587],[126.41292,35.85713],[126.4075,35.8583],[126.40736,35.85833],[126.40689,35.8584],[126.40528,35.85831],[126.40285,35.85783],[126.40281,35.85781],[126.40232,35.8576],[126.40222,35.85755],[126.40215,35.85751],[126.40206,35.85742],[126.402,35.85734],[126.40197,35.85729],[126.3976,35.85521],[126.39618,35.85463],[126.39561,35.85447],[126.39548,35.85444],[126.39516,35.85439],[126.39504,35.85438],[126.39496,35.85438],[126.39489,35.8544],[126.39482,35.85443],[126.39477,35.85448],[126.39473,35.85454],[126.39471,35.85461],[126.39471,35.8547],[126.39472,35.85476],[126.39474,35.85482],[126.39478,35.85487],[126.39481,35.85492],[126.39488,35.85498],[126.39853,35.85832],[126.39861,35.85837],[126.39871,35.85839],[126.40701,35.8595],[126.40764,35.85933],[126.41029,35.85893],[126.41241,35.85865],[126.41285,35.8586]]],[[[126.31615,35.85906],[126.31626,35.85897],[126.31654,35.85904],[126.31664,35.85905],[126.3168,35.85903],[126.3194,35.8584],[126.32092,35.85791],[126.32237,35.85747],[126.3227,35.85751],[126.32392,35.85783],[126.3242,35.8581],[126.3244,35.85834],[126.32562,35.85755],[126.32762,35.85432],[126.32764,35.85422],[126.3276,35.85373],[126.32752,35.85308],[126.32749,35.85297],[126.32745,35.85283],[126.32653,35.85226],[126.32645,35.85221],[126.32635,35.85218],[126.32624,35.85217],[126.32377,35.85243],[126.31948,35.85293],[126.31943,35.85295],[126.31709,35.85411],[126.31702,35.85416],[126.31696,35.85422],[126.31694,35.85429],[126.31694,35.85435],[126.31695,35.8544],[126.31698,35.85445],[126.31703,35.85454],[126.31707,35.85458],[126.31709,35.85461],[126.31859,35.85604],[126.31928,35.85625],[126.31931,35.8568],[126.31931,35.85684],[126.31587,35.85727],[126.31558,35.85717],[126.31556,35.85713],[126.31517,35.85639],[126.31541,35.85605],[126.31578,35.85553],[126.31644,35.85462],[126.31674,35.85399],[126.31675,35.85396],[126.31676,35.85392],[126.31676,35.85387],[126.31675,35.85382],[126.31672,35.85377],[126.31668,35.85373],[126.31665,35.85372],[126.31661,35.8537],[126.31658,35.85369],[126.31655,35.85368],[126.31649,35.85368],[126.31641,35.85369],[126.31636,35.85372],[126.31621,35.85382],[126.31442,35.85508],[126.31374,35.85566],[126.31366,35.85574],[126.3136,35.85585],[126.31423,35.85824],[126.31445,35.85869],[126.31449,35.85873],[126.31454,35.85878],[126.31462,35.85882],[126.31512,35.85907],[126.31561,35.85914],[126.31569,35.85915],[126.31578,35.85916],[126.31588,35.85915],[126.31598,35.85914],[126.31607,35.85911],[126.31615,35.85906]]],[[[126.5241,36.03336],[126.52302,36.03326],[126.52235,36.03333],[126.52178,36.0337],[126.52189,36.03411],[126.5223,36.03514],[126.52316,36.03534],[126.52418,36.03532],[126.52464,36.03388],[126.5241,36.03336]]],[[[126.53098,36.03529],[126.5302,36.03503],[126.52317,36.03716],[126.52289,36.03791],[126.52314,36.03827],[126.52472,36.0395],[126.52838,36.04219],[126.52913,36.04221],[126.52966,36.04208],[126.52982,36.04186],[126.53029,36.04104],[126.5304,36.04029],[126.5295,36.03991],[126.52919,36.03977],[126.52903,36.03956],[126.52899,36.03926],[126.52947,36.03828],[126.53068,36.03726],[126.53165,36.03713],[126.53216,36.037],[126.53254,36.03664],[126.53251,36.03601],[126.53098,36.03529]]],[[[126.54539,36.0455],[126.54472,36.04519],[126.54403,36.0453],[126.54355,36.04577],[126.54315,36.04619],[126.54311,36.04671],[126.54332,36.04706],[126.54373,36.0471],[126.54425,36.04703],[126.54515,36.04678],[126.54548,36.04636],[126.54563,36.04577],[126.54539,36.0455]]],[[[126.55711,36.04469],[126.55621,36.04252],[126.55651,36.04117],[126.55712,36.03996],[126.55772,36.03928],[126.55862,36.03841],[126.55864,36.03762],[126.55727,36.03272],[126.55706,36.03035],[126.55688,36.02989],[126.55637,36.02955],[126.55578,36.02936],[126.55481,36.0294],[126.55437,36.02958],[126.55302,36.03145],[126.55106,36.03338],[126.55063,36.03359],[126.54854,36.03358],[126.54525,36.03459],[126.54196,36.03564],[126.54071,36.03726],[126.54137,36.0379],[126.54366,36.0416],[126.5437,36.04206],[126.5435,36.04264],[126.54301,36.04352],[126.54321,36.04397],[126.54394,36.04447],[126.54521,36.04434],[126.54652,36.04431],[126.54765,36.04443],[126.54869,36.04478],[126.54897,36.04508],[126.54902,36.04567],[126.54946,36.04603],[126.55056,36.04655],[126.55177,36.04706],[126.55326,36.04737],[126.55429,36.04733],[126.5549,36.04724],[126.55534,36.04678],[126.55711,36.04469]]],[[[126.43938,36.08563],[126.44028,36.08481],[126.44146,36.08487],[126.44603,36.08202],[126.44537,36.07989],[126.44473,36.07869],[126.44523,36.07812],[126.44578,36.07732],[126.44587,36.07715],[126.44626,36.07545],[126.44624,36.07503],[126.44602,36.07434],[126.44571,36.07376],[126.44532,36.07367],[126.44487,36.07368],[126.44469,36.07393],[126.44467,36.0747],[126.44448,36.07506],[126.44355,36.07646],[126.44317,36.07674],[126.44273,36.07686],[126.4413,36.07718],[126.44049,36.07708],[126.43984,36.07678],[126.43887,36.07629],[126.43779,36.07605],[126.43699,36.07588],[126.4357,36.07593],[126.43508,36.07612],[126.43437,36.07655],[126.43257,36.07776],[126.43137,36.07877],[126.43023,36.07992],[126.42892,36.08206],[126.4282,36.0843],[126.42789,36.08559],[126.42796,36.08597],[126.42863,36.08636],[126.4297,36.08634],[126.43166,36.08606],[126.43275,36.08582],[126.43329,36.0855],[126.43371,36.08533],[126.43418,36.08529],[126.43528,36.0854],[126.43591,36.08553],[126.43641,36.08567],[126.43685,36.08611],[126.43695,36.08632],[126.43686,36.08662],[126.43665,36.08729],[126.43685,36.08762],[126.43725,36.08781],[126.43772,36.08778],[126.43823,36.0875],[126.43882,36.08678],[126.43899,36.08643],[126.43938,36.08563]]],[[[125.98405,36.12318],[125.98651,36.12235],[125.98844,36.12298],[125.99125,36.12312],[125.9949,36.12245],[125.99556,36.12063],[125.99568,36.11779],[125.99503,36.11569],[125.99341,36.11161],[125.992,36.11017],[125.98952,36.11212],[125.98826,36.11566],[125.98632,36.11894],[125.9843,36.11978],[125.98293,36.11966],[125.9825,36.11899],[125.98284,36.11768],[125.98395,36.11535],[125.98431,36.11297],[125.98041,36.11043],[125.97821,36.11055],[125.97711,36.11272],[125.9761,36.11307],[125.97343,36.11202],[125.97247,36.11272],[125.97206,36.11464],[125.96966,36.11878],[125.96797,36.12191],[125.96654,36.12484],[125.96651,36.12641],[125.96749,36.12729],[125.96924,36.12757],[125.97251,36.12705],[125.97772,36.1262],[125.98201,36.12473],[125.98405,36.12318]]]]}},{"type":"Feature","properties":{"code":"52130400","name":"옥서면","parent":"52130"},"geometry":{"type":"MultiPolygon","coordinates":[[[[126.65061,35.93065],[126.65018,35.91805],[126.65014,35.91678],[126.65012,35.91367],[126.6501,35.90496],[126.6501,35.90441],[126.65011,35.90296],[126.65012,35.90214],[126.65041,35.90201],[126.651,35.90199],[126.65172,35.90189],[126.65256,35.90166],[126.65914,35.89958],[126.66073,35.89907],[126.66033,35.89824],[126.65897,35.89865],[126.65687,35.89439],[126.65657,35.89376],[126.65249,35.88527],[126.65051,35.88412],[126.64836,35.88425],[126.64358,35.88426],[126.64108,35.88435],[126.63458,35.88623],[126.63418,35.88627],[126.63392,35.88608],[126.6317,35.88557],[126.63135,35.88562],[126.6307,35.8857],[126.62678,35.88722],[126.62055,35.88837],[126.61982,35.8883],[126.61842,35.88796],[126.61822,35.88784],[126.61827,35.8877],[126.61843,35.88744],[126.61858,35.88689],[126.6185,35.8865],[126.61836,35.88613],[126.61792,35.88598],[126.61405,35.88583],[126.61281,35.88612],[126.61239,35.88641],[126.6119,35.8869],[126.61161,35.88741],[126.61157,35.88749],[126.61155,35.88757],[126.61156,35.88765],[126.61174,35.88863],[126.61179,35.88877],[126.6119,35.88903],[126.61198,35.88915],[126.61212,35.88922],[126.61222,35.88922],[126.61232,35.88922],[126.61279,35.88912],[126.61321,35.88933],[126.61461,35.8904],[126.6147,35.89079],[126.61475,35.89105],[126.61422,35.89371],[126.61367,35.89587],[126.6131,35.89796],[126.61265,35.89977],[126.61131,35.90713],[126.6107,35.91329],[126.61038,35.9166],[126.61126,35.92718],[126.61152,35.9296],[126.61276,35.93266],[126.61628,35.93742],[126.61692,35.93852],[126.61696,35.9395],[126.61621,35.94117],[126.61495,35.94267],[126.61632,35.94321],[126.6187,35.94354],[126.61928,35.94353],[126.61956,35.94346],[126.61978,35.94335],[126.6203,35.94321],[126.6213,35.94302],[126.62177,35.94293],[126.62505,35.94237],[126.62682,35.94297],[126.62787,35.94332],[126.63146,35.9446],[126.63256,35.9443],[126.63322,35.94383],[126.63342,35.94367],[126.63396,35.94325],[126.63441,35.94277],[126.6342,35.94219],[126.63411,35.94057],[126.6341,35.94038],[126.63423,35.93937],[126.63423,35.93935],[126.63587,35.93792],[126.63641,35.93752],[126.63849,35.93638],[126.64807,35.93155],[126.65061,35.93065]]]]}},{"type":"Feature","properties":{"code":"52130515","name":"해신동","parent":"52130"},"geometry":{"type":"MultiPolygon","coordinates":[[[[126.71371,35.99729],[126.71111,35.99327],[126.70973,35.99067],[126.70731,35.98707],[126.7067,35.98641],[126.7056,35.98555],[126.70472,35.98543],[126.70449,35.98543],[126.70418,35.98549],[126.70398,35.98554],[126.70264,35.98548],[126.70124,35.9852],[126.70069,35.98506],[126.69976,35.98452],[126.69587,35.98289],[126.69488,35.98453],[126.69274,35.98687],[126.68626,35.99324],[126.68011,35.99929],[126.69787,35.99997],[126.70019,35.99987],[126.70412,35.99969],[126.70679,35.99907],[126.71371,35.99729]]]]}},{"type":"Feature","properties":{"code":"52130530","name":"월명동","parent":"52130"},"geometry":{"type":"MultiPolygon","coordinates":[[[[126.72159,35.99541],[126.71883,35.98906],[126.71876,35.9889],[126.71867,35.98861],[126.71872,35.98849],[126.71943,35.98812],[126.71837,35.98716],[126.71553,35.98542],[126.71422,35.98266],[126.71435,35.98257],[126.71518,35.98204],[126.71604,35.98162],[126.71722,35.98107],[126.71389,35.97993],[126.7114,35.97927],[126.70967,35.98041],[126.70903,35.9814],[126.70883,35.98317],[126.70821,35.98349],[126.70801,35.98356],[126.70776,35.98359],[126.70641,35.98301],[126.70511,35.98246],[126.70301,35.98215],[126.70009,35.98413],[126.69976,35.98452],[126.70069,35.98506],[126.70124,35.9852],[126.70264,35.98548],[126.70398,35.98554],[126.70418,35.98549],[126.70449,35.98543],[126.70472,35.98543],[126.7056,35.98555],[126.7067,35.98641],[126.70731,35.98707],[126.70973,35.99067],[126.71111,35.99327],[126.71371,35.99729],[126.72159,35.99541]]]]}},{"type":"Feature","properties":{"code":"52130550","name":"신풍동","parent":"52130"},"geometry":{"type":"MultiPolygon","coordinates":[[[[126.70301,35.98215],[126.70305,35.98199],[126.70384,35.98071],[126.70513,35.98025],[126.70643,35.97964],[126.70643,35.97931],[126.70646,35.97645],[126.70783,35.97488],[126.70921,35.97488],[126.70923,35.97196],[126.71017,35.97056],[126.71067,35.96984],[126.70521,35.96979],[126.70391,35.97141],[126.7038,35.97154],[126.7029,35.97194],[126.70053,35.97254],[126.70012,35.97259],[126.69927,35.97246],[126.69911,35.97255],[126.69844,35.97294],[126.69714,35.97369],[126.69721,35.97382],[126.69764,35.97463],[126.69755,35.97501],[126.6972,35.97545],[126.69703,35.97552],[126.69557,35.97611],[126.69391,35.97634],[126.69492,35.97775],[126.69609,35.9795],[126.69611,35.97953],[126.69656,35.98055],[126.69632,35.98186],[126.69631,35.98189],[126.69628,35.98197],[126.69626,35.98203],[126.69587,35.98289],[126.69976,35.98452],[126.70009,35.98413],[126.70301,35.98215]]]]}},{"type":"Feature","properties":{"code":"52130560","name":"삼학동","parent":"52130"},"geometry":{"type":"MultiPolygon","coordinates":[[[[126.71389,35.97993],[126.71382,35.97938],[126.71376,35.97878],[126.71377,35.97871],[126.71399,35.97843],[126.71422,35.97819],[126.71502,35.97739],[126.71559,35.97739],[126.71629,35.97645],[126.71472,35.97508],[126.71298,35.97489],[126.70921,35.97488],[126.70783,35.97488],[126.70646,35.97645],[126.70643,35.97931],[126.70643,35.97964],[126.70513,35.98025],[126.70384,35.98071],[126.70305,35.98199],[126.70301,35.98215],[126.70511,35.98246],[126.70641,35.98301],[126.70776,35.98359],[126.70801,35.98356],[126.70821,35.98349],[126.70883,35.98317],[126.70903,35.9814],[126.70967,35.98041],[126.7114,35.97927],[126.71389,35.97993]]]]}},{"type":"Feature","properties":{"code":"52130605","name":"중앙동","parent":"52130"},"geometry":{"type":"MultiPolygon","coordinates":[[[[126.721,35.98239],[126.71722,35.98107],[126.71604,35.98162],[126.71518,35.98204],[126.71435,35.98257],[126.71422,35.98266],[126.71553,35.98542],[126.71837,35.98716],[126.71943,35.98812],[126.71872,35.98849],[126.71867,35.98861],[126.71876,35.9889],[126.71883,35.98906],[126.72159,35.99541],[126.72295,35.99513],[126.72412,35.99502],[126.7242,35.99503],[126.72541,35.99509],[126.72892,35.996],[126.72861,35.9857],[126.72858,35.98486],[126.72858,35.98483],[126.72758,35.98216],[126.72736,35.98184],[126.72262,35.98197],[126.721,35.98239]]]]}},{"type":"Feature","properties":{"code":"52130640","name":"흥남동","parent":"52130"},"geometry":{"type":"MultiPolygon","coordinates":[[[[126.72416,35.97668],[126.72411,35.97301],[126.71756,35.97271],[126.71698,35.97301],[126.71635,35.97302],[126.71564,35.97287],[126.71459,35.97236],[126.71189,35.97103],[126.71168,35.97092],[126.71163,35.97088],[126.71159,35.97084],[126.71067,35.96984],[126.71017,35.97056],[126.70923,35.97196],[126.70921,35.97488],[126.71298,35.97489],[126.71472,35.97508],[126.71629,35.97645],[126.71559,35.97739],[126.71502,35.97739],[126.71422,35.97819],[126.71399,35.97843],[126.71377,35.97871],[126.71376,35.97878],[126.71382,35.97938],[126.71389,35.97993],[126.71722,35.98107],[126.721,35.98239],[126.72125,35.98078],[126.72193,35.98065],[126.72272,35.98058],[126.72331,35.98047],[126.72416,35.98019],[126.72416,35.97668]]]]}},{"type":"Feature","properties":{"code":"52130650","name":"조촌동","parent":"52130"},"geometry":{"type":"MultiPolygon","coordinates":[[[[126.75135,35.97307],[126.75089,35.97244],[126.75067,35.97215],[126.75031,35.97187],[126.74886,35.9712],[126.74717,35.97059],[126.7453,35.96959],[126.74162,35.9651],[126.74153,35.96486],[126.74149,35.96469],[126.74101,35.96261],[126.74104,35.96167],[126.74118,35.96166],[126.74138,35.96165],[126.74172,35.96158],[126.74163,35.96111],[126.7414,35.96043],[126.74056,35.95961],[126.74,35.9595],[126.73885,35.95957],[126.73789,35.95967],[126.7375,35.95969],[126.73712,35.95969],[126.73569,35.95895],[126.73534,35.96304],[126.7353,35.96377],[126.7356,35.96413],[126.73535,35.96436],[126.73344,35.96608],[126.72571,35.97299],[126.72505,35.97301],[126.725,35.97301],[126.72496,35.97301],[126.72411,35.97301],[126.72416,35.97668],[126.72538,35.9767],[126.72634,35.9756],[126.72762,35.97457],[126.72919,35.97396],[126.73223,35.97553],[126.73502,35.97746],[126.73633,35.97851],[126.73891,35.98075],[126.73925,35.98236],[126.73928,35.98246],[126.73968,35.98239],[126.74294,35.98236],[126.74313,35.98236],[126.74448,35.98359],[126.74471,35.98316],[126.74724,35.98097],[126.74932,35.97956],[126.75099,35.97598],[126.75089,35.97535],[126.75084,35.97507],[126.75083,35.97499],[126.75114,35.97373],[126.75135,35.97307]]]]}},{"type":"Feature","properties":{"code":"52130660","name":"경암동","parent":"52130"},"geometry":{"type":"MultiPolygon","coordinates":[[[[126.73928,35.98246],[126.73925,35.98236],[126.73891,35.98075],[126.73633,35.97851],[126.73502,35.97746],[126.73223,35.97553],[126.72919,35.97396],[126.72762,35.97457],[126.72634,35.9756],[126.72538,35.9767],[126.72416,35.97668],[126.72416,35.98019],[126.72331,35.98047],[126.72272,35.98058],[126.72193,35.98065],[126.72125,35.98078],[126.721,35.98239],[126.72262,35.98197],[126.72736,35.98184],[126.72758,35.98216],[126.72858,35.98483],[126.72858,35.98486],[126.72861,35.9857],[126.72892,35.996],[126.73225,35.99755],[126.73738,35.98639],[126.73825,35.98533],[126.73928,35.98246]]]]}},{"type":"Feature","properties":{"code":"52130670","name":"구암동","parent":"52130"},"geometry":{"type":"MultiPolygon","coordinates":[[[[126.76501,35.99043],[126.76489,35.98876],[126.76488,35.98869],[126.76484,35.98861],[126.76392,35.98737],[126.76385,35.98729],[126.76376,35.98724],[126.76361,35.98717],[126.76334,35.98709],[126.76296,35.98698],[126.76272,35.98692],[126.76254,35.98689],[126.76247,35.98688],[126.76239,35.98687],[126.76235,35.98685],[126.76232,35.98683],[126.76216,35.98653],[126.76202,35.98623],[126.76187,35.98578],[126.76181,35.9856],[126.76171,35.98512],[126.76144,35.98375],[126.76143,35.9836],[126.76143,35.98353],[126.76145,35.98347],[126.76148,35.98341],[126.7633,35.98043],[126.76131,35.97881],[126.76039,35.97806],[126.75688,35.97645],[126.75135,35.97307],[126.75114,35.97373],[126.75083,35.97499],[126.75084,35.97507],[126.75089,35.97535],[126.75099,35.97598],[126.74932,35.97956],[126.74724,35.98097],[126.74471,35.98316],[126.74448,35.98359],[126.74313,35.98236],[126.74294,35.98236],[126.73968,35.98239],[126.73928,35.98246],[126.73825,35.98533],[126.73738,35.98639],[126.73225,35.99755],[126.73337,35.99817],[126.73428,35.99945],[126.73433,35.99956],[126.7348,36.00085],[126.73482,36.00088],[126.74044,36.00969],[126.7448,36.01814],[126.74916,36.01304],[126.75831,36.0088],[126.75891,36.00961],[126.75913,36.00967],[126.7593,36.00966],[126.7615,36.00862],[126.76208,36.00827],[126.76235,36.00799],[126.76259,36.00755],[126.76275,36.00723],[126.76295,36.00703],[126.76398,36.00662],[126.76453,36.00645],[126.76484,36.00641],[126.76703,36.00809],[126.7674,36.00852],[126.7677,36.00891],[126.76784,36.00919],[126.768,36.0095],[126.76828,36.00978],[126.76858,36.01003],[126.76889,36.01026],[126.76909,36.01033],[126.76943,36.01028],[126.7703,36.00995],[126.77045,36.0097],[126.77046,36.00967],[126.7697,36.00654],[126.76924,36.00555],[126.76987,36.00329],[126.77038,36.00176],[126.76994,36.0014],[126.76948,36.00086],[126.76926,36.0004],[126.76912,36.00005],[126.76908,35.99964],[126.76942,35.99876],[126.76981,35.99805],[126.77001,35.99743],[126.76995,35.99695],[126.76963,35.99668],[126.76919,35.99638],[126.76866,35.9961],[126.76816,35.99593],[126.76774,35.99604],[126.76634,35.99572],[126.76436,35.99482],[126.7646,35.99122],[126.76501,35.99043]]]]}},{"type":"Feature","properties":{"code":"52130680","name":"개정동","parent":"52130"},"geometry":{"type":"MultiPolygon","coordinates":[[[[126.76859,35.955],[126.76208,35.95476],[126.76095,35.95465],[126.7586,35.95469],[126.75455,35.95475],[126.75128,35.95536],[126.74545,35.95662],[126.74286,35.95755],[126.74218,35.95767],[126.74103,35.95756],[126.73715,35.95721],[126.73656,35.95736],[126.73569,35.95895],[126.73712,35.95969],[126.7375,35.95969],[126.73789,35.95967],[126.73885,35.95957],[126.74,35.9595],[126.74056,35.95961],[126.7414,35.96043],[126.74163,35.96111],[126.74172,35.96158],[126.74138,35.96165],[126.74118,35.96166],[126.74104,35.96167],[126.74101,35.96261],[126.74149,35.96469],[126.74153,35.96486],[126.74162,35.9651],[126.7453,35.96959],[126.74717,35.97059],[126.74886,35.9712],[126.75031,35.97187],[126.75067,35.97215],[126.75089,35.97244],[126.75135,35.97307],[126.75688,35.97645],[126.76039,35.97806],[126.76131,35.97881],[126.7633,35.98043],[126.76326,35.98026],[126.76325,35.98017],[126.76328,35.9801],[126.76331,35.98006],[126.76339,35.97999],[126.76352,35.97991],[126.76515,35.97893],[126.76787,35.9769],[126.76793,35.97621],[126.76794,35.97612],[126.76795,35.97538],[126.76786,35.9753],[126.76768,35.97516],[126.76728,35.97491],[126.7666,35.97446],[126.76654,35.97439],[126.76653,35.97429],[126.7668,35.9733],[126.76684,35.97321],[126.76819,35.97213],[126.76924,35.97137],[126.76921,35.97129],[126.7682,35.9695],[126.76806,35.96939],[126.76768,35.96921],[126.76706,35.96892],[126.76693,35.96886],[126.76681,35.96875],[126.76672,35.96862],[126.76665,35.96843],[126.76661,35.96827],[126.7666,35.9678],[126.76659,35.96684],[126.76668,35.96573],[126.76688,35.96449],[126.76734,35.9633],[126.76801,35.96251],[126.76821,35.96244],[126.76883,35.96223],[126.76964,35.96191],[126.76897,35.95713],[126.76873,35.95544],[126.76867,35.95507],[126.76866,35.95502],[126.76864,35.955],[126.76859,35.955]]]]}},{"type":"Feature","properties":{"code":"52130690","name":"수송동","parent":"52130"},"geometry":{"type":"MultiPolygon","coordinates":[[[[126.72411,35.97301],[126.72496,35.97301],[126.725,35.97301],[126.72505,35.97301],[126.72571,35.97299],[126.73344,35.96608],[126.73535,35.96436],[126.7356,35.96413],[126.7353,35.96377],[126.73534,35.96304],[126.73569,35.95895],[126.73286,35.95891],[126.72528,35.95677],[126.72529,35.95671],[126.7253,35.95665],[126.72545,35.95578],[126.7253,35.9553],[126.72414,35.95527],[126.7241,35.95527],[126.72404,35.95527],[126.72137,35.95525],[126.71847,35.95522],[126.71845,35.95318],[126.71459,35.95322],[126.71455,35.95322],[126.71392,35.94962],[126.71029,35.94456],[126.70935,35.94287],[126.70661,35.94318],[126.7016,35.94266],[126.70089,35.94358],[126.702,35.94776],[126.70376,35.94841],[126.70446,35.95227],[126.70431,35.95685],[126.70415,35.95693],[126.704,35.95703],[126.70407,35.95762],[126.70409,35.95787],[126.70434,35.95893],[126.70442,35.95913],[126.70464,35.95971],[126.70471,35.95987],[126.70508,35.96075],[126.70628,35.96302],[126.71071,35.96396],[126.71177,35.96702],[126.71145,35.96858],[126.71129,35.96914],[126.71067,35.96984],[126.71159,35.97084],[126.71163,35.97088],[126.71168,35.97092],[126.71189,35.97103],[126.71459,35.97236],[126.71564,35.97287],[126.71635,35.97302],[126.71698,35.97301],[126.71756,35.97271],[126.72411,35.97301]]]]}},{"type":"Feature","properties":{"code":"52130701","name":"나운1동","parent":"52130"},"geometry":{"type":"MultiPolygon","coordinates":[[[[126.70521,35.96979],[126.70506,35.9698],[126.70291,35.96979],[126.70287,35.96979],[126.70248,35.96934],[126.70233,35.96918],[126.70203,35.96883],[126.70151,35.96822],[126.70119,35.96783],[126.70049,35.96701],[126.70021,35.96668],[126.69658,35.96246],[126.69498,35.96258],[126.69362,35.96269],[126.69308,35.96273],[126.69299,35.96277],[126.69124,35.96359],[126.69014,35.9641],[126.69011,35.96411],[126.6892,35.96487],[126.68914,35.96492],[126.68838,35.96627],[126.68796,35.96734],[126.68977,35.96791],[126.69,35.96876],[126.69071,35.9713],[126.69391,35.97634],[126.69557,35.97611],[126.69703,35.97552],[126.6972,35.97545],[126.69755,35.97501],[126.69764,35.97463],[126.69721,35.97382],[126.69714,35.97369],[126.69844,35.97294],[126.69911,35.97255],[126.69927,35.97246],[126.70012,35.97259],[126.70053,35.97254],[126.7029,35.97194],[126.7038,35.97154],[126.70391,35.97141],[126.70521,35.96979]]]]}},{"type":"Feature","properties":{"code":"52130702","name":"나운2동","parent":"52130"},"geometry":{"type":"MultiPolygon","coordinates":[[[[126.70508,35.96075],[126.70301,35.9613],[126.70244,35.96145],[126.70032,35.96198],[126.70029,35.96199],[126.69881,35.96227],[126.69658,35.96246],[126.70021,35.96668],[126.70049,35.96701],[126.70119,35.96783],[126.70151,35.96822],[126.70203,35.96883],[126.70233,35.96918],[126.70248,35.96934],[126.70287,35.96979],[126.70291,35.96979],[126.70506,35.9698],[126.70521,35.96979],[126.71067,35.96984],[126.71129,35.96914],[126.71145,35.96858],[126.71177,35.96702],[126.71071,35.96396],[126.70628,35.96302],[126.70508,35.96075]]]]}},{"type":"Feature","properties":{"code":"52130710","name":"소룡동","parent":"52130"},"geometry":{"type":"MultiPolygon","coordinates":[[[[126.69587,35.98289],[126.69626,35.98203],[126.69628,35.98197],[126.69631,35.98189],[126.69632,35.98186],[126.69656,35.98055],[126.69611,35.97953],[126.69609,35.9795],[126.69492,35.97775],[126.69391,35.97634],[126.69071,35.9713],[126.69,35.96876],[126.68977,35.96791],[126.68796,35.96734],[126.68677,35.9664],[126.68672,35.96648],[126.68649,35.96676],[126.6843,35.96925],[126.68314,35.9693],[126.68033,35.96943],[126.6791,35.96949],[126.67904,35.96922],[126.67788,35.96926],[126.67512,35.96942],[126.67504,35.96943],[126.6751,35.9704],[126.67519,35.97176],[126.6752,35.97184],[126.67539,35.97316],[126.67574,35.97341],[126.6761,35.97367],[126.6771,35.97428],[126.6773,35.9744],[126.67766,35.97467],[126.67175,35.97892],[126.67028,35.97845],[126.66777,35.97763],[126.65937,35.9749],[126.65363,35.97305],[126.65281,35.97279],[126.65213,35.97261],[126.64599,35.97106],[126.63876,35.96934],[126.6386,35.9693],[126.63848,35.96952],[126.62937,35.96748],[126.6288,35.96735],[126.62882,35.96707],[126.62195,35.96543],[126.61114,35.96485],[126.60765,35.96303],[126.60344,35.96076],[126.60225,35.96011],[126.60162,35.95976],[126.59814,35.95783],[126.59427,35.95558],[126.59372,35.95527],[126.58698,35.95456],[126.58374,35.95424],[126.5829,35.95381],[126.58258,35.95355],[126.58272,35.95175],[126.58291,35.9514],[126.58496,35.95145],[126.58538,35.95174],[126.58673,35.95216],[126.58734,35.95214],[126.58811,35.95189],[126.59428,35.94851],[126.59508,35.9475],[126.58598,35.94663],[126.58582,35.94613],[126.58548,35.94582],[126.58489,35.94554],[126.58398,35.94542],[126.58304,35.9454],[126.58233,35.94559],[126.58193,35.94592],[126.58173,35.94623],[126.56868,35.94498],[126.56457,35.94459],[126.54943,35.94314],[126.5493,35.93967],[126.54297,35.93964],[126.54204,35.94244],[126.54157,35.94239],[126.53837,35.94208],[126.53704,35.94062],[126.53382,35.93248],[126.52774,35.93314],[126.52693,35.93346],[126.52629,35.93384],[126.52566,35.93438],[126.52534,35.93479],[126.52507,35.93521],[126.52488,35.93584],[126.52483,35.93636],[126.52482,35.93679],[126.5249,35.93734],[126.52506,35.93783],[126.52531,35.93827],[126.52562,35.93869],[126.52931,35.94256],[126.52735,35.94344],[126.52662,35.94331],[126.52578,35.94331],[126.52507,35.94353],[126.52473,35.94376],[126.52469,35.9438],[126.52441,35.94406],[126.52184,35.94734],[126.5216,35.94779],[126.5216,35.94811],[126.52173,35.94837],[126.52191,35.94874],[126.52198,35.94884],[126.52223,35.94917],[126.52242,35.94935],[126.52267,35.9496],[126.52301,35.94977],[126.523,35.9499],[126.52224,35.95851],[126.52114,35.97102],[126.55109,35.97504],[126.56869,35.97376],[126.56852,35.97591],[126.57473,35.97615],[126.58566,35.97657],[126.59572,35.97731],[126.60213,35.97732],[126.60905,35.97753],[126.60911,35.9776],[126.60915,35.97776],[126.60911,35.97786],[126.60895,35.97812],[126.6091,35.97853],[126.61011,35.97859],[126.61333,35.97859],[126.62135,35.97859],[126.62487,35.97851],[126.62762,35.97811],[126.62821,35.97802],[126.63164,35.97832],[126.63256,35.97892],[126.634,35.97959],[126.63547,35.97995],[126.63651,35.98009],[126.63689,35.98014],[126.63873,35.98015],[126.64036,35.97978],[126.64279,35.97889],[126.65785,35.98206],[126.66644,35.98406],[126.66764,35.98405],[126.67433,35.98335],[126.67771,35.9834],[126.67569,35.99063],[126.68626,35.99324],[126.69274,35.98687],[126.69488,35.98453],[126.69587,35.98289]]]]}},{"type":"Feature","properties":{"code":"52130720","name":"미성동","parent":"52130"},"geometry":{"type":"MultiPolygon","coordinates":[[[[126.68677,35.9664],[126.68542,35.96565],[126.68485,35.96528],[126.68461,35.96501],[126.68462,35.96486],[126.68462,35.96475],[126.68474,35.96448],[126.68545,35.96346],[126.68578,35.96306],[126.6856,35.95841],[126.68543,35.95825],[126.68481,35.958],[126.68476,35.958],[126.68434,35.95798],[126.68268,35.95794],[126.68141,35.95792],[126.68046,35.95824],[126.67978,35.95861],[126.6784,35.95945],[126.67506,35.95962],[126.67355,35.95538],[126.67336,35.95254],[126.67328,35.95165],[126.67315,35.95066],[126.67222,35.94981],[126.67118,35.95026],[126.66943,35.95099],[126.66907,35.95112],[126.6687,35.95094],[126.66854,35.95079],[126.66852,35.9501],[126.66835,35.94298],[126.66832,35.9416],[126.66831,35.94126],[126.66839,35.94022],[126.6685,35.93889],[126.66873,35.93621],[126.66895,35.93297],[126.66904,35.93145],[126.66806,35.929],[126.66746,35.92751],[126.66707,35.92754],[126.66159,35.92833],[126.65528,35.92954],[126.65061,35.93065],[126.64807,35.93155],[126.63849,35.93638],[126.63641,35.93752],[126.63587,35.93792],[126.63423,35.93935],[126.63423,35.93937],[126.6341,35.94038],[126.63411,35.94057],[126.6342,35.94219],[126.63441,35.94277],[126.63396,35.94325],[126.63342,35.94367],[126.63322,35.94383],[126.63256,35.9443],[126.63146,35.9446],[126.62787,35.94332],[126.62682,35.94297],[126.62505,35.94237],[126.62177,35.94293],[126.6213,35.94302],[126.6203,35.94321],[126.61978,35.94335],[126.61956,35.94346],[126.61928,35.94353],[126.6187,35.94354],[126.61632,35.94321],[126.61495,35.94267],[126.60566,35.94504],[126.60445,35.94535],[126.60112,35.9462],[126.59937,35.94655],[126.59585,35.94701],[126.59508,35.9475],[126.59428,35.94851],[126.58811,35.95189],[126.58734,35.95214],[126.58673,35.95216],[126.58538,35.95174],[126.58496,35.95145],[126.58291,35.9514],[126.58272,35.95175],[126.58258,35.95355],[126.5829,35.95381],[126.58374,35.95424],[126.58698,35.95456],[126.59372,35.95527],[126.59427,35.95558],[126.59814,35.95783],[126.60162,35.95976],[126.60225,35.96011],[126.60344,35.96076],[126.60765,35.96303],[126.61114,35.96485],[126.62195,35.96543],[126.62882,35.96707],[126.6288,35.96735],[126.62937,35.96748],[126.63848,35.96952],[126.6386,35.9693],[126.63876,35.96934],[126.64599,35.97106],[126.65213,35.97261],[126.65281,35.97279],[126.65363,35.97305],[126.65937,35.9749],[126.66777,35.97763],[126.67028,35.97845],[126.67175,35.97892],[126.67766,35.97467],[126.6773,35.9744],[126.6771,35.97428],[126.6761,35.97367],[126.67574,35.97341],[126.67539,35.97316],[126.6752,35.97184],[126.67519,35.97176],[126.6751,35.9704],[126.67504,35.96943],[126.67512,35.96942],[126.67788,35.96926],[126.67904,35.96922],[126.6791,35.96949],[126.68033,35.96943],[126.68314,35.9693],[126.6843,35.96925],[126.68649,35.96676],[126.68672,35.96648],[126.68677,35.9664]]]]}},{"type":"Feature","properties":{"code":"52130703","name":"나운3동","parent":"52130"},"geometry":{"type":"MultiPolygon","coordinates":[[[[126.69658,35.96246],[126.69881,35.96227],[126.70029,35.96199],[126.70032,35.96198],[126.70244,35.96145],[126.70301,35.9613],[126.70508,35.96075],[126.70471,35.95987],[126.70464,35.95971],[126.70442,35.95913],[126.70434,35.95893],[126.70409,35.95787],[126.70407,35.95762],[126.704,35.95703],[126.70415,35.95693],[126.70431,35.95685],[126.70446,35.95227],[126.70376,35.94841],[126.702,35.94776],[126.70089,35.94358],[126.7016,35.94266],[126.70121,35.94198],[126.69747,35.93919],[126.69737,35.93913],[126.69588,35.93819],[126.69565,35.93824],[126.69458,35.93847],[126.69428,35.93844],[126.69403,35.93836],[126.69156,35.9375],[126.69005,35.93676],[126.68962,35.93593],[126.68933,35.93546],[126.68873,35.93461],[126.6882,35.93405],[126.68277,35.93381],[126.68181,35.93379],[126.68133,35.93382],[126.68082,35.93378],[126.68049,35.9337],[126.68037,35.93338],[126.67951,35.93098],[126.67934,35.93003],[126.67664,35.92733],[126.67377,35.92715],[126.6675,35.92751],[126.66746,35.92751],[126.66806,35.929],[126.66904,35.93145],[126.66895,35.93297],[126.66873,35.93621],[126.6685,35.93889],[126.66839,35.94022],[126.66831,35.94126],[126.66832,35.9416],[126.66835,35.94298],[126.66852,35.9501],[126.66854,35.95079],[126.6687,35.95094],[126.66907,35.95112],[126.66943,35.95099],[126.67118,35.95026],[126.67222,35.94981],[126.67315,35.95066],[126.67328,35.95165],[126.67336,35.95254],[126.67355,35.95538],[126.67506,35.95962],[126.6784,35.95945],[126.67978,35.95861],[126.68046,35.95824],[126.68141,35.95792],[126.68268,35.95794],[126.68434,35.95798],[126.68476,35.958],[126.68481,35.958],[126.68543,35.95825],[126.6856,35.95841],[126.68578,35.96306],[126.68545,35.96346],[126.68474,35.96448],[126.68462,35.96475],[126.68462,35.96486],[126.68461,35.96501],[126.68485,35.96528],[126.68542,35.96565],[126.68677,35.9664],[126.68796,35.96734],[126.68838,35.96627],[126.68914,35.96492],[126.6892,35.96487],[126.69011,35.96411],[126.69014,35.9641],[126.69124,35.96359],[126.69299,35.96277],[126.69308,35.96273],[126.69362,35.96269],[126.69498,35.96258],[126.69658,35.96246]]]]}}]}