{"type":"FeatureCollection","features":[{"type":"Feature","properties":{"code":"11740526","name":"상일제2동","parent":"11740"},"geometry":{"type":"MultiPolygon","coordinates":[[[[127.17149,37.55732],[127.17314,37.5572],[127.17583,37.5575],[127.18188,37.55886],[127.18185,37.55873],[127.18183,37.55865],[127.18171,37.55817],[127.18165,37.55789],[127.18158,37.55762],[127.18137,37.55315],[127.18138,37.55302],[127.18139,37.55285],[127.18283,37.54656],[127.18337,37.54602],[127.18355,37.54583],[127.18091,37.54588],[127.18061,37.5461],[127.18013,37.54644],[127.17977,37.54651],[127.17925,37.5466],[127.17905,37.54664],[127.17884,37.54658],[127.17763,37.54621],[127.17689,37.54586],[127.17559,37.54521],[127.17465,37.54522],[127.17439,37.54522],[127.17425,37.54532],[127.17413,37.54541],[127.17364,37.54691],[127.17313,37.54911],[127.1731,37.54922],[127.17305,37.54945],[127.17249,37.55225],[127.17191,37.55511],[127.17185,37.55543],[127.1716,37.55675],[127.17153,37.55709],[127.17149,37.55732]]]]}},{"type":"Feature","properties":{"code":"11740525","name":"상일제1동","parent":"11740"},"geometry":{"type":"MultiPolygon","coordinates":[[[[127.17413,37.54541],[127.17397,37.54553],[127.1686,37.54519],[127.16411,37.54486],[127.16319,37.54502],[127.16279,37.54563],[127.16251,37.54591],[127.16106,37.54571],[127.15969,37.54553],[127.15901,37.54555],[127.15594,37.54622],[127.15632,37.55168],[127.1565,37.55429],[127.15656,37.5551],[127.15658,37.55538],[127.1618,37.5561],[127.16402,37.55643],[127.1652,37.55661],[127.1669,37.55681],[127.17149,37.55732],[127.17153,37.55709],[127.1716,37.55675],[127.17185,37.55543],[127.17191,37.55511],[127.17249,37.55225],[127.17305,37.54945],[127.1731,37.54922],[127.17313,37.54911],[127.17364,37.54691],[127.17413,37.54541]]]]}},{"type":"Feature","properties":{"code":"11740530","name":"명일1동","parent":"11740"},"geometry":{"type":"MultiPolygon","coordinates":[[[[127.15021,37.55469],[127.14967,37.55122],[127.14857,37.54578],[127.1476,37.54599],[127.14635,37.54527],[127.14564,37.54486],[127.14568,37.54468],[127.14572,37.54456],[127.14576,37.54436],[127.14273,37.54507],[127.14294,37.54518],[127.14331,37.5462],[127.14395,37.55079],[127.1412,37.55087],[127.14094,37.5509],[127.14067,37.55093],[127.14057,37.55099],[127.14054,37.55101],[127.14043,37.55111],[127.14038,37.55115],[127.14036,37.5512],[127.14032,37.55132],[127.14319,37.55461],[127.14447,37.55477],[127.15021,37.55469]]]]}},{"type":"Feature","properties":{"code":"11740540","name":"명일2동","parent":"11740"},"geometry":{"type":"MultiPolygon","coordinates":[[[[127.16319,37.54502],[127.1604,37.5416],[127.15975,37.54239],[127.15934,37.54272],[127.15917,37.54282],[127.15682,37.54338],[127.15362,37.54325],[127.14871,37.54515],[127.14857,37.54578],[127.14967,37.55122],[127.15021,37.55469],[127.15658,37.55538],[127.15656,37.5551],[127.1565,37.55429],[127.15632,37.55168],[127.15594,37.54622],[127.15901,37.54555],[127.15969,37.54553],[127.16106,37.54571],[127.16251,37.54591],[127.16279,37.54563],[127.16319,37.54502]]]]}},{"type":"Feature","properties":{"code":"11740550","name":"고덕1동","parent":"11740"},"geometry":{"type":"MultiPolygon","coordinates":[[[[127.15658,37.55538],[127.15021,37.55469],[127.14447,37.55477],[127.1445,37.5551],[127.1446,37.55625],[127.14407,37.55865],[127.14547,37.55998],[127.14594,37.56044],[127.14725,37.5614],[127.14523,37.56548],[127.14541,37.56827],[127.14924,37.56849],[127.15291,37.57067],[127.15332,37.56753],[127.15435,37.56805],[127.15472,37.56819],[127.15532,37.56822],[127.15544,37.56817],[127.15594,37.56798],[127.15636,37.56736],[127.15693,37.56296],[127.15658,37.55538]]]]}},{"type":"Feature","properties":{"code":"11740560","name":"고덕2동","parent":"11740"},"geometry":{"type":"MultiPolygon","coordinates":[[[[127.17149,37.55732],[127.1669,37.55681],[127.1652,37.55661],[127.16402,37.55643],[127.1618,37.5561],[127.15658,37.55538],[127.15693,37.56296],[127.15636,37.56736],[127.15594,37.56798],[127.15544,37.56817],[127.15532,37.56822],[127.15472,37.56819],[127.15435,37.56805],[127.15332,37.56753],[127.15291,37.57067],[127.16228,37.57642],[127.16535,37.57392],[127.16551,37.57369],[127.16742,37.571],[127.16731,37.57091],[127.17336,37.56371],[127.17049,37.5624],[127.17103,37.55933],[127.17149,37.55732]]]]}},{"type":"Feature","properties":{"code":"11740580","name":"암사2동","parent":"11740"},"geometry":{"type":"MultiPolygon","coordinates":[[[[127.1292,37.55476],[127.12767,37.55007],[127.12674,37.54789],[127.12571,37.54813],[127.12538,37.54821],[127.12296,37.54876],[127.12291,37.54878],[127.12312,37.54938],[127.12315,37.54947],[127.11244,37.54951],[127.11307,37.55133],[127.11334,37.552],[127.11336,37.55203],[127.11389,37.55333],[127.11389,37.55512],[127.11389,37.55666],[127.1139,37.5586],[127.11377,37.55889],[127.11348,37.56025],[127.11393,37.56016],[127.11441,37.56007],[127.11499,37.55995],[127.11548,37.55985],[127.11651,37.56],[127.11668,37.56002],[127.11682,37.56017],[127.11758,37.56097],[127.11936,37.56266],[127.12077,37.56351],[127.12175,37.56399],[127.12228,37.56425],[127.12236,37.56428],[127.13138,37.56745],[127.13146,37.56749],[127.13174,37.56759],[127.13183,37.56763],[127.13207,37.56772],[127.13228,37.56781],[127.13277,37.56801],[127.13298,37.56809],[127.13322,37.56819],[127.13382,37.56845],[127.13345,37.56505],[127.13344,37.56494],[127.13233,37.56152],[127.13225,37.56141],[127.1311,37.55976],[127.13104,37.55963],[127.13061,37.55863],[127.13015,37.55739],[127.12999,37.55694],[127.12982,37.55648],[127.1295,37.5556],[127.1292,37.55476]]]]}},{"type":"Feature","properties":{"code":"11740590","name":"암사3동","parent":"11740"},"geometry":{"type":"MultiPolygon","coordinates":[[[[127.14447,37.55477],[127.12995,37.55476],[127.1292,37.55476],[127.1295,37.5556],[127.12982,37.55648],[127.12999,37.55694],[127.13015,37.55739],[127.13061,37.55863],[127.13104,37.55963],[127.1311,37.55976],[127.13225,37.56141],[127.13233,37.56152],[127.13344,37.56494],[127.13345,37.56505],[127.13382,37.56845],[127.14541,37.56827],[127.14523,37.56548],[127.14725,37.5614],[127.14594,37.56044],[127.14547,37.55998],[127.14407,37.55865],[127.1446,37.55625],[127.1445,37.5551],[127.14447,37.55477]]]]}},{"type":"Feature","properties":{"code":"11740600","name":"천호1동","parent":"11740"},"geometry":{"type":"MultiPolygon","coordinates":[[[[127.14273,37.54507],[127.14169,37.54228],[127.141,37.54244],[127.13807,37.54313],[127.13361,37.54242],[127.13347,37.54241],[127.13314,37.54239],[127.13281,37.54237],[127.13276,37.54237],[127.13235,37.54236],[127.13115,37.54239],[127.13458,37.54712],[127.13513,37.54782],[127.13575,37.54842],[127.13658,37.54922],[127.13731,37.54992],[127.13794,37.55026],[127.13874,37.55041],[127.13915,37.55049],[127.1412,37.55087],[127.14395,37.55079],[127.14331,37.5462],[127.14294,37.54518],[127.14273,37.54507]]]]}},{"type":"Feature","properties":{"code":"11740620","name":"천호3동","parent":"11740"},"geometry":{"type":"MultiPolygon","coordinates":[[[[127.14169,37.54228],[127.13969,37.54107],[127.13791,37.54116],[127.13777,37.54114],[127.13739,37.54106],[127.13708,37.54083],[127.13681,37.54043],[127.13671,37.54024],[127.13631,37.53949],[127.13439,37.53547],[127.13295,37.53592],[127.12994,37.53666],[127.12642,37.53766],[127.12742,37.53901],[127.12867,37.54057],[127.12876,37.54058],[127.12909,37.54068],[127.12934,37.54076],[127.12977,37.54096],[127.12981,37.54099],[127.1301,37.54123],[127.13035,37.54142],[127.13052,37.54159],[127.13086,37.54201],[127.13115,37.54239],[127.13235,37.54236],[127.13276,37.54237],[127.13281,37.54237],[127.13314,37.54239],[127.13347,37.54241],[127.13361,37.54242],[127.13807,37.54313],[127.141,37.54244],[127.14169,37.54228]]]]}},{"type":"Feature","properties":{"code":"11740640","name":"성내1동","parent":"11740"},"geometry":{"type":"MultiPolygon","coordinates":[[[[127.13182,37.53014],[127.12874,37.52379],[127.11916,37.52807],[127.12072,37.53132],[127.12126,37.53311],[127.12559,37.53187],[127.12606,37.53261],[127.12617,37.53272],[127.12631,37.53286],[127.12642,37.53296],[127.1265,37.53301],[127.12659,37.53289],[127.12662,37.53286],[127.12726,37.53201],[127.12723,37.5319],[127.12705,37.53147],[127.12767,37.53128],[127.12851,37.53103],[127.1298,37.53068],[127.13056,37.53047],[127.13182,37.53014]]]]}},{"type":"Feature","properties":{"code":"11740650","name":"성내2동","parent":"11740"},"geometry":{"type":"MultiPolygon","coordinates":[[[[127.12642,37.53766],[127.12994,37.53666],[127.13295,37.53592],[127.13439,37.53547],[127.13429,37.53527],[127.13182,37.53014],[127.13056,37.53047],[127.1298,37.53068],[127.12851,37.53103],[127.12767,37.53128],[127.12705,37.53147],[127.12723,37.5319],[127.12726,37.53201],[127.12662,37.53286],[127.12659,37.53289],[127.1265,37.53301],[127.12642,37.53296],[127.12631,37.53286],[127.12617,37.53272],[127.12606,37.53261],[127.12559,37.53187],[127.12126,37.53311],[127.12243,37.53626],[127.12321,37.53853],[127.12408,37.53823],[127.12642,37.53766]]]]}},{"type":"Feature","properties":{"code":"11740660","name":"성내3동","parent":"11740"},"geometry":{"type":"MultiPolygon","coordinates":[[[[127.13857,37.53399],[127.1369,37.52952],[127.13663,37.52883],[127.13391,37.52154],[127.12874,37.52379],[127.13182,37.53014],[127.13429,37.53527],[127.13857,37.53399]]]]}},{"type":"Feature","properties":{"code":"11740690","name":"둔촌1동","parent":"11740"},"geometry":{"type":"MultiPolygon","coordinates":[[[[127.1458,37.52199],[127.14564,37.52162],[127.14524,37.52066],[127.14508,37.52026],[127.14473,37.51942],[127.14484,37.51803],[127.14488,37.51777],[127.14491,37.51756],[127.14501,37.51693],[127.14461,37.51696],[127.14321,37.51744],[127.14083,37.51851],[127.13942,37.51914],[127.13391,37.52154],[127.13663,37.52883],[127.14339,37.52691],[127.14473,37.52654],[127.14495,37.52617],[127.14575,37.5247],[127.14601,37.52422],[127.14611,37.52398],[127.14616,37.52359],[127.14615,37.52308],[127.14605,37.52262],[127.1458,37.52199]]]]}},{"type":"Feature","properties":{"code":"11740700","name":"둔촌2동","parent":"11740"},"geometry":{"type":"MultiPolygon","coordinates":[[[[127.15355,37.534],[127.15357,37.53102],[127.15351,37.53033],[127.15326,37.52933],[127.15311,37.52909],[127.15266,37.52856],[127.15243,37.52833],[127.15222,37.52814],[127.15194,37.52791],[127.15082,37.52697],[127.1498,37.5261],[127.14966,37.52596],[127.14958,37.52588],[127.14943,37.52563],[127.14906,37.5246],[127.14897,37.52436],[127.14895,37.52431],[127.14898,37.52419],[127.14854,37.52325],[127.14852,37.5232],[127.14844,37.52303],[127.14776,37.52217],[127.14742,37.52207],[127.14653,37.52202],[127.14635,37.52201],[127.1458,37.52199],[127.14605,37.52262],[127.14615,37.52308],[127.14616,37.52359],[127.14611,37.52398],[127.14601,37.52422],[127.14575,37.5247],[127.14495,37.52617],[127.14473,37.52654],[127.14339,37.52691],[127.13663,37.52883],[127.1369,37.52952],[127.13857,37.53399],[127.13931,37.53385],[127.13975,37.53381],[127.13998,37.53379],[127.14049,37.53374],[127.14071,37.53375],[127.14079,37.53375],[127.14093,37.53376],[127.14149,37.53382],[127.14176,37.53385],[127.14272,37.53416],[127.14305,37.53426],[127.1448,37.53498],[127.14518,37.53514],[127.14983,37.53714],[127.15867,37.54089],[127.15894,37.541],[127.1604,37.5416],[127.15966,37.541],[127.15868,37.54015],[127.15756,37.53903],[127.15699,37.53837],[127.157,37.53817],[127.15701,37.53805],[127.15699,37.53794],[127.15687,37.53776],[127.15673,37.53758],[127.15456,37.53493],[127.15441,37.53476],[127.15385,37.53417],[127.15355,37.534]]]]}},{"type":"Feature","properties":{"code":"11740570","name":"암사1동","parent":"11740"},"geometry":{"type":"MultiPolygon","coordinates":[[[[127.14447,37.55477],[127.14319,37.55461],[127.14032,37.55132],[127.14036,37.5512],[127.14038,37.55115],[127.14043,37.55111],[127.14054,37.55101],[127.14057,37.55099],[127.14067,37.55093],[127.14094,37.5509],[127.1412,37.55087],[127.13915,37.55049],[127.13874,37.55041],[127.13794,37.55026],[127.13731,37.54992],[127.13658,37.54922],[127.13575,37.54842],[127.13513,37.54782],[127.13458,37.54712],[127.12794,37.54995],[127.12767,37.55007],[127.1292,37.55476],[127.12995,37.55476],[127.14447,37.55477]]]]}},{"type":"Feature","properties":{"code":"11740610","name":"천호2동","parent":"11740"},"geometry":{"type":"MultiPolygon","coordinates":[[[[127.13458,37.54712],[127.13115,37.54239],[127.13086,37.54201],[127.13052,37.54159],[127.13035,37.54142],[127.1301,37.54123],[127.12981,37.54099],[127.12977,37.54096],[127.12934,37.54076],[127.12909,37.54068],[127.12876,37.54058],[127.12867,37.54057],[127.12742,37.53901],[127.12642,37.53766],[127.12408,37.53823],[127.12321,37.53853],[127.12161,37.53916],[127.12148,37.53923],[127.12142,37.53927],[127.12046,37.53981],[127.11979,37.54027],[127.1196,37.54041],[127.11952,37.54046],[127.11908,37.54071],[127.1186,37.54089],[127.1185,37.54093],[127.11843,37.54095],[127.11839,37.54096],[127.11712,37.54134],[127.10956,37.54347],[127.11089,37.54547],[127.11157,37.54651],[127.11207,37.54755],[127.11222,37.54834],[127.11244,37.54951],[127.12315,37.54947],[127.12312,37.54938],[127.12291,37.54878],[127.12296,37.54876],[127.12538,37.54821],[127.12571,37.54813],[127.12674,37.54789],[127.12767,37.55007],[127.12794,37.54995],[127.13458,37.54712]]]]}},{"type":"Feature","properties":{"code":"11740685","name":"길동","parent":"11740"},"geometry":{"type":"MultiPolygon","coordinates":[[[[127.14857,37.54578],[127.14871,37.54515],[127.15362,37.54325],[127.15682,37.54338],[127.15917,37.54282],[127.15934,37.54272],[127.15975,37.54239],[127.1604,37.5416],[127.15894,37.541],[127.15867,37.54089],[127.14983,37.53714],[127.14518,37.53514],[127.1448,37.53498],[127.14305,37.53426],[127.14272,37.53416],[127.14176,37.53385],[127.14149,37.53382],[127.14093,37.53376],[127.14079,37.53375],[127.14071,37.53375],[127.14049,37.53374],[127.13998,37.53379],[127.13975,37.53381],[127.13931,37.53385],[127.13857,37.53399],[127.13429,37.53527],[127.13439,37.53547],[127.13631,37.53949],[127.13671,37.54024],[127.13681,37.54043],[127.13708,37.54083],[127.13739,37.54106],[127.13777,37.54114],[127.13791,37.54116],[127.13969,37.54107],[127.14169,37.54228],[127.14273,37.54507],[127.14576,37.54436],[127.14572,37.54456],[127.14568,37.54468],[127.14564,37.54486],[127.14635,37.54527],[127.1476,37.54599],[127.14857,37.54578]]]]}},{"type":"Feature","properties":{"code":"11740515","name":"강일동","parent":"11740"},"geometry":{"type":"MultiPolygon","coordinates":[[[[127.18188,37.55886],[127.17583,37.5575],[127.17314,37.5572],[127.17149,37.55732],[127.17103,37.55933],[127.17049,37.5624],[127.17336,37.56371],[127.16731,37.57091],[127.16742,37.571],[127.16551,37.57369],[127.16535,37.57392],[127.16228,37.57642],[127.16662,37.57892],[127.16857,37.57895],[127.17192,37.57942],[127.17395,37.57958],[127.17501,37.58005],[127.17694,37.58071],[127.17767,37.58083],[127.17738,37.58022],[127.17697,37.57946],[127.17551,37.57838],[127.17546,37.57802],[127.1754,37.57761],[127.17536,37.57729],[127.17582,37.57485],[127.17592,37.57461],[127.17606,37.57428],[127.17614,37.57413],[127.17782,37.57147],[127.17911,37.56915],[127.17923,37.56882],[127.17924,37.56876],[127.17926,37.56869],[127.1794,37.56787],[127.17942,37.56774],[127.17945,37.56756],[127.17948,37.56654],[127.17957,37.56571],[127.17957,37.56567],[127.1796,37.56556],[127.17965,37.56541],[127.17976,37.56505],[127.18112,37.56244],[127.18156,37.56175],[127.18182,37.56133],[127.18197,37.56094],[127.18199,37.56062],[127.18202,37.56022],[127.18199,37.55959],[127.18199,37.55945],[127.18198,37.55941],[127.18193,37.55915],[127.18188,37.55886]]]]}}]}