{"type":"FeatureCollection","features":[{"type":"Feature","properties":{"code":"11590520","name":"노량진2동","parent":"11590"},"geometry":{"type":"MultiPolygon","coordinates":[[[[126.94059,37.50598],[126.94055,37.50592],[126.93924,37.5054],[126.93865,37.50541],[126.93835,37.50547],[126.93822,37.50552],[126.93821,37.50576],[126.93783,37.50611],[126.93629,37.50705],[126.93613,37.50708],[126.9359,37.50712],[126.93526,37.50704],[126.93485,37.50901],[126.93485,37.51056],[126.93438,37.51308],[126.93304,37.51453],[126.93304,37.51476],[126.93304,37.51478],[126.93304,37.51576],[126.9394,37.51614],[126.93913,37.51419],[126.94024,37.51324],[126.94171,37.50939],[126.94281,37.50986],[126.9438,37.5095],[126.94404,37.50886],[126.94267,37.50713],[126.94243,37.5069],[126.9423,37.50681],[126.94166,37.50682],[126.9409,37.50679],[126.9403,37.50615],[126.94059,37.50598]]]]}},{"type":"Feature","properties":{"code":"11590530","name":"상도1동","parent":"11590"},"geometry":{"type":"MultiPolygon","coordinates":[[[[126.95398,37.50769],[126.95443,37.50678],[126.95387,37.50409],[126.95668,37.4993],[126.95675,37.49921],[126.95755,37.49877],[126.95765,37.49875],[126.9592,37.49831],[126.96117,37.49778],[126.96298,37.49456],[126.96223,37.49415],[126.96124,37.49256],[126.96121,37.49329],[126.9612,37.49339],[126.96035,37.49385],[126.96023,37.49389],[126.95913,37.49387],[126.95895,37.49379],[126.95868,37.49293],[126.95737,37.49181],[126.95732,37.49179],[126.95671,37.49155],[126.95628,37.49157],[126.95611,37.49158],[126.9548,37.49118],[126.95404,37.49104],[126.95346,37.49113],[126.9534,37.49116],[126.95125,37.49241],[126.94852,37.49368],[126.94768,37.49374],[126.94739,37.49391],[126.94785,37.49608],[126.94827,37.49685],[126.94828,37.49691],[126.94828,37.49697],[126.94828,37.49858],[126.94828,37.4987],[126.94826,37.49874],[126.94794,37.4992],[126.94788,37.49926],[126.94793,37.50016],[126.94791,37.50039],[126.94735,37.50122],[126.94726,37.50134],[126.94645,37.50226],[126.94795,37.50412],[126.94817,37.50421],[126.94927,37.50489],[126.94981,37.50559],[126.95035,37.50645],[126.95019,37.5068],[126.95031,37.50779],[126.95374,37.50793],[126.95398,37.50769]]]]}},{"type":"Feature","properties":{"code":"11590540","name":"상도2동","parent":"11590"},"geometry":{"type":"MultiPolygon","coordinates":[[[[126.94788,37.49926],[126.93978,37.50046],[126.93636,37.50327],[126.93317,37.50364],[126.93266,37.50409],[126.93265,37.50412],[126.93258,37.5044],[126.93258,37.50443],[126.93257,37.50459],[126.9327,37.50556],[126.93271,37.50562],[126.93312,37.50565],[126.93318,37.50557],[126.93322,37.50552],[126.93335,37.50537],[126.93347,37.50524],[126.93373,37.50519],[126.93394,37.50521],[126.93401,37.50524],[126.93447,37.50561],[126.93449,37.50573],[126.93452,37.50594],[126.93454,37.50597],[126.93458,37.50602],[126.93458,37.50606],[126.9346,37.50621],[126.93463,37.50623],[126.93472,37.50629],[126.93475,37.5064],[126.93481,37.50656],[126.9349,37.50677],[126.93526,37.50704],[126.9359,37.50712],[126.93613,37.50708],[126.93629,37.50705],[126.93783,37.50611],[126.93821,37.50576],[126.93822,37.50552],[126.93835,37.50547],[126.93865,37.50541],[126.93924,37.5054],[126.94055,37.50592],[126.94059,37.50598],[126.94249,37.50633],[126.94732,37.50666],[126.94856,37.50689],[126.94978,37.50715],[126.95031,37.50779],[126.95019,37.5068],[126.95035,37.50645],[126.94981,37.50559],[126.94927,37.50489],[126.94817,37.50421],[126.94795,37.50412],[126.94645,37.50226],[126.94726,37.50134],[126.94735,37.50122],[126.94791,37.50039],[126.94793,37.50016],[126.94788,37.49926]]]]}},{"type":"Feature","properties":{"code":"11590550","name":"상도3동","parent":"11590"},"geometry":{"type":"MultiPolygon","coordinates":[[[[126.93636,37.50327],[126.93194,37.50052],[126.93201,37.50042],[126.93566,37.49651],[126.93658,37.49578],[126.93889,37.49396],[126.93972,37.49336],[126.94165,37.49225],[126.93951,37.49088],[126.93915,37.49158],[126.93612,37.4924],[126.93345,37.49302],[126.93112,37.49342],[126.92987,37.494],[126.92939,37.49535],[126.92939,37.49564],[126.92942,37.49582],[126.9297,37.49698],[126.92995,37.49746],[126.93017,37.49784],[126.93007,37.49781],[126.93002,37.4978],[126.92991,37.4978],[126.92986,37.4978],[126.92978,37.4978],[126.92973,37.49781],[126.92971,37.49783],[126.92966,37.49786],[126.92962,37.49789],[126.92955,37.49795],[126.92858,37.49887],[126.92905,37.49899],[126.93013,37.49947],[126.9303,37.49955],[126.93038,37.49973],[126.93036,37.4998],[126.93031,37.49997],[126.93011,37.5004],[126.92992,37.50055],[126.92987,37.5006],[126.92935,37.50075],[126.92889,37.5008],[126.92877,37.50115],[126.92833,37.50296],[126.92832,37.50315],[126.92833,37.5032],[126.92834,37.50327],[126.92837,37.50332],[126.92844,37.50337],[126.92851,37.50341],[126.92863,37.50345],[126.92867,37.50346],[126.92913,37.50351],[126.92946,37.50353],[126.93031,37.50358],[126.9311,37.50363],[126.93206,37.50378],[126.93217,37.50383],[126.93266,37.50409],[126.93317,37.50364],[126.93636,37.50327]]]]}},{"type":"Feature","properties":{"code":"11590560","name":"상도4동","parent":"11590"},"geometry":{"type":"MultiPolygon","coordinates":[[[[126.94788,37.49926],[126.94794,37.4992],[126.94826,37.49874],[126.94828,37.4987],[126.94828,37.49858],[126.94828,37.49697],[126.94828,37.49691],[126.94827,37.49685],[126.94785,37.49608],[126.94739,37.49391],[126.94339,37.49208],[126.94283,37.49224],[126.94165,37.49225],[126.93972,37.49336],[126.93889,37.49396],[126.93658,37.49578],[126.93566,37.49651],[126.93201,37.50042],[126.93194,37.50052],[126.93636,37.50327],[126.93978,37.50046],[126.94788,37.49926]]]]}},{"type":"Feature","properties":{"code":"11590620","name":"사당1동","parent":"11590"},"geometry":{"type":"MultiPolygon","coordinates":[[[[126.98207,37.48481],[126.98181,37.48059],[126.98161,37.47715],[126.98172,37.47636],[126.97939,37.47662],[126.97727,37.47658],[126.97692,37.47657],[126.97515,37.47631],[126.97494,37.47627],[126.97483,37.47626],[126.97345,37.47601],[126.9727,37.47587],[126.97237,37.47581],[126.97196,37.47572],[126.97152,37.47561],[126.97095,37.47548],[126.97049,37.47537],[126.97019,37.47663],[126.97095,37.47734],[126.97433,37.48043],[126.97471,37.48042],[126.97559,37.4815],[126.97567,37.48219],[126.97569,37.48329],[126.97918,37.48439],[126.98179,37.48485],[126.98207,37.48481]]]]}},{"type":"Feature","properties":{"code":"11590640","name":"사당3동","parent":"11590"},"geometry":{"type":"MultiPolygon","coordinates":[[[[126.97918,37.48439],[126.97569,37.48329],[126.97456,37.48329],[126.97084,37.48478],[126.97004,37.48508],[126.97,37.48511],[126.96997,37.48513],[126.96944,37.48551],[126.96714,37.48737],[126.96678,37.48766],[126.96637,37.48801],[126.96337,37.49228],[126.96223,37.49415],[126.96298,37.49456],[126.96504,37.49321],[126.96585,37.49348],[126.96591,37.4935],[126.96602,37.49354],[126.96693,37.49375],[126.96763,37.49389],[126.96806,37.49396],[126.97241,37.49326],[126.97263,37.49276],[126.9727,37.49167],[126.97362,37.49035],[126.97572,37.48804],[126.97649,37.48724],[126.97662,37.48714],[126.97671,37.48709],[126.97802,37.48677],[126.97858,37.48676],[126.97918,37.48439]]]]}},{"type":"Feature","properties":{"code":"11590650","name":"사당4동","parent":"11590"},"geometry":{"type":"MultiPolygon","coordinates":[[[[126.97569,37.48329],[126.97567,37.48219],[126.97559,37.4815],[126.97471,37.48042],[126.97433,37.48043],[126.97095,37.47734],[126.97019,37.47663],[126.96977,37.47663],[126.96959,37.47664],[126.9688,37.47665],[126.96821,37.4773],[126.96782,37.47779],[126.96682,37.47858],[126.96589,37.47922],[126.96532,37.47956],[126.96538,37.47966],[126.9655,37.47983],[126.96705,37.48137],[126.96843,37.48201],[126.96853,37.48203],[126.96901,37.4821],[126.96966,37.48212],[126.97108,37.48447],[126.97084,37.48478],[126.97456,37.48329],[126.97569,37.48329]]]]}},{"type":"Feature","properties":{"code":"11590651","name":"사당5동","parent":"11590"},"geometry":{"type":"MultiPolygon","coordinates":[[[[126.97084,37.48478],[126.97108,37.48447],[126.96966,37.48212],[126.96901,37.4821],[126.96853,37.48203],[126.96843,37.48201],[126.96705,37.48137],[126.9655,37.47983],[126.96538,37.47966],[126.96532,37.47956],[126.96444,37.48022],[126.96134,37.48349],[126.96138,37.48371],[126.96139,37.48376],[126.96139,37.48379],[126.96141,37.48382],[126.96215,37.48524],[126.96214,37.48647],[126.96207,37.48729],[126.96107,37.49113],[126.96125,37.49243],[126.96124,37.49256],[126.96223,37.49415],[126.96337,37.49228],[126.96637,37.48801],[126.96678,37.48766],[126.96714,37.48737],[126.96944,37.48551],[126.96997,37.48513],[126.97,37.48511],[126.97004,37.48508],[126.97084,37.48478]]]]}},{"type":"Feature","properties":{"code":"11590660","name":"대방동","parent":"11590"},"geometry":{"type":"MultiPolygon","coordinates":[[[[126.93304,37.51576],[126.93304,37.51478],[126.93304,37.51476],[126.93304,37.51453],[126.93438,37.51308],[126.93485,37.51056],[126.93485,37.50901],[126.93526,37.50704],[126.9349,37.50677],[126.93481,37.50656],[126.93475,37.5064],[126.93472,37.50629],[126.93463,37.50623],[126.9346,37.50621],[126.93458,37.50606],[126.93458,37.50602],[126.93454,37.50597],[126.93452,37.50594],[126.93449,37.50573],[126.93447,37.50561],[126.93401,37.50524],[126.93394,37.50521],[126.93373,37.50519],[126.93347,37.50524],[126.93335,37.50537],[126.93322,37.50552],[126.93318,37.50557],[126.93312,37.50565],[126.93271,37.50562],[126.9327,37.50556],[126.93257,37.50459],[126.93258,37.50443],[126.93258,37.5044],[126.93265,37.50412],[126.93266,37.50409],[126.93217,37.50383],[126.93206,37.50378],[126.9311,37.50363],[126.93031,37.50358],[126.92946,37.50353],[126.92913,37.50351],[126.92867,37.50346],[126.92863,37.50345],[126.92851,37.50341],[126.92844,37.50337],[126.92837,37.50332],[126.92834,37.50327],[126.92833,37.5032],[126.92832,37.50315],[126.92833,37.50296],[126.92877,37.50115],[126.92889,37.5008],[126.92935,37.50075],[126.92987,37.5006],[126.92992,37.50055],[126.93011,37.5004],[126.93031,37.49997],[126.93036,37.4998],[126.93038,37.49973],[126.9303,37.49955],[126.93013,37.49947],[126.92905,37.49899],[126.92858,37.49887],[126.92823,37.49897],[126.92818,37.49899],[126.92736,37.49918],[126.92713,37.49923],[126.92662,37.49923],[126.92656,37.49923],[126.92606,37.4991],[126.92599,37.49908],[126.92593,37.49907],[126.92548,37.49892],[126.92403,37.49845],[126.924,37.49843],[126.92313,37.49813],[126.923,37.49808],[126.9229,37.49805],[126.92248,37.49794],[126.9222,37.49787],[126.92201,37.49786],[126.92115,37.49813],[126.92089,37.49824],[126.92023,37.49851],[126.92083,37.5014],[126.92092,37.50159],[126.92109,37.50195],[126.92112,37.50201],[126.92115,37.50209],[126.92135,37.50257],[126.92153,37.50301],[126.92198,37.5041],[126.9221,37.50439],[126.92383,37.5087],[126.92529,37.5124],[126.9254,37.51265],[126.92576,37.51265],[126.92585,37.51266],[126.92589,37.51267],[126.92641,37.51274],[126.92644,37.51275],[126.92684,37.51289],[126.9271,37.513],[126.92706,37.51393],[126.92698,37.51397],[126.92516,37.5149],[126.92601,37.5161],[126.93215,37.51565],[126.93304,37.51576]]]]}},{"type":"Feature","properties":{"code":"11590670","name":"신대방1동","parent":"11590"},"geometry":{"type":"MultiPolygon","coordinates":[[[[126.91597,37.48876],[126.91382,37.48753],[126.91332,37.48725],[126.91324,37.48721],[126.91115,37.48647],[126.91042,37.48624],[126.91038,37.48623],[126.90923,37.48587],[126.90908,37.48582],[126.90899,37.48579],[126.90872,37.48571],[126.90777,37.48542],[126.90746,37.48535],[126.9067,37.48516],[126.90596,37.48499],[126.90561,37.48498],[126.90513,37.48497],[126.90323,37.48499],[126.90633,37.48893],[126.90945,37.49259],[126.91001,37.49321],[126.91029,37.49355],[126.91126,37.49505],[126.91171,37.49574],[126.91182,37.4959],[126.91201,37.49604],[126.91253,37.49639],[126.91277,37.49641],[126.91378,37.49653],[126.91424,37.49658],[126.9146,37.49305],[126.91555,37.49051],[126.91597,37.48876]]]]}},{"type":"Feature","properties":{"code":"11590680","name":"신대방2동","parent":"11590"},"geometry":{"type":"MultiPolygon","coordinates":[[[[126.92858,37.49887],[126.92955,37.49795],[126.92962,37.49789],[126.92966,37.49786],[126.92971,37.49783],[126.92973,37.49781],[126.92978,37.4978],[126.92986,37.4978],[126.92991,37.4978],[126.93002,37.4978],[126.93007,37.49781],[126.93017,37.49784],[126.92995,37.49746],[126.9297,37.49698],[126.92942,37.49582],[126.92939,37.49564],[126.92939,37.49535],[126.92987,37.494],[126.92918,37.49439],[126.92904,37.49447],[126.92892,37.49454],[126.92852,37.49477],[126.92848,37.49479],[126.9281,37.49494],[126.92804,37.49495],[126.92781,37.49498],[126.92772,37.49499],[126.9274,37.49495],[126.92737,37.49493],[126.92683,37.49437],[126.9266,37.49413],[126.92657,37.49406],[126.92655,37.49401],[126.92652,37.49393],[126.92583,37.49261],[126.92488,37.4909],[126.9243,37.48996],[126.91889,37.48956],[126.91597,37.48876],[126.91555,37.49051],[126.9146,37.49305],[126.91424,37.49658],[126.91455,37.49662],[126.91504,37.49667],[126.91511,37.49668],[126.91523,37.4967],[126.9158,37.49681],[126.91603,37.49686],[126.91652,37.49696],[126.91837,37.49735],[126.91841,37.49736],[126.91936,37.49761],[126.91951,37.49765],[126.91968,37.49769],[126.91971,37.49772],[126.91973,37.49774],[126.91981,37.49782],[126.92019,37.4982],[126.92023,37.49851],[126.92089,37.49824],[126.92115,37.49813],[126.92201,37.49786],[126.9222,37.49787],[126.92248,37.49794],[126.9229,37.49805],[126.923,37.49808],[126.92313,37.49813],[126.924,37.49843],[126.92403,37.49845],[126.92548,37.49892],[126.92593,37.49907],[126.92599,37.49908],[126.92606,37.4991],[126.92656,37.49923],[126.92662,37.49923],[126.92713,37.49923],[126.92736,37.49918],[126.92818,37.49899],[126.92823,37.49897],[126.92858,37.49887]]]]}},{"type":"Feature","properties":{"code":"11590605","name":"흑석동","parent":"11590"},"geometry":{"type":"MultiPolygon","coordinates":[[[[126.97405,37.50733],[126.97171,37.50425],[126.97168,37.50424],[126.97165,37.50422],[126.97153,37.50416],[126.97142,37.50411],[126.96962,37.50369],[126.96878,37.50351],[126.96652,37.50191],[126.96543,37.5008],[126.96213,37.49754],[126.96209,37.49751],[126.962,37.49743],[126.96181,37.49751],[126.96117,37.49778],[126.9592,37.49831],[126.95765,37.49875],[126.95755,37.49877],[126.95675,37.49921],[126.95668,37.4993],[126.95387,37.50409],[126.95443,37.50678],[126.95398,37.50769],[126.95429,37.50766],[126.95709,37.50987],[126.95982,37.51168],[126.96174,37.51283],[126.96585,37.51051],[126.97405,37.50733]]]]}},{"type":"Feature","properties":{"code":"11590510","name":"노량진1동","parent":"11590"},"geometry":{"type":"MultiPolygon","coordinates":[[[[126.9572,37.51541],[126.96174,37.51283],[126.95982,37.51168],[126.95709,37.50987],[126.95429,37.50766],[126.95398,37.50769],[126.95374,37.50793],[126.95031,37.50779],[126.94978,37.50715],[126.94856,37.50689],[126.94732,37.50666],[126.94249,37.50633],[126.94059,37.50598],[126.9403,37.50615],[126.9409,37.50679],[126.94166,37.50682],[126.9423,37.50681],[126.94243,37.5069],[126.94267,37.50713],[126.94404,37.50886],[126.9438,37.5095],[126.94281,37.50986],[126.94171,37.50939],[126.94024,37.51324],[126.93913,37.51419],[126.9394,37.51614],[126.94956,37.51781],[126.9572,37.51541]]]]}},{"type":"Feature","properties":{"code":"11590630","name":"사당2동","parent":"11590"},"geometry":{"type":"MultiPolygon","coordinates":[[[[126.98013,37.50649],[126.9803,37.50484],[126.98032,37.504],[126.98033,37.50395],[126.98039,37.5036],[126.98045,37.50331],[126.9807,37.50274],[126.98115,37.50229],[126.9862,37.49904],[126.98695,37.49863],[126.98784,37.49861],[126.98775,37.49824],[126.98625,37.49858],[126.98477,37.49928],[126.98349,37.49755],[126.98344,37.49746],[126.98336,37.49733],[126.98324,37.49713],[126.98308,37.49676],[126.98304,37.49668],[126.98296,37.4965],[126.98292,37.49641],[126.9829,37.49635],[126.98278,37.49524],[126.98277,37.49504],[126.98276,37.49484],[126.98275,37.49429],[126.98274,37.4942],[126.98274,37.49398],[126.98265,37.49089],[126.98208,37.48539],[126.98207,37.48481],[126.98179,37.48485],[126.97918,37.48439],[126.97858,37.48676],[126.97802,37.48677],[126.97671,37.48709],[126.97662,37.48714],[126.97649,37.48724],[126.97572,37.48804],[126.97362,37.49035],[126.9727,37.49167],[126.97263,37.49276],[126.97241,37.49326],[126.96806,37.49396],[126.96763,37.49389],[126.96693,37.49375],[126.96602,37.49354],[126.96591,37.4935],[126.96585,37.49348],[126.96504,37.49321],[126.96298,37.49456],[126.96117,37.49778],[126.96181,37.49751],[126.962,37.49743],[126.96209,37.49751],[126.96213,37.49754],[126.96543,37.5008],[126.96652,37.50191],[126.96878,37.50351],[126.96962,37.50369],[126.97142,37.50411],[126.97153,37.50416],[126.97165,37.50422],[126.97168,37.50424],[126.97171,37.50425],[126.97405,37.50733],[126.98013,37.50649]]]]}}]}