{"type":"FeatureCollection","features":[{"type":"Feature","properties":{"code":"11290580","name":"돈암1동","parent":"11290"},"geometry":{"type":"MultiPolygon","coordinates":[[[[127.02499,37.59413],[127.02479,37.59416],[127.02449,37.5943],[127.02257,37.59564],[127.02253,37.5957],[127.02208,37.5966],[127.02197,37.59698],[127.02148,37.5971],[127.01972,37.59729],[127.01878,37.59848],[127.02164,37.60157],[127.02597,37.60318],[127.03022,37.604],[127.0292,37.60302],[127.02712,37.60075],[127.02678,37.6002],[127.0263,37.59896],[127.02606,37.59766],[127.02591,37.59674],[127.02599,37.59633],[127.0257,37.5949],[127.02534,37.5945],[127.02499,37.59413]]]]}},{"type":"Feature","properties":{"code":"11290590","name":"돈암2동","parent":"11290"},"geometry":{"type":"MultiPolygon","coordinates":[[[[127.01408,37.60081],[127.01392,37.60068],[127.01878,37.59848],[127.01972,37.59729],[127.01949,37.5971],[127.01823,37.59691],[127.01615,37.59688],[127.01506,37.59841],[127.01402,37.59833],[127.01334,37.59826],[127.01289,37.59821],[127.01267,37.59668],[127.01307,37.59579],[127.01342,37.59523],[127.01154,37.59397],[127.00953,37.59206],[127.00749,37.59163],[127.00723,37.59186],[127.00747,37.59222],[127.00749,37.59225],[127.00766,37.59246],[127.0077,37.59247],[127.00783,37.59252],[127.00815,37.59269],[127.00818,37.59272],[127.00842,37.59312],[127.0085,37.59411],[127.00842,37.59461],[127.0081,37.59556],[127.00785,37.59599],[127.00725,37.59649],[127.00695,37.59659],[127.00592,37.59668],[127.00567,37.59726],[127.00566,37.59734],[127.00566,37.59743],[127.00573,37.59764],[127.00626,37.59824],[127.00639,37.59839],[127.00672,37.59873],[127.0113,37.59973],[127.01123,37.6002],[127.01134,37.60084],[127.01155,37.60119],[127.01247,37.60186],[127.01255,37.60189],[127.01261,37.60191],[127.01298,37.60195],[127.01308,37.60194],[127.01314,37.60194],[127.01324,37.60189],[127.01347,37.60166],[127.01386,37.60115],[127.01408,37.60081]]]]}},{"type":"Feature","properties":{"code":"11290600","name":"안암동","parent":"11290"},"geometry":{"type":"MultiPolygon","coordinates":[[[[127.03649,37.59125],[127.03639,37.58992],[127.03168,37.58507],[127.0295,37.58272],[127.02447,37.5792],[127.02231,37.58223],[127.02192,37.58299],[127.0219,37.58302],[127.02162,37.58382],[127.02128,37.58481],[127.02125,37.58488],[127.02116,37.58514],[127.02103,37.58555],[127.02093,37.58586],[127.02072,37.58631],[127.02014,37.58756],[127.01983,37.58786],[127.01975,37.58794],[127.01973,37.58795],[127.01969,37.58798],[127.01921,37.58835],[127.01888,37.5886],[127.01878,37.58867],[127.01896,37.58883],[127.01966,37.58941],[127.02018,37.58934],[127.02133,37.58918],[127.02163,37.58914],[127.0219,37.5891],[127.02211,37.58907],[127.02373,37.59096],[127.02371,37.59124],[127.02379,37.59225],[127.02384,37.5924],[127.02388,37.59251],[127.02446,37.59357],[127.02499,37.59413],[127.03026,37.59125],[127.03182,37.59112],[127.03203,37.59115],[127.03323,37.59148],[127.03332,37.59152],[127.03354,37.59161],[127.03395,37.59179],[127.03426,37.59194],[127.03436,37.592],[127.03475,37.59221],[127.03514,37.59242],[127.03533,37.59249],[127.03554,37.59255],[127.03593,37.59224],[127.03636,37.59161],[127.0365,37.59134],[127.03649,37.59125]]]]}},{"type":"Feature","properties":{"code":"11290610","name":"보문동","parent":"11290"},"geometry":{"type":"MultiPolygon","coordinates":[[[[127.02447,37.5792],[127.02317,37.57804],[127.02251,37.5781],[127.01875,37.57753],[127.01801,37.57806],[127.0176,37.57969],[127.01679,37.58154],[127.01639,37.58184],[127.01607,37.58184],[127.01495,37.58213],[127.01469,37.58223],[127.01466,37.58449],[127.01469,37.58454],[127.01652,37.58687],[127.01729,37.58749],[127.01878,37.58867],[127.01888,37.5886],[127.01921,37.58835],[127.01969,37.58798],[127.01973,37.58795],[127.01975,37.58794],[127.01983,37.58786],[127.02014,37.58756],[127.02072,37.58631],[127.02093,37.58586],[127.02103,37.58555],[127.02116,37.58514],[127.02125,37.58488],[127.02128,37.58481],[127.02162,37.58382],[127.0219,37.58302],[127.02192,37.58299],[127.02231,37.58223],[127.02447,37.5792]]]]}},{"type":"Feature","properties":{"code":"11290620","name":"정릉1동","parent":"11290"},"geometry":{"type":"MultiPolygon","coordinates":[[[[127.02164,37.60157],[127.01878,37.59848],[127.01392,37.60068],[127.01408,37.60081],[127.01349,37.60268],[127.01348,37.60272],[127.01342,37.60294],[127.01331,37.60336],[127.01475,37.60538],[127.01579,37.60734],[127.01584,37.60768],[127.01543,37.60946],[127.01526,37.60964],[127.01499,37.60995],[127.01469,37.61028],[127.01434,37.61067],[127.01357,37.61152],[127.01342,37.61161],[127.01443,37.61357],[127.0146,37.61195],[127.01577,37.60996],[127.0164,37.60766],[127.01777,37.60384],[127.01949,37.60238],[127.02164,37.60157]]]]}},{"type":"Feature","properties":{"code":"11290630","name":"정릉2동","parent":"11290"},"geometry":{"type":"MultiPolygon","coordinates":[[[[127.01408,37.60081],[127.01386,37.60115],[127.01347,37.60166],[127.01324,37.60189],[127.01314,37.60194],[127.01308,37.60194],[127.01298,37.60195],[127.01261,37.60191],[127.01255,37.60189],[127.01247,37.60186],[127.01155,37.60119],[127.01134,37.60084],[127.01123,37.6002],[127.0113,37.59973],[127.00672,37.59873],[127.00639,37.59839],[127.00626,37.59824],[127.00573,37.59764],[127.00566,37.59743],[127.00566,37.59734],[127.00567,37.59726],[127.00592,37.59668],[127.0047,37.59677],[127.00294,37.59796],[127.00293,37.5989],[127.00115,37.60125],[127.00096,37.60148],[127.00094,37.6015],[127.00064,37.60165],[126.9998,37.60167],[126.99956,37.60161],[126.9993,37.60218],[126.99913,37.60258],[126.99911,37.60275],[126.99909,37.6029],[126.99907,37.60328],[127.00027,37.60371],[127.00272,37.60445],[127.0046,37.60482],[127.00422,37.60694],[127.00363,37.60774],[127.00353,37.6079],[127.00352,37.60804],[127.00396,37.60848],[127.00419,37.60868],[127.00439,37.60861],[127.00669,37.6073],[127.00713,37.60703],[127.00747,37.6068],[127.00758,37.60668],[127.00771,37.60631],[127.00775,37.60624],[127.00777,37.6062],[127.00796,37.60598],[127.00935,37.60616],[127.00938,37.60665],[127.00936,37.60698],[127.00936,37.60715],[127.00919,37.60795],[127.009,37.60866],[127.00983,37.60835],[127.01053,37.6081],[127.01158,37.60841],[127.01161,37.60957],[127.01198,37.61028],[127.01342,37.61161],[127.01357,37.61152],[127.01434,37.61067],[127.01469,37.61028],[127.01499,37.60995],[127.01526,37.60964],[127.01543,37.60946],[127.01584,37.60768],[127.01579,37.60734],[127.01475,37.60538],[127.01331,37.60336],[127.01342,37.60294],[127.01348,37.60272],[127.01349,37.60268],[127.01408,37.60081]]]]}},{"type":"Feature","properties":{"code":"11290640","name":"정릉3동","parent":"11290"},"geometry":{"type":"MultiPolygon","coordinates":[[[[127.009,37.60866],[127.00919,37.60795],[127.00936,37.60715],[127.00936,37.60698],[127.00938,37.60665],[127.00935,37.60616],[127.00796,37.60598],[127.00777,37.6062],[127.00775,37.60624],[127.00771,37.60631],[127.00758,37.60668],[127.00747,37.6068],[127.00713,37.60703],[127.00669,37.6073],[127.00439,37.60861],[127.00419,37.60868],[127.00396,37.60848],[127.00352,37.60804],[127.00353,37.6079],[127.00363,37.60774],[127.00422,37.60694],[127.0046,37.60482],[127.00272,37.60445],[127.00027,37.60371],[126.99907,37.60328],[126.99909,37.6029],[126.99911,37.60275],[126.99913,37.60258],[126.9993,37.60218],[126.99956,37.60161],[126.99728,37.60208],[126.99542,37.60267],[126.99525,37.6027],[126.9952,37.6027],[126.99514,37.6027],[126.99494,37.60266],[126.99444,37.60257],[126.99393,37.60275],[126.98947,37.60253],[126.98789,37.60134],[126.98774,37.60122],[126.98659,37.60513],[126.98619,37.60628],[126.9859,37.60714],[126.98596,37.60811],[126.98597,37.60838],[126.986,37.6088],[126.98627,37.60994],[126.98677,37.6104],[126.98696,37.61057],[126.98707,37.61355],[126.9867,37.61468],[126.98534,37.61555],[126.98454,37.61587],[126.98398,37.6161],[126.98324,37.61632],[126.98281,37.61669],[126.98202,37.61871],[126.9818,37.61931],[126.98208,37.61992],[126.98137,37.62173],[126.98087,37.62275],[126.98017,37.62355],[126.97921,37.62457],[126.97944,37.62696],[126.97948,37.62716],[126.97967,37.62797],[126.98013,37.62835],[126.9812,37.62835],[126.98216,37.62747],[126.98561,37.62363],[126.98649,37.62307],[126.99225,37.61923],[126.99268,37.61887],[126.99353,37.61812],[126.99299,37.61781],[126.99263,37.61703],[126.99312,37.61492],[126.9943,37.6133],[126.99456,37.61318],[126.99513,37.61322],[126.99546,37.61341],[126.99547,37.6135],[126.99549,37.61365],[126.99756,37.6155],[126.9979,37.61567],[126.99971,37.61663],[127.00048,37.61672],[127.00069,37.61673],[127.00082,37.61673],[127.00252,37.61639],[127.00276,37.61633],[127.00292,37.61629],[127.00576,37.61526],[127.008,37.61221],[127.009,37.60866]]]]}},{"type":"Feature","properties":{"code":"11290650","name":"정릉4동","parent":"11290"},"geometry":{"type":"MultiPolygon","coordinates":[[[[126.99319,37.63203],[126.99325,37.63183],[126.99334,37.63152],[126.99404,37.62999],[126.9941,37.62992],[126.99416,37.6299],[126.99433,37.62983],[126.99455,37.62983],[126.99894,37.62688],[127.00174,37.62571],[127.00236,37.6256],[127.0029,37.62537],[127.0045,37.62444],[127.00644,37.62434],[127.00757,37.62403],[127.00788,37.62391],[127.00782,37.62332],[127.00765,37.6229],[127.00754,37.62265],[127.00748,37.62256],[127.00744,37.62251],[127.00741,37.62247],[127.00737,37.62244],[127.00751,37.62102],[127.00805,37.61937],[127.00849,37.61857],[127.00856,37.61856],[127.00944,37.61817],[127.01147,37.61642],[127.01475,37.61559],[127.01494,37.61542],[127.01525,37.61481],[127.01443,37.61357],[127.01342,37.61161],[127.01198,37.61028],[127.01161,37.60957],[127.01158,37.60841],[127.01053,37.6081],[127.00983,37.60835],[127.009,37.60866],[127.008,37.61221],[127.00576,37.61526],[127.00292,37.61629],[127.00276,37.61633],[127.00252,37.61639],[127.00082,37.61673],[127.00069,37.61673],[127.00048,37.61672],[126.99971,37.61663],[126.9979,37.61567],[126.99756,37.6155],[126.99549,37.61365],[126.99547,37.6135],[126.99546,37.61341],[126.99513,37.61322],[126.99456,37.61318],[126.9943,37.6133],[126.99312,37.61492],[126.99263,37.61703],[126.99299,37.61781],[126.99353,37.61812],[126.99268,37.61887],[126.99225,37.61923],[126.98649,37.62307],[126.98561,37.62363],[126.98216,37.62747],[126.9812,37.62835],[126.98013,37.62835],[126.9805,37.62865],[126.98051,37.62905],[126.98009,37.62927],[126.97952,37.6292],[126.97821,37.62844],[126.97667,37.62884],[126.97635,37.62927],[126.97649,37.63009],[126.97507,37.63139],[126.97672,37.63263],[126.97854,37.63385],[126.98359,37.63645],[126.98366,37.63646],[126.98463,37.63656],[126.98495,37.63617],[126.98522,37.63586],[126.9856,37.63544],[126.98606,37.6352],[126.99182,37.63231],[126.99319,37.63203]]]]}},{"type":"Feature","properties":{"code":"11290660","name":"길음1동","parent":"11290"},"geometry":{"type":"MultiPolygon","coordinates":[[[[127.02203,37.61229],[127.02223,37.61127],[127.02224,37.6112],[127.02293,37.6092],[127.02376,37.60682],[127.02422,37.60556],[127.02459,37.60499],[127.02491,37.60453],[127.02506,37.60432],[127.02511,37.60424],[127.0253,37.60399],[127.02535,37.60393],[127.02545,37.60379],[127.02549,37.60374],[127.02597,37.60318],[127.02164,37.60157],[127.01949,37.60238],[127.01777,37.60384],[127.0164,37.60766],[127.01577,37.60996],[127.0146,37.61195],[127.01443,37.61357],[127.01525,37.61481],[127.01631,37.61496],[127.01764,37.61457],[127.01926,37.61375],[127.01979,37.61326],[127.02038,37.61262],[127.02048,37.61255],[127.02061,37.61252],[127.02067,37.6125],[127.02203,37.61229]]]]}},{"type":"Feature","properties":{"code":"11290685","name":"길음2동","parent":"11290"},"geometry":{"type":"MultiPolygon","coordinates":[[[[127.02998,37.61234],[127.03041,37.60914],[127.03218,37.60346],[127.03022,37.604],[127.02597,37.60318],[127.02549,37.60374],[127.02545,37.60379],[127.02535,37.60393],[127.0253,37.60399],[127.02511,37.60424],[127.02506,37.60432],[127.02491,37.60453],[127.02459,37.60499],[127.02422,37.60556],[127.02376,37.60682],[127.02293,37.6092],[127.02224,37.6112],[127.02223,37.61127],[127.02722,37.61256],[127.02998,37.61234]]]]}},{"type":"Feature","properties":{"code":"11290715","name":"월곡1동","parent":"11290"},"geometry":{"type":"MultiPolygon","coordinates":[[[[127.0436,37.61143],[127.04315,37.61068],[127.04308,37.61052],[127.04255,37.60921],[127.04242,37.60759],[127.0404,37.60615],[127.03862,37.6053],[127.0386,37.60532],[127.03832,37.6055],[127.03706,37.60595],[127.03697,37.60597],[127.03688,37.60599],[127.03713,37.60493],[127.03763,37.60333],[127.03852,37.60249],[127.03218,37.60346],[127.03041,37.60914],[127.0371,37.61271],[127.03727,37.61271],[127.03906,37.61179],[127.04052,37.61107],[127.04075,37.61104],[127.04088,37.61103],[127.04107,37.61101],[127.0418,37.61096],[127.04198,37.61095],[127.0436,37.61143]]]]}},{"type":"Feature","properties":{"code":"11290725","name":"월곡2동","parent":"11290"},"geometry":{"type":"MultiPolygon","coordinates":[[[[127.04544,37.61129],[127.04538,37.60977],[127.04538,37.60969],[127.0454,37.60959],[127.04542,37.60956],[127.04544,37.60951],[127.04661,37.60838],[127.04736,37.60783],[127.04804,37.60785],[127.04829,37.60787],[127.04837,37.60788],[127.04928,37.60828],[127.05014,37.60885],[127.0502,37.60897],[127.0503,37.60914],[127.05032,37.60918],[127.05158,37.60995],[127.0519,37.60965],[127.05242,37.60913],[127.05242,37.60908],[127.05242,37.60905],[127.05239,37.609],[127.05234,37.60891],[127.05177,37.60811],[127.05072,37.60755],[127.05057,37.60685],[127.0506,37.60678],[127.05062,37.60675],[127.05066,37.60669],[127.05113,37.60595],[127.05129,37.60576],[127.05153,37.60555],[127.05161,37.60549],[127.0517,37.6054],[127.05193,37.60511],[127.05216,37.60473],[127.05225,37.60407],[127.05224,37.60286],[127.05161,37.602],[127.05133,37.60163],[127.05101,37.60157],[127.05027,37.60111],[127.04816,37.59756],[127.04777,37.59666],[127.04765,37.59629],[127.04352,37.59691],[127.04075,37.5958],[127.0408,37.59917],[127.0408,37.59924],[127.0408,37.59944],[127.04079,37.59956],[127.04071,37.59988],[127.04069,37.59998],[127.04067,37.60003],[127.04058,37.60028],[127.04052,37.60041],[127.04047,37.6005],[127.04037,37.60068],[127.04032,37.60073],[127.04021,37.60088],[127.03999,37.60113],[127.03852,37.60249],[127.03763,37.60333],[127.03713,37.60493],[127.03688,37.60599],[127.03697,37.60597],[127.03706,37.60595],[127.03832,37.6055],[127.0386,37.60532],[127.03862,37.6053],[127.0404,37.60615],[127.04242,37.60759],[127.04255,37.60921],[127.04308,37.61052],[127.04315,37.61068],[127.0436,37.61143],[127.04455,37.61073],[127.04544,37.61129]]]]}},{"type":"Feature","properties":{"code":"11290760","name":"장위1동","parent":"11290"},"geometry":{"type":"MultiPolygon","coordinates":[[[[127.05039,37.61747],[127.05019,37.61735],[127.04993,37.61718],[127.04956,37.61694],[127.04945,37.61686],[127.04923,37.61668],[127.0491,37.61656],[127.04863,37.61611],[127.0486,37.61607],[127.04855,37.61602],[127.0485,37.61595],[127.04846,37.61591],[127.0484,37.61578],[127.04837,37.61559],[127.04836,37.61552],[127.04836,37.61528],[127.04838,37.61507],[127.04839,37.61494],[127.04844,37.6148],[127.04857,37.61452],[127.04867,37.61432],[127.0487,37.61424],[127.04881,37.61404],[127.04887,37.61391],[127.04902,37.61359],[127.04904,37.61355],[127.04906,37.6135],[127.04889,37.61261],[127.04886,37.61247],[127.04884,37.6124],[127.04831,37.61202],[127.04754,37.61164],[127.04544,37.61129],[127.04455,37.61073],[127.0436,37.61143],[127.04198,37.61095],[127.0418,37.61096],[127.04107,37.61101],[127.04088,37.61103],[127.04075,37.61104],[127.04052,37.61107],[127.03906,37.61179],[127.03727,37.61271],[127.0371,37.61271],[127.03912,37.61631],[127.04019,37.61595],[127.04231,37.61747],[127.04304,37.618],[127.04391,37.61864],[127.04396,37.61868],[127.04455,37.61934],[127.04468,37.61949],[127.04473,37.61955],[127.04608,37.61875],[127.04622,37.61867],[127.04628,37.61863],[127.04646,37.61852],[127.04673,37.61837],[127.04696,37.61879],[127.04705,37.61894],[127.04715,37.61905],[127.04726,37.61916],[127.04749,37.61931],[127.04933,37.62046],[127.04936,37.62043],[127.0495,37.62029],[127.05039,37.61747]]]]}},{"type":"Feature","properties":{"code":"11290770","name":"장위2동","parent":"11290"},"geometry":{"type":"MultiPolygon","coordinates":[[[[127.06067,37.6128],[127.05177,37.60811],[127.05234,37.60891],[127.05239,37.609],[127.05242,37.60905],[127.05242,37.60908],[127.05242,37.60913],[127.0519,37.60965],[127.05158,37.60995],[127.05032,37.60918],[127.0503,37.60914],[127.0502,37.60897],[127.05014,37.60885],[127.04928,37.60828],[127.04837,37.60788],[127.04829,37.60787],[127.04804,37.60785],[127.04736,37.60783],[127.04661,37.60838],[127.04544,37.60951],[127.04542,37.60956],[127.0454,37.60959],[127.04538,37.60969],[127.04538,37.60977],[127.04544,37.61129],[127.04754,37.61164],[127.04831,37.61202],[127.04884,37.6124],[127.04886,37.61247],[127.04889,37.61261],[127.04906,37.6135],[127.04904,37.61355],[127.04902,37.61359],[127.04887,37.61391],[127.04881,37.61404],[127.0487,37.61424],[127.04867,37.61432],[127.04857,37.61452],[127.04844,37.6148],[127.04839,37.61494],[127.04838,37.61507],[127.04836,37.61528],[127.04836,37.61552],[127.04837,37.61559],[127.0484,37.61578],[127.04846,37.61591],[127.0485,37.61595],[127.04855,37.61602],[127.0486,37.61607],[127.04863,37.61611],[127.0491,37.61656],[127.04923,37.61668],[127.04945,37.61686],[127.04956,37.61694],[127.04993,37.61718],[127.05019,37.61735],[127.05039,37.61747],[127.0546,37.61501],[127.05504,37.61522],[127.05547,37.61488],[127.05658,37.6139],[127.0573,37.61321],[127.05797,37.61256],[127.05822,37.61233],[127.06067,37.6128]]]]}},{"type":"Feature","properties":{"code":"11290780","name":"장위3동","parent":"11290"},"geometry":{"type":"MultiPolygon","coordinates":[[[[127.06289,37.61434],[127.06067,37.6128],[127.05822,37.61233],[127.05797,37.61256],[127.0573,37.61321],[127.05658,37.6139],[127.05547,37.61488],[127.05504,37.61522],[127.0546,37.61501],[127.05039,37.61747],[127.0495,37.62029],[127.04936,37.62043],[127.04933,37.62046],[127.04749,37.61931],[127.04726,37.61916],[127.04715,37.61905],[127.04705,37.61894],[127.04696,37.61879],[127.04673,37.61837],[127.04646,37.61852],[127.04628,37.61863],[127.04622,37.61867],[127.04608,37.61875],[127.04473,37.61955],[127.04792,37.62322],[127.04999,37.62443],[127.05111,37.62325],[127.05217,37.62209],[127.05272,37.62153],[127.05335,37.6209],[127.05373,37.62058],[127.05384,37.62048],[127.05396,37.62038],[127.05421,37.62017],[127.05691,37.61812],[127.06061,37.61565],[127.06091,37.61495],[127.06123,37.61477],[127.06146,37.61465],[127.06152,37.61462],[127.06172,37.61452],[127.06201,37.61438],[127.06221,37.61433],[127.06242,37.61429],[127.06274,37.61431],[127.06289,37.61434]]]]}},{"type":"Feature","properties":{"code":"11290525","name":"성북동","parent":"11290"},"geometry":{"type":"MultiPolygon","coordinates":[[[[126.99956,37.60161],[126.9998,37.60167],[127.00064,37.60165],[127.00094,37.6015],[127.00096,37.60148],[127.00115,37.60125],[127.00293,37.5989],[127.00294,37.59796],[127.0047,37.59677],[127.00592,37.59668],[127.00695,37.59659],[127.00725,37.59649],[127.00785,37.59599],[127.0081,37.59556],[127.00842,37.59461],[127.0085,37.59411],[127.00842,37.59312],[127.00818,37.59272],[127.00815,37.59269],[127.00783,37.59252],[127.0077,37.59247],[127.00766,37.59246],[127.00749,37.59225],[127.00747,37.59222],[127.00723,37.59186],[127.00749,37.59163],[127.00953,37.59206],[127.01154,37.59397],[127.01326,37.59181],[127.00696,37.5887],[127.00621,37.58838],[127.00504,37.58793],[127.00419,37.58795],[127.00342,37.58836],[127.00243,37.58906],[127.00239,37.5891],[127.00234,37.58915],[127.00166,37.5901],[127.0017,37.5906],[127.00179,37.59086],[127.00191,37.59125],[127.00168,37.59175],[127.00158,37.59189],[127.00156,37.59192],[127.00094,37.59239],[127.00079,37.59245],[127.00062,37.59245],[126.99937,37.59237],[126.99897,37.59247],[126.99875,37.59252],[126.99853,37.59251],[126.98914,37.59131],[126.98908,37.59139],[126.98948,37.5918],[126.98911,37.59195],[126.98876,37.5921],[126.98753,37.59225],[126.98648,37.59251],[126.98576,37.59279],[126.98533,37.59301],[126.98529,37.59303],[126.98523,37.59306],[126.98468,37.59333],[126.98427,37.59358],[126.98401,37.59376],[126.98387,37.59385],[126.98337,37.59435],[126.98269,37.59507],[126.98265,37.5951],[126.98235,37.59545],[126.98219,37.59563],[126.98201,37.59584],[126.98157,37.59717],[126.98157,37.59804],[126.98157,37.59914],[126.98223,37.59928],[126.98267,37.59938],[126.98272,37.59939],[126.9829,37.59939],[126.98491,37.59944],[126.98637,37.60008],[126.98774,37.60122],[126.98789,37.60134],[126.98947,37.60253],[126.99393,37.60275],[126.99444,37.60257],[126.99494,37.60266],[126.99514,37.6027],[126.9952,37.6027],[126.99525,37.6027],[126.99542,37.60267],[126.99728,37.60208],[126.99956,37.60161]]]]}},{"type":"Feature","properties":{"code":"11290555","name":"삼선동","parent":"11290"},"geometry":{"type":"MultiPolygon","coordinates":[[[[127.01896,37.58883],[127.01878,37.58867],[127.01729,37.58749],[127.01652,37.58687],[127.01469,37.58454],[127.01466,37.58449],[127.01469,37.58223],[127.01383,37.58171],[127.01312,37.58144],[127.0128,37.58132],[127.01216,37.58151],[127.01048,37.58034],[127.00997,37.58021],[127.00884,37.58045],[127.00733,37.5832],[127.00735,37.58336],[127.00715,37.58406],[127.00653,37.58613],[127.00593,37.58691],[127.00574,37.58694],[127.00561,37.58695],[127.00554,37.58696],[127.00512,37.58695],[127.0047,37.58699],[127.00461,37.587],[127.0043,37.58709],[127.00416,37.58729],[127.00418,37.58771],[127.00419,37.58777],[127.00419,37.58795],[127.00504,37.58793],[127.00621,37.58838],[127.00696,37.5887],[127.01326,37.59181],[127.01338,37.59187],[127.0138,37.59209],[127.01403,37.59218],[127.01408,37.59219],[127.01441,37.59231],[127.015,37.59238],[127.01542,37.59242],[127.01651,37.59242],[127.01658,37.5921],[127.01664,37.59182],[127.0167,37.59156],[127.01677,37.59126],[127.01682,37.59103],[127.01686,37.59085],[127.01696,37.59043],[127.01699,37.59035],[127.01708,37.59029],[127.01769,37.5898],[127.01772,37.58978],[127.01779,37.58972],[127.01798,37.58957],[127.0186,37.5891],[127.01896,37.58883]]]]}},{"type":"Feature","properties":{"code":"11290575","name":"동선동","parent":"11290"},"geometry":{"type":"MultiPolygon","coordinates":[[[[127.01972,37.59729],[127.02148,37.5971],[127.02197,37.59698],[127.02208,37.5966],[127.02253,37.5957],[127.02257,37.59564],[127.02449,37.5943],[127.02479,37.59416],[127.02499,37.59413],[127.02446,37.59357],[127.02388,37.59251],[127.02384,37.5924],[127.02379,37.59225],[127.02371,37.59124],[127.02373,37.59096],[127.02211,37.58907],[127.0219,37.5891],[127.02163,37.58914],[127.02133,37.58918],[127.02018,37.58934],[127.01966,37.58941],[127.01896,37.58883],[127.0186,37.5891],[127.01798,37.58957],[127.01779,37.58972],[127.01772,37.58978],[127.01769,37.5898],[127.01708,37.59029],[127.01699,37.59035],[127.01696,37.59043],[127.01686,37.59085],[127.01682,37.59103],[127.01677,37.59126],[127.0167,37.59156],[127.01664,37.59182],[127.01658,37.5921],[127.01651,37.59242],[127.01542,37.59242],[127.015,37.59238],[127.01441,37.59231],[127.01408,37.59219],[127.01403,37.59218],[127.0138,37.59209],[127.01338,37.59187],[127.01326,37.59181],[127.01154,37.59397],[127.01342,37.59523],[127.01307,37.59579],[127.01267,37.59668],[127.01289,37.59821],[127.01334,37.59826],[127.01402,37.59833],[127.01506,37.59841],[127.01615,37.59688],[127.01823,37.59691],[127.01949,37.5971],[127.01972,37.59729]]]]}},{"type":"Feature","properties":{"code":"11290705","name":"종암동","parent":"11290"},"geometry":{"type":"MultiPolygon","coordinates":[[[[127.03218,37.60346],[127.03852,37.60249],[127.03999,37.60113],[127.04021,37.60088],[127.04032,37.60073],[127.04037,37.60068],[127.04047,37.6005],[127.04052,37.60041],[127.04058,37.60028],[127.04067,37.60003],[127.04069,37.59998],[127.04071,37.59988],[127.04079,37.59956],[127.0408,37.59944],[127.0408,37.59924],[127.0408,37.59917],[127.04075,37.5958],[127.03906,37.59127],[127.03649,37.59125],[127.0365,37.59134],[127.03636,37.59161],[127.03593,37.59224],[127.03554,37.59255],[127.03533,37.59249],[127.03514,37.59242],[127.03475,37.59221],[127.03436,37.592],[127.03426,37.59194],[127.03395,37.59179],[127.03354,37.59161],[127.03332,37.59152],[127.03323,37.59148],[127.03203,37.59115],[127.03182,37.59112],[127.03026,37.59125],[127.02499,37.59413],[127.02534,37.5945],[127.0257,37.5949],[127.02599,37.59633],[127.02591,37.59674],[127.02606,37.59766],[127.0263,37.59896],[127.02678,37.6002],[127.02712,37.60075],[127.0292,37.60302],[127.03022,37.604],[127.03218,37.60346]]]]}},{"type":"Feature","properties":{"code":"11290810","name":"석관동","parent":"11290"},"geometry":{"type":"MultiPolygon","coordinates":[[[[127.0714,37.61563],[127.07146,37.61428],[127.07172,37.60681],[127.06936,37.60933],[127.06887,37.60933],[127.06859,37.60932],[127.06873,37.60687],[127.0681,37.60651],[127.06625,37.60582],[127.06497,37.60587],[127.06233,37.60528],[127.06214,37.60514],[127.06167,37.60463],[127.06077,37.60357],[127.06005,37.6021],[127.05726,37.60125],[127.05203,37.59995],[127.05133,37.60163],[127.05161,37.602],[127.05224,37.60286],[127.05225,37.60407],[127.05216,37.60473],[127.05193,37.60511],[127.0517,37.6054],[127.05161,37.60549],[127.05153,37.60555],[127.05129,37.60576],[127.05113,37.60595],[127.05066,37.60669],[127.05062,37.60675],[127.0506,37.60678],[127.05057,37.60685],[127.05072,37.60755],[127.05177,37.60811],[127.06067,37.6128],[127.06289,37.61434],[127.06487,37.61422],[127.06594,37.61428],[127.06605,37.6143],[127.06775,37.61522],[127.06801,37.61544],[127.06801,37.61554],[127.06801,37.61557],[127.07119,37.61637],[127.0714,37.61563]]]]}}]}