{"type":"FeatureCollection","features":[{"type":"Feature","properties":{"code":"41450510","name":"천현동","parent":"41450"},"geometry":{"type":"MultiPolygon","coordinates":[[[[127.23618,37.55045],[127.23842,37.545],[127.23898,37.54467],[127.23937,37.54446],[127.23968,37.54429],[127.2401,37.5441],[127.24028,37.54402],[127.24044,37.54395],[127.24077,37.54384],[127.24105,37.54375],[127.24121,37.5437],[127.24182,37.54351],[127.24213,37.54342],[127.24379,37.54291],[127.24431,37.54276],[127.24507,37.54253],[127.24759,37.54174],[127.24811,37.54157],[127.24836,37.54149],[127.24855,37.5414],[127.25283,37.53916],[127.25549,37.53773],[127.25812,37.53624],[127.25914,37.53565],[127.25947,37.53545],[127.26093,37.53465],[127.26347,37.53327],[127.26382,37.53312],[127.27022,37.53027],[127.27899,37.52636],[127.2801,37.52571],[127.28165,37.52468],[127.28284,37.52359],[127.28358,37.52281],[127.28478,37.52149],[127.28539,37.52018],[127.28568,37.51955],[127.28637,37.5179],[127.28685,37.51667],[127.287,37.51619],[127.28734,37.51518],[127.28758,37.5135],[127.2832,37.51354],[127.28296,37.51352],[127.28286,37.5135],[127.28161,37.51328],[127.28132,37.51322],[127.28043,37.51295],[127.28034,37.51292],[127.28003,37.5128],[127.27965,37.51263],[127.27957,37.51258],[127.27828,37.51136],[127.27821,37.51128],[127.27819,37.51123],[127.27774,37.51011],[127.27775,37.51007],[127.2778,37.50995],[127.27783,37.50988],[127.27793,37.5097],[127.27796,37.5096],[127.27794,37.50955],[127.27725,37.50895],[127.27641,37.50831],[127.27631,37.50826],[127.27622,37.50823],[127.2761,37.5082],[127.27606,37.5082],[127.27602,37.5082],[127.27598,37.50819],[127.27586,37.50818],[127.27567,37.50818],[127.2755,37.50818],[127.27544,37.50819],[127.27537,37.50819],[127.27532,37.50818],[127.27516,37.50818],[127.27499,37.50816],[127.27492,37.50815],[127.27478,37.50813],[127.27472,37.50813],[127.27433,37.50806],[127.2738,37.50797],[127.27351,37.50787],[127.27329,37.50775],[127.27208,37.50757],[127.27178,37.50763],[127.27149,37.50764],[127.27142,37.50764],[127.27134,37.50761],[127.27128,37.5076],[127.27092,37.50747],[127.27042,37.50726],[127.27,37.50699],[127.26991,37.50693],[127.26977,37.50684],[127.2697,37.5068],[127.26963,37.50675],[127.2692,37.50651],[127.26896,37.5064],[127.26891,37.50638],[127.2687,37.50629],[127.26856,37.50624],[127.26844,37.50622],[127.26836,37.50622],[127.26825,37.50622],[127.26816,37.50623],[127.26401,37.50685],[127.26242,37.50718],[127.26228,37.50721],[127.26214,37.50723],[127.2612,37.50724],[127.26103,37.50723],[127.26099,37.50723],[127.26089,37.50721],[127.25949,37.50701],[127.25671,37.50652],[127.25649,37.50647],[127.25623,37.5064],[127.25444,37.50597],[127.25439,37.50596],[127.25338,37.50366],[127.25334,37.50351],[127.25327,37.50325],[127.25553,37.49615],[127.25585,37.49596],[127.25612,37.4958],[127.25727,37.49508],[127.25793,37.49462],[127.25915,37.49211],[127.25916,37.49207],[127.25917,37.49201],[127.25918,37.49124],[127.25918,37.49111],[127.25918,37.491],[127.25918,37.49091],[127.25916,37.49077],[127.2591,37.49059],[127.25904,37.49042],[127.25896,37.49021],[127.25888,37.49005],[127.2588,37.48992],[127.25873,37.48981],[127.25869,37.48975],[127.25864,37.48968],[127.25854,37.48958],[127.25839,37.48944],[127.25793,37.48902],[127.25765,37.48878],[127.25755,37.48873],[127.25745,37.48867],[127.25739,37.48864],[127.25725,37.48857],[127.25705,37.48849],[127.25672,37.48837],[127.25615,37.48819],[127.25582,37.4881],[127.25563,37.48803],[127.25551,37.48797],[127.2554,37.48791],[127.25514,37.48775],[127.25505,37.48769],[127.25499,37.48764],[127.25483,37.48752],[127.2538,37.48656],[127.2537,37.48646],[127.25365,37.48639],[127.25364,37.48635],[127.25363,37.48632],[127.25366,37.48503],[127.25367,37.48497],[127.2537,37.48482],[127.25374,37.48474],[127.25377,37.48466],[127.2538,37.48461],[127.25309,37.48413],[127.25226,37.48358],[127.25056,37.48301],[127.24899,37.48244],[127.24877,37.48235],[127.24847,37.4821],[127.24826,37.48193],[127.24713,37.48069],[127.24704,37.48059],[127.24702,37.48042],[127.24699,37.48017],[127.24679,37.47944],[127.24622,37.47782],[127.24542,37.47761],[127.24387,37.4772],[127.24347,37.47718],[127.24336,37.47718],[127.24322,37.47717],[127.24174,37.47686],[127.241,37.47648],[127.24077,37.47625],[127.24052,37.47599],[127.24049,37.47587],[127.24045,37.4756],[127.23936,37.47514],[127.23906,37.47508],[127.23826,37.47491],[127.23746,37.47493],[127.23155,37.47743],[127.22615,37.47973],[127.22051,37.481],[127.21573,37.4823],[127.21493,37.48221],[127.21449,37.48215],[127.21426,37.48212],[127.21315,37.48192],[127.20937,37.48107],[127.20684,37.48031],[127.20645,37.48032],[127.20634,37.48032],[127.20564,37.48039],[127.20483,37.48046],[127.20415,37.48064],[127.20375,37.4808],[127.20259,37.48171],[127.2025,37.48308],[127.20259,37.48399],[127.20277,37.48538],[127.20391,37.4882],[127.20494,37.4912],[127.2044,37.49162],[127.20368,37.49378],[127.20414,37.49409],[127.20498,37.49466],[127.20579,37.4952],[127.20598,37.49617],[127.20607,37.49797],[127.20612,37.49891],[127.20628,37.49978],[127.20693,37.50262],[127.20722,37.50274],[127.20783,37.503],[127.20868,37.50306],[127.20974,37.50286],[127.21161,37.50304],[127.21297,37.50317],[127.21512,37.504],[127.21582,37.50434],[127.2158,37.50563],[127.21576,37.50835],[127.21509,37.50943],[127.21407,37.51008],[127.21261,37.51164],[127.2115,37.51344],[127.21266,37.51374],[127.2129,37.51392],[127.21302,37.51401],[127.21317,37.51412],[127.21336,37.51483],[127.21348,37.51566],[127.21265,37.5184],[127.2114,37.52049],[127.21177,37.52138],[127.21315,37.52347],[127.21375,37.52497],[127.21377,37.52583],[127.21036,37.5281],[127.21021,37.52813],[127.20829,37.52848],[127.20818,37.5285],[127.20795,37.52854],[127.20715,37.52856],[127.20695,37.52856],[127.20688,37.52855],[127.20679,37.52852],[127.20664,37.52845],[127.20569,37.52788],[127.2033,37.52725],[127.19966,37.52679],[127.19932,37.52812],[127.19947,37.53016],[127.19956,37.53028],[127.19974,37.53053],[127.20104,37.53212],[127.20557,37.53525],[127.2057,37.53531],[127.20773,37.53602],[127.20819,37.53607],[127.20872,37.53624],[127.21089,37.53557],[127.2111,37.53552],[127.21152,37.53543],[127.21623,37.53716],[127.21796,37.53848],[127.21813,37.53858],[127.21837,37.53865],[127.21882,37.53869],[127.21945,37.53874],[127.21967,37.53876],[127.21984,37.53875],[127.21997,37.53871],[127.22013,37.53866],[127.22133,37.53721],[127.22211,37.53629],[127.22272,37.53556],[127.22299,37.5354],[127.22492,37.53488],[127.22526,37.53479],[127.22645,37.53448],[127.22736,37.53424],[127.22801,37.53473],[127.22988,37.53749],[127.22951,37.53823],[127.22909,37.53864],[127.22664,37.54098],[127.22514,37.54186],[127.22634,37.54517],[127.22591,37.547],[127.22941,37.55015],[127.23618,37.55045]]]]}},{"type":"Feature","properties":{"code":"41450520","name":"신장1동","parent":"41450"},"geometry":{"type":"MultiPolygon","coordinates":[[[[127.20872,37.53624],[127.20819,37.53607],[127.20404,37.53821],[127.20429,37.53853],[127.20432,37.53867],[127.20435,37.53881],[127.20437,37.53902],[127.20427,37.53905],[127.20422,37.53906],[127.20437,37.5395],[127.20444,37.53958],[127.2048,37.53994],[127.20499,37.5401],[127.20533,37.5402],[127.2054,37.54022],[127.20552,37.54027],[127.20555,37.54028],[127.20576,37.54038],[127.20584,37.54049],[127.20588,37.54054],[127.20611,37.54065],[127.20628,37.54069],[127.20637,37.54067],[127.20648,37.54094],[127.20638,37.54097],[127.2064,37.54102],[127.20645,37.5412],[127.20648,37.54131],[127.20651,37.54141],[127.20656,37.54144],[127.20656,37.54156],[127.20656,37.54169],[127.20867,37.5408],[127.21078,37.53976],[127.21024,37.53905],[127.21002,37.53879],[127.20961,37.53834],[127.20897,37.53767],[127.20872,37.53624]]]]}},{"type":"Feature","properties":{"code":"41450530","name":"신장2동","parent":"41450"},"geometry":{"type":"MultiPolygon","coordinates":[[[[127.23618,37.55045],[127.22941,37.55015],[127.22591,37.547],[127.22634,37.54517],[127.22514,37.54186],[127.22664,37.54098],[127.22909,37.53864],[127.22951,37.53823],[127.22988,37.53749],[127.22801,37.53473],[127.22736,37.53424],[127.22645,37.53448],[127.22526,37.53479],[127.22492,37.53488],[127.22299,37.5354],[127.22272,37.53556],[127.22211,37.53629],[127.22133,37.53721],[127.22013,37.53866],[127.21997,37.53871],[127.21984,37.53875],[127.21967,37.53876],[127.21945,37.53874],[127.21882,37.53869],[127.21837,37.53865],[127.21813,37.53858],[127.21796,37.53848],[127.21623,37.53716],[127.21152,37.53543],[127.2111,37.53552],[127.21089,37.53557],[127.20872,37.53624],[127.20897,37.53767],[127.20961,37.53834],[127.21002,37.53879],[127.21024,37.53905],[127.21078,37.53976],[127.20867,37.5408],[127.20656,37.54169],[127.20656,37.54177],[127.20656,37.5419],[127.20672,37.54253],[127.20686,37.54272],[127.2075,37.54346],[127.20859,37.54453],[127.21024,37.54619],[127.21042,37.54637],[127.21273,37.54901],[127.21284,37.54929],[127.21283,37.55119],[127.21036,37.55236],[127.21318,37.55366],[127.22475,37.54796],[127.22473,37.5539],[127.21922,37.55392],[127.21944,37.56479],[127.22186,37.56467],[127.22906,37.56336],[127.22966,37.56279],[127.23033,37.56224],[127.23043,37.56216],[127.23047,37.56212],[127.23089,37.56173],[127.23364,37.55869],[127.23399,37.55816],[127.23423,37.55774],[127.2343,37.55747],[127.23437,37.55686],[127.23438,37.55624],[127.23437,37.55559],[127.23436,37.55543],[127.23436,37.55532],[127.23434,37.55458],[127.23434,37.55308],[127.23435,37.55292],[127.23436,37.5528],[127.23439,37.55246],[127.23443,37.55206],[127.23618,37.55045]]]]}},{"type":"Feature","properties":{"code":"41450540","name":"덕풍1동","parent":"41450"},"geometry":{"type":"MultiPolygon","coordinates":[[[[127.20256,37.53878],[127.20404,37.53821],[127.20819,37.53607],[127.20773,37.53602],[127.2057,37.53531],[127.20557,37.53525],[127.20104,37.53212],[127.19974,37.53053],[127.19956,37.53028],[127.19947,37.53016],[127.19932,37.52812],[127.19909,37.52954],[127.19696,37.53209],[127.19687,37.53217],[127.19527,37.53274],[127.19521,37.53274],[127.1939,37.53231],[127.19058,37.53338],[127.19104,37.53391],[127.19115,37.53407],[127.19122,37.53425],[127.1914,37.5348],[127.19129,37.53868],[127.19389,37.54045],[127.19826,37.53659],[127.20225,37.53785],[127.20256,37.53878]]]]}},{"type":"Feature","properties":{"code":"41450550","name":"덕풍2동","parent":"41450"},"geometry":{"type":"MultiPolygon","coordinates":[[[[127.20256,37.53878],[127.20225,37.53785],[127.19826,37.53659],[127.19389,37.54045],[127.19601,37.54118],[127.19608,37.54123],[127.19611,37.54125],[127.19622,37.54137],[127.19631,37.54167],[127.19634,37.54177],[127.19636,37.54185],[127.19639,37.54211],[127.19638,37.54237],[127.1964,37.54289],[127.19667,37.54396],[127.19677,37.54421],[127.19728,37.54524],[127.19847,37.54711],[127.19958,37.54675],[127.2005,37.54621],[127.20389,37.54306],[127.20272,37.54155],[127.20213,37.54078],[127.2015,37.54],[127.20223,37.53908],[127.20238,37.5389],[127.20256,37.53878]]]]}},{"type":"Feature","properties":{"code":"41450580","name":"감북동","parent":"41450"},"geometry":{"type":"MultiPolygon","coordinates":[[[[127.17413,37.50714],[127.17246,37.50852],[127.17017,37.51017],[127.16815,37.51256],[127.1652,37.5147],[127.15481,37.51321],[127.15242,37.513],[127.15205,37.51318],[127.15187,37.51348],[127.15188,37.51539],[127.15048,37.51513],[127.1495,37.5152],[127.14864,37.515],[127.14762,37.51517],[127.14629,37.51533],[127.14466,37.51555],[127.1454,37.5161],[127.1454,37.51633],[127.14541,37.51649],[127.14488,37.5168],[127.14461,37.51696],[127.14501,37.51693],[127.14491,37.51756],[127.14488,37.51777],[127.14484,37.51803],[127.14473,37.51942],[127.14508,37.52026],[127.14524,37.52066],[127.14564,37.52162],[127.1458,37.52199],[127.14635,37.52201],[127.14653,37.52202],[127.14742,37.52207],[127.14776,37.52217],[127.14844,37.52303],[127.14852,37.5232],[127.14854,37.52325],[127.14898,37.52419],[127.14895,37.52431],[127.14897,37.52436],[127.14906,37.5246],[127.14943,37.52563],[127.14958,37.52588],[127.14966,37.52596],[127.1498,37.5261],[127.15082,37.52697],[127.15194,37.52791],[127.15222,37.52814],[127.15243,37.52833],[127.15266,37.52856],[127.15311,37.52909],[127.15326,37.52933],[127.15351,37.53033],[127.15357,37.53102],[127.15355,37.534],[127.15685,37.53144],[127.15727,37.53141],[127.16059,37.52998],[127.16144,37.52961],[127.16166,37.5294],[127.16279,37.52751],[127.1628,37.52747],[127.16284,37.52719],[127.16255,37.52697],[127.16181,37.5266],[127.16167,37.5265],[127.16141,37.52632],[127.1613,37.5261],[127.16122,37.52594],[127.16313,37.52498],[127.16353,37.52485],[127.16376,37.52479],[127.16454,37.52461],[127.16676,37.5245],[127.16755,37.52487],[127.16865,37.52521],[127.16981,37.52518],[127.16987,37.52517],[127.17003,37.52514],[127.17003,37.52511],[127.16983,37.52266],[127.16915,37.52182],[127.16891,37.52144],[127.16888,37.52092],[127.16893,37.52031],[127.16898,37.52017],[127.16904,37.51997],[127.16963,37.51861],[127.17017,37.51818],[127.17188,37.51704],[127.17436,37.51805],[127.1747,37.51845],[127.1751,37.51895],[127.17535,37.51962],[127.17542,37.52062],[127.17548,37.52086],[127.17558,37.52102],[127.17572,37.52114],[127.17758,37.52213],[127.17766,37.52157],[127.1779,37.52138],[127.17825,37.52071],[127.17834,37.52024],[127.17895,37.51895],[127.17885,37.51762],[127.17894,37.51663],[127.18044,37.51508],[127.18051,37.5134],[127.18123,37.51263],[127.18109,37.51177],[127.18123,37.51057],[127.18055,37.5096],[127.18059,37.50727],[127.17932,37.50551],[127.17877,37.50476],[127.17814,37.50424],[127.17737,37.50393],[127.17676,37.50456],[127.17413,37.50714]]]]}},{"type":"Feature","properties":{"code":"41450590","name":"춘궁동","parent":"41450"},"geometry":{"type":"MultiPolygon","coordinates":[[[[127.19932,37.52812],[127.19966,37.52679],[127.2033,37.52725],[127.20569,37.52788],[127.20664,37.52845],[127.20679,37.52852],[127.20688,37.52855],[127.20695,37.52856],[127.20715,37.52856],[127.20795,37.52854],[127.20818,37.5285],[127.20829,37.52848],[127.21021,37.52813],[127.21036,37.5281],[127.21377,37.52583],[127.21375,37.52497],[127.21315,37.52347],[127.21177,37.52138],[127.2114,37.52049],[127.21265,37.5184],[127.21348,37.51566],[127.21336,37.51483],[127.21317,37.51412],[127.21302,37.51401],[127.2129,37.51392],[127.21266,37.51374],[127.2115,37.51344],[127.21261,37.51164],[127.21407,37.51008],[127.21509,37.50943],[127.21576,37.50835],[127.2158,37.50563],[127.21582,37.50434],[127.21512,37.504],[127.21297,37.50317],[127.21161,37.50304],[127.20974,37.50286],[127.20868,37.50306],[127.20783,37.503],[127.20722,37.50274],[127.20693,37.50262],[127.20628,37.49978],[127.20612,37.49891],[127.20607,37.49797],[127.20598,37.49617],[127.20579,37.4952],[127.20498,37.49466],[127.20414,37.49409],[127.20368,37.49378],[127.2044,37.49162],[127.20494,37.4912],[127.20391,37.4882],[127.20277,37.48538],[127.20259,37.48399],[127.2025,37.48308],[127.20259,37.48171],[127.20219,37.48091],[127.20194,37.48077],[127.20133,37.48044],[127.20104,37.48036],[127.19804,37.47959],[127.19761,37.47968],[127.19707,37.47979],[127.19629,37.48009],[127.19614,37.48015],[127.19527,37.48028],[127.19238,37.48072],[127.18918,37.48022],[127.18892,37.48024],[127.18842,37.48027],[127.18761,37.48046],[127.18663,37.48069],[127.18547,37.48102],[127.18478,37.48165],[127.18319,37.48357],[127.18098,37.48411],[127.17927,37.48469],[127.17895,37.48498],[127.17893,37.48501],[127.17873,37.48519],[127.17908,37.48648],[127.17706,37.48905],[127.17641,37.4901],[127.17621,37.49385],[127.17603,37.49479],[127.17622,37.49542],[127.17617,37.49608],[127.17629,37.49683],[127.17554,37.49787],[127.17522,37.49978],[127.17694,37.50189],[127.17717,37.50284],[127.17734,37.50348],[127.17741,37.5039],[127.17737,37.50393],[127.17814,37.50424],[127.17877,37.50476],[127.17932,37.50551],[127.18059,37.50727],[127.18055,37.5096],[127.18123,37.51057],[127.18109,37.51177],[127.18123,37.51263],[127.18051,37.5134],[127.18044,37.51508],[127.17894,37.51663],[127.17885,37.51762],[127.17895,37.51895],[127.17834,37.52024],[127.17825,37.52071],[127.1779,37.52138],[127.17766,37.52157],[127.17758,37.52213],[127.17811,37.52237],[127.17871,37.52251],[127.18045,37.52377],[127.18101,37.5243],[127.18392,37.52727],[127.18824,37.53128],[127.19001,37.53261],[127.19058,37.53338],[127.1939,37.53231],[127.19521,37.53274],[127.19527,37.53274],[127.19687,37.53217],[127.19696,37.53209],[127.19909,37.52954],[127.19932,37.52812]]]]}},{"type":"Feature","properties":{"code":"41450600","name":"초이동","parent":"41450"},"geometry":{"type":"MultiPolygon","coordinates":[[[[127.18355,37.54583],[127.18385,37.54479],[127.18389,37.54468],[127.18391,37.54464],[127.18396,37.5446],[127.18407,37.54458],[127.18478,37.54464],[127.18482,37.54464],[127.18489,37.54465],[127.18496,37.54466],[127.18557,37.54481],[127.18729,37.54244],[127.18738,37.5419],[127.18716,37.54074],[127.18714,37.54054],[127.1871,37.54026],[127.18776,37.53826],[127.18878,37.5385],[127.1898,37.53873],[127.191,37.53889],[127.19129,37.53868],[127.1914,37.5348],[127.19122,37.53425],[127.19115,37.53407],[127.19104,37.53391],[127.19058,37.53338],[127.19001,37.53261],[127.18824,37.53128],[127.18392,37.52727],[127.18101,37.5243],[127.18045,37.52377],[127.17871,37.52251],[127.17811,37.52237],[127.17758,37.52213],[127.17572,37.52114],[127.17558,37.52102],[127.17548,37.52086],[127.17542,37.52062],[127.17535,37.51962],[127.1751,37.51895],[127.1747,37.51845],[127.17436,37.51805],[127.17188,37.51704],[127.17017,37.51818],[127.16963,37.51861],[127.16904,37.51997],[127.16898,37.52017],[127.16893,37.52031],[127.16888,37.52092],[127.16891,37.52144],[127.16915,37.52182],[127.16983,37.52266],[127.17003,37.52511],[127.17003,37.52514],[127.16987,37.52517],[127.16981,37.52518],[127.16865,37.52521],[127.16755,37.52487],[127.16676,37.5245],[127.16454,37.52461],[127.16376,37.52479],[127.16353,37.52485],[127.16313,37.52498],[127.16122,37.52594],[127.1613,37.5261],[127.16141,37.52632],[127.16167,37.5265],[127.16181,37.5266],[127.16255,37.52697],[127.16284,37.52719],[127.1628,37.52747],[127.16279,37.52751],[127.16166,37.5294],[127.16144,37.52961],[127.16059,37.52998],[127.15727,37.53141],[127.15685,37.53144],[127.15355,37.534],[127.15385,37.53417],[127.15441,37.53476],[127.15456,37.53493],[127.15673,37.53758],[127.15687,37.53776],[127.15699,37.53794],[127.15701,37.53805],[127.157,37.53817],[127.15699,37.53837],[127.15756,37.53903],[127.15868,37.54015],[127.15966,37.541],[127.1604,37.5416],[127.16319,37.54502],[127.16411,37.54486],[127.1686,37.54519],[127.17397,37.54553],[127.17413,37.54541],[127.17425,37.54532],[127.17439,37.54522],[127.17465,37.54522],[127.17559,37.54521],[127.17689,37.54586],[127.17763,37.54621],[127.17884,37.54658],[127.17905,37.54664],[127.17925,37.5466],[127.17977,37.54651],[127.18013,37.54644],[127.18061,37.5461],[127.18091,37.54588],[127.18355,37.54583]]]]}},{"type":"Feature","properties":{"code":"41450630","name":"미사3동","parent":"41450"},"geometry":{"type":"MultiPolygon","coordinates":[[[[127.19774,37.55558],[127.19559,37.55479],[127.19285,37.55349],[127.19357,37.55231],[127.19648,37.55191],[127.19694,37.5515],[127.19749,37.55221],[127.19785,37.55265],[127.19817,37.55304],[127.19831,37.55321],[127.19919,37.55278],[127.19916,37.55241],[127.19911,37.552],[127.19869,37.55205],[127.19853,37.55171],[127.19781,37.54923],[127.19774,37.54896],[127.1984,37.54902],[127.19856,37.549],[127.19847,37.54711],[127.19728,37.54524],[127.19677,37.54421],[127.19667,37.54396],[127.1964,37.54289],[127.19638,37.54237],[127.19639,37.54211],[127.19636,37.54185],[127.19634,37.54177],[127.19631,37.54167],[127.19622,37.54137],[127.19611,37.54125],[127.19608,37.54123],[127.19601,37.54118],[127.19389,37.54045],[127.19129,37.53868],[127.191,37.53889],[127.1898,37.53873],[127.18878,37.5385],[127.18776,37.53826],[127.1871,37.54026],[127.18714,37.54054],[127.18716,37.54074],[127.18738,37.5419],[127.18729,37.54244],[127.18557,37.54481],[127.18496,37.54466],[127.18489,37.54465],[127.18482,37.54464],[127.18478,37.54464],[127.18407,37.54458],[127.18396,37.5446],[127.18391,37.54464],[127.18389,37.54468],[127.18385,37.54479],[127.18355,37.54583],[127.18337,37.54602],[127.18283,37.54656],[127.18139,37.55285],[127.18138,37.55302],[127.18137,37.55315],[127.18158,37.55762],[127.18165,37.55789],[127.18171,37.55817],[127.18183,37.55865],[127.18185,37.55873],[127.18188,37.55886],[127.18475,37.55948],[127.18757,37.56009],[127.18925,37.55992],[127.19029,37.5599],[127.19218,37.56039],[127.19387,37.56084],[127.19441,37.56003],[127.19774,37.55558]]]]}},{"type":"Feature","properties":{"code":"41450610","name":"미사1동","parent":"41450"},"geometry":{"type":"MultiPolygon","coordinates":[[[[127.22186,37.56467],[127.21944,37.56479],[127.21922,37.55392],[127.22473,37.5539],[127.22475,37.54796],[127.21318,37.55366],[127.21145,37.55549],[127.20602,37.56155],[127.20568,37.56186],[127.20346,37.56019],[127.19777,37.55561],[127.19774,37.55558],[127.19441,37.56003],[127.19387,37.56084],[127.19218,37.56039],[127.19029,37.5599],[127.18925,37.55992],[127.18757,37.56009],[127.18475,37.55948],[127.18188,37.55886],[127.18193,37.55915],[127.18198,37.55941],[127.18199,37.55945],[127.18199,37.55959],[127.18202,37.56022],[127.18199,37.56062],[127.18197,37.56094],[127.18182,37.56133],[127.18156,37.56175],[127.18112,37.56244],[127.17976,37.56505],[127.17965,37.56541],[127.1796,37.56556],[127.17957,37.56567],[127.17957,37.56571],[127.17948,37.56654],[127.18233,37.56666],[127.18533,37.56672],[127.18594,37.56673],[127.19025,37.56739],[127.1969,37.56914],[127.1979,37.56942],[127.19434,37.58052],[127.19197,37.58248],[127.19428,37.58257],[127.19984,37.58233],[127.20268,37.58121],[127.20619,37.5851],[127.20843,37.58181],[127.21068,37.57987],[127.21294,37.57697],[127.21583,37.57556],[127.21967,37.5739],[127.22004,37.57189],[127.22011,37.56696],[127.22186,37.56467]]]]}},{"type":"Feature","properties":{"code":"41450620","name":"미사2동","parent":"41450"},"geometry":{"type":"MultiPolygon","coordinates":[[[[127.20243,37.58818],[127.20619,37.5851],[127.20268,37.58121],[127.19984,37.58233],[127.19428,37.58257],[127.19197,37.58248],[127.19434,37.58052],[127.1979,37.56942],[127.1969,37.56914],[127.19025,37.56739],[127.18594,37.56673],[127.18533,37.56672],[127.18233,37.56666],[127.17948,37.56654],[127.17945,37.56756],[127.17942,37.56774],[127.1794,37.56787],[127.17926,37.56869],[127.17924,37.56876],[127.17923,37.56882],[127.17911,37.56915],[127.17782,37.57147],[127.17614,37.57413],[127.17606,37.57428],[127.17592,37.57461],[127.17582,37.57485],[127.17536,37.57729],[127.1754,37.57761],[127.17546,37.57802],[127.17551,37.57838],[127.17697,37.57946],[127.17738,37.58022],[127.17767,37.58083],[127.17694,37.58071],[127.17501,37.58005],[127.17395,37.57958],[127.17192,37.57942],[127.16857,37.57895],[127.16856,37.57983],[127.16936,37.58033],[127.17076,37.58092],[127.17178,37.58198],[127.17324,37.58259],[127.17476,37.5838],[127.17681,37.58555],[127.17747,37.58623],[127.17861,37.58676],[127.18022,37.58789],[127.18097,37.58885],[127.1816,37.58993],[127.18243,37.59091],[127.18338,37.5917],[127.18479,37.59182],[127.18533,37.59172],[127.18935,37.59184],[127.19124,37.59171],[127.19135,37.59171],[127.19194,37.59176],[127.19237,37.59179],[127.19296,37.59185],[127.19372,37.59192],[127.19402,37.59194],[127.19464,37.59193],[127.19506,37.5919],[127.19646,37.59177],[127.19712,37.59167],[127.19722,37.59165],[127.19757,37.59159],[127.19788,37.59153],[127.19826,37.59143],[127.19864,37.59134],[127.19929,37.59114],[127.19974,37.59093],[127.19989,37.59085],[127.20028,37.59064],[127.20064,37.59044],[127.20078,37.59036],[127.20125,37.59004],[127.20162,37.58979],[127.20195,37.58953],[127.20204,37.58942],[127.20217,37.58927],[127.2023,37.58893],[127.20241,37.58841],[127.20243,37.58818]]]]}},{"type":"Feature","properties":{"code":"41450560","name":"덕풍3동","parent":"41450"},"geometry":{"type":"MultiPolygon","coordinates":[[[[127.21318,37.55366],[127.21036,37.55236],[127.21283,37.55119],[127.21284,37.54929],[127.21273,37.54901],[127.21042,37.54637],[127.21024,37.54619],[127.20859,37.54453],[127.2075,37.54346],[127.20686,37.54272],[127.20672,37.54253],[127.20656,37.5419],[127.20656,37.54177],[127.20656,37.54169],[127.20656,37.54156],[127.20656,37.54144],[127.20651,37.54141],[127.20648,37.54131],[127.20645,37.5412],[127.2064,37.54102],[127.20638,37.54097],[127.20648,37.54094],[127.20637,37.54067],[127.20628,37.54069],[127.20611,37.54065],[127.20588,37.54054],[127.20584,37.54049],[127.20576,37.54038],[127.20555,37.54028],[127.20552,37.54027],[127.2054,37.54022],[127.20533,37.5402],[127.20499,37.5401],[127.2048,37.53994],[127.20444,37.53958],[127.20437,37.5395],[127.20422,37.53906],[127.20427,37.53905],[127.20437,37.53902],[127.20435,37.53881],[127.20432,37.53867],[127.20429,37.53853],[127.20404,37.53821],[127.20256,37.53878],[127.20238,37.5389],[127.20223,37.53908],[127.2015,37.54],[127.20213,37.54078],[127.20272,37.54155],[127.20389,37.54306],[127.2005,37.54621],[127.19958,37.54675],[127.19847,37.54711],[127.19856,37.549],[127.1984,37.54902],[127.19774,37.54896],[127.19781,37.54923],[127.19853,37.55171],[127.19869,37.55205],[127.19911,37.552],[127.19916,37.55241],[127.19919,37.55278],[127.19831,37.55321],[127.19817,37.55304],[127.19785,37.55265],[127.19749,37.55221],[127.19694,37.5515],[127.19648,37.55191],[127.19357,37.55231],[127.19285,37.55349],[127.19559,37.55479],[127.19774,37.55558],[127.19777,37.55561],[127.20346,37.56019],[127.20568,37.56186],[127.20602,37.56155],[127.21145,37.55549],[127.21318,37.55366]]]]}},{"type":"Feature","properties":{"code":"41450585","name":"위례동","parent":"41450"},"geometry":{"type":"MultiPolygon","coordinates":[[[[127.17579,37.48528],[127.17579,37.4852],[127.17603,37.48288],[127.17559,37.47815],[127.17584,37.47677],[127.17783,37.4749],[127.17802,37.47478],[127.17922,37.47447],[127.18087,37.4738],[127.18105,37.47329],[127.18083,37.47337],[127.18053,37.47356],[127.18022,37.47375],[127.18013,37.47375],[127.18004,37.47376],[127.17781,37.47342],[127.17773,37.47341],[127.1768,37.47288],[127.1763,37.47256],[127.17596,37.4722],[127.1733,37.47143],[127.17221,37.47093],[127.17193,37.47076],[127.17161,37.47057],[127.17074,37.46995],[127.16708,37.46928],[127.16462,37.4691],[127.16405,37.4693],[127.16364,37.4695],[127.16327,37.46969],[127.1625,37.4702],[127.16238,37.47031],[127.16225,37.47042],[127.1628,37.47126],[127.15645,37.47145],[127.15587,37.47155],[127.15544,37.47151],[127.15436,37.47173],[127.15445,37.47369],[127.14345,37.4741],[127.14354,37.47525],[127.1439,37.476],[127.14419,37.47656],[127.14424,37.47732],[127.1474,37.47722],[127.14772,37.48175],[127.14874,37.48399],[127.14984,37.48527],[127.15196,37.48658],[127.15225,37.48625],[127.15764,37.48914],[127.1573,37.48963],[127.15768,37.49017],[127.15839,37.48992],[127.15907,37.48937],[127.1594,37.48907],[127.15983,37.48878],[127.16104,37.48829],[127.16124,37.48802],[127.16249,37.48761],[127.16291,37.48731],[127.16341,37.48725],[127.16413,37.48684],[127.16491,37.48656],[127.16604,37.48654],[127.16508,37.48619],[127.16532,37.4859],[127.16631,37.48595],[127.16705,37.48558],[127.1685,37.4859],[127.16999,37.48559],[127.17138,37.48534],[127.17289,37.48519],[127.17579,37.48528]]]]}},{"type":"Feature","properties":{"code":"41450582","name":"감일동","parent":"41450"},"geometry":{"type":"MultiPolygon","coordinates":[[[[127.14113,37.51564],[127.14466,37.51555],[127.14629,37.51533],[127.14762,37.51517],[127.14864,37.515],[127.1495,37.5152],[127.15048,37.51513],[127.15188,37.51539],[127.15187,37.51348],[127.15205,37.51318],[127.15242,37.513],[127.15481,37.51321],[127.1652,37.5147],[127.16815,37.51256],[127.17017,37.51017],[127.17246,37.50852],[127.17413,37.50714],[127.17676,37.50456],[127.17737,37.50393],[127.17741,37.5039],[127.17734,37.50348],[127.17717,37.50284],[127.17694,37.50189],[127.17522,37.49978],[127.17554,37.49787],[127.17629,37.49683],[127.17617,37.49608],[127.17622,37.49542],[127.17603,37.49479],[127.17621,37.49385],[127.17641,37.4901],[127.17706,37.48905],[127.17908,37.48648],[127.17873,37.48519],[127.17839,37.48526],[127.17781,37.48549],[127.17773,37.48552],[127.17765,37.48554],[127.17748,37.48555],[127.17678,37.48546],[127.17593,37.48534],[127.17586,37.48532],[127.17583,37.4853],[127.17579,37.48528],[127.17289,37.48519],[127.17138,37.48534],[127.16999,37.48559],[127.1685,37.4859],[127.16705,37.48558],[127.16631,37.48595],[127.16532,37.4859],[127.16508,37.48619],[127.16604,37.48654],[127.16491,37.48656],[127.16413,37.48684],[127.16341,37.48725],[127.16291,37.48731],[127.16249,37.48761],[127.16124,37.48802],[127.16104,37.48829],[127.15983,37.48878],[127.1594,37.48907],[127.15907,37.48937],[127.15839,37.48992],[127.15768,37.49017],[127.1582,37.49046],[127.15842,37.4907],[127.15974,37.4936],[127.15981,37.49376],[127.15998,37.49422],[127.16005,37.49445],[127.16005,37.4946],[127.1601,37.49716],[127.16056,37.4977],[127.16138,37.49961],[127.16138,37.49983],[127.16138,37.50025],[127.16055,37.50115],[127.15787,37.50301],[127.15762,37.50309],[127.15647,37.5019],[127.15617,37.502],[127.15532,37.50229],[127.15456,37.50255],[127.15415,37.50269],[127.15396,37.50276],[127.15372,37.50275],[127.1536,37.50275],[127.15321,37.50275],[127.15301,37.50291],[127.15282,37.50306],[127.15263,37.50312],[127.15215,37.50309],[127.15206,37.50311],[127.1519,37.50315],[127.15167,37.50337],[127.15084,37.50411],[127.15012,37.50451],[127.14929,37.50407],[127.14864,37.50373],[127.14769,37.50327],[127.14605,37.50337],[127.1456,37.50343],[127.14524,37.5035],[127.14513,37.50359],[127.14506,37.50365],[127.14437,37.50439],[127.14356,37.50445],[127.1434,37.50452],[127.14301,37.50467],[127.14114,37.50545],[127.14104,37.50557],[127.14093,37.5057],[127.14116,37.50631],[127.14128,37.50694],[127.14023,37.50839],[127.13997,37.50859],[127.14025,37.50983],[127.14027,37.5099],[127.14113,37.51232],[127.14206,37.51279],[127.14258,37.51275],[127.14352,37.51269],[127.14329,37.51398],[127.14113,37.51564]]]]}}]}