{"type":"FeatureCollection","features":[{"type":"Feature","properties":{"code":"41173510","name":"비산1동","parent":"41173"},"geometry":{"type":"MultiPolygon","coordinates":[[[[126.9382,37.41304],[126.94008,37.41181],[126.94017,37.41167],[126.94005,37.41073],[126.94004,37.41069],[126.94001,37.41056],[126.93978,37.4102],[126.93969,37.41005],[126.93904,37.40897],[126.9384,37.40712],[126.93833,37.40689],[126.93922,37.40652],[126.93961,37.40637],[126.93997,37.40637],[126.94105,37.40565],[126.94114,37.40557],[126.9412,37.40552],[126.94144,37.40528],[126.9416,37.40509],[126.94169,37.40493],[126.94175,37.40441],[126.94124,37.40244],[126.9429,37.40072],[126.94235,37.40066],[126.94116,37.40051],[126.94131,37.39995],[126.9414,37.39962],[126.94143,37.39952],[126.94149,37.3993],[126.94145,37.39884],[126.9364,37.39879],[126.93579,37.39879],[126.93571,37.39879],[126.93552,37.39879],[126.93537,37.39879],[126.93463,37.39872],[126.9341,37.39865],[126.93402,37.39864],[126.93397,37.39862],[126.93363,37.39853],[126.93332,37.3984],[126.93317,37.39832],[126.93229,37.39786],[126.93149,37.39742],[126.93146,37.39744],[126.93032,37.39868],[126.92955,37.39943],[126.9285,37.40029],[126.9279,37.40079],[126.92786,37.40082],[126.92784,37.40083],[126.92824,37.40494],[126.92752,37.40734],[126.92779,37.40885],[126.92802,37.40944],[126.92831,37.41033],[126.9294,37.41339],[126.93306,37.41379],[126.93522,37.41332],[126.93655,37.41354],[126.93708,37.41419],[126.9382,37.41304]]]]}},{"type":"Feature","properties":{"code":"41173520","name":"비산2동","parent":"41173"},"geometry":{"type":"MultiPolygon","coordinates":[[[[126.94543,37.3986],[126.9429,37.3972],[126.94262,37.39704],[126.93997,37.39555],[126.93994,37.39554],[126.94038,37.3952],[126.94196,37.39397],[126.9433,37.39296],[126.94402,37.39242],[126.94134,37.39182],[126.94082,37.39217],[126.94055,37.39261],[126.94033,37.39287],[126.94016,37.39306],[126.93972,37.3935],[126.9387,37.39407],[126.93805,37.39443],[126.93767,37.39465],[126.93149,37.39742],[126.93229,37.39786],[126.93317,37.39832],[126.93332,37.3984],[126.93363,37.39853],[126.93397,37.39862],[126.93402,37.39864],[126.9341,37.39865],[126.93463,37.39872],[126.93537,37.39879],[126.93552,37.39879],[126.93571,37.39879],[126.93579,37.39879],[126.9364,37.39879],[126.94145,37.39884],[126.94149,37.3993],[126.94143,37.39952],[126.9414,37.39962],[126.94131,37.39995],[126.94116,37.40051],[126.94235,37.40066],[126.9429,37.40072],[126.94388,37.39903],[126.94543,37.3986]]]]}},{"type":"Feature","properties":{"code":"41173530","name":"비산3동","parent":"41173"},"geometry":{"type":"MultiPolygon","coordinates":[[[[126.96133,37.42924],[126.95962,37.42808],[126.9588,37.4267],[126.95864,37.42488],[126.95789,37.42425],[126.95889,37.42114],[126.95969,37.41818],[126.95914,37.41632],[126.95794,37.41427],[126.95396,37.41138],[126.95392,37.41134],[126.95387,37.41129],[126.9528,37.40929],[126.95271,37.40861],[126.95264,37.40812],[126.95268,37.40753],[126.95287,37.40587],[126.95318,37.4038],[126.95319,37.40376],[126.95328,37.40341],[126.9533,37.40336],[126.95357,37.40239],[126.95361,37.40223],[126.95364,37.40215],[126.95376,37.40177],[126.95401,37.40098],[126.95065,37.40072],[126.94543,37.3986],[126.94388,37.39903],[126.9429,37.40072],[126.94124,37.40244],[126.94175,37.40441],[126.94169,37.40493],[126.9416,37.40509],[126.94144,37.40528],[126.9412,37.40552],[126.94114,37.40557],[126.94105,37.40565],[126.93997,37.40637],[126.93961,37.40637],[126.93922,37.40652],[126.93833,37.40689],[126.9384,37.40712],[126.93904,37.40897],[126.93969,37.41005],[126.93978,37.4102],[126.94001,37.41056],[126.94004,37.41069],[126.94005,37.41073],[126.94017,37.41167],[126.94008,37.41181],[126.9382,37.41304],[126.93708,37.41419],[126.94181,37.41908],[126.94742,37.42136],[126.94631,37.42171],[126.94802,37.42231],[126.94813,37.42783],[126.94893,37.42987],[126.9483,37.43096],[126.94886,37.43196],[126.94788,37.43554],[126.94822,37.43852],[126.95102,37.43842],[126.95259,37.43921],[126.95525,37.43859],[126.95925,37.4392],[126.95998,37.44026],[126.96302,37.44031],[126.9638,37.44077],[126.96548,37.44031],[126.96497,37.43914],[126.96505,37.43883],[126.96503,37.43867],[126.96493,37.43851],[126.96431,37.43764],[126.96424,37.43139],[126.96264,37.43107],[126.96227,37.42899],[126.96133,37.42924]]]]}},{"type":"Feature","properties":{"code":"41173540","name":"부흥동","parent":"41173"},"geometry":{"type":"MultiPolygon","coordinates":[[[[126.95096,37.3911],[126.94816,37.38911],[126.94812,37.38907],[126.94438,37.39212],[126.94402,37.39242],[126.9433,37.39296],[126.94196,37.39397],[126.94038,37.3952],[126.93994,37.39554],[126.93997,37.39555],[126.94262,37.39704],[126.9429,37.3972],[126.94543,37.3986],[126.94824,37.39581],[126.94869,37.39534],[126.94871,37.39532],[126.94875,37.39526],[126.94893,37.39493],[126.94901,37.3948],[126.94936,37.39416],[126.94965,37.39362],[126.94971,37.3935],[126.94979,37.39336],[126.95096,37.3911]]]]}},{"type":"Feature","properties":{"code":"41173546","name":"달안동","parent":"41173"},"geometry":{"type":"MultiPolygon","coordinates":[[[[126.95517,37.39254],[126.95096,37.3911],[126.94979,37.39336],[126.94971,37.3935],[126.94965,37.39362],[126.94936,37.39416],[126.94901,37.3948],[126.94893,37.39493],[126.94875,37.39526],[126.94871,37.39532],[126.94869,37.39534],[126.94824,37.39581],[126.94543,37.3986],[126.95065,37.40072],[126.95517,37.39254]]]]}},{"type":"Feature","properties":{"code":"41173552","name":"관양동","parent":"41173"},"geometry":{"type":"MultiPolygon","coordinates":[[[[126.97854,37.40319],[126.97648,37.4023],[126.97289,37.4044],[126.97266,37.4045],[126.97235,37.40464],[126.972,37.40479],[126.97141,37.40486],[126.96771,37.40467],[126.96627,37.40457],[126.96605,37.40456],[126.96568,37.40453],[126.96555,37.40452],[126.96498,37.40445],[126.96483,37.40443],[126.96449,37.40439],[126.96455,37.40403],[126.96474,37.40323],[126.96482,37.4029],[126.96484,37.40282],[126.96494,37.40241],[126.965,37.40219],[126.96442,37.402],[126.96435,37.40199],[126.96425,37.40197],[126.96387,37.40194],[126.96358,37.40192],[126.9629,37.40187],[126.9626,37.40184],[126.96244,37.40183],[126.96157,37.40177],[126.9614,37.40177],[126.961,37.4018],[126.96063,37.40183],[126.96052,37.40184],[126.9603,37.40187],[126.96,37.40193],[126.95985,37.40196],[126.95967,37.40198],[126.95914,37.40204],[126.95878,37.40209],[126.9579,37.40218],[126.95766,37.40216],[126.95746,37.40214],[126.95711,37.40205],[126.957,37.40202],[126.95691,37.40199],[126.95685,37.40198],[126.9567,37.40193],[126.95401,37.40098],[126.95376,37.40177],[126.95364,37.40215],[126.95361,37.40223],[126.95357,37.40239],[126.9533,37.40336],[126.95328,37.40341],[126.95319,37.40376],[126.95318,37.4038],[126.95287,37.40587],[126.95268,37.40753],[126.95264,37.40812],[126.95271,37.40861],[126.9528,37.40929],[126.95387,37.41129],[126.95392,37.41134],[126.95396,37.41138],[126.95794,37.41427],[126.95914,37.41632],[126.95969,37.41818],[126.95889,37.42114],[126.95789,37.42425],[126.95864,37.42488],[126.9588,37.4267],[126.95962,37.42808],[126.96133,37.42924],[126.96227,37.42899],[126.96184,37.42687],[126.96091,37.42603],[126.96181,37.42456],[126.96219,37.42247],[126.96263,37.42106],[126.96284,37.42073],[126.9638,37.41934],[126.96389,37.41923],[126.96393,37.4192],[126.96402,37.41913],[126.966,37.41821],[126.96656,37.41801],[126.9671,37.41782],[126.96754,37.41766],[126.96819,37.41747],[126.96837,37.41741],[126.97077,37.41631],[126.97376,37.41496],[126.97526,37.4126],[126.97544,37.41174],[126.97575,37.41011],[126.97549,37.40919],[126.97577,37.40714],[126.97615,37.4061],[126.97817,37.40345],[126.9782,37.40342],[126.97826,37.40336],[126.97838,37.40328],[126.97842,37.40325],[126.97854,37.40319]]]]}},{"type":"Feature","properties":{"code":"41173559","name":"인덕원동","parent":"41173"},"geometry":{"type":"MultiPolygon","coordinates":[[[[126.97854,37.40319],[126.98037,37.40304],[126.98045,37.40303],[126.98083,37.40282],[126.98193,37.40183],[126.98199,37.40174],[126.98257,37.40067],[126.98268,37.40035],[126.98256,37.39994],[126.98247,37.39962],[126.98223,37.39896],[126.98219,37.39884],[126.98173,37.39822],[126.98155,37.39804],[126.98136,37.3979],[126.98087,37.3977],[126.97951,37.39589],[126.97834,37.39628],[126.97772,37.39645],[126.97662,37.39664],[126.97584,37.3966],[126.97386,37.39646],[126.97386,37.39638],[126.97384,37.39609],[126.9738,37.39515],[126.97425,37.39377],[126.97448,37.39233],[126.97446,37.39227],[126.97441,37.39211],[126.97431,37.39188],[126.97423,37.39167],[126.97109,37.3907],[126.97087,37.39071],[126.97071,37.39072],[126.96944,37.39084],[126.96934,37.39175],[126.96892,37.39526],[126.96882,37.39592],[126.96881,37.39599],[126.96875,37.39599],[126.96792,37.39593],[126.96407,37.39555],[126.96051,37.40087],[126.96,37.40193],[126.9603,37.40187],[126.96052,37.40184],[126.96063,37.40183],[126.961,37.4018],[126.9614,37.40177],[126.96157,37.40177],[126.96244,37.40183],[126.9626,37.40184],[126.9629,37.40187],[126.96358,37.40192],[126.96387,37.40194],[126.96425,37.40197],[126.96435,37.40199],[126.96442,37.402],[126.965,37.40219],[126.96494,37.40241],[126.96484,37.40282],[126.96482,37.4029],[126.96474,37.40323],[126.96455,37.40403],[126.96449,37.40439],[126.96483,37.40443],[126.96498,37.40445],[126.96555,37.40452],[126.96568,37.40453],[126.96605,37.40456],[126.96627,37.40457],[126.96771,37.40467],[126.97141,37.40486],[126.972,37.40479],[126.97235,37.40464],[126.97266,37.4045],[126.97289,37.4044],[126.97648,37.4023],[126.97854,37.40319]]]]}},{"type":"Feature","properties":{"code":"41173566","name":"부림동","parent":"41173"},"geometry":{"type":"MultiPolygon","coordinates":[[[[126.96,37.40193],[126.96051,37.40087],[126.96407,37.39555],[126.96412,37.39548],[126.96516,37.39362],[126.96069,37.39207],[126.95957,37.39168],[126.9579,37.39111],[126.95639,37.39059],[126.95624,37.39053],[126.95517,37.39254],[126.95065,37.40072],[126.95401,37.40098],[126.9567,37.40193],[126.95685,37.40198],[126.95691,37.40199],[126.957,37.40202],[126.95711,37.40205],[126.95746,37.40214],[126.95766,37.40216],[126.9579,37.40218],[126.95878,37.40209],[126.95914,37.40204],[126.95967,37.40198],[126.95985,37.40196],[126.96,37.40193]]]]}},{"type":"Feature","properties":{"code":"41173570","name":"평촌동","parent":"41173"},"geometry":{"type":"MultiPolygon","coordinates":[[[[126.97951,37.39589],[126.98183,37.39438],[126.98171,37.39415],[126.9815,37.39382],[126.98118,37.39335],[126.98109,37.39327],[126.98101,37.39319],[126.98082,37.3931],[126.98054,37.393],[126.98014,37.39292],[126.97955,37.39274],[126.97949,37.39272],[126.97944,37.39271],[126.97889,37.39236],[126.97881,37.39231],[126.97877,37.39227],[126.97874,37.39223],[126.9787,37.39219],[126.97842,37.39169],[126.97416,37.38847],[126.97293,37.38676],[126.9729,37.38721],[126.96972,37.38829],[126.96944,37.39084],[126.97071,37.39072],[126.97087,37.39071],[126.97109,37.3907],[126.97423,37.39167],[126.97431,37.39188],[126.97441,37.39211],[126.97446,37.39227],[126.97448,37.39233],[126.97425,37.39377],[126.9738,37.39515],[126.97384,37.39609],[126.97386,37.39638],[126.97386,37.39646],[126.97584,37.3966],[126.97662,37.39664],[126.97772,37.39645],[126.97834,37.39628],[126.97951,37.39589]]]]}},{"type":"Feature","properties":{"code":"41173576","name":"평안동","parent":"41173"},"geometry":{"type":"MultiPolygon","coordinates":[[[[126.96944,37.39084],[126.96972,37.38829],[126.95961,37.38515],[126.9592,37.38502],[126.95624,37.39053],[126.95639,37.39059],[126.9579,37.39111],[126.95957,37.39168],[126.96069,37.39207],[126.96516,37.39362],[126.96412,37.39548],[126.96407,37.39555],[126.96792,37.39593],[126.96875,37.39599],[126.96881,37.39599],[126.96882,37.39592],[126.96892,37.39526],[126.96934,37.39175],[126.96944,37.39084]]]]}},{"type":"Feature","properties":{"code":"41173578","name":"귀인동","parent":"41173"},"geometry":{"type":"MultiPolygon","coordinates":[[[[126.97293,37.38676],[126.9728,37.38677],[126.97249,37.38405],[126.97245,37.38369],[126.97234,37.38262],[126.97234,37.38259],[126.97223,37.38126],[126.97147,37.38031],[126.97144,37.38027],[126.96933,37.38098],[126.9679,37.38146],[126.96632,37.38217],[126.96611,37.38231],[126.96425,37.38202],[126.96148,37.38086],[126.9592,37.38502],[126.95961,37.38515],[126.96972,37.38829],[126.9729,37.38721],[126.97293,37.38676]]]]}},{"type":"Feature","properties":{"code":"41173580","name":"호계1동","parent":"41173"},"geometry":{"type":"MultiPolygon","coordinates":[[[[126.96319,37.3722],[126.96295,37.37207],[126.96289,37.37203],[126.962,37.37155],[126.96131,37.37118],[126.96082,37.37102],[126.9604,37.3709],[126.95971,37.3707],[126.95959,37.37067],[126.95882,37.37049],[126.95825,37.37035],[126.9579,37.37028],[126.95767,37.37022],[126.95763,37.37021],[126.9575,37.37018],[126.95711,37.37008],[126.95701,37.37005],[126.95622,37.36983],[126.95586,37.36972],[126.95582,37.36971],[126.95381,37.36911],[126.95363,37.36905],[126.9529,37.36876],[126.95034,37.36737],[126.94966,37.36804],[126.94939,37.3683],[126.94875,37.36882],[126.94857,37.36897],[126.94812,37.36927],[126.94776,37.3695],[126.9476,37.36961],[126.94734,37.36978],[126.94724,37.36985],[126.94707,37.36998],[126.94555,37.37303],[126.94559,37.37378],[126.94575,37.37401],[126.94669,37.37566],[126.9478,37.37532],[126.95134,37.37455],[126.95406,37.37494],[126.95642,37.37573],[126.9558,37.37694],[126.9563,37.3771],[126.9592,37.37808],[126.96079,37.37509],[126.96319,37.3722]]]]}},{"type":"Feature","properties":{"code":"41173590","name":"호계2동","parent":"41173"},"geometry":{"type":"MultiPolygon","coordinates":[[[[126.94812,37.38907],[126.94975,37.38782],[126.95009,37.38752],[126.95018,37.38743],[126.95026,37.3873],[126.95029,37.38725],[126.95052,37.38689],[126.95063,37.3867],[126.95092,37.38618],[126.95132,37.38545],[126.95272,37.38284],[126.9529,37.38233],[126.95381,37.38071],[126.95492,37.37871],[126.95521,37.37813],[126.95537,37.37782],[126.9558,37.37694],[126.95642,37.37573],[126.95406,37.37494],[126.95134,37.37455],[126.9478,37.37532],[126.94669,37.37566],[126.9462,37.37626],[126.94528,37.37701],[126.94524,37.37705],[126.94521,37.37707],[126.94518,37.37709],[126.94509,37.37715],[126.94463,37.37745],[126.94431,37.37766],[126.9438,37.37799],[126.94363,37.37806],[126.94355,37.37809],[126.94327,37.37821],[126.94285,37.37831],[126.94281,37.37832],[126.94246,37.37843],[126.94221,37.37851],[126.94147,37.3788],[126.94082,37.37913],[126.94066,37.37921],[126.93951,37.37997],[126.93945,37.38004],[126.93941,37.38009],[126.93916,37.3804],[126.9391,37.38051],[126.93908,37.38055],[126.93904,37.38068],[126.93902,37.38084],[126.93901,37.38097],[126.93901,37.38111],[126.93902,37.38128],[126.93908,37.38146],[126.93944,37.38232],[126.94015,37.38375],[126.94066,37.38474],[126.9413,37.38613],[126.94178,37.38987],[126.94177,37.39004],[126.94176,37.39017],[126.94174,37.39031],[126.94165,37.39067],[126.94142,37.39154],[126.94134,37.39182],[126.94402,37.39242],[126.94438,37.39212],[126.94812,37.38907]]]]}},{"type":"Feature","properties":{"code":"41173600","name":"호계3동","parent":"41173"},"geometry":{"type":"MultiPolygon","coordinates":[[[[126.96576,37.37275],[126.96573,37.37272],[126.96537,37.37198],[126.96535,37.37191],[126.96533,37.37183],[126.96532,37.37177],[126.96532,37.37172],[126.96534,37.37099],[126.96545,37.36877],[126.96535,37.36735],[126.96501,37.36637],[126.96461,37.36569],[126.96434,37.36515],[126.96436,37.36506],[126.96442,37.3648],[126.9645,37.36464],[126.96453,37.36461],[126.96483,37.36439],[126.96506,37.36425],[126.96541,37.36402],[126.96571,37.36377],[126.9659,37.36357],[126.96597,37.36349],[126.9661,37.36335],[126.96617,37.36325],[126.96624,37.36248],[126.96613,37.36219],[126.96601,37.36215],[126.96585,37.3621],[126.96444,37.36178],[126.96437,37.36177],[126.96214,37.36156],[126.96165,37.36201],[126.96138,37.36226],[126.95777,37.36545],[126.95773,37.36548],[126.9575,37.36567],[126.95738,37.36575],[126.95702,37.36603],[126.95603,37.36619],[126.95565,37.36623],[126.9539,37.36628],[126.95313,37.36629],[126.95034,37.36737],[126.9529,37.36876],[126.95363,37.36905],[126.95381,37.36911],[126.95582,37.36971],[126.95586,37.36972],[126.95622,37.36983],[126.95701,37.37005],[126.95711,37.37008],[126.9575,37.37018],[126.95763,37.37021],[126.95767,37.37022],[126.9579,37.37028],[126.95825,37.37035],[126.95882,37.37049],[126.95959,37.37067],[126.95971,37.3707],[126.9604,37.3709],[126.96082,37.37102],[126.96131,37.37118],[126.962,37.37155],[126.96289,37.37203],[126.96295,37.37207],[126.96319,37.3722],[126.96625,37.3733],[126.96576,37.37275]]]]}},{"type":"Feature","properties":{"code":"41173610","name":"범계동","parent":"41173"},"geometry":{"type":"MultiPolygon","coordinates":[[[[126.95624,37.39053],[126.9592,37.38502],[126.95283,37.38288],[126.95272,37.38284],[126.95132,37.38545],[126.95092,37.38618],[126.95063,37.3867],[126.95052,37.38689],[126.95029,37.38725],[126.95026,37.3873],[126.95018,37.38743],[126.95009,37.38752],[126.94975,37.38782],[126.94812,37.38907],[126.94816,37.38911],[126.95096,37.3911],[126.95517,37.39254],[126.95624,37.39053]]]]}},{"type":"Feature","properties":{"code":"41173620","name":"신촌동","parent":"41173"},"geometry":{"type":"MultiPolygon","coordinates":[[[[126.96148,37.38086],[126.9592,37.37808],[126.9563,37.3771],[126.9558,37.37694],[126.95537,37.37782],[126.95521,37.37813],[126.95492,37.37871],[126.95381,37.38071],[126.9529,37.38233],[126.95272,37.38284],[126.95283,37.38288],[126.9592,37.38502],[126.96148,37.38086]]]]}},{"type":"Feature","properties":{"code":"41173630","name":"갈산동","parent":"41173"},"geometry":{"type":"MultiPolygon","coordinates":[[[[126.97144,37.38027],[126.96778,37.37521],[126.96625,37.3733],[126.96319,37.3722],[126.96079,37.37509],[126.9592,37.37808],[126.96148,37.38086],[126.96425,37.38202],[126.96611,37.38231],[126.96632,37.38217],[126.9679,37.38146],[126.96933,37.38098],[126.97144,37.38027]]]]}}]}