{"type":"FeatureCollection","features":[{"type":"Feature","properties":{"code":"11380510","name":"녹번동","parent":"11380"},"geometry":{"type":"MultiPolygon","coordinates":[[[[126.94998,37.60971],[126.95038,37.60788],[126.95034,37.60785],[126.9501,37.60774],[126.95005,37.60772],[126.94999,37.6077],[126.94975,37.60769],[126.94952,37.60769],[126.94946,37.60769],[126.94942,37.60769],[126.94936,37.60772],[126.94929,37.60778],[126.94917,37.60793],[126.94914,37.60797],[126.94911,37.60803],[126.94906,37.60806],[126.94899,37.60807],[126.94881,37.60807],[126.94878,37.60807],[126.94871,37.60804],[126.94839,37.60798],[126.94833,37.60799],[126.94827,37.60799],[126.9482,37.60792],[126.94813,37.6079],[126.94806,37.60786],[126.94803,37.60783],[126.94801,37.6078],[126.94797,37.60776],[126.94793,37.60773],[126.94787,37.6077],[126.94783,37.60769],[126.9478,37.60768],[126.94766,37.60768],[126.94745,37.60772],[126.94725,37.60778],[126.94722,37.6078],[126.94634,37.6071],[126.94599,37.60636],[126.9457,37.60582],[126.94492,37.60482],[126.94482,37.60482],[126.94472,37.60482],[126.94411,37.60483],[126.94334,37.60483],[126.94266,37.60484],[126.94249,37.60483],[126.94242,37.60482],[126.94227,37.60469],[126.94044,37.60286],[126.94017,37.60183],[126.9411,37.60111],[126.94121,37.60091],[126.94108,37.5999],[126.94103,37.59962],[126.94092,37.59908],[126.94068,37.59867],[126.94058,37.5986],[126.93934,37.59784],[126.939,37.59771],[126.93893,37.59769],[126.9386,37.59759],[126.93817,37.5981],[126.93584,37.60072],[126.93555,37.60084],[126.93427,37.60094],[126.92853,37.60148],[126.92845,37.60149],[126.9284,37.6015],[126.92746,37.60162],[126.92644,37.60242],[126.9255,37.60223],[126.92517,37.60216],[126.92467,37.60205],[126.92403,37.60192],[126.92244,37.60158],[126.9224,37.60158],[126.92154,37.60165],[126.92063,37.60173],[126.92289,37.60632],[126.92326,37.60693],[126.92335,37.60707],[126.92338,37.60709],[126.92389,37.60747],[126.92707,37.60914],[126.9273,37.60904],[126.92776,37.60885],[126.92803,37.60873],[126.9283,37.60862],[126.92883,37.60841],[126.92973,37.60838],[126.93074,37.6085],[126.93136,37.6088],[126.93139,37.60882],[126.93162,37.60897],[126.93185,37.60912],[126.93192,37.60917],[126.932,37.6092],[126.93284,37.60948],[126.9333,37.60957],[126.93376,37.60966],[126.94063,37.61082],[126.94086,37.61083],[126.94144,37.61085],[126.94214,37.61061],[126.94295,37.61016],[126.94998,37.60971]]]]}},{"type":"Feature","properties":{"code":"11380520","name":"불광1동","parent":"11380"},"geometry":{"type":"MultiPolygon","coordinates":[[[[126.95318,37.62517],[126.95235,37.62489],[126.95217,37.62482],[126.95172,37.62433],[126.95124,37.62279],[126.95033,37.61836],[126.9504,37.61613],[126.95069,37.61489],[126.95094,37.61236],[126.95085,37.6118],[126.95063,37.61096],[126.94998,37.60971],[126.94295,37.61016],[126.94214,37.61061],[126.94144,37.61085],[126.94086,37.61083],[126.94063,37.61082],[126.93376,37.60966],[126.9333,37.60957],[126.93284,37.60948],[126.932,37.6092],[126.93192,37.60917],[126.93185,37.60912],[126.93162,37.60897],[126.93139,37.60882],[126.93136,37.6088],[126.92989,37.61025],[126.92979,37.61057],[126.92761,37.61317],[126.92677,37.61416],[126.92658,37.61438],[126.92632,37.61463],[126.92573,37.61507],[126.92531,37.61534],[126.92524,37.61539],[126.92507,37.6155],[126.92473,37.61572],[126.92394,37.61628],[126.92259,37.61746],[126.92255,37.6175],[126.92229,37.61778],[126.92216,37.61791],[126.92213,37.61795],[126.92193,37.61817],[126.92191,37.6182],[126.92133,37.61887],[126.92265,37.61955],[126.92598,37.62125],[126.92642,37.62133],[126.93355,37.62173],[126.93387,37.62167],[126.93424,37.62156],[126.93481,37.62136],[126.93485,37.62135],[126.93478,37.62099],[126.93501,37.62084],[126.93689,37.62002],[126.93754,37.62016],[126.93796,37.62033],[126.93833,37.62055],[126.93857,37.62075],[126.93881,37.62099],[126.93884,37.62104],[126.93889,37.62115],[126.9389,37.6215],[126.9389,37.62201],[126.93935,37.62324],[126.93966,37.62395],[126.9401,37.62459],[126.94037,37.62497],[126.94091,37.6257],[126.94289,37.62523],[126.9462,37.62678],[126.94693,37.62703],[126.94813,37.62744],[126.94835,37.62742],[126.9486,37.6274],[126.94933,37.6271],[126.95318,37.62517]]]]}},{"type":"Feature","properties":{"code":"11380551","name":"갈현1동","parent":"11380"},"geometry":{"type":"MultiPolygon","coordinates":[[[[126.91958,37.62796],[126.91991,37.62687],[126.91993,37.62679],[126.91994,37.62674],[126.92011,37.626],[126.92007,37.62552],[126.92003,37.62514],[126.91997,37.62457],[126.91997,37.62453],[126.91995,37.62431],[126.91992,37.62408],[126.91989,37.62374],[126.91979,37.6228],[126.91975,37.62239],[126.91981,37.62195],[126.91986,37.62163],[126.91986,37.62158],[126.91998,37.6211],[126.92006,37.62076],[126.92036,37.62016],[126.92051,37.61987],[126.92054,37.61983],[126.92109,37.61917],[126.9212,37.61902],[126.92133,37.61887],[126.92012,37.61846],[126.91711,37.61977],[126.91227,37.62255],[126.91139,37.62257],[126.90794,37.62539],[126.90881,37.62905],[126.90913,37.62905],[126.91019,37.62923],[126.91081,37.62947],[126.91122,37.62962],[126.91208,37.63041],[126.91261,37.63052],[126.91277,37.63056],[126.9129,37.63058],[126.91547,37.63112],[126.91565,37.6307],[126.91958,37.62796]]]]}},{"type":"Feature","properties":{"code":"11380552","name":"갈현2동","parent":"11380"},"geometry":{"type":"MultiPolygon","coordinates":[[[[126.92012,37.61846],[126.91807,37.61532],[126.91778,37.61441],[126.9176,37.61336],[126.91752,37.61289],[126.91729,37.6113],[126.91535,37.61241],[126.9121,37.61361],[126.91194,37.61367],[126.91188,37.61369],[126.9116,37.61379],[126.91117,37.61394],[126.91104,37.61399],[126.91057,37.61416],[126.91019,37.6143],[126.91015,37.61431],[126.90933,37.61492],[126.90927,37.61497],[126.90921,37.61501],[126.90886,37.61527],[126.90858,37.61548],[126.90797,37.61594],[126.90782,37.61607],[126.90685,37.61694],[126.90684,37.61696],[126.90661,37.61737],[126.90639,37.61776],[126.90559,37.61921],[126.90524,37.6195],[126.9052,37.62002],[126.90644,37.62403],[126.9066,37.6242],[126.90709,37.62475],[126.90794,37.62539],[126.91139,37.62257],[126.91227,37.62255],[126.91711,37.61977],[126.92012,37.61846]]]]}},{"type":"Feature","properties":{"code":"11380560","name":"구산동","parent":"11380"},"geometry":{"type":"MultiPolygon","coordinates":[[[[126.91729,37.6113],[126.91711,37.61077],[126.91688,37.61033],[126.91681,37.6102],[126.91525,37.60743],[126.91183,37.60752],[126.91153,37.60753],[126.90947,37.6054],[126.9079,37.60504],[126.90767,37.60499],[126.9075,37.60496],[126.90738,37.60495],[126.90502,37.60469],[126.90464,37.60476],[126.9046,37.60477],[126.90452,37.60478],[126.90171,37.60573],[126.90221,37.60709],[126.90198,37.60939],[126.90187,37.61],[126.90121,37.61233],[126.90115,37.61237],[126.90103,37.61246],[126.90189,37.61559],[126.90339,37.6188],[126.90524,37.6195],[126.90559,37.61921],[126.90639,37.61776],[126.90661,37.61737],[126.90684,37.61696],[126.90685,37.61694],[126.90782,37.61607],[126.90797,37.61594],[126.90858,37.61548],[126.90886,37.61527],[126.90921,37.61501],[126.90927,37.61497],[126.90933,37.61492],[126.91015,37.61431],[126.91019,37.6143],[126.91057,37.61416],[126.91104,37.61399],[126.91117,37.61394],[126.9116,37.61379],[126.91188,37.61369],[126.91194,37.61367],[126.9121,37.61361],[126.91535,37.61241],[126.91729,37.6113]]]]}},{"type":"Feature","properties":{"code":"11380570","name":"대조동","parent":"11380"},"geometry":{"type":"MultiPolygon","coordinates":[[[[126.93136,37.6088],[126.93074,37.6085],[126.92973,37.60838],[126.92883,37.60841],[126.9283,37.60862],[126.92803,37.60873],[126.92776,37.60885],[126.9273,37.60904],[126.92707,37.60914],[126.92389,37.60747],[126.92338,37.60709],[126.92335,37.60707],[126.92326,37.60693],[126.92289,37.60632],[126.92185,37.60748],[126.91729,37.6113],[126.91752,37.61289],[126.9176,37.61336],[126.91778,37.61441],[126.91807,37.61532],[126.92012,37.61846],[126.92133,37.61887],[126.92191,37.6182],[126.92193,37.61817],[126.92213,37.61795],[126.92216,37.61791],[126.92229,37.61778],[126.92255,37.6175],[126.92259,37.61746],[126.92394,37.61628],[126.92473,37.61572],[126.92507,37.6155],[126.92524,37.61539],[126.92531,37.61534],[126.92573,37.61507],[126.92632,37.61463],[126.92658,37.61438],[126.92677,37.61416],[126.92761,37.61317],[126.92979,37.61057],[126.92989,37.61025],[126.93136,37.6088]]]]}},{"type":"Feature","properties":{"code":"11380580","name":"응암1동","parent":"11380"},"geometry":{"type":"MultiPolygon","coordinates":[[[[126.9386,37.59759],[126.93777,37.59775],[126.93366,37.5964],[126.93295,37.59603],[126.93066,37.59449],[126.93038,37.59424],[126.92927,37.59303],[126.92865,37.59226],[126.92842,37.59189],[126.9276,37.59232],[126.92668,37.59288],[126.92605,37.59447],[126.92605,37.59479],[126.92607,37.595],[126.92633,37.59562],[126.92385,37.59665],[126.92257,37.59688],[126.92223,37.5969],[126.9191,37.596],[126.91569,37.59708],[126.91606,37.59921],[126.92063,37.60173],[126.92154,37.60165],[126.9224,37.60158],[126.92244,37.60158],[126.92403,37.60192],[126.92467,37.60205],[126.92517,37.60216],[126.9255,37.60223],[126.92644,37.60242],[126.92746,37.60162],[126.9284,37.6015],[126.92845,37.60149],[126.92853,37.60148],[126.93427,37.60094],[126.93555,37.60084],[126.93584,37.60072],[126.93817,37.5981],[126.9386,37.59759]]]]}},{"type":"Feature","properties":{"code":"11380590","name":"응암2동","parent":"11380"},"geometry":{"type":"MultiPolygon","coordinates":[[[[126.92842,37.59189],[126.92826,37.59165],[126.92822,37.59153],[126.92816,37.59134],[126.92811,37.59119],[126.92787,37.59045],[126.92788,37.59039],[126.92802,37.58972],[126.92812,37.58943],[126.92812,37.58838],[126.92739,37.5879],[126.92719,37.58776],[126.92654,37.58741],[126.92607,37.58717],[126.92594,37.58714],[126.92358,37.58615],[126.92282,37.58562],[126.92265,37.58877],[126.92087,37.5894],[126.91876,37.59013],[126.91856,37.59018],[126.9184,37.59022],[126.91829,37.59021],[126.91815,37.59019],[126.91783,37.59018],[126.91749,37.59021],[126.91725,37.59024],[126.91821,37.59477],[126.91844,37.59509],[126.91854,37.59523],[126.9191,37.596],[126.92223,37.5969],[126.92257,37.59688],[126.92385,37.59665],[126.92633,37.59562],[126.92607,37.595],[126.92605,37.59479],[126.92605,37.59447],[126.92668,37.59288],[126.9276,37.59232],[126.92842,37.59189]]]]}},{"type":"Feature","properties":{"code":"11380631","name":"신사1동","parent":"11380"},"geometry":{"type":"MultiPolygon","coordinates":[[[[126.91606,37.59921],[126.91569,37.59708],[126.91448,37.5923],[126.91255,37.59381],[126.90846,37.59684],[126.90603,37.59817],[126.90142,37.59827],[126.90149,37.59937],[126.90123,37.60012],[126.90087,37.60077],[126.90072,37.601],[126.90048,37.60131],[126.90023,37.60203],[126.90026,37.60315],[126.90208,37.60382],[126.90646,37.60211],[126.9077,37.60157],[126.90856,37.60205],[126.90881,37.60204],[126.90903,37.60204],[126.91032,37.60199],[126.91322,37.60117],[126.91329,37.60115],[126.91363,37.60101],[126.91441,37.60013],[126.91606,37.59921]]]]}},{"type":"Feature","properties":{"code":"11380632","name":"신사2동","parent":"11380"},"geometry":{"type":"MultiPolygon","coordinates":[[[[126.91448,37.5923],[126.91358,37.58873],[126.91269,37.58876],[126.91073,37.58928],[126.91021,37.58941],[126.90547,37.58874],[126.90428,37.58832],[126.89984,37.58987],[126.89978,37.58997],[126.89958,37.59046],[126.89901,37.59259],[126.89899,37.59266],[126.89933,37.59324],[126.89995,37.59377],[126.90056,37.5943],[126.90136,37.59618],[126.90142,37.59827],[126.90603,37.59817],[126.90846,37.59684],[126.91255,37.59381],[126.91448,37.5923]]]]}},{"type":"Feature","properties":{"code":"11380640","name":"증산동","parent":"11380"},"geometry":{"type":"MultiPolygon","coordinates":[[[[126.91358,37.58873],[126.91315,37.58703],[126.91308,37.58689],[126.91305,37.58682],[126.91297,37.58664],[126.91282,37.58634],[126.9127,37.58619],[126.91255,37.58602],[126.91233,37.58581],[126.90985,37.58347],[126.90629,37.58012],[126.90313,37.57689],[126.90282,37.57715],[126.90164,37.57592],[126.89859,37.57799],[126.8982,37.57826],[126.8988,37.57876],[126.89972,37.57954],[126.90011,37.57981],[126.90109,37.58035],[126.90137,37.58044],[126.90159,37.58051],[126.90207,37.58067],[126.90215,37.58309],[126.9016,37.58399],[126.9015,37.58415],[126.90135,37.58454],[126.90138,37.58486],[126.90142,37.58507],[126.90155,37.58556],[126.90166,37.58579],[126.90231,37.58692],[126.90256,37.58733],[126.90298,37.58764],[126.90326,37.58786],[126.90428,37.58832],[126.90547,37.58874],[126.91021,37.58941],[126.91073,37.58928],[126.91269,37.58876],[126.91358,37.58873]]]]}},{"type":"Feature","properties":{"code":"11380650","name":"수색동","parent":"11380"},"geometry":{"type":"MultiPolygon","coordinates":[[[[126.89984,37.58987],[126.90428,37.58832],[126.90326,37.58786],[126.90298,37.58764],[126.90256,37.58733],[126.90231,37.58692],[126.90166,37.58579],[126.90155,37.58556],[126.90142,37.58507],[126.90138,37.58486],[126.90135,37.58454],[126.9015,37.58415],[126.9016,37.58399],[126.90215,37.58309],[126.90207,37.58067],[126.90159,37.58051],[126.90137,37.58044],[126.90109,37.58035],[126.90011,37.57981],[126.89972,37.57954],[126.8988,37.57876],[126.8982,37.57826],[126.89791,37.57917],[126.89666,37.58049],[126.89623,37.58085],[126.89529,37.58146],[126.89218,37.58294],[126.89023,37.58424],[126.88997,37.58441],[126.88992,37.58444],[126.88965,37.58464],[126.88941,37.58482],[126.88744,37.58647],[126.88698,37.58686],[126.88325,37.59006],[126.88224,37.59094],[126.88338,37.59172],[126.88393,37.59218],[126.88412,37.59241],[126.88432,37.59267],[126.88482,37.59339],[126.88658,37.59384],[126.88622,37.59233],[126.88544,37.59109],[126.88581,37.59008],[126.88632,37.58943],[126.88726,37.58859],[126.88741,37.58858],[126.8914,37.58846],[126.89696,37.58862],[126.89984,37.58987]]]]}},{"type":"Feature","properties":{"code":"11380690","name":"진관동","parent":"11380"},"geometry":{"type":"MultiPolygon","coordinates":[[[[126.97179,37.63229],[126.9702,37.63086],[126.96925,37.63022],[126.96882,37.6301],[126.96834,37.62999],[126.96763,37.62981],[126.96234,37.62885],[126.95954,37.62848],[126.95748,37.62617],[126.95675,37.62537],[126.95318,37.62517],[126.94933,37.6271],[126.9486,37.6274],[126.94835,37.62742],[126.94813,37.62744],[126.94693,37.62703],[126.9462,37.62678],[126.94289,37.62523],[126.94091,37.6257],[126.94039,37.62603],[126.93591,37.62639],[126.93333,37.62657],[126.93218,37.62644],[126.93212,37.62644],[126.93207,37.62646],[126.93192,37.62658],[126.92922,37.62838],[126.92685,37.62948],[126.92623,37.62954],[126.92615,37.62955],[126.92558,37.62954],[126.91958,37.62796],[126.91565,37.6307],[126.91547,37.63112],[126.9129,37.63058],[126.91277,37.63056],[126.91261,37.63052],[126.91208,37.63041],[126.91122,37.62962],[126.91081,37.62947],[126.91019,37.62923],[126.90913,37.62905],[126.90881,37.62905],[126.90742,37.63022],[126.90717,37.63058],[126.90665,37.63173],[126.90663,37.63178],[126.90655,37.63205],[126.90653,37.63252],[126.90723,37.63319],[126.90726,37.63321],[126.90732,37.63327],[126.90748,37.63341],[126.90917,37.63478],[126.90982,37.63511],[126.91023,37.63867],[126.91082,37.64016],[126.91171,37.64102],[126.9121,37.64126],[126.9123,37.64143],[126.91247,37.64169],[126.91247,37.6418],[126.91223,37.64438],[126.90758,37.64649],[126.90527,37.64891],[126.90777,37.64763],[126.91118,37.6458],[126.91237,37.64525],[126.91287,37.64506],[126.91389,37.64471],[126.91419,37.64468],[126.92127,37.64556],[126.92153,37.64564],[126.92209,37.64582],[126.92217,37.64585],[126.92243,37.64594],[126.92336,37.64634],[126.92454,37.64696],[126.92514,37.64729],[126.92522,37.64734],[126.92542,37.64744],[126.9255,37.6475],[126.92567,37.64762],[126.92599,37.64786],[126.92691,37.64853],[126.92794,37.64929],[126.92851,37.6497],[126.92861,37.64977],[126.9287,37.64983],[126.92889,37.64996],[126.92974,37.6504],[126.93039,37.65056],[126.9312,37.65063],[126.93127,37.65062],[126.93449,37.65056],[126.93473,37.65064],[126.93519,37.65089],[126.93704,37.65193],[126.9385,37.65416],[126.93859,37.65442],[126.93897,37.65495],[126.93926,37.65534],[126.93938,37.6555],[126.94039,37.65663],[126.94103,37.65706],[126.94119,37.65715],[126.94255,37.65779],[126.94282,37.65788],[126.94362,37.65815],[126.94632,37.65887],[126.94653,37.65891],[126.94708,37.65899],[126.94731,37.65893],[126.94742,37.65874],[126.94743,37.65871],[126.94745,37.65868],[126.94759,37.65835],[126.94879,37.65696],[126.95116,37.65501],[126.95119,37.65499],[126.95125,37.65495],[126.95207,37.65476],[126.95233,37.65473],[126.95236,37.65473],[126.95258,37.65472],[126.95355,37.65502],[126.95462,37.65475],[126.95634,37.65307],[126.95677,37.65265],[126.95975,37.64846],[126.96173,37.64516],[126.96442,37.64307],[126.96476,37.64295],[126.96501,37.64276],[126.96829,37.63932],[126.96882,37.63868],[126.96886,37.63842],[126.96879,37.63705],[126.96876,37.63698],[126.97087,37.63299],[126.97179,37.63229]]]]}},{"type":"Feature","properties":{"code":"11380530","name":"불광2동","parent":"11380"},"geometry":{"type":"MultiPolygon","coordinates":[[[[126.94091,37.6257],[126.94037,37.62497],[126.9401,37.62459],[126.93966,37.62395],[126.93935,37.62324],[126.9389,37.62201],[126.9389,37.6215],[126.93889,37.62115],[126.93884,37.62104],[126.93881,37.62099],[126.93857,37.62075],[126.93833,37.62055],[126.93796,37.62033],[126.93754,37.62016],[126.93689,37.62002],[126.93501,37.62084],[126.93478,37.62099],[126.93485,37.62135],[126.93481,37.62136],[126.93424,37.62156],[126.93387,37.62167],[126.93355,37.62173],[126.92642,37.62133],[126.92598,37.62125],[126.92265,37.61955],[126.92133,37.61887],[126.9212,37.61902],[126.92109,37.61917],[126.92054,37.61983],[126.92051,37.61987],[126.92036,37.62016],[126.92006,37.62076],[126.91998,37.6211],[126.91986,37.62158],[126.91986,37.62163],[126.91981,37.62195],[126.91975,37.62239],[126.91979,37.6228],[126.91989,37.62374],[126.91992,37.62408],[126.91995,37.62431],[126.91997,37.62453],[126.91997,37.62457],[126.92003,37.62514],[126.92007,37.62552],[126.92011,37.626],[126.91994,37.62674],[126.91993,37.62679],[126.91991,37.62687],[126.91958,37.62796],[126.92558,37.62954],[126.92615,37.62955],[126.92623,37.62954],[126.92685,37.62948],[126.92922,37.62838],[126.93192,37.62658],[126.93207,37.62646],[126.93212,37.62644],[126.93218,37.62644],[126.93333,37.62657],[126.93591,37.62639],[126.94039,37.62603],[126.94091,37.6257]]]]}},{"type":"Feature","properties":{"code":"11380600","name":"응암3동","parent":"11380"},"geometry":{"type":"MultiPolygon","coordinates":[[[[126.9191,37.596],[126.91854,37.59523],[126.91844,37.59509],[126.91821,37.59477],[126.91725,37.59024],[126.91749,37.59021],[126.91783,37.59018],[126.91815,37.59019],[126.91829,37.59021],[126.9184,37.59022],[126.91856,37.59018],[126.91876,37.59013],[126.92087,37.5894],[126.92265,37.58877],[126.92282,37.58562],[126.92302,37.585],[126.92081,37.58291],[126.91968,37.58333],[126.91937,37.58338],[126.91891,37.58341],[126.91677,37.58324],[126.91612,37.58314],[126.91592,37.58314],[126.91583,37.58314],[126.91564,37.58412],[126.91544,37.58549],[126.91315,37.58703],[126.91358,37.58873],[126.91448,37.5923],[126.91569,37.59708],[126.9191,37.596]]]]}},{"type":"Feature","properties":{"code":"11380625","name":"역촌동","parent":"11380"},"geometry":{"type":"MultiPolygon","coordinates":[[[[126.92289,37.60632],[126.92063,37.60173],[126.91606,37.59921],[126.91441,37.60013],[126.91363,37.60101],[126.91329,37.60115],[126.91322,37.60117],[126.91032,37.60199],[126.90903,37.60204],[126.90881,37.60204],[126.90856,37.60205],[126.9077,37.60157],[126.90646,37.60211],[126.90208,37.60382],[126.90171,37.60573],[126.90452,37.60478],[126.9046,37.60477],[126.90464,37.60476],[126.90502,37.60469],[126.90738,37.60495],[126.9075,37.60496],[126.90767,37.60499],[126.9079,37.60504],[126.90947,37.6054],[126.91153,37.60753],[126.91183,37.60752],[126.91525,37.60743],[126.91681,37.6102],[126.91688,37.61033],[126.91711,37.61077],[126.91729,37.6113],[126.92185,37.60748],[126.92289,37.60632]]]]}}]}