{"type":"FeatureCollection","features":[{"type":"Feature","properties":{"code":"27170510","name":"내당1동","parent":"27170"},"geometry":{"type":"MultiPolygon","coordinates":[[[[128.56771,35.86108],[128.55847,35.85825],[128.55725,35.85784],[128.55616,35.86357],[128.55937,35.86426],[128.5638,35.86578],[128.56556,35.86622],[128.56601,35.86426],[128.56771,35.86108]]]]}},{"type":"Feature","properties":{"code":"27170525","name":"내당2·3동","parent":"27170"},"geometry":{"type":"MultiPolygon","coordinates":[[[[128.57938,35.87047],[128.57972,35.87031],[128.57965,35.87013],[128.5796,35.87005],[128.57883,35.86908],[128.57854,35.86883],[128.57778,35.86822],[128.57772,35.86818],[128.57615,35.86713],[128.57564,35.86679],[128.57505,35.86638],[128.57498,35.86632],[128.5738,35.86535],[128.57406,35.86367],[128.5742,35.86268],[128.56771,35.86108],[128.56601,35.86426],[128.56556,35.86622],[128.56796,35.86671],[128.56993,35.86697],[128.57094,35.86714],[128.57115,35.86717],[128.57376,35.86784],[128.57443,35.86805],[128.57678,35.86898],[128.57736,35.86932],[128.57739,35.86938],[128.57882,35.87078],[128.57938,35.87047]]]]}},{"type":"Feature","properties":{"code":"27170540","name":"내당4동","parent":"27170"},"geometry":{"type":"MultiPolygon","coordinates":[[[[128.55725,35.85784],[128.55723,35.85774],[128.55355,35.85639],[128.5535,35.85646],[128.55263,35.85614],[128.54933,35.85493],[128.54913,35.85485],[128.54807,35.85457],[128.54508,35.85607],[128.54395,35.85959],[128.54365,35.86007],[128.54387,35.86018],[128.54491,35.86064],[128.54637,35.86128],[128.54792,35.86197],[128.54919,35.86252],[128.55077,35.86275],[128.55345,35.8631],[128.55616,35.86357],[128.55725,35.85784]]]]}},{"type":"Feature","properties":{"code":"27170550","name":"비산1동","parent":"27170"},"geometry":{"type":"MultiPolygon","coordinates":[[[[128.57269,35.8829],[128.57171,35.88059],[128.57145,35.87976],[128.56813,35.8796],[128.56314,35.88058],[128.5589,35.881],[128.55802,35.88139],[128.56617,35.88416],[128.56633,35.8842],[128.56639,35.88422],[128.56664,35.88428],[128.56696,35.88434],[128.56728,35.8844],[128.56783,35.88445],[128.56797,35.88445],[128.56805,35.88446],[128.56811,35.88445],[128.56875,35.88437],[128.56929,35.88427],[128.56979,35.88414],[128.56993,35.8841],[128.57018,35.88403],[128.57097,35.88379],[128.57157,35.88353],[128.5716,35.88351],[128.57213,35.88324],[128.57224,35.88318],[128.57269,35.8829]]]]}},{"type":"Feature","properties":{"code":"27170565","name":"비산2·3동","parent":"27170"},"geometry":{"type":"MultiPolygon","coordinates":[[[[128.57794,35.8795],[128.57839,35.87624],[128.57931,35.87533],[128.57847,35.87536],[128.57806,35.87558],[128.57694,35.87619],[128.57686,35.87623],[128.57665,35.87606],[128.5756,35.87405],[128.57559,35.87347],[128.57559,35.87343],[128.57563,35.87309],[128.57566,35.87304],[128.57681,35.87196],[128.57697,35.87196],[128.57793,35.87204],[128.57891,35.87238],[128.57927,35.87259],[128.57937,35.87265],[128.57954,35.87277],[128.57938,35.87047],[128.57882,35.87078],[128.5771,35.87168],[128.577,35.87173],[128.57657,35.87187],[128.57646,35.8719],[128.57111,35.87245],[128.57119,35.87602],[128.57145,35.87976],[128.57171,35.88059],[128.57269,35.8829],[128.57364,35.88202],[128.57507,35.8808],[128.57526,35.88066],[128.57562,35.8804],[128.57571,35.88035],[128.57676,35.87981],[128.57761,35.87955],[128.57794,35.8795]]]]}},{"type":"Feature","properties":{"code":"27170580","name":"비산4동","parent":"27170"},"geometry":{"type":"MultiPolygon","coordinates":[[[[128.57882,35.87078],[128.57739,35.86938],[128.57736,35.86932],[128.57678,35.86898],[128.57443,35.86805],[128.57376,35.86784],[128.57115,35.86717],[128.57094,35.86714],[128.56993,35.86697],[128.56796,35.86671],[128.56827,35.86974],[128.56768,35.8722],[128.57111,35.87245],[128.57646,35.8719],[128.57657,35.87187],[128.577,35.87173],[128.5771,35.87168],[128.57882,35.87078]]]]}},{"type":"Feature","properties":{"code":"27170590","name":"비산5동","parent":"27170"},"geometry":{"type":"MultiPolygon","coordinates":[[[[128.56853,35.88881],[128.57112,35.88688],[128.57226,35.88603],[128.57292,35.88548],[128.57356,35.88495],[128.57278,35.88311],[128.57269,35.8829],[128.57224,35.88318],[128.57213,35.88324],[128.5716,35.88351],[128.57157,35.88353],[128.57097,35.88379],[128.57018,35.88403],[128.56993,35.8841],[128.56979,35.88414],[128.56929,35.88427],[128.56875,35.88437],[128.56811,35.88445],[128.56805,35.88446],[128.56797,35.88445],[128.56783,35.88445],[128.56728,35.8844],[128.56696,35.88434],[128.56664,35.88428],[128.56639,35.88422],[128.56633,35.8842],[128.56617,35.88416],[128.56297,35.88962],[128.5665,35.88911],[128.56853,35.88881]]]]}},{"type":"Feature","properties":{"code":"27170600","name":"비산6동","parent":"27170"},"geometry":{"type":"MultiPolygon","coordinates":[[[[128.57111,35.87245],[128.56768,35.8722],[128.56716,35.87218],[128.56745,35.87592],[128.56813,35.8796],[128.57145,35.87976],[128.57119,35.87602],[128.57111,35.87245]]]]}},{"type":"Feature","properties":{"code":"27170610","name":"비산7동","parent":"27170"},"geometry":{"type":"MultiPolygon","coordinates":[[[[128.55203,35.89417],[128.5519,35.89405],[128.55197,35.89396],[128.55254,35.89331],[128.55275,35.89307],[128.55431,35.89127],[128.55509,35.89077],[128.55617,35.89057],[128.55849,35.89025],[128.55961,35.89009],[128.56297,35.88962],[128.56617,35.88416],[128.55802,35.88139],[128.55501,35.8809],[128.55475,35.88264],[128.54264,35.88348],[128.5419,35.88353],[128.53777,35.88381],[128.53708,35.88393],[128.53651,35.88415],[128.53586,35.88449],[128.53509,35.88494],[128.53372,35.88582],[128.53246,35.88664],[128.53118,35.88763],[128.5348,35.88797],[128.53658,35.88842],[128.53876,35.88931],[128.54211,35.89135],[128.54275,35.89246],[128.54435,35.89313],[128.54601,35.89383],[128.54659,35.89402],[128.54686,35.89411],[128.55074,35.89541],[128.55101,35.8955],[128.5519,35.89435],[128.55203,35.89417]]]]}},{"type":"Feature","properties":{"code":"27170620","name":"평리1동","parent":"27170"},"geometry":{"type":"MultiPolygon","coordinates":[[[[128.56813,35.8796],[128.56745,35.87592],[128.56716,35.87218],[128.56289,35.87202],[128.56314,35.88058],[128.56813,35.8796]]]]}},{"type":"Feature","properties":{"code":"27170630","name":"평리2동","parent":"27170"},"geometry":{"type":"MultiPolygon","coordinates":[[[[128.56796,35.86671],[128.56556,35.86622],[128.5638,35.86578],[128.56289,35.87202],[128.56716,35.87218],[128.56768,35.8722],[128.56827,35.86974],[128.56796,35.86671]]]]}},{"type":"Feature","properties":{"code":"27170640","name":"평리3동","parent":"27170"},"geometry":{"type":"MultiPolygon","coordinates":[[[[128.56314,35.88058],[128.56289,35.87202],[128.55497,35.8706],[128.55491,35.87556],[128.55501,35.8809],[128.55802,35.88139],[128.5589,35.881],[128.56314,35.88058]]]]}},{"type":"Feature","properties":{"code":"27170650","name":"평리4동","parent":"27170"},"geometry":{"type":"MultiPolygon","coordinates":[[[[128.5638,35.86578],[128.55937,35.86426],[128.55616,35.86357],[128.55345,35.8631],[128.55215,35.87007],[128.55497,35.8706],[128.56289,35.87202],[128.5638,35.86578]]]]}},{"type":"Feature","properties":{"code":"27170660","name":"평리5동","parent":"27170"},"geometry":{"type":"MultiPolygon","coordinates":[[[[128.55497,35.8706],[128.55215,35.87007],[128.54662,35.86896],[128.54686,35.87398],[128.55491,35.87556],[128.55497,35.8706]]]]}},{"type":"Feature","properties":{"code":"27170661","name":"평리6동","parent":"27170"},"geometry":{"type":"MultiPolygon","coordinates":[[[[128.55501,35.8809],[128.55491,35.87556],[128.54686,35.87398],[128.54687,35.87408],[128.54715,35.8789],[128.54564,35.88134],[128.54527,35.88135],[128.54264,35.8815],[128.54243,35.88151],[128.54248,35.8821],[128.54264,35.88348],[128.55475,35.88264],[128.55501,35.8809]]]]}},{"type":"Feature","properties":{"code":"27170675","name":"상중이동","parent":"27170"},"geometry":{"type":"MultiPolygon","coordinates":[[[[128.53118,35.88763],[128.53246,35.88664],[128.53372,35.88582],[128.53509,35.88494],[128.53586,35.88449],[128.53651,35.88415],[128.53708,35.88393],[128.53777,35.88381],[128.5419,35.88353],[128.54264,35.88348],[128.54248,35.8821],[128.54243,35.88151],[128.54264,35.8815],[128.54527,35.88135],[128.54564,35.88134],[128.54715,35.8789],[128.54687,35.87408],[128.54686,35.87398],[128.54662,35.86896],[128.55215,35.87007],[128.55345,35.8631],[128.55077,35.86275],[128.54919,35.86252],[128.54792,35.86197],[128.54637,35.86128],[128.54491,35.86064],[128.54387,35.86018],[128.54365,35.86007],[128.54395,35.85959],[128.54508,35.85607],[128.54361,35.8558],[128.54023,35.8563],[128.53989,35.85907],[128.5333,35.8591],[128.5337,35.86096],[128.53392,35.86195],[128.534,35.86233],[128.53396,35.86234],[128.53281,35.86277],[128.53127,35.86334],[128.52933,35.86365],[128.52858,35.86375],[128.52745,35.86388],[128.5267,35.86392],[128.52636,35.86394],[128.52567,35.86456],[128.52553,35.86474],[128.52531,35.866],[128.52488,35.86729],[128.52095,35.8677],[128.52081,35.86774],[128.52059,35.8681],[128.51915,35.86958],[128.51979,35.87021],[128.51988,35.8703],[128.51995,35.87037],[128.52008,35.87054],[128.5203,35.87081],[128.52032,35.87085],[128.52034,35.8709],[128.52049,35.87122],[128.52057,35.87141],[128.52064,35.87157],[128.52121,35.87307],[128.52123,35.87317],[128.52123,35.87328],[128.52093,35.87599],[128.52083,35.87636],[128.52055,35.87737],[128.52046,35.87767],[128.52044,35.87774],[128.52035,35.87805],[128.51981,35.87904],[128.51955,35.87948],[128.51908,35.88025],[128.51905,35.88029],[128.519,35.88035],[128.51887,35.88052],[128.51876,35.88065],[128.51871,35.88069],[128.51861,35.88075],[128.51789,35.88159],[128.51723,35.8828],[128.5172,35.88292],[128.51719,35.88298],[128.5173,35.88372],[128.51731,35.88376],[128.5177,35.88415],[128.52,35.88586],[128.52031,35.88607],[128.5207,35.88631],[128.52091,35.8864],[128.52095,35.88642],[128.52111,35.88638],[128.52126,35.88636],[128.52137,35.88635],[128.5215,35.88634],[128.522,35.88635],[128.52438,35.88683],[128.5254,35.88717],[128.52587,35.88755],[128.52614,35.88777],[128.52599,35.8889],[128.53118,35.88763]]]]}},{"type":"Feature","properties":{"code":"27170695","name":"원대동","parent":"27170"},"geometry":{"type":"MultiPolygon","coordinates":[[[[128.58208,35.88513],[128.58021,35.8792],[128.58017,35.87908],[128.57794,35.8795],[128.57761,35.87955],[128.57676,35.87981],[128.57571,35.88035],[128.57562,35.8804],[128.57526,35.88066],[128.57507,35.8808],[128.57364,35.88202],[128.57269,35.8829],[128.57278,35.88311],[128.57356,35.88495],[128.57292,35.88548],[128.57226,35.88603],[128.57112,35.88688],[128.56853,35.88881],[128.57615,35.88761],[128.57673,35.88736],[128.58108,35.88555],[128.58208,35.88513]]]]}}]}