{"type":"FeatureCollection","features":[{"type":"Feature","properties":{"code":"27230510","name":"고성동","parent":"27230"},"geometry":{"type":"MultiPolygon","coordinates":[[[[128.58462,35.88459],[128.59024,35.8834],[128.5884,35.87758],[128.58838,35.87753],[128.58017,35.87908],[128.58021,35.8792],[128.58208,35.88513],[128.58462,35.88459]]]]}},{"type":"Feature","properties":{"code":"27230526","name":"칠성동","parent":"27230"},"geometry":{"type":"MultiPolygon","coordinates":[[[[128.59092,35.8857],[128.59295,35.8845],[128.59411,35.88302],[128.59509,35.88258],[128.5972,35.88175],[128.59778,35.88198],[128.59853,35.88233],[128.59963,35.88296],[128.59998,35.88319],[128.60001,35.88321],[128.60021,35.88338],[128.60108,35.88415],[128.6012,35.88426],[128.60215,35.88585],[128.60254,35.88226],[128.60269,35.88185],[128.60286,35.88137],[128.60312,35.88067],[128.60363,35.87998],[128.60506,35.87811],[128.60543,35.87773],[128.60677,35.8766],[128.61032,35.8749],[128.60969,35.87463],[128.60757,35.87405],[128.60617,35.87383],[128.60585,35.87385],[128.60445,35.87391],[128.60348,35.87408],[128.60151,35.87465],[128.60136,35.8748],[128.59914,35.87546],[128.59495,35.8753],[128.59492,35.87631],[128.58838,35.87753],[128.5884,35.87758],[128.59024,35.8834],[128.58462,35.88459],[128.5857,35.88667],[128.58589,35.88665],[128.59092,35.8857]]]]}},{"type":"Feature","properties":{"code":"27230550","name":"침산1동","parent":"27230"},"geometry":{"type":"MultiPolygon","coordinates":[[[[128.59317,35.90575],[128.59334,35.90383],[128.59358,35.90114],[128.59306,35.90103],[128.58808,35.90053],[128.58619,35.89572],[128.58511,35.89348],[128.58358,35.89218],[128.58337,35.89189],[128.58299,35.89069],[128.58314,35.89038],[128.58356,35.88995],[128.57979,35.89081],[128.57933,35.89131],[128.57756,35.89325],[128.57761,35.89345],[128.57799,35.89468],[128.57937,35.89944],[128.57939,35.89953],[128.57916,35.90131],[128.57912,35.90159],[128.57882,35.90381],[128.57903,35.9038],[128.57958,35.90496],[128.57982,35.90559],[128.58002,35.90611],[128.58304,35.90603],[128.59317,35.90575]]]]}},{"type":"Feature","properties":{"code":"27230560","name":"침산2동","parent":"27230"},"geometry":{"type":"MultiPolygon","coordinates":[[[[128.59933,35.89052],[128.60204,35.88787],[128.60215,35.88585],[128.6012,35.88426],[128.60108,35.88415],[128.60021,35.88338],[128.60001,35.88321],[128.59998,35.88319],[128.59963,35.88296],[128.59853,35.88233],[128.59778,35.88198],[128.5972,35.88175],[128.59509,35.88258],[128.59411,35.88302],[128.59295,35.8845],[128.59092,35.8857],[128.59104,35.88612],[128.59116,35.88653],[128.59117,35.88656],[128.59164,35.88825],[128.59127,35.88893],[128.59111,35.88924],[128.59048,35.89046],[128.59028,35.89087],[128.59,35.89142],[128.58976,35.89191],[128.59338,35.89314],[128.59391,35.89246],[128.5942,35.89214],[128.59439,35.89198],[128.59443,35.89196],[128.59467,35.89183],[128.59685,35.89079],[128.59725,35.89061],[128.59758,35.89045],[128.59762,35.89044],[128.59767,35.89041],[128.59788,35.89032],[128.5982,35.89017],[128.59846,35.89008],[128.59875,35.88997],[128.59891,35.88992],[128.59909,35.88986],[128.59933,35.89052]]]]}},{"type":"Feature","properties":{"code":"27230570","name":"침산3동","parent":"27230"},"geometry":{"type":"MultiPolygon","coordinates":[[[[128.59338,35.89314],[128.58976,35.89191],[128.59,35.89142],[128.59028,35.89087],[128.59048,35.89046],[128.59111,35.88924],[128.59127,35.88893],[128.59164,35.88825],[128.59117,35.88656],[128.59116,35.88653],[128.59104,35.88612],[128.59092,35.8857],[128.58589,35.88665],[128.5857,35.88667],[128.58462,35.88459],[128.58208,35.88513],[128.58356,35.88995],[128.58314,35.89038],[128.58299,35.89069],[128.58337,35.89189],[128.58358,35.89218],[128.58511,35.89348],[128.58619,35.89572],[128.58808,35.90053],[128.59306,35.90103],[128.59305,35.9006],[128.593,35.90006],[128.59297,35.89971],[128.59272,35.89866],[128.5926,35.89815],[128.59256,35.89803],[128.59252,35.89786],[128.59247,35.89769],[128.59245,35.89762],[128.59237,35.89727],[128.59234,35.89693],[128.59234,35.89665],[128.59237,35.89623],[128.59238,35.89619],[128.59238,35.8961],[128.5924,35.89583],[128.59248,35.89526],[128.59257,35.89493],[128.5926,35.89484],[128.59271,35.89453],[128.59291,35.89404],[128.59312,35.89362],[128.59318,35.8935],[128.59338,35.89314]]]]}},{"type":"Feature","properties":{"code":"27230610","name":"산격1동","parent":"27230"},"geometry":{"type":"MultiPolygon","coordinates":[[[[128.6062,35.90213],[128.6056,35.90157],[128.60398,35.90092],[128.60346,35.90074],[128.60326,35.90055],[128.59982,35.89643],[128.59888,35.89296],[128.59827,35.89172],[128.59933,35.89052],[128.59909,35.88986],[128.59891,35.88992],[128.59875,35.88997],[128.59846,35.89008],[128.5982,35.89017],[128.59788,35.89032],[128.59767,35.89041],[128.59762,35.89044],[128.59758,35.89045],[128.59725,35.89061],[128.59685,35.89079],[128.59467,35.89183],[128.59443,35.89196],[128.59439,35.89198],[128.5942,35.89214],[128.59391,35.89246],[128.59338,35.89314],[128.59318,35.8935],[128.59312,35.89362],[128.59291,35.89404],[128.59271,35.89453],[128.5926,35.89484],[128.59257,35.89493],[128.59248,35.89526],[128.5924,35.89583],[128.59238,35.8961],[128.59238,35.89619],[128.59237,35.89623],[128.59234,35.89665],[128.59234,35.89693],[128.59237,35.89727],[128.59245,35.89762],[128.59247,35.89769],[128.59252,35.89786],[128.59256,35.89803],[128.5926,35.89815],[128.59272,35.89866],[128.59297,35.89971],[128.593,35.90006],[128.59305,35.9006],[128.59306,35.90103],[128.59358,35.90114],[128.59457,35.90136],[128.59721,35.90192],[128.59763,35.90201],[128.59807,35.90211],[128.60163,35.90243],[128.60366,35.90251],[128.60488,35.90256],[128.60524,35.90249],[128.60532,35.90248],[128.6062,35.90213]]]]}},{"type":"Feature","properties":{"code":"27230620","name":"산격2동","parent":"27230"},"geometry":{"type":"MultiPolygon","coordinates":[[[[128.60705,35.91563],[128.60683,35.91412],[128.60876,35.91445],[128.60946,35.91415],[128.61134,35.9126],[128.61462,35.9126],[128.61544,35.91142],[128.61629,35.9102],[128.61911,35.90615],[128.6181,35.90543],[128.61763,35.90494],[128.61738,35.90468],[128.61702,35.90416],[128.61657,35.90333],[128.61641,35.9029],[128.61584,35.90133],[128.61576,35.9011],[128.61568,35.9009],[128.61562,35.90069],[128.61532,35.89969],[128.61524,35.89911],[128.61506,35.89784],[128.61509,35.89776],[128.60922,35.90034],[128.6062,35.90213],[128.60532,35.90248],[128.60524,35.90249],[128.60488,35.90256],[128.60366,35.90251],[128.60163,35.90243],[128.59807,35.90211],[128.59763,35.90201],[128.59721,35.90192],[128.59457,35.90136],[128.59358,35.90114],[128.59334,35.90383],[128.59317,35.90575],[128.59372,35.9057],[128.59392,35.90568],[128.59439,35.90568],[128.59463,35.90568],[128.59489,35.90568],[128.59517,35.9057],[128.59527,35.90571],[128.59544,35.90572],[128.59594,35.90577],[128.59749,35.90596],[128.59801,35.90614],[128.59858,35.90634],[128.59935,35.9067],[128.59983,35.90693],[128.60041,35.90734],[128.60058,35.9077],[128.60067,35.90799],[128.60083,35.90844],[128.60086,35.90857],[128.60095,35.90894],[128.60102,35.90925],[128.60107,35.90952],[128.60112,35.90976],[128.60114,35.90991],[128.6012,35.91035],[128.6012,35.91046],[128.60136,35.91105],[128.60204,35.91239],[128.6052,35.91512],[128.60535,35.91524],[128.60541,35.91529],[128.60662,35.91606],[128.60678,35.9159],[128.60705,35.91563]]]]}},{"type":"Feature","properties":{"code":"27230630","name":"산격3동","parent":"27230"},"geometry":{"type":"MultiPolygon","coordinates":[[[[128.61509,35.89776],[128.61513,35.89761],[128.61494,35.89749],[128.61453,35.89713],[128.61439,35.89701],[128.61334,35.89608],[128.61316,35.89592],[128.61414,35.8939],[128.61622,35.88964],[128.61648,35.88931],[128.61682,35.88892],[128.61685,35.8889],[128.61703,35.88879],[128.61579,35.88659],[128.61439,35.88506],[128.61431,35.88516],[128.6139,35.88552],[128.61368,35.88567],[128.6129,35.88619],[128.61283,35.8862],[128.6112,35.88627],[128.60722,35.88657],[128.60387,35.88843],[128.60393,35.88943],[128.60396,35.8897],[128.60432,35.88998],[128.60476,35.89026],[128.60522,35.89256],[128.60522,35.89259],[128.60523,35.89313],[128.60524,35.89557],[128.60526,35.89603],[128.60529,35.89683],[128.60533,35.89693],[128.60537,35.89701],[128.60545,35.8971],[128.60557,35.89723],[128.60604,35.89762],[128.60715,35.89858],[128.60789,35.89921],[128.60827,35.89954],[128.60922,35.90034],[128.61509,35.89776]]]]}},{"type":"Feature","properties":{"code":"27230631","name":"산격4동","parent":"27230"},"geometry":{"type":"MultiPolygon","coordinates":[[[[128.60922,35.90034],[128.60827,35.89954],[128.60789,35.89921],[128.60715,35.89858],[128.60604,35.89762],[128.60557,35.89723],[128.60545,35.8971],[128.60537,35.89701],[128.60533,35.89693],[128.60529,35.89683],[128.60526,35.89603],[128.60524,35.89557],[128.60523,35.89313],[128.60522,35.89259],[128.60522,35.89256],[128.60476,35.89026],[128.60432,35.88998],[128.60396,35.8897],[128.60393,35.88943],[128.60387,35.88843],[128.60204,35.88787],[128.59933,35.89052],[128.59827,35.89172],[128.59888,35.89296],[128.59982,35.89643],[128.60326,35.90055],[128.60346,35.90074],[128.60398,35.90092],[128.6056,35.90157],[128.6062,35.90213],[128.60922,35.90034]]]]}},{"type":"Feature","properties":{"code":"27230671","name":"복현1동","parent":"27230"},"geometry":{"type":"MultiPolygon","coordinates":[[[[128.62224,35.89247],[128.61989,35.89089],[128.61742,35.88925],[128.61703,35.88879],[128.61685,35.8889],[128.61682,35.88892],[128.61648,35.88931],[128.61622,35.88964],[128.61414,35.8939],[128.61316,35.89592],[128.61334,35.89608],[128.61439,35.89701],[128.61453,35.89713],[128.61494,35.89749],[128.61513,35.89761],[128.61586,35.89703],[128.61859,35.89484],[128.61872,35.89474],[128.61912,35.89442],[128.61925,35.89433],[128.62084,35.89308],[128.62224,35.89247]]]]}},{"type":"Feature","properties":{"code":"27230672","name":"복현2동","parent":"27230"},"geometry":{"type":"MultiPolygon","coordinates":[[[[128.62758,35.90592],[128.62748,35.9057],[128.62742,35.90555],[128.62725,35.9048],[128.62724,35.90414],[128.6283,35.90034],[128.6286,35.89953],[128.62893,35.89874],[128.62977,35.89689],[128.63006,35.89639],[128.63192,35.89344],[128.63119,35.89303],[128.6309,35.8927],[128.63054,35.89226],[128.63042,35.89207],[128.63038,35.89196],[128.63026,35.89141],[128.63022,35.89138],[128.6301,35.89128],[128.62901,35.89039],[128.62896,35.89036],[128.62806,35.88963],[128.62574,35.89091],[128.62224,35.89247],[128.62084,35.89308],[128.61925,35.89433],[128.61912,35.89442],[128.61872,35.89474],[128.61859,35.89484],[128.61586,35.89703],[128.61513,35.89761],[128.61509,35.89776],[128.61506,35.89784],[128.61524,35.89911],[128.61532,35.89969],[128.61562,35.90069],[128.61568,35.9009],[128.61576,35.9011],[128.61584,35.90133],[128.61641,35.9029],[128.61657,35.90333],[128.61702,35.90416],[128.61738,35.90468],[128.61763,35.90494],[128.6181,35.90543],[128.61911,35.90615],[128.62138,35.90742],[128.62758,35.90592]]]]}},{"type":"Feature","properties":{"code":"27230680","name":"검단동","parent":"27230"},"geometry":{"type":"MultiPolygon","coordinates":[[[[128.62758,35.90592],[128.62138,35.90742],[128.61911,35.90615],[128.61629,35.9102],[128.61544,35.91142],[128.61462,35.9126],[128.61134,35.9126],[128.60946,35.91415],[128.60876,35.91445],[128.60683,35.91412],[128.60705,35.91563],[128.60832,35.91753],[128.6085,35.91778],[128.60884,35.91821],[128.60903,35.91844],[128.60912,35.91855],[128.60918,35.91861],[128.60962,35.91904],[128.60984,35.91927],[128.61006,35.91945],[128.61023,35.91959],[128.61041,35.91974],[128.61051,35.91982],[128.61067,35.91994],[128.61111,35.92027],[128.61632,35.92363],[128.61817,35.92468],[128.6239,35.92793],[128.62541,35.92813],[128.62662,35.92829],[128.63054,35.92862],[128.63064,35.92851],[128.63082,35.9283],[128.63099,35.92808],[128.63167,35.92717],[128.63174,35.92702],[128.63192,35.92662],[128.63198,35.92649],[128.63198,35.92645],[128.63204,35.92608],[128.63205,35.92604],[128.63205,35.92596],[128.63206,35.92565],[128.63206,35.92522],[128.63207,35.92462],[128.63216,35.92047],[128.63219,35.91996],[128.63231,35.91884],[128.63249,35.91792],[128.63254,35.91782],[128.63272,35.91708],[128.63273,35.91705],[128.63281,35.91656],[128.63287,35.91579],[128.63288,35.91566],[128.63268,35.91477],[128.63239,35.91398],[128.63191,35.91269],[128.63169,35.9121],[128.63114,35.91062],[128.62976,35.90899],[128.62949,35.90874],[128.62888,35.90816],[128.62844,35.90767],[128.62832,35.90753],[128.6282,35.9073],[128.62801,35.90687],[128.62758,35.90592]]]]}},{"type":"Feature","properties":{"code":"27230695","name":"무태조야동","parent":"27230"},"geometry":{"type":"MultiPolygon","coordinates":[[[[128.6252,35.93584],[128.62585,35.93487],[128.62825,35.93034],[128.62862,35.92994],[128.62927,35.92936],[128.63054,35.92862],[128.62662,35.92829],[128.62541,35.92813],[128.6239,35.92793],[128.61817,35.92468],[128.61632,35.92363],[128.61111,35.92027],[128.61067,35.91994],[128.61051,35.91982],[128.61041,35.91974],[128.61023,35.91959],[128.61006,35.91945],[128.60984,35.91927],[128.60962,35.91904],[128.60918,35.91861],[128.60912,35.91855],[128.60903,35.91844],[128.60884,35.91821],[128.6085,35.91778],[128.60832,35.91753],[128.60705,35.91563],[128.60678,35.9159],[128.60662,35.91606],[128.60541,35.91529],[128.60535,35.91524],[128.6052,35.91512],[128.60204,35.91239],[128.60136,35.91105],[128.6012,35.91046],[128.6012,35.91035],[128.60114,35.90991],[128.60112,35.90976],[128.60107,35.90952],[128.60102,35.90925],[128.60095,35.90894],[128.60086,35.90857],[128.60083,35.90844],[128.60067,35.90799],[128.60058,35.9077],[128.60041,35.90734],[128.59983,35.90693],[128.59935,35.9067],[128.59858,35.90634],[128.59801,35.90614],[128.59749,35.90596],[128.59594,35.90577],[128.59544,35.90572],[128.59527,35.90571],[128.59517,35.9057],[128.59489,35.90568],[128.59463,35.90568],[128.59439,35.90568],[128.59392,35.90568],[128.59372,35.9057],[128.59317,35.90575],[128.58304,35.90603],[128.58002,35.90611],[128.57982,35.90559],[128.57958,35.90496],[128.57903,35.9038],[128.57882,35.90381],[128.57281,35.90368],[128.57298,35.90563],[128.57195,35.90564],[128.57121,35.90549],[128.5705,35.90534],[128.56969,35.90514],[128.56922,35.90674],[128.56921,35.90679],[128.56911,35.90718],[128.56832,35.91026],[128.56852,35.91266],[128.56877,35.91395],[128.56987,35.91913],[128.56988,35.91918],[128.56995,35.91958],[128.56977,35.91982],[128.56943,35.92033],[128.5693,35.92113],[128.56916,35.92216],[128.56942,35.92293],[128.56966,35.92349],[128.56977,35.92356],[128.57045,35.92387],[128.57088,35.92505],[128.57019,35.9257],[128.57045,35.92559],[128.57115,35.92532],[128.57169,35.92511],[128.57283,35.92495],[128.5739,35.92542],[128.57403,35.9255],[128.57432,35.92565],[128.5744,35.92569],[128.57441,35.92581],[128.57442,35.92591],[128.57458,35.92635],[128.57478,35.92686],[128.57689,35.92932],[128.57763,35.92997],[128.57792,35.93],[128.57933,35.9299],[128.5794,35.92986],[128.57943,35.92984],[128.5795,35.92984],[128.57966,35.92984],[128.58149,35.93002],[128.58203,35.93157],[128.58209,35.93194],[128.58209,35.93219],[128.58209,35.93257],[128.58208,35.93285],[128.58205,35.93311],[128.58201,35.93337],[128.58172,35.93383],[128.58161,35.93399],[128.58167,35.93424],[128.58173,35.93443],[128.58185,35.93479],[128.58208,35.93511],[128.58244,35.93558],[128.58246,35.9356],[128.58294,35.93603],[128.58322,35.93624],[128.58354,35.93649],[128.58374,35.93664],[128.58405,35.93688],[128.58421,35.937],[128.58438,35.93713],[128.58515,35.93765],[128.58532,35.93771],[128.58573,35.93765],[128.58603,35.93761],[128.58624,35.93758],[128.5891,35.93852],[128.59232,35.94012],[128.59432,35.94218],[128.59823,35.94527],[128.59995,35.94569],[128.60027,35.9455],[128.6007,35.94524],[128.60124,35.94522],[128.60177,35.9452],[128.60436,35.94577],[128.60509,35.94636],[128.60658,35.94797],[128.60667,35.94926],[128.60664,35.94978],[128.60651,35.95073],[128.60627,35.95206],[128.60616,35.95239],[128.60596,35.95283],[128.6056,35.95317],[128.60511,35.95357],[128.60383,35.95449],[128.60263,35.95517],[128.60255,35.95519],[128.60176,35.95579],[128.59972,35.95736],[128.59958,35.9575],[128.59968,35.96032],[128.60063,35.96103],[128.60086,35.9612],[128.6012,35.96124],[128.60137,35.96138],[128.60157,35.96156],[128.60309,35.96412],[128.60338,35.96547],[128.60384,35.97277],[128.60356,35.97386],[128.60306,35.9743],[128.60259,35.97493],[128.60256,35.97507],[128.60247,35.97552],[128.60243,35.97582],[128.6024,35.97599],[128.60238,35.97613],[128.60251,35.98061],[128.60283,35.98223],[128.60319,35.98336],[128.60357,35.9842],[128.60302,35.98616],[128.60384,35.98853],[128.60498,35.98837],[128.60519,35.98833],[128.60542,35.98827],[128.60558,35.98821],[128.60638,35.98788],[128.60656,35.9878],[128.60676,35.98769],[128.60706,35.98751],[128.60988,35.98584],[128.61051,35.98538],[128.6109,35.98508],[128.61323,35.98292],[128.61335,35.98277],[128.6135,35.98257],[128.61384,35.982],[128.61389,35.98192],[128.61391,35.98183],[128.61391,35.98171],[128.61389,35.9814],[128.61391,35.98127],[128.61401,35.98111],[128.61469,35.98011],[128.61498,35.97969],[128.61537,35.9792],[128.61664,35.97767],[128.61763,35.9775],[128.61859,35.97677],[128.61909,35.97626],[128.61949,35.97498],[128.61951,35.9742],[128.61941,35.97406],[128.619,35.97351],[128.61867,35.97308],[128.6181,35.97231],[128.61795,35.97128],[128.6179,35.97084],[128.6184,35.9703],[128.61862,35.97016],[128.61919,35.96981],[128.62057,35.96815],[128.62487,35.96087],[128.62624,35.95844],[128.62586,35.95642],[128.6256,35.95626],[128.62538,35.95611],[128.62521,35.956],[128.62418,35.95475],[128.62354,35.95252],[128.62316,35.94966],[128.6231,35.94867],[128.6234,35.94731],[128.6257,35.94648],[128.62618,35.94627],[128.62671,35.94599],[128.62702,35.9457],[128.62693,35.94437],[128.62667,35.94058],[128.62647,35.93907],[128.62635,35.93897],[128.62621,35.93885],[128.62601,35.9387],[128.62584,35.93857],[128.62558,35.93838],[128.62504,35.93801],[128.62489,35.93747],[128.62483,35.93698],[128.62481,35.93661],[128.62506,35.93601],[128.6252,35.93584]]]]}},{"type":"Feature","properties":{"code":"27230735","name":"태전2동","parent":"27230"},"geometry":{"type":"MultiPolygon","coordinates":[[[[128.55416,35.9321],[128.55456,35.93206],[128.55428,35.93126],[128.55403,35.93088],[128.55395,35.93076],[128.55359,35.93026],[128.55323,35.92976],[128.55297,35.9294],[128.55202,35.92811],[128.55185,35.92789],[128.55149,35.92742],[128.55063,35.92531],[128.55282,35.92376],[128.55396,35.92416],[128.55478,35.92432],[128.55489,35.92432],[128.55668,35.92268],[128.55837,35.91952],[128.55877,35.91821],[128.55857,35.91813],[128.5578,35.9176],[128.5575,35.91738],[128.5572,35.91709],[128.5571,35.91681],[128.55708,35.91651],[128.55709,35.91606],[128.5571,35.91602],[128.55713,35.91545],[128.55713,35.91536],[128.55712,35.91514],[128.55567,35.91373],[128.55334,35.91158],[128.55225,35.91053],[128.55215,35.91037],[128.55216,35.91029],[128.55227,35.91001],[128.55241,35.90961],[128.55256,35.90927],[128.55273,35.90892],[128.55277,35.90883],[128.55278,35.90872],[128.55263,35.90847],[128.55258,35.90842],[128.55143,35.90757],[128.54886,35.9079],[128.54855,35.90797],[128.54748,35.90827],[128.5445,35.91048],[128.54362,35.91152],[128.54321,35.91256],[128.54293,35.91365],[128.54303,35.91407],[128.54319,35.91445],[128.54331,35.9146],[128.54491,35.91606],[128.54531,35.91642],[128.54561,35.91669],[128.54621,35.91723],[128.54653,35.91756],[128.54655,35.9176],[128.5467,35.91779],[128.54747,35.91884],[128.54683,35.91976],[128.5466,35.92009],[128.54645,35.92029],[128.54648,35.92053],[128.54804,35.93032],[128.5485,35.93287],[128.54851,35.93296],[128.55416,35.9321]]]]}},{"type":"Feature","properties":{"code":"27230715","name":"관문동","parent":"27230"},"geometry":{"type":"MultiPolygon","coordinates":[[[[128.57019,35.9257],[128.57088,35.92505],[128.57045,35.92387],[128.56977,35.92356],[128.56966,35.92349],[128.56942,35.92293],[128.56916,35.92216],[128.5693,35.92113],[128.56943,35.92033],[128.56977,35.91982],[128.56995,35.91958],[128.56988,35.91918],[128.56987,35.91913],[128.56877,35.91395],[128.56852,35.91266],[128.56832,35.91026],[128.56911,35.90718],[128.56921,35.90679],[128.56922,35.90674],[128.56969,35.90514],[128.5705,35.90534],[128.57121,35.90549],[128.57195,35.90564],[128.57298,35.90563],[128.57281,35.90368],[128.57219,35.90357],[128.57143,35.90344],[128.57087,35.90332],[128.57031,35.90317],[128.56986,35.90302],[128.56946,35.90286],[128.56884,35.90255],[128.56823,35.90226],[128.56781,35.90204],[128.56747,35.90183],[128.56716,35.90165],[128.56711,35.90162],[128.56671,35.90136],[128.56626,35.90105],[128.56587,35.90077],[128.56564,35.90061],[128.5653,35.90031],[128.56505,35.9001],[128.56481,35.8999],[128.56363,35.89889],[128.56284,35.89823],[128.56249,35.89795],[128.56217,35.89772],[128.56186,35.8975],[128.56157,35.89733],[128.56112,35.89706],[128.56094,35.89696],[128.56034,35.89693],[128.55932,35.89692],[128.55849,35.89691],[128.55816,35.89685],[128.55375,35.89578],[128.55256,35.89474],[128.55218,35.89438],[128.55203,35.89417],[128.5519,35.89435],[128.55101,35.8955],[128.55074,35.89541],[128.54686,35.89411],[128.54659,35.89402],[128.54601,35.89383],[128.54435,35.89313],[128.54275,35.89246],[128.54211,35.89135],[128.53876,35.88931],[128.53658,35.88842],[128.5348,35.88797],[128.53118,35.88763],[128.52599,35.8889],[128.52574,35.88915],[128.52536,35.88952],[128.52474,35.88975],[128.52388,35.89005],[128.52301,35.89032],[128.52188,35.89066],[128.51618,35.89226],[128.5141,35.89278],[128.51221,35.89309],[128.51075,35.89304],[128.51019,35.89301],[128.50839,35.89279],[128.50784,35.89268],[128.50732,35.89253],[128.50692,35.89235],[128.50654,35.89212],[128.50415,35.89059],[128.50445,35.89316],[128.50475,35.89875],[128.50517,35.903],[128.50705,35.9064],[128.50717,35.9066],[128.51032,35.90992],[128.51055,35.91014],[128.51083,35.91038],[128.51099,35.91051],[128.51116,35.9106],[128.51128,35.91065],[128.51368,35.91161],[128.51378,35.91165],[128.51394,35.91169],[128.51403,35.91171],[128.51415,35.91168],[128.51423,35.91165],[128.51427,35.91163],[128.51439,35.91158],[128.51789,35.91324],[128.52197,35.9164],[128.52285,35.91717],[128.52315,35.91749],[128.52321,35.91758],[128.52326,35.91766],[128.5233,35.91775],[128.5233,35.91798],[128.5233,35.91838],[128.5233,35.91875],[128.52328,35.91891],[128.52323,35.91909],[128.5232,35.9192],[128.5232,35.91925],[128.52324,35.91934],[128.52343,35.91959],[128.52354,35.91972],[128.52586,35.92235],[128.52656,35.92276],[128.52873,35.92355],[128.5289,35.92359],[128.52905,35.92361],[128.52924,35.92361],[128.52966,35.92358],[128.52971,35.92326],[128.52978,35.92318],[128.52987,35.92306],[128.53003,35.92292],[128.53022,35.92302],[128.53091,35.92343],[128.53157,35.92392],[128.53194,35.92424],[128.5323,35.92458],[128.53381,35.92532],[128.53412,35.92538],[128.53429,35.9254],[128.53487,35.92475],[128.53494,35.92463],[128.53497,35.92451],[128.53544,35.92202],[128.5362,35.92005],[128.53734,35.91724],[128.53784,35.91707],[128.53871,35.91683],[128.53881,35.91682],[128.53937,35.91672],[128.53969,35.91667],[128.53988,35.91659],[128.54073,35.91599],[128.54256,35.91451],[128.54281,35.91421],[128.54293,35.91365],[128.54321,35.91256],[128.54362,35.91152],[128.5445,35.91048],[128.54748,35.90827],[128.54855,35.90797],[128.54886,35.9079],[128.55143,35.90757],[128.55258,35.90842],[128.55263,35.90847],[128.55278,35.90872],[128.55277,35.90883],[128.55273,35.90892],[128.55256,35.90927],[128.55241,35.90961],[128.55227,35.91001],[128.55216,35.91029],[128.55215,35.91037],[128.55225,35.91053],[128.55334,35.91158],[128.55567,35.91373],[128.55712,35.91514],[128.55713,35.91536],[128.55713,35.91545],[128.5571,35.91602],[128.55709,35.91606],[128.55708,35.91651],[128.5571,35.91681],[128.5572,35.91709],[128.5575,35.91738],[128.5578,35.9176],[128.55857,35.91813],[128.55877,35.91821],[128.55971,35.91917],[128.56155,35.91957],[128.5636,35.92097],[128.56583,35.92279],[128.56743,35.92509],[128.56748,35.92531],[128.56752,35.92572],[128.56767,35.92625],[128.56866,35.92664],[128.56921,35.9264],[128.57019,35.9257]]]]}},{"type":"Feature","properties":{"code":"27230770","name":"읍내동","parent":"27230"},"geometry":{"type":"MultiPolygon","coordinates":[[[[128.55285,35.96074],[128.55405,35.95923],[128.55538,35.95704],[128.55552,35.95672],[128.55557,35.95651],[128.55561,35.95623],[128.55561,35.95612],[128.5554,35.95606],[128.55537,35.95576],[128.55553,35.95501],[128.55574,35.95421],[128.55604,35.95324],[128.55647,35.95194],[128.5565,35.95188],[128.55664,35.95157],[128.55706,35.95081],[128.55733,35.95043],[128.55739,35.95034],[128.55762,35.94991],[128.55775,35.9495],[128.55779,35.9493],[128.55778,35.94899],[128.55769,35.94874],[128.55737,35.94835],[128.55505,35.94612],[128.55497,35.94602],[128.5548,35.94577],[128.55468,35.94559],[128.55458,35.94535],[128.55452,35.94515],[128.5544,35.94448],[128.55431,35.94387],[128.55433,35.94366],[128.55447,35.94334],[128.55457,35.94325],[128.55477,35.94312],[128.55507,35.94302],[128.55538,35.94291],[128.55585,35.94272],[128.55624,35.94252],[128.5565,35.94236],[128.55673,35.94222],[128.55697,35.942],[128.55714,35.94182],[128.55727,35.94167],[128.55731,35.94162],[128.55743,35.94148],[128.55755,35.94123],[128.55761,35.94097],[128.5576,35.94077],[128.55756,35.9405],[128.55753,35.94028],[128.55746,35.94005],[128.55743,35.93997],[128.55741,35.93992],[128.55731,35.9397],[128.55727,35.93964],[128.55713,35.93948],[128.55675,35.93912],[128.55667,35.93905],[128.55642,35.93877],[128.55567,35.9379],[128.55546,35.93758],[128.55545,35.93755],[128.55529,35.93717],[128.55522,35.93689],[128.55511,35.93585],[128.55511,35.93581],[128.55507,35.93539],[128.55504,35.93513],[128.55502,35.9349],[128.55501,35.93477],[128.555,35.93458],[128.55498,35.93438],[128.55496,35.93411],[128.55494,35.93402],[128.55489,35.93377],[128.55482,35.93349],[128.55472,35.93323],[128.5547,35.93317],[128.55466,35.93308],[128.55446,35.93267],[128.55416,35.9321],[128.54851,35.93296],[128.54856,35.93337],[128.54877,35.93479],[128.54923,35.93792],[128.5494,35.93835],[128.55012,35.94026],[128.5478,35.94127],[128.54654,35.94624],[128.54559,35.9511],[128.54546,35.95134],[128.54239,35.95705],[128.54205,35.95724],[128.54014,35.95822],[128.53785,35.95873],[128.53665,35.95877],[128.53543,35.95866],[128.53463,35.95844],[128.53347,35.96036],[128.53194,35.96134],[128.53045,35.96249],[128.53025,35.96467],[128.52967,35.96843],[128.52964,35.96857],[128.5285,35.9715],[128.52743,35.97424],[128.5273,35.97446],[128.52696,35.97526],[128.52695,35.97535],[128.52694,35.9755],[128.52697,35.97568],[128.52701,35.97583],[128.52709,35.97594],[128.52717,35.97602],[128.52731,35.97613],[128.52744,35.9762],[128.52755,35.97622],[128.52777,35.97628],[128.52803,35.97636],[128.52819,35.97643],[128.52838,35.97654],[128.5287,35.97681],[128.52905,35.97711],[128.52918,35.97726],[128.52924,35.97738],[128.52929,35.97753],[128.52931,35.97764],[128.52931,35.97778],[128.52879,35.98045],[128.53084,35.98043],[128.53266,35.97953],[128.53287,35.97944],[128.53359,35.97914],[128.53381,35.97905],[128.53403,35.97902],[128.5342,35.97901],[128.53688,35.97799],[128.5421,35.97495],[128.54223,35.97486],[128.54235,35.97475],[128.5445,35.97118],[128.54551,35.96932],[128.54559,35.96915],[128.54599,35.96786],[128.54601,35.96762],[128.546,35.96746],[128.54595,35.9673],[128.54587,35.9672],[128.54585,35.96712],[128.54587,35.96693],[128.54595,35.96658],[128.54603,35.96628],[128.54615,35.96599],[128.54636,35.96569],[128.54722,35.9645],[128.54746,35.96421],[128.54879,35.96292],[128.54927,35.9625],[128.54956,35.96226],[128.54981,35.9621],[128.55038,35.96179],[128.55101,35.96151],[128.55285,35.96074]]]]}},{"type":"Feature","properties":{"code":"27230750","name":"관음동","parent":"27230"},"geometry":{"type":"MultiPolygon","coordinates":[[[[128.54851,35.93296],[128.5485,35.93287],[128.54576,35.93364],[128.54575,35.93371],[128.54558,35.93375],[128.54489,35.93385],[128.54464,35.93387],[128.54431,35.9339],[128.5422,35.93404],[128.5338,35.93466],[128.53383,35.93483],[128.53411,35.93617],[128.53437,35.93713],[128.53506,35.93875],[128.53474,35.94136],[128.53455,35.94271],[128.53395,35.94625],[128.53297,35.94946],[128.5328,35.9497],[128.53274,35.94982],[128.5327,35.94999],[128.53265,35.95032],[128.53261,35.95067],[128.53261,35.95102],[128.53268,35.95215],[128.5341,35.95696],[128.53463,35.95844],[128.53543,35.95866],[128.53665,35.95877],[128.53785,35.95873],[128.54014,35.95822],[128.54205,35.95724],[128.54239,35.95705],[128.54546,35.95134],[128.54559,35.9511],[128.54654,35.94624],[128.5478,35.94127],[128.55012,35.94026],[128.5494,35.93835],[128.54923,35.93792],[128.54877,35.93479],[128.54856,35.93337],[128.54851,35.93296]]]]}},{"type":"Feature","properties":{"code":"27230725","name":"태전1동","parent":"27230"},"geometry":{"type":"MultiPolygon","coordinates":[[[[128.5485,35.93287],[128.54804,35.93032],[128.54648,35.92053],[128.54645,35.92029],[128.5466,35.92009],[128.54683,35.91976],[128.54747,35.91884],[128.5467,35.91779],[128.54655,35.9176],[128.54653,35.91756],[128.54621,35.91723],[128.54561,35.91669],[128.54531,35.91642],[128.54491,35.91606],[128.54331,35.9146],[128.54319,35.91445],[128.54303,35.91407],[128.54293,35.91365],[128.54281,35.91421],[128.54256,35.91451],[128.54073,35.91599],[128.53988,35.91659],[128.53969,35.91667],[128.53937,35.91672],[128.53881,35.91682],[128.53871,35.91683],[128.53784,35.91707],[128.53734,35.91724],[128.5362,35.92005],[128.53544,35.92202],[128.53497,35.92451],[128.53494,35.92463],[128.53487,35.92475],[128.53429,35.9254],[128.53412,35.92538],[128.53381,35.92532],[128.5323,35.92458],[128.53194,35.92424],[128.53157,35.92392],[128.53091,35.92343],[128.53022,35.92302],[128.53003,35.92292],[128.52987,35.92306],[128.52978,35.92318],[128.52971,35.92326],[128.52966,35.92358],[128.52945,35.92559],[128.52945,35.92581],[128.52952,35.92841],[128.52955,35.92856],[128.52967,35.92871],[128.53101,35.93006],[128.53162,35.93052],[128.53299,35.93148],[128.53354,35.9322],[128.53402,35.93361],[128.53401,35.93385],[128.53399,35.93407],[128.53393,35.93429],[128.5338,35.93466],[128.5422,35.93404],[128.54431,35.9339],[128.54464,35.93387],[128.54489,35.93385],[128.54558,35.93375],[128.54575,35.93371],[128.54576,35.93364],[128.5485,35.93287]]]]}},{"type":"Feature","properties":{"code":"27230745","name":"구암동","parent":"27230"},"geometry":{"type":"MultiPolygon","coordinates":[[[[128.58161,35.93399],[128.58172,35.93383],[128.58201,35.93337],[128.58205,35.93311],[128.58208,35.93285],[128.58209,35.93257],[128.58209,35.93219],[128.58209,35.93194],[128.58203,35.93157],[128.58149,35.93002],[128.57966,35.92984],[128.5795,35.92984],[128.57943,35.92984],[128.5794,35.92986],[128.57933,35.9299],[128.57792,35.93],[128.57763,35.92997],[128.57689,35.92932],[128.57478,35.92686],[128.57458,35.92635],[128.57442,35.92591],[128.57441,35.92581],[128.5744,35.92569],[128.57432,35.92565],[128.57403,35.9255],[128.5739,35.92542],[128.57283,35.92495],[128.57169,35.92511],[128.57115,35.92532],[128.57045,35.92559],[128.57019,35.9257],[128.56921,35.9264],[128.56866,35.92664],[128.56767,35.92625],[128.56752,35.92572],[128.56748,35.92531],[128.56743,35.92509],[128.56583,35.92279],[128.5636,35.92097],[128.56155,35.91957],[128.55971,35.91917],[128.55877,35.91821],[128.55837,35.91952],[128.55668,35.92268],[128.55489,35.92432],[128.55478,35.92432],[128.55396,35.92416],[128.55282,35.92376],[128.55063,35.92531],[128.55149,35.92742],[128.55185,35.92789],[128.55202,35.92811],[128.55297,35.9294],[128.55323,35.92976],[128.55359,35.93026],[128.55395,35.93076],[128.55403,35.93088],[128.55428,35.93126],[128.55456,35.93206],[128.55513,35.93201],[128.55631,35.93189],[128.5582,35.93173],[128.56098,35.9315],[128.56142,35.93147],[128.56146,35.93151],[128.56154,35.93198],[128.56172,35.93308],[128.5618,35.93352],[128.56293,35.93956],[128.56294,35.93963],[128.56387,35.94415],[128.57079,35.94328],[128.57247,35.94311],[128.57282,35.94313],[128.57333,35.94316],[128.57378,35.94336],[128.5741,35.94355],[128.57464,35.94394],[128.57538,35.94447],[128.57949,35.94542],[128.57949,35.9432],[128.57947,35.94227],[128.57894,35.93986],[128.57886,35.93947],[128.57861,35.93855],[128.57846,35.93825],[128.57828,35.93808],[128.57822,35.93802],[128.57828,35.93776],[128.57835,35.93746],[128.57904,35.93491],[128.57907,35.93487],[128.57918,35.93477],[128.57944,35.93458],[128.57961,35.93447],[128.58051,35.93388],[128.58081,35.93391],[128.58115,35.93395],[128.58161,35.93399]]]]}},{"type":"Feature","properties":{"code":"27230790","name":"노원동","parent":"27230"},"geometry":{"type":"MultiPolygon","coordinates":[[[[128.58356,35.88995],[128.58208,35.88513],[128.58108,35.88555],[128.57673,35.88736],[128.57615,35.88761],[128.56853,35.88881],[128.5665,35.88911],[128.56297,35.88962],[128.55961,35.89009],[128.55849,35.89025],[128.55617,35.89057],[128.55509,35.89077],[128.55431,35.89127],[128.55275,35.89307],[128.55254,35.89331],[128.55197,35.89396],[128.5519,35.89405],[128.55203,35.89417],[128.55218,35.89438],[128.55256,35.89474],[128.55375,35.89578],[128.55816,35.89685],[128.55849,35.89691],[128.55932,35.89692],[128.56034,35.89693],[128.56094,35.89696],[128.56112,35.89706],[128.56157,35.89733],[128.56186,35.8975],[128.56217,35.89772],[128.56249,35.89795],[128.56284,35.89823],[128.56363,35.89889],[128.56481,35.8999],[128.56505,35.9001],[128.5653,35.90031],[128.56564,35.90061],[128.56587,35.90077],[128.56626,35.90105],[128.56671,35.90136],[128.56711,35.90162],[128.56716,35.90165],[128.56747,35.90183],[128.56781,35.90204],[128.56823,35.90226],[128.56884,35.90255],[128.56946,35.90286],[128.56986,35.90302],[128.57031,35.90317],[128.57087,35.90332],[128.57143,35.90344],[128.57219,35.90357],[128.57281,35.90368],[128.57882,35.90381],[128.57912,35.90159],[128.57916,35.90131],[128.57939,35.89953],[128.57937,35.89944],[128.57799,35.89468],[128.57761,35.89345],[128.57756,35.89325],[128.57933,35.89131],[128.57979,35.89081],[128.58356,35.88995]]]]}},{"type":"Feature","properties":{"code":"27230780","name":"동천동","parent":"27230"},"geometry":{"type":"MultiPolygon","coordinates":[[[[128.56387,35.94415],[128.56294,35.93963],[128.56293,35.93956],[128.5618,35.93352],[128.56172,35.93308],[128.56154,35.93198],[128.56146,35.93151],[128.56142,35.93147],[128.56098,35.9315],[128.5582,35.93173],[128.55631,35.93189],[128.55513,35.93201],[128.55456,35.93206],[128.55416,35.9321],[128.55446,35.93267],[128.55466,35.93308],[128.5547,35.93317],[128.55472,35.93323],[128.55482,35.93349],[128.55489,35.93377],[128.55494,35.93402],[128.55496,35.93411],[128.55498,35.93438],[128.555,35.93458],[128.55501,35.93477],[128.55502,35.9349],[128.55504,35.93513],[128.55507,35.93539],[128.55511,35.93581],[128.55511,35.93585],[128.55522,35.93689],[128.55529,35.93717],[128.55545,35.93755],[128.55546,35.93758],[128.55567,35.9379],[128.55642,35.93877],[128.55667,35.93905],[128.55675,35.93912],[128.55713,35.93948],[128.55727,35.93964],[128.55731,35.9397],[128.55741,35.93992],[128.55743,35.93997],[128.55746,35.94005],[128.55753,35.94028],[128.55756,35.9405],[128.5576,35.94077],[128.55761,35.94097],[128.55755,35.94123],[128.55743,35.94148],[128.55731,35.94162],[128.55727,35.94167],[128.55714,35.94182],[128.55697,35.942],[128.55673,35.94222],[128.5565,35.94236],[128.55624,35.94252],[128.55585,35.94272],[128.55538,35.94291],[128.55507,35.94302],[128.55477,35.94312],[128.55457,35.94325],[128.55447,35.94334],[128.55433,35.94366],[128.55431,35.94387],[128.5544,35.94448],[128.55452,35.94515],[128.55458,35.94535],[128.55468,35.94559],[128.5548,35.94577],[128.55497,35.94602],[128.55505,35.94612],[128.56427,35.94641],[128.56387,35.94415]]]]}},{"type":"Feature","properties":{"code":"27230800","name":"국우동","parent":"27230"},"geometry":{"type":"MultiPolygon","coordinates":[[[[128.58161,35.93399],[128.58115,35.93395],[128.58081,35.93391],[128.58051,35.93388],[128.57961,35.93447],[128.57944,35.93458],[128.57918,35.93477],[128.57907,35.93487],[128.57904,35.93491],[128.57835,35.93746],[128.57828,35.93776],[128.57822,35.93802],[128.57828,35.93808],[128.57846,35.93825],[128.57861,35.93855],[128.57886,35.93947],[128.57894,35.93986],[128.57947,35.94227],[128.57949,35.9432],[128.57949,35.94542],[128.57538,35.94447],[128.57464,35.94394],[128.5741,35.94355],[128.57378,35.94336],[128.57333,35.94316],[128.57282,35.94313],[128.57247,35.94311],[128.57079,35.94328],[128.56387,35.94415],[128.56427,35.94641],[128.55505,35.94612],[128.55737,35.94835],[128.55769,35.94874],[128.55778,35.94899],[128.55779,35.9493],[128.55775,35.9495],[128.55762,35.94991],[128.55739,35.95034],[128.55733,35.95043],[128.55706,35.95081],[128.55664,35.95157],[128.5565,35.95188],[128.55647,35.95194],[128.55604,35.95324],[128.55574,35.95421],[128.55553,35.95501],[128.55537,35.95576],[128.5554,35.95606],[128.55561,35.95612],[128.55561,35.95623],[128.55557,35.95651],[128.55552,35.95672],[128.55538,35.95704],[128.55405,35.95923],[128.55285,35.96074],[128.55296,35.96074],[128.55332,35.96076],[128.55347,35.96104],[128.55316,35.96343],[128.55347,35.96375],[128.55363,35.96389],[128.55416,35.9643],[128.55459,35.96461],[128.55492,35.96483],[128.55516,35.96501],[128.55541,35.96519],[128.5557,35.96541],[128.55596,35.96563],[128.55603,35.96571],[128.5561,35.966],[128.55612,35.96623],[128.55609,35.96731],[128.55606,35.96752],[128.55599,35.96781],[128.55597,35.96785],[128.55591,35.96808],[128.55584,35.96835],[128.55581,35.96858],[128.55578,35.96896],[128.55578,35.96906],[128.55577,35.96931],[128.55586,35.96961],[128.55624,35.97059],[128.55686,35.97101],[128.55721,35.97119],[128.55774,35.97143],[128.5583,35.97167],[128.55859,35.97175],[128.56211,35.97254],[128.56417,35.97287],[128.56605,35.9742],[128.56606,35.97433],[128.5661,35.97441],[128.56619,35.97452],[128.56633,35.9747],[128.5668,35.97513],[128.56708,35.97538],[128.56716,35.97544],[128.57196,35.97771],[128.57207,35.97774],[128.57223,35.97776],[128.57236,35.97777],[128.57716,35.97787],[128.57722,35.97787],[128.57864,35.97785],[128.57916,35.97784],[128.57952,35.9778],[128.58015,35.97771],[128.58034,35.97768],[128.58063,35.97761],[128.58083,35.97754],[128.58125,35.97744],[128.58144,35.97741],[128.58318,35.97735],[128.58406,35.97745],[128.58559,35.97764],[128.58568,35.97765],[128.58985,35.97872],[128.59041,35.97888],[128.5907,35.979],[128.59092,35.97911],[128.59308,35.98043],[128.59317,35.98051],[128.59321,35.98062],[128.59365,35.98166],[128.59368,35.98174],[128.59367,35.98183],[128.59365,35.98198],[128.59362,35.98213],[128.59356,35.98252],[128.59355,35.98261],[128.59355,35.98266],[128.59356,35.98269],[128.59358,35.98273],[128.59364,35.98276],[128.59463,35.98327],[128.59473,35.98331],[128.59672,35.98393],[128.59687,35.98397],[128.59707,35.98403],[128.59725,35.98405],[128.5976,35.98406],[128.59777,35.98406],[128.59819,35.98405],[128.59848,35.98407],[128.59864,35.9841],[128.59875,35.98414],[128.60215,35.98556],[128.60302,35.98616],[128.60357,35.9842],[128.60319,35.98336],[128.60283,35.98223],[128.60251,35.98061],[128.60238,35.97613],[128.6024,35.97599],[128.60243,35.97582],[128.60247,35.97552],[128.60256,35.97507],[128.60259,35.97493],[128.60306,35.9743],[128.60356,35.97386],[128.60384,35.97277],[128.60338,35.96547],[128.60309,35.96412],[128.60157,35.96156],[128.60137,35.96138],[128.6012,35.96124],[128.60086,35.9612],[128.60063,35.96103],[128.59968,35.96032],[128.59958,35.9575],[128.59972,35.95736],[128.60176,35.95579],[128.60255,35.95519],[128.60263,35.95517],[128.60383,35.95449],[128.60511,35.95357],[128.6056,35.95317],[128.60596,35.95283],[128.60616,35.95239],[128.60627,35.95206],[128.60651,35.95073],[128.60664,35.94978],[128.60667,35.94926],[128.60658,35.94797],[128.60509,35.94636],[128.60436,35.94577],[128.60177,35.9452],[128.60124,35.94522],[128.6007,35.94524],[128.60027,35.9455],[128.59995,35.94569],[128.59823,35.94527],[128.59432,35.94218],[128.59232,35.94012],[128.5891,35.93852],[128.58624,35.93758],[128.58603,35.93761],[128.58573,35.93765],[128.58532,35.93771],[128.58515,35.93765],[128.58438,35.93713],[128.58421,35.937],[128.58405,35.93688],[128.58374,35.93664],[128.58354,35.93649],[128.58322,35.93624],[128.58294,35.93603],[128.58246,35.9356],[128.58244,35.93558],[128.58208,35.93511],[128.58185,35.93479],[128.58173,35.93443],[128.58167,35.93424],[128.58161,35.93399]]]]}},{"type":"Feature","properties":{"code":"27230645","name":"대현동","parent":"27230"},"geometry":{"type":"MultiPolygon","coordinates":[[[[128.61439,35.88506],[128.61209,35.88179],[128.61161,35.88049],[128.6099,35.87893],[128.60895,35.87842],[128.60796,35.8779],[128.60718,35.87749],[128.60686,35.87694],[128.60677,35.8766],[128.60543,35.87773],[128.60506,35.87811],[128.60363,35.87998],[128.60312,35.88067],[128.60286,35.88137],[128.60269,35.88185],[128.60254,35.88226],[128.60215,35.88585],[128.60204,35.88787],[128.60387,35.88843],[128.60722,35.88657],[128.6112,35.88627],[128.61283,35.8862],[128.6129,35.88619],[128.61368,35.88567],[128.6139,35.88552],[128.61431,35.88516],[128.61439,35.88506]]]]}}]}