{"type":"FeatureCollection","features":[{"type":"Feature","properties":{"code":"26170510","name":"초량1동","parent":"26170"},"geometry":{"type":"MultiPolygon","coordinates":[[[[129.03963,35.11513],[129.04108,35.11421],[129.04065,35.11286],[129.04039,35.11226],[129.0402,35.11182],[129.04002,35.11142],[129.0382,35.112],[129.03474,35.11442],[129.03319,35.1155],[129.03265,35.11599],[129.03645,35.1185],[129.03736,35.11769],[129.03751,35.11546],[129.03931,35.1148],[129.03963,35.11513]]]]}},{"type":"Feature","properties":{"code":"26170520","name":"초량2동","parent":"26170"},"geometry":{"type":"MultiPolygon","coordinates":[[[[129.03963,35.11513],[129.03931,35.1148],[129.03751,35.11546],[129.03736,35.11769],[129.03645,35.1185],[129.03265,35.11599],[129.02822,35.11734],[129.02821,35.11739],[129.02821,35.11745],[129.02841,35.11783],[129.02945,35.11871],[129.02962,35.11878],[129.02999,35.1189],[129.03246,35.11923],[129.03606,35.11976],[129.03829,35.12064],[129.0396,35.11985],[129.04127,35.11793],[129.04117,35.11773],[129.04099,35.1174],[129.03963,35.11513]]]]}},{"type":"Feature","properties":{"code":"26170530","name":"초량3동","parent":"26170"},"geometry":{"type":"MultiPolygon","coordinates":[[[[129.05,35.12353],[129.04999,35.12349],[129.04857,35.12049],[129.05024,35.11926],[129.05282,35.11761],[129.0528,35.1159],[129.04786,35.11903],[129.04671,35.11662],[129.05087,35.11404],[129.04983,35.11298],[129.04589,35.11541],[129.0451,35.11568],[129.04273,35.11072],[129.04002,35.11142],[129.0402,35.11182],[129.04039,35.11226],[129.04065,35.11286],[129.04108,35.11421],[129.03963,35.11513],[129.04099,35.1174],[129.04117,35.11773],[129.04127,35.11793],[129.0396,35.11985],[129.03829,35.12064],[129.03754,35.12429],[129.03829,35.12469],[129.03846,35.12463],[129.04043,35.12376],[129.04047,35.12374],[129.04053,35.12369],[129.0412,35.1232],[129.04124,35.12315],[129.04125,35.12306],[129.04125,35.123],[129.04125,35.12293],[129.04136,35.12277],[129.04144,35.12265],[129.04151,35.12257],[129.04161,35.12249],[129.04166,35.12246],[129.04179,35.12241],[129.04184,35.12239],[129.042,35.12237],[129.04274,35.12235],[129.04293,35.12269],[129.04413,35.12502],[129.0444,35.12557],[129.04458,35.12598],[129.04733,35.12699],[129.04777,35.12691],[129.05132,35.13006],[129.05085,35.1269],[129.05,35.12353]]]]}},{"type":"Feature","properties":{"code":"26170550","name":"초량6동","parent":"26170"},"geometry":{"type":"MultiPolygon","coordinates":[[[[129.03536,35.12605],[129.03754,35.12429],[129.03829,35.12064],[129.03606,35.11976],[129.03246,35.11923],[129.02999,35.1189],[129.02962,35.11878],[129.02945,35.11871],[129.02841,35.11783],[129.02821,35.11745],[129.02821,35.11739],[129.02822,35.11734],[129.02782,35.11735],[129.02613,35.11678],[129.02533,35.1176],[129.02507,35.11791],[129.02465,35.11858],[129.02459,35.11871],[129.0246,35.11877],[129.02472,35.11926],[129.02475,35.11934],[129.02538,35.12196],[129.02598,35.12826],[129.02603,35.12912],[129.02594,35.12978],[129.02566,35.13077],[129.02512,35.13216],[129.02618,35.13132],[129.03128,35.12945],[129.03181,35.1293],[129.03248,35.12912],[129.03391,35.12875],[129.03536,35.12605]]]]}},{"type":"Feature","properties":{"code":"26170560","name":"수정1동","parent":"26170"},"geometry":{"type":"MultiPolygon","coordinates":[[[[129.04458,35.12598],[129.0444,35.12557],[129.04413,35.12502],[129.04293,35.12269],[129.04274,35.12235],[129.042,35.12237],[129.04184,35.12239],[129.04179,35.12241],[129.04166,35.12246],[129.04161,35.12249],[129.04151,35.12257],[129.04144,35.12265],[129.04136,35.12277],[129.04125,35.12293],[129.04125,35.123],[129.04125,35.12306],[129.04124,35.12315],[129.0412,35.1232],[129.04053,35.12369],[129.04047,35.12374],[129.04043,35.12376],[129.03846,35.12463],[129.03829,35.12469],[129.03754,35.12429],[129.03536,35.12605],[129.0356,35.12601],[129.03582,35.12599],[129.03624,35.12597],[129.03649,35.12597],[129.03695,35.12599],[129.04079,35.1266],[129.04172,35.12642],[129.04291,35.12613],[129.04458,35.12598]]]]}},{"type":"Feature","properties":{"code":"26170570","name":"수정2동","parent":"26170"},"geometry":{"type":"MultiPolygon","coordinates":[[[[129.03469,35.13728],[129.03747,35.13529],[129.03869,35.13429],[129.03914,35.13395],[129.04029,35.1331],[129.04461,35.13074],[129.04473,35.1308],[129.04619,35.13215],[129.04698,35.13145],[129.04955,35.13076],[129.05132,35.13006],[129.04777,35.12691],[129.04733,35.12699],[129.04458,35.12598],[129.04465,35.1261],[129.04514,35.12716],[129.04538,35.12768],[129.04513,35.12784],[129.03879,35.12928],[129.0387,35.1293],[129.03399,35.13232],[129.03332,35.13291],[129.0332,35.13302],[129.03304,35.13313],[129.03283,35.13324],[129.03123,35.13411],[129.02702,35.13535],[129.02785,35.13635],[129.02802,35.13651],[129.02828,35.13663],[129.02863,35.13673],[129.03168,35.13749],[129.03178,35.13751],[129.03191,35.1375],[129.03223,35.1374],[129.03313,35.13706],[129.03469,35.13728]]]]}},{"type":"Feature","properties":{"code":"26170590","name":"수정4동","parent":"26170"},"geometry":{"type":"MultiPolygon","coordinates":[[[[129.04458,35.12598],[129.04291,35.12613],[129.04172,35.12642],[129.04079,35.1266],[129.03695,35.12599],[129.03649,35.12597],[129.03624,35.12597],[129.03582,35.12599],[129.0356,35.12601],[129.03536,35.12605],[129.03391,35.12875],[129.03248,35.12912],[129.03181,35.1293],[129.03128,35.12945],[129.02618,35.13132],[129.02512,35.13216],[129.02412,35.13402],[129.02627,35.13512],[129.02702,35.13535],[129.03123,35.13411],[129.03283,35.13324],[129.03304,35.13313],[129.0332,35.13302],[129.03332,35.13291],[129.03399,35.13232],[129.0387,35.1293],[129.03879,35.12928],[129.04513,35.12784],[129.04538,35.12768],[129.04514,35.12716],[129.04465,35.1261],[129.04458,35.12598]]]]}},{"type":"Feature","properties":{"code":"26170600","name":"수정5동","parent":"26170"},"geometry":{"type":"MultiPolygon","coordinates":[[[[129.04699,35.13872],[129.04749,35.13757],[129.04754,35.13736],[129.04752,35.13725],[129.04748,35.13712],[129.04744,35.13705],[129.04738,35.13697],[129.04668,35.13614],[129.04618,35.13568],[129.04572,35.13502],[129.04561,35.13483],[129.04549,35.13459],[129.04532,35.13411],[129.04525,35.13339],[129.04525,35.13333],[129.04534,35.13303],[129.04538,35.13299],[129.04619,35.13215],[129.04473,35.1308],[129.04461,35.13074],[129.04029,35.1331],[129.03914,35.13395],[129.03869,35.13429],[129.03747,35.13529],[129.03469,35.13728],[129.03739,35.13941],[129.04383,35.14014],[129.04699,35.13872]]]]}},{"type":"Feature","properties":{"code":"26170660","name":"범일2동","parent":"26170"},"geometry":{"type":"MultiPolygon","coordinates":[[[[129.06448,35.14139],[129.06609,35.13698],[129.06533,35.12991],[129.0629,35.12974],[129.06008,35.12959],[129.06003,35.12983],[129.05949,35.13424],[129.05641,35.13426],[129.05703,35.136],[129.05712,35.13808],[129.05727,35.14203],[129.05893,35.14149],[129.06448,35.14139]]]]}},{"type":"Feature","properties":{"code":"26170650","name":"범일1동","parent":"26170"},"geometry":{"type":"MultiPolygon","coordinates":[[[[129.05727,35.14203],[129.05712,35.13808],[129.05703,35.136],[129.05178,35.13708],[129.05093,35.13662],[129.0498,35.13649],[129.04871,35.13827],[129.04768,35.13862],[129.04699,35.13872],[129.04383,35.14014],[129.03739,35.13941],[129.03774,35.13962],[129.03803,35.13985],[129.03836,35.14017],[129.03868,35.14055],[129.03881,35.14072],[129.03884,35.14078],[129.03893,35.14094],[129.03898,35.14109],[129.03921,35.1417],[129.03937,35.14258],[129.03932,35.14282],[129.03924,35.14323],[129.03921,35.1433],[129.03915,35.14342],[129.03906,35.14354],[129.03907,35.14362],[129.03913,35.14397],[129.0394,35.14448],[129.04044,35.14562],[129.04089,35.14606],[129.04101,35.14609],[129.04122,35.14613],[129.04162,35.14619],[129.04172,35.14619],[129.04176,35.14619],[129.04215,35.1461],[129.04447,35.14608],[129.04463,35.14607],[129.04522,35.146],[129.0453,35.14598],[129.04631,35.14561],[129.0467,35.14543],[129.05064,35.14346],[129.05085,35.14335],[129.05089,35.14332],[129.05157,35.1426],[129.05162,35.14243],[129.05164,35.14241],[129.05166,35.14236],[129.05171,35.14233],[129.05173,35.1423],[129.05206,35.14219],[129.05253,35.14209],[129.05485,35.14191],[129.05655,35.14207],[129.05672,35.14206],[129.05727,35.14203]]]]}},{"type":"Feature","properties":{"code":"26170680","name":"범일5동","parent":"26170"},"geometry":{"type":"MultiPolygon","coordinates":[[[[129.06533,35.12991],[129.0653,35.12962],[129.06465,35.12894],[129.06487,35.12727],[129.05779,35.11981],[129.05604,35.11799],[129.05274,35.12013],[129.05253,35.12069],[129.05525,35.12293],[129.05533,35.12532],[129.05488,35.1256],[129.05455,35.12581],[129.05271,35.12567],[129.05,35.12353],[129.05085,35.1269],[129.05132,35.13006],[129.05641,35.13426],[129.05949,35.13424],[129.06003,35.12983],[129.06008,35.12959],[129.0629,35.12974],[129.06533,35.12991]]]]}},{"type":"Feature","properties":{"code":"26170645","name":"좌천동","parent":"26170"},"geometry":{"type":"MultiPolygon","coordinates":[[[[129.05703,35.136],[129.05641,35.13426],[129.05132,35.13006],[129.04955,35.13076],[129.04698,35.13145],[129.04619,35.13215],[129.04538,35.13299],[129.04534,35.13303],[129.04525,35.13333],[129.04525,35.13339],[129.04532,35.13411],[129.04549,35.13459],[129.04561,35.13483],[129.04572,35.13502],[129.04618,35.13568],[129.04668,35.13614],[129.04738,35.13697],[129.04744,35.13705],[129.04748,35.13712],[129.04752,35.13725],[129.04754,35.13736],[129.04749,35.13757],[129.04699,35.13872],[129.04768,35.13862],[129.04871,35.13827],[129.0498,35.13649],[129.05093,35.13662],[129.05178,35.13708],[129.05703,35.136]]]]}}]}