{"type":"FeatureCollection","features":[{"type":"Feature","properties":{"code":"48880250","name":"거창읍","parent":"48880"},"geometry":{"type":"MultiPolygon","coordinates":[[[[127.95605,35.72876],[127.95569,35.72407],[127.95566,35.72386],[127.95541,35.72288],[127.95357,35.71704],[127.95354,35.71697],[127.95348,35.71684],[127.95343,35.71679],[127.95261,35.71633],[127.95032,35.71533],[127.9502,35.7153],[127.95003,35.71527],[127.94937,35.71523],[127.94908,35.71527],[127.94888,35.7153],[127.94869,35.7153],[127.94857,35.71528],[127.94846,35.71523],[127.94783,35.71483],[127.94616,35.71367],[127.94062,35.70881],[127.94069,35.70875],[127.94086,35.70855],[127.94108,35.70827],[127.94126,35.70798],[127.94174,35.70689],[127.94185,35.70662],[127.94194,35.70634],[127.94198,35.70606],[127.94184,35.70087],[127.9418,35.70081],[127.94125,35.70014],[127.94113,35.69999],[127.94078,35.69962],[127.9407,35.69955],[127.94059,35.6995],[127.94048,35.69951],[127.9403,35.69953],[127.93945,35.69974],[127.93909,35.69984],[127.93864,35.69982],[127.93822,35.69976],[127.9381,35.69971],[127.93804,35.69966],[127.93797,35.69955],[127.93791,35.69936],[127.93784,35.69906],[127.93743,35.69732],[127.93749,35.69715],[127.93759,35.69704],[127.93785,35.69682],[127.93803,35.69669],[127.93896,35.69616],[127.94038,35.69538],[127.94046,35.69535],[127.9408,35.69179],[127.94083,35.69135],[127.94087,35.69117],[127.94097,35.69088],[127.9411,35.69065],[127.94132,35.69039],[127.94157,35.69014],[127.94168,35.68999],[127.94176,35.68985],[127.94182,35.68971],[127.94186,35.68953],[127.94205,35.6886],[127.94208,35.68818],[127.94188,35.68704],[127.94184,35.68693],[127.94132,35.68636],[127.94126,35.68633],[127.94113,35.68632],[127.94092,35.68625],[127.94083,35.6862],[127.94067,35.68606],[127.9406,35.68595],[127.93961,35.68438],[127.93926,35.68297],[127.93925,35.68284],[127.93926,35.68277],[127.93989,35.68098],[127.94041,35.67945],[127.94047,35.67927],[127.94047,35.67909],[127.94047,35.67858],[127.94047,35.67802],[127.94042,35.67722],[127.94037,35.67679],[127.94027,35.67624],[127.94027,35.67576],[127.94042,35.67299],[127.94044,35.67286],[127.94046,35.67279],[127.93833,35.67257],[127.93757,35.67267],[127.93718,35.67225],[127.93677,35.67114],[127.93579,35.66941],[127.93107,35.66514],[127.92978,35.66404],[127.92968,35.66404],[127.92672,35.66376],[127.92271,35.66336],[127.9206,35.66286],[127.91711,35.66139],[127.91663,35.66113],[127.91598,35.66072],[127.91577,35.66058],[127.91563,35.66035],[127.91559,35.66024],[127.91562,35.66003],[127.91573,35.65955],[127.91572,35.65947],[127.91567,35.65941],[127.91326,35.65719],[127.91322,35.65715],[127.91179,35.65621],[127.90934,35.65527],[127.90557,35.654],[127.9033,35.65253],[127.90292,35.65233],[127.90238,35.65217],[127.90025,35.65177],[127.89988,35.65173],[127.89959,35.65179],[127.89946,35.6519],[127.89917,35.65215],[127.89899,35.6523],[127.89691,35.65263],[127.89396,35.65275],[127.89392,35.65274],[127.89389,35.65268],[127.89387,35.65262],[127.89349,35.6513],[127.8925,35.64542],[127.89109,35.64363],[127.89095,35.64359],[127.89087,35.64352],[127.8895,35.64195],[127.88943,35.64185],[127.88941,35.64173],[127.88941,35.64157],[127.88945,35.64137],[127.88984,35.63983],[127.89027,35.6383],[127.89026,35.63825],[127.89003,35.63769],[127.88999,35.63765],[127.88992,35.63761],[127.88986,35.63757],[127.88956,35.6374],[127.88917,35.6372],[127.88901,35.63714],[127.88896,35.63712],[127.88832,35.63716],[127.88351,35.63765],[127.87818,35.63832],[127.87796,35.63838],[127.87787,35.63843],[127.8775,35.63886],[127.87733,35.63917],[127.87723,35.63942],[127.8754,35.64365],[127.87475,35.64836],[127.87428,35.65187],[127.87447,35.65204],[127.87488,35.65246],[127.87492,35.65256],[127.8765,35.65829],[127.87614,35.65869],[127.87535,35.65978],[127.8753,35.65985],[127.87501,35.66109],[127.87499,35.66122],[127.87499,35.6614],[127.87502,35.66151],[127.87576,35.66386],[127.87677,35.6664],[127.87704,35.66838],[127.87687,35.66935],[127.87724,35.66942],[127.8774,35.66945],[127.8776,35.66958],[127.87784,35.66978],[127.87811,35.67002],[127.87888,35.67072],[127.87908,35.67126],[127.87948,35.67271],[127.87967,35.67475],[127.87899,35.67746],[127.87902,35.67977],[127.87905,35.6799],[127.87979,35.68153],[127.87984,35.6816],[127.87997,35.6817],[127.88007,35.68175],[127.88021,35.68179],[127.88072,35.68187],[127.88084,35.68187],[127.88121,35.68185],[127.88136,35.68188],[127.88148,35.68193],[127.88161,35.68204],[127.88175,35.6822],[127.88294,35.68395],[127.88298,35.68405],[127.88302,35.68425],[127.88308,35.68474],[127.88308,35.68484],[127.88305,35.68554],[127.88303,35.68564],[127.88264,35.68689],[127.88262,35.68694],[127.88256,35.68699],[127.88239,35.68709],[127.88194,35.68731],[127.88167,35.68749],[127.88118,35.68792],[127.88106,35.68804],[127.88084,35.68832],[127.88071,35.68854],[127.88066,35.68867],[127.88042,35.69036],[127.88039,35.69058],[127.88037,35.69079],[127.88038,35.69096],[127.88042,35.69112],[127.8805,35.6913],[127.88057,35.69142],[127.88069,35.69158],[127.88075,35.69169],[127.88075,35.69175],[127.88073,35.69178],[127.88069,35.69181],[127.88062,35.69182],[127.88047,35.69179],[127.88016,35.6917],[127.87988,35.69156],[127.87968,35.69143],[127.8794,35.69119],[127.87928,35.69103],[127.87918,35.69083],[127.87909,35.69063],[127.87902,35.69044],[127.87887,35.68984],[127.87874,35.68932],[127.87862,35.68877],[127.87842,35.68775],[127.87675,35.68676],[127.87601,35.68879],[127.87501,35.69517],[127.875,35.69532],[127.875,35.69545],[127.87512,35.69614],[127.87515,35.69627],[127.87522,35.69637],[127.87716,35.69878],[127.8773,35.69893],[127.87739,35.69898],[127.87754,35.69904],[127.87765,35.69908],[127.87784,35.69915],[127.87811,35.69932],[127.87845,35.69954],[127.87908,35.70003],[127.87919,35.70013],[127.8793,35.70026],[127.87934,35.70035],[127.87938,35.70052],[127.87975,35.70221],[127.87993,35.7041],[127.87993,35.70434],[127.87992,35.70474],[127.87984,35.70593],[127.8798,35.70623],[127.87962,35.70672],[127.87949,35.70685],[127.87847,35.70784],[127.87829,35.70796],[127.87762,35.70844],[127.8775,35.70942],[127.87758,35.71505],[127.8776,35.71527],[127.87826,35.71614],[127.87839,35.71621],[127.87868,35.71629],[127.87918,35.71649],[127.87951,35.71672],[127.8797,35.71688],[127.87988,35.71704],[127.87991,35.71716],[127.8799,35.71744],[127.87979,35.71979],[127.87967,35.72355],[127.87972,35.7247],[127.87983,35.72485],[127.88031,35.7265],[127.88103,35.72943],[127.88107,35.72959],[127.88118,35.73094],[127.88115,35.73108],[127.88003,35.73322],[127.88098,35.734],[127.88116,35.73414],[127.88133,35.73428],[127.88175,35.73458],[127.8822,35.73489],[127.88276,35.73526],[127.88296,35.73538],[127.88366,35.73602],[127.88548,35.73811],[127.88556,35.73833],[127.88559,35.73859],[127.88559,35.73871],[127.8855,35.73903],[127.88548,35.7392],[127.8855,35.73939],[127.88558,35.73949],[127.88566,35.73955],[127.89511,35.73977],[127.89628,35.73968],[127.89663,35.73956],[127.90393,35.73696],[127.90722,35.73498],[127.90734,35.7349],[127.9074,35.7348],[127.9078,35.73398],[127.90802,35.73336],[127.90987,35.73229],[127.91094,35.73176],[127.91099,35.73179],[127.91101,35.73181],[127.91104,35.73183],[127.91122,35.73203],[127.9117,35.7326],[127.91175,35.73269],[127.91345,35.735],[127.9169,35.73737],[127.91935,35.73895],[127.92198,35.73979],[127.9254,35.74181],[127.92558,35.742],[127.92568,35.74209],[127.92579,35.74219],[127.92605,35.74236],[127.92667,35.74271],[127.927,35.74286],[127.92715,35.74293],[127.92732,35.74301],[127.92745,35.74306],[127.92766,35.74314],[127.92801,35.74324],[127.93043,35.74381],[127.93828,35.74641],[127.93977,35.74649],[127.94021,35.74582],[127.94092,35.74416],[127.94152,35.74272],[127.94272,35.73946],[127.94281,35.73775],[127.94278,35.73735],[127.9428,35.73715],[127.94282,35.73694],[127.94285,35.73672],[127.94336,35.73494],[127.94586,35.73111],[127.94589,35.73108],[127.94619,35.73111],[127.94685,35.73114],[127.94718,35.73115],[127.94783,35.73113],[127.94836,35.73102],[127.95445,35.72977],[127.95473,35.72968],[127.95514,35.72954],[127.95523,35.7295],[127.95535,35.72945],[127.95561,35.72922],[127.95592,35.72895],[127.95605,35.72879],[127.95605,35.72876]]]]}},{"type":"Feature","properties":{"code":"48880310","name":"주상면","parent":"48880"},"geometry":{"type":"MultiPolygon","coordinates":[[[[127.95845,35.80032],[127.95816,35.79993],[127.95788,35.79818],[127.95717,35.79336],[127.95717,35.79187],[127.95752,35.79052],[127.95898,35.78669],[127.95924,35.78112],[127.96083,35.77831],[127.96193,35.77753],[127.96401,35.77499],[127.96469,35.77378],[127.96446,35.77363],[127.9639,35.77325],[127.96299,35.77073],[127.96342,35.76863],[127.96337,35.76822],[127.96305,35.76639],[127.96236,35.76503],[127.9617,35.76396],[127.96132,35.76336],[127.96144,35.76298],[127.96186,35.76163],[127.96382,35.75807],[127.96453,35.75762],[127.96651,35.75631],[127.96956,35.75349],[127.9699,35.75302],[127.97026,35.75251],[127.97032,35.75236],[127.97036,35.7522],[127.97049,35.75164],[127.97048,35.75154],[127.97025,35.75088],[127.97021,35.7508],[127.97006,35.75066],[127.96988,35.75053],[127.9688,35.74995],[127.96872,35.74992],[127.96726,35.74878],[127.96522,35.74581],[127.96522,35.74565],[127.96525,35.744],[127.96518,35.74161],[127.96442,35.7414],[127.9643,35.74137],[127.96418,35.7413],[127.96409,35.74121],[127.96301,35.7398],[127.96215,35.73801],[127.96215,35.73795],[127.96239,35.73755],[127.96261,35.73735],[127.96283,35.73718],[127.96296,35.73708],[127.96306,35.73694],[127.96352,35.73555],[127.9635,35.73539],[127.96332,35.73454],[127.96327,35.73445],[127.96228,35.73288],[127.96088,35.73242],[127.95935,35.73146],[127.95711,35.72953],[127.95605,35.72876],[127.95605,35.72879],[127.95592,35.72895],[127.95561,35.72922],[127.95535,35.72945],[127.95523,35.7295],[127.95514,35.72954],[127.95473,35.72968],[127.95445,35.72977],[127.94836,35.73102],[127.94783,35.73113],[127.94718,35.73115],[127.94685,35.73114],[127.94619,35.73111],[127.94589,35.73108],[127.94586,35.73111],[127.94336,35.73494],[127.94285,35.73672],[127.94282,35.73694],[127.9428,35.73715],[127.94278,35.73735],[127.94281,35.73775],[127.94272,35.73946],[127.94152,35.74272],[127.94092,35.74416],[127.94021,35.74582],[127.93977,35.74649],[127.93828,35.74641],[127.93043,35.74381],[127.92801,35.74324],[127.92766,35.74314],[127.92745,35.74306],[127.92732,35.74301],[127.92715,35.74293],[127.927,35.74286],[127.92667,35.74271],[127.92605,35.74236],[127.92579,35.74219],[127.92568,35.74209],[127.92558,35.742],[127.9254,35.74181],[127.92198,35.73979],[127.91935,35.73895],[127.9169,35.73737],[127.91345,35.735],[127.91175,35.73269],[127.9117,35.7326],[127.91122,35.73203],[127.91104,35.73183],[127.91101,35.73181],[127.91099,35.73179],[127.91094,35.73176],[127.90987,35.73229],[127.90802,35.73336],[127.9078,35.73398],[127.9074,35.7348],[127.90734,35.7349],[127.90722,35.73498],[127.90393,35.73696],[127.89663,35.73956],[127.89628,35.73968],[127.89511,35.73977],[127.88566,35.73955],[127.88558,35.73949],[127.8855,35.73939],[127.88548,35.7392],[127.8855,35.73903],[127.88559,35.73871],[127.88559,35.73859],[127.88556,35.73833],[127.88548,35.73811],[127.88366,35.73602],[127.88296,35.73538],[127.88276,35.73526],[127.8822,35.73489],[127.88175,35.73458],[127.88133,35.73428],[127.88116,35.73414],[127.88098,35.734],[127.88003,35.73322],[127.878,35.73617],[127.87789,35.73642],[127.87777,35.73679],[127.87704,35.73974],[127.877,35.73992],[127.87694,35.74072],[127.87695,35.74077],[127.87695,35.74084],[127.87734,35.7419],[127.87742,35.74223],[127.87761,35.74313],[127.87768,35.74582],[127.87767,35.74618],[127.87694,35.7512],[127.87569,35.75273],[127.8755,35.75283],[127.87535,35.75292],[127.8752,35.75301],[127.87443,35.75409],[127.87353,35.75535],[127.87175,35.75842],[127.87317,35.76365],[127.87411,35.766],[127.87423,35.76705],[127.87404,35.76782],[127.87386,35.7682],[127.87356,35.7688],[127.87328,35.76927],[127.8732,35.76941],[127.87311,35.77101],[127.87406,35.77291],[127.87421,35.77313],[127.87544,35.77432],[127.87728,35.77557],[127.87764,35.77566],[127.87806,35.77592],[127.8782,35.77623],[127.87735,35.77812],[127.87574,35.77955],[127.87515,35.77973],[127.87459,35.77991],[127.87445,35.78003],[127.87414,35.78032],[127.87369,35.78105],[127.87369,35.78165],[127.87384,35.78306],[127.8738,35.78362],[127.87367,35.78476],[127.87365,35.78486],[127.87276,35.78568],[127.86475,35.78952],[127.86172,35.79097],[127.85947,35.79201],[127.85695,35.79317],[127.85682,35.7938],[127.85672,35.79491],[127.85676,35.79555],[127.85681,35.7961],[127.85708,35.79705],[127.85956,35.79726],[127.86132,35.7977],[127.86188,35.79795],[127.86227,35.79821],[127.86285,35.79858],[127.86309,35.79872],[127.86767,35.80101],[127.87307,35.80341],[127.87537,35.80518],[127.87584,35.80554],[127.87767,35.80687],[127.8783,35.80728],[127.87938,35.8078],[127.88475,35.81017],[127.88678,35.81089],[127.88828,35.81123],[127.89092,35.81154],[127.8918,35.81156],[127.89174,35.8101],[127.89201,35.8094],[127.89221,35.80888],[127.89288,35.80717],[127.89308,35.8064],[127.89331,35.80337],[127.89338,35.80069],[127.89338,35.79795],[127.89384,35.79547],[127.89391,35.79511],[127.8941,35.79441],[127.89445,35.79395],[127.89447,35.79392],[127.89547,35.79297],[127.89703,35.79199],[127.89762,35.79158],[127.9002,35.78861],[127.90029,35.78776],[127.90033,35.78695],[127.90064,35.78596],[127.9028,35.78273],[127.90295,35.78252],[127.90309,35.78234],[127.90353,35.7818],[127.90421,35.78131],[127.90679,35.78256],[127.90919,35.78355],[127.9101,35.78375],[127.91258,35.78387],[127.91306,35.78366],[127.91384,35.78332],[127.91662,35.78319],[127.91919,35.78342],[127.92033,35.78373],[127.92062,35.78398],[127.9221,35.78544],[127.92268,35.78613],[127.92292,35.7864],[127.92625,35.78845],[127.9267,35.78852],[127.92702,35.78843],[127.92743,35.78816],[127.92779,35.78793],[127.93209,35.78274],[127.93311,35.78067],[127.93391,35.77977],[127.93459,35.77903],[127.935,35.77875],[127.93542,35.77846],[127.93625,35.77829],[127.93964,35.78188],[127.9416,35.78321],[127.94233,35.78408],[127.94346,35.7858],[127.94371,35.78627],[127.94391,35.78729],[127.94398,35.78782],[127.94386,35.78893],[127.94344,35.78991],[127.94394,35.79101],[127.94425,35.79151],[127.94569,35.79374],[127.94853,35.79578],[127.94952,35.79649],[127.95059,35.79667],[127.95097,35.79672],[127.9513,35.79675],[127.95235,35.79713],[127.95404,35.798],[127.95455,35.79843],[127.95491,35.79874],[127.9561,35.79931],[127.95845,35.80032]]]]}},{"type":"Feature","properties":{"code":"48880320","name":"웅양면","parent":"48880"},"geometry":{"type":"MultiPolygon","coordinates":[[[[127.97115,35.85117],[127.96991,35.84979],[127.9691,35.84877],[127.9687,35.84812],[127.96738,35.84541],[127.96285,35.84008],[127.96235,35.83955],[127.9611,35.83832],[127.96077,35.83816],[127.95974,35.83798],[127.95874,35.83776],[127.95841,35.8376],[127.95826,35.83704],[127.95863,35.83591],[127.95876,35.83537],[127.95866,35.83358],[127.95854,35.83193],[127.95798,35.83051],[127.95704,35.82832],[127.95687,35.82796],[127.95602,35.82688],[127.95588,35.8263],[127.95624,35.82525],[127.95627,35.82522],[127.95632,35.82516],[127.95694,35.82449],[127.95902,35.82351],[127.95985,35.8229],[127.96004,35.82264],[127.96003,35.82226],[127.95976,35.82165],[127.95974,35.8216],[127.95969,35.82149],[127.95972,35.82096],[127.96037,35.82011],[127.96193,35.8188],[127.96284,35.8175],[127.96346,35.81622],[127.96363,35.81529],[127.96369,35.81452],[127.96372,35.81388],[127.96326,35.81195],[127.96317,35.81159],[127.96191,35.80925],[127.96018,35.80501],[127.95931,35.80239],[127.95845,35.80032],[127.9561,35.79931],[127.95491,35.79874],[127.95455,35.79843],[127.95404,35.798],[127.95235,35.79713],[127.9513,35.79675],[127.95097,35.79672],[127.95059,35.79667],[127.94952,35.79649],[127.94853,35.79578],[127.94569,35.79374],[127.94425,35.79151],[127.94394,35.79101],[127.94344,35.78991],[127.94386,35.78893],[127.94398,35.78782],[127.94391,35.78729],[127.94371,35.78627],[127.94346,35.7858],[127.94233,35.78408],[127.9416,35.78321],[127.93964,35.78188],[127.93625,35.77829],[127.93542,35.77846],[127.935,35.77875],[127.93459,35.77903],[127.93391,35.77977],[127.93311,35.78067],[127.93209,35.78274],[127.92779,35.78793],[127.92743,35.78816],[127.92702,35.78843],[127.9267,35.78852],[127.92625,35.78845],[127.92292,35.7864],[127.92268,35.78613],[127.9221,35.78544],[127.92062,35.78398],[127.92033,35.78373],[127.91919,35.78342],[127.91662,35.78319],[127.91384,35.78332],[127.91306,35.78366],[127.91258,35.78387],[127.9101,35.78375],[127.90919,35.78355],[127.90679,35.78256],[127.90421,35.78131],[127.90353,35.7818],[127.90309,35.78234],[127.90295,35.78252],[127.9028,35.78273],[127.90064,35.78596],[127.90033,35.78695],[127.90029,35.78776],[127.9002,35.78861],[127.89762,35.79158],[127.89703,35.79199],[127.89547,35.79297],[127.89447,35.79392],[127.89445,35.79395],[127.8941,35.79441],[127.89391,35.79511],[127.89384,35.79547],[127.89338,35.79795],[127.89338,35.80069],[127.89331,35.80337],[127.89308,35.8064],[127.89288,35.80717],[127.89221,35.80888],[127.89201,35.8094],[127.89174,35.8101],[127.8918,35.81156],[127.89155,35.81229],[127.89203,35.81543],[127.89223,35.8166],[127.89262,35.81789],[127.8929,35.81818],[127.89323,35.81825],[127.89331,35.81826],[127.8934,35.81828],[127.89355,35.81827],[127.89408,35.81826],[127.89464,35.81855],[127.89873,35.82277],[127.89975,35.82395],[127.90013,35.82448],[127.90025,35.82476],[127.90027,35.82481],[127.90014,35.82502],[127.89971,35.82539],[127.8993,35.82574],[127.89918,35.82591],[127.89916,35.82634],[127.90005,35.82894],[127.90088,35.83158],[127.90084,35.83201],[127.90007,35.83434],[127.89826,35.83611],[127.89755,35.83635],[127.89667,35.83664],[127.89585,35.83696],[127.89569,35.83714],[127.89556,35.8373],[127.89551,35.83762],[127.89475,35.84366],[127.89521,35.84569],[127.89503,35.84869],[127.89475,35.8494],[127.89416,35.85087],[127.8938,35.85144],[127.89349,35.85184],[127.89336,35.85201],[127.89323,35.8525],[127.89304,35.85326],[127.89276,35.85445],[127.89298,35.8561],[127.89314,35.8572],[127.89338,35.85823],[127.89379,35.86],[127.89418,35.86074],[127.89499,35.8613],[127.89576,35.86289],[127.89585,35.86433],[127.8959,35.86611],[127.89589,35.86745],[127.89589,35.86749],[127.89518,35.87064],[127.89414,35.87122],[127.89287,35.87166],[127.89199,35.87186],[127.89029,35.87305],[127.89011,35.87358],[127.88991,35.87617],[127.89185,35.88508],[127.8933,35.88659],[127.89533,35.88721],[127.90226,35.88871],[127.91038,35.88977],[127.9134,35.89046],[127.91948,35.8928],[127.91999,35.89284],[127.92025,35.89286],[127.91992,35.89225],[127.91929,35.89182],[127.91871,35.89152],[127.91856,35.89125],[127.91887,35.88959],[127.91915,35.88936],[127.91946,35.88926],[127.91976,35.88914],[127.91998,35.88893],[127.92139,35.88718],[127.92178,35.88612],[127.92225,35.88471],[127.92294,35.8828],[127.92317,35.88236],[127.92328,35.88219],[127.92331,35.88215],[127.92337,35.88207],[127.9258,35.88149],[127.92747,35.88134],[127.92812,35.88114],[127.92883,35.8805],[127.9305,35.87816],[127.93044,35.87781],[127.93026,35.87773],[127.92997,35.87759],[127.92937,35.87744],[127.92951,35.87144],[127.93061,35.86876],[127.93089,35.86865],[127.93121,35.86845],[127.93131,35.86839],[127.93201,35.86755],[127.9325,35.86673],[127.93254,35.86662],[127.93257,35.86654],[127.93285,35.86546],[127.93317,35.8642],[127.93313,35.86333],[127.93305,35.86292],[127.93215,35.85956],[127.93214,35.85953],[127.93193,35.85921],[127.93159,35.85897],[127.9298,35.85797],[127.92874,35.8578],[127.92831,35.85794],[127.92742,35.85832],[127.92622,35.85711],[127.92609,35.85689],[127.92605,35.85682],[127.92584,35.8564],[127.92585,35.85637],[127.92598,35.85584],[127.92608,35.85557],[127.92615,35.85539],[127.92652,35.85543],[127.92797,35.85575],[127.92825,35.85595],[127.92842,35.85606],[127.92889,35.85629],[127.92952,35.85639],[127.93056,35.85626],[127.93235,35.85579],[127.93281,35.85562],[127.93319,35.85544],[127.93339,35.85534],[127.93442,35.85488],[127.93571,35.85442],[127.94234,35.85431],[127.94318,35.85477],[127.9447,35.85566],[127.94493,35.85613],[127.94507,35.85646],[127.94523,35.85682],[127.94553,35.85717],[127.95083,35.86125],[127.95115,35.86122],[127.95228,35.86074],[127.95326,35.86048],[127.95763,35.86004],[127.95851,35.86017],[127.95921,35.86013],[127.95959,35.85986],[127.95962,35.85984],[127.95995,35.85958],[127.96095,35.8577],[127.96098,35.85746],[127.961,35.85732],[127.96346,35.85499],[127.96548,35.85434],[127.96651,35.85387],[127.9671,35.8536],[127.96732,35.85347],[127.96775,35.8532],[127.96828,35.85283],[127.96855,35.85259],[127.96892,35.85224],[127.96914,35.85205],[127.97047,35.85144],[127.97086,35.85128],[127.97115,35.85117]]]]}},{"type":"Feature","properties":{"code":"48880330","name":"고제면","parent":"48880"},"geometry":{"type":"MultiPolygon","coordinates":[[[[127.8933,35.88659],[127.89185,35.88508],[127.88991,35.87617],[127.89011,35.87358],[127.89029,35.87305],[127.89199,35.87186],[127.89287,35.87166],[127.89414,35.87122],[127.89518,35.87064],[127.89589,35.86749],[127.89589,35.86745],[127.8959,35.86611],[127.89585,35.86433],[127.89576,35.86289],[127.89499,35.8613],[127.89418,35.86074],[127.89379,35.86],[127.89338,35.85823],[127.89314,35.8572],[127.89298,35.8561],[127.89276,35.85445],[127.89304,35.85326],[127.89323,35.8525],[127.89336,35.85201],[127.89349,35.85184],[127.8938,35.85144],[127.89416,35.85087],[127.89475,35.8494],[127.89503,35.84869],[127.89521,35.84569],[127.89475,35.84366],[127.89551,35.83762],[127.89556,35.8373],[127.89569,35.83714],[127.89585,35.83696],[127.89667,35.83664],[127.89755,35.83635],[127.89826,35.83611],[127.90007,35.83434],[127.90084,35.83201],[127.90088,35.83158],[127.90005,35.82894],[127.89916,35.82634],[127.89918,35.82591],[127.8993,35.82574],[127.89971,35.82539],[127.90014,35.82502],[127.90027,35.82481],[127.90025,35.82476],[127.90013,35.82448],[127.89975,35.82395],[127.89873,35.82277],[127.89464,35.81855],[127.89408,35.81826],[127.89355,35.81827],[127.8934,35.81828],[127.89331,35.81826],[127.89323,35.81825],[127.8929,35.81818],[127.89262,35.81789],[127.89223,35.8166],[127.89203,35.81543],[127.89155,35.81229],[127.8918,35.81156],[127.89092,35.81154],[127.88828,35.81123],[127.88678,35.81089],[127.88475,35.81017],[127.87938,35.8078],[127.8783,35.80728],[127.87767,35.80687],[127.87584,35.80554],[127.87537,35.80518],[127.87307,35.80341],[127.86767,35.80101],[127.86309,35.79872],[127.86285,35.79858],[127.86227,35.79821],[127.86188,35.79795],[127.86132,35.7977],[127.85956,35.79726],[127.85708,35.79705],[127.85622,35.7979],[127.8556,35.79865],[127.85532,35.79934],[127.85518,35.79969],[127.85487,35.79991],[127.85325,35.80066],[127.85293,35.8007],[127.84959,35.80077],[127.84918,35.80083],[127.84881,35.80084],[127.84844,35.80085],[127.84731,35.8006],[127.84639,35.80038],[127.84526,35.79981],[127.84425,35.79922],[127.84149,35.79817],[127.8411,35.79808],[127.84007,35.79792],[127.83963,35.79786],[127.83912,35.79779],[127.83781,35.8003],[127.83668,35.80242],[127.83523,35.80383],[127.83502,35.80405],[127.83494,35.80418],[127.83486,35.80432],[127.83472,35.80469],[127.83461,35.80598],[127.83461,35.80616],[127.83594,35.81208],[127.83687,35.81533],[127.83707,35.81597],[127.83704,35.81603],[127.83688,35.81628],[127.83681,35.81635],[127.836,35.81677],[127.83465,35.81769],[127.83372,35.81847],[127.8334,35.82069],[127.83338,35.82125],[127.8333,35.82195],[127.8331,35.82236],[127.83288,35.82255],[127.83265,35.82274],[127.83223,35.82302],[127.83168,35.82334],[127.83132,35.82355],[127.83103,35.82374],[127.83087,35.82403],[127.8308,35.82422],[127.83081,35.82437],[127.8325,35.83],[127.83297,35.83119],[127.83347,35.83184],[127.83409,35.83238],[127.83451,35.83284],[127.83458,35.83327],[127.83457,35.83362],[127.83446,35.834],[127.83418,35.83426],[127.83369,35.8346],[127.83319,35.8349],[127.83267,35.83522],[127.83222,35.83553],[127.83208,35.83568],[127.83196,35.8358],[127.83141,35.83644],[127.83116,35.83688],[127.83101,35.83727],[127.83096,35.83779],[127.8304,35.83982],[127.83024,35.84024],[127.82996,35.84056],[127.82797,35.84194],[127.82773,35.84199],[127.8275,35.84199],[127.82726,35.84191],[127.82689,35.84173],[127.82669,35.84161],[127.82649,35.84149],[127.82631,35.84139],[127.82616,35.84131],[127.82583,35.84121],[127.82545,35.8411],[127.8251,35.84104],[127.8248,35.84098],[127.82412,35.84088],[127.82341,35.8409],[127.82303,35.84092],[127.82273,35.84114],[127.8149,35.84914],[127.81458,35.84976],[127.81456,35.85024],[127.81453,35.85069],[127.81273,35.85283],[127.81342,35.8557],[127.81369,35.8562],[127.81401,35.85672],[127.81687,35.85846],[127.81751,35.85882],[127.81933,35.86142],[127.81931,35.86209],[127.82012,35.86361],[127.82071,35.86462],[127.82117,35.8654],[127.82181,35.86613],[127.82243,35.86667],[127.82316,35.86712],[127.82533,35.86843],[127.8255,35.8685],[127.82613,35.86875],[127.82883,35.86943],[127.83088,35.86974],[127.83165,35.86959],[127.83217,35.86946],[127.83247,35.86938],[127.83266,35.86919],[127.83334,35.86849],[127.83374,35.86822],[127.83456,35.86783],[127.84094,35.86687],[127.84137,35.867],[127.84156,35.86708],[127.84162,35.8671],[127.84169,35.86713],[127.84358,35.86907],[127.84365,35.86916],[127.84436,35.87006],[127.84471,35.87084],[127.84477,35.87104],[127.84483,35.87125],[127.84496,35.87362],[127.84489,35.87427],[127.84482,35.87488],[127.84475,35.87531],[127.84467,35.87575],[127.84513,35.87633],[127.84637,35.87758],[127.84666,35.87786],[127.84681,35.87801],[127.8469,35.87805],[127.84713,35.87815],[127.84749,35.87832],[127.8484,35.87861],[127.84959,35.87875],[127.85005,35.87898],[127.85241,35.88042],[127.8528,35.88073],[127.85286,35.88088],[127.85299,35.88122],[127.85299,35.88167],[127.85287,35.88346],[127.85267,35.88383],[127.8522,35.88433],[127.85111,35.88561],[127.85078,35.88848],[127.85075,35.89005],[127.85373,35.89218],[127.85709,35.89499],[127.85827,35.89702],[127.85872,35.89837],[127.85885,35.89984],[127.85827,35.90103],[127.85823,35.90104],[127.85814,35.90189],[127.85836,35.9042],[127.85842,35.90434],[127.85954,35.90649],[127.85988,35.90665],[127.86277,35.90678],[127.86324,35.90677],[127.86392,35.90666],[127.86437,35.90647],[127.86591,35.90568],[127.86615,35.90554],[127.86667,35.90473],[127.86696,35.90436],[127.86714,35.90417],[127.8672,35.90411],[127.86728,35.90408],[127.86738,35.90407],[127.86756,35.90408],[127.86771,35.90409],[127.86995,35.90442],[127.87019,35.90447],[127.87093,35.90464],[127.87665,35.90715],[127.87706,35.90737],[127.87723,35.9075],[127.87751,35.90817],[127.87792,35.9089],[127.8784,35.90955],[127.8824,35.91308],[127.883,35.91336],[127.88367,35.91367],[127.88556,35.91426],[127.88567,35.91429],[127.88687,35.91448],[127.88761,35.91458],[127.88876,35.91082],[127.88892,35.91007],[127.88893,35.90981],[127.88878,35.90949],[127.88725,35.90715],[127.88709,35.90702],[127.88687,35.90685],[127.88659,35.90667],[127.88637,35.90653],[127.8848,35.90552],[127.88459,35.90515],[127.88436,35.90467],[127.88306,35.89929],[127.88486,35.89302],[127.88548,35.89303],[127.886,35.89304],[127.8864,35.89303],[127.88849,35.89202],[127.89039,35.89069],[127.89056,35.89051],[127.89081,35.89025],[127.89279,35.88735],[127.8933,35.88659]]]]}},{"type":"Feature","properties":{"code":"48880340","name":"북상면","parent":"48880"},"geometry":{"type":"MultiPolygon","coordinates":[[[[127.81273,35.85283],[127.81453,35.85069],[127.81456,35.85024],[127.81458,35.84976],[127.8149,35.84914],[127.82273,35.84114],[127.82303,35.84092],[127.82341,35.8409],[127.82412,35.84088],[127.8248,35.84098],[127.8251,35.84104],[127.82545,35.8411],[127.82583,35.84121],[127.82616,35.84131],[127.82631,35.84139],[127.82649,35.84149],[127.82669,35.84161],[127.82689,35.84173],[127.82726,35.84191],[127.8275,35.84199],[127.82773,35.84199],[127.82797,35.84194],[127.82996,35.84056],[127.83024,35.84024],[127.8304,35.83982],[127.83096,35.83779],[127.83101,35.83727],[127.83116,35.83688],[127.83141,35.83644],[127.83196,35.8358],[127.83208,35.83568],[127.83222,35.83553],[127.83267,35.83522],[127.83319,35.8349],[127.83369,35.8346],[127.83418,35.83426],[127.83446,35.834],[127.83457,35.83362],[127.83458,35.83327],[127.83451,35.83284],[127.83409,35.83238],[127.83347,35.83184],[127.83297,35.83119],[127.8325,35.83],[127.83081,35.82437],[127.8308,35.82422],[127.83087,35.82403],[127.83103,35.82374],[127.83132,35.82355],[127.83168,35.82334],[127.83223,35.82302],[127.83265,35.82274],[127.83288,35.82255],[127.8331,35.82236],[127.8333,35.82195],[127.83338,35.82125],[127.8334,35.82069],[127.83372,35.81847],[127.83465,35.81769],[127.836,35.81677],[127.83681,35.81635],[127.83688,35.81628],[127.83704,35.81603],[127.83707,35.81597],[127.83687,35.81533],[127.83594,35.81208],[127.83461,35.80616],[127.83461,35.80598],[127.83472,35.80469],[127.83486,35.80432],[127.83494,35.80418],[127.83502,35.80405],[127.83523,35.80383],[127.83668,35.80242],[127.83781,35.8003],[127.83912,35.79779],[127.83914,35.79751],[127.83902,35.7972],[127.83798,35.79483],[127.83772,35.79455],[127.83727,35.79428],[127.83617,35.79363],[127.83513,35.79301],[127.83465,35.79253],[127.83343,35.79078],[127.83318,35.7904],[127.83315,35.79005],[127.83334,35.78964],[127.83378,35.78923],[127.83409,35.78886],[127.83429,35.78857],[127.83469,35.78659],[127.83469,35.78621],[127.83428,35.78117],[127.83388,35.78015],[127.8337,35.7797],[127.83198,35.7778],[127.8317,35.77751],[127.8313,35.7774],[127.8306,35.77733],[127.83009,35.77734],[127.82898,35.77734],[127.82789,35.77743],[127.82699,35.77743],[127.82655,35.77718],[127.82622,35.77689],[127.82285,35.7716],[127.82269,35.77088],[127.82274,35.77045],[127.82279,35.77008],[127.82318,35.76893],[127.82328,35.76868],[127.82343,35.76854],[127.82372,35.76847],[127.82396,35.76829],[127.82494,35.76717],[127.82523,35.76673],[127.82557,35.76621],[127.82557,35.76605],[127.82554,35.76579],[127.82448,35.76251],[127.82331,35.76083],[127.82288,35.7605],[127.82255,35.76028],[127.8222,35.76021],[127.82193,35.7602],[127.82156,35.76029],[127.8179,35.7612],[127.81714,35.76145],[127.81421,35.76309],[127.80658,35.76415],[127.80504,35.7642],[127.80461,35.76412],[127.80424,35.76397],[127.80399,35.76379],[127.80294,35.76267],[127.80281,35.76251],[127.80269,35.76221],[127.80263,35.76166],[127.80226,35.76036],[127.80213,35.76001],[127.79958,35.75774],[127.7983,35.75697],[127.79779,35.75681],[127.79756,35.75676],[127.79708,35.75667],[127.79685,35.75666],[127.79589,35.75675],[127.7953,35.75668],[127.79485,35.7566],[127.79151,35.75533],[127.79111,35.75506],[127.78965,35.75215],[127.78935,35.75104],[127.78927,35.75017],[127.78931,35.75],[127.78939,35.74962],[127.7894,35.74945],[127.78941,35.74936],[127.78938,35.74931],[127.78929,35.74926],[127.78874,35.74898],[127.78857,35.74889],[127.78846,35.74886],[127.78456,35.74871],[127.7794,35.74849],[127.7793,35.74846],[127.77907,35.74833],[127.7789,35.7482],[127.7788,35.74812],[127.77876,35.74805],[127.77875,35.748],[127.77874,35.74788],[127.77875,35.7478],[127.77873,35.74763],[127.77863,35.74707],[127.77859,35.7469],[127.77851,35.74676],[127.77842,35.74662],[127.77823,35.74635],[127.77809,35.74617],[127.77789,35.74596],[127.77775,35.74584],[127.77167,35.74132],[127.77071,35.74086],[127.77059,35.74081],[127.76757,35.73756],[127.76752,35.73734],[127.76742,35.73708],[127.76629,35.73474],[127.76618,35.73456],[127.76614,35.73451],[127.76604,35.73443],[127.76397,35.7329],[127.76206,35.7318],[127.76114,35.73081],[127.75906,35.7312],[127.75752,35.7316],[127.75727,35.73166],[127.75714,35.73172],[127.75707,35.73176],[127.75694,35.73187],[127.75688,35.73193],[127.75679,35.73209],[127.75662,35.73243],[127.75655,35.73258],[127.75648,35.73265],[127.7563,35.73279],[127.75527,35.73349],[127.75517,35.73353],[127.75506,35.73354],[127.75341,35.73293],[127.74795,35.73089],[127.74789,35.73079],[127.74548,35.72801],[127.74369,35.72633],[127.74184,35.72463],[127.74158,35.72442],[127.74147,35.72434],[127.74129,35.7243],[127.74107,35.72427],[127.74076,35.72426],[127.74049,35.72426],[127.73981,35.72432],[127.73957,35.72437],[127.73946,35.72437],[127.73839,35.72431],[127.73819,35.72427],[127.73798,35.72421],[127.73783,35.72415],[127.73769,35.72407],[127.73762,35.72401],[127.73644,35.72262],[127.73641,35.72257],[127.73633,35.72217],[127.73614,35.7214],[127.73611,35.72133],[127.73468,35.71961],[127.73411,35.71899],[127.73321,35.71935],[127.72941,35.72089],[127.72929,35.72094],[127.7292,35.721],[127.72294,35.72514],[127.72195,35.72627],[127.72191,35.72643],[127.72187,35.72656],[127.72179,35.72671],[127.72167,35.72691],[127.72154,35.72711],[127.72144,35.72727],[127.72133,35.72739],[127.72119,35.7275],[127.72108,35.72758],[127.71969,35.72848],[127.71961,35.72851],[127.71883,35.72868],[127.71816,35.72878],[127.71756,35.72886],[127.71751,35.72888],[127.71695,35.72918],[127.71648,35.72954],[127.71636,35.72965],[127.7151,35.73096],[127.71491,35.73116],[127.71406,35.7325],[127.71274,35.73476],[127.71274,35.73491],[127.71274,35.73508],[127.71285,35.73715],[127.71293,35.74016],[127.71291,35.74026],[127.71187,35.74329],[127.71179,35.74352],[127.70941,35.74761],[127.70801,35.7495],[127.7052,35.75098],[127.70502,35.75109],[127.70482,35.75123],[127.70439,35.75154],[127.70355,35.75219],[127.70347,35.75227],[127.70289,35.75286],[127.70277,35.75326],[127.70268,35.75368],[127.70248,35.75445],[127.70232,35.75484],[127.70203,35.75533],[127.70165,35.75572],[127.69904,35.758],[127.69877,35.75823],[127.69819,35.75839],[127.69757,35.75842],[127.69584,35.75855],[127.69496,35.75884],[127.6931,35.75983],[127.69257,35.76018],[127.69192,35.76077],[127.69128,35.76137],[127.69065,35.76177],[127.68952,35.76198],[127.6888,35.76208],[127.68805,35.76201],[127.68702,35.76177],[127.6867,35.76175],[127.68639,35.76174],[127.68595,35.76202],[127.68454,35.76292],[127.68394,35.76342],[127.68318,35.76409],[127.68188,35.76542],[127.67961,35.76788],[127.67923,35.76839],[127.67903,35.76927],[127.68014,35.77056],[127.68255,35.77364],[127.6847,35.77737],[127.68475,35.77754],[127.68499,35.77785],[127.68982,35.78095],[127.69298,35.78292],[127.69671,35.78608],[127.69965,35.78822],[127.70002,35.7886],[127.70037,35.78895],[127.70135,35.78956],[127.70467,35.79116],[127.70652,35.79186],[127.7069,35.79187],[127.70723,35.79177],[127.70788,35.79151],[127.70806,35.79144],[127.70894,35.79123],[127.70936,35.79125],[127.70978,35.7914],[127.71035,35.79162],[127.71152,35.79276],[127.7121,35.79317],[127.71237,35.79336],[127.71353,35.79409],[127.71458,35.79467],[127.71579,35.79523],[127.71757,35.79611],[127.71928,35.79706],[127.71955,35.79741],[127.71968,35.79884],[127.71979,35.79971],[127.71995,35.8003],[127.72,35.80041],[127.72042,35.80128],[127.72161,35.80285],[127.72208,35.8031],[127.72286,35.80351],[127.72345,35.80392],[127.72385,35.80459],[127.72411,35.80546],[127.72432,35.80672],[127.72417,35.808],[127.72368,35.80946],[127.72336,35.81035],[127.72338,35.81061],[127.72509,35.81293],[127.72539,35.81311],[127.72576,35.81323],[127.72584,35.81325],[127.72785,35.81335],[127.72839,35.81323],[127.72887,35.81303],[127.72911,35.81293],[127.72941,35.81291],[127.72969,35.81303],[127.7298,35.81308],[127.73041,35.81365],[127.73065,35.814],[127.73093,35.8144],[127.73162,35.81592],[127.73196,35.81707],[127.73231,35.81823],[127.73239,35.81882],[127.7326,35.82084],[127.73535,35.82485],[127.73569,35.82522],[127.73653,35.82558],[127.73759,35.82609],[127.73822,35.82651],[127.73865,35.82697],[127.73867,35.82706],[127.7388,35.82772],[127.73905,35.82916],[127.73909,35.83079],[127.73842,35.83145],[127.73834,35.83196],[127.73794,35.8347],[127.73808,35.83513],[127.73973,35.83728],[127.74126,35.83888],[127.74328,35.84246],[127.74412,35.84405],[127.74436,35.84428],[127.74441,35.84433],[127.74492,35.84392],[127.74556,35.84323],[127.74676,35.84283],[127.74712,35.8429],[127.74744,35.84297],[127.74836,35.84301],[127.75074,35.84212],[127.75102,35.84187],[127.75124,35.84166],[127.75151,35.84093],[127.75193,35.84047],[127.75259,35.8399],[127.75335,35.8393],[127.75407,35.83882],[127.75753,35.83672],[127.75764,35.83671],[127.75839,35.83669],[127.75963,35.83704],[127.76135,35.83754],[127.76318,35.83833],[127.7645,35.83866],[127.76487,35.83858],[127.76517,35.83852],[127.76531,35.83845],[127.76606,35.83808],[127.76668,35.83801],[127.76741,35.838],[127.7683,35.83811],[127.77215,35.83893],[127.77292,35.83952],[127.77718,35.8431],[127.77801,35.84403],[127.77937,35.8456],[127.77932,35.84635],[127.77924,35.84717],[127.77989,35.84781],[127.78049,35.84826],[127.78232,35.84923],[127.78787,35.85163],[127.78851,35.85158],[127.79002,35.85151],[127.79165,35.85168],[127.79258,35.85179],[127.793,35.85197],[127.79368,35.85265],[127.79384,35.85271],[127.79461,35.85301],[127.79795,35.85376],[127.79863,35.85382],[127.7993,35.85382],[127.80003,35.85416],[127.80191,35.85533],[127.80291,35.85621],[127.80387,35.85718],[127.80483,35.85695],[127.80629,35.85616],[127.80838,35.8538],[127.81273,35.85283]]]]}},{"type":"Feature","properties":{"code":"48880350","name":"위천면","parent":"48880"},"geometry":{"type":"MultiPolygon","coordinates":[[[[127.85708,35.79705],[127.85681,35.7961],[127.85676,35.79555],[127.85672,35.79491],[127.85682,35.7938],[127.85695,35.79317],[127.85947,35.79201],[127.86172,35.79097],[127.86475,35.78952],[127.87276,35.78568],[127.87365,35.78486],[127.87367,35.78476],[127.8738,35.78362],[127.87384,35.78306],[127.87369,35.78165],[127.87369,35.78105],[127.87414,35.78032],[127.87445,35.78003],[127.87459,35.77991],[127.87515,35.77973],[127.87574,35.77955],[127.87735,35.77812],[127.8782,35.77623],[127.87806,35.77592],[127.87764,35.77566],[127.87728,35.77557],[127.87544,35.77432],[127.87421,35.77313],[127.87406,35.77291],[127.87311,35.77101],[127.8732,35.76941],[127.87328,35.76927],[127.87356,35.7688],[127.87386,35.7682],[127.87404,35.76782],[127.87423,35.76705],[127.87411,35.766],[127.87317,35.76365],[127.87175,35.75842],[127.87353,35.75535],[127.87443,35.75409],[127.8752,35.75301],[127.87535,35.75292],[127.8755,35.75283],[127.87569,35.75273],[127.87694,35.7512],[127.87767,35.74618],[127.87768,35.74582],[127.87761,35.74313],[127.87742,35.74223],[127.87734,35.7419],[127.87695,35.74084],[127.87454,35.74112],[127.87436,35.74117],[127.87367,35.74142],[127.87318,35.7416],[127.87252,35.74185],[127.87233,35.74194],[127.87214,35.74208],[127.87196,35.74233],[127.87173,35.74268],[127.87159,35.74301],[127.87153,35.74306],[127.87023,35.74372],[127.86794,35.74461],[127.86775,35.74468],[127.86715,35.74484],[127.8664,35.7449],[127.86488,35.74493],[127.86359,35.74491],[127.86202,35.7448],[127.86166,35.74485],[127.86115,35.74493],[127.86096,35.745],[127.86082,35.7451],[127.85964,35.74603],[127.85858,35.74617],[127.85779,35.74605],[127.85708,35.74586],[127.85702,35.74583],[127.8567,35.74518],[127.85651,35.74474],[127.85643,35.74449],[127.8564,35.74427],[127.85642,35.74397],[127.85647,35.74376],[127.85644,35.7431],[127.8556,35.74232],[127.85171,35.74162],[127.84916,35.74146],[127.84657,35.74127],[127.84752,35.73795],[127.84906,35.73656],[127.85094,35.73523],[127.85291,35.73315],[127.85259,35.7327],[127.85016,35.73102],[127.8497,35.72897],[127.84965,35.72888],[127.84682,35.72688],[127.84675,35.72683],[127.84651,35.72677],[127.84625,35.72673],[127.84584,35.7267],[127.84553,35.7267],[127.84542,35.72672],[127.84522,35.72678],[127.84494,35.72689],[127.84468,35.72703],[127.8445,35.72714],[127.84386,35.72765],[127.84382,35.7277],[127.8438,35.72778],[127.84378,35.72788],[127.84378,35.72859],[127.8427,35.72997],[127.8401,35.73292],[127.84003,35.73291],[127.83766,35.7322],[127.83749,35.73211],[127.83332,35.7297],[127.8326,35.72818],[127.83255,35.72759],[127.83144,35.72503],[127.82831,35.72114],[127.82111,35.71516],[127.81682,35.71332],[127.81409,35.711],[127.81306,35.71003],[127.813,35.70994],[127.81287,35.70958],[127.81281,35.70944],[127.81274,35.70931],[127.81267,35.70926],[127.8112,35.70829],[127.81093,35.70813],[127.81086,35.70808],[127.80962,35.70743],[127.80918,35.70724],[127.80534,35.70564],[127.80518,35.70561],[127.80496,35.70561],[127.80255,35.70568],[127.80251,35.70569],[127.80243,35.70572],[127.80224,35.70583],[127.80209,35.7059],[127.80202,35.70592],[127.80194,35.70594],[127.80185,35.70594],[127.80175,35.70593],[127.80035,35.70568],[127.80025,35.70565],[127.80011,35.7056],[127.79989,35.70551],[127.79977,35.70545],[127.79967,35.7054],[127.79739,35.70369],[127.79612,35.70316],[127.79604,35.70331],[127.79584,35.70365],[127.79559,35.70397],[127.79536,35.70421],[127.79526,35.70427],[127.79514,35.70433],[127.79357,35.70498],[127.79345,35.70502],[127.79313,35.70509],[127.79215,35.70527],[127.79196,35.70529],[127.79021,35.70551],[127.79017,35.70551],[127.79012,35.7055],[127.7895,35.7053],[127.78928,35.70524],[127.78797,35.70495],[127.78783,35.70494],[127.7877,35.70493],[127.78677,35.70499],[127.78602,35.70506],[127.78455,35.70526],[127.78446,35.7053],[127.78441,35.70532],[127.78251,35.70668],[127.78104,35.70836],[127.78096,35.70854],[127.78064,35.70921],[127.78056,35.70934],[127.78043,35.70952],[127.77965,35.7105],[127.77956,35.7106],[127.7769,35.71298],[127.77688,35.713],[127.77598,35.71319],[127.775,35.71339],[127.7746,35.7136],[127.77285,35.71458],[127.77258,35.71476],[127.77209,35.7151],[127.76958,35.71719],[127.7643,35.72092],[127.76421,35.72098],[127.76401,35.72114],[127.76392,35.72125],[127.76388,35.72134],[127.7638,35.72155],[127.76364,35.72221],[127.76196,35.72801],[127.76114,35.73081],[127.76206,35.7318],[127.76397,35.7329],[127.76604,35.73443],[127.76614,35.73451],[127.76618,35.73456],[127.76629,35.73474],[127.76742,35.73708],[127.76752,35.73734],[127.76757,35.73756],[127.77059,35.74081],[127.77071,35.74086],[127.77167,35.74132],[127.77775,35.74584],[127.77789,35.74596],[127.77809,35.74617],[127.77823,35.74635],[127.77842,35.74662],[127.77851,35.74676],[127.77859,35.7469],[127.77863,35.74707],[127.77873,35.74763],[127.77875,35.7478],[127.77874,35.74788],[127.77875,35.748],[127.77876,35.74805],[127.7788,35.74812],[127.7789,35.7482],[127.77907,35.74833],[127.7793,35.74846],[127.7794,35.74849],[127.78456,35.74871],[127.78846,35.74886],[127.78857,35.74889],[127.78874,35.74898],[127.78929,35.74926],[127.78938,35.74931],[127.78941,35.74936],[127.7894,35.74945],[127.78939,35.74962],[127.78931,35.75],[127.78927,35.75017],[127.78935,35.75104],[127.78965,35.75215],[127.79111,35.75506],[127.79151,35.75533],[127.79485,35.7566],[127.7953,35.75668],[127.79589,35.75675],[127.79685,35.75666],[127.79708,35.75667],[127.79756,35.75676],[127.79779,35.75681],[127.7983,35.75697],[127.79958,35.75774],[127.80213,35.76001],[127.80226,35.76036],[127.80263,35.76166],[127.80269,35.76221],[127.80281,35.76251],[127.80294,35.76267],[127.80399,35.76379],[127.80424,35.76397],[127.80461,35.76412],[127.80504,35.7642],[127.80658,35.76415],[127.81421,35.76309],[127.81714,35.76145],[127.8179,35.7612],[127.82156,35.76029],[127.82193,35.7602],[127.8222,35.76021],[127.82255,35.76028],[127.82288,35.7605],[127.82331,35.76083],[127.82448,35.76251],[127.82554,35.76579],[127.82557,35.76605],[127.82557,35.76621],[127.82523,35.76673],[127.82494,35.76717],[127.82396,35.76829],[127.82372,35.76847],[127.82343,35.76854],[127.82328,35.76868],[127.82318,35.76893],[127.82279,35.77008],[127.82274,35.77045],[127.82269,35.77088],[127.82285,35.7716],[127.82622,35.77689],[127.82655,35.77718],[127.82699,35.77743],[127.82789,35.77743],[127.82898,35.77734],[127.83009,35.77734],[127.8306,35.77733],[127.8313,35.7774],[127.8317,35.77751],[127.83198,35.7778],[127.8337,35.7797],[127.83388,35.78015],[127.83428,35.78117],[127.83469,35.78621],[127.83469,35.78659],[127.83429,35.78857],[127.83409,35.78886],[127.83378,35.78923],[127.83334,35.78964],[127.83315,35.79005],[127.83318,35.7904],[127.83343,35.79078],[127.83465,35.79253],[127.83513,35.79301],[127.83617,35.79363],[127.83727,35.79428],[127.83772,35.79455],[127.83798,35.79483],[127.83902,35.7972],[127.83914,35.79751],[127.83912,35.79779],[127.83963,35.79786],[127.84007,35.79792],[127.8411,35.79808],[127.84149,35.79817],[127.84425,35.79922],[127.84526,35.79981],[127.84639,35.80038],[127.84731,35.8006],[127.84844,35.80085],[127.84881,35.80084],[127.84918,35.80083],[127.84959,35.80077],[127.85293,35.8007],[127.85325,35.80066],[127.85487,35.79991],[127.85518,35.79969],[127.85532,35.79934],[127.8556,35.79865],[127.85622,35.7979],[127.85708,35.79705]]]]}},{"type":"Feature","properties":{"code":"48880360","name":"마리면","parent":"48880"},"geometry":{"type":"MultiPolygon","coordinates":[[[[127.87695,35.74084],[127.87695,35.74077],[127.87694,35.74072],[127.877,35.73992],[127.87704,35.73974],[127.87777,35.73679],[127.87789,35.73642],[127.878,35.73617],[127.88003,35.73322],[127.88115,35.73108],[127.88118,35.73094],[127.88107,35.72959],[127.88103,35.72943],[127.88031,35.7265],[127.87983,35.72485],[127.87972,35.7247],[127.87967,35.72355],[127.87979,35.71979],[127.8799,35.71744],[127.87991,35.71716],[127.87988,35.71704],[127.8797,35.71688],[127.87951,35.71672],[127.87918,35.71649],[127.87868,35.71629],[127.87839,35.71621],[127.87826,35.71614],[127.8776,35.71527],[127.87758,35.71505],[127.8775,35.70942],[127.87762,35.70844],[127.87829,35.70796],[127.87847,35.70784],[127.87949,35.70685],[127.87962,35.70672],[127.8798,35.70623],[127.87984,35.70593],[127.87992,35.70474],[127.87993,35.70434],[127.87993,35.7041],[127.87975,35.70221],[127.87938,35.70052],[127.87934,35.70035],[127.8793,35.70026],[127.87919,35.70013],[127.87908,35.70003],[127.87845,35.69954],[127.87811,35.69932],[127.87784,35.69915],[127.87765,35.69908],[127.87754,35.69904],[127.87739,35.69898],[127.8773,35.69893],[127.87716,35.69878],[127.87522,35.69637],[127.87515,35.69627],[127.87512,35.69614],[127.875,35.69545],[127.875,35.69532],[127.87501,35.69517],[127.87601,35.68879],[127.87675,35.68676],[127.87842,35.68775],[127.87862,35.68877],[127.87874,35.68932],[127.87887,35.68984],[127.87902,35.69044],[127.87909,35.69063],[127.87918,35.69083],[127.87928,35.69103],[127.8794,35.69119],[127.87968,35.69143],[127.87988,35.69156],[127.88016,35.6917],[127.88047,35.69179],[127.88062,35.69182],[127.88069,35.69181],[127.88073,35.69178],[127.88075,35.69175],[127.88075,35.69169],[127.88069,35.69158],[127.88057,35.69142],[127.8805,35.6913],[127.88042,35.69112],[127.88038,35.69096],[127.88037,35.69079],[127.88039,35.69058],[127.88042,35.69036],[127.88066,35.68867],[127.88071,35.68854],[127.88084,35.68832],[127.88106,35.68804],[127.88118,35.68792],[127.88167,35.68749],[127.88194,35.68731],[127.88239,35.68709],[127.88256,35.68699],[127.88262,35.68694],[127.88264,35.68689],[127.88303,35.68564],[127.88305,35.68554],[127.88308,35.68484],[127.88308,35.68474],[127.88302,35.68425],[127.88298,35.68405],[127.88294,35.68395],[127.88175,35.6822],[127.88161,35.68204],[127.88148,35.68193],[127.88136,35.68188],[127.88121,35.68185],[127.88084,35.68187],[127.88072,35.68187],[127.88021,35.68179],[127.88007,35.68175],[127.87997,35.6817],[127.87984,35.6816],[127.87979,35.68153],[127.87905,35.6799],[127.87902,35.67977],[127.87899,35.67746],[127.87967,35.67475],[127.87948,35.67271],[127.87908,35.67126],[127.87888,35.67072],[127.87811,35.67002],[127.87784,35.66978],[127.8776,35.66958],[127.8774,35.66945],[127.87724,35.66942],[127.87687,35.66935],[127.87588,35.66957],[127.87065,35.6705],[127.86889,35.67049],[127.86565,35.66761],[127.8646,35.6664],[127.86381,35.66501],[127.8626,35.66258],[127.86253,35.66211],[127.86256,35.66101],[127.86258,35.66097],[127.86258,35.66088],[127.86257,35.66082],[127.86211,35.65953],[127.86203,35.65939],[127.86179,35.65914],[127.8617,35.65908],[127.86142,35.65886],[127.85796,35.65791],[127.85301,35.65762],[127.8529,35.65761],[127.85281,35.65763],[127.8527,35.65767],[127.85097,35.65837],[127.84848,35.65752],[127.84586,35.65681],[127.84473,35.6579],[127.84463,35.65798],[127.84444,35.65812],[127.8438,35.65854],[127.8437,35.65859],[127.83797,35.66093],[127.83789,35.66094],[127.83684,35.66096],[127.83678,35.66095],[127.83665,35.6609],[127.83601,35.66064],[127.83592,35.66058],[127.83363,35.66326],[127.83412,35.6677],[127.83411,35.66777],[127.83375,35.66838],[127.8337,35.66847],[127.83366,35.66852],[127.83356,35.66861],[127.83347,35.66869],[127.83206,35.66961],[127.83195,35.66968],[127.83185,35.66972],[127.8307,35.66999],[127.83061,35.67],[127.82869,35.66981],[127.82709,35.66957],[127.82681,35.66947],[127.82667,35.6694],[127.82651,35.66931],[127.82635,35.66917],[127.82539,35.66902],[127.8252,35.669],[127.82464,35.66896],[127.82304,35.66902],[127.82295,35.66903],[127.82269,35.66911],[127.8223,35.66925],[127.82221,35.6693],[127.82214,35.66937],[127.82209,35.66954],[127.82206,35.66968],[127.82193,35.6706],[127.82151,35.67213],[127.82144,35.67227],[127.81929,35.67456],[127.8192,35.67465],[127.81835,35.67531],[127.81595,35.67705],[127.81485,35.67802],[127.81235,35.68124],[127.8123,35.68133],[127.81125,35.68331],[127.8112,35.68341],[127.81112,35.68363],[127.81105,35.68385],[127.81107,35.68394],[127.81109,35.68401],[127.81117,35.68414],[127.81125,35.68437],[127.8114,35.68503],[127.81139,35.6851],[127.81129,35.68544],[127.81125,35.68555],[127.81122,35.68557],[127.81113,35.68557],[127.80644,35.68583],[127.80361,35.68588],[127.80347,35.68585],[127.80338,35.68586],[127.80334,35.68587],[127.80329,35.6859],[127.80323,35.68597],[127.80317,35.68606],[127.80254,35.68777],[127.80251,35.6879],[127.8025,35.68799],[127.80253,35.68817],[127.80258,35.68838],[127.80263,35.68855],[127.80197,35.69262],[127.8011,35.69596],[127.80107,35.69607],[127.801,35.69621],[127.80084,35.69649],[127.80067,35.69678],[127.80041,35.69717],[127.8003,35.69731],[127.80017,35.69744],[127.79995,35.69763],[127.79984,35.6977],[127.79971,35.69778],[127.79935,35.69794],[127.79926,35.698],[127.79872,35.69843],[127.79867,35.69848],[127.79715,35.70088],[127.79704,35.70113],[127.79612,35.70316],[127.79739,35.70369],[127.79967,35.7054],[127.79977,35.70545],[127.79989,35.70551],[127.80011,35.7056],[127.80025,35.70565],[127.80035,35.70568],[127.80175,35.70593],[127.80185,35.70594],[127.80194,35.70594],[127.80202,35.70592],[127.80209,35.7059],[127.80224,35.70583],[127.80243,35.70572],[127.80251,35.70569],[127.80255,35.70568],[127.80496,35.70561],[127.80518,35.70561],[127.80534,35.70564],[127.80918,35.70724],[127.80962,35.70743],[127.81086,35.70808],[127.81093,35.70813],[127.8112,35.70829],[127.81267,35.70926],[127.81274,35.70931],[127.81281,35.70944],[127.81287,35.70958],[127.813,35.70994],[127.81306,35.71003],[127.81409,35.711],[127.81682,35.71332],[127.82111,35.71516],[127.82831,35.72114],[127.83144,35.72503],[127.83255,35.72759],[127.8326,35.72818],[127.83332,35.7297],[127.83749,35.73211],[127.83766,35.7322],[127.84003,35.73291],[127.8401,35.73292],[127.8427,35.72997],[127.84378,35.72859],[127.84378,35.72788],[127.8438,35.72778],[127.84382,35.7277],[127.84386,35.72765],[127.8445,35.72714],[127.84468,35.72703],[127.84494,35.72689],[127.84522,35.72678],[127.84542,35.72672],[127.84553,35.7267],[127.84584,35.7267],[127.84625,35.72673],[127.84651,35.72677],[127.84675,35.72683],[127.84682,35.72688],[127.84965,35.72888],[127.8497,35.72897],[127.85016,35.73102],[127.85259,35.7327],[127.85291,35.73315],[127.85094,35.73523],[127.84906,35.73656],[127.84752,35.73795],[127.84657,35.74127],[127.84916,35.74146],[127.85171,35.74162],[127.8556,35.74232],[127.85644,35.7431],[127.85647,35.74376],[127.85642,35.74397],[127.8564,35.74427],[127.85643,35.74449],[127.85651,35.74474],[127.8567,35.74518],[127.85702,35.74583],[127.85708,35.74586],[127.85779,35.74605],[127.85858,35.74617],[127.85964,35.74603],[127.86082,35.7451],[127.86096,35.745],[127.86115,35.74493],[127.86166,35.74485],[127.86202,35.7448],[127.86359,35.74491],[127.86488,35.74493],[127.8664,35.7449],[127.86715,35.74484],[127.86775,35.74468],[127.86794,35.74461],[127.87023,35.74372],[127.87153,35.74306],[127.87159,35.74301],[127.87173,35.74268],[127.87196,35.74233],[127.87214,35.74208],[127.87233,35.74194],[127.87252,35.74185],[127.87318,35.7416],[127.87367,35.74142],[127.87436,35.74117],[127.87454,35.74112],[127.87695,35.74084]]]]}},{"type":"Feature","properties":{"code":"48880370","name":"남상면","parent":"48880"},"geometry":{"type":"MultiPolygon","coordinates":[[[[127.99783,35.62815],[127.99788,35.62083],[127.99783,35.61209],[127.99783,35.61127],[127.99575,35.61039],[127.99568,35.61038],[127.99562,35.61036],[127.99553,35.61036],[127.99546,35.61036],[127.99535,35.61037],[127.99384,35.61046],[127.99159,35.61058],[127.9915,35.61058],[127.99142,35.61058],[127.99132,35.61057],[127.9873,35.60963],[127.9848,35.60873],[127.98471,35.60866],[127.98443,35.60882],[127.98428,35.6089],[127.98418,35.60894],[127.98204,35.60934],[127.98191,35.60935],[127.98082,35.6094],[127.9807,35.60939],[127.98044,35.60935],[127.97965,35.60922],[127.9794,35.60918],[127.97915,35.6091],[127.97827,35.60884],[127.97816,35.60879],[127.97745,35.60843],[127.97729,35.6083],[127.97691,35.6079],[127.97613,35.60706],[127.97283,35.6062],[127.96947,35.60515],[127.96941,35.60511],[127.96938,35.60503],[127.96935,35.60481],[127.96936,35.60462],[127.96932,35.60437],[127.96921,35.60411],[127.96906,35.60385],[127.96887,35.60366],[127.96873,35.60357],[127.96833,35.6035],[127.96791,35.60346],[127.96783,35.60346],[127.9635,35.60502],[127.96137,35.60596],[127.9562,35.60678],[127.95367,35.60701],[127.95326,35.60703],[127.95038,35.60898],[127.94994,35.60926],[127.94873,35.60994],[127.94843,35.61011],[127.94816,35.6102],[127.94803,35.61023],[127.94799,35.6102],[127.94629,35.60917],[127.93933,35.60369],[127.9393,35.60352],[127.9392,35.6033],[127.93878,35.6027],[127.93644,35.60047],[127.93499,35.59992],[127.93466,35.59986],[127.93425,35.59971],[127.93379,35.59953],[127.9323,35.59878],[127.92892,35.5966],[127.92609,35.59476],[127.92392,35.5932],[127.9238,35.5931],[127.9233,35.5924],[127.91944,35.59051],[127.91806,35.58987],[127.91762,35.58966],[127.91738,35.58946],[127.91713,35.58915],[127.91689,35.58873],[127.91674,35.58855],[127.91654,35.58841],[127.91642,35.58837],[127.91621,35.58839],[127.91612,35.58848],[127.91606,35.58855],[127.91592,35.5888],[127.9154,35.5914],[127.9154,35.59172],[127.91546,35.59213],[127.9153,35.59567],[127.91493,35.60022],[127.91484,35.60069],[127.91458,35.60171],[127.91452,35.60183],[127.91419,35.60201],[127.91384,35.60225],[127.91369,35.60239],[127.91327,35.60372],[127.91207,35.60701],[127.9116,35.60791],[127.9115,35.60802],[127.91108,35.60829],[127.91076,35.60848],[127.91044,35.60861],[127.91024,35.60861],[127.90993,35.60855],[127.9078,35.60806],[127.90764,35.60801],[127.90361,35.6058],[127.90328,35.60561],[127.9004,35.60348],[127.89927,35.60219],[127.89915,35.602],[127.89656,35.59867],[127.89234,35.59512],[127.88922,35.59259],[127.88893,35.59245],[127.88788,35.59177],[127.88772,35.59162],[127.88489,35.58893],[127.88477,35.58881],[127.88466,35.58868],[127.88366,35.5875],[127.8836,35.58737],[127.8836,35.58724],[127.88363,35.58705],[127.88367,35.58692],[127.88386,35.58665],[127.88395,35.58649],[127.88408,35.58533],[127.88343,35.58399],[127.88231,35.58173],[127.88219,35.58151],[127.88119,35.58052],[127.88043,35.57983],[127.87844,35.5782],[127.87826,35.57812],[127.87508,35.57673],[127.87477,35.57661],[127.87445,35.57649],[127.87419,35.57639],[127.87401,35.57634],[127.8739,35.57632],[127.87382,35.57634],[127.87379,35.57634],[127.87373,35.57635],[127.87365,35.57641],[127.87343,35.57654],[127.87335,35.57658],[127.87327,35.57661],[127.87322,35.57662],[127.87311,35.57659],[127.87031,35.57564],[127.87022,35.5756],[127.87014,35.57553],[127.87007,35.57542],[127.86991,35.57513],[127.86988,35.57501],[127.86573,35.57522],[127.8638,35.57605],[127.86375,35.57607],[127.86369,35.57608],[127.86315,35.57616],[127.86308,35.57617],[127.86301,35.57618],[127.86293,35.57617],[127.86289,35.57616],[127.8617,35.57488],[127.86069,35.57361],[127.86066,35.57354],[127.86066,35.57347],[127.86068,35.57337],[127.86068,35.5733],[127.86065,35.57322],[127.8605,35.57295],[127.85895,35.5707],[127.85882,35.57053],[127.85869,35.57042],[127.85861,35.57035],[127.85845,35.57025],[127.85812,35.57007],[127.85678,35.56954],[127.85665,35.56949],[127.85654,35.56946],[127.85641,35.56944],[127.85632,35.56942],[127.8526,35.57521],[127.85258,35.57535],[127.85254,35.57544],[127.8525,35.57551],[127.85242,35.57562],[127.85094,35.57721],[127.85083,35.57729],[127.8507,35.57737],[127.85064,35.57741],[127.85057,35.57744],[127.85045,35.57749],[127.85032,35.57753],[127.85012,35.57758],[127.84971,35.57765],[127.84706,35.57788],[127.84696,35.57789],[127.84688,35.5779],[127.8407,35.57799],[127.84034,35.57797],[127.83882,35.57776],[127.83863,35.57772],[127.83851,35.57768],[127.83843,35.57765],[127.83837,35.57763],[127.8382,35.57756],[127.83798,35.57748],[127.83784,35.57742],[127.83746,35.57728],[127.83671,35.57701],[127.83644,35.57692],[127.83637,35.5769],[127.83632,35.57689],[127.83629,35.57689],[127.83624,35.5769],[127.83619,35.57693],[127.83558,35.57739],[127.8355,35.57749],[127.83545,35.57756],[127.83539,35.57767],[127.83522,35.57803],[127.8352,35.57812],[127.83519,35.57833],[127.83519,35.57852],[127.8352,35.57857],[127.83527,35.57885],[127.8353,35.57892],[127.83546,35.57918],[127.83582,35.5798],[127.83635,35.5807],[127.83641,35.58081],[127.83643,35.58087],[127.83645,35.58091],[127.83643,35.58098],[127.83638,35.58109],[127.83513,35.58307],[127.83895,35.58536],[127.84072,35.58621],[127.84183,35.58677],[127.84333,35.58774],[127.84338,35.58778],[127.84353,35.58794],[127.84357,35.588],[127.8436,35.58809],[127.84364,35.58824],[127.84363,35.58841],[127.84362,35.58853],[127.84358,35.58871],[127.84353,35.58895],[127.84351,35.5891],[127.8435,35.58922],[127.84352,35.58965],[127.84353,35.58973],[127.84357,35.58984],[127.8438,35.59046],[127.84388,35.59067],[127.84393,35.59074],[127.8472,35.59482],[127.84726,35.59489],[127.84737,35.59497],[127.84755,35.59505],[127.84778,35.59514],[127.84784,35.59516],[127.85061,35.59605],[127.85294,35.5966],[127.85305,35.59662],[127.8533,35.59681],[127.85395,35.59737],[127.85772,35.60245],[127.85962,35.60397],[127.85997,35.60408],[127.86034,35.60425],[127.86195,35.60532],[127.86207,35.60545],[127.8641,35.60804],[127.86413,35.60812],[127.8642,35.6083],[127.86422,35.60836],[127.86422,35.6084],[127.86421,35.60846],[127.86418,35.60853],[127.86414,35.60862],[127.86411,35.60865],[127.86403,35.60876],[127.86394,35.60886],[127.86384,35.60894],[127.86367,35.60908],[127.86355,35.60916],[127.86339,35.60926],[127.86335,35.60928],[127.86326,35.60932],[127.86318,35.60939],[127.86307,35.60947],[127.86302,35.60953],[127.86297,35.60958],[127.86293,35.60964],[127.86288,35.60989],[127.86286,35.61003],[127.86285,35.61011],[127.86287,35.61042],[127.86296,35.61064],[127.86317,35.61117],[127.86321,35.61126],[127.86323,35.6113],[127.86725,35.61471],[127.86733,35.61476],[127.86742,35.61478],[127.87179,35.6217],[127.87186,35.62182],[127.87188,35.62189],[127.87192,35.62203],[127.87193,35.62216],[127.87192,35.62225],[127.87162,35.62421],[127.87159,35.62437],[127.87128,35.62577],[127.87166,35.63125],[127.87099,35.63214],[127.87095,35.63222],[127.87085,35.63256],[127.87077,35.633],[127.87076,35.6332],[127.87078,35.63413],[127.8708,35.63418],[127.87249,35.6364],[127.87254,35.63647],[127.8726,35.63651],[127.87343,35.63711],[127.87375,35.63734],[127.87649,35.639],[127.87723,35.63942],[127.87733,35.63917],[127.8775,35.63886],[127.87787,35.63843],[127.87796,35.63838],[127.87818,35.63832],[127.88351,35.63765],[127.88832,35.63716],[127.88896,35.63712],[127.88901,35.63714],[127.88917,35.6372],[127.88956,35.6374],[127.88986,35.63757],[127.88992,35.63761],[127.88999,35.63765],[127.89003,35.63769],[127.89026,35.63825],[127.89027,35.6383],[127.88984,35.63983],[127.88945,35.64137],[127.88941,35.64157],[127.88941,35.64173],[127.88943,35.64185],[127.8895,35.64195],[127.89087,35.64352],[127.89095,35.64359],[127.89109,35.64363],[127.8925,35.64542],[127.89349,35.6513],[127.89387,35.65262],[127.89389,35.65268],[127.89392,35.65274],[127.89396,35.65275],[127.89691,35.65263],[127.89899,35.6523],[127.89917,35.65215],[127.89946,35.6519],[127.89959,35.65179],[127.89988,35.65173],[127.90025,35.65177],[127.90238,35.65217],[127.90292,35.65233],[127.9033,35.65253],[127.90557,35.654],[127.90934,35.65527],[127.91179,35.65621],[127.91322,35.65715],[127.91326,35.65719],[127.91567,35.65941],[127.91572,35.65947],[127.91573,35.65955],[127.91562,35.66003],[127.91559,35.66024],[127.91563,35.66035],[127.91577,35.66058],[127.91598,35.66072],[127.91663,35.66113],[127.91711,35.66139],[127.9206,35.66286],[127.92271,35.66336],[127.92672,35.66376],[127.92968,35.66404],[127.92978,35.66404],[127.93107,35.66514],[127.93579,35.66941],[127.93677,35.67114],[127.93718,35.67225],[127.93757,35.67267],[127.93833,35.67257],[127.94046,35.67279],[127.94066,35.67182],[127.94101,35.6708],[127.94113,35.67059],[127.94141,35.67029],[127.94165,35.66997],[127.94193,35.66941],[127.9431,35.66498],[127.94326,35.66434],[127.94447,35.6586],[127.94514,35.65534],[127.94558,35.65302],[127.94581,35.65246],[127.94619,35.65175],[127.94636,35.6515],[127.94679,35.65089],[127.94837,35.64873],[127.94867,35.6484],[127.94917,35.64786],[127.94945,35.64757],[127.95086,35.64643],[127.95152,35.64619],[127.95224,35.64604],[127.95272,35.64596],[127.9541,35.64578],[127.95443,35.64574],[127.95471,35.64563],[127.95502,35.64537],[127.9552,35.6451],[127.9553,35.64495],[127.9561,35.64341],[127.95665,35.64223],[127.95708,35.64054],[127.9574,35.63928],[127.95781,35.63773],[127.95812,35.63665],[127.9586,35.6353],[127.95927,35.63408],[127.96014,35.63294],[127.96083,35.63229],[127.96129,35.63198],[127.96273,35.6312],[127.96294,35.63111],[127.96316,35.63106],[127.96359,35.63103],[127.96429,35.63114],[127.96565,35.63152],[127.96586,35.63157],[127.96694,35.63197],[127.96739,35.63214],[127.96891,35.63286],[127.97027,35.63353],[127.97182,35.63452],[127.97253,35.63522],[127.97283,35.6355],[127.97478,35.63711],[127.97512,35.63737],[127.97553,35.63761],[127.97582,35.63776],[127.97797,35.63871],[127.97827,35.63883],[127.97878,35.63899],[127.97896,35.63903],[127.98054,35.63883],[127.9819,35.63832],[127.982,35.63826],[127.98211,35.63817],[127.98253,35.63691],[127.98294,35.63557],[127.9833,35.63411],[127.98358,35.6329],[127.98495,35.63222],[127.98514,35.63219],[127.98533,35.6322],[127.98561,35.6323],[127.98597,35.63251],[127.9863,35.63267],[127.98649,35.63275],[127.98826,35.63267],[127.98856,35.63258],[127.98902,35.63242],[127.98908,35.6324],[127.98973,35.63213],[127.99124,35.63141],[127.99173,35.63109],[127.9921,35.63081],[127.99238,35.63055],[127.99351,35.62946],[127.99374,35.62926],[127.99416,35.62899],[127.99452,35.62883],[127.99644,35.62834],[127.99735,35.62819],[127.99783,35.62815]]]]}},{"type":"Feature","properties":{"code":"48880380","name":"남하면","parent":"48880"},"geometry":{"type":"MultiPolygon","coordinates":[[[[127.96627,35.73149],[127.96636,35.73078],[127.96698,35.72982],[127.96708,35.72969],[127.96963,35.72683],[127.96971,35.72676],[127.97292,35.72491],[127.97302,35.72488],[127.97326,35.72488],[127.97372,35.72494],[127.97394,35.72497],[127.97402,35.72497],[127.9752,35.72452],[127.97662,35.72317],[127.97673,35.72305],[127.97703,35.72269],[127.97772,35.71909],[127.97769,35.71791],[127.97687,35.71645],[127.97796,35.71421],[127.97805,35.71415],[127.97871,35.71372],[127.97882,35.71362],[127.9789,35.7135],[127.98097,35.70952],[127.98087,35.7091],[127.98073,35.7091],[127.98055,35.70907],[127.98017,35.70897],[127.98012,35.70893],[127.98007,35.7089],[127.97989,35.70876],[127.97977,35.70865],[127.9797,35.70857],[127.97959,35.70845],[127.97938,35.70816],[127.97935,35.70809],[127.97896,35.7066],[127.97758,35.70106],[127.97864,35.69873],[127.98274,35.69564],[127.98587,35.69362],[127.98594,35.69357],[127.98604,35.69355],[127.98613,35.69355],[127.98622,35.69356],[127.98642,35.69358],[127.9867,35.69364],[127.98686,35.69368],[127.98714,35.69373],[127.98742,35.69378],[127.98763,35.69379],[127.98785,35.69381],[127.98805,35.69379],[127.9881,35.69377],[127.98816,35.69375],[127.989,35.69339],[127.98908,35.69335],[127.98921,35.69326],[127.98929,35.69321],[127.98936,35.69316],[127.98942,35.69311],[127.99005,35.69257],[127.99013,35.6925],[127.99019,35.69242],[127.99021,35.69226],[127.9902,35.69208],[127.9901,35.69161],[127.98999,35.69128],[127.98986,35.69095],[127.9898,35.69073],[127.98978,35.69061],[127.98974,35.69026],[127.98973,35.68988],[127.98973,35.68974],[127.98976,35.68959],[127.98979,35.68953],[127.98982,35.68948],[127.99037,35.68862],[127.99046,35.68849],[127.9905,35.68845],[127.99053,35.68842],[127.99424,35.6849],[127.99427,35.68489],[127.9943,35.68488],[128.00398,35.68101],[128.00413,35.68107],[128.00438,35.68115],[128.00511,35.68089],[128.00583,35.68046],[128.01285,35.67407],[128.01483,35.6721],[128.01526,35.67152],[128.01534,35.66804],[128.01411,35.66578],[128.0134,35.66485],[128.01277,35.66437],[128.01159,35.6639],[128.01077,35.66369],[128.00992,35.66347],[128.00903,35.66307],[128.00743,35.66202],[128.00674,35.66125],[128.00661,35.66065],[128.00674,35.66009],[128.00705,35.65972],[128.00716,35.65969],[128.0073,35.65966],[128.00783,35.65966],[128.00825,35.65968],[128.00949,35.66009],[128.01056,35.66045],[128.01113,35.66053],[128.01197,35.66061],[128.01258,35.66047],[128.01369,35.66002],[128.01422,35.6597],[128.02041,35.6554],[128.02053,35.65501],[128.02097,35.65296],[128.02095,35.65215],[128.02032,35.65094],[128.01881,35.647],[128.01793,35.64352],[128.01793,35.64333],[128.01681,35.64275],[128.01063,35.63989],[128.01017,35.63972],[128.00526,35.6373],[128.00104,35.63327],[128.00034,35.63257],[127.99993,35.63144],[128.0,35.63058],[128.00025,35.63019],[128.00033,35.62947],[127.99783,35.62815],[127.99735,35.62819],[127.99644,35.62834],[127.99452,35.62883],[127.99416,35.62899],[127.99374,35.62926],[127.99351,35.62946],[127.99238,35.63055],[127.9921,35.63081],[127.99173,35.63109],[127.99124,35.63141],[127.98973,35.63213],[127.98908,35.6324],[127.98902,35.63242],[127.98856,35.63258],[127.98826,35.63267],[127.98649,35.63275],[127.9863,35.63267],[127.98597,35.63251],[127.98561,35.6323],[127.98533,35.6322],[127.98514,35.63219],[127.98495,35.63222],[127.98358,35.6329],[127.9833,35.63411],[127.98294,35.63557],[127.98253,35.63691],[127.98211,35.63817],[127.982,35.63826],[127.9819,35.63832],[127.98054,35.63883],[127.97896,35.63903],[127.97878,35.63899],[127.97827,35.63883],[127.97797,35.63871],[127.97582,35.63776],[127.97553,35.63761],[127.97512,35.63737],[127.97478,35.63711],[127.97283,35.6355],[127.97253,35.63522],[127.97182,35.63452],[127.97027,35.63353],[127.96891,35.63286],[127.96739,35.63214],[127.96694,35.63197],[127.96586,35.63157],[127.96565,35.63152],[127.96429,35.63114],[127.96359,35.63103],[127.96316,35.63106],[127.96294,35.63111],[127.96273,35.6312],[127.96129,35.63198],[127.96083,35.63229],[127.96014,35.63294],[127.95927,35.63408],[127.9586,35.6353],[127.95812,35.63665],[127.95781,35.63773],[127.9574,35.63928],[127.95708,35.64054],[127.95665,35.64223],[127.9561,35.64341],[127.9553,35.64495],[127.9552,35.6451],[127.95502,35.64537],[127.95471,35.64563],[127.95443,35.64574],[127.9541,35.64578],[127.95272,35.64596],[127.95224,35.64604],[127.95152,35.64619],[127.95086,35.64643],[127.94945,35.64757],[127.94917,35.64786],[127.94867,35.6484],[127.94837,35.64873],[127.94679,35.65089],[127.94636,35.6515],[127.94619,35.65175],[127.94581,35.65246],[127.94558,35.65302],[127.94514,35.65534],[127.94447,35.6586],[127.94326,35.66434],[127.9431,35.66498],[127.94193,35.66941],[127.94165,35.66997],[127.94141,35.67029],[127.94113,35.67059],[127.94101,35.6708],[127.94066,35.67182],[127.94046,35.67279],[127.94044,35.67286],[127.94042,35.67299],[127.94027,35.67576],[127.94027,35.67624],[127.94037,35.67679],[127.94042,35.67722],[127.94047,35.67802],[127.94047,35.67858],[127.94047,35.67909],[127.94047,35.67927],[127.94041,35.67945],[127.93989,35.68098],[127.93926,35.68277],[127.93925,35.68284],[127.93926,35.68297],[127.93961,35.68438],[127.9406,35.68595],[127.94067,35.68606],[127.94083,35.6862],[127.94092,35.68625],[127.94113,35.68632],[127.94126,35.68633],[127.94132,35.68636],[127.94184,35.68693],[127.94188,35.68704],[127.94208,35.68818],[127.94205,35.6886],[127.94186,35.68953],[127.94182,35.68971],[127.94176,35.68985],[127.94168,35.68999],[127.94157,35.69014],[127.94132,35.69039],[127.9411,35.69065],[127.94097,35.69088],[127.94087,35.69117],[127.94083,35.69135],[127.9408,35.69179],[127.94046,35.69535],[127.94038,35.69538],[127.93896,35.69616],[127.93803,35.69669],[127.93785,35.69682],[127.93759,35.69704],[127.93749,35.69715],[127.93743,35.69732],[127.93784,35.69906],[127.93791,35.69936],[127.93797,35.69955],[127.93804,35.69966],[127.9381,35.69971],[127.93822,35.69976],[127.93864,35.69982],[127.93909,35.69984],[127.93945,35.69974],[127.9403,35.69953],[127.94048,35.69951],[127.94059,35.6995],[127.9407,35.69955],[127.94078,35.69962],[127.94113,35.69999],[127.94125,35.70014],[127.9418,35.70081],[127.94184,35.70087],[127.94198,35.70606],[127.94194,35.70634],[127.94185,35.70662],[127.94174,35.70689],[127.94126,35.70798],[127.94108,35.70827],[127.94086,35.70855],[127.94069,35.70875],[127.94062,35.70881],[127.94616,35.71367],[127.94783,35.71483],[127.94846,35.71523],[127.94857,35.71528],[127.94869,35.7153],[127.94888,35.7153],[127.94908,35.71527],[127.94937,35.71523],[127.95003,35.71527],[127.9502,35.7153],[127.95032,35.71533],[127.95261,35.71633],[127.95343,35.71679],[127.95348,35.71684],[127.95354,35.71697],[127.95357,35.71704],[127.95541,35.72288],[127.95566,35.72386],[127.95569,35.72407],[127.95605,35.72876],[127.95711,35.72953],[127.95935,35.73146],[127.96088,35.73242],[127.96228,35.73288],[127.9636,35.73248],[127.96627,35.73149]]]]}},{"type":"Feature","properties":{"code":"48880390","name":"신원면","parent":"48880"},"geometry":{"type":"MultiPolygon","coordinates":[[[[127.98471,35.60866],[127.98432,35.60702],[127.98354,35.60482],[127.9827,35.60221],[127.98269,35.60206],[127.98277,35.60082],[127.98281,35.60065],[127.98357,35.59894],[127.9836,35.59889],[127.98514,35.59635],[127.98521,35.59629],[127.98527,35.59623],[127.98551,35.59609],[127.98674,35.59572],[127.9869,35.59571],[127.9877,35.59564],[127.98794,35.59562],[127.98806,35.59559],[127.98822,35.59543],[127.98861,35.59464],[127.98866,35.59445],[127.98866,35.59422],[127.98834,35.58951],[127.98782,35.5865],[127.98774,35.58619],[127.9876,35.58594],[127.98749,35.58586],[127.98737,35.58576],[127.98713,35.58565],[127.98649,35.58538],[127.98619,35.5853],[127.98572,35.58524],[127.98483,35.58513],[127.98447,35.58508],[127.98423,35.58501],[127.98399,35.58494],[127.9833,35.58469],[127.98327,35.58466],[127.98324,35.58464],[127.98314,35.5845],[127.98306,35.58436],[127.98094,35.58058],[127.98073,35.58011],[127.98016,35.5783],[127.9801,35.57803],[127.97919,35.57396],[127.97916,35.5738],[127.97919,35.57357],[127.97926,35.57341],[127.97974,35.57245],[127.98008,35.57173],[127.98018,35.57152],[127.98104,35.56894],[127.98105,35.56815],[127.98095,35.56642],[127.98094,35.56629],[127.98089,35.56609],[127.97951,35.56352],[127.97942,35.56342],[127.97933,35.56336],[127.97915,35.56327],[127.97901,35.56323],[127.97889,35.56319],[127.97877,35.56316],[127.97861,35.56313],[127.9774,35.56305],[127.97699,35.56307],[127.97641,35.56319],[127.97525,35.56164],[127.97526,35.56146],[127.97478,35.55878],[127.97469,35.55833],[127.97458,35.55797],[127.97453,35.55792],[127.9726,35.5562],[127.97243,35.55606],[127.97211,35.55585],[127.97185,35.55575],[127.9716,35.55565],[127.96971,35.55496],[127.96964,35.55494],[127.96942,35.55493],[127.96897,35.55497],[127.96868,35.55505],[127.96478,35.55392],[127.96367,35.55302],[127.96015,35.55096],[127.95818,35.55043],[127.95812,35.55042],[127.95807,35.55042],[127.95801,35.55041],[127.95795,35.5504],[127.95788,35.5504],[127.95775,35.55043],[127.95763,35.55046],[127.95725,35.55058],[127.95721,35.5506],[127.95697,35.55067],[127.95662,35.55076],[127.95657,35.55077],[127.95653,35.55078],[127.95649,35.55078],[127.95643,35.55078],[127.95638,35.55077],[127.9563,35.55075],[127.95624,35.55072],[127.95518,35.55012],[127.95515,35.55009],[127.9551,35.55004],[127.95507,35.54997],[127.95505,35.54992],[127.95402,35.54232],[127.95312,35.53434],[127.95312,35.53429],[127.95356,35.52988],[127.95356,35.52982],[127.95357,35.52977],[127.95368,35.52924],[127.95371,35.52911],[127.95374,35.52906],[127.95743,35.52482],[127.95799,35.52426],[127.95825,35.52403],[127.95836,35.52395],[127.95845,35.52388],[127.95862,35.5238],[127.95966,35.5199],[127.95982,35.51858],[127.95973,35.51844],[127.95955,35.51815],[127.95952,35.51811],[127.95948,35.51808],[127.95945,35.51806],[127.95918,35.51803],[127.95886,35.518],[127.95868,35.51799],[127.95847,35.51798],[127.95821,35.51799],[127.9579,35.51802],[127.95317,35.51859],[127.95215,35.51872],[127.94959,35.5187],[127.94405,35.51664],[127.9428,35.51575],[127.94205,35.5152],[127.94174,35.51497],[127.94134,35.51469],[127.94112,35.51458],[127.94097,35.5145],[127.94083,35.51446],[127.94068,35.51445],[127.94043,35.51445],[127.9401,35.51446],[127.93971,35.51447],[127.93797,35.51461],[127.93712,35.51481],[127.93597,35.51507],[127.93065,35.51589],[127.93038,35.51593],[127.92951,35.51598],[127.92911,35.516],[127.92628,35.5159],[127.92619,35.5159],[127.926,35.51583],[127.92591,35.51578],[127.92512,35.51533],[127.924,35.51682],[127.92393,35.5169],[127.92388,35.51694],[127.92377,35.51699],[127.92283,35.51743],[127.92247,35.51754],[127.92222,35.51761],[127.92196,35.51772],[127.92183,35.5178],[127.92138,35.5181],[127.92123,35.51822],[127.92101,35.51843],[127.92093,35.51856],[127.92081,35.51873],[127.92075,35.51885],[127.92019,35.52007],[127.92017,35.52018],[127.92019,35.52028],[127.92027,35.52045],[127.92033,35.52054],[127.92041,35.52062],[127.92061,35.52077],[127.92076,35.52085],[127.921,35.52095],[127.92116,35.521],[127.92124,35.52106],[127.92129,35.52113],[127.92132,35.52124],[127.92137,35.52141],[127.92156,35.52322],[127.92157,35.52336],[127.92152,35.52355],[127.92149,35.52362],[127.92145,35.52367],[127.92137,35.52374],[127.91918,35.52513],[127.91911,35.52516],[127.91895,35.52519],[127.91758,35.52542],[127.91728,35.52546],[127.91706,35.52548],[127.91678,35.52549],[127.9166,35.52548],[127.91551,35.52552],[127.91354,35.52569],[127.91339,35.52571],[127.91331,35.52574],[127.91324,35.52577],[127.9088,35.52873],[127.90873,35.5288],[127.90867,35.52888],[127.9086,35.52909],[127.90854,35.52932],[127.90853,35.52941],[127.90853,35.52951],[127.90856,35.52969],[127.90868,35.53032],[127.90868,35.53049],[127.90866,35.53058],[127.90861,35.53069],[127.90848,35.53083],[127.90824,35.53108],[127.90815,35.53115],[127.90427,35.53424],[127.9042,35.53427],[127.90195,35.53455],[127.90171,35.53455],[127.90154,35.53455],[127.90122,35.53449],[127.89995,35.53423],[127.89962,35.53416],[127.89944,35.53411],[127.89784,35.5335],[127.89657,35.53215],[127.8951,35.53063],[127.89502,35.53056],[127.8949,35.53051],[127.89376,35.53018],[127.89367,35.53019],[127.89114,35.53068],[127.88783,35.5314],[127.88772,35.53142],[127.88753,35.53137],[127.88511,35.53052],[127.88426,35.53015],[127.88397,35.53],[127.88356,35.52978],[127.88343,35.52968],[127.88325,35.52949],[127.88295,35.52911],[127.88279,35.5289],[127.88251,35.52843],[127.88245,35.52831],[127.88217,35.52804],[127.88208,35.52796],[127.88181,35.52773],[127.88145,35.52752],[127.88082,35.52723],[127.88045,35.52709],[127.88013,35.52708],[127.87971,35.52716],[127.8795,35.52724],[127.87927,35.52735],[127.8783,35.52801],[127.87898,35.5293],[127.88051,35.53142],[127.88058,35.53152],[127.88059,35.53159],[127.88053,35.53172],[127.88034,35.53194],[127.8802,35.53204],[127.87884,35.53285],[127.8787,35.53292],[127.87767,35.53334],[127.87671,35.5337],[127.87648,35.53374],[127.87601,35.5339],[127.8759,35.53394],[127.87577,35.53398],[127.87459,35.53449],[127.87437,35.5346],[127.87419,35.53472],[127.87407,35.53482],[127.87392,35.53493],[127.87349,35.53534],[127.8732,35.53563],[127.87298,35.5359],[127.87296,35.53597],[127.87297,35.53603],[127.87379,35.53736],[127.87464,35.53863],[127.87538,35.53948],[127.8755,35.53968],[127.87557,35.53982],[127.87568,35.54002],[127.87574,35.54018],[127.87624,35.54267],[127.87729,35.54835],[127.87731,35.54852],[127.87747,35.54982],[127.87754,35.55032],[127.87756,35.55051],[127.87753,35.55055],[127.87742,35.55064],[127.87711,35.55078],[127.87674,35.55093],[127.87638,35.55107],[127.87432,35.55176],[127.87403,35.55185],[127.87215,35.55264],[127.87046,35.5555],[127.8701,35.55663],[127.86938,35.55944],[127.86937,35.55949],[127.86938,35.55953],[127.86938,35.55957],[127.86942,35.55963],[127.87264,35.56309],[127.87464,35.56526],[127.87466,35.56533],[127.87486,35.56747],[127.87488,35.56761],[127.87481,35.5678],[127.87473,35.56791],[127.87453,35.56816],[127.87437,35.56832],[127.87419,35.56845],[127.87413,35.56849],[127.87396,35.56859],[127.87353,35.56897],[127.87231,35.57027],[127.87225,35.57035],[127.87165,35.57151],[127.87117,35.57257],[127.87076,35.57353],[127.8704,35.57435],[127.87033,35.5745],[127.86999,35.57493],[127.86993,35.575],[127.86988,35.57501],[127.86991,35.57513],[127.87007,35.57542],[127.87014,35.57553],[127.87022,35.5756],[127.87031,35.57564],[127.87311,35.57659],[127.87322,35.57662],[127.87327,35.57661],[127.87335,35.57658],[127.87343,35.57654],[127.87365,35.57641],[127.87373,35.57635],[127.87379,35.57634],[127.87382,35.57634],[127.8739,35.57632],[127.87401,35.57634],[127.87419,35.57639],[127.87445,35.57649],[127.87477,35.57661],[127.87508,35.57673],[127.87826,35.57812],[127.87844,35.5782],[127.88043,35.57983],[127.88119,35.58052],[127.88219,35.58151],[127.88231,35.58173],[127.88343,35.58399],[127.88408,35.58533],[127.88395,35.58649],[127.88386,35.58665],[127.88367,35.58692],[127.88363,35.58705],[127.8836,35.58724],[127.8836,35.58737],[127.88366,35.5875],[127.88466,35.58868],[127.88477,35.58881],[127.88489,35.58893],[127.88772,35.59162],[127.88788,35.59177],[127.88893,35.59245],[127.88922,35.59259],[127.89234,35.59512],[127.89656,35.59867],[127.89915,35.602],[127.89927,35.60219],[127.9004,35.60348],[127.90328,35.60561],[127.90361,35.6058],[127.90764,35.60801],[127.9078,35.60806],[127.90993,35.60855],[127.91024,35.60861],[127.91044,35.60861],[127.91076,35.60848],[127.91108,35.60829],[127.9115,35.60802],[127.9116,35.60791],[127.91207,35.60701],[127.91327,35.60372],[127.91369,35.60239],[127.91384,35.60225],[127.91419,35.60201],[127.91452,35.60183],[127.91458,35.60171],[127.91484,35.60069],[127.91493,35.60022],[127.9153,35.59567],[127.91546,35.59213],[127.9154,35.59172],[127.9154,35.5914],[127.91592,35.5888],[127.91606,35.58855],[127.91612,35.58848],[127.91621,35.58839],[127.91642,35.58837],[127.91654,35.58841],[127.91674,35.58855],[127.91689,35.58873],[127.91713,35.58915],[127.91738,35.58946],[127.91762,35.58966],[127.91806,35.58987],[127.91944,35.59051],[127.9233,35.5924],[127.9238,35.5931],[127.92392,35.5932],[127.92609,35.59476],[127.92892,35.5966],[127.9323,35.59878],[127.93379,35.59953],[127.93425,35.59971],[127.93466,35.59986],[127.93499,35.59992],[127.93644,35.60047],[127.93878,35.6027],[127.9392,35.6033],[127.9393,35.60352],[127.93933,35.60369],[127.94629,35.60917],[127.94799,35.6102],[127.94803,35.61023],[127.94816,35.6102],[127.94843,35.61011],[127.94873,35.60994],[127.94994,35.60926],[127.95038,35.60898],[127.95326,35.60703],[127.95367,35.60701],[127.9562,35.60678],[127.96137,35.60596],[127.9635,35.60502],[127.96783,35.60346],[127.96791,35.60346],[127.96833,35.6035],[127.96873,35.60357],[127.96887,35.60366],[127.96906,35.60385],[127.96921,35.60411],[127.96932,35.60437],[127.96936,35.60462],[127.96935,35.60481],[127.96938,35.60503],[127.96941,35.60511],[127.96947,35.60515],[127.97283,35.6062],[127.97613,35.60706],[127.97691,35.6079],[127.97729,35.6083],[127.97745,35.60843],[127.97816,35.60879],[127.97827,35.60884],[127.97915,35.6091],[127.9794,35.60918],[127.97965,35.60922],[127.98044,35.60935],[127.9807,35.60939],[127.98082,35.6094],[127.98191,35.60935],[127.98204,35.60934],[127.98418,35.60894],[127.98428,35.6089],[127.98443,35.60882],[127.98471,35.60866]]]]}},{"type":"Feature","properties":{"code":"48880400","name":"가조면","parent":"48880"},"geometry":{"type":"MultiPolygon","coordinates":[[[[128.09507,35.69046],[128.0946,35.68993],[128.09381,35.68824],[128.09336,35.68695],[128.09333,35.68642],[128.09329,35.68545],[128.09288,35.68456],[128.09123,35.68202],[128.09071,35.68179],[128.08991,35.68142],[128.0891,35.68126],[128.08779,35.68124],[128.0851,35.68119],[128.08078,35.68066],[128.07881,35.68013],[128.07782,35.67967],[128.0768,35.67856],[128.07572,35.67692],[128.07535,35.67601],[128.07501,35.67452],[128.07499,35.67444],[128.07476,35.67379],[128.07305,35.6731],[128.07285,35.67303],[128.06913,35.67886],[128.06789,35.6803],[128.06792,35.68143],[128.06782,35.68181],[128.06759,35.68227],[128.06701,35.68268],[128.06668,35.68276],[128.06637,35.68274],[128.06632,35.6827],[128.06552,35.68213],[128.06466,35.68162],[128.06324,35.68084],[128.06285,35.68076],[128.06172,35.68092],[128.06123,35.68096],[128.05845,35.68066],[128.05774,35.68054],[128.05565,35.68014],[128.05513,35.67999],[128.05392,35.67963],[128.0533,35.67943],[128.05035,35.67815],[128.05014,35.67785],[128.0499,35.67712],[128.04979,35.67682],[128.04944,35.67655],[128.04903,35.67625],[128.04853,35.67588],[128.04787,35.67545],[128.04599,35.67486],[128.0451,35.67482],[128.04475,35.67472],[128.04445,35.67426],[128.04447,35.67386],[128.04515,35.67273],[128.04589,35.6716],[128.04564,35.66697],[128.04504,35.66336],[128.04452,35.66148],[128.04423,35.66095],[128.04361,35.66033],[128.04191,35.66038],[128.04075,35.66018],[128.04018,35.65994],[128.03809,35.6585],[128.03643,35.65721],[128.03596,35.65691],[128.02978,35.65455],[128.02517,35.6529],[128.02294,35.6526],[128.02095,35.65215],[128.02097,35.65296],[128.02053,35.65501],[128.02041,35.6554],[128.01422,35.6597],[128.01369,35.66002],[128.01258,35.66047],[128.01197,35.66061],[128.01113,35.66053],[128.01056,35.66045],[128.00949,35.66009],[128.00825,35.65968],[128.00783,35.65966],[128.0073,35.65966],[128.00716,35.65969],[128.00705,35.65972],[128.00674,35.66009],[128.00661,35.66065],[128.00674,35.66125],[128.00743,35.66202],[128.00903,35.66307],[128.00992,35.66347],[128.01077,35.66369],[128.01159,35.6639],[128.01277,35.66437],[128.0134,35.66485],[128.01411,35.66578],[128.01534,35.66804],[128.01526,35.67152],[128.01483,35.6721],[128.01285,35.67407],[128.00583,35.68046],[128.00511,35.68089],[128.00438,35.68115],[128.00413,35.68107],[128.00398,35.68101],[127.9943,35.68488],[127.99427,35.68489],[127.99424,35.6849],[127.99053,35.68842],[127.9905,35.68845],[127.99046,35.68849],[127.99037,35.68862],[127.98982,35.68948],[127.98979,35.68953],[127.98976,35.68959],[127.98973,35.68974],[127.98973,35.68988],[127.98974,35.69026],[127.98978,35.69061],[127.9898,35.69073],[127.98986,35.69095],[127.98999,35.69128],[127.9901,35.69161],[127.9902,35.69208],[127.99021,35.69226],[127.99019,35.69242],[127.99013,35.6925],[127.99005,35.69257],[127.98942,35.69311],[127.98936,35.69316],[127.98929,35.69321],[127.98921,35.69326],[127.98908,35.69335],[127.989,35.69339],[127.98816,35.69375],[127.9881,35.69377],[127.98805,35.69379],[127.98785,35.69381],[127.98763,35.69379],[127.98742,35.69378],[127.98714,35.69373],[127.98686,35.69368],[127.9867,35.69364],[127.98642,35.69358],[127.98622,35.69356],[127.98613,35.69355],[127.98604,35.69355],[127.98594,35.69357],[127.98587,35.69362],[127.98274,35.69564],[127.97864,35.69873],[127.97758,35.70106],[127.97896,35.7066],[127.97935,35.70809],[127.97938,35.70816],[127.97959,35.70845],[127.9797,35.70857],[127.97977,35.70865],[127.97989,35.70876],[127.98007,35.7089],[127.98012,35.70893],[127.98017,35.70897],[127.98055,35.70907],[127.98073,35.7091],[127.98087,35.7091],[127.98097,35.70952],[127.9789,35.7135],[127.97882,35.71362],[127.97871,35.71372],[127.97805,35.71415],[127.97796,35.71421],[127.97687,35.71645],[127.97769,35.71791],[127.97772,35.71909],[127.97703,35.72269],[127.97673,35.72305],[127.97662,35.72317],[127.9752,35.72452],[127.97402,35.72497],[127.97394,35.72497],[127.97372,35.72494],[127.97326,35.72488],[127.97302,35.72488],[127.97292,35.72491],[127.96971,35.72676],[127.96963,35.72683],[127.96708,35.72969],[127.96698,35.72982],[127.96636,35.73078],[127.96627,35.73149],[127.96741,35.73178],[127.96952,35.733],[127.97199,35.73429],[127.97219,35.73434],[127.97262,35.73444],[127.97299,35.73452],[127.97326,35.73457],[127.97342,35.7346],[127.97436,35.73471],[127.97801,35.7346],[127.97961,35.73435],[127.9798,35.73432],[127.98043,35.73406],[127.98047,35.73404],[127.98063,35.73396],[127.98073,35.73389],[127.98079,35.73381],[127.98082,35.73367],[127.98085,35.73339],[127.98084,35.73325],[127.98081,35.73311],[127.9808,35.73296],[127.98082,35.73285],[127.981,35.73201],[127.98205,35.72976],[127.98353,35.72696],[127.9841,35.72592],[127.98424,35.72572],[127.98432,35.72566],[127.9844,35.7256],[127.98449,35.72555],[127.98461,35.72551],[127.98756,35.72479],[127.98841,35.72458],[127.98848,35.72457],[127.98857,35.72458],[127.98875,35.72463],[127.98889,35.72467],[127.98925,35.72478],[127.98937,35.72482],[127.98963,35.72491],[127.9898,35.72499],[127.98994,35.72506],[127.99005,35.72514],[127.9901,35.72518],[127.99017,35.72526],[127.99025,35.72537],[127.99027,35.72541],[127.99002,35.72558],[127.98965,35.72631],[127.98945,35.72697],[127.98941,35.72885],[127.98958,35.7299],[127.98967,35.73003],[127.99091,35.73167],[127.99294,35.73237],[127.99341,35.73362],[127.99352,35.73391],[127.99424,35.73599],[127.99444,35.73662],[127.99458,35.73718],[127.99472,35.73731],[127.99517,35.73775],[127.99547,35.73801],[127.99575,35.73819],[127.9959,35.73826],[127.9975,35.73899],[127.99767,35.73907],[127.99848,35.73919],[128.00065,35.73946],[128.00138,35.73952],[128.00224,35.73959],[128.00478,35.74056],[128.0053,35.74097],[128.00607,35.74194],[128.00802,35.7435],[128.00831,35.74359],[128.01351,35.74436],[128.01665,35.74392],[128.0174,35.74379],[128.01846,35.74333],[128.01939,35.74236],[128.02012,35.74176],[128.02096,35.74105],[128.02115,35.74103],[128.02146,35.74099],[128.02173,35.74098],[128.02197,35.74097],[128.02204,35.74097],[128.02236,35.74099],[128.02259,35.741],[128.02302,35.74112],[128.02652,35.74335],[128.02852,35.74508],[128.02899,35.74559],[128.02984,35.74653],[128.03077,35.74794],[128.03163,35.74858],[128.03185,35.7487],[128.03197,35.74873],[128.03209,35.74875],[128.03682,35.74929],[128.04069,35.74988],[128.04121,35.75007],[128.04324,35.75163],[128.04418,35.75217],[128.04575,35.7499],[128.04852,35.74586],[128.0487,35.74538],[128.0505,35.74365],[128.05091,35.74342],[128.05181,35.74299],[128.05407,35.74165],[128.05451,35.74106],[128.05483,35.74021],[128.0555,35.7389],[128.0557,35.73852],[128.05675,35.73655],[128.0572,35.73601],[128.05779,35.73558],[128.05902,35.73226],[128.05903,35.73148],[128.05864,35.73054],[128.05862,35.73029],[128.05981,35.72868],[128.06101,35.72609],[128.06137,35.72493],[128.06137,35.72455],[128.06122,35.72408],[128.06119,35.72393],[128.06229,35.72385],[128.06656,35.72326],[128.06738,35.72303],[128.06786,35.72285],[128.07029,35.72146],[128.07116,35.72083],[128.073,35.71867],[128.07343,35.7165],[128.07388,35.71365],[128.07415,35.71192],[128.07419,35.71011],[128.07403,35.70956],[128.07413,35.70898],[128.07483,35.70752],[128.07566,35.70512],[128.07535,35.70404],[128.07446,35.70227],[128.07428,35.70185],[128.07442,35.70139],[128.07546,35.6998],[128.07622,35.6988],[128.08019,35.69604],[128.08084,35.69566],[128.08398,35.69442],[128.0847,35.69451],[128.08591,35.69456],[128.08674,35.69429],[128.08811,35.69364],[128.08929,35.69299],[128.08967,35.69263],[128.09282,35.69133],[128.09507,35.69046]]]]}},{"type":"Feature","properties":{"code":"48880410","name":"가북면","parent":"48880"},"geometry":{"type":"MultiPolygon","coordinates":[[[[128.07871,35.83893],[128.07916,35.8385],[128.07999,35.83815],[128.08107,35.83782],[128.08306,35.83725],[128.08423,35.83699],[128.08484,35.83658],[128.08506,35.83625],[128.08558,35.83533],[128.08603,35.83447],[128.08631,35.83362],[128.08657,35.83334],[128.0873,35.83273],[128.09031,35.83098],[128.09068,35.83081],[128.08957,35.82972],[128.08701,35.82561],[128.08482,35.82296],[128.08455,35.82252],[128.08441,35.81824],[128.08444,35.81807],[128.08477,35.81775],[128.08511,35.81743],[128.08495,35.81696],[128.07957,35.81436],[128.07909,35.81418],[128.0786,35.814],[128.07718,35.81389],[128.07691,35.81388],[128.0766,35.81387],[128.07523,35.81321],[128.07502,35.81298],[128.0748,35.81275],[128.07392,35.81126],[128.07359,35.81041],[128.07284,35.80918],[128.07012,35.80729],[128.06855,35.80642],[128.06618,35.80626],[128.06267,35.80606],[128.06188,35.80556],[128.06027,35.80486],[128.05939,35.80487],[128.05872,35.80511],[128.05799,35.8054],[128.05757,35.80557],[128.05457,35.80579],[128.05402,35.80567],[128.05373,35.8056],[128.04978,35.80244],[128.04918,35.80125],[128.04942,35.80054],[128.0497,35.8001],[128.04954,35.79958],[128.04811,35.79699],[128.04762,35.7961],[128.04704,35.79544],[128.04056,35.79166],[128.03893,35.79128],[128.03832,35.79118],[128.03807,35.79108],[128.03657,35.78879],[128.03613,35.78805],[128.03568,35.78636],[128.03564,35.78614],[128.03782,35.78279],[128.04024,35.78012],[128.04063,35.77999],[128.04102,35.77986],[128.04515,35.77904],[128.04876,35.77859],[128.05093,35.77783],[128.0527,35.77467],[128.05271,35.77389],[128.05088,35.77132],[128.04956,35.76951],[128.04946,35.76926],[128.04944,35.76753],[128.04952,35.7671],[128.05059,35.76429],[128.05121,35.76218],[128.05133,35.76156],[128.05125,35.76114],[128.04945,35.75752],[128.04899,35.75669],[128.04818,35.75571],[128.04588,35.75325],[128.04451,35.75238],[128.04418,35.75217],[128.04324,35.75163],[128.04121,35.75007],[128.04069,35.74988],[128.03682,35.74929],[128.03209,35.74875],[128.03197,35.74873],[128.03185,35.7487],[128.03163,35.74858],[128.03077,35.74794],[128.02984,35.74653],[128.02899,35.74559],[128.02852,35.74508],[128.02652,35.74335],[128.02302,35.74112],[128.02259,35.741],[128.02236,35.74099],[128.02204,35.74097],[128.02197,35.74097],[128.02173,35.74098],[128.02146,35.74099],[128.02115,35.74103],[128.02096,35.74105],[128.02012,35.74176],[128.01939,35.74236],[128.01846,35.74333],[128.0174,35.74379],[128.01665,35.74392],[128.01351,35.74436],[128.00831,35.74359],[128.00802,35.7435],[128.00607,35.74194],[128.0053,35.74097],[128.00478,35.74056],[128.00224,35.73959],[128.00138,35.73952],[128.00065,35.73946],[127.99848,35.73919],[127.99767,35.73907],[127.9975,35.73899],[127.9959,35.73826],[127.99575,35.73819],[127.99547,35.73801],[127.99517,35.73775],[127.99472,35.73731],[127.99458,35.73718],[127.99444,35.73662],[127.99424,35.73599],[127.99352,35.73391],[127.99341,35.73362],[127.99294,35.73237],[127.99091,35.73167],[127.98967,35.73003],[127.98958,35.7299],[127.98941,35.72885],[127.98945,35.72697],[127.98965,35.72631],[127.99002,35.72558],[127.99027,35.72541],[127.99025,35.72537],[127.99017,35.72526],[127.9901,35.72518],[127.99005,35.72514],[127.98994,35.72506],[127.9898,35.72499],[127.98963,35.72491],[127.98937,35.72482],[127.98925,35.72478],[127.98889,35.72467],[127.98875,35.72463],[127.98857,35.72458],[127.98848,35.72457],[127.98841,35.72458],[127.98756,35.72479],[127.98461,35.72551],[127.98449,35.72555],[127.9844,35.7256],[127.98432,35.72566],[127.98424,35.72572],[127.9841,35.72592],[127.98353,35.72696],[127.98205,35.72976],[127.981,35.73201],[127.98082,35.73285],[127.9808,35.73296],[127.98081,35.73311],[127.98084,35.73325],[127.98085,35.73339],[127.98082,35.73367],[127.98079,35.73381],[127.98073,35.73389],[127.98063,35.73396],[127.98047,35.73404],[127.98043,35.73406],[127.9798,35.73432],[127.97961,35.73435],[127.97801,35.7346],[127.97436,35.73471],[127.97342,35.7346],[127.97326,35.73457],[127.97299,35.73452],[127.97262,35.73444],[127.97219,35.73434],[127.97199,35.73429],[127.96952,35.733],[127.96741,35.73178],[127.96627,35.73149],[127.9636,35.73248],[127.96228,35.73288],[127.96327,35.73445],[127.96332,35.73454],[127.9635,35.73539],[127.96352,35.73555],[127.96306,35.73694],[127.96296,35.73708],[127.96283,35.73718],[127.96261,35.73735],[127.96239,35.73755],[127.96215,35.73795],[127.96215,35.73801],[127.96301,35.7398],[127.96409,35.74121],[127.96418,35.7413],[127.9643,35.74137],[127.96442,35.7414],[127.96518,35.74161],[127.96525,35.744],[127.96522,35.74565],[127.96522,35.74581],[127.96726,35.74878],[127.96872,35.74992],[127.9688,35.74995],[127.96988,35.75053],[127.97006,35.75066],[127.97021,35.7508],[127.97025,35.75088],[127.97048,35.75154],[127.97049,35.75164],[127.97036,35.7522],[127.97032,35.75236],[127.97026,35.75251],[127.9699,35.75302],[127.96956,35.75349],[127.96651,35.75631],[127.96453,35.75762],[127.96382,35.75807],[127.96186,35.76163],[127.96144,35.76298],[127.96132,35.76336],[127.9617,35.76396],[127.96236,35.76503],[127.96305,35.76639],[127.96337,35.76822],[127.96342,35.76863],[127.96299,35.77073],[127.9639,35.77325],[127.96446,35.77363],[127.96469,35.77378],[127.96401,35.77499],[127.96193,35.77753],[127.96083,35.77831],[127.95924,35.78112],[127.95898,35.78669],[127.95752,35.79052],[127.95717,35.79187],[127.95717,35.79336],[127.95788,35.79818],[127.95816,35.79993],[127.95845,35.80032],[127.95931,35.80239],[127.96018,35.80501],[127.96191,35.80925],[127.96317,35.81159],[127.96326,35.81195],[127.96372,35.81388],[127.96369,35.81452],[127.96363,35.81529],[127.96346,35.81622],[127.96284,35.8175],[127.96193,35.8188],[127.96037,35.82011],[127.95972,35.82096],[127.95969,35.82149],[127.95974,35.8216],[127.95976,35.82165],[127.96003,35.82226],[127.96004,35.82264],[127.95985,35.8229],[127.95902,35.82351],[127.95694,35.82449],[127.95632,35.82516],[127.95627,35.82522],[127.95624,35.82525],[127.95588,35.8263],[127.95602,35.82688],[127.95687,35.82796],[127.95704,35.82832],[127.95798,35.83051],[127.95854,35.83193],[127.95866,35.83358],[127.95876,35.83537],[127.95863,35.83591],[127.95826,35.83704],[127.95841,35.8376],[127.95874,35.83776],[127.95974,35.83798],[127.96077,35.83816],[127.9611,35.83832],[127.96235,35.83955],[127.96285,35.84008],[127.96738,35.84541],[127.9687,35.84812],[127.9691,35.84877],[127.96991,35.84979],[127.97115,35.85117],[127.97128,35.85113],[127.9716,35.85105],[127.97193,35.851],[127.97216,35.85096],[127.97327,35.85081],[127.97373,35.85087],[127.97471,35.85148],[127.9753,35.8519],[127.97763,35.85413],[127.97788,35.85437],[127.97989,35.85658],[127.98149,35.85838],[127.98181,35.8589],[127.98368,35.85828],[127.98537,35.85739],[127.98739,35.8542],[127.98822,35.85137],[127.9891,35.85029],[127.99124,35.84822],[127.99163,35.84734],[127.9917,35.8467],[127.99171,35.84659],[127.9921,35.84558],[127.99307,35.84403],[127.99338,35.84353],[127.99464,35.84242],[127.99646,35.84053],[127.99679,35.83934],[127.99687,35.83857],[127.99741,35.83775],[127.99799,35.83744],[128.0001,35.83659],[128.00078,35.83638],[128.00213,35.83619],[128.00412,35.83557],[128.00428,35.8355],[128.0045,35.83542],[128.00613,35.83435],[128.00687,35.83375],[128.00796,35.83206],[128.00841,35.831],[128.01106,35.82908],[128.01193,35.82889],[128.01214,35.82886],[128.01224,35.82897],[128.01267,35.82947],[128.01397,35.83042],[128.01472,35.83083],[128.01983,35.83298],[128.02128,35.83334],[128.02175,35.83333],[128.02227,35.83321],[128.02361,35.83288],[128.02469,35.83292],[128.02554,35.83327],[128.02751,35.83459],[128.0277,35.83469],[128.02828,35.83501],[128.02957,35.83549],[128.031,35.83575],[128.03143,35.83573],[128.03162,35.83571],[128.03834,35.83384],[128.0395,35.83321],[128.03971,35.83298],[128.04007,35.83259],[128.04152,35.83163],[128.0426,35.83102],[128.04759,35.82974],[128.04998,35.82932],[128.05084,35.82926],[128.05133,35.82958],[128.0517,35.83013],[128.05173,35.83045],[128.05186,35.83086],[128.05196,35.83118],[128.05284,35.83247],[128.05325,35.83279],[128.05466,35.83336],[128.0553,35.83336],[128.05645,35.83327],[128.05919,35.83374],[128.06145,35.83449],[128.0635,35.83638],[128.06393,35.8369],[128.06444,35.83722],[128.0651,35.83763],[128.07041,35.84069],[128.0713,35.84046],[128.07149,35.84031],[128.07151,35.84029],[128.07226,35.83959],[128.07412,35.83889],[128.07521,35.83884],[128.07623,35.83883],[128.07714,35.83908],[128.07742,35.83913],[128.07825,35.83916],[128.07871,35.83893]]]]}}]}