{"type":"FeatureCollection","features":[{"type":"Feature","properties":{"code":"41310510","name":"갈매동","parent":"41310"},"geometry":{"type":"MultiPolygon","coordinates":[[[[127.12903,37.64169],[127.12913,37.64153],[127.12923,37.64093],[127.12944,37.63739],[127.12944,37.63682],[127.12944,37.63677],[127.12943,37.63667],[127.12872,37.63416],[127.1285,37.634],[127.12793,37.6305],[127.12771,37.62799],[127.12761,37.62726],[127.12718,37.62604],[127.12715,37.62597],[127.12704,37.62591],[127.12566,37.6253],[127.12305,37.62391],[127.11771,37.62097],[127.11708,37.62058],[127.11663,37.62017],[127.11567,37.61929],[127.11399,37.61942],[127.11395,37.61943],[127.11383,37.61949],[127.11274,37.62007],[127.11148,37.62061],[127.11134,37.62065],[127.11098,37.62076],[127.11085,37.62078],[127.11064,37.62079],[127.11039,37.62079],[127.11024,37.62077],[127.11012,37.62076],[127.11001,37.62074],[127.10983,37.62071],[127.10951,37.62064],[127.10908,37.62052],[127.10875,37.62046],[127.10735,37.6205],[127.10614,37.6206],[127.10604,37.62064],[127.10582,37.62078],[127.10571,37.62083],[127.10572,37.6209],[127.1057,37.62095],[127.10566,37.621],[127.10562,37.62102],[127.1055,37.62106],[127.10542,37.62111],[127.10537,37.62113],[127.1053,37.62115],[127.10525,37.62116],[127.10511,37.62117],[127.10502,37.62117],[127.10496,37.62117],[127.10435,37.62146],[127.10429,37.62149],[127.10424,37.62152],[127.10407,37.62166],[127.10403,37.62169],[127.10398,37.62177],[127.10366,37.62247],[127.10351,37.6229],[127.10353,37.62304],[127.10353,37.62307],[127.10526,37.62691],[127.10537,37.62714],[127.10549,37.62726],[127.10862,37.62914],[127.11042,37.63014],[127.11084,37.63047],[127.11091,37.63053],[127.11098,37.63059],[127.11142,37.63133],[127.11204,37.63262],[127.11238,37.63523],[127.11195,37.64027],[127.11134,37.642],[127.11115,37.64241],[127.11181,37.64331],[127.11187,37.64338],[127.11193,37.64342],[127.11199,37.64345],[127.11268,37.64364],[127.11284,37.64367],[127.1154,37.64402],[127.11566,37.64394],[127.11574,37.64389],[127.11587,37.64381],[127.11599,37.64372],[127.1161,37.64362],[127.11638,37.64344],[127.11651,37.6434],[127.11673,37.64336],[127.11707,37.6433],[127.11916,37.64295],[127.12089,37.64259],[127.12702,37.64132],[127.12903,37.64169]]]]}},{"type":"Feature","properties":{"code":"41310520","name":"동구동","parent":"41310"},"geometry":{"type":"MultiPolygon","coordinates":[[[[127.15026,37.63943],[127.15023,37.63925],[127.15021,37.63919],[127.15002,37.63772],[127.14986,37.63635],[127.14983,37.63604],[127.14983,37.63586],[127.14983,37.63559],[127.14984,37.63543],[127.14983,37.6351],[127.14975,37.63417],[127.14972,37.63397],[127.1497,37.63384],[127.14965,37.63365],[127.14959,37.63343],[127.14951,37.63325],[127.14944,37.63306],[127.1492,37.63264],[127.14902,37.63235],[127.14845,37.63182],[127.14814,37.63155],[127.1465,37.63027],[127.14539,37.62956],[127.14496,37.62936],[127.14467,37.62925],[127.14454,37.62915],[127.14448,37.62911],[127.14437,37.62896],[127.14336,37.62689],[127.14315,37.62625],[127.14309,37.62603],[127.14308,37.62598],[127.14307,37.62596],[127.14306,37.62589],[127.14304,37.62571],[127.14302,37.62535],[127.14298,37.62394],[127.14299,37.62386],[127.14299,37.62379],[127.14307,37.62304],[127.14308,37.62299],[127.14314,37.62253],[127.14323,37.62206],[127.14339,37.62127],[127.14341,37.62122],[127.14343,37.6211],[127.14325,37.62105],[127.14328,37.62098],[127.14343,37.62063],[127.14374,37.62006],[127.14385,37.61987],[127.14408,37.61944],[127.1443,37.61908],[127.14453,37.61868],[127.14481,37.61824],[127.14506,37.61784],[127.14576,37.61688],[127.14578,37.61685],[127.14702,37.61513],[127.14731,37.61404],[127.14762,37.61143],[127.14773,37.60937],[127.1484,37.60615],[127.14895,37.60467],[127.14852,37.60448],[127.14791,37.60432],[127.14753,37.60423],[127.14664,37.60403],[127.13972,37.60245],[127.13917,37.60282],[127.13865,37.60321],[127.13859,37.60328],[127.13569,37.60765],[127.13499,37.60901],[127.13266,37.61198],[127.12922,37.61324],[127.12693,37.61462],[127.12632,37.61507],[127.12613,37.61523],[127.12357,37.61619],[127.1197,37.61639],[127.11926,37.6164],[127.11697,37.61743],[127.11567,37.61929],[127.11663,37.62017],[127.11708,37.62058],[127.11771,37.62097],[127.12305,37.62391],[127.12566,37.6253],[127.12704,37.62591],[127.12715,37.62597],[127.12718,37.62604],[127.12761,37.62726],[127.12771,37.62799],[127.12793,37.6305],[127.1285,37.634],[127.12872,37.63416],[127.12943,37.63667],[127.12944,37.63677],[127.12944,37.63682],[127.12944,37.63739],[127.12923,37.64093],[127.12913,37.64153],[127.12903,37.64169],[127.1294,37.64139],[127.12951,37.64136],[127.12956,37.64134],[127.12978,37.64127],[127.13011,37.64119],[127.13059,37.64115],[127.13106,37.64133],[127.13122,37.64148],[127.13141,37.64167],[127.13235,37.64264],[127.13275,37.64309],[127.13296,37.64329],[127.13311,37.64341],[127.13321,37.64349],[127.13339,37.6436],[127.13911,37.64582],[127.13951,37.64597],[127.13973,37.64604],[127.14036,37.64621],[127.14087,37.6463],[127.14121,37.64625],[127.14127,37.64624],[127.14149,37.6462],[127.14175,37.64613],[127.14205,37.64597],[127.1422,37.64588],[127.14252,37.64569],[127.14292,37.6454],[127.14297,37.64527],[127.14298,37.64523],[127.1431,37.64508],[127.14386,37.64453],[127.14428,37.64438],[127.14507,37.6443],[127.14544,37.6443],[127.14585,37.64427],[127.14609,37.64419],[127.14614,37.64417],[127.14626,37.64409],[127.14646,37.64393],[127.14665,37.64378],[127.14685,37.64355],[127.14695,37.64342],[127.14711,37.6432],[127.14723,37.64291],[127.14725,37.64286],[127.14741,37.64246],[127.14748,37.64229],[127.149,37.64006],[127.14911,37.63993],[127.15026,37.63943]]]]}},{"type":"Feature","properties":{"code":"41310530","name":"인창동","parent":"41310"},"geometry":{"type":"MultiPolygon","coordinates":[[[[127.14895,37.60467],[127.1492,37.60403],[127.14708,37.60351],[127.14661,37.60331],[127.14529,37.60275],[127.14492,37.60259],[127.14472,37.60251],[127.14382,37.60211],[127.14312,37.6018],[127.14272,37.60162],[127.14231,37.60144],[127.14209,37.60134],[127.14077,37.60079],[127.1401,37.60051],[127.14004,37.60051],[127.13999,37.60051],[127.13818,37.60053],[127.13589,37.60055],[127.1298,37.60153],[127.12866,37.60288],[127.11987,37.60824],[127.11745,37.60955],[127.1168,37.60991],[127.11759,37.61171],[127.11731,37.61293],[127.11693,37.61436],[127.11667,37.61577],[127.11697,37.61743],[127.11926,37.6164],[127.1197,37.61639],[127.12357,37.61619],[127.12613,37.61523],[127.12632,37.61507],[127.12693,37.61462],[127.12922,37.61324],[127.13266,37.61198],[127.13499,37.60901],[127.13569,37.60765],[127.13859,37.60328],[127.13865,37.60321],[127.13917,37.60282],[127.13972,37.60245],[127.14664,37.60403],[127.14753,37.60423],[127.14791,37.60432],[127.14852,37.60448],[127.14895,37.60467]]]]}},{"type":"Feature","properties":{"code":"41310541","name":"교문1동","parent":"41310"},"geometry":{"type":"MultiPolygon","coordinates":[[[[127.13589,37.60055],[127.13674,37.59729],[127.13736,37.59484],[127.13557,37.59435],[127.13186,37.59352],[127.13121,37.59346],[127.13122,37.59337],[127.13124,37.59321],[127.13107,37.59052],[127.12912,37.58204],[127.12827,37.57855],[127.12927,37.5771],[127.12952,37.57567],[127.13273,37.57024],[127.13382,37.56845],[127.13322,37.56819],[127.13298,37.56809],[127.13277,37.56801],[127.13228,37.56781],[127.13207,37.56772],[127.13183,37.56763],[127.13174,37.56759],[127.13146,37.56749],[127.13138,37.56745],[127.12236,37.56428],[127.12228,37.56425],[127.12175,37.56399],[127.12077,37.56351],[127.11936,37.56266],[127.11758,37.56097],[127.11682,37.56017],[127.11668,37.56002],[127.11651,37.56],[127.11548,37.55985],[127.11499,37.55995],[127.11441,37.56007],[127.11393,37.56016],[127.11348,37.56025],[127.11377,37.55889],[127.11147,37.55889],[127.11002,37.55846],[127.10896,37.55982],[127.10425,37.55988],[127.10115,37.56002],[127.10108,37.56076],[127.10108,37.56082],[127.10109,37.56091],[127.10334,37.56965],[127.10337,37.56975],[127.10338,37.56979],[127.10343,37.56989],[127.1035,37.57003],[127.10375,37.57042],[127.1038,37.57048],[127.10383,37.57053],[127.1039,37.57062],[127.10395,37.57066],[127.10398,37.57069],[127.10407,37.5708],[127.10416,37.57092],[127.10418,37.571],[127.10419,37.57105],[127.10419,37.5711],[127.10401,37.57168],[127.104,37.57171],[127.10397,37.57173],[127.10383,37.57183],[127.10369,37.57194],[127.10326,37.57223],[127.10316,37.57229],[127.10308,37.57233],[127.10297,37.57237],[127.10293,37.57237],[127.10164,37.57256],[127.10093,37.57356],[127.10126,37.57498],[127.10267,37.5783],[127.10268,37.57891],[127.10273,37.5794],[127.10275,37.5796],[127.10276,37.58106],[127.10277,37.58176],[127.10047,37.58257],[127.09975,37.58305],[127.10267,37.5841],[127.10603,37.58456],[127.10933,37.58466],[127.10953,37.58507],[127.10984,37.58597],[127.11014,37.58742],[127.1124,37.59186],[127.11391,37.59334],[127.11535,37.5935],[127.11782,37.59401],[127.11837,37.59502],[127.11802,37.59534],[127.1165,37.59678],[127.116,37.59724],[127.11596,37.59728],[127.11396,37.59942],[127.11389,37.59952],[127.11385,37.59982],[127.11383,37.59996],[127.11428,37.60035],[127.11522,37.60126],[127.11689,37.60315],[127.11801,37.60458],[127.11828,37.60628],[127.11838,37.60738],[127.11832,37.60761],[127.11821,37.60775],[127.11818,37.60779],[127.1179,37.60814],[127.11714,37.60861],[127.11662,37.60882],[127.1168,37.60991],[127.11745,37.60955],[127.11987,37.60824],[127.12866,37.60288],[127.1298,37.60153],[127.13589,37.60055]]]]}},{"type":"Feature","properties":{"code":"41310542","name":"교문2동","parent":"41310"},"geometry":{"type":"MultiPolygon","coordinates":[[[[127.13793,37.59236],[127.13787,37.59233],[127.13789,37.58776],[127.1379,37.58702],[127.1379,37.58576],[127.13792,37.58459],[127.13833,37.58447],[127.13868,37.58404],[127.13877,37.58391],[127.13947,37.58251],[127.13899,37.58222],[127.13885,37.58215],[127.13877,37.58211],[127.13847,37.58198],[127.13623,37.58096],[127.13326,37.57973],[127.13184,37.5788],[127.12927,37.5771],[127.12827,37.57855],[127.12912,37.58204],[127.13107,37.59052],[127.13124,37.59321],[127.13122,37.59337],[127.13121,37.59346],[127.13186,37.59352],[127.13557,37.59435],[127.13736,37.59484],[127.13793,37.59236]]]]}},{"type":"Feature","properties":{"code":"41310570","name":"수택1동","parent":"41310"},"geometry":{"type":"MultiPolygon","coordinates":[[[[127.15658,37.59593],[127.16287,37.59454],[127.16188,37.59361],[127.16133,37.59354],[127.15809,37.59345],[127.15583,37.59343],[127.1552,37.59343],[127.15502,37.59345],[127.15076,37.59435],[127.14874,37.59472],[127.1484,37.59484],[127.14816,37.59493],[127.14788,37.59502],[127.1477,37.59513],[127.14753,37.59523],[127.14738,37.59532],[127.14723,37.59542],[127.14627,37.59604],[127.14398,37.59755],[127.13674,37.59729],[127.13589,37.60055],[127.13818,37.60053],[127.13999,37.60051],[127.14004,37.60051],[127.1401,37.60051],[127.14077,37.60079],[127.14209,37.60134],[127.14231,37.60144],[127.14272,37.60162],[127.14312,37.6018],[127.14382,37.60211],[127.14472,37.60251],[127.14492,37.60259],[127.14529,37.60275],[127.14661,37.60331],[127.14708,37.60351],[127.1492,37.60403],[127.15061,37.60063],[127.15073,37.60045],[127.15092,37.60019],[127.15096,37.60013],[127.15198,37.59905],[127.15213,37.59889],[127.15215,37.59886],[127.15338,37.59767],[127.15408,37.59708],[127.15482,37.59667],[127.15563,37.59631],[127.15599,37.59616],[127.15658,37.59593]]]]}},{"type":"Feature","properties":{"code":"41310580","name":"수택2동","parent":"41310"},"geometry":{"type":"MultiPolygon","coordinates":[[[[127.15076,37.59435],[127.15071,37.5941],[127.15056,37.59353],[127.14998,37.59196],[127.14995,37.59188],[127.14948,37.5907],[127.14941,37.59071],[127.14865,37.59083],[127.14848,37.59086],[127.14837,37.59088],[127.14792,37.59095],[127.14706,37.59109],[127.14581,37.59129],[127.14506,37.59141],[127.13867,37.59241],[127.1385,37.5924],[127.13834,37.5924],[127.13793,37.59236],[127.13736,37.59484],[127.13674,37.59729],[127.14398,37.59755],[127.14627,37.59604],[127.14723,37.59542],[127.14738,37.59532],[127.14753,37.59523],[127.1477,37.59513],[127.14788,37.59502],[127.14816,37.59493],[127.1484,37.59484],[127.14874,37.59472],[127.15076,37.59435]]]]}},{"type":"Feature","properties":{"code":"41310590","name":"수택3동","parent":"41310"},"geometry":{"type":"MultiPolygon","coordinates":[[[[127.16857,37.57895],[127.16662,37.57892],[127.16228,37.57642],[127.15291,37.57067],[127.14924,37.56849],[127.14541,37.56827],[127.13382,37.56845],[127.13273,37.57024],[127.12952,37.57567],[127.12927,37.5771],[127.13184,37.5788],[127.13326,37.57973],[127.13623,37.58096],[127.13847,37.58198],[127.13877,37.58211],[127.13885,37.58215],[127.13899,37.58222],[127.13947,37.58251],[127.13877,37.58391],[127.13868,37.58404],[127.13833,37.58447],[127.13792,37.58459],[127.1379,37.58576],[127.1379,37.58702],[127.13789,37.58776],[127.13787,37.59233],[127.13793,37.59236],[127.13834,37.5924],[127.1385,37.5924],[127.13867,37.59241],[127.14506,37.59141],[127.14581,37.59129],[127.14706,37.59109],[127.14792,37.59095],[127.14837,37.59088],[127.14848,37.59086],[127.14865,37.59083],[127.14941,37.59071],[127.14948,37.5907],[127.14995,37.59188],[127.14998,37.59196],[127.15056,37.59353],[127.15071,37.5941],[127.15076,37.59435],[127.15502,37.59345],[127.1552,37.59343],[127.15583,37.59343],[127.15809,37.59345],[127.16133,37.59354],[127.16188,37.59361],[127.16287,37.59454],[127.16445,37.59422],[127.16484,37.59427],[127.16493,37.59428],[127.16546,37.59434],[127.16783,37.59421],[127.16798,37.59419],[127.16821,37.59406],[127.16839,37.59393],[127.16861,37.59371],[127.16906,37.59288],[127.16918,37.59252],[127.1692,37.59223],[127.1692,37.59218],[127.1692,37.5921],[127.16871,37.59092],[127.16852,37.59063],[127.16831,37.59047],[127.16806,37.59038],[127.16771,37.59028],[127.16753,37.59025],[127.16722,37.5902],[127.16684,37.59012],[127.166,37.58988],[127.16487,37.5898],[127.16373,37.59],[127.16257,37.58962],[127.16187,37.5893],[127.16092,37.58835],[127.16062,37.58775],[127.16046,37.58665],[127.16082,37.58579],[127.16228,37.58453],[127.16357,37.58429],[127.16555,37.58423],[127.17076,37.58092],[127.16936,37.58033],[127.16856,37.57983],[127.16857,37.57895]]]]}}]}