{"type":"FeatureCollection","features":[{"type":"Feature","properties":{"code":"28237510","name":"부평1동","parent":"28237"},"geometry":{"type":"MultiPolygon","coordinates":[[[[126.72298,37.49398],[126.72302,37.49304],[126.72308,37.49222],[126.72314,37.49148],[126.72325,37.49141],[126.72496,37.4913],[126.7265,37.49122],[126.72849,37.4911],[126.72887,37.49107],[126.72917,37.49105],[126.72933,37.49103],[126.72948,37.491],[126.72958,37.49095],[126.72962,37.49088],[126.72966,37.49071],[126.72967,37.49049],[126.72965,37.49036],[126.72962,37.49011],[126.7295,37.4891],[126.72681,37.48891],[126.72156,37.48962],[126.71726,37.48947],[126.71636,37.49108],[126.71619,37.49782],[126.71618,37.49857],[126.71617,37.49908],[126.71608,37.5035],[126.71513,37.50359],[126.72071,37.5065],[126.72104,37.50662],[126.72216,37.50017],[126.7226,37.49599],[126.72281,37.4942],[126.72298,37.49398]]]]}},{"type":"Feature","properties":{"code":"28237520","name":"부평2동","parent":"28237"},"geometry":{"type":"MultiPolygon","coordinates":[[[[126.73035,37.47918],[126.73246,37.47754],[126.7327,37.47718],[126.73277,37.47699],[126.73303,37.47579],[126.73308,37.47447],[126.73303,37.4744],[126.73118,37.47244],[126.73054,37.47253],[126.72974,37.4724],[126.72828,37.47185],[126.72816,37.47177],[126.72809,37.47164],[126.72789,37.47128],[126.72778,37.4711],[126.72756,37.47075],[126.72745,37.47062],[126.72714,37.47039],[126.727,37.47031],[126.72685,37.47029],[126.72512,37.47014],[126.72475,37.47011],[126.72349,37.47005],[126.72285,37.47027],[126.7227,37.47061],[126.71968,37.47362],[126.71753,37.47543],[126.71702,37.47577],[126.71631,37.47622],[126.71604,37.47637],[126.71587,37.47641],[126.71435,37.47654],[126.71286,37.47638],[126.71274,37.47638],[126.71265,37.4764],[126.71253,37.47653],[126.71213,37.47697],[126.71191,37.47735],[126.71094,37.47962],[126.71161,37.48155],[126.71207,37.48329],[126.71209,37.48339],[126.71213,37.48358],[126.71217,37.48379],[126.7127,37.48546],[126.71279,37.48564],[126.71305,37.48612],[126.71326,37.48644],[126.71354,37.4868],[126.71362,37.48689],[126.71726,37.48947],[126.72156,37.48962],[126.72114,37.48886],[126.7218,37.48797],[126.7223,37.48721],[126.72228,37.48648],[126.72213,37.48563],[126.72229,37.48406],[126.72333,37.48137],[126.72603,37.4802],[126.72933,37.47906],[126.72957,37.47906],[126.73035,37.47918]]]]}},{"type":"Feature","properties":{"code":"28237530","name":"부평3동","parent":"28237"},"geometry":{"type":"MultiPolygon","coordinates":[[[[126.71726,37.48947],[126.71362,37.48689],[126.71354,37.4868],[126.71326,37.48644],[126.71305,37.48612],[126.71279,37.48564],[126.7127,37.48546],[126.71217,37.48379],[126.71213,37.48358],[126.71209,37.48339],[126.71207,37.48329],[126.71161,37.48155],[126.71094,37.47962],[126.70961,37.47589],[126.7063,37.47631],[126.70626,37.47631],[126.70616,37.47643],[126.70604,37.47655],[126.70675,37.47866],[126.70719,37.47906],[126.70709,37.4802],[126.70675,37.48064],[126.7065,37.48084],[126.70456,37.48094],[126.70411,37.48203],[126.70402,37.48409],[126.70399,37.48412],[126.70353,37.48464],[126.70293,37.48485],[126.70135,37.4851],[126.70154,37.48661],[126.7024,37.48719],[126.70345,37.48729],[126.70639,37.48711],[126.70712,37.48706],[126.71053,37.49003],[126.71126,37.49046],[126.71192,37.4908],[126.7122,37.49089],[126.71298,37.49093],[126.71349,37.49096],[126.71356,37.49096],[126.71471,37.49101],[126.71592,37.49106],[126.71636,37.49108],[126.71726,37.48947]]]]}},{"type":"Feature","properties":{"code":"28237540","name":"부평4동","parent":"28237"},"geometry":{"type":"MultiPolygon","coordinates":[[[[126.73122,37.50702],[126.73113,37.50529],[126.73099,37.50389],[126.7308,37.50193],[126.73054,37.49937],[126.73041,37.49812],[126.72687,37.49462],[126.7266,37.4944],[126.72642,37.49434],[126.72298,37.49398],[126.72281,37.4942],[126.7226,37.49599],[126.72216,37.50017],[126.72104,37.50662],[126.7208,37.50736],[126.73036,37.50703],[126.73122,37.50702]]]]}},{"type":"Feature","properties":{"code":"28237550","name":"부평5동","parent":"28237"},"geometry":{"type":"MultiPolygon","coordinates":[[[[126.73379,37.4979],[126.73365,37.49656],[126.73354,37.49549],[126.73333,37.4934],[126.7343,37.49212],[126.7346,37.49201],[126.7338,37.48967],[126.73232,37.48898],[126.7295,37.4891],[126.72962,37.49011],[126.72965,37.49036],[126.72967,37.49049],[126.72966,37.49071],[126.72962,37.49088],[126.72958,37.49095],[126.72948,37.491],[126.72933,37.49103],[126.72917,37.49105],[126.72887,37.49107],[126.72849,37.4911],[126.7265,37.49122],[126.72496,37.4913],[126.72325,37.49141],[126.72314,37.49148],[126.72308,37.49222],[126.72302,37.49304],[126.72298,37.49398],[126.72642,37.49434],[126.7266,37.4944],[126.72687,37.49462],[126.73041,37.49812],[126.73054,37.49937],[126.7308,37.50193],[126.73099,37.50389],[126.73113,37.50529],[126.73272,37.50502],[126.73287,37.50495],[126.73389,37.50349],[126.73409,37.50319],[126.73427,37.50274],[126.73425,37.50252],[126.73395,37.49955],[126.73395,37.49948],[126.73388,37.49881],[126.73384,37.49847],[126.73379,37.4979]]]]}},{"type":"Feature","properties":{"code":"28237560","name":"부평6동","parent":"28237"},"geometry":{"type":"MultiPolygon","coordinates":[[[[126.7295,37.4891],[126.73232,37.48898],[126.73188,37.48501],[126.73127,37.48137],[126.73035,37.47918],[126.72957,37.47906],[126.72933,37.47906],[126.72603,37.4802],[126.72333,37.48137],[126.72229,37.48406],[126.72213,37.48563],[126.72228,37.48648],[126.7223,37.48721],[126.7218,37.48797],[126.72114,37.48886],[126.72156,37.48962],[126.72681,37.48891],[126.7295,37.4891]]]]}},{"type":"Feature","properties":{"code":"28237570","name":"산곡1동","parent":"28237"},"geometry":{"type":"MultiPolygon","coordinates":[[[[126.70392,37.51302],[126.70371,37.5105],[126.70347,37.50794],[126.70317,37.50436],[126.7026,37.50439],[126.70202,37.50442],[126.69987,37.50454],[126.69965,37.50455],[126.69963,37.50452],[126.6996,37.50432],[126.69959,37.50425],[126.69953,37.50364],[126.69948,37.50313],[126.69947,37.50301],[126.69947,37.50294],[126.69955,37.50281],[126.69971,37.50275],[126.7005,37.50258],[126.70217,37.49933],[126.70258,37.49625],[126.70256,37.49615],[126.70252,37.49597],[126.69927,37.49526],[126.69904,37.49359],[126.69483,37.4917],[126.69223,37.4924],[126.69284,37.49536],[126.69048,37.49774],[126.69005,37.49792],[126.68951,37.49822],[126.68951,37.49827],[126.68952,37.49841],[126.68953,37.4985],[126.68953,37.49854],[126.68954,37.49857],[126.68973,37.49914],[126.68983,37.49928],[126.68997,37.49944],[126.69002,37.49947],[126.69071,37.49987],[126.69074,37.49989],[126.6908,37.49992],[126.691,37.5],[126.69109,37.50003],[126.69112,37.50005],[126.69223,37.5016],[126.69217,37.50187],[126.69208,37.50211],[126.69203,37.50221],[126.69122,37.5036],[126.691,37.50379],[126.68845,37.50521],[126.68876,37.50595],[126.68899,37.50672],[126.68877,37.50827],[126.6883,37.50844],[126.69061,37.51071],[126.69046,37.51167],[126.69326,37.51376],[126.69486,37.51348],[126.69864,37.51415],[126.69987,37.51404],[126.70064,37.51342],[126.70174,37.51318],[126.70392,37.51302]]]]}},{"type":"Feature","properties":{"code":"28237580","name":"산곡2동","parent":"28237"},"geometry":{"type":"MultiPolygon","coordinates":[[[[126.70891,37.50614],[126.70879,37.50496],[126.70873,37.50438],[126.7087,37.50411],[126.70853,37.50194],[126.70828,37.49886],[126.70906,37.49882],[126.70912,37.49864],[126.70762,37.4977],[126.70363,37.49654],[126.70258,37.49625],[126.70217,37.49933],[126.7005,37.50258],[126.69971,37.50275],[126.69955,37.50281],[126.69947,37.50294],[126.69947,37.50301],[126.69948,37.50313],[126.69953,37.50364],[126.69959,37.50425],[126.6996,37.50432],[126.69963,37.50452],[126.69965,37.50455],[126.69987,37.50454],[126.70202,37.50442],[126.7026,37.50439],[126.70317,37.50436],[126.70347,37.50794],[126.70371,37.5105],[126.70374,37.51052],[126.70385,37.51052],[126.70398,37.51052],[126.70429,37.5105],[126.70471,37.51047],[126.70928,37.51019],[126.70929,37.51017],[126.70896,37.50669],[126.70891,37.50614]]]]}},{"type":"Feature","properties":{"code":"28237581","name":"산곡3동","parent":"28237"},"geometry":{"type":"MultiPolygon","coordinates":[[[[126.71619,37.49782],[126.71636,37.49108],[126.71592,37.49106],[126.71471,37.49101],[126.71356,37.49096],[126.71349,37.49096],[126.71298,37.49093],[126.7122,37.49089],[126.71192,37.4908],[126.71126,37.49046],[126.71053,37.49003],[126.70712,37.48706],[126.70639,37.48711],[126.70345,37.48729],[126.7024,37.48719],[126.70154,37.48661],[126.70047,37.48652],[126.69991,37.48664],[126.69963,37.48697],[126.69941,37.48839],[126.69793,37.48985],[126.69528,37.49129],[126.69509,37.49146],[126.69483,37.4917],[126.69904,37.49359],[126.69927,37.49526],[126.70252,37.49597],[126.70256,37.49615],[126.70258,37.49625],[126.70363,37.49654],[126.70762,37.4977],[126.70912,37.49864],[126.70906,37.49882],[126.71457,37.49889],[126.71619,37.49782]]]]}},{"type":"Feature","properties":{"code":"28237582","name":"산곡4동","parent":"28237"},"geometry":{"type":"MultiPolygon","coordinates":[[[[126.71513,37.50359],[126.71608,37.5035],[126.71617,37.49908],[126.71618,37.49857],[126.71619,37.49782],[126.71457,37.49889],[126.70906,37.49882],[126.70828,37.49886],[126.70853,37.50194],[126.7087,37.50411],[126.70873,37.50438],[126.70879,37.50496],[126.70891,37.50614],[126.7123,37.50626],[126.71513,37.50359]]]]}},{"type":"Feature","properties":{"code":"28237591","name":"청천1동","parent":"28237"},"geometry":{"type":"MultiPolygon","coordinates":[[[[126.70497,37.52363],[126.70484,37.52306],[126.70392,37.51302],[126.70174,37.51318],[126.70064,37.51342],[126.69987,37.51404],[126.69864,37.51415],[126.69486,37.51348],[126.69326,37.51376],[126.69046,37.51167],[126.69061,37.51071],[126.6883,37.50844],[126.68685,37.50913],[126.68696,37.51225],[126.685,37.51349],[126.68448,37.51431],[126.68328,37.51466],[126.68327,37.51491],[126.68322,37.517],[126.68325,37.51715],[126.68337,37.51744],[126.68341,37.51753],[126.68445,37.51891],[126.68563,37.52007],[126.68614,37.52051],[126.68613,37.52172],[126.68752,37.52255],[126.68885,37.52285],[126.68913,37.52347],[126.68916,37.52356],[126.69789,37.52361],[126.70497,37.52363]]]]}},{"type":"Feature","properties":{"code":"28237592","name":"청천2동","parent":"28237"},"geometry":{"type":"MultiPolygon","coordinates":[[[[126.72071,37.5065],[126.71513,37.50359],[126.7123,37.50626],[126.70891,37.50614],[126.70896,37.50669],[126.70929,37.51017],[126.70928,37.51019],[126.70471,37.51047],[126.70429,37.5105],[126.70398,37.51052],[126.70385,37.51052],[126.70374,37.51052],[126.70371,37.5105],[126.70392,37.51302],[126.70484,37.52306],[126.70497,37.52363],[126.71916,37.52377],[126.72213,37.52381],[126.72209,37.52311],[126.7218,37.51999],[126.72131,37.5154],[126.7207,37.51014],[126.72047,37.5099],[126.72036,37.50933],[126.72032,37.50892],[126.72031,37.50789],[126.72071,37.5065]]]]}},{"type":"Feature","properties":{"code":"28237641","name":"갈산1동","parent":"28237"},"geometry":{"type":"MultiPolygon","coordinates":[[[[126.72589,37.5238],[126.72772,37.52381],[126.73299,37.52386],[126.73228,37.51765],[126.73198,37.51479],[126.729,37.51384],[126.72882,37.51381],[126.72862,37.5138],[126.72852,37.51381],[126.72839,37.51384],[126.72775,37.51403],[126.72706,37.51424],[126.72685,37.51431],[126.72564,37.51462],[126.7255,37.51462],[126.72541,37.51457],[126.72482,37.51418],[126.7228,37.5128],[126.72253,37.51256],[126.72248,37.5125],[126.72216,37.51207],[126.72128,37.51056],[126.72115,37.51034],[126.72108,37.51013],[126.72103,37.50993],[126.72086,37.50919],[126.72073,37.50762],[126.7208,37.50736],[126.72104,37.50662],[126.72071,37.5065],[126.72031,37.50789],[126.72032,37.50892],[126.72036,37.50933],[126.72047,37.5099],[126.7207,37.51014],[126.72131,37.5154],[126.7218,37.51999],[126.72209,37.52311],[126.72213,37.52381],[126.72589,37.5238]]]]}},{"type":"Feature","properties":{"code":"28237642","name":"갈산2동","parent":"28237"},"geometry":{"type":"MultiPolygon","coordinates":[[[[126.73122,37.50702],[126.73036,37.50703],[126.7208,37.50736],[126.72073,37.50762],[126.72086,37.50919],[126.72103,37.50993],[126.72108,37.51013],[126.72115,37.51034],[126.72128,37.51056],[126.72216,37.51207],[126.72248,37.5125],[126.72253,37.51256],[126.7228,37.5128],[126.72482,37.51418],[126.72541,37.51457],[126.7255,37.51462],[126.72564,37.51462],[126.72685,37.51431],[126.72706,37.51424],[126.72775,37.51403],[126.72839,37.51384],[126.72852,37.51381],[126.72862,37.5138],[126.72882,37.51381],[126.729,37.51384],[126.73198,37.51479],[126.73191,37.51403],[126.73122,37.50702]]]]}},{"type":"Feature","properties":{"code":"28237646","name":"삼산1동","parent":"28237"},"geometry":{"type":"MultiPolygon","coordinates":[[[[126.76034,37.5241],[126.761,37.51798],[126.76012,37.51797],[126.76035,37.51682],[126.76028,37.51586],[126.75957,37.51556],[126.75497,37.51659],[126.752,37.51641],[126.74998,37.51647],[126.74885,37.51656],[126.74675,37.51673],[126.74592,37.5168],[126.74518,37.51687],[126.7443,37.51693],[126.74364,37.51698],[126.74348,37.517],[126.74078,37.51715],[126.74017,37.51718],[126.73998,37.51716],[126.73228,37.51765],[126.73299,37.52386],[126.73349,37.52387],[126.73586,37.52391],[126.73619,37.52391],[126.74511,37.524],[126.75136,37.52405],[126.75574,37.52407],[126.76034,37.5241]]]]}},{"type":"Feature","properties":{"code":"28237650","name":"부개1동","parent":"28237"},"geometry":{"type":"MultiPolygon","coordinates":[[[[126.74242,37.48843],[126.7426,37.48665],[126.74242,37.48576],[126.74207,37.48474],[126.74184,37.48409],[126.74119,37.48372],[126.74023,37.48334],[126.73878,37.48246],[126.7383,37.4821],[126.73815,37.4818],[126.73719,37.48015],[126.73632,37.47952],[126.73459,37.47834],[126.73322,37.47765],[126.73306,37.47758],[126.73302,37.47757],[126.73246,37.47754],[126.73035,37.47918],[126.73127,37.48137],[126.73188,37.48501],[126.73232,37.48898],[126.7399,37.48857],[126.74242,37.48843]]]]}},{"type":"Feature","properties":{"code":"28237660","name":"부개2동","parent":"28237"},"geometry":{"type":"MultiPolygon","coordinates":[[[[126.74256,37.49722],[126.74163,37.4951],[126.74187,37.49254],[126.74241,37.48881],[126.74242,37.48849],[126.74242,37.48843],[126.7399,37.48857],[126.73232,37.48898],[126.7338,37.48967],[126.7346,37.49201],[126.7343,37.49212],[126.73333,37.4934],[126.73354,37.49549],[126.73365,37.49656],[126.73379,37.4979],[126.74256,37.49722]]]]}},{"type":"Feature","properties":{"code":"28237661","name":"부개3동","parent":"28237"},"geometry":{"type":"MultiPolygon","coordinates":[[[[126.74216,37.50645],[126.74266,37.50512],[126.74296,37.50361],[126.74362,37.50148],[126.74256,37.49722],[126.73379,37.4979],[126.73384,37.49847],[126.73388,37.49881],[126.73395,37.49948],[126.73395,37.49955],[126.73425,37.50252],[126.73427,37.50274],[126.73409,37.50319],[126.73389,37.50349],[126.73287,37.50495],[126.73272,37.50502],[126.73113,37.50529],[126.73122,37.50702],[126.74216,37.50645]]]]}},{"type":"Feature","properties":{"code":"28237670","name":"일신동","parent":"28237"},"geometry":{"type":"MultiPolygon","coordinates":[[[[126.76179,37.47633],[126.76222,37.47565],[126.76519,37.47523],[126.76653,37.47417],[126.76735,37.47333],[126.76752,37.47248],[126.76774,37.47176],[126.76676,37.47032],[126.76644,37.4699],[126.76637,37.4699],[126.76613,37.46997],[126.76483,37.47012],[126.76263,37.47024],[126.76253,37.47022],[126.7584,37.46956],[126.75694,37.46917],[126.75691,37.46912],[126.75678,37.46871],[126.75627,37.4679],[126.75452,37.46573],[126.75273,37.46519],[126.75172,37.4652],[126.75138,37.46523],[126.7513,37.46526],[126.75107,37.46533],[126.74971,37.46579],[126.74871,37.46585],[126.74766,37.46574],[126.74757,37.46571],[126.7472,37.46556],[126.74605,37.46482],[126.74514,37.46537],[126.74511,37.46596],[126.74488,37.46629],[126.74195,37.46915],[126.74172,37.46929],[126.73847,37.4709],[126.73662,37.47102],[126.73618,37.47098],[126.73568,37.47083],[126.73229,37.47159],[126.73118,37.47244],[126.73303,37.4744],[126.73308,37.47447],[126.73303,37.47579],[126.73277,37.47699],[126.7327,37.47718],[126.73246,37.47754],[126.73302,37.47757],[126.73306,37.47758],[126.73322,37.47765],[126.73459,37.47834],[126.73632,37.47952],[126.73719,37.48015],[126.73815,37.4818],[126.7383,37.4821],[126.73878,37.48246],[126.74023,37.48334],[126.74119,37.48372],[126.74184,37.48409],[126.74207,37.48474],[126.74242,37.48576],[126.7426,37.48665],[126.74585,37.48596],[126.74697,37.48539],[126.7498,37.48535],[126.75245,37.48457],[126.75317,37.48428],[126.75431,37.48379],[126.75452,37.4837],[126.75549,37.4828],[126.75525,37.48082],[126.75581,37.48082],[126.75621,37.47976],[126.75827,37.47882],[126.75906,37.47682],[126.76179,37.47633]]]]}},{"type":"Feature","properties":{"code":"28237680","name":"십정1동","parent":"28237"},"geometry":{"type":"MultiPolygon","coordinates":[[[[126.70135,37.4851],[126.70293,37.48485],[126.70353,37.48464],[126.70399,37.48412],[126.70402,37.48409],[126.70411,37.48203],[126.70456,37.48094],[126.7044,37.48086],[126.70399,37.48038],[126.70279,37.47895],[126.70179,37.47768],[126.70089,37.47653],[126.70019,37.4756],[126.70014,37.4755],[126.69339,37.46994],[126.69267,37.46968],[126.69247,37.46981],[126.69193,37.47017],[126.69172,37.47028],[126.69132,37.47048],[126.6907,37.47063],[126.69045,37.47064],[126.68995,37.47067],[126.68866,37.47068],[126.68861,37.4707],[126.6883,37.47077],[126.68641,37.47181],[126.68605,37.47202],[126.68404,37.47335],[126.68742,37.47631],[126.69065,37.47908],[126.69068,37.47931],[126.69084,37.4807],[126.69078,37.48085],[126.69038,37.48168],[126.69032,37.48179],[126.6902,37.48205],[126.69011,37.48226],[126.68998,37.48256],[126.68982,37.48298],[126.69263,37.48535],[126.6939,37.48565],[126.69408,37.48568],[126.69438,37.48569],[126.69449,37.48568],[126.69585,37.48523],[126.69607,37.48515],[126.70135,37.4851]]]]}},{"type":"Feature","properties":{"code":"28237690","name":"십정2동","parent":"28237"},"geometry":{"type":"MultiPolygon","coordinates":[[[[126.70961,37.47589],[126.70928,37.4746],[126.70806,37.47101],[126.70798,37.46933],[126.70663,37.46936],[126.7046,37.46854],[126.70455,37.46837],[126.70329,37.46792],[126.70325,37.46792],[126.70322,37.46792],[126.70266,37.46791],[126.69761,37.46809],[126.69706,37.46827],[126.69631,37.46858],[126.69503,37.46915],[126.69499,37.46917],[126.69387,37.46968],[126.69344,37.46987],[126.6934,37.46991],[126.69339,37.46994],[126.70014,37.4755],[126.70019,37.4756],[126.70089,37.47653],[126.70179,37.47768],[126.70279,37.47895],[126.70399,37.48038],[126.7044,37.48086],[126.70456,37.48094],[126.7065,37.48084],[126.70675,37.48064],[126.70709,37.4802],[126.70719,37.47906],[126.70675,37.47866],[126.70604,37.47655],[126.70616,37.47643],[126.70626,37.47631],[126.7063,37.47631],[126.70961,37.47589]]]]}},{"type":"Feature","properties":{"code":"28237648","name":"삼산2동","parent":"28237"},"geometry":{"type":"MultiPolygon","coordinates":[[[[126.752,37.51641],[126.75195,37.51539],[126.75189,37.51534],[126.75059,37.51498],[126.74967,37.51478],[126.74936,37.51472],[126.74879,37.51461],[126.74867,37.51459],[126.74781,37.51453],[126.74758,37.51456],[126.74732,37.5146],[126.74704,37.51466],[126.74661,37.51474],[126.74631,37.5148],[126.7458,37.51476],[126.74551,37.51465],[126.7451,37.51408],[126.74375,37.51037],[126.74158,37.50893],[126.74216,37.50645],[126.73122,37.50702],[126.73191,37.51403],[126.73198,37.51479],[126.73228,37.51765],[126.73998,37.51716],[126.74017,37.51718],[126.74078,37.51715],[126.74348,37.517],[126.74364,37.51698],[126.7443,37.51693],[126.74518,37.51687],[126.74592,37.5168],[126.74675,37.51673],[126.74885,37.51656],[126.74998,37.51647],[126.752,37.51641]]]]}}]}