{"type":"FeatureCollection","features":[{"type":"Feature","properties":{"code":"51210510","name":"영랑동","parent":"51210"},"geometry":{"type":"MultiPolygon","coordinates":[[[[128.60116,38.2141],[128.60117,38.21349],[128.60086,38.2134],[128.59992,38.21323],[128.59973,38.2132],[128.59503,38.21306],[128.5938,38.21314],[128.59174,38.21351],[128.59123,38.21314],[128.58943,38.21235],[128.58897,38.21236],[128.58813,38.21238],[128.58815,38.21315],[128.58815,38.21321],[128.58819,38.21368],[128.5882,38.21444],[128.58773,38.21582],[128.58723,38.2159],[128.58706,38.21613],[128.587,38.2162],[128.5857,38.21651],[128.58515,38.21627],[128.58388,38.21394],[128.5837,38.21356],[128.58391,38.21193],[128.58317,38.21283],[128.58306,38.21497],[128.57866,38.21595],[128.57853,38.21598],[128.57844,38.21598],[128.57833,38.21598],[128.5782,38.21595],[128.57808,38.21591],[128.57799,38.21585],[128.57786,38.21573],[128.57729,38.21502],[128.57569,38.21537],[128.57485,38.21575],[128.57375,38.21488],[128.57167,38.21329],[128.57021,38.21289],[128.57015,38.21282],[128.56999,38.21261],[128.56841,38.21063],[128.56783,38.20986],[128.56839,38.20965],[128.5669,38.20884],[128.56417,38.20685],[128.56238,38.20538],[128.56105,38.20454],[128.56045,38.20465],[128.55908,38.20493],[128.55795,38.20521],[128.55739,38.20546],[128.55709,38.20559],[128.55568,38.2064],[128.5542,38.20677],[128.55366,38.2067],[128.55025,38.20492],[128.54565,38.20347],[128.54275,38.20303],[128.53336,38.20293],[128.53332,38.20293],[128.53285,38.20297],[128.53244,38.20341],[128.52932,38.20577],[128.52627,38.20729],[128.52564,38.20783],[128.52562,38.20844],[128.52572,38.20966],[128.5272,38.21059],[128.52962,38.21171],[128.53057,38.21307],[128.53051,38.21345],[128.53203,38.2152],[128.53269,38.21562],[128.53324,38.21596],[128.53809,38.2178],[128.54074,38.21806],[128.54387,38.21767],[128.54452,38.21699],[128.5524,38.21749],[128.55468,38.2178],[128.55499,38.21785],[128.55514,38.21788],[128.55518,38.21789],[128.55523,38.2179],[128.55537,38.21793],[128.55557,38.21801],[128.55567,38.21806],[128.55574,38.21811],[128.55598,38.21829],[128.55604,38.21836],[128.55617,38.2186],[128.55629,38.21881],[128.55636,38.21891],[128.55655,38.21916],[128.55669,38.2193],[128.55675,38.21936],[128.55683,38.21941],[128.55689,38.21944],[128.55702,38.2195],[128.55716,38.21953],[128.56201,38.22067],[128.5621,38.22069],[128.56217,38.2207],[128.56228,38.2207],[128.56533,38.22046],[128.56564,38.22044],[128.56586,38.22041],[128.56636,38.22035],[128.56908,38.22073],[128.57245,38.22131],[128.5726,38.22134],[128.57291,38.22142],[128.57313,38.22149],[128.57339,38.22159],[128.57367,38.22169],[128.57389,38.2218],[128.57422,38.22196],[128.57847,38.22438],[128.57853,38.22445],[128.5786,38.2248],[128.5789,38.22533],[128.5791,38.22565],[128.57993,38.22683],[128.58037,38.22728],[128.58051,38.22739],[128.58064,38.22745],[128.58407,38.22881],[128.58421,38.22876],[128.58432,38.22872],[128.58449,38.22868],[128.58481,38.22899],[128.58487,38.2294],[128.58488,38.22948],[128.5849,38.22972],[128.58486,38.23113],[128.58564,38.23101],[128.58728,38.2277],[128.59056,38.22229],[128.59403,38.21856],[128.59627,38.21617],[128.59666,38.2158],[128.59679,38.21567],[128.59714,38.21543],[128.5982,38.21484],[128.59838,38.21475],[128.59866,38.21464],[128.59879,38.21465],[128.59891,38.21469],[128.59893,38.21478],[128.59897,38.21486],[128.59904,38.21494],[128.59927,38.21508],[128.5995,38.2151],[128.60002,38.21501],[128.60046,38.21479],[128.60071,38.2146],[128.60116,38.2141]]]]}},{"type":"Feature","properties":{"code":"51210520","name":"동명동","parent":"51210"},"geometry":{"type":"MultiPolygon","coordinates":[[[[128.60116,38.2141],[128.60149,38.21444],[128.6018,38.21468],[128.60194,38.21471],[128.60205,38.21467],[128.60225,38.21424],[128.60239,38.21329],[128.60239,38.21325],[128.60228,38.21317],[128.60155,38.21236],[128.6024,38.20937],[128.60295,38.20795],[128.60312,38.20743],[128.60266,38.2053],[128.60261,38.20521],[128.60233,38.20516],[128.60214,38.20519],[128.60204,38.20523],[128.60198,38.20538],[128.60204,38.20558],[128.6021,38.20567],[128.60233,38.20572],[128.60272,38.20747],[128.60177,38.21025],[128.60045,38.21062],[128.5945,38.21067],[128.59445,38.20683],[128.5927,38.20726],[128.59141,38.20728],[128.59099,38.20718],[128.591,38.2071],[128.59098,38.20698],[128.59092,38.20682],[128.59073,38.2068],[128.59019,38.2068],[128.59011,38.2068],[128.58994,38.20685],[128.58965,38.20695],[128.58847,38.20775],[128.58841,38.20779],[128.58385,38.21137],[128.58391,38.21193],[128.5837,38.21356],[128.58388,38.21394],[128.58515,38.21627],[128.5857,38.21651],[128.587,38.2162],[128.58706,38.21613],[128.58723,38.2159],[128.58773,38.21582],[128.5882,38.21444],[128.58819,38.21368],[128.58815,38.21321],[128.58815,38.21315],[128.58813,38.21238],[128.58897,38.21236],[128.58943,38.21235],[128.59123,38.21314],[128.59174,38.21351],[128.5938,38.21314],[128.59503,38.21306],[128.59973,38.2132],[128.59992,38.21323],[128.60086,38.2134],[128.60117,38.21349],[128.60116,38.2141]]]]}},{"type":"Feature","properties":{"code":"51210540","name":"금호동","parent":"51210"},"geometry":{"type":"MultiPolygon","coordinates":[[[[128.58391,38.21193],[128.58385,38.21137],[128.58841,38.20779],[128.58847,38.20775],[128.58965,38.20695],[128.58994,38.20685],[128.59011,38.2068],[128.59019,38.2068],[128.59073,38.2068],[128.59092,38.20682],[128.59098,38.20698],[128.591,38.2071],[128.59099,38.20718],[128.59141,38.20728],[128.5927,38.20726],[128.59445,38.20683],[128.5949,38.20642],[128.59356,38.20475],[128.59336,38.20429],[128.59306,38.20357],[128.59299,38.20298],[128.59298,38.20292],[128.59246,38.20116],[128.58863,38.20052],[128.58849,38.20088],[128.58826,38.20145],[128.58802,38.202],[128.58799,38.20207],[128.58577,38.20481],[128.57904,38.20871],[128.57868,38.2089],[128.57638,38.2092],[128.57222,38.20887],[128.56839,38.20965],[128.56783,38.20986],[128.56841,38.21063],[128.56999,38.21261],[128.57015,38.21282],[128.57021,38.21289],[128.57167,38.21329],[128.57375,38.21488],[128.57485,38.21575],[128.57569,38.21537],[128.57729,38.21502],[128.57786,38.21573],[128.57799,38.21585],[128.57808,38.21591],[128.5782,38.21595],[128.57833,38.21598],[128.57844,38.21598],[128.57853,38.21598],[128.57866,38.21595],[128.58306,38.21497],[128.58317,38.21283],[128.58391,38.21193]]]]}},{"type":"Feature","properties":{"code":"51210560","name":"교동","parent":"51210"},"geometry":{"type":"MultiPolygon","coordinates":[[[[128.58863,38.20052],[128.58457,38.19963],[128.5848,38.19862],[128.58441,38.19642],[128.58288,38.19729],[128.58277,38.19736],[128.58164,38.19834],[128.57956,38.20025],[128.57913,38.20177],[128.57715,38.20529],[128.57654,38.20637],[128.57323,38.20729],[128.57222,38.20887],[128.57638,38.2092],[128.57868,38.2089],[128.57904,38.20871],[128.58577,38.20481],[128.58799,38.20207],[128.58802,38.202],[128.58826,38.20145],[128.58849,38.20088],[128.58863,38.20052]]]]}},{"type":"Feature","properties":{"code":"51210570","name":"노학동","parent":"51210"},"geometry":{"type":"MultiPolygon","coordinates":[[[[128.57222,38.20887],[128.57323,38.20729],[128.57654,38.20637],[128.57715,38.20529],[128.57913,38.20177],[128.57956,38.20025],[128.58164,38.19834],[128.58277,38.19736],[128.58288,38.19729],[128.58441,38.19642],[128.58532,38.19426],[128.58323,38.19348],[128.58263,38.19326],[128.57986,38.19301],[128.57344,38.19274],[128.56295,38.19227],[128.56245,38.1901],[128.56172,38.18225],[128.56171,38.18211],[128.56171,38.18198],[128.56172,38.18176],[128.56185,38.18006],[128.56192,38.17961],[128.56211,38.17835],[128.56268,38.17647],[128.56272,38.17647],[128.56291,38.17641],[128.56311,38.17627],[128.5634,38.17595],[128.56369,38.17544],[128.56393,38.17472],[128.56356,38.17391],[128.55734,38.17397],[128.55647,38.17412],[128.55617,38.1744],[128.55618,38.17487],[128.55447,38.17506],[128.5538,38.17513],[128.55159,38.17465],[128.54715,38.17455],[128.54422,38.17449],[128.53706,38.17427],[128.53398,38.17407],[128.53068,38.17451],[128.52493,38.17535],[128.5191,38.17723],[128.50982,38.18192],[128.50359,38.18506],[128.50317,38.18527],[128.49087,38.19148],[128.49214,38.19384],[128.49389,38.19581],[128.49705,38.1962],[128.49875,38.19904],[128.49978,38.20209],[128.50076,38.20317],[128.50236,38.20353],[128.50443,38.20361],[128.50504,38.20364],[128.50947,38.20604],[128.51299,38.20815],[128.51391,38.209],[128.51465,38.20855],[128.51584,38.20714],[128.51717,38.20715],[128.5227,38.20792],[128.52287,38.20797],[128.52426,38.20871],[128.52572,38.20966],[128.52562,38.20844],[128.52564,38.20783],[128.52627,38.20729],[128.52932,38.20577],[128.53244,38.20341],[128.53285,38.20297],[128.53332,38.20293],[128.53336,38.20293],[128.54275,38.20303],[128.54565,38.20347],[128.55025,38.20492],[128.55366,38.2067],[128.5542,38.20677],[128.55568,38.2064],[128.55709,38.20559],[128.55739,38.20546],[128.55795,38.20521],[128.55908,38.20493],[128.56045,38.20465],[128.56105,38.20454],[128.56238,38.20538],[128.56417,38.20685],[128.5669,38.20884],[128.56839,38.20965],[128.57222,38.20887]]]]}},{"type":"Feature","properties":{"code":"51210580","name":"조양동","parent":"51210"},"geometry":{"type":"MultiPolygon","coordinates":[[[[128.60172,38.1809],[128.60064,38.18204],[128.59952,38.18205],[128.59893,38.18192],[128.59845,38.18167],[128.59726,38.18048],[128.5971,38.1802],[128.59677,38.17961],[128.59668,38.17935],[128.59664,38.17926],[128.59658,38.17906],[128.59656,38.17883],[128.59482,38.17815],[128.59029,38.17667],[128.5882,38.17792],[128.58761,38.17838],[128.58404,38.1777],[128.58313,38.17736],[128.58302,38.17731],[128.58213,38.17674],[128.58153,38.17645],[128.58144,38.17641],[128.58139,38.17639],[128.58099,38.17631],[128.58042,38.17621],[128.57698,38.17559],[128.57644,38.17557],[128.57632,38.1756],[128.5759,38.17571],[128.57553,38.17588],[128.57438,38.17641],[128.5732,38.17675],[128.57162,38.1771],[128.56519,38.17786],[128.56475,38.17787],[128.56458,38.17778],[128.56268,38.17647],[128.56211,38.17835],[128.56192,38.17961],[128.56185,38.18006],[128.56172,38.18176],[128.56171,38.18198],[128.56171,38.18211],[128.56172,38.18225],[128.56245,38.1901],[128.56295,38.19227],[128.57344,38.19274],[128.57986,38.19301],[128.58263,38.19326],[128.58323,38.19348],[128.58532,38.19426],[128.58762,38.19548],[128.59006,38.19626],[128.59159,38.19375],[128.59501,38.18999],[128.59512,38.18994],[128.59555,38.18996],[128.59583,38.18998],[128.59601,38.18999],[128.59621,38.19001],[128.597,38.19007],[128.59706,38.19008],[128.59763,38.19012],[128.59812,38.19017],[128.59857,38.19018],[128.59861,38.19018],[128.59878,38.19017],[128.59902,38.1901],[128.59936,38.18997],[128.59958,38.18981],[128.59974,38.18965],[128.59991,38.18939],[128.60022,38.1888],[128.60024,38.18877],[128.60056,38.18815],[128.60118,38.18689],[128.60135,38.18648],[128.60136,38.1864],[128.60137,38.18627],[128.60137,38.18594],[128.60127,38.18553],[128.6011,38.18488],[128.60101,38.18454],[128.60098,38.18433],[128.60095,38.18409],[128.60095,38.18405],[128.60092,38.18372],[128.60098,38.18343],[128.60172,38.1809]]]]}},{"type":"Feature","properties":{"code":"51210590","name":"청호동","parent":"51210"},"geometry":{"type":"MultiPolygon","coordinates":[[[[128.60617,38.18786],[128.6057,38.18729],[128.60522,38.18666],[128.60288,38.18356],[128.60172,38.1809],[128.60098,38.18343],[128.60092,38.18372],[128.60095,38.18405],[128.60095,38.18409],[128.60098,38.18433],[128.60101,38.18454],[128.6011,38.18488],[128.60127,38.18553],[128.60137,38.18594],[128.60137,38.18627],[128.60136,38.1864],[128.60135,38.18648],[128.60118,38.18689],[128.60056,38.18815],[128.60024,38.18877],[128.60022,38.1888],[128.59991,38.18939],[128.59974,38.18965],[128.59958,38.18981],[128.59936,38.18997],[128.59902,38.1901],[128.59878,38.19017],[128.59861,38.19018],[128.59857,38.19018],[128.59812,38.19017],[128.59763,38.19012],[128.59706,38.19008],[128.597,38.19007],[128.59621,38.19001],[128.59601,38.18999],[128.59583,38.18998],[128.59555,38.18996],[128.59512,38.18994],[128.59501,38.18999],[128.59159,38.19375],[128.59006,38.19626],[128.58762,38.19548],[128.58532,38.19426],[128.58441,38.19642],[128.5848,38.19862],[128.58457,38.19963],[128.58863,38.20052],[128.59246,38.20116],[128.59298,38.20292],[128.59299,38.20298],[128.59306,38.20357],[128.59336,38.20429],[128.59356,38.20475],[128.5949,38.20642],[128.59548,38.20689],[128.60017,38.20655],[128.60006,38.20594],[128.59608,38.2062],[128.59602,38.2061],[128.59576,38.20556],[128.59548,38.20465],[128.59535,38.20415],[128.59528,38.20353],[128.59532,38.2028],[128.59603,38.20025],[128.5966,38.19915],[128.59678,38.19884],[128.59695,38.19859],[128.59707,38.19843],[128.59852,38.19674],[128.59893,38.1963],[128.60124,38.19386],[128.60139,38.19371],[128.60157,38.19352],[128.60268,38.19238],[128.60276,38.1923],[128.60282,38.19225],[128.60288,38.19221],[128.60294,38.19217],[128.60308,38.19211],[128.6032,38.19205],[128.60333,38.19201],[128.60557,38.18882],[128.60617,38.18786]]]]}},{"type":"Feature","properties":{"code":"51210600","name":"대포동","parent":"51210"},"geometry":{"type":"MultiPolygon","coordinates":[[[[128.49087,38.19148],[128.50317,38.18527],[128.50359,38.18506],[128.50982,38.18192],[128.5191,38.17723],[128.52493,38.17535],[128.53068,38.17451],[128.53398,38.17407],[128.53706,38.17427],[128.54422,38.17449],[128.54715,38.17455],[128.55159,38.17465],[128.5538,38.17513],[128.55447,38.17506],[128.55618,38.17487],[128.55617,38.1744],[128.55647,38.17412],[128.55734,38.17397],[128.56356,38.17391],[128.56393,38.17472],[128.56369,38.17544],[128.5634,38.17595],[128.56311,38.17627],[128.56291,38.17641],[128.56272,38.17647],[128.56268,38.17647],[128.56458,38.17778],[128.56475,38.17787],[128.56519,38.17786],[128.57162,38.1771],[128.5732,38.17675],[128.57438,38.17641],[128.57553,38.17588],[128.5759,38.17571],[128.57632,38.1756],[128.57644,38.17557],[128.57698,38.17559],[128.58042,38.17621],[128.58099,38.17631],[128.58139,38.17639],[128.58144,38.17641],[128.58153,38.17645],[128.58213,38.17674],[128.58302,38.17731],[128.58313,38.17736],[128.58404,38.1777],[128.58761,38.17838],[128.5882,38.17792],[128.59029,38.17667],[128.59482,38.17815],[128.59656,38.17883],[128.59658,38.17906],[128.59664,38.17926],[128.59668,38.17935],[128.59677,38.17961],[128.5971,38.1802],[128.59726,38.18048],[128.59845,38.18167],[128.59893,38.18192],[128.59952,38.18205],[128.60064,38.18204],[128.60172,38.1809],[128.60288,38.18356],[128.60522,38.18666],[128.6057,38.18729],[128.60617,38.18786],[128.60678,38.18693],[128.60753,38.1859],[128.60928,38.18368],[128.6112,38.18224],[128.61188,38.18203],[128.61244,38.18196],[128.61346,38.18184],[128.61396,38.18175],[128.61458,38.18158],[128.61508,38.18112],[128.61517,38.18083],[128.6146,38.17971],[128.61242,38.17917],[128.61019,38.17889],[128.61059,38.17337],[128.60751,38.17291],[128.60804,38.16828],[128.60844,38.16766],[128.6087,38.16667],[128.6089,38.16537],[128.60909,38.16401],[128.60908,38.16105],[128.60848,38.16109],[128.60792,38.16108],[128.60517,38.16105],[128.60522,38.16014],[128.60523,38.1599],[128.60273,38.15971],[128.60207,38.15971],[128.59725,38.16009],[128.59412,38.1605],[128.58971,38.1604],[128.58759,38.1603],[128.58229,38.16013],[128.58012,38.16009],[128.57956,38.16018],[128.5776,38.16062],[128.57701,38.16079],[128.57686,38.16085],[128.57596,38.16131],[128.57546,38.16153],[128.57499,38.16162],[128.57449,38.16168],[128.57394,38.1616],[128.57077,38.161],[128.57061,38.16076],[128.56982,38.15767],[128.56982,38.15749],[128.57022,38.15602],[128.5707,38.15451],[128.57062,38.15443],[128.5706,38.1544],[128.56944,38.15377],[128.56938,38.15376],[128.56926,38.15373],[128.56825,38.15355],[128.56756,38.15352],[128.5674,38.15351],[128.56463,38.15197],[128.56306,38.15102],[128.56233,38.15048],[128.56183,38.15011],[128.56127,38.14981],[128.56121,38.14979],[128.55941,38.14915],[128.55288,38.14844],[128.55239,38.14854],[128.55167,38.14882],[128.55122,38.14901],[128.55087,38.14907],[128.55046,38.14916],[128.54929,38.14916],[128.54684,38.14886],[128.54428,38.14839],[128.54255,38.14823],[128.5401,38.14877],[128.53803,38.14874],[128.53684,38.14862],[128.53509,38.14841],[128.53456,38.14834],[128.5345,38.14789],[128.53502,38.14712],[128.53495,38.14568],[128.53446,38.14492],[128.53382,38.14403],[128.5321,38.14289],[128.53152,38.14229],[128.53134,38.1421],[128.53123,38.14134],[128.53112,38.14038],[128.5311,38.14022],[128.53026,38.13796],[128.52976,38.13687],[128.5292,38.13654],[128.52871,38.13637],[128.52814,38.13652],[128.52792,38.1366],[128.52782,38.13664],[128.52752,38.13676],[128.52524,38.13794],[128.52382,38.13824],[128.52331,38.13811],[128.52297,38.13787],[128.52213,38.13746],[128.52056,38.13679],[128.52048,38.13676],[128.52039,38.13672],[128.51733,38.13594],[128.51658,38.13575],[128.51611,38.13571],[128.51593,38.1357],[128.51525,38.13572],[128.51403,38.13607],[128.51355,38.13621],[128.51247,38.13641],[128.50975,38.13667],[128.50585,38.13658],[128.50464,38.1364],[128.50144,38.13554],[128.50058,38.13572],[128.4995,38.13612],[128.49928,38.13623],[128.49866,38.13656],[128.49816,38.13697],[128.49776,38.1371],[128.4971,38.1373],[128.49331,38.13786],[128.49182,38.13805],[128.49137,38.13736],[128.49123,38.13723],[128.49083,38.13683],[128.48996,38.13615],[128.48974,38.13598],[128.48529,38.13323],[128.48468,38.1329],[128.48307,38.13228],[128.48231,38.13177],[128.47963,38.12956],[128.47762,38.12732],[128.47691,38.12574],[128.4767,38.12542],[128.4752,38.12324],[128.47429,38.12227],[128.47383,38.1218],[128.47195,38.12097],[128.4713,38.12079],[128.46809,38.12003],[128.46642,38.11928],[128.46538,38.11949],[128.46526,38.12182],[128.46495,38.124],[128.46424,38.12779],[128.46474,38.12871],[128.4651,38.13084],[128.46478,38.13338],[128.46526,38.13647],[128.46555,38.13697],[128.46542,38.13749],[128.46503,38.13786],[128.45832,38.14055],[128.45577,38.14143],[128.45496,38.14199],[128.45437,38.14277],[128.4529,38.14621],[128.45078,38.14791],[128.4491,38.14924],[128.44874,38.14941],[128.44607,38.15057],[128.44565,38.15074],[128.4452,38.15087],[128.4444,38.15063],[128.44318,38.15061],[128.44225,38.15113],[128.44196,38.15149],[128.4379,38.1566],[128.43766,38.15991],[128.43853,38.1628],[128.43802,38.16303],[128.43596,38.16428],[128.43389,38.16645],[128.43357,38.16689],[128.43308,38.16832],[128.43229,38.16966],[128.4321,38.16984],[128.42992,38.17112],[128.42865,38.17176],[128.4254,38.17383],[128.41982,38.17756],[128.42144,38.18126],[128.42164,38.18171],[128.42228,38.18316],[128.42257,38.18369],[128.42286,38.18423],[128.42396,38.18601],[128.42555,38.18845],[128.42605,38.18909],[128.42693,38.19001],[128.42859,38.19019],[128.43169,38.19114],[128.43641,38.19369],[128.43823,38.19592],[128.43823,38.19693],[128.43845,38.1974],[128.44023,38.20036],[128.44106,38.20144],[128.44187,38.20233],[128.44199,38.20215],[128.44722,38.20165],[128.45003,38.19862],[128.45295,38.19797],[128.45714,38.19747],[128.45913,38.19745],[128.46177,38.19706],[128.4646,38.19802],[128.4668,38.19799],[128.46772,38.19781],[128.47252,38.19534],[128.47736,38.19281],[128.48653,38.18922],[128.48663,38.18932],[128.48674,38.18941],[128.48974,38.19215],[128.49087,38.19148]]]]}}]}