{"type":"FeatureCollection","features":[{"type":"Feature","properties":{"code":"11560540","name":"여의동","parent":"11560"},"geometry":{"type":"MultiPolygon","coordinates":[[[[126.9171,37.54142],[126.92244,37.54139],[126.92303,37.54059],[126.92763,37.53903],[126.93026,37.54132],[126.93582,37.539],[126.94121,37.53645],[126.94467,37.53375],[126.94864,37.52855],[126.94965,37.52676],[126.94962,37.52116],[126.94956,37.51781],[126.9394,37.51614],[126.93304,37.51576],[126.93215,37.51565],[126.92601,37.5161],[126.92525,37.51624],[126.92511,37.51629],[126.92019,37.51809],[126.91985,37.51822],[126.91974,37.51826],[126.91915,37.51853],[126.91831,37.51891],[126.91818,37.519],[126.91763,37.51936],[126.91749,37.51945],[126.9172,37.51958],[126.91665,37.51989],[126.91602,37.52034],[126.91582,37.52064],[126.91523,37.52155],[126.91369,37.52375],[126.91338,37.52417],[126.9132,37.52442],[126.91271,37.52516],[126.91198,37.52626],[126.91163,37.52735],[126.9093,37.53261],[126.90787,37.53415],[126.90647,37.53911],[126.90498,37.54132],[126.9171,37.54142]]]]}},{"type":"Feature","properties":{"code":"11560550","name":"당산1동","parent":"11560"},"geometry":{"type":"MultiPolygon","coordinates":[[[[126.90284,37.52612],[126.90223,37.5245],[126.90221,37.52444],[126.90213,37.52424],[126.901,37.52041],[126.90097,37.52017],[126.90097,37.52013],[126.90098,37.52008],[126.90098,37.51994],[126.90098,37.51987],[126.90101,37.51946],[126.90107,37.5191],[126.90109,37.51906],[126.9011,37.51904],[126.90059,37.51928],[126.90046,37.51932],[126.90029,37.51936],[126.89969,37.51949],[126.89862,37.5197],[126.89225,37.52074],[126.89138,37.52193],[126.89152,37.5226],[126.89155,37.52276],[126.89164,37.52312],[126.89263,37.52722],[126.89282,37.52751],[126.89297,37.5277],[126.89415,37.52921],[126.8966,37.52804],[126.8972,37.52776],[126.89723,37.52775],[126.90284,37.52612]]]]}},{"type":"Feature","properties":{"code":"11560560","name":"당산2동","parent":"11560"},"geometry":{"type":"MultiPolygon","coordinates":[[[[126.90498,37.54132],[126.90647,37.53911],[126.90787,37.53415],[126.9093,37.53261],[126.91163,37.52735],[126.91198,37.52626],[126.91271,37.52516],[126.9132,37.52442],[126.91247,37.52409],[126.91194,37.52499],[126.91143,37.52585],[126.9114,37.5259],[126.91031,37.52633],[126.90889,37.52613],[126.90849,37.52601],[126.90825,37.52592],[126.90802,37.52583],[126.90795,37.52579],[126.90781,37.52572],[126.90746,37.52558],[126.90701,37.52567],[126.9069,37.52595],[126.90683,37.52612],[126.9068,37.52619],[126.90662,37.52673],[126.90651,37.52724],[126.90647,37.52739],[126.90643,37.52761],[126.9064,37.52778],[126.90639,37.52809],[126.90639,37.52827],[126.90651,37.53208],[126.9064,37.53235],[126.90547,37.53215],[126.90544,37.5321],[126.90524,37.5317],[126.90517,37.53156],[126.90505,37.5313],[126.90502,37.53123],[126.90487,37.53092],[126.90284,37.52612],[126.89723,37.52775],[126.8972,37.52776],[126.8966,37.52804],[126.89415,37.52921],[126.89478,37.53005],[126.89893,37.53536],[126.90076,37.53762],[126.8943,37.54214],[126.89564,37.54182],[126.89652,37.54295],[126.89781,37.54254],[126.89878,37.54271],[126.90005,37.54182],[126.90093,37.54228],[126.90069,37.54287],[126.90218,37.54407],[126.90498,37.54132]]]]}},{"type":"Feature","properties":{"code":"11560610","name":"양평1동","parent":"11560"},"geometry":{"type":"MultiPolygon","coordinates":[[[[126.89004,37.53038],[126.89415,37.52921],[126.89297,37.5277],[126.89282,37.52751],[126.89263,37.52722],[126.89164,37.52312],[126.89155,37.52276],[126.89152,37.5226],[126.89138,37.52193],[126.89225,37.52074],[126.89105,37.52084],[126.88999,37.52103],[126.88536,37.52179],[126.8852,37.52137],[126.88501,37.52059],[126.88378,37.52077],[126.88374,37.52077],[126.8834,37.52082],[126.8818,37.52107],[126.87981,37.52138],[126.87982,37.5222],[126.88028,37.52436],[126.88049,37.52515],[126.88051,37.52523],[126.88137,37.526],[126.88173,37.52632],[126.88476,37.5274],[126.88535,37.52761],[126.88603,37.52793],[126.88631,37.52806],[126.88659,37.52831],[126.88696,37.52866],[126.88705,37.52878],[126.88761,37.52948],[126.88848,37.53072],[126.89004,37.53038]]]]}},{"type":"Feature","properties":{"code":"11560620","name":"양평2동","parent":"11560"},"geometry":{"type":"MultiPolygon","coordinates":[[[[126.899,37.54792],[126.90175,37.54513],[126.90218,37.54407],[126.90069,37.54287],[126.90093,37.54228],[126.90005,37.54182],[126.89878,37.54271],[126.89781,37.54254],[126.89652,37.54295],[126.89564,37.54182],[126.8943,37.54214],[126.90076,37.53762],[126.89893,37.53536],[126.89478,37.53005],[126.89415,37.52921],[126.89004,37.53038],[126.89054,37.5315],[126.8888,37.53206],[126.8888,37.53283],[126.89003,37.53329],[126.89025,37.53467],[126.88832,37.5368],[126.88552,37.54184],[126.88516,37.54359],[126.88325,37.54556],[126.88071,37.54787],[126.87814,37.55155],[126.87799,37.55343],[126.8792,37.5532],[126.87932,37.55483],[126.88038,37.55618],[126.89063,37.55117],[126.899,37.54792]]]]}},{"type":"Feature","properties":{"code":"11560630","name":"신길1동","parent":"11560"},"geometry":{"type":"MultiPolygon","coordinates":[[[[126.92601,37.5161],[126.92516,37.5149],[126.92484,37.51455],[126.92479,37.51449],[126.92352,37.51278],[126.92245,37.51013],[126.9221,37.50885],[126.92207,37.50808],[126.92206,37.508],[126.92055,37.50717],[126.91714,37.50622],[126.91612,37.50565],[126.91481,37.50779],[126.91374,37.51138],[126.91605,37.51186],[126.91614,37.51189],[126.91705,37.51217],[126.91708,37.5122],[126.91775,37.51286],[126.91777,37.51288],[126.91829,37.51345],[126.91839,37.51359],[126.91884,37.51423],[126.91847,37.51444],[126.91826,37.51457],[126.91769,37.51505],[126.9173,37.51569],[126.91725,37.51578],[126.91669,37.51709],[126.91671,37.51733],[126.91666,37.51746],[126.91749,37.51945],[126.91763,37.51936],[126.91818,37.519],[126.91831,37.51891],[126.91915,37.51853],[126.91974,37.51826],[126.91985,37.51822],[126.92019,37.51809],[126.92511,37.51629],[126.92525,37.51624],[126.92601,37.5161]]]]}},{"type":"Feature","properties":{"code":"11560650","name":"신길3동","parent":"11560"},"geometry":{"type":"MultiPolygon","coordinates":[[[[126.91016,37.50383],[126.9089,37.50423],[126.90852,37.5045],[126.9075,37.50476],[126.90305,37.50421],[126.90227,37.50387],[126.90091,37.50329],[126.90085,37.50325],[126.90048,37.50303],[126.89822,37.50533],[126.90369,37.50771],[126.90433,37.508],[126.90952,37.51034],[126.90969,37.51042],[126.91029,37.51071],[126.91069,37.50968],[126.91089,37.50887],[126.9109,37.50882],[126.91097,37.50804],[126.91098,37.50784],[126.91104,37.50607],[126.91104,37.50604],[126.91102,37.50592],[126.911,37.50585],[126.911,37.50582],[126.91077,37.50531],[126.91075,37.50528],[126.91063,37.50503],[126.91016,37.50383]]]]}},{"type":"Feature","properties":{"code":"11560660","name":"신길4동","parent":"11560"},"geometry":{"type":"MultiPolygon","coordinates":[[[[126.91612,37.50565],[126.91545,37.50419],[126.91307,37.50425],[126.91294,37.50431],[126.91274,37.50428],[126.91153,37.50406],[126.91136,37.50396],[126.91134,37.50393],[126.91127,37.50382],[126.91117,37.50386],[126.91113,37.50388],[126.91101,37.50383],[126.91093,37.50386],[126.91087,37.50378],[126.9108,37.50381],[126.91077,37.5038],[126.91072,37.50378],[126.91066,37.5037],[126.91058,37.50374],[126.91038,37.50374],[126.91039,37.5037],[126.9104,37.50363],[126.91022,37.50362],[126.91016,37.50383],[126.91063,37.50503],[126.91075,37.50528],[126.91077,37.50531],[126.911,37.50582],[126.911,37.50585],[126.91102,37.50592],[126.91104,37.50604],[126.91104,37.50607],[126.91098,37.50784],[126.91097,37.50804],[126.9109,37.50882],[126.91089,37.50887],[126.91069,37.50968],[126.91029,37.51071],[126.91374,37.51138],[126.91481,37.50779],[126.91612,37.50565]]]]}},{"type":"Feature","properties":{"code":"11560670","name":"신길5동","parent":"11560"},"geometry":{"type":"MultiPolygon","coordinates":[[[[126.91016,37.50383],[126.91022,37.50362],[126.91029,37.50319],[126.91029,37.50284],[126.91029,37.50276],[126.91029,37.50267],[126.91026,37.50203],[126.91019,37.50191],[126.90991,37.50141],[126.90982,37.50125],[126.90939,37.50072],[126.90919,37.50048],[126.90904,37.50032],[126.90891,37.50026],[126.90874,37.50018],[126.90826,37.49843],[126.90817,37.49793],[126.90817,37.49745],[126.90729,37.49715],[126.90374,37.49729],[126.90371,37.49731],[126.90363,37.49734],[126.90313,37.49756],[126.90257,37.49799],[126.90214,37.49836],[126.90209,37.4984],[126.90206,37.49843],[126.90197,37.49852],[126.90192,37.49858],[126.9017,37.4988],[126.90117,37.49938],[126.90102,37.49969],[126.90102,37.49975],[126.90109,37.49983],[126.90131,37.50007],[126.90139,37.50015],[126.90142,37.50019],[126.90145,37.50025],[126.90162,37.50048],[126.90166,37.50054],[126.90173,37.50071],[126.90175,37.50075],[126.90177,37.5008],[126.90187,37.50097],[126.90189,37.50102],[126.90202,37.50122],[126.90218,37.50143],[126.90133,37.50224],[126.90121,37.50235],[126.90048,37.50303],[126.90085,37.50325],[126.90091,37.50329],[126.90227,37.50387],[126.90305,37.50421],[126.9075,37.50476],[126.90852,37.5045],[126.9089,37.50423],[126.91016,37.50383]]]]}},{"type":"Feature","properties":{"code":"11560680","name":"신길6동","parent":"11560"},"geometry":{"type":"MultiPolygon","coordinates":[[[[126.91545,37.50419],[126.9151,37.50371],[126.91495,37.5035],[126.91467,37.50312],[126.91447,37.50284],[126.91355,37.50176],[126.9133,37.50163],[126.91296,37.5015],[126.91291,37.50148],[126.91263,37.50125],[126.91218,37.50074],[126.91214,37.5007],[126.91211,37.50066],[126.91202,37.50055],[126.91185,37.50028],[126.91185,37.50024],[126.91184,37.50016],[126.91501,37.50028],[126.91555,37.50031],[126.9166,37.50109],[126.91742,37.50181],[126.91749,37.50184],[126.9176,37.5019],[126.92026,37.50157],[126.92083,37.5014],[126.92023,37.49851],[126.92019,37.4982],[126.91981,37.49782],[126.91973,37.49774],[126.91971,37.49772],[126.91968,37.49769],[126.91951,37.49765],[126.91936,37.49761],[126.91841,37.49736],[126.91837,37.49735],[126.91652,37.49696],[126.91603,37.49686],[126.9158,37.49681],[126.91523,37.4967],[126.91511,37.49668],[126.91504,37.49667],[126.91455,37.49662],[126.91424,37.49658],[126.91378,37.49653],[126.91277,37.49641],[126.91253,37.49639],[126.91201,37.49604],[126.91182,37.4959],[126.91171,37.49574],[126.91126,37.49505],[126.91029,37.49355],[126.91001,37.49321],[126.90945,37.49259],[126.90817,37.49745],[126.90817,37.49793],[126.90826,37.49843],[126.90874,37.50018],[126.90891,37.50026],[126.90904,37.50032],[126.90919,37.50048],[126.90939,37.50072],[126.90982,37.50125],[126.90991,37.50141],[126.91019,37.50191],[126.91026,37.50203],[126.91029,37.50267],[126.91029,37.50276],[126.91029,37.50284],[126.91029,37.50319],[126.91022,37.50362],[126.9104,37.50363],[126.91039,37.5037],[126.91038,37.50374],[126.91058,37.50374],[126.91066,37.5037],[126.91072,37.50378],[126.91077,37.5038],[126.9108,37.50381],[126.91087,37.50378],[126.91093,37.50386],[126.91101,37.50383],[126.91113,37.50388],[126.91117,37.50386],[126.91127,37.50382],[126.91134,37.50393],[126.91136,37.50396],[126.91153,37.50406],[126.91274,37.50428],[126.91294,37.50431],[126.91307,37.50425],[126.91545,37.50419]]]]}},{"type":"Feature","properties":{"code":"11560690","name":"신길7동","parent":"11560"},"geometry":{"type":"MultiPolygon","coordinates":[[[[126.92083,37.5014],[126.92026,37.50157],[126.9176,37.5019],[126.91749,37.50184],[126.91742,37.50181],[126.9166,37.50109],[126.91555,37.50031],[126.91501,37.50028],[126.91184,37.50016],[126.91185,37.50024],[126.91185,37.50028],[126.91202,37.50055],[126.91211,37.50066],[126.91214,37.5007],[126.91218,37.50074],[126.91263,37.50125],[126.91291,37.50148],[126.91296,37.5015],[126.9133,37.50163],[126.91355,37.50176],[126.91447,37.50284],[126.91467,37.50312],[126.91495,37.5035],[126.9151,37.50371],[126.91545,37.50419],[126.91612,37.50565],[126.91714,37.50622],[126.92055,37.50717],[126.92206,37.508],[126.92207,37.50808],[126.9221,37.50885],[126.92245,37.51013],[126.92352,37.51278],[126.92479,37.51449],[126.92484,37.51455],[126.92516,37.5149],[126.92698,37.51397],[126.92706,37.51393],[126.9271,37.513],[126.92684,37.51289],[126.92644,37.51275],[126.92641,37.51274],[126.92589,37.51267],[126.92585,37.51266],[126.92576,37.51265],[126.9254,37.51265],[126.92529,37.5124],[126.92383,37.5087],[126.9221,37.50439],[126.92198,37.5041],[126.92153,37.50301],[126.92135,37.50257],[126.92115,37.50209],[126.92112,37.50201],[126.92109,37.50195],[126.92092,37.50159],[126.92083,37.5014]]]]}},{"type":"Feature","properties":{"code":"11560700","name":"대림1동","parent":"11560"},"geometry":{"type":"MultiPolygon","coordinates":[[[[126.90945,37.49259],[126.90633,37.48893],[126.90193,37.4924],[126.89993,37.49483],[126.90374,37.49729],[126.90729,37.49715],[126.90817,37.49745],[126.90945,37.49259]]]]}},{"type":"Feature","properties":{"code":"11560710","name":"대림2동","parent":"11560"},"geometry":{"type":"MultiPolygon","coordinates":[[[[126.90633,37.48893],[126.90323,37.48499],[126.90299,37.48499],[126.90291,37.48499],[126.90276,37.48501],[126.90045,37.48567],[126.90028,37.48576],[126.89884,37.48659],[126.8986,37.48673],[126.8977,37.48748],[126.89756,37.4876],[126.89742,37.48776],[126.8954,37.49203],[126.89537,37.4921],[126.89993,37.49483],[126.90193,37.4924],[126.90633,37.48893]]]]}},{"type":"Feature","properties":{"code":"11560720","name":"대림3동","parent":"11560"},"geometry":{"type":"MultiPolygon","coordinates":[[[[126.89822,37.50533],[126.90048,37.50303],[126.90121,37.50235],[126.90133,37.50224],[126.90218,37.50143],[126.90202,37.50122],[126.90189,37.50102],[126.90187,37.50097],[126.90177,37.5008],[126.90175,37.50075],[126.90173,37.50071],[126.90166,37.50054],[126.90162,37.50048],[126.90145,37.50025],[126.90142,37.50019],[126.90139,37.50015],[126.90131,37.50007],[126.90109,37.49983],[126.90102,37.49975],[126.90102,37.49969],[126.90117,37.49938],[126.9017,37.4988],[126.90192,37.49858],[126.90197,37.49852],[126.90206,37.49843],[126.90209,37.4984],[126.90214,37.49836],[126.90257,37.49799],[126.90313,37.49756],[126.90363,37.49734],[126.90371,37.49731],[126.90374,37.49729],[126.89993,37.49483],[126.89537,37.4921],[126.89455,37.49432],[126.89353,37.49772],[126.89345,37.49825],[126.89344,37.49841],[126.89333,37.50112],[126.89332,37.50118],[126.89331,37.50151],[126.89332,37.50202],[126.89333,37.50231],[126.89334,37.50252],[126.89334,37.50257],[126.8934,37.50313],[126.89369,37.50442],[126.89386,37.50748],[126.89514,37.50815],[126.89717,37.50626],[126.89822,37.50533]]]]}},{"type":"Feature","properties":{"code":"11560515","name":"영등포본동","parent":"11560"},"geometry":{"type":"MultiPolygon","coordinates":[[[[126.91374,37.51138],[126.91029,37.51071],[126.91019,37.51254],[126.90762,37.51236],[126.90739,37.51221],[126.90595,37.51115],[126.90532,37.51043],[126.90191,37.51],[126.9019,37.51003],[126.90188,37.51008],[126.90062,37.51226],[126.89816,37.51145],[126.89786,37.51187],[126.89779,37.51197],[126.89783,37.51198],[126.89976,37.51281],[126.89995,37.51289],[126.901,37.51334],[126.90243,37.51395],[126.90364,37.51447],[126.904,37.51464],[126.90386,37.51493],[126.90597,37.51568],[126.9112,37.51697],[126.91593,37.51727],[126.91666,37.51746],[126.91671,37.51733],[126.91669,37.51709],[126.91725,37.51578],[126.9173,37.51569],[126.91769,37.51505],[126.91826,37.51457],[126.91847,37.51444],[126.91884,37.51423],[126.91839,37.51359],[126.91829,37.51345],[126.91777,37.51288],[126.91775,37.51286],[126.91708,37.5122],[126.91705,37.51217],[126.91614,37.51189],[126.91605,37.51186],[126.91374,37.51138]]]]}},{"type":"Feature","properties":{"code":"11560535","name":"영등포동","parent":"11560"},"geometry":{"type":"MultiPolygon","coordinates":[[[[126.9132,37.52442],[126.91338,37.52417],[126.91369,37.52375],[126.91523,37.52155],[126.91582,37.52064],[126.91602,37.52034],[126.91665,37.51989],[126.9172,37.51958],[126.91749,37.51945],[126.91666,37.51746],[126.91593,37.51727],[126.9112,37.51697],[126.90597,37.51568],[126.90386,37.51493],[126.90379,37.51494],[126.90342,37.51501],[126.90319,37.5151],[126.90316,37.51512],[126.90298,37.51522],[126.90289,37.51526],[126.90256,37.51555],[126.90253,37.5156],[126.90236,37.51582],[126.90218,37.51612],[126.90211,37.51623],[126.90201,37.51647],[126.90192,37.51669],[126.90143,37.51802],[126.90128,37.51846],[126.90115,37.51887],[126.9011,37.51904],[126.90109,37.51906],[126.90107,37.5191],[126.90101,37.51946],[126.90098,37.51987],[126.90098,37.51994],[126.90098,37.52008],[126.90097,37.52013],[126.90097,37.52017],[126.901,37.52041],[126.90213,37.52424],[126.90221,37.52444],[126.90223,37.5245],[126.90284,37.52612],[126.90487,37.53092],[126.90502,37.53123],[126.90505,37.5313],[126.90517,37.53156],[126.90524,37.5317],[126.90544,37.5321],[126.90547,37.53215],[126.9064,37.53235],[126.90651,37.53208],[126.90639,37.52827],[126.90639,37.52809],[126.9064,37.52778],[126.90643,37.52761],[126.90647,37.52739],[126.90651,37.52724],[126.90662,37.52673],[126.9068,37.52619],[126.90683,37.52612],[126.9069,37.52595],[126.90701,37.52567],[126.90746,37.52558],[126.90781,37.52572],[126.90795,37.52579],[126.90802,37.52583],[126.90825,37.52592],[126.90849,37.52601],[126.90889,37.52613],[126.91031,37.52633],[126.9114,37.5259],[126.91143,37.52585],[126.91194,37.52499],[126.91247,37.52409],[126.9132,37.52442]]]]}},{"type":"Feature","properties":{"code":"11560585","name":"도림동","parent":"11560"},"geometry":{"type":"MultiPolygon","coordinates":[[[[126.91029,37.51071],[126.90969,37.51042],[126.90952,37.51034],[126.90433,37.508],[126.90369,37.50771],[126.89822,37.50533],[126.89717,37.50626],[126.89514,37.50815],[126.89297,37.50946],[126.89816,37.51145],[126.90062,37.51226],[126.90188,37.51008],[126.9019,37.51003],[126.90191,37.51],[126.90532,37.51043],[126.90595,37.51115],[126.90739,37.51221],[126.90762,37.51236],[126.91019,37.51254],[126.91029,37.51071]]]]}},{"type":"Feature","properties":{"code":"11560605","name":"문래동","parent":"11560"},"geometry":{"type":"MultiPolygon","coordinates":[[[[126.89225,37.52074],[126.89862,37.5197],[126.89969,37.51949],[126.90029,37.51936],[126.90046,37.51932],[126.90059,37.51928],[126.9011,37.51904],[126.90115,37.51887],[126.90128,37.51846],[126.90143,37.51802],[126.90192,37.51669],[126.90201,37.51647],[126.90211,37.51623],[126.90218,37.51612],[126.90236,37.51582],[126.90253,37.5156],[126.90256,37.51555],[126.90289,37.51526],[126.90298,37.51522],[126.90316,37.51512],[126.90319,37.5151],[126.90342,37.51501],[126.90379,37.51494],[126.90386,37.51493],[126.904,37.51464],[126.90364,37.51447],[126.90243,37.51395],[126.901,37.51334],[126.89995,37.51289],[126.89976,37.51281],[126.89783,37.51198],[126.89779,37.51197],[126.89786,37.51187],[126.89816,37.51145],[126.89297,37.50946],[126.89175,37.50987],[126.89122,37.51066],[126.89119,37.5107],[126.8909,37.51108],[126.89079,37.5112],[126.89068,37.51133],[126.89045,37.51156],[126.89029,37.51167],[126.88963,37.51209],[126.88852,37.51266],[126.88173,37.51582],[126.87947,37.51677],[126.87981,37.52138],[126.8818,37.52107],[126.8834,37.52082],[126.88374,37.52077],[126.88378,37.52077],[126.88501,37.52059],[126.8852,37.52137],[126.88536,37.52179],[126.88999,37.52103],[126.89105,37.52084],[126.89225,37.52074]]]]}}]}