{"type":"FeatureCollection","features":[{"type":"Feature","properties":{"code":"43114250","name":"내수읍","parent":"43114"},"geometry":{"type":"MultiPolygon","coordinates":[[[[127.61116,36.72903],[127.61105,36.72773],[127.61272,36.72674],[127.6133,36.72682],[127.61383,36.72627],[127.6143,36.72526],[127.61485,36.72205],[127.61542,36.71871],[127.61592,36.71822],[127.6166,36.718],[127.61665,36.71799],[127.61732,36.71777],[127.61799,36.71727],[127.61866,36.71641],[127.61876,36.71511],[127.61875,36.71362],[127.61788,36.70883],[127.61776,36.70745],[127.61724,36.70748],[127.61468,36.70511],[127.61453,36.70294],[127.61233,36.70011],[127.61081,36.70007],[127.6101,36.70006],[127.60818,36.69967],[127.60672,36.69934],[127.60547,36.6982],[127.60199,36.69815],[127.60052,36.6989],[127.5993,36.69858],[127.59764,36.69778],[127.5963,36.69613],[127.59205,36.69087],[127.59237,36.69],[127.59199,36.68856],[127.59085,36.6877],[127.5891,36.68768],[127.58662,36.68574],[127.58563,36.68375],[127.58444,36.68445],[127.58235,36.68494],[127.58117,36.68474],[127.57944,36.68438],[127.57787,36.68316],[127.5754,36.68113],[127.57039,36.67758],[127.56727,36.67443],[127.56687,36.67431],[127.56294,36.67425],[127.5555,36.67401],[127.5517,36.67276],[127.55034,36.6731],[127.54996,36.67376],[127.54921,36.67439],[127.54815,36.67304],[127.54711,36.67154],[127.54445,36.66961],[127.54361,36.66901],[127.54274,36.66876],[127.54013,36.66914],[127.53905,36.66923],[127.53693,36.66924],[127.53593,36.66884],[127.53314,36.66639],[127.53269,36.66587],[127.5322,36.66624],[127.53197,36.66637],[127.52856,36.66744],[127.52425,36.66908],[127.51865,36.67167],[127.51572,36.67254],[127.5123,36.67422],[127.51098,36.67552],[127.50749,36.67825],[127.50594,36.67948],[127.50577,36.67984],[127.50591,36.67998],[127.50606,36.68025],[127.50576,36.68067],[127.5046,36.68221],[127.50426,36.6826],[127.50374,36.68307],[127.49971,36.6845],[127.49998,36.68914],[127.49669,36.6911],[127.49665,36.69118],[127.49641,36.69168],[127.49664,36.69513],[127.49667,36.69538],[127.49672,36.69577],[127.49676,36.69602],[127.49679,36.6962],[127.49776,36.69955],[127.49826,36.70168],[127.49743,36.70412],[127.49737,36.70417],[127.49644,36.70523],[127.49638,36.70559],[127.49688,36.70596],[127.49772,36.70607],[127.49995,36.70651],[127.50001,36.70653],[127.50015,36.70663],[127.5006,36.70704],[127.50203,36.71147],[127.5016,36.71178],[127.50085,36.71184],[127.5005,36.71192],[127.49958,36.71246],[127.49935,36.71264],[127.49896,36.71306],[127.49864,36.71398],[127.49947,36.71438],[127.49966,36.71447],[127.49997,36.71451],[127.50068,36.71532],[127.50075,36.71547],[127.50122,36.71681],[127.49958,36.71758],[127.49758,36.71766],[127.49612,36.71639],[127.49489,36.71534],[127.49208,36.71568],[127.48599,36.71803],[127.48537,36.71841],[127.48534,36.71843],[127.48507,36.71885],[127.48529,36.71903],[127.4854,36.71916],[127.48622,36.72015],[127.48665,36.72078],[127.48677,36.72104],[127.48682,36.72128],[127.48684,36.72173],[127.48622,36.72231],[127.48589,36.72356],[127.48636,36.72455],[127.48807,36.72609],[127.48848,36.72646],[127.48905,36.72716],[127.4891,36.72786],[127.48917,36.72889],[127.49016,36.72997],[127.50156,36.73248],[127.50563,36.73277],[127.51014,36.73305],[127.5115,36.73309],[127.51198,36.73303],[127.51324,36.7325],[127.51471,36.73188],[127.5155,36.73157],[127.51577,36.73148],[127.51636,36.73128],[127.5168,36.73121],[127.51951,36.73126],[127.52039,36.73142],[127.52363,36.73317],[127.52825,36.73481],[127.53663,36.73289],[127.53938,36.73149],[127.53963,36.73135],[127.53978,36.73123],[127.54065,36.73012],[127.5408,36.72999],[127.54127,36.72962],[127.54152,36.72945],[127.54185,36.72923],[127.544,36.72816],[127.54415,36.72812],[127.54424,36.7281],[127.54438,36.72809],[127.545,36.7281],[127.54514,36.72806],[127.54522,36.72804],[127.54529,36.72801],[127.54546,36.7279],[127.54649,36.72713],[127.54713,36.72661],[127.54716,36.72528],[127.54704,36.72468],[127.54754,36.72386],[127.54763,36.72371],[127.54889,36.72329],[127.55327,36.72206],[127.55522,36.72216],[127.5589,36.71996],[127.55929,36.71963],[127.55987,36.71913],[127.56136,36.71778],[127.56182,36.71742],[127.5653,36.71485],[127.56617,36.71444],[127.5665,36.71435],[127.56691,36.71433],[127.57052,36.71519],[127.57879,36.71734],[127.57931,36.7176],[127.57989,36.71839],[127.57997,36.71924],[127.58222,36.72117],[127.58573,36.72228],[127.58717,36.72266],[127.5872,36.72267],[127.59303,36.724],[127.59628,36.7242],[127.59811,36.72412],[127.59987,36.72438],[127.60266,36.72486],[127.60519,36.72586],[127.60971,36.72784],[127.61116,36.72903]]]]}},{"type":"Feature","properties":{"code":"43114253","name":"오창읍","parent":"43114"},"geometry":{"type":"MultiPolygon","coordinates":[[[[127.50134,36.76395],[127.50131,36.76195],[127.50127,36.76068],[127.50123,36.76051],[127.50115,36.76022],[127.50048,36.75867],[127.50042,36.75857],[127.50033,36.75844],[127.49779,36.75659],[127.49671,36.75637],[127.49509,36.7561],[127.49445,36.75583],[127.49426,36.75571],[127.49407,36.75559],[127.49363,36.75508],[127.49249,36.7534],[127.49196,36.7526],[127.49194,36.75124],[127.49201,36.75007],[127.49201,36.75002],[127.49155,36.74863],[127.49057,36.74771],[127.4895,36.74713],[127.48869,36.74669],[127.48827,36.74646],[127.48708,36.74597],[127.4866,36.74572],[127.48603,36.74543],[127.48551,36.74499],[127.48425,36.74392],[127.48351,36.74304],[127.48315,36.74216],[127.48291,36.7413],[127.4829,36.7405],[127.48307,36.73839],[127.48319,36.73767],[127.48302,36.73558],[127.48165,36.72965],[127.48141,36.72872],[127.48105,36.7279],[127.47974,36.72534],[127.47875,36.72365],[127.47751,36.7218],[127.47655,36.7172],[127.47631,36.71643],[127.47577,36.71508],[127.47551,36.71446],[127.475,36.71375],[127.47488,36.71358],[127.47408,36.71284],[127.47341,36.71238],[127.47285,36.71213],[127.46831,36.70976],[127.4655,36.70814],[127.46418,36.70724],[127.46357,36.70682],[127.46287,36.70603],[127.46239,36.70544],[127.46207,36.70469],[127.46188,36.70389],[127.46179,36.70068],[127.46176,36.69711],[127.46175,36.69606],[127.46143,36.69573],[127.45997,36.69512],[127.45843,36.69462],[127.4582,36.69454],[127.45756,36.69433],[127.456,36.69382],[127.45552,36.69351],[127.45435,36.69228],[127.45336,36.69124],[127.45225,36.69054],[127.45206,36.6905],[127.45181,36.69044],[127.45095,36.69035],[127.44992,36.69006],[127.44918,36.68945],[127.44782,36.68762],[127.44664,36.6853],[127.44601,36.68458],[127.44576,36.68431],[127.44405,36.68313],[127.44367,36.68303],[127.44314,36.68288],[127.43957,36.68261],[127.43703,36.68248],[127.43645,36.6825],[127.43606,36.68248],[127.43542,36.68234],[127.43486,36.68204],[127.43377,36.68137],[127.43274,36.68136],[127.43205,36.68163],[127.43149,36.68185],[127.43012,36.68252],[127.42976,36.68269],[127.42934,36.68289],[127.42828,36.68304],[127.4281,36.68561],[127.42793,36.68922],[127.42559,36.68917],[127.42556,36.69021],[127.42541,36.69287],[127.42473,36.69292],[127.42422,36.69294],[127.42399,36.69284],[127.42329,36.69276],[127.42176,36.69271],[127.42106,36.69271],[127.42071,36.6932],[127.42063,36.69535],[127.42086,36.6963],[127.41783,36.6986],[127.41487,36.70081],[127.41232,36.7027],[127.41001,36.70442],[127.40889,36.70531],[127.40862,36.70561],[127.40852,36.70592],[127.40851,36.70624],[127.40858,36.70651],[127.40888,36.70705],[127.4102,36.70818],[127.41083,36.70889],[127.41078,36.70947],[127.41049,36.71052],[127.40895,36.71023],[127.40841,36.71009],[127.40797,36.70984],[127.40775,36.7095],[127.40763,36.70925],[127.40748,36.70907],[127.40719,36.70879],[127.40675,36.70872],[127.40628,36.70865],[127.40008,36.71099],[127.40008,36.71107],[127.40007,36.71213],[127.40019,36.71236],[127.4,36.71318],[127.39972,36.7139],[127.39892,36.71457],[127.39856,36.71486],[127.39824,36.71513],[127.39808,36.71526],[127.39713,36.71589],[127.39618,36.71651],[127.39402,36.71742],[127.3927,36.7176],[127.39158,36.7177],[127.39076,36.71775],[127.39002,36.71778],[127.38923,36.71776],[127.38818,36.71772],[127.38698,36.71748],[127.38156,36.71519],[127.38098,36.71443],[127.3787,36.71315],[127.37725,36.71255],[127.37676,36.71245],[127.37627,36.71235],[127.37545,36.71232],[127.37513,36.71245],[127.37464,36.71265],[127.37392,36.7133],[127.37247,36.71399],[127.36904,36.71514],[127.36788,36.71519],[127.36624,36.71548],[127.36313,36.71678],[127.36286,36.71696],[127.36247,36.71731],[127.36214,36.71761],[127.36164,36.71789],[127.35843,36.71771],[127.35709,36.71753],[127.35658,36.71732],[127.35474,36.71745],[127.35301,36.71767],[127.35259,36.71785],[127.35217,36.71861],[127.35165,36.71891],[127.35094,36.71902],[127.34979,36.71893],[127.3485,36.71877],[127.3478,36.71869],[127.34698,36.71859],[127.34298,36.71847],[127.34098,36.71841],[127.34056,36.71848],[127.3402,36.71865],[127.33938,36.71932],[127.33852,36.71992],[127.3375,36.72013],[127.33559,36.72],[127.3344,36.71999],[127.33158,36.72065],[127.3298,36.72142],[127.3293,36.72165],[127.32891,36.72183],[127.32602,36.72316],[127.32491,36.72345],[127.32337,36.72384],[127.31697,36.72482],[127.31723,36.72493],[127.3175,36.72514],[127.31832,36.72579],[127.3197,36.72704],[127.32112,36.72856],[127.32198,36.72995],[127.32229,36.73045],[127.32308,36.73128],[127.32546,36.73367],[127.3283,36.73456],[127.32846,36.73456],[127.32856,36.73456],[127.32861,36.73456],[127.3294,36.73445],[127.32945,36.73444],[127.32965,36.73437],[127.33006,36.73405],[127.33021,36.73388],[127.33038,36.73363],[127.33062,36.73303],[127.33268,36.73174],[127.33686,36.72938],[127.33733,36.7294],[127.33742,36.7294],[127.33871,36.72979],[127.3393,36.73024],[127.34018,36.73184],[127.34133,36.73682],[127.34121,36.73762],[127.34043,36.73756],[127.33843,36.73748],[127.3374,36.73987],[127.33747,36.74083],[127.33757,36.74178],[127.33756,36.74335],[127.3372,36.74447],[127.33448,36.74699],[127.33438,36.74701],[127.33405,36.74698],[127.33359,36.74849],[127.3344,36.74957],[127.33543,36.75114],[127.33561,36.75156],[127.33555,36.75236],[127.33567,36.75252],[127.33575,36.75257],[127.33599,36.7526],[127.33641,36.75266],[127.34552,36.75386],[127.34557,36.75398],[127.34565,36.75412],[127.34569,36.75417],[127.34697,36.75532],[127.34704,36.75539],[127.34717,36.75548],[127.34729,36.75554],[127.34876,36.7559],[127.34896,36.75594],[127.34918,36.75598],[127.34924,36.75599],[127.34928,36.75599],[127.34938,36.756],[127.35191,36.75603],[127.35259,36.75602],[127.35271,36.75601],[127.35291,36.75598],[127.35302,36.75596],[127.35312,36.75595],[127.35614,36.75765],[127.35883,36.76068],[127.36489,36.7612],[127.36935,36.76148],[127.36944,36.76148],[127.36952,36.76146],[127.36958,36.76142],[127.36963,36.76138],[127.37111,36.75962],[127.3716,36.7588],[127.37167,36.75872],[127.37182,36.75854],[127.37215,36.75828],[127.37225,36.75824],[127.37232,36.75824],[127.37485,36.75826],[127.37492,36.75826],[127.37498,36.75829],[127.37515,36.75841],[127.37935,36.75907],[127.38514,36.75961],[127.38523,36.7596],[127.38532,36.7596],[127.38718,36.75947],[127.38723,36.75947],[127.3873,36.75943],[127.38735,36.75939],[127.38741,36.75934],[127.38745,36.75921],[127.38751,36.75896],[127.38769,36.75813],[127.38771,36.75792],[127.3878,36.75684],[127.38766,36.75606],[127.38766,36.75593],[127.3877,36.75568],[127.38777,36.75534],[127.38782,36.75518],[127.38883,36.75331],[127.38893,36.75321],[127.38909,36.75314],[127.38975,36.75289],[127.38985,36.75287],[127.39194,36.75259],[127.3927,36.75262],[127.39481,36.75094],[127.39513,36.74897],[127.39668,36.74704],[127.39689,36.7469],[127.39789,36.74663],[127.40464,36.74494],[127.40483,36.74491],[127.4049,36.74494],[127.40456,36.74631],[127.40455,36.7465],[127.40526,36.7493],[127.40565,36.75006],[127.40583,36.75025],[127.40765,36.7516],[127.40827,36.75204],[127.40836,36.75206],[127.4086,36.75214],[127.40891,36.75218],[127.40908,36.75221],[127.40912,36.75222],[127.40949,36.75231],[127.41055,36.75283],[127.41067,36.75289],[127.41086,36.753],[127.41103,36.75314],[127.41121,36.75332],[127.41126,36.7534],[127.4113,36.75347],[127.41136,36.75364],[127.41155,36.75419],[127.41155,36.75425],[127.41154,36.75431],[127.4114,36.75494],[127.41137,36.75502],[127.41123,36.75532],[127.41102,36.75574],[127.41118,36.75634],[127.41197,36.75727],[127.41207,36.7573],[127.41264,36.75733],[127.41288,36.75734],[127.41315,36.75734],[127.41427,36.75715],[127.41456,36.75699],[127.4148,36.75681],[127.41493,36.75664],[127.41514,36.75658],[127.41525,36.75656],[127.4154,36.75656],[127.41773,36.757],[127.41788,36.75705],[127.41946,36.7575],[127.41958,36.75757],[127.42172,36.75771],[127.42259,36.75809],[127.42456,36.75781],[127.42689,36.75708],[127.42735,36.75686],[127.4274,36.75659],[127.42718,36.75601],[127.42609,36.75588],[127.42553,36.75565],[127.42535,36.75552],[127.42518,36.7547],[127.4252,36.75429],[127.42714,36.75075],[127.42737,36.75071],[127.42989,36.75065],[127.43023,36.75078],[127.43027,36.7508],[127.43066,36.75113],[127.4326,36.75166],[127.43858,36.75327],[127.43944,36.75317],[127.43983,36.7531],[127.44108,36.75258],[127.44138,36.75234],[127.44195,36.75132],[127.44189,36.75091],[127.44186,36.75018],[127.44199,36.75003],[127.44247,36.74948],[127.44391,36.74879],[127.44489,36.74843],[127.44632,36.74824],[127.44829,36.74891],[127.44983,36.74953],[127.44987,36.7524],[127.44963,36.75353],[127.44958,36.75483],[127.45005,36.75872],[127.4501,36.75901],[127.45138,36.76102],[127.45206,36.76185],[127.4523,36.76208],[127.45339,36.76238],[127.45448,36.76276],[127.45649,36.76436],[127.45857,36.76607],[127.45916,36.76673],[127.46036,36.76918],[127.46021,36.76948],[127.46034,36.76978],[127.46181,36.77017],[127.4675,36.76978],[127.46925,36.76926],[127.4703,36.76887],[127.47041,36.76889],[127.47298,36.76939],[127.47333,36.7696],[127.47394,36.77002],[127.47524,36.77109],[127.47956,36.77336],[127.48119,36.77403],[127.48139,36.77412],[127.48124,36.77432],[127.48085,36.77507],[127.4808,36.77529],[127.48091,36.77544],[127.48196,36.77596],[127.48223,36.77604],[127.48481,36.77579],[127.48545,36.77573],[127.48825,36.77507],[127.48866,36.77475],[127.48894,36.77438],[127.49056,36.77349],[127.49078,36.77349],[127.49094,36.77355],[127.49146,36.77377],[127.49286,36.776],[127.49485,36.77758],[127.50051,36.77944],[127.50195,36.77971],[127.50342,36.77935],[127.50498,36.77894],[127.50571,36.77857],[127.50633,36.77825],[127.50833,36.77674],[127.50935,36.77597],[127.5106,36.77435],[127.51062,36.77389],[127.50948,36.77042],[127.50895,36.7695],[127.50719,36.76834],[127.50626,36.76802],[127.50535,36.76762],[127.50328,36.76656],[127.50271,36.76606],[127.50209,36.76514],[127.50134,36.76395]]]]}},{"type":"Feature","properties":{"code":"43114310","name":"북이면","parent":"43114"},"geometry":{"type":"MultiPolygon","coordinates":[[[[127.61116,36.72903],[127.60971,36.72784],[127.60519,36.72586],[127.60266,36.72486],[127.59987,36.72438],[127.59811,36.72412],[127.59628,36.7242],[127.59303,36.724],[127.5872,36.72267],[127.58717,36.72266],[127.58573,36.72228],[127.58222,36.72117],[127.57997,36.71924],[127.57989,36.71839],[127.57931,36.7176],[127.57879,36.71734],[127.57052,36.71519],[127.56691,36.71433],[127.5665,36.71435],[127.56617,36.71444],[127.5653,36.71485],[127.56182,36.71742],[127.56136,36.71778],[127.55987,36.71913],[127.55929,36.71963],[127.5589,36.71996],[127.55522,36.72216],[127.55327,36.72206],[127.54889,36.72329],[127.54763,36.72371],[127.54754,36.72386],[127.54704,36.72468],[127.54716,36.72528],[127.54713,36.72661],[127.54649,36.72713],[127.54546,36.7279],[127.54529,36.72801],[127.54522,36.72804],[127.54514,36.72806],[127.545,36.7281],[127.54438,36.72809],[127.54424,36.7281],[127.54415,36.72812],[127.544,36.72816],[127.54185,36.72923],[127.54152,36.72945],[127.54127,36.72962],[127.5408,36.72999],[127.54065,36.73012],[127.53978,36.73123],[127.53963,36.73135],[127.53938,36.73149],[127.53663,36.73289],[127.52825,36.73481],[127.52363,36.73317],[127.52039,36.73142],[127.51951,36.73126],[127.5168,36.73121],[127.51636,36.73128],[127.51577,36.73148],[127.5155,36.73157],[127.51471,36.73188],[127.51324,36.7325],[127.51198,36.73303],[127.5115,36.73309],[127.51014,36.73305],[127.50563,36.73277],[127.50156,36.73248],[127.49016,36.72997],[127.48917,36.72889],[127.4891,36.72786],[127.48905,36.72716],[127.48848,36.72646],[127.48807,36.72609],[127.48636,36.72455],[127.48589,36.72356],[127.48565,36.72317],[127.48366,36.72201],[127.48192,36.72172],[127.47751,36.7218],[127.47875,36.72365],[127.47974,36.72534],[127.48105,36.7279],[127.48141,36.72872],[127.48165,36.72965],[127.48302,36.73558],[127.48319,36.73767],[127.48307,36.73839],[127.4829,36.7405],[127.48291,36.7413],[127.48315,36.74216],[127.48351,36.74304],[127.48425,36.74392],[127.48551,36.74499],[127.48603,36.74543],[127.4866,36.74572],[127.48708,36.74597],[127.48827,36.74646],[127.48869,36.74669],[127.4895,36.74713],[127.49057,36.74771],[127.49155,36.74863],[127.49201,36.75002],[127.49201,36.75007],[127.49194,36.75124],[127.49196,36.7526],[127.49249,36.7534],[127.49363,36.75508],[127.49407,36.75559],[127.49426,36.75571],[127.49445,36.75583],[127.49509,36.7561],[127.49671,36.75637],[127.49779,36.75659],[127.50033,36.75844],[127.50042,36.75857],[127.50048,36.75867],[127.50115,36.76022],[127.50123,36.76051],[127.50127,36.76068],[127.50131,36.76195],[127.50134,36.76395],[127.50163,36.76396],[127.50217,36.76399],[127.50256,36.76407],[127.50625,36.76546],[127.50724,36.76601],[127.50925,36.76717],[127.51011,36.76751],[127.5113,36.76798],[127.51221,36.76788],[127.5131,36.76778],[127.51398,36.76782],[127.515,36.76787],[127.51545,36.76797],[127.51584,36.76805],[127.51674,36.76847],[127.51735,36.76876],[127.51777,36.76896],[127.52178,36.76977],[127.52231,36.76968],[127.52336,36.76964],[127.52686,36.76981],[127.52939,36.77001],[127.52983,36.77005],[127.53019,36.77009],[127.53048,36.7704],[127.53073,36.77069],[127.53104,36.77102],[127.53141,36.7714],[127.53202,36.77174],[127.54118,36.77414],[127.5414,36.77417],[127.54161,36.7742],[127.54191,36.7741],[127.54214,36.77402],[127.54286,36.77387],[127.54323,36.7738],[127.54425,36.77365],[127.54428,36.77366],[127.5447,36.77378],[127.54599,36.77451],[127.54862,36.77583],[127.54975,36.77632],[127.55443,36.77785],[127.55584,36.77802],[127.55741,36.77808],[127.55764,36.77796],[127.5579,36.77781],[127.56036,36.77815],[127.5627,36.77912],[127.5636,36.7795],[127.56416,36.77961],[127.56422,36.77962],[127.56632,36.77789],[127.5665,36.77755],[127.56658,36.77739],[127.56698,36.77644],[127.5675,36.77493],[127.56752,36.77486],[127.56756,36.77458],[127.56759,36.77434],[127.56759,36.77397],[127.56759,36.7739],[127.5676,36.77359],[127.56763,36.77335],[127.56767,36.77303],[127.56771,36.77294],[127.56775,36.77286],[127.56783,36.77277],[127.56872,36.77176],[127.56974,36.77148],[127.56997,36.77144],[127.57019,36.77137],[127.5708,36.77105],[127.57193,36.77043],[127.57211,36.77033],[127.57227,36.77023],[127.57239,36.77016],[127.57257,36.76997],[127.5727,36.76984],[127.57372,36.76881],[127.57494,36.76751],[127.57501,36.76745],[127.5751,36.76739],[127.57516,36.76735],[127.57533,36.76726],[127.57566,36.76712],[127.57591,36.76702],[127.57607,36.76697],[127.57709,36.76678],[127.58479,36.76458],[127.5886,36.76253],[127.58867,36.76247],[127.58873,36.76241],[127.58879,36.76234],[127.58881,36.76227],[127.58905,36.76006],[127.58899,36.75965],[127.58841,36.7571],[127.59024,36.75341],[127.59025,36.74874],[127.59023,36.74867],[127.59023,36.74862],[127.59026,36.74858],[127.59125,36.74757],[127.59208,36.74686],[127.59287,36.74632],[127.59578,36.74468],[127.59615,36.74457],[127.59819,36.74432],[127.59828,36.74432],[127.59835,36.74433],[127.59845,36.74436],[127.59868,36.74443],[127.5989,36.74452],[127.59904,36.74458],[127.59915,36.74465],[127.59923,36.74472],[127.59938,36.74488],[127.59963,36.74515],[127.60004,36.74551],[127.60009,36.74554],[127.60024,36.7456],[127.60037,36.74565],[127.60048,36.74568],[127.60057,36.7457],[127.60329,36.74585],[127.60337,36.74586],[127.60343,36.74585],[127.60353,36.74583],[127.6036,36.74582],[127.60371,36.74579],[127.60383,36.74574],[127.60398,36.74567],[127.60411,36.74561],[127.60417,36.74557],[127.60577,36.74382],[127.60581,36.74377],[127.60586,36.74371],[127.608,36.73981],[127.60838,36.73704],[127.60837,36.73698],[127.60841,36.73672],[127.60844,36.73663],[127.60846,36.73659],[127.60865,36.73634],[127.60871,36.73627],[127.60878,36.73623],[127.60981,36.73559],[127.6099,36.73555],[127.60989,36.73161],[127.61078,36.72958],[127.61116,36.72903]]]]}},{"type":"Feature","properties":{"code":"43114550","name":"오근장동","parent":"43114"},"geometry":{"type":"MultiPolygon","coordinates":[[[[127.5123,36.67422],[127.51084,36.67324],[127.50972,36.67281],[127.50869,36.67245],[127.50806,36.67224],[127.50682,36.67203],[127.50457,36.6714],[127.49939,36.66977],[127.49842,36.67004],[127.48977,36.67175],[127.48951,36.6718],[127.48942,36.67181],[127.48849,36.67189],[127.48821,36.67192],[127.48714,36.67199],[127.48644,36.67204],[127.48622,36.67206],[127.48612,36.67205],[127.48573,36.67205],[127.4856,36.67205],[127.48493,36.67194],[127.4848,36.67191],[127.48424,36.67179],[127.48329,36.67153],[127.48315,36.67186],[127.48318,36.6729],[127.48328,36.6745],[127.4834,36.67652],[127.48351,36.67827],[127.48352,36.67855],[127.48349,36.67879],[127.48339,36.67896],[127.48329,36.67913],[127.48317,36.67933],[127.48305,36.67952],[127.48253,36.67928],[127.48209,36.67907],[127.48183,36.67911],[127.48162,36.67918],[127.47898,36.68072],[127.47758,36.6816],[127.47509,36.67956],[127.4744,36.6788],[127.47426,36.67862],[127.47405,36.67844],[127.47276,36.67779],[127.47066,36.67722],[127.4705,36.67721],[127.47023,36.67721],[127.46978,36.6774],[127.46966,36.67742],[127.46949,36.67741],[127.46924,36.67739],[127.46902,36.67734],[127.4688,36.67728],[127.46858,36.6772],[127.46689,36.67649],[127.46641,36.67627],[127.46601,36.67607],[127.46597,36.67598],[127.46593,36.67584],[127.46593,36.67578],[127.46595,36.67465],[127.4661,36.67454],[127.46621,36.67433],[127.46632,36.67378],[127.4661,36.67128],[127.46607,36.67119],[127.46598,36.67097],[127.46594,36.6709],[127.46583,36.67081],[127.46504,36.67029],[127.46384,36.66954],[127.46378,36.66951],[127.46363,36.66945],[127.46303,36.66933],[127.46282,36.6696],[127.46222,36.67023],[127.46176,36.67062],[127.45756,36.67398],[127.45686,36.67442],[127.45656,36.67461],[127.45627,36.67476],[127.45484,36.67501],[127.45435,36.67506],[127.45412,36.67506],[127.45403,36.67506],[127.45297,36.67505],[127.45252,36.675],[127.45208,36.67496],[127.4514,36.6749],[127.44969,36.67488],[127.44914,36.67487],[127.44858,36.67495],[127.44809,36.67504],[127.44784,36.67519],[127.44765,36.67536],[127.44734,36.67698],[127.44707,36.68128],[127.44707,36.68143],[127.44709,36.68169],[127.44713,36.68176],[127.44729,36.68205],[127.44739,36.68215],[127.44762,36.68236],[127.44797,36.6826],[127.44838,36.68281],[127.44858,36.6829],[127.44664,36.6853],[127.44782,36.68762],[127.44918,36.68945],[127.44992,36.69006],[127.45095,36.69035],[127.45181,36.69044],[127.45206,36.6905],[127.45225,36.69054],[127.45336,36.69124],[127.45435,36.69228],[127.45552,36.69351],[127.456,36.69382],[127.45756,36.69433],[127.4582,36.69454],[127.45843,36.69462],[127.45997,36.69512],[127.46143,36.69573],[127.46175,36.69606],[127.46176,36.69711],[127.46179,36.70068],[127.46188,36.70389],[127.46207,36.70469],[127.46239,36.70544],[127.46287,36.70603],[127.46357,36.70682],[127.46418,36.70724],[127.4655,36.70814],[127.46831,36.70976],[127.47285,36.71213],[127.47341,36.71238],[127.47408,36.71284],[127.47488,36.71358],[127.475,36.71375],[127.47551,36.71446],[127.47577,36.71508],[127.47631,36.71643],[127.47655,36.7172],[127.47751,36.7218],[127.48192,36.72172],[127.48366,36.72201],[127.48565,36.72317],[127.48589,36.72356],[127.48622,36.72231],[127.48684,36.72173],[127.48682,36.72128],[127.48677,36.72104],[127.48665,36.72078],[127.48622,36.72015],[127.4854,36.71916],[127.48529,36.71903],[127.48507,36.71885],[127.48534,36.71843],[127.48537,36.71841],[127.48599,36.71803],[127.49208,36.71568],[127.49489,36.71534],[127.49612,36.71639],[127.49758,36.71766],[127.49958,36.71758],[127.50122,36.71681],[127.50075,36.71547],[127.50068,36.71532],[127.49997,36.71451],[127.49966,36.71447],[127.49947,36.71438],[127.49864,36.71398],[127.49896,36.71306],[127.49935,36.71264],[127.49958,36.71246],[127.5005,36.71192],[127.50085,36.71184],[127.5016,36.71178],[127.50203,36.71147],[127.5006,36.70704],[127.50015,36.70663],[127.50001,36.70653],[127.49995,36.70651],[127.49772,36.70607],[127.49688,36.70596],[127.49638,36.70559],[127.49644,36.70523],[127.49737,36.70417],[127.49743,36.70412],[127.49826,36.70168],[127.49776,36.69955],[127.49679,36.6962],[127.49676,36.69602],[127.49672,36.69577],[127.49667,36.69538],[127.49664,36.69513],[127.49641,36.69168],[127.49665,36.69118],[127.49669,36.6911],[127.49998,36.68914],[127.49971,36.6845],[127.50374,36.68307],[127.50426,36.6826],[127.5046,36.68221],[127.50576,36.68067],[127.50606,36.68025],[127.50591,36.67998],[127.50577,36.67984],[127.50594,36.67948],[127.50749,36.67825],[127.51098,36.67552],[127.5123,36.67422]]]]}},{"type":"Feature","properties":{"code":"43114510","name":"우암동","parent":"43114"},"geometry":{"type":"MultiPolygon","coordinates":[[[[127.48893,36.65241],[127.48897,36.65212],[127.48962,36.65193],[127.49035,36.65188],[127.49784,36.65157],[127.49873,36.65212],[127.49882,36.65262],[127.49947,36.65312],[127.50024,36.65326],[127.50302,36.65344],[127.50455,36.65314],[127.50514,36.65024],[127.50458,36.64979],[127.50183,36.64782],[127.50091,36.64719],[127.49809,36.64805],[127.49783,36.64813],[127.49737,36.64809],[127.49347,36.64747],[127.49167,36.64656],[127.48819,36.64503],[127.48738,36.64503],[127.48596,36.64504],[127.48556,36.64504],[127.4848,36.64504],[127.48399,36.64504],[127.48392,36.64504],[127.48253,36.64466],[127.48145,36.64658],[127.48059,36.64805],[127.47915,36.65003],[127.47885,36.65041],[127.47844,36.65088],[127.47671,36.65286],[127.47615,36.65349],[127.47571,36.65417],[127.47797,36.65525],[127.48377,36.65681],[127.48392,36.65664],[127.48468,36.65578],[127.4875,36.65259],[127.48771,36.65235],[127.48881,36.6524],[127.48893,36.65241]]]]}},{"type":"Feature","properties":{"code":"43114520","name":"내덕1동","parent":"43114"},"geometry":{"type":"MultiPolygon","coordinates":[[[[127.48893,36.65241],[127.48881,36.6524],[127.48771,36.65235],[127.4875,36.65259],[127.48468,36.65578],[127.48392,36.65664],[127.48377,36.65681],[127.47797,36.65525],[127.47571,36.65417],[127.47161,36.65929],[127.47393,36.65952],[127.47449,36.65987],[127.47504,36.66021],[127.47521,36.66032],[127.4753,36.66038],[127.47543,36.66058],[127.47934,36.66259],[127.48176,36.66309],[127.48382,36.66365],[127.48556,36.6644],[127.48662,36.66503],[127.48698,36.6629],[127.48704,36.66251],[127.48718,36.66172],[127.48761,36.65937],[127.48763,36.65928],[127.48769,36.65908],[127.48785,36.65849],[127.48869,36.65378],[127.48893,36.65241]]]]}},{"type":"Feature","properties":{"code":"43114530","name":"내덕2동","parent":"43114"},"geometry":{"type":"MultiPolygon","coordinates":[[[[127.50455,36.65314],[127.50302,36.65344],[127.50024,36.65326],[127.49947,36.65312],[127.49882,36.65262],[127.49873,36.65212],[127.49784,36.65157],[127.49035,36.65188],[127.48962,36.65193],[127.48897,36.65212],[127.48893,36.65241],[127.48869,36.65378],[127.48785,36.65849],[127.48769,36.65908],[127.48763,36.65928],[127.48761,36.65937],[127.48718,36.66172],[127.48704,36.66251],[127.48698,36.6629],[127.48662,36.66503],[127.48814,36.66543],[127.48943,36.66533],[127.49993,36.66345],[127.50175,36.66255],[127.50177,36.66251],[127.50181,36.66237],[127.50181,36.66155],[127.50181,36.6615],[127.50176,36.66141],[127.50109,36.65931],[127.50158,36.65838],[127.50162,36.65833],[127.50171,36.65821],[127.50185,36.65801],[127.5026,36.65749],[127.50269,36.65739],[127.5042,36.65495],[127.50446,36.65428],[127.50447,36.65385],[127.50445,36.65363],[127.50455,36.65314]]]]}},{"type":"Feature","properties":{"code":"43114540","name":"율량·사천동","parent":"43114"},"geometry":{"type":"MultiPolygon","coordinates":[[[[127.5123,36.67422],[127.51572,36.67254],[127.51865,36.67167],[127.52425,36.66908],[127.52856,36.66744],[127.53197,36.66637],[127.5322,36.66624],[127.53269,36.66587],[127.53369,36.66463],[127.53157,36.66329],[127.52921,36.66281],[127.52776,36.66246],[127.52498,36.66037],[127.52467,36.65867],[127.52432,36.65804],[127.52369,36.65767],[127.52159,36.65649],[127.51913,36.65532],[127.51429,36.65325],[127.51318,36.65299],[127.51298,36.65295],[127.51154,36.65301],[127.51043,36.65307],[127.50966,36.65323],[127.50836,36.65252],[127.50607,36.65012],[127.50514,36.65024],[127.50455,36.65314],[127.50445,36.65363],[127.50447,36.65385],[127.50446,36.65428],[127.5042,36.65495],[127.50269,36.65739],[127.5026,36.65749],[127.50185,36.65801],[127.50171,36.65821],[127.50162,36.65833],[127.50158,36.65838],[127.50109,36.65931],[127.50176,36.66141],[127.50181,36.6615],[127.50181,36.66155],[127.50181,36.66237],[127.50177,36.66251],[127.50175,36.66255],[127.49993,36.66345],[127.48943,36.66533],[127.48814,36.66543],[127.48662,36.66503],[127.48556,36.6644],[127.48382,36.66365],[127.48176,36.66309],[127.47934,36.66259],[127.47543,36.66058],[127.4753,36.66038],[127.47521,36.66032],[127.47504,36.66021],[127.47449,36.65987],[127.47393,36.65952],[127.47161,36.65929],[127.46841,36.66298],[127.46504,36.66646],[127.46303,36.66933],[127.46363,36.66945],[127.46378,36.66951],[127.46384,36.66954],[127.46504,36.67029],[127.46583,36.67081],[127.46594,36.6709],[127.46598,36.67097],[127.46607,36.67119],[127.4661,36.67128],[127.46632,36.67378],[127.46621,36.67433],[127.4661,36.67454],[127.46595,36.67465],[127.46593,36.67578],[127.46593,36.67584],[127.46597,36.67598],[127.46601,36.67607],[127.46641,36.67627],[127.46689,36.67649],[127.46858,36.6772],[127.4688,36.67728],[127.46902,36.67734],[127.46924,36.67739],[127.46949,36.67741],[127.46966,36.67742],[127.46978,36.6774],[127.47023,36.67721],[127.4705,36.67721],[127.47066,36.67722],[127.47276,36.67779],[127.47405,36.67844],[127.47426,36.67862],[127.4744,36.6788],[127.47509,36.67956],[127.47758,36.6816],[127.47898,36.68072],[127.48162,36.67918],[127.48183,36.67911],[127.48209,36.67907],[127.48253,36.67928],[127.48305,36.67952],[127.48317,36.67933],[127.48329,36.67913],[127.48339,36.67896],[127.48349,36.67879],[127.48352,36.67855],[127.48351,36.67827],[127.4834,36.67652],[127.48328,36.6745],[127.48318,36.6729],[127.48315,36.67186],[127.48329,36.67153],[127.48424,36.67179],[127.4848,36.67191],[127.48493,36.67194],[127.4856,36.67205],[127.48573,36.67205],[127.48612,36.67205],[127.48622,36.67206],[127.48644,36.67204],[127.48714,36.67199],[127.48821,36.67192],[127.48849,36.67189],[127.48942,36.67181],[127.48951,36.6718],[127.48977,36.67175],[127.49842,36.67004],[127.49939,36.66977],[127.50457,36.6714],[127.50682,36.67203],[127.50806,36.67224],[127.50869,36.67245],[127.50972,36.67281],[127.51084,36.67324],[127.5123,36.67422]]]]}}]}