{"type":"FeatureCollection","features":[{"type":"Feature","properties":{"code":"28245601","name":"효성1동","parent":"28245"},"geometry":{"type":"MultiPolygon","coordinates":[[[[126.71732,37.53629],[126.71749,37.53485],[126.71844,37.53021],[126.71873,37.52921],[126.71837,37.52792],[126.71385,37.52788],[126.7029,37.52778],[126.70241,37.52778],[126.70125,37.52974],[126.70132,37.52991],[126.70145,37.53069],[126.70142,37.53082],[126.70124,37.53132],[126.70114,37.53159],[126.70112,37.53166],[126.70047,37.53334],[126.70015,37.53388],[126.70013,37.53391],[126.69989,37.53428],[126.69905,37.53469],[126.69795,37.53488],[126.69706,37.53564],[126.69673,37.53629],[126.69729,37.53703],[126.6985,37.53865],[126.69928,37.54043],[126.70089,37.54107],[126.7031,37.54113],[126.70366,37.54176],[126.70519,37.54069],[126.7068,37.53984],[126.70811,37.53965],[126.70998,37.54001],[126.71013,37.54003],[126.71111,37.54003],[126.71119,37.54003],[126.71123,37.54002],[126.71126,37.54001],[126.71129,37.54001],[126.71135,37.53998],[126.71256,37.5394],[126.7139,37.53849],[126.7142,37.53826],[126.71426,37.53819],[126.7143,37.53803],[126.71432,37.53778],[126.71432,37.53754],[126.71432,37.53744],[126.71433,37.5373],[126.71434,37.53726],[126.71438,37.53721],[126.71446,37.53713],[126.71449,37.53711],[126.71589,37.53624],[126.71601,37.53621],[126.71607,37.53621],[126.71681,37.53618],[126.71692,37.5362],[126.71701,37.53621],[126.71732,37.53629]]]]}},{"type":"Feature","properties":{"code":"28245602","name":"효성2동","parent":"28245"},"geometry":{"type":"MultiPolygon","coordinates":[[[[126.69928,37.54043],[126.6985,37.53865],[126.69729,37.53703],[126.69673,37.53629],[126.69706,37.53564],[126.69795,37.53488],[126.69905,37.53469],[126.69989,37.53428],[126.70013,37.53391],[126.70015,37.53388],[126.70047,37.53334],[126.70112,37.53166],[126.70114,37.53159],[126.70124,37.53132],[126.70142,37.53082],[126.70145,37.53069],[126.70132,37.52991],[126.70125,37.52974],[126.70241,37.52778],[126.7029,37.52778],[126.71385,37.52788],[126.71837,37.52792],[126.71942,37.52794],[126.71953,37.52794],[126.71953,37.52787],[126.71928,37.52484],[126.71916,37.52377],[126.70497,37.52363],[126.69789,37.52361],[126.68916,37.52356],[126.68877,37.5247],[126.68783,37.52593],[126.68747,37.52616],[126.68744,37.52694],[126.68748,37.52831],[126.68692,37.53074],[126.68399,37.53111],[126.68345,37.53112],[126.6829,37.53112],[126.68246,37.532],[126.68259,37.53298],[126.68272,37.53318],[126.68278,37.53328],[126.68329,37.53385],[126.6837,37.53443],[126.68361,37.5352],[126.68416,37.53545],[126.68462,37.53562],[126.68801,37.53594],[126.68936,37.53608],[126.69142,37.53598],[126.69252,37.53698],[126.69201,37.53862],[126.69221,37.53989],[126.69267,37.54115],[126.69397,37.54126],[126.69483,37.54183],[126.69665,37.54198],[126.69778,37.54211],[126.69928,37.54043]]]]}},{"type":"Feature","properties":{"code":"28245611","name":"계산1동","parent":"28245"},"geometry":{"type":"MultiPolygon","coordinates":[[[[126.72899,37.54325],[126.72845,37.5431],[126.72834,37.54168],[126.72833,37.54156],[126.72826,37.54066],[126.72808,37.53835],[126.72806,37.53786],[126.72802,37.5373],[126.72801,37.53713],[126.728,37.53667],[126.72799,37.53629],[126.72786,37.53627],[126.72363,37.53637],[126.72348,37.53637],[126.72188,37.5364],[126.72047,37.53643],[126.7203,37.53643],[126.71969,37.53642],[126.71776,37.53635],[126.71755,37.53634],[126.71732,37.53629],[126.71701,37.53621],[126.71692,37.5362],[126.71681,37.53618],[126.71607,37.53621],[126.71601,37.53621],[126.71589,37.53624],[126.71449,37.53711],[126.71446,37.53713],[126.71438,37.53721],[126.71434,37.53726],[126.71433,37.5373],[126.71432,37.53744],[126.71432,37.53754],[126.71432,37.53778],[126.7143,37.53803],[126.71426,37.53819],[126.7142,37.53826],[126.7139,37.53849],[126.71256,37.5394],[126.71135,37.53998],[126.71129,37.54001],[126.71126,37.54001],[126.71123,37.54002],[126.71119,37.54003],[126.71111,37.54003],[126.71013,37.54003],[126.70998,37.54001],[126.70811,37.53965],[126.7068,37.53984],[126.70519,37.54069],[126.70366,37.54176],[126.70397,37.54209],[126.70516,37.54185],[126.70634,37.54189],[126.70734,37.54288],[126.70688,37.54382],[126.70599,37.54495],[126.70826,37.54596],[126.7085,37.54651],[126.70886,37.54625],[126.70978,37.54586],[126.71072,37.54549],[126.71313,37.54458],[126.7142,37.5442],[126.71469,37.54404],[126.71484,37.54401],[126.71509,37.54396],[126.71586,37.54386],[126.725,37.54342],[126.72674,37.54334],[126.72899,37.54325]]]]}},{"type":"Feature","properties":{"code":"28245612","name":"계산2동","parent":"28245"},"geometry":{"type":"MultiPolygon","coordinates":[[[[126.72334,37.55251],[126.72527,37.5517],[126.72721,37.5496],[126.72996,37.54765],[126.7311,37.54558],[126.73145,37.54523],[126.73202,37.54493],[126.73289,37.54456],[126.73378,37.54406],[126.73395,37.54382],[126.73408,37.5436],[126.73413,37.54333],[126.73413,37.5432],[126.7341,37.54299],[126.73085,37.54314],[126.72899,37.54325],[126.72674,37.54334],[126.725,37.54342],[126.71586,37.54386],[126.71509,37.54396],[126.71484,37.54401],[126.71469,37.54404],[126.7142,37.5442],[126.71313,37.54458],[126.71072,37.54549],[126.70978,37.54586],[126.70886,37.54625],[126.7085,37.54651],[126.70888,37.54753],[126.71014,37.54948],[126.71116,37.55094],[126.71213,37.55256],[126.71483,37.55294],[126.72334,37.55251]]]]}},{"type":"Feature","properties":{"code":"28245613","name":"계산3동","parent":"28245"},"geometry":{"type":"MultiPolygon","coordinates":[[[[126.7341,37.54299],[126.73687,37.5429],[126.73473,37.54004],[126.73468,37.53993],[126.73461,37.53961],[126.73454,37.53906],[126.73437,37.5377],[126.73436,37.53758],[126.73429,37.53678],[126.73425,37.53633],[126.73423,37.536],[126.73416,37.53519],[126.73152,37.53542],[126.72799,37.53629],[126.728,37.53667],[126.72801,37.53713],[126.72802,37.5373],[126.72806,37.53786],[126.72808,37.53835],[126.72826,37.54066],[126.72833,37.54156],[126.72834,37.54168],[126.72845,37.5431],[126.72899,37.54325],[126.73085,37.54314],[126.7341,37.54299]]]]}},{"type":"Feature","properties":{"code":"28245621","name":"작전1동","parent":"28245"},"geometry":{"type":"MultiPolygon","coordinates":[[[[126.73416,37.53519],[126.73405,37.5341],[126.73349,37.52944],[126.73348,37.52934],[126.7334,37.52856],[126.73331,37.52763],[126.73314,37.52579],[126.73312,37.52555],[126.73299,37.52386],[126.72772,37.52381],[126.72589,37.5238],[126.72604,37.52546],[126.72601,37.52548],[126.72552,37.52548],[126.72519,37.52548],[126.72513,37.5299],[126.72562,37.53043],[126.72628,37.53075],[126.72664,37.53075],[126.72786,37.53075],[126.72791,37.5329],[126.72799,37.53629],[126.73152,37.53542],[126.73416,37.53519]]]]}},{"type":"Feature","properties":{"code":"28245622","name":"작전2동","parent":"28245"},"geometry":{"type":"MultiPolygon","coordinates":[[[[126.72799,37.53629],[126.72791,37.5329],[126.72786,37.53075],[126.72664,37.53075],[126.72628,37.53075],[126.72562,37.53043],[126.72513,37.5299],[126.72519,37.52548],[126.72552,37.52548],[126.72601,37.52548],[126.72604,37.52546],[126.72589,37.5238],[126.72213,37.52381],[126.71916,37.52377],[126.71928,37.52484],[126.71953,37.52787],[126.71953,37.52794],[126.71942,37.52794],[126.71837,37.52792],[126.71873,37.52921],[126.71844,37.53021],[126.71749,37.53485],[126.71732,37.53629],[126.71755,37.53634],[126.71776,37.53635],[126.71969,37.53642],[126.7203,37.53643],[126.72047,37.53643],[126.72188,37.5364],[126.72348,37.53637],[126.72363,37.53637],[126.72786,37.53627],[126.72799,37.53629]]]]}},{"type":"Feature","properties":{"code":"28245640","name":"작전서운동","parent":"28245"},"geometry":{"type":"MultiPolygon","coordinates":[[[[126.76095,37.53786],[126.76068,37.53556],[126.76032,37.52832],[126.76032,37.5275],[126.76034,37.5241],[126.75574,37.52407],[126.75136,37.52405],[126.74511,37.524],[126.73619,37.52391],[126.73586,37.52391],[126.73349,37.52387],[126.73299,37.52386],[126.73312,37.52555],[126.73314,37.52579],[126.73331,37.52763],[126.7334,37.52856],[126.73348,37.52934],[126.73349,37.52944],[126.73405,37.5341],[126.73411,37.53411],[126.73426,37.53411],[126.73493,37.53407],[126.73669,37.53397],[126.73689,37.53395],[126.73887,37.53383],[126.74003,37.53375],[126.74169,37.53363],[126.74177,37.53362],[126.74241,37.53358],[126.74244,37.53357],[126.74364,37.53348],[126.7437,37.5335],[126.74373,37.53358],[126.74463,37.53824],[126.75361,37.53795],[126.76095,37.53786]]]]}},{"type":"Feature","properties":{"code":"28245720","name":"계양2동","parent":"28245"},"geometry":{"type":"MultiPolygon","coordinates":[[[[126.7616,37.54023],[126.76095,37.53786],[126.75361,37.53795],[126.74463,37.53824],[126.7455,37.54326],[126.74564,37.5442],[126.74567,37.5445],[126.74483,37.54431],[126.7443,37.54419],[126.74388,37.54408],[126.74342,37.54395],[126.7422,37.54361],[126.74204,37.54356],[126.74165,37.54345],[126.74112,37.54329],[126.74083,37.5432],[126.74066,37.54315],[126.74036,37.54305],[126.73982,37.54294],[126.73947,37.54288],[126.73935,37.54286],[126.73901,37.54284],[126.73876,37.54282],[126.73773,37.54284],[126.73687,37.5429],[126.7341,37.54299],[126.73413,37.5432],[126.73413,37.54333],[126.73408,37.5436],[126.73395,37.54382],[126.73378,37.54406],[126.73289,37.54456],[126.73202,37.54493],[126.73145,37.54523],[126.7311,37.54558],[126.72996,37.54765],[126.72721,37.5496],[126.72527,37.5517],[126.72334,37.55251],[126.72352,37.55498],[126.72578,37.55813],[126.72942,37.55941],[126.73203,37.55911],[126.73493,37.55991],[126.7363,37.56059],[126.73887,37.55939],[126.73962,37.55853],[126.73865,37.55692],[126.73946,37.55591],[126.74467,37.5526],[126.7458,37.55295],[126.74777,37.55251],[126.74886,37.55189],[126.75009,37.5521],[126.75059,37.55172],[126.75267,37.55099],[126.75138,37.54822],[126.75206,37.54802],[126.75278,37.54781],[126.7541,37.54743],[126.75575,37.54695],[126.75446,37.54422],[126.76095,37.54238],[126.76053,37.5415],[126.76008,37.54163],[126.75933,37.54185],[126.75914,37.54144],[126.75898,37.54105],[126.76144,37.54027],[126.7616,37.54023]]]]}},{"type":"Feature","properties":{"code":"28245614","name":"계산4동","parent":"28245"},"geometry":{"type":"MultiPolygon","coordinates":[[[[126.74463,37.53824],[126.74373,37.53358],[126.7437,37.5335],[126.74364,37.53348],[126.74244,37.53357],[126.74241,37.53358],[126.74177,37.53362],[126.74169,37.53363],[126.74003,37.53375],[126.73887,37.53383],[126.73689,37.53395],[126.73669,37.53397],[126.73493,37.53407],[126.73426,37.53411],[126.73411,37.53411],[126.73405,37.5341],[126.73416,37.53519],[126.73423,37.536],[126.73425,37.53633],[126.73429,37.53678],[126.73436,37.53758],[126.73437,37.5377],[126.73454,37.53906],[126.73461,37.53961],[126.73468,37.53993],[126.73473,37.54004],[126.73687,37.5429],[126.73773,37.54284],[126.73876,37.54282],[126.73901,37.54284],[126.73935,37.54286],[126.73947,37.54288],[126.73982,37.54294],[126.74036,37.54305],[126.74066,37.54315],[126.74083,37.5432],[126.74112,37.54329],[126.74165,37.54345],[126.74204,37.54356],[126.7422,37.54361],[126.74342,37.54395],[126.74388,37.54408],[126.7443,37.54419],[126.74483,37.54431],[126.74567,37.5445],[126.74564,37.5442],[126.7455,37.54326],[126.74463,37.53824]]]]}},{"type":"Feature","properties":{"code":"28245710","name":"계양1동","parent":"28245"},"geometry":{"type":"MultiPolygon","coordinates":[[[[126.76308,37.58489],[126.76032,37.58043],[126.76254,37.58031],[126.76246,37.58008],[126.76134,37.57622],[126.75904,37.57483],[126.75644,37.57388],[126.74617,37.57417],[126.73836,37.57334],[126.74026,37.56997],[126.74066,37.56925],[126.74157,37.56763],[126.74227,37.56596],[126.74251,37.56248],[126.74368,37.56137],[126.74438,37.56219],[126.74532,37.56246],[126.74617,37.56141],[126.74824,37.55872],[126.74887,37.55754],[126.75047,37.55583],[126.75383,37.55391],[126.75818,37.55239],[126.7572,37.55011],[126.75706,37.54981],[126.7566,37.54877],[126.75753,37.54849],[126.76351,37.54675],[126.76337,37.54552],[126.76319,37.54441],[126.76285,37.54322],[126.7616,37.54023],[126.76144,37.54027],[126.75898,37.54105],[126.75914,37.54144],[126.75933,37.54185],[126.76008,37.54163],[126.76053,37.5415],[126.76095,37.54238],[126.75446,37.54422],[126.75575,37.54695],[126.7541,37.54743],[126.75278,37.54781],[126.75206,37.54802],[126.75138,37.54822],[126.75267,37.55099],[126.75059,37.55172],[126.75009,37.5521],[126.74886,37.55189],[126.74777,37.55251],[126.7458,37.55295],[126.74467,37.5526],[126.73946,37.55591],[126.73865,37.55692],[126.73962,37.55853],[126.73887,37.55939],[126.7363,37.56059],[126.73493,37.55991],[126.73203,37.55911],[126.72942,37.55941],[126.72578,37.55813],[126.72352,37.55498],[126.72334,37.55251],[126.71483,37.55294],[126.71213,37.55256],[126.71103,37.55376],[126.70856,37.55516],[126.70657,37.55706],[126.70549,37.55682],[126.7021,37.55603],[126.70193,37.55614],[126.70037,37.55779],[126.69968,37.55863],[126.69951,37.55889],[126.70157,37.56015],[126.70212,37.5605],[126.70235,37.56075],[126.70264,37.56125],[126.70338,37.56387],[126.70344,37.56426],[126.70343,37.56447],[126.70335,37.5647],[126.70316,37.56491],[126.70307,37.56495],[126.70288,37.56497],[126.70195,37.56489],[126.70172,37.56491],[126.70029,37.56541],[126.70019,37.56547],[126.70014,37.56559],[126.69948,37.56774],[126.69913,37.56927],[126.69919,37.56933],[126.70032,37.57103],[126.70037,37.57116],[126.70041,37.57169],[126.70036,37.57196],[126.70029,37.57204],[126.70024,37.57209],[126.69906,37.57338],[126.69793,37.57381],[126.69778,37.57382],[126.6946,37.5745],[126.69242,37.57509],[126.68792,37.57658],[126.68653,37.57614],[126.68632,37.57608],[126.68606,37.57611],[126.68245,37.57722],[126.68232,37.57728],[126.68217,37.57741],[126.68215,37.57748],[126.68214,37.57751],[126.68218,37.57849],[126.68262,37.57953],[126.68309,37.58146],[126.68179,37.58338],[126.68191,37.58336],[126.68199,37.58374],[126.68361,37.58356],[126.68425,37.58399],[126.68492,37.58414],[126.68602,37.58396],[126.68615,37.584],[126.68681,37.58382],[126.68699,37.58375],[126.68711,37.58371],[126.68982,37.58269],[126.69079,37.58269],[126.69145,37.58246],[126.69206,37.58243],[126.69238,37.58239],[126.69286,37.58234],[126.69295,37.58233],[126.6933,37.58225],[126.69505,37.58154],[126.69733,37.58135],[126.70044,37.5809],[126.70367,37.58032],[126.70617,37.57988],[126.70921,37.57916],[126.71041,37.57868],[126.7133,37.57769],[126.7146,37.57835],[126.71626,37.5794],[126.71706,37.5804],[126.71764,37.58133],[126.71774,37.5815],[126.71823,37.58287],[126.71766,37.58358],[126.71761,37.58488],[126.71771,37.58523],[126.71777,37.58533],[126.72092,37.58887],[126.72226,37.59006],[126.72289,37.59043],[126.72363,37.59088],[126.72454,37.59143],[126.72481,37.59159],[126.72513,37.592],[126.72732,37.59254],[126.7286,37.59284],[126.72901,37.59294],[126.72918,37.59289],[126.73222,37.59167],[126.73502,37.59047],[126.73668,37.59219],[126.73664,37.59247],[126.73698,37.59307],[126.73705,37.59318],[126.73798,37.5935],[126.73827,37.59356],[126.73903,37.59369],[126.74362,37.59335],[126.74454,37.59154],[126.74481,37.59046],[126.74493,37.58999],[126.74523,37.5891],[126.74533,37.58879],[126.74615,37.58733],[126.74628,37.58712],[126.74635,37.58703],[126.74646,37.58686],[126.74655,37.58678],[126.74661,37.58672],[126.74847,37.58522],[126.74891,37.58491],[126.74916,37.5848],[126.7496,37.58438],[126.75003,37.58368],[126.75002,37.58242],[126.75,37.58197],[126.74993,37.58095],[126.75182,37.57957],[126.75474,37.58043],[126.75564,37.58124],[126.75558,37.5823],[126.75557,37.58257],[126.75556,37.58271],[126.75556,37.58274],[126.7577,37.58479],[126.75809,37.58487],[126.75916,37.58509],[126.76155,37.58531],[126.76308,37.58489]]]]}},{"type":"Feature","properties":{"code":"28245730","name":"계양3동","parent":"28245"},"geometry":{"type":"MultiPolygon","coordinates":[[[[126.79367,37.5816],[126.7937,37.58154],[126.79299,37.57974],[126.79174,37.58114],[126.79052,37.58031],[126.79006,37.57757],[126.78757,37.5756],[126.78458,37.57467],[126.78289,37.5737],[126.7827,37.57356],[126.78262,37.57342],[126.78257,37.57335],[126.7819,37.57185],[126.78197,37.57169],[126.7825,37.57023],[126.78053,37.56833],[126.77696,37.56634],[126.77563,37.56816],[126.7748,37.56753],[126.77501,37.56601],[126.777,37.56398],[126.77792,37.56011],[126.77563,37.5618],[126.77201,37.5588],[126.77311,37.5575],[126.77208,37.557],[126.77031,37.55719],[126.7666,37.55667],[126.76469,37.55537],[126.76634,37.55493],[126.7662,37.55413],[126.76649,37.55288],[126.76475,37.55118],[126.76417,37.55082],[126.76501,37.55048],[126.76423,37.54977],[126.76351,37.54675],[126.75753,37.54849],[126.7566,37.54877],[126.75706,37.54981],[126.7572,37.55011],[126.75818,37.55239],[126.75383,37.55391],[126.75047,37.55583],[126.74887,37.55754],[126.74824,37.55872],[126.74617,37.56141],[126.74532,37.56246],[126.74438,37.56219],[126.74368,37.56137],[126.74251,37.56248],[126.74227,37.56596],[126.74157,37.56763],[126.74066,37.56925],[126.74026,37.56997],[126.73836,37.57334],[126.74617,37.57417],[126.75644,37.57388],[126.75904,37.57483],[126.76134,37.57622],[126.76246,37.58008],[126.76254,37.58031],[126.76032,37.58043],[126.76308,37.58489],[126.76404,37.5859],[126.76731,37.58803],[126.76807,37.58806],[126.76945,37.58724],[126.77012,37.58668],[126.77032,37.58652],[126.77089,37.58604],[126.77101,37.58598],[126.77117,37.58591],[126.7715,37.58574],[126.77159,37.5857],[126.77327,37.58515],[126.7733,37.58514],[126.77336,37.58512],[126.77486,37.58487],[126.77678,37.58466],[126.77768,37.58464],[126.7788,37.58453],[126.7801,37.58436],[126.78193,37.58391],[126.78411,37.58259],[126.7856,37.58407],[126.78585,37.58433],[126.78604,37.58452],[126.78663,37.58512],[126.78705,37.58555],[126.79213,37.58248],[126.79286,37.58205],[126.79367,37.5816]]]]}}]}