{"type":"FeatureCollection","features":[{"type":"Feature","properties":{"code":"41131510","name":"신흥1동","parent":"41131"},"geometry":{"type":"MultiPolygon","coordinates":[[[[127.14458,37.43955],[127.14451,37.43952],[127.14448,37.43954],[127.14079,37.43742],[127.14053,37.43774],[127.13762,37.43926],[127.13743,37.43952],[127.13724,37.43987],[127.13705,37.44021],[127.13613,37.4422],[127.1372,37.44253],[127.14076,37.44361],[127.14246,37.44413],[127.14417,37.43975],[127.14458,37.43955]]]]}},{"type":"Feature","properties":{"code":"41131520","name":"신흥2동","parent":"41131"},"geometry":{"type":"MultiPolygon","coordinates":[[[[127.15048,37.4568],[127.15013,37.45641],[127.14987,37.45599],[127.14932,37.45231],[127.14991,37.45188],[127.15018,37.45169],[127.1523,37.45019],[127.15261,37.44997],[127.15276,37.44986],[127.15288,37.44977],[127.1532,37.44953],[127.15329,37.44946],[127.15349,37.44923],[127.15356,37.4491],[127.1537,37.44882],[127.15371,37.44878],[127.15372,37.44872],[127.15376,37.44855],[127.15416,37.44785],[127.1542,37.4478],[127.15422,37.44777],[127.15424,37.44775],[127.15426,37.44771],[127.15439,37.44755],[127.15444,37.44749],[127.15473,37.44718],[127.155,37.44689],[127.15579,37.44611],[127.15595,37.44595],[127.15663,37.44529],[127.15731,37.44569],[127.15695,37.44513],[127.15688,37.44505],[127.15225,37.44259],[127.14542,37.44627],[127.14365,37.44802],[127.14063,37.45186],[127.14032,37.45262],[127.1403,37.45268],[127.14015,37.45308],[127.14063,37.45363],[127.1416,37.45476],[127.14208,37.45531],[127.14288,37.45623],[127.14951,37.45682],[127.1502,37.45689],[127.15046,37.45682],[127.15048,37.4568]]]]}},{"type":"Feature","properties":{"code":"41131530","name":"신흥3동","parent":"41131"},"geometry":{"type":"MultiPolygon","coordinates":[[[[127.15225,37.44259],[127.14783,37.44092],[127.14458,37.43955],[127.14417,37.43975],[127.14246,37.44413],[127.14542,37.44627],[127.15225,37.44259]]]]}},{"type":"Feature","properties":{"code":"41131540","name":"태평1동","parent":"41131"},"geometry":{"type":"MultiPolygon","coordinates":[[[[127.12019,37.4531],[127.12033,37.45289],[127.12039,37.45282],[127.12259,37.45129],[127.12662,37.44971],[127.12819,37.44906],[127.12855,37.44789],[127.12862,37.44773],[127.1288,37.44733],[127.12975,37.44523],[127.13039,37.44381],[127.13074,37.44304],[127.13176,37.4409],[127.12726,37.43958],[127.12395,37.43955],[127.12289,37.43955],[127.12245,37.43967],[127.12219,37.43975],[127.11992,37.44042],[127.11906,37.44053],[127.11826,37.44064],[127.11788,37.44111],[127.11725,37.4427],[127.11677,37.44408],[127.11646,37.44498],[127.11646,37.44708],[127.1165,37.44893],[127.1166,37.44968],[127.11678,37.45108],[127.1173,37.45281],[127.11892,37.4531],[127.11904,37.45311],[127.12019,37.4531]]]]}},{"type":"Feature","properties":{"code":"41131550","name":"태평2동","parent":"41131"},"geometry":{"type":"MultiPolygon","coordinates":[[[[127.13742,37.45307],[127.13715,37.45133],[127.13764,37.4503],[127.13944,37.44644],[127.14042,37.44433],[127.14076,37.44361],[127.1372,37.44253],[127.13613,37.4422],[127.13298,37.44894],[127.13243,37.45026],[127.13263,37.45074],[127.1327,37.45085],[127.13279,37.45099],[127.13287,37.45108],[127.13291,37.45113],[127.13545,37.45294],[127.13559,37.45299],[127.13571,37.45303],[127.13598,37.45306],[127.13609,37.45307],[127.13742,37.45307]]]]}},{"type":"Feature","properties":{"code":"41131560","name":"태평3동","parent":"41131"},"geometry":{"type":"MultiPolygon","coordinates":[[[[127.13613,37.4422],[127.13176,37.4409],[127.13074,37.44304],[127.13039,37.44381],[127.12975,37.44523],[127.1288,37.44733],[127.12862,37.44773],[127.12855,37.44789],[127.12819,37.44906],[127.13243,37.45026],[127.13298,37.44894],[127.13613,37.4422]]]]}},{"type":"Feature","properties":{"code":"41131561","name":"태평4동","parent":"41131"},"geometry":{"type":"MultiPolygon","coordinates":[[[[127.14015,37.45308],[127.1403,37.45268],[127.14032,37.45262],[127.14063,37.45186],[127.14365,37.44802],[127.14542,37.44627],[127.14246,37.44413],[127.14076,37.44361],[127.14042,37.44433],[127.13944,37.44644],[127.13764,37.4503],[127.13715,37.45133],[127.13742,37.45307],[127.13893,37.45307],[127.14015,37.45308]]]]}},{"type":"Feature","properties":{"code":"41131570","name":"수진1동","parent":"41131"},"geometry":{"type":"MultiPolygon","coordinates":[[[[127.14079,37.43742],[127.14007,37.43698],[127.13822,37.43588],[127.13798,37.43574],[127.13794,37.43571],[127.13681,37.43509],[127.13467,37.43466],[127.13176,37.4409],[127.13613,37.4422],[127.13705,37.44021],[127.13724,37.43987],[127.13743,37.43952],[127.13762,37.43926],[127.14053,37.43774],[127.14079,37.43742]]]]}},{"type":"Feature","properties":{"code":"41131580","name":"수진2동","parent":"41131"},"geometry":{"type":"MultiPolygon","coordinates":[[[[127.13467,37.43466],[127.13252,37.43422],[127.13078,37.43389],[127.12588,37.43304],[127.12344,37.43277],[127.12022,37.43247],[127.11839,37.43233],[127.11831,37.43559],[127.11831,37.43584],[127.11831,37.43619],[127.11861,37.43718],[127.11863,37.43726],[127.11865,37.43734],[127.11876,37.43863],[127.11874,37.43931],[127.1186,37.43981],[127.11826,37.44064],[127.11906,37.44053],[127.11992,37.44042],[127.12219,37.43975],[127.12245,37.43967],[127.12289,37.43955],[127.12395,37.43955],[127.12726,37.43958],[127.13176,37.4409],[127.13467,37.43466]]]]}},{"type":"Feature","properties":{"code":"41131590","name":"단대동","parent":"41131"},"geometry":{"type":"MultiPolygon","coordinates":[[[[127.16085,37.45418],[127.15962,37.45079],[127.15731,37.44569],[127.15663,37.44529],[127.15595,37.44595],[127.15579,37.44611],[127.155,37.44689],[127.15473,37.44718],[127.15444,37.44749],[127.15439,37.44755],[127.15426,37.44771],[127.15424,37.44775],[127.15422,37.44777],[127.1542,37.4478],[127.15416,37.44785],[127.15376,37.44855],[127.15372,37.44872],[127.15371,37.44878],[127.1537,37.44882],[127.15356,37.4491],[127.15349,37.44923],[127.15329,37.44946],[127.1532,37.44953],[127.15288,37.44977],[127.15276,37.44986],[127.15261,37.44997],[127.15468,37.45126],[127.15458,37.45287],[127.15514,37.45952],[127.15591,37.46013],[127.15604,37.46045],[127.15583,37.46123],[127.15528,37.46268],[127.15492,37.46308],[127.15487,37.46311],[127.15482,37.46313],[127.15384,37.46341],[127.16084,37.46432],[127.16,37.46292],[127.15798,37.46119],[127.15795,37.46063],[127.15813,37.45998],[127.15858,37.45831],[127.15864,37.4581],[127.15879,37.45758],[127.15899,37.4574],[127.15978,37.45669],[127.16023,37.45625],[127.16085,37.45418]]]]}},{"type":"Feature","properties":{"code":"41131600","name":"산성동","parent":"41131"},"geometry":{"type":"MultiPolygon","coordinates":[[[[127.15384,37.46341],[127.15482,37.46313],[127.15487,37.46311],[127.15492,37.46308],[127.15528,37.46268],[127.15583,37.46123],[127.15604,37.46045],[127.15591,37.46013],[127.15514,37.45952],[127.15458,37.45287],[127.15468,37.45126],[127.15261,37.44997],[127.1523,37.45019],[127.15018,37.45169],[127.14991,37.45188],[127.14932,37.45231],[127.14987,37.45599],[127.15013,37.45641],[127.15048,37.4568],[127.15067,37.45811],[127.1504,37.4594],[127.15042,37.45965],[127.15075,37.46155],[127.15105,37.46201],[127.15281,37.46328],[127.15296,37.46335],[127.15304,37.46339],[127.15329,37.46344],[127.15356,37.46345],[127.15379,37.46342],[127.15384,37.46341]]]]}},{"type":"Feature","properties":{"code":"41131610","name":"양지동","parent":"41131"},"geometry":{"type":"MultiPolygon","coordinates":[[[[127.16085,37.45418],[127.16023,37.45625],[127.15978,37.45669],[127.15899,37.4574],[127.15879,37.45758],[127.15864,37.4581],[127.15858,37.45831],[127.15813,37.45998],[127.15795,37.46063],[127.15798,37.46119],[127.16,37.46292],[127.16084,37.46432],[127.15966,37.46549],[127.16153,37.46695],[127.16462,37.4691],[127.16708,37.46928],[127.17074,37.46995],[127.17161,37.47057],[127.17193,37.47076],[127.17221,37.47093],[127.1733,37.47143],[127.17596,37.4722],[127.17646,37.47167],[127.17676,37.47162],[127.17688,37.47157],[127.17693,37.47147],[127.17691,37.47133],[127.174,37.46611],[127.17369,37.46578],[127.17364,37.46574],[127.17339,37.46552],[127.17194,37.46453],[127.17023,37.46346],[127.16705,37.46122],[127.16683,37.46105],[127.1663,37.46067],[127.1649,37.45901],[127.16475,37.45883],[127.1647,37.45876],[127.1646,37.45863],[127.16415,37.45804],[127.16407,37.45794],[127.16383,37.45764],[127.16364,37.45741],[127.16356,37.45731],[127.16285,37.45646],[127.16217,37.45565],[127.16179,37.45522],[127.16085,37.45418]]]]}},{"type":"Feature","properties":{"code":"41131620","name":"복정동","parent":"41131"},"geometry":{"type":"MultiPolygon","coordinates":[[[[127.12659,37.46885],[127.1282,37.46814],[127.12863,37.46795],[127.12869,37.46793],[127.12873,37.46791],[127.12987,37.46791],[127.13056,37.46763],[127.13137,37.46731],[127.13825,37.46439],[127.14719,37.4595],[127.14815,37.45885],[127.14951,37.45682],[127.14288,37.45623],[127.14208,37.45531],[127.1416,37.45476],[127.14063,37.45363],[127.14015,37.45308],[127.13893,37.45307],[127.13742,37.45307],[127.13609,37.45307],[127.13598,37.45306],[127.13571,37.45303],[127.13559,37.45299],[127.13545,37.45294],[127.13291,37.45113],[127.13287,37.45108],[127.13279,37.45099],[127.1327,37.45085],[127.13263,37.45074],[127.13243,37.45026],[127.12819,37.44906],[127.12662,37.44971],[127.12259,37.45129],[127.12039,37.45282],[127.12033,37.45289],[127.12019,37.4531],[127.11915,37.45381],[127.11866,37.45421],[127.11816,37.45476],[127.1168,37.45696],[127.11675,37.45859],[127.11678,37.45914],[127.1169,37.4605],[127.11693,37.46079],[127.11695,37.46101],[127.11699,37.46126],[127.11708,37.46154],[127.11718,37.46182],[127.11746,37.46217],[127.12185,37.46503],[127.12229,37.46521],[127.12383,37.4663],[127.12507,37.4689],[127.12577,37.46921],[127.12659,37.46885]]]]}},{"type":"Feature","properties":{"code":"41131630","name":"신촌동","parent":"41131"},"geometry":{"type":"MultiPolygon","coordinates":[[[[127.11675,37.45859],[127.1168,37.45696],[127.11816,37.45476],[127.11866,37.45421],[127.11915,37.45381],[127.12019,37.4531],[127.11904,37.45311],[127.11892,37.4531],[127.1173,37.45281],[127.11678,37.45108],[127.1166,37.44968],[127.1165,37.44893],[127.11646,37.44708],[127.11646,37.44498],[127.11677,37.44408],[127.11725,37.4427],[127.11788,37.44111],[127.11826,37.44064],[127.11778,37.44081],[127.11733,37.44096],[127.11653,37.44119],[127.1106,37.44268],[127.11,37.44265],[127.10809,37.44247],[127.10257,37.44163],[127.10171,37.44135],[127.10149,37.44103],[127.10131,37.44077],[127.10096,37.44051],[127.10069,37.4403],[127.09985,37.43996],[127.09788,37.44006],[127.09689,37.44036],[127.09175,37.44189],[127.09025,37.44481],[127.08926,37.44514],[127.08799,37.44506],[127.08819,37.44637],[127.08832,37.44864],[127.08969,37.4512],[127.09082,37.45283],[127.09096,37.45298],[127.09138,37.45331],[127.09214,37.45362],[127.09307,37.45482],[127.09428,37.45652],[127.09512,37.4583],[127.09495,37.45842],[127.09463,37.45878],[127.09541,37.46029],[127.09587,37.46106],[127.09632,37.46143],[127.09685,37.45961],[127.09821,37.45879],[127.10056,37.45905],[127.1035,37.45963],[127.10396,37.46011],[127.10448,37.46102],[127.10473,37.46215],[127.10631,37.46254],[127.10664,37.46248],[127.10826,37.46217],[127.11128,37.46171],[127.11202,37.46156],[127.1134,37.46107],[127.11337,37.46083],[127.1133,37.46078],[127.11322,37.46072],[127.11301,37.46058],[127.11288,37.46048],[127.11325,37.46004],[127.11364,37.45974],[127.1156,37.4586],[127.11675,37.45859]]]]}},{"type":"Feature","properties":{"code":"41131640","name":"고등동","parent":"41131"},"geometry":{"type":"MultiPolygon","coordinates":[[[[127.11826,37.44064],[127.1186,37.43981],[127.11874,37.43931],[127.11876,37.43863],[127.11865,37.43734],[127.11863,37.43726],[127.11861,37.43718],[127.11831,37.43619],[127.11831,37.43584],[127.11831,37.43559],[127.11839,37.43233],[127.11793,37.42651],[127.11779,37.4222],[127.1144,37.4241],[127.11439,37.42429],[127.11434,37.426],[127.11482,37.42651],[127.11477,37.42686],[127.11471,37.42726],[127.11239,37.42799],[127.11213,37.42797],[127.11122,37.42837],[127.11074,37.42854],[127.11039,37.42855],[127.10987,37.42845],[127.10947,37.42833],[127.10899,37.42818],[127.10851,37.42803],[127.10824,37.42795],[127.10803,37.42789],[127.10738,37.42769],[127.10713,37.42762],[127.10672,37.4275],[127.10658,37.42746],[127.10655,37.42745],[127.10496,37.42748],[127.10463,37.42754],[127.10459,37.42755],[127.10452,37.42757],[127.10438,37.42764],[127.10416,37.42777],[127.10359,37.42787],[127.10353,37.42788],[127.10349,37.42787],[127.10312,37.42785],[127.10218,37.4273],[127.10213,37.42725],[127.10218,37.42704],[127.1024,37.42601],[127.10264,37.42426],[127.10265,37.42415],[127.10266,37.42406],[127.10264,37.42327],[127.10262,37.42322],[127.10258,37.4232],[127.09534,37.42201],[127.08972,37.42174],[127.08963,37.42138],[127.08948,37.42078],[127.08955,37.42047],[127.08945,37.4201],[127.08908,37.4196],[127.08904,37.41958],[127.08875,37.41935],[127.08737,37.41839],[127.08495,37.42024],[127.08384,37.42118],[127.08373,37.42135],[127.08363,37.4218],[127.08366,37.42191],[127.08366,37.42195],[127.0838,37.42206],[127.08398,37.4221],[127.08421,37.42211],[127.08436,37.42215],[127.08441,37.42216],[127.08504,37.42257],[127.08512,37.42264],[127.08385,37.42385],[127.08372,37.42393],[127.08362,37.42396],[127.07917,37.42366],[127.07813,37.42326],[127.0773,37.42298],[127.07726,37.42297],[127.0768,37.42284],[127.07519,37.42238],[127.07273,37.4231],[127.07134,37.42248],[127.07016,37.42186],[127.06927,37.42134],[127.06922,37.42129],[127.06837,37.42047],[127.06619,37.41831],[127.06598,37.41783],[127.065,37.41672],[127.06418,37.41589],[127.06191,37.4149],[127.06151,37.41475],[127.05761,37.41358],[127.05601,37.41319],[127.05571,37.41313],[127.05565,37.41312],[127.05471,37.41327],[127.05405,37.41334],[127.05062,37.41359],[127.04998,37.41361],[127.04705,37.41364],[127.04675,37.4136],[127.04168,37.41563],[127.04195,37.41838],[127.04203,37.42263],[127.0419,37.42278],[127.04173,37.42307],[127.04169,37.42318],[127.04163,37.42387],[127.04163,37.42399],[127.04164,37.42414],[127.04183,37.42691],[127.04334,37.42787],[127.0436,37.42796],[127.04588,37.42906],[127.04592,37.42909],[127.04747,37.43087],[127.04896,37.43055],[127.04987,37.43031],[127.05089,37.42965],[127.05459,37.42941],[127.05789,37.43014],[127.05797,37.43013],[127.06188,37.42983],[127.06316,37.42971],[127.06429,37.4292],[127.06467,37.42915],[127.06538,37.42904],[127.06553,37.42902],[127.06567,37.42901],[127.06569,37.42912],[127.0657,37.42915],[127.06578,37.42927],[127.06601,37.42959],[127.06675,37.43013],[127.06816,37.43058],[127.06935,37.43042],[127.07046,37.43006],[127.07092,37.43185],[127.07143,37.4352],[127.07263,37.43639],[127.07338,37.43934],[127.07197,37.44001],[127.07168,37.44156],[127.07166,37.4417],[127.07165,37.4418],[127.07168,37.44183],[127.07176,37.44192],[127.07179,37.44194],[127.07192,37.44209],[127.07215,37.44221],[127.07237,37.44233],[127.07242,37.44235],[127.07476,37.44242],[127.07633,37.44227],[127.07674,37.44218],[127.07704,37.442],[127.07708,37.44197],[127.07734,37.44181],[127.081,37.44096],[127.08122,37.44098],[127.08129,37.44098],[127.08158,37.441],[127.08231,37.4412],[127.08257,37.44146],[127.08323,37.44255],[127.08394,37.44382],[127.08413,37.444],[127.08543,37.44494],[127.08555,37.44499],[127.08565,37.44503],[127.08799,37.44506],[127.08926,37.44514],[127.09025,37.44481],[127.09175,37.44189],[127.09689,37.44036],[127.09788,37.44006],[127.09985,37.43996],[127.10069,37.4403],[127.10096,37.44051],[127.10131,37.44077],[127.10149,37.44103],[127.10171,37.44135],[127.10257,37.44163],[127.10809,37.44247],[127.11,37.44265],[127.1106,37.44268],[127.11653,37.44119],[127.11733,37.44096],[127.11778,37.44081],[127.11826,37.44064]]]]}},{"type":"Feature","properties":{"code":"41131650","name":"시흥동","parent":"41131"},"geometry":{"type":"MultiPolygon","coordinates":[[[[127.11779,37.4222],[127.11912,37.42139],[127.11938,37.42114],[127.11965,37.42077],[127.11998,37.41927],[127.11959,37.418],[127.11933,37.41741],[127.11796,37.41521],[127.11834,37.41123],[127.11772,37.41057],[127.1172,37.41006],[127.11665,37.40962],[127.11575,37.40901],[127.11533,37.4088],[127.11474,37.4085],[127.11434,37.40836],[127.11374,37.40814],[127.11362,37.4081],[127.11359,37.40809],[127.11306,37.40797],[127.11246,37.40783],[127.11121,37.40769],[127.11009,37.40767],[127.10985,37.40767],[127.10882,37.40765],[127.10869,37.40765],[127.10657,37.40765],[127.10423,37.40865],[127.10256,37.40971],[127.10027,37.40878],[127.09955,37.40723],[127.09796,37.40682],[127.09613,37.4062],[127.09525,37.4059],[127.0949,37.40578],[127.09482,37.40576],[127.09478,37.40575],[127.09474,37.40573],[127.09469,37.40573],[127.09291,37.40509],[127.09008,37.4037],[127.09001,37.40366],[127.08937,37.40326],[127.08889,37.4029],[127.08884,37.40233],[127.08882,37.40215],[127.08898,37.40107],[127.08899,37.40097],[127.08761,37.40037],[127.08606,37.39922],[127.08567,37.39877],[127.08464,37.39758],[127.08426,37.39707],[127.08401,37.39697],[127.08114,37.39813],[127.08001,37.39866],[127.07888,37.39903],[127.07867,37.39908],[127.07851,37.39911],[127.07693,37.39893],[127.07653,37.39883],[127.07643,37.39877],[127.07571,37.39841],[127.07496,37.39804],[127.07483,37.39799],[127.07451,37.39787],[127.06764,37.39795],[127.06347,37.39859],[127.06323,37.39863],[127.06305,37.39866],[127.06237,37.39893],[127.0607,37.39981],[127.06042,37.40002],[127.06021,37.40017],[127.05963,37.4007],[127.05877,37.40119],[127.05672,37.4021],[127.05654,37.40218],[127.05625,37.4023],[127.05587,37.40243],[127.04975,37.40365],[127.04797,37.40376],[127.0464,37.40376],[127.04494,37.40375],[127.0437,37.40421],[127.04305,37.40494],[127.04297,37.40512],[127.0424,37.40696],[127.04237,37.40711],[127.04237,37.40723],[127.04268,37.4081],[127.04272,37.40818],[127.04279,37.40824],[127.04386,37.40889],[127.04395,37.40894],[127.04411,37.40901],[127.04496,37.40954],[127.0466,37.41062],[127.04663,37.41066],[127.04666,37.41068],[127.04675,37.41076],[127.0468,37.41084],[127.04686,37.41094],[127.0469,37.41119],[127.04691,37.41129],[127.04704,37.41289],[127.04705,37.41306],[127.04704,37.41315],[127.04701,37.41326],[127.047,37.41331],[127.04696,37.41342],[127.0469,37.41349],[127.04675,37.4136],[127.04705,37.41364],[127.04998,37.41361],[127.05062,37.41359],[127.05405,37.41334],[127.05471,37.41327],[127.05565,37.41312],[127.05571,37.41313],[127.05601,37.41319],[127.05761,37.41358],[127.06151,37.41475],[127.06191,37.4149],[127.06418,37.41589],[127.065,37.41672],[127.06598,37.41783],[127.06619,37.41831],[127.06837,37.42047],[127.06922,37.42129],[127.06927,37.42134],[127.07016,37.42186],[127.07134,37.42248],[127.07273,37.4231],[127.07519,37.42238],[127.0768,37.42284],[127.07726,37.42297],[127.0773,37.42298],[127.07813,37.42326],[127.07917,37.42366],[127.08362,37.42396],[127.08372,37.42393],[127.08385,37.42385],[127.08512,37.42264],[127.08504,37.42257],[127.08441,37.42216],[127.08436,37.42215],[127.08421,37.42211],[127.08398,37.4221],[127.0838,37.42206],[127.08366,37.42195],[127.08366,37.42191],[127.08363,37.4218],[127.08373,37.42135],[127.08384,37.42118],[127.08495,37.42024],[127.08737,37.41839],[127.08875,37.41935],[127.08904,37.41958],[127.08908,37.4196],[127.08945,37.4201],[127.08955,37.42047],[127.08948,37.42078],[127.08963,37.42138],[127.08972,37.42174],[127.09534,37.42201],[127.10258,37.4232],[127.10262,37.42322],[127.10264,37.42327],[127.10266,37.42406],[127.10265,37.42415],[127.10264,37.42426],[127.1024,37.42601],[127.10218,37.42704],[127.10213,37.42725],[127.10218,37.4273],[127.10312,37.42785],[127.10349,37.42787],[127.10353,37.42788],[127.10359,37.42787],[127.10416,37.42777],[127.10438,37.42764],[127.10452,37.42757],[127.10459,37.42755],[127.10463,37.42754],[127.10496,37.42748],[127.10655,37.42745],[127.10658,37.42746],[127.10672,37.4275],[127.10713,37.42762],[127.10738,37.42769],[127.10803,37.42789],[127.10824,37.42795],[127.10851,37.42803],[127.10899,37.42818],[127.10947,37.42833],[127.10987,37.42845],[127.11039,37.42855],[127.11074,37.42854],[127.11122,37.42837],[127.11213,37.42797],[127.11239,37.42799],[127.11471,37.42726],[127.11477,37.42686],[127.11482,37.42651],[127.11434,37.426],[127.11439,37.42429],[127.1144,37.4241],[127.11779,37.4222]]]]}},{"type":"Feature","properties":{"code":"41131625","name":"위례동","parent":"41131"},"geometry":{"type":"MultiPolygon","coordinates":[[[[127.16462,37.4691],[127.16153,37.46695],[127.15966,37.46549],[127.16084,37.46432],[127.15384,37.46341],[127.15379,37.46342],[127.15356,37.46345],[127.15329,37.46344],[127.15304,37.46339],[127.15296,37.46335],[127.15281,37.46328],[127.15105,37.46201],[127.15075,37.46155],[127.15042,37.45965],[127.1504,37.4594],[127.15067,37.45811],[127.15048,37.4568],[127.15046,37.45682],[127.1502,37.45689],[127.14951,37.45682],[127.14815,37.45885],[127.14719,37.4595],[127.13825,37.46439],[127.13137,37.46731],[127.13056,37.46763],[127.13096,37.4677],[127.13268,37.46823],[127.13187,37.46973],[127.13229,37.47028],[127.13237,37.47123],[127.13259,37.47485],[127.13715,37.47434],[127.14345,37.4741],[127.15445,37.47369],[127.15436,37.47173],[127.15544,37.47151],[127.15587,37.47155],[127.15645,37.47145],[127.1628,37.47126],[127.16225,37.47042],[127.16238,37.47031],[127.1625,37.4702],[127.16327,37.46969],[127.16364,37.4695],[127.16405,37.4693],[127.16462,37.4691]]]]}}]}