{"type":"FeatureCollection","features":[{"type":"Feature","properties":{"code":"30140535","name":"은행선화동","parent":"30140"},"geometry":{"type":"MultiPolygon","coordinates":[[[[127.42545,36.33282],[127.42721,36.33149],[127.42926,36.32984],[127.43087,36.32783],[127.4265,36.32728],[127.42585,36.32838],[127.42574,36.32843],[127.42567,36.32845],[127.42422,36.32793],[127.42344,36.32765],[127.4221,36.32715],[127.42203,36.32699],[127.4219,36.32669],[127.4214,36.32617],[127.41822,36.32378],[127.41674,36.32312],[127.41497,36.32287],[127.41542,36.32385],[127.41358,36.32569],[127.41306,36.32607],[127.41292,36.32625],[127.41286,36.32643],[127.4129,36.32666],[127.41301,36.32678],[127.41378,36.32755],[127.41343,36.32923],[127.41342,36.32937],[127.41341,36.32973],[127.41359,36.33085],[127.41394,36.33187],[127.41408,36.33225],[127.41423,36.33263],[127.41429,36.33271],[127.41431,36.33273],[127.41465,36.33304],[127.41496,36.33329],[127.41501,36.3334],[127.41371,36.33431],[127.41327,36.33462],[127.41858,36.33864],[127.42024,36.33785],[127.42128,36.33729],[127.42198,36.33662],[127.42211,36.33649],[127.42233,36.33613],[127.42388,36.33426],[127.42545,36.33282]]]]}},{"type":"Feature","properties":{"code":"30140550","name":"목동","parent":"30140"},"geometry":{"type":"MultiPolygon","coordinates":[[[[127.41327,36.33462],[127.41371,36.33431],[127.41501,36.3334],[127.41496,36.33329],[127.41465,36.33304],[127.41431,36.33273],[127.41429,36.33271],[127.41423,36.33263],[127.41408,36.33225],[127.41394,36.33187],[127.41359,36.33085],[127.41341,36.32973],[127.41342,36.32937],[127.41343,36.32923],[127.41378,36.32755],[127.41141,36.32833],[127.4104,36.32865],[127.41001,36.32879],[127.40731,36.33107],[127.40311,36.33476],[127.40281,36.3352],[127.40266,36.33553],[127.40259,36.33591],[127.40415,36.33758],[127.40444,36.33786],[127.40876,36.3381],[127.41327,36.33462]]]]}},{"type":"Feature","properties":{"code":"30140560","name":"중촌동","parent":"30140"},"geometry":{"type":"MultiPolygon","coordinates":[[[[127.41277,36.34369],[127.41322,36.34268],[127.4136,36.34201],[127.41389,36.34148],[127.41436,36.34106],[127.41517,36.34033],[127.41569,36.33986],[127.41603,36.33955],[127.41702,36.33917],[127.41751,36.339],[127.41858,36.33864],[127.41327,36.33462],[127.40876,36.3381],[127.40444,36.33786],[127.40276,36.33792],[127.40195,36.33818],[127.4021,36.33888],[127.40328,36.3459],[127.40309,36.34896],[127.4029,36.35009],[127.40381,36.34986],[127.40482,36.34961],[127.40516,36.34952],[127.40754,36.3489],[127.40823,36.34864],[127.40861,36.3485],[127.40977,36.3478],[127.41056,36.34715],[127.41087,36.34688],[127.41163,36.34593],[127.41168,36.34586],[127.41214,36.34508],[127.41229,36.34481],[127.41277,36.34369]]]]}},{"type":"Feature","properties":{"code":"30140575","name":"대흥동","parent":"30140"},"geometry":{"type":"MultiPolygon","coordinates":[[[[127.43087,36.32783],[127.43254,36.32577],[127.43344,36.32467],[127.43088,36.32406],[127.4307,36.32402],[127.43058,36.32395],[127.43063,36.32372],[127.43064,36.32369],[127.4308,36.32314],[127.43084,36.32302],[127.43112,36.32254],[127.43138,36.32022],[127.4309,36.31969],[127.42944,36.31915],[127.42913,36.31903],[127.42855,36.31882],[127.42707,36.31827],[127.42576,36.318],[127.41956,36.31735],[127.41871,36.31762],[127.41812,36.31789],[127.4178,36.31821],[127.41769,36.31842],[127.41813,36.32117],[127.41676,36.32225],[127.41674,36.32312],[127.41822,36.32378],[127.4214,36.32617],[127.4219,36.32669],[127.42203,36.32699],[127.4221,36.32715],[127.42344,36.32765],[127.42422,36.32793],[127.42567,36.32845],[127.42574,36.32843],[127.42585,36.32838],[127.4265,36.32728],[127.43087,36.32783]]]]}},{"type":"Feature","properties":{"code":"30140605","name":"문창동","parent":"30140"},"geometry":{"type":"MultiPolygon","coordinates":[[[[127.43803,36.31839],[127.44022,36.31297],[127.43887,36.31122],[127.43788,36.31169],[127.43493,36.31309],[127.43489,36.31312],[127.43562,36.31341],[127.43576,36.31346],[127.43659,36.31379],[127.43559,36.31555],[127.43272,36.32059],[127.43233,36.32049],[127.43138,36.32022],[127.43112,36.32254],[127.43084,36.32302],[127.4308,36.32314],[127.43064,36.32369],[127.43063,36.32372],[127.43058,36.32395],[127.4307,36.32402],[127.43088,36.32406],[127.43344,36.32467],[127.43456,36.32324],[127.43803,36.31839]]]]}},{"type":"Feature","properties":{"code":"30140620","name":"석교동","parent":"30140"},"geometry":{"type":"MultiPolygon","coordinates":[[[[127.45585,36.30069],[127.45617,36.29899],[127.45723,36.29453],[127.45752,36.29414],[127.45783,36.29404],[127.45616,36.29286],[127.45327,36.29335],[127.4525,36.29348],[127.45124,36.29387],[127.44864,36.29484],[127.44723,36.29594],[127.44623,36.29651],[127.4432,36.29642],[127.44185,36.29619],[127.44092,36.29585],[127.44041,36.29507],[127.43771,36.29272],[127.43266,36.29108],[127.43103,36.29151],[127.4302,36.29134],[127.42817,36.29158],[127.42663,36.29218],[127.42634,36.29233],[127.42575,36.29291],[127.42519,36.2936],[127.42539,36.2941],[127.42534,36.29434],[127.42461,36.29486],[127.42428,36.29509],[127.42259,36.29608],[127.42231,36.29614],[127.42428,36.29758],[127.42808,36.29757],[127.42952,36.29731],[127.43051,36.30003],[127.42841,36.3011],[127.42794,36.30246],[127.42959,36.30394],[127.43056,36.30446],[127.43223,36.30556],[127.43544,36.30773],[127.43748,36.30942],[127.43846,36.31067],[127.43885,36.31119],[127.43887,36.31122],[127.44022,36.31297],[127.44306,36.31125],[127.44486,36.31133],[127.44614,36.31087],[127.44663,36.3105],[127.44682,36.31023],[127.44694,36.31005],[127.44736,36.30944],[127.44739,36.30939],[127.44844,36.30793],[127.45085,36.30492],[127.45174,36.30399],[127.45508,36.30113],[127.45585,36.30069]]]]}},{"type":"Feature","properties":{"code":"30140630","name":"대사동","parent":"30140"},"geometry":{"type":"MultiPolygon","coordinates":[[[[127.4309,36.31969],[127.43099,36.31962],[127.43149,36.31917],[127.43139,36.31883],[127.43063,36.31688],[127.42846,36.31369],[127.42838,36.31206],[127.42722,36.30945],[127.42599,36.30837],[127.42715,36.30477],[127.42794,36.30246],[127.42841,36.3011],[127.43051,36.30003],[127.42952,36.29731],[127.42808,36.29757],[127.42428,36.29758],[127.42231,36.29614],[127.42169,36.29612],[127.42219,36.29775],[127.42368,36.29884],[127.42231,36.30077],[127.41995,36.30218],[127.41686,36.30333],[127.41667,36.30387],[127.41589,36.30989],[127.41675,36.31158],[127.41728,36.31249],[127.41758,36.31294],[127.41547,36.31528],[127.41531,36.3153],[127.41488,36.31538],[127.41409,36.3157],[127.41433,36.31786],[127.41468,36.31875],[127.41589,36.32169],[127.41676,36.32225],[127.41813,36.32117],[127.41769,36.31842],[127.4178,36.31821],[127.41812,36.31789],[127.41871,36.31762],[127.41956,36.31735],[127.42576,36.318],[127.42707,36.31827],[127.42855,36.31882],[127.42913,36.31903],[127.42944,36.31915],[127.4309,36.31969]]]]}},{"type":"Feature","properties":{"code":"30140640","name":"부사동","parent":"30140"},"geometry":{"type":"MultiPolygon","coordinates":[[[[127.43887,36.31122],[127.43885,36.31119],[127.43846,36.31067],[127.43748,36.30942],[127.43544,36.30773],[127.43223,36.30556],[127.43056,36.30446],[127.42959,36.30394],[127.42794,36.30246],[127.42715,36.30477],[127.42599,36.30837],[127.42722,36.30945],[127.42838,36.31206],[127.42846,36.31369],[127.43063,36.31688],[127.43139,36.31883],[127.43149,36.31917],[127.43099,36.31962],[127.4309,36.31969],[127.43138,36.32022],[127.43233,36.32049],[127.43272,36.32059],[127.43559,36.31555],[127.43659,36.31379],[127.43576,36.31346],[127.43562,36.31341],[127.43489,36.31312],[127.43493,36.31309],[127.43788,36.31169],[127.43887,36.31122]]]]}},{"type":"Feature","properties":{"code":"30140655","name":"용두동","parent":"30140"},"geometry":{"type":"MultiPolygon","coordinates":[[[[127.40444,36.33786],[127.40415,36.33758],[127.40259,36.33591],[127.40266,36.33553],[127.40281,36.3352],[127.40311,36.33476],[127.40731,36.33107],[127.41001,36.32879],[127.4104,36.32865],[127.41141,36.32833],[127.41378,36.32755],[127.41301,36.32678],[127.4129,36.32666],[127.41286,36.32643],[127.41292,36.32625],[127.41306,36.32607],[127.41358,36.32569],[127.41542,36.32385],[127.41497,36.32287],[127.41195,36.32232],[127.412,36.32263],[127.41198,36.32286],[127.4118,36.323],[127.41135,36.32338],[127.40853,36.32576],[127.40775,36.3264],[127.40424,36.32925],[127.39962,36.33302],[127.39858,36.33388],[127.39813,36.33425],[127.39766,36.33463],[127.40195,36.33818],[127.40276,36.33792],[127.40444,36.33786]]]]}},{"type":"Feature","properties":{"code":"30140670","name":"오류동","parent":"30140"},"geometry":{"type":"MultiPolygon","coordinates":[[[[127.41195,36.32232],[127.40364,36.31988],[127.40242,36.3232],[127.4024,36.32343],[127.40216,36.32429],[127.40167,36.32584],[127.40092,36.32797],[127.40034,36.32963],[127.39999,36.33059],[127.39962,36.33302],[127.40424,36.32925],[127.40775,36.3264],[127.40853,36.32576],[127.41135,36.32338],[127.4118,36.323],[127.41198,36.32286],[127.412,36.32263],[127.41195,36.32232]]]]}},{"type":"Feature","properties":{"code":"30140680","name":"태평1동","parent":"30140"},"geometry":{"type":"MultiPolygon","coordinates":[[[[127.39962,36.33302],[127.39999,36.33059],[127.40034,36.32963],[127.40092,36.32797],[127.40167,36.32584],[127.40216,36.32429],[127.4024,36.32343],[127.40242,36.3232],[127.40125,36.32313],[127.3961,36.3221],[127.39508,36.32504],[127.39481,36.32581],[127.39801,36.33273],[127.39809,36.33289],[127.39858,36.33388],[127.39962,36.33302]]]]}},{"type":"Feature","properties":{"code":"30140690","name":"태평2동","parent":"30140"},"geometry":{"type":"MultiPolygon","coordinates":[[[[127.39858,36.33388],[127.39809,36.33289],[127.39801,36.33273],[127.39481,36.32581],[127.39508,36.32504],[127.3961,36.3221],[127.3946,36.32172],[127.39315,36.32132],[127.39302,36.321],[127.39215,36.31875],[127.39175,36.31771],[127.39143,36.31689],[127.39128,36.31685],[127.38877,36.31621],[127.38733,36.31585],[127.38675,36.31571],[127.38644,36.31563],[127.38591,36.31715],[127.38564,36.31811],[127.38555,36.31844],[127.38552,36.31906],[127.38557,36.31943],[127.38567,36.31991],[127.38568,36.31995],[127.38579,36.32029],[127.38591,36.32056],[127.38615,36.32097],[127.3897,36.32647],[127.39021,36.3272],[127.39368,36.33073],[127.39813,36.33425],[127.39858,36.33388]]]]}},{"type":"Feature","properties":{"code":"30140700","name":"유천1동","parent":"30140"},"geometry":{"type":"MultiPolygon","coordinates":[[[[127.39795,36.3124],[127.3961,36.31192],[127.39436,36.31147],[127.39262,36.31103],[127.39179,36.31342],[127.39164,36.31388],[127.39075,36.31356],[127.39064,36.31352],[127.38936,36.31306],[127.38873,36.31265],[127.38669,36.31259],[127.38644,36.31563],[127.38675,36.31571],[127.38733,36.31585],[127.38877,36.31621],[127.39128,36.31685],[127.39143,36.31689],[127.39175,36.31771],[127.39215,36.31875],[127.39302,36.321],[127.39315,36.32132],[127.3946,36.32172],[127.39725,36.31437],[127.39795,36.3124]]]]}},{"type":"Feature","properties":{"code":"30140710","name":"유천2동","parent":"30140"},"geometry":{"type":"MultiPolygon","coordinates":[[[[127.40364,36.31988],[127.40237,36.31372],[127.39795,36.3124],[127.39725,36.31437],[127.3946,36.32172],[127.3961,36.3221],[127.40125,36.32313],[127.40242,36.3232],[127.40364,36.31988]]]]}},{"type":"Feature","properties":{"code":"30140720","name":"문화1동","parent":"30140"},"geometry":{"type":"MultiPolygon","coordinates":[[[[127.41676,36.32225],[127.41589,36.32169],[127.41468,36.31875],[127.41433,36.31786],[127.41409,36.3157],[127.41488,36.31538],[127.41531,36.3153],[127.41547,36.31528],[127.41758,36.31294],[127.41728,36.31249],[127.41675,36.31158],[127.41589,36.30989],[127.41667,36.30387],[127.41686,36.30333],[127.41995,36.30218],[127.42231,36.30077],[127.42368,36.29884],[127.42219,36.29775],[127.42169,36.29612],[127.41969,36.29843],[127.41899,36.29888],[127.412,36.30174],[127.40949,36.30262],[127.40946,36.30601],[127.41052,36.30669],[127.40974,36.3082],[127.40788,36.30943],[127.40489,36.31148],[127.40433,36.31266],[127.40455,36.31338],[127.40467,36.31377],[127.40366,36.31412],[127.40237,36.31372],[127.40364,36.31988],[127.41195,36.32232],[127.41497,36.32287],[127.41674,36.32312],[127.41676,36.32225]]]]}},{"type":"Feature","properties":{"code":"30140730","name":"문화2동","parent":"30140"},"geometry":{"type":"MultiPolygon","coordinates":[[[[127.40949,36.30262],[127.40809,36.3021],[127.4032,36.30159],[127.40147,36.3017],[127.40046,36.30193],[127.39986,36.30245],[127.39952,36.30275],[127.39602,36.30616],[127.39465,36.30784],[127.39521,36.30867],[127.39672,36.3101],[127.3961,36.31192],[127.39795,36.3124],[127.40237,36.31372],[127.40366,36.31412],[127.40467,36.31377],[127.40455,36.31338],[127.40433,36.31266],[127.40489,36.31148],[127.40788,36.30943],[127.40974,36.3082],[127.41052,36.30669],[127.40946,36.30601],[127.40949,36.30262]]]]}},{"type":"Feature","properties":{"code":"30140740","name":"산성동","parent":"30140"},"geometry":{"type":"MultiPolygon","coordinates":[[[[127.3961,36.31192],[127.39672,36.3101],[127.39521,36.30867],[127.39465,36.30784],[127.39602,36.30616],[127.39952,36.30275],[127.39986,36.30245],[127.40046,36.30193],[127.40147,36.3017],[127.4032,36.30159],[127.40809,36.3021],[127.40949,36.30262],[127.412,36.30174],[127.41899,36.29888],[127.41969,36.29843],[127.42169,36.29612],[127.42231,36.29614],[127.42259,36.29608],[127.42428,36.29509],[127.42461,36.29486],[127.42534,36.29434],[127.42539,36.2941],[127.42519,36.2936],[127.42575,36.29291],[127.42634,36.29233],[127.42663,36.29218],[127.42817,36.29158],[127.4302,36.29134],[127.43103,36.29151],[127.43061,36.2901],[127.43079,36.28478],[127.43275,36.28294],[127.43386,36.28246],[127.43447,36.2822],[127.43512,36.28215],[127.43525,36.28134],[127.43422,36.28051],[127.43318,36.27968],[127.43214,36.27884],[127.43374,36.27546],[127.43522,36.27514],[127.43669,36.27483],[127.43912,36.26993],[127.43888,36.26899],[127.43863,36.26806],[127.43459,36.26494],[127.42964,36.26094],[127.42978,36.26004],[127.4302,36.25734],[127.42943,36.25665],[127.42866,36.25597],[127.42789,36.25528],[127.42713,36.2546],[127.42718,36.25459],[127.42854,36.25447],[127.43125,36.25421],[127.4326,36.25409],[127.43353,36.25409],[127.43671,36.25294],[127.43549,36.25175],[127.43499,36.25151],[127.43478,36.25132],[127.4348,36.25098],[127.43531,36.24998],[127.43898,36.24585],[127.43919,36.24563],[127.4398,36.24513],[127.44035,36.24483],[127.44097,36.24464],[127.44202,36.24391],[127.44234,36.24267],[127.44243,36.24231],[127.4429,36.2387],[127.44051,36.23771],[127.43907,36.23725],[127.43831,36.23698],[127.43755,36.23658],[127.43743,36.23532],[127.43754,36.23386],[127.43764,36.23258],[127.43765,36.23226],[127.43676,36.23113],[127.43413,36.22787],[127.43366,36.22763],[127.43334,36.22752],[127.43312,36.22744],[127.43168,36.2273],[127.43105,36.22731],[127.42959,36.22804],[127.42932,36.22822],[127.42903,36.22853],[127.42811,36.22904],[127.42762,36.22919],[127.42464,36.22893],[127.42398,36.22789],[127.42382,36.22723],[127.42372,36.22681],[127.42377,36.22648],[127.42392,36.22606],[127.42411,36.22572],[127.4248,36.2255],[127.42531,36.22512],[127.4257,36.22478],[127.42584,36.22312],[127.42603,36.2177],[127.42604,36.21641],[127.42544,36.21512],[127.42536,36.21298],[127.42597,36.21182],[127.42606,36.21141],[127.42581,36.21101],[127.42531,36.21064],[127.4243,36.21007],[127.42284,36.20893],[127.42236,36.20829],[127.42109,36.20815],[127.42011,36.20793],[127.41973,36.20744],[127.41964,36.20721],[127.41954,36.20718],[127.4195,36.20717],[127.41935,36.20724],[127.41696,36.20835],[127.41519,36.20927],[127.41441,36.20991],[127.4131,36.2108],[127.41214,36.21141],[127.41186,36.2115],[127.41137,36.21159],[127.411,36.21164],[127.4109,36.21165],[127.41035,36.21172],[127.41011,36.21179],[127.40987,36.21193],[127.40827,36.21306],[127.40906,36.21471],[127.40915,36.21489],[127.40953,36.21543],[127.40992,36.21569],[127.4102,36.21598],[127.41059,36.21649],[127.41073,36.2167],[127.4109,36.21694],[127.4109,36.21702],[127.41089,36.21737],[127.41087,36.21751],[127.40978,36.21902],[127.40847,36.22047],[127.40747,36.22145],[127.40723,36.22155],[127.40456,36.22272],[127.40224,36.22696],[127.40136,36.22948],[127.40071,36.23136],[127.40057,36.23182],[127.39726,36.2329],[127.39434,36.23346],[127.38856,36.23436],[127.38788,36.23447],[127.38786,36.23451],[127.38777,36.23467],[127.3877,36.23584],[127.38783,36.23743],[127.388,36.23766],[127.3885,36.23799],[127.3904,36.23934],[127.39044,36.2394],[127.39054,36.23955],[127.39062,36.23978],[127.39112,36.24274],[127.39111,36.24283],[127.3911,36.24288],[127.39067,36.2433],[127.39025,36.24365],[127.3898,36.24384],[127.38961,36.24399],[127.38946,36.24409],[127.38878,36.24477],[127.38824,36.24533],[127.38783,36.24595],[127.38639,36.25076],[127.38654,36.25273],[127.38695,36.25339],[127.38745,36.2538],[127.38774,36.25396],[127.38813,36.25424],[127.3885,36.25488],[127.38852,36.25491],[127.38862,36.25515],[127.38997,36.2593],[127.39042,36.26079],[127.39037,36.26201],[127.3897,36.26422],[127.38938,36.26486],[127.38909,36.26525],[127.389,36.26533],[127.38881,36.26551],[127.38826,36.26588],[127.38485,36.26812],[127.38439,36.26839],[127.38293,36.26887],[127.38166,36.26919],[127.37994,36.26991],[127.37881,36.27064],[127.37855,36.27089],[127.37811,36.27118],[127.37757,36.27146],[127.37669,36.27135],[127.37241,36.27218],[127.37272,36.27366],[127.37279,36.27448],[127.37273,36.27471],[127.37128,36.27743],[127.36929,36.28189],[127.36924,36.28295],[127.37036,36.28837],[127.37203,36.29128],[127.37343,36.29324],[127.37458,36.29308],[127.37839,36.29288],[127.3785,36.29301],[127.38068,36.29541],[127.38115,36.29594],[127.38126,36.29612],[127.38253,36.29834],[127.3829,36.29906],[127.38292,36.29918],[127.38305,36.29995],[127.38274,36.30081],[127.38223,36.30183],[127.38215,36.302],[127.38169,36.30291],[127.38167,36.30435],[127.38166,36.30486],[127.38213,36.30639],[127.38328,36.30758],[127.3845,36.30873],[127.38669,36.31259],[127.38873,36.31265],[127.38936,36.31306],[127.39064,36.31352],[127.39075,36.31356],[127.39164,36.31388],[127.39179,36.31342],[127.39262,36.31103],[127.39436,36.31147],[127.3961,36.31192]]]]}}]}