{"type":"FeatureCollection","features":[{"type":"Feature","properties":{"code":"43113250","name":"오송읍","parent":"43113"},"geometry":{"type":"MultiPolygon","coordinates":[[[[127.35967,36.63557],[127.35729,36.6348],[127.35536,36.63394],[127.35466,36.63322],[127.35234,36.63064],[127.3515,36.62919],[127.35106,36.62834],[127.35028,36.62616],[127.35042,36.62519],[127.35062,36.6249],[127.35111,36.62444],[127.35133,36.62401],[127.3512,36.62321],[127.35056,36.62077],[127.35044,36.62029],[127.34955,36.61768],[127.34888,36.61401],[127.34857,36.61162],[127.34834,36.61111],[127.34667,36.60899],[127.34477,36.60768],[127.34362,36.60546],[127.34399,36.60171],[127.34445,36.60023],[127.34438,36.59815],[127.34399,36.59735],[127.34324,36.59681],[127.34194,36.59631],[127.3408,36.5959],[127.34013,36.5959],[127.33899,36.59653],[127.33676,36.59748],[127.33595,36.59752],[127.33457,36.59721],[127.33391,36.59628],[127.33352,36.59509],[127.33287,36.59417],[127.33175,36.59362],[127.33143,36.59346],[127.3309,36.59321],[127.32992,36.59244],[127.32666,36.58844],[127.32375,36.5846],[127.3219,36.58265],[127.32068,36.58219],[127.32057,36.58215],[127.32045,36.58211],[127.32033,36.58207],[127.32022,36.58203],[127.3201,36.582],[127.31999,36.58197],[127.31988,36.58194],[127.31977,36.58192],[127.31966,36.5819],[127.3196,36.5819],[127.31954,36.58189],[127.3194,36.58189],[127.31931,36.58189],[127.31925,36.58189],[127.31906,36.5819],[127.31883,36.58192],[127.31856,36.58194],[127.31824,36.58197],[127.31792,36.58201],[127.31788,36.58201],[127.31747,36.58205],[127.31705,36.5821],[127.31661,36.58215],[127.31658,36.58215],[127.31618,36.5822],[127.31574,36.58226],[127.31533,36.58231],[127.31494,36.58237],[127.31422,36.58247],[127.3139,36.58253],[127.30824,36.58346],[127.3081,36.58348],[127.30798,36.58351],[127.30787,36.58354],[127.30779,36.58356],[127.30771,36.58359],[127.30765,36.58362],[127.3076,36.58365],[127.30755,36.58368],[127.30751,36.58371],[127.30747,36.58374],[127.30743,36.58377],[127.3074,36.5838],[127.30737,36.58384],[127.30735,36.58387],[127.30733,36.5839],[127.3073,36.58395],[127.30729,36.58398],[127.30727,36.58402],[127.30726,36.58407],[127.30725,36.58411],[127.30724,36.58416],[127.30723,36.5842],[127.30722,36.58426],[127.30721,36.58432],[127.30719,36.5844],[127.30718,36.58446],[127.30717,36.58453],[127.30715,36.58461],[127.30712,36.58469],[127.30709,36.58477],[127.30705,36.58484],[127.30703,36.58488],[127.30701,36.58492],[127.30698,36.58496],[127.30695,36.58499],[127.30688,36.58505],[127.30681,36.58511],[127.30672,36.58516],[127.30663,36.5852],[127.30655,36.58524],[127.30645,36.58527],[127.3064,36.58529],[127.30635,36.5853],[127.30627,36.58532],[127.30619,36.58533],[127.30611,36.58534],[127.30603,36.58534],[127.30596,36.58534],[127.3055,36.58532],[127.30419,36.58565],[127.30407,36.58567],[127.30397,36.58568],[127.30374,36.58569],[127.30368,36.58568],[127.30352,36.58565],[127.30341,36.58561],[127.30329,36.58557],[127.30307,36.58542],[127.30286,36.5852],[127.30266,36.58491],[127.30262,36.58483],[127.30247,36.58456],[127.3023,36.58419],[127.30229,36.58416],[127.30224,36.58405],[127.30211,36.58371],[127.30194,36.58322],[127.30177,36.58269],[127.30161,36.58212],[127.30106,36.5822],[127.29935,36.5864],[127.30096,36.58755],[127.30099,36.58758],[127.3015,36.58794],[127.30312,36.58909],[127.3036,36.58949],[127.3038,36.58986],[127.30395,36.59013],[127.30419,36.59173],[127.30439,36.59311],[127.30448,36.59497],[127.30563,36.59749],[127.30646,36.59869],[127.30654,36.59888],[127.30676,36.59935],[127.30698,36.59997],[127.30706,36.6004],[127.30709,36.60056],[127.30715,36.60152],[127.3068,36.60208],[127.30624,36.60292],[127.30458,36.60417],[127.30354,36.60483],[127.30344,36.60489],[127.30287,36.60531],[127.30264,36.60554],[127.30166,36.60678],[127.30123,36.60752],[127.30121,36.60769],[127.3012,36.60778],[127.3012,36.60794],[127.3012,36.60917],[127.30153,36.6101],[127.30178,36.61166],[127.30179,36.61215],[127.30175,36.61243],[127.30138,36.61378],[127.30099,36.61514],[127.30087,36.61554],[127.3006,36.61581],[127.29757,36.61854],[127.29459,36.6207],[127.29443,36.62088],[127.29128,36.62554],[127.29093,36.62695],[127.29162,36.63279],[127.29175,36.63317],[127.2924,36.63477],[127.29248,36.63532],[127.29237,36.63576],[127.28998,36.63694],[127.28954,36.63711],[127.28917,36.63716],[127.28885,36.63713],[127.28742,36.63643],[127.28715,36.63625],[127.28666,36.63572],[127.28558,36.63487],[127.28501,36.63465],[127.28386,36.63455],[127.28129,36.63434],[127.28085,36.63439],[127.27997,36.63464],[127.27921,36.63512],[127.27835,36.63615],[127.27762,36.63707],[127.27671,36.63852],[127.27728,36.64157],[127.27815,36.64156],[127.27887,36.64105],[127.27939,36.64085],[127.27965,36.64084],[127.27996,36.64098],[127.28044,36.64166],[127.2812,36.64377],[127.28161,36.6452],[127.28193,36.64585],[127.284,36.6496],[127.28419,36.64993],[127.28696,36.65417],[127.2907,36.65446],[127.29154,36.65438],[127.29228,36.65429],[127.29333,36.65445],[127.29514,36.65518],[127.29939,36.65777],[127.3,36.6582],[127.30049,36.65863],[127.30152,36.65995],[127.30162,36.66009],[127.3016,36.66031],[127.30137,36.66063],[127.30126,36.66128],[127.3013,36.66231],[127.30139,36.66371],[127.30145,36.66409],[127.30176,36.66455],[127.30196,36.66477],[127.3023,36.66492],[127.30271,36.66511],[127.30326,36.66548],[127.3041,36.66618],[127.30476,36.66693],[127.30498,36.6673],[127.3051,36.66761],[127.30508,36.66803],[127.30624,36.66685],[127.30693,36.66657],[127.30878,36.66655],[127.30937,36.6666],[127.31205,36.66543],[127.3141,36.66442],[127.316,36.66336],[127.31911,36.66084],[127.31956,36.65862],[127.32016,36.65738],[127.32032,36.65716],[127.32062,36.65698],[127.32099,36.65681],[127.32142,36.65668],[127.32214,36.65653],[127.32325,36.65678],[127.32453,36.65741],[127.32519,36.65807],[127.32548,36.65864],[127.33018,36.66334],[127.33172,36.66211],[127.33226,36.66131],[127.33268,36.66],[127.33313,36.65872],[127.33337,36.65826],[127.33426,36.65739],[127.33452,36.65731],[127.34033,36.65626],[127.34046,36.65628],[127.34145,36.65647],[127.34353,36.65722],[127.34491,36.65797],[127.34681,36.65917],[127.3482,36.66015],[127.34907,36.66048],[127.34997,36.6602],[127.3508,36.65941],[127.3514,36.65854],[127.3519,36.65632],[127.35225,36.65308],[127.3513,36.64899],[127.35099,36.64789],[127.35068,36.64752],[127.34952,36.64673],[127.34891,36.64633],[127.3485,36.64538],[127.34802,36.64349],[127.3482,36.64297],[127.34882,36.64259],[127.34897,36.64249],[127.35129,36.64199],[127.352,36.64194],[127.35287,36.6422],[127.35367,36.64235],[127.3547,36.6423],[127.35564,36.6419],[127.35725,36.64049],[127.35867,36.63806],[127.35967,36.63557]]]]}},{"type":"Feature","properties":{"code":"43113310","name":"강내면","parent":"43113"},"geometry":{"type":"MultiPolygon","coordinates":[[[[127.38985,36.58533],[127.38891,36.58423],[127.38875,36.584],[127.38844,36.58343],[127.38823,36.583],[127.38774,36.58167],[127.38755,36.58109],[127.38753,36.58092],[127.38762,36.58063],[127.38766,36.58036],[127.38748,36.57936],[127.38712,36.57839],[127.38682,36.57774],[127.38658,36.57733],[127.38634,36.57712],[127.38558,36.57701],[127.38521,36.57681],[127.38114,36.57302],[127.37755,36.56933],[127.37743,36.56906],[127.37719,36.56822],[127.37706,36.56744],[127.37707,36.56775],[127.37566,36.56751],[127.37029,36.56651],[127.36801,36.56507],[127.36755,36.56468],[127.36668,36.5644],[127.36499,36.56425],[127.3643,36.56424],[127.36331,36.56424],[127.36114,36.5633],[127.36075,36.56256],[127.36054,36.56227],[127.35852,36.5621],[127.35312,36.56216],[127.35161,36.56222],[127.35114,36.56225],[127.35113,36.56228],[127.35109,36.56233],[127.35106,36.56238],[127.35104,36.56242],[127.35099,36.56249],[127.35092,36.56259],[127.35084,36.56268],[127.35076,36.56277],[127.35067,36.56286],[127.35057,36.56295],[127.35046,36.56304],[127.35034,36.56313],[127.35022,36.56322],[127.35008,36.5633],[127.34994,36.56338],[127.34979,36.56345],[127.34964,36.56352],[127.34948,36.56357],[127.3476,36.56423],[127.34652,36.56437],[127.34327,36.56454],[127.34319,36.56454],[127.34313,36.56454],[127.34306,36.56452],[127.34301,36.5645],[127.34061,36.56351],[127.34044,36.56344],[127.34029,36.56337],[127.34015,36.5633],[127.34009,36.56327],[127.34004,36.56325],[127.33998,36.56321],[127.33995,36.56319],[127.33988,36.56315],[127.33982,36.56311],[127.33977,36.56307],[127.33972,36.56304],[127.33968,36.56301],[127.33964,36.56298],[127.33959,36.56296],[127.33954,36.56293],[127.33948,36.56291],[127.33879,36.56264],[127.33868,36.5626],[127.33857,36.56256],[127.33845,36.56253],[127.33838,36.56252],[127.33833,36.56251],[127.3382,36.56251],[127.33807,36.56251],[127.33794,36.56253],[127.33782,36.56256],[127.3377,36.5626],[127.33758,36.56264],[127.33748,36.56269],[127.33738,36.56273],[127.3373,36.56278],[127.33724,36.56282],[127.33719,36.56286],[127.33716,36.56291],[127.33712,36.56297],[127.3371,36.56305],[127.33554,36.56741],[127.33551,36.56751],[127.33549,36.56762],[127.33547,36.56772],[127.33545,36.56782],[127.33545,36.56792],[127.33544,36.56802],[127.33544,36.56811],[127.33545,36.5682],[127.33546,36.56828],[127.33547,36.56835],[127.33549,36.56843],[127.33551,36.5685],[127.33555,36.56858],[127.33559,36.56867],[127.33564,36.56876],[127.3357,36.56886],[127.33578,36.56897],[127.33586,36.56909],[127.33595,36.56921],[127.33604,36.56933],[127.33613,36.56946],[127.33621,36.56957],[127.33628,36.56968],[127.33634,36.56977],[127.33638,36.56985],[127.33641,36.56992],[127.33642,36.56997],[127.33642,36.57002],[127.33641,36.57007],[127.33638,36.57012],[127.33634,36.57018],[127.3363,36.57023],[127.33625,36.5703],[127.33619,36.57038],[127.33613,36.57046],[127.33606,36.57055],[127.33599,36.57063],[127.33597,36.57066],[127.33592,36.57072],[127.33584,36.57081],[127.33577,36.57088],[127.3357,36.57096],[127.33563,36.57102],[127.33556,36.57107],[127.33027,36.57501],[127.33023,36.57503],[127.33015,36.57505],[127.33002,36.57509],[127.32988,36.57514],[127.32972,36.57519],[127.32953,36.57526],[127.32934,36.57533],[127.32911,36.57542],[127.32887,36.57551],[127.32862,36.57561],[127.32836,36.57573],[127.32809,36.57585],[127.32783,36.57598],[127.32756,36.57613],[127.32731,36.57628],[127.32706,36.57644],[127.32683,36.57661],[127.32661,36.57677],[127.3264,36.57694],[127.32622,36.57709],[127.32605,36.57724],[127.3259,36.57738],[127.32578,36.5775],[127.32568,36.5776],[127.32566,36.57763],[127.32561,36.5777],[127.32554,36.57778],[127.3255,36.57785],[127.3249,36.57894],[127.32503,36.57954],[127.32514,36.57995],[127.3251,36.58028],[127.3251,36.58032],[127.32493,36.5807],[127.32466,36.58098],[127.32251,36.58246],[127.32244,36.5825],[127.32239,36.58253],[127.32232,36.58257],[127.32226,36.58259],[127.32221,36.58261],[127.32214,36.58263],[127.32208,36.58264],[127.32202,36.58265],[127.32196,36.58265],[127.3219,36.58265],[127.32375,36.5846],[127.32666,36.58844],[127.32992,36.59244],[127.3309,36.59321],[127.33143,36.59346],[127.33175,36.59362],[127.33287,36.59417],[127.33352,36.59509],[127.33391,36.59628],[127.33457,36.59721],[127.33595,36.59752],[127.33676,36.59748],[127.33899,36.59653],[127.34013,36.5959],[127.3408,36.5959],[127.34194,36.59631],[127.34324,36.59681],[127.34399,36.59735],[127.34438,36.59815],[127.34445,36.60023],[127.34399,36.60171],[127.34362,36.60546],[127.34477,36.60768],[127.34667,36.60899],[127.34834,36.61111],[127.34857,36.61162],[127.34888,36.61401],[127.34955,36.61768],[127.35044,36.62029],[127.35056,36.62077],[127.3512,36.62321],[127.35133,36.62401],[127.35111,36.62444],[127.35062,36.6249],[127.35042,36.62519],[127.35028,36.62616],[127.35106,36.62834],[127.3515,36.62919],[127.35234,36.63064],[127.35466,36.63322],[127.35536,36.63394],[127.35729,36.6348],[127.35967,36.63557],[127.36213,36.63605],[127.36309,36.63631],[127.3653,36.63732],[127.36543,36.6374],[127.36565,36.63754],[127.36598,36.63785],[127.36766,36.63949],[127.3702,36.64172],[127.37094,36.64228],[127.37229,36.64316],[127.374,36.64425],[127.37421,36.64436],[127.37476,36.64445],[127.37511,36.64456],[127.37575,36.64517],[127.37649,36.64667],[127.37676,36.64734],[127.37692,36.64866],[127.37693,36.65193],[127.3789,36.64638],[127.37847,36.64531],[127.38103,36.64339],[127.38157,36.64299],[127.38169,36.64291],[127.38176,36.64285],[127.38312,36.64266],[127.38332,36.64263],[127.38346,36.64262],[127.38364,36.64262],[127.38373,36.64263],[127.38381,36.64263],[127.38393,36.64266],[127.38409,36.64272],[127.38428,36.64281],[127.38435,36.64284],[127.3845,36.64295],[127.38473,36.64316],[127.38503,36.64295],[127.38658,36.64178],[127.38951,36.63862],[127.38976,36.63833],[127.39037,36.63678],[127.39046,36.63311],[127.39007,36.63251],[127.38935,36.63103],[127.39079,36.63041],[127.39089,36.63038],[127.39129,36.63026],[127.39669,36.62964],[127.39883,36.62959],[127.39967,36.62968],[127.39993,36.62979],[127.40085,36.63016],[127.40123,36.63038],[127.40109,36.63078],[127.40132,36.63145],[127.4033,36.63223],[127.40344,36.63228],[127.40645,36.6324],[127.40803,36.62973],[127.4061,36.62866],[127.40598,36.62859],[127.40296,36.62737],[127.40045,36.62648],[127.39926,36.62642],[127.39613,36.62634],[127.39366,36.62617],[127.39098,36.6255],[127.39038,36.62508],[127.38984,36.6247],[127.38801,36.62446],[127.3865,36.62471],[127.38267,36.62548],[127.38255,36.62568],[127.38233,36.62603],[127.38217,36.6263],[127.38197,36.62663],[127.38202,36.62714],[127.38258,36.6276],[127.38251,36.62779],[127.38228,36.62836],[127.38224,36.62847],[127.38051,36.62899],[127.37534,36.62898],[127.37364,36.62884],[127.37313,36.62791],[127.37301,36.62619],[127.37297,36.62521],[127.37506,36.62329],[127.37818,36.61695],[127.37841,36.61515],[127.37826,36.61413],[127.37786,36.61386],[127.37674,36.61003],[127.37731,36.60957],[127.37762,36.60903],[127.37834,36.60712],[127.37845,36.60678],[127.37758,36.60587],[127.37732,36.60572],[127.37693,36.60571],[127.37596,36.60599],[127.37534,36.60648],[127.37515,36.6068],[127.37485,36.60726],[127.37282,36.60871],[127.37041,36.60841],[127.37037,36.6084],[127.3702,36.60834],[127.36929,36.60794],[127.36889,36.60773],[127.36853,36.60558],[127.36838,36.60416],[127.36873,36.60094],[127.36651,36.59763],[127.36642,36.5974],[127.36618,36.59437],[127.36671,36.59361],[127.37106,36.59039],[127.37156,36.59003],[127.3717,36.58994],[127.37546,36.58745],[127.37617,36.58703],[127.3762,36.58701],[127.37649,36.5869],[127.37656,36.58695],[127.37669,36.58712],[127.37672,36.58718],[127.37959,36.58767],[127.38394,36.58794],[127.38473,36.58649],[127.38542,36.58624],[127.38985,36.58533]]]]}},{"type":"Feature","properties":{"code":"43113320","name":"옥산면","parent":"43113"},"geometry":{"type":"MultiPolygon","coordinates":[[[[127.42828,36.68304],[127.42696,36.6831],[127.42592,36.68295],[127.42297,36.68243],[127.4225,36.68235],[127.42133,36.68211],[127.4195,36.68137],[127.41695,36.6803],[127.41572,36.67981],[127.4145,36.67957],[127.41345,36.67947],[127.41234,36.67945],[127.41048,36.67937],[127.40973,36.6793],[127.40925,36.67925],[127.40836,36.67905],[127.40595,36.6784],[127.40504,36.67832],[127.40426,36.6783],[127.40336,36.67836],[127.40269,36.67855],[127.40193,36.6788],[127.40159,36.67883],[127.40083,36.67857],[127.39972,36.67792],[127.39946,36.67761],[127.39783,36.67555],[127.3973,36.67459],[127.39591,36.66845],[127.39547,36.66643],[127.39518,36.66461],[127.39519,36.66429],[127.3954,36.6637],[127.39536,36.66311],[127.39517,36.66236],[127.39497,36.66182],[127.39455,36.66133],[127.39161,36.66099],[127.38897,36.65995],[127.38821,36.65952],[127.388,36.65949],[127.38569,36.66023],[127.38291,36.66103],[127.38004,36.66087],[127.37815,36.66015],[127.37506,36.65891],[127.37443,36.65848],[127.37433,36.65786],[127.37446,36.65725],[127.37472,36.6565],[127.37506,36.65616],[127.37538,36.65641],[127.37673,36.65536],[127.37682,36.65527],[127.37731,36.65374],[127.37731,36.65343],[127.37693,36.65193],[127.37692,36.64866],[127.37676,36.64734],[127.37649,36.64667],[127.37575,36.64517],[127.37511,36.64456],[127.37476,36.64445],[127.37421,36.64436],[127.374,36.64425],[127.37229,36.64316],[127.37094,36.64228],[127.3702,36.64172],[127.36766,36.63949],[127.36598,36.63785],[127.36565,36.63754],[127.36543,36.6374],[127.3653,36.63732],[127.36309,36.63631],[127.36213,36.63605],[127.35967,36.63557],[127.35867,36.63806],[127.35725,36.64049],[127.35564,36.6419],[127.3547,36.6423],[127.35367,36.64235],[127.35287,36.6422],[127.352,36.64194],[127.35129,36.64199],[127.34897,36.64249],[127.34882,36.64259],[127.3482,36.64297],[127.34802,36.64349],[127.3485,36.64538],[127.34891,36.64633],[127.34952,36.64673],[127.35068,36.64752],[127.35099,36.64789],[127.3513,36.64899],[127.35225,36.65308],[127.3519,36.65632],[127.3514,36.65854],[127.3508,36.65941],[127.34997,36.6602],[127.34907,36.66048],[127.3482,36.66015],[127.34681,36.65917],[127.34491,36.65797],[127.34353,36.65722],[127.34145,36.65647],[127.34046,36.65628],[127.34033,36.65626],[127.33452,36.65731],[127.33426,36.65739],[127.33337,36.65826],[127.33313,36.65872],[127.33268,36.66],[127.33226,36.66131],[127.33172,36.66211],[127.33018,36.66334],[127.32548,36.65864],[127.32519,36.65807],[127.32453,36.65741],[127.32325,36.65678],[127.32214,36.65653],[127.32142,36.65668],[127.32099,36.65681],[127.32062,36.65698],[127.32032,36.65716],[127.32016,36.65738],[127.31956,36.65862],[127.31911,36.66084],[127.316,36.66336],[127.3141,36.66442],[127.31205,36.66543],[127.30937,36.6666],[127.30878,36.66655],[127.30693,36.66657],[127.30624,36.66685],[127.30508,36.66803],[127.30521,36.66816],[127.3054,36.66867],[127.30592,36.67006],[127.30596,36.6703],[127.30586,36.67104],[127.30626,36.67551],[127.30636,36.67567],[127.30736,36.67766],[127.30744,36.6779],[127.30749,36.67804],[127.30761,36.68163],[127.30761,36.68167],[127.3076,36.68171],[127.30754,36.68185],[127.30739,36.68206],[127.30726,36.6822],[127.30462,36.68485],[127.30459,36.68488],[127.30457,36.68489],[127.3034,36.68547],[127.30317,36.68554],[127.30313,36.68555],[127.30228,36.68571],[127.30219,36.68571],[127.29841,36.68584],[127.2975,36.68577],[127.29644,36.68572],[127.29258,36.68679],[127.2919,36.687],[127.28989,36.68784],[127.28941,36.68841],[127.28921,36.6889],[127.28874,36.68938],[127.28851,36.68954],[127.28713,36.69029],[127.28563,36.69093],[127.28658,36.69236],[127.28988,36.69558],[127.29128,36.69677],[127.2915,36.69695],[127.2919,36.69724],[127.29201,36.69729],[127.29207,36.6973],[127.29229,36.69727],[127.29245,36.69722],[127.29295,36.69711],[127.29324,36.69711],[127.29349,36.69713],[127.29431,36.69725],[127.29661,36.69778],[127.29673,36.69782],[127.30133,36.70026],[127.30286,36.7012],[127.30349,36.70161],[127.30735,36.70423],[127.30811,36.70494],[127.30812,36.70502],[127.3074,36.70703],[127.30734,36.70717],[127.30701,36.7077],[127.30692,36.70783],[127.30677,36.70804],[127.30692,36.71115],[127.30749,36.71349],[127.30762,36.71646],[127.30766,36.71827],[127.30833,36.72101],[127.30845,36.72131],[127.3088,36.72177],[127.30966,36.72279],[127.31023,36.7232],[127.31089,36.72362],[127.31093,36.72363],[127.31106,36.72369],[127.31116,36.72372],[127.31122,36.72374],[127.31211,36.72369],[127.31324,36.72356],[127.31356,36.72357],[127.31424,36.72369],[127.31628,36.72451],[127.31697,36.72482],[127.32337,36.72384],[127.32491,36.72345],[127.32602,36.72316],[127.32891,36.72183],[127.3293,36.72165],[127.3298,36.72142],[127.33158,36.72065],[127.3344,36.71999],[127.33559,36.72],[127.3375,36.72013],[127.33852,36.71992],[127.33938,36.71932],[127.3402,36.71865],[127.34056,36.71848],[127.34098,36.71841],[127.34298,36.71847],[127.34698,36.71859],[127.3478,36.71869],[127.3485,36.71877],[127.34979,36.71893],[127.35094,36.71902],[127.35165,36.71891],[127.35217,36.71861],[127.35259,36.71785],[127.35301,36.71767],[127.35474,36.71745],[127.35658,36.71732],[127.35709,36.71753],[127.35843,36.71771],[127.36164,36.71789],[127.36214,36.71761],[127.36247,36.71731],[127.36286,36.71696],[127.36313,36.71678],[127.36624,36.71548],[127.36788,36.71519],[127.36904,36.71514],[127.37247,36.71399],[127.37392,36.7133],[127.37464,36.71265],[127.37513,36.71245],[127.37545,36.71232],[127.37627,36.71235],[127.37676,36.71245],[127.37725,36.71255],[127.3787,36.71315],[127.38098,36.71443],[127.38156,36.71519],[127.38698,36.71748],[127.38818,36.71772],[127.38923,36.71776],[127.39002,36.71778],[127.39076,36.71775],[127.39158,36.7177],[127.3927,36.7176],[127.39402,36.71742],[127.39618,36.71651],[127.39713,36.71589],[127.39808,36.71526],[127.39824,36.71513],[127.39856,36.71486],[127.39892,36.71457],[127.39972,36.7139],[127.4,36.71318],[127.40019,36.71236],[127.40007,36.71213],[127.40008,36.71107],[127.40008,36.71099],[127.40628,36.70865],[127.40675,36.70872],[127.40719,36.70879],[127.40748,36.70907],[127.40763,36.70925],[127.40775,36.7095],[127.40797,36.70984],[127.40841,36.71009],[127.40895,36.71023],[127.41049,36.71052],[127.41078,36.70947],[127.41083,36.70889],[127.4102,36.70818],[127.40888,36.70705],[127.40858,36.70651],[127.40851,36.70624],[127.40852,36.70592],[127.40862,36.70561],[127.40889,36.70531],[127.41001,36.70442],[127.41232,36.7027],[127.41487,36.70081],[127.41783,36.6986],[127.42086,36.6963],[127.42063,36.69535],[127.42071,36.6932],[127.42106,36.69271],[127.42176,36.69271],[127.42329,36.69276],[127.42399,36.69284],[127.42422,36.69294],[127.42473,36.69292],[127.42541,36.69287],[127.42556,36.69021],[127.42559,36.68917],[127.42793,36.68922],[127.4281,36.68561],[127.42828,36.68304]]]]}},{"type":"Feature","properties":{"code":"43113700","name":"운천·신봉동","parent":"43113"},"geometry":{"type":"MultiPolygon","coordinates":[[[[127.47161,36.65929],[127.47571,36.65417],[127.47615,36.65349],[127.47671,36.65286],[127.47844,36.65088],[127.47885,36.65041],[127.47915,36.65003],[127.48059,36.64805],[127.48145,36.64658],[127.48015,36.64597],[127.47644,36.64422],[127.47531,36.64368],[127.47426,36.64317],[127.47373,36.64292],[127.47345,36.64283],[127.47337,36.6428],[127.47314,36.64274],[127.47286,36.64271],[127.47263,36.6427],[127.47234,36.64271],[127.47181,36.64272],[127.47118,36.64274],[127.47011,36.64279],[127.46886,36.64285],[127.46679,36.64601],[127.46621,36.64743],[127.4665,36.64882],[127.46613,36.64998],[127.46499,36.65241],[127.46474,36.65295],[127.46364,36.65497],[127.46198,36.65604],[127.46384,36.65619],[127.46551,36.65734],[127.46465,36.65915],[127.46363,36.66007],[127.46439,36.6655],[127.46504,36.66646],[127.46841,36.66298],[127.47161,36.65929]]]]}},{"type":"Feature","properties":{"code":"43113741","name":"복대1동","parent":"43113"},"geometry":{"type":"MultiPolygon","coordinates":[[[[127.43185,36.64443],[127.43511,36.64428],[127.43667,36.64223],[127.43886,36.64027],[127.43909,36.64009],[127.44107,36.64003],[127.44321,36.63998],[127.44434,36.63907],[127.4443,36.63813],[127.44526,36.63808],[127.44749,36.63802],[127.44893,36.63803],[127.4518,36.6381],[127.45169,36.63662],[127.45449,36.63656],[127.45651,36.63642],[127.45634,36.63464],[127.45531,36.63463],[127.44814,36.6342],[127.44783,36.63417],[127.44707,36.6341],[127.44659,36.63406],[127.44648,36.63405],[127.44542,36.63393],[127.44452,36.63379],[127.44445,36.63377],[127.44365,36.63353],[127.44194,36.63306],[127.44113,36.63284],[127.43886,36.63266],[127.43538,36.6329],[127.43484,36.63293],[127.43431,36.63295],[127.43424,36.63296],[127.43418,36.63296],[127.43373,36.63298],[127.43351,36.63294],[127.43327,36.63291],[127.4323,36.63273],[127.43104,36.63147],[127.42835,36.6286],[127.42715,36.6286],[127.42731,36.6302],[127.42585,36.63221],[127.42403,36.63474],[127.42388,36.63495],[127.42382,36.63503],[127.42375,36.63521],[127.42362,36.63553],[127.4236,36.63559],[127.42347,36.63611],[127.42321,36.63713],[127.42319,36.63723],[127.42306,36.63811],[127.42298,36.63867],[127.42405,36.63864],[127.42469,36.63861],[127.42478,36.63861],[127.42439,36.64103],[127.4234,36.64476],[127.42325,36.6451],[127.42274,36.64622],[127.42372,36.64619],[127.42472,36.64613],[127.4255,36.64609],[127.42608,36.64602],[127.42616,36.64602],[127.42681,36.64588],[127.42723,36.64576],[127.42773,36.64556],[127.42864,36.64517],[127.42961,36.64482],[127.43035,36.64461],[127.4307,36.64455],[127.43129,36.64446],[127.43137,36.64445],[127.43185,36.64443]]]]}},{"type":"Feature","properties":{"code":"43113742","name":"복대2동","parent":"43113"},"geometry":{"type":"MultiPolygon","coordinates":[[[[127.45452,36.63263],[127.45302,36.63262],[127.45287,36.63251],[127.45113,36.63102],[127.45071,36.63065],[127.45043,36.63034],[127.4502,36.62996],[127.45011,36.62974],[127.45009,36.6297],[127.45001,36.62942],[127.44996,36.62898],[127.44992,36.62829],[127.44989,36.6279],[127.44984,36.62633],[127.44716,36.62464],[127.44703,36.62465],[127.44614,36.62462],[127.44581,36.6246],[127.44529,36.62447],[127.44467,36.62429],[127.44321,36.6235],[127.44298,36.6234],[127.44292,36.6234],[127.43851,36.6304],[127.43837,36.63065],[127.43816,36.63112],[127.43812,36.63121],[127.43807,36.63145],[127.43806,36.63162],[127.43812,36.63181],[127.43822,36.632],[127.43831,36.63211],[127.43847,36.63231],[127.43886,36.63266],[127.44113,36.63284],[127.44194,36.63306],[127.44365,36.63353],[127.44445,36.63377],[127.44452,36.63379],[127.44542,36.63393],[127.44648,36.63405],[127.44659,36.63406],[127.44707,36.6341],[127.44783,36.63417],[127.44814,36.6342],[127.45531,36.63463],[127.45634,36.63464],[127.45452,36.63263]]]]}},{"type":"Feature","properties":{"code":"43113747","name":"가경동","parent":"43113"},"geometry":{"type":"MultiPolygon","coordinates":[[[[127.43886,36.63266],[127.43847,36.63231],[127.43831,36.63211],[127.43822,36.632],[127.43812,36.63181],[127.43806,36.63162],[127.43807,36.63145],[127.43812,36.63121],[127.43816,36.63112],[127.43837,36.63065],[127.43851,36.6304],[127.44292,36.6234],[127.44298,36.6234],[127.44321,36.6235],[127.4442,36.62185],[127.44435,36.62159],[127.44436,36.62148],[127.4445,36.61757],[127.44434,36.61594],[127.44141,36.61325],[127.44132,36.61317],[127.44125,36.61312],[127.44112,36.613],[127.44084,36.61276],[127.44058,36.61261],[127.44053,36.61259],[127.43956,36.61212],[127.43872,36.61173],[127.4382,36.61151],[127.43767,36.61141],[127.43677,36.61118],[127.43317,36.6099],[127.43288,36.6097],[127.43259,36.60961],[127.4324,36.6096],[127.4321,36.60963],[127.42781,36.61035],[127.42551,36.61166],[127.42518,36.61189],[127.42245,36.61683],[127.42247,36.61691],[127.42311,36.61908],[127.42314,36.61916],[127.42321,36.61937],[127.424,36.62052],[127.42579,36.62293],[127.42669,36.62299],[127.42771,36.62294],[127.43099,36.62394],[127.43154,36.62413],[127.43149,36.62421],[127.42835,36.6286],[127.43104,36.63147],[127.4323,36.63273],[127.43327,36.63291],[127.43351,36.63294],[127.43373,36.63298],[127.43418,36.63296],[127.43424,36.63296],[127.43431,36.63295],[127.43484,36.63293],[127.43538,36.6329],[127.43886,36.63266]]]]}},{"type":"Feature","properties":{"code":"43113751","name":"봉명1동","parent":"43113"},"geometry":{"type":"MultiPolygon","coordinates":[[[[127.46886,36.64285],[127.46894,36.63986],[127.46821,36.63986],[127.46695,36.63986],[127.46692,36.63878],[127.46691,36.63827],[127.4669,36.63777],[127.46545,36.63777],[127.46365,36.63819],[127.46307,36.63854],[127.46261,36.63883],[127.46171,36.63937],[127.45665,36.63799],[127.45665,36.63794],[127.45661,36.63754],[127.45655,36.63688],[127.45651,36.63642],[127.45449,36.63656],[127.45169,36.63662],[127.4518,36.6381],[127.4535,36.63813],[127.45359,36.63891],[127.45363,36.63951],[127.45367,36.63999],[127.45374,36.64095],[127.45377,36.6414],[127.45392,36.64337],[127.45454,36.64335],[127.45461,36.64335],[127.45759,36.64324],[127.46886,36.64285]]]]}},{"type":"Feature","properties":{"code":"43113756","name":"봉명2·송정동","parent":"43113"},"geometry":{"type":"MultiPolygon","coordinates":[[[[127.46886,36.64285],[127.45759,36.64324],[127.45461,36.64335],[127.45454,36.64335],[127.45392,36.64337],[127.45377,36.6414],[127.45374,36.64095],[127.45367,36.63999],[127.45363,36.63951],[127.45359,36.63891],[127.4535,36.63813],[127.4518,36.6381],[127.44893,36.63803],[127.44749,36.63802],[127.44526,36.63808],[127.4443,36.63813],[127.44434,36.63907],[127.44321,36.63998],[127.44107,36.64003],[127.43909,36.64009],[127.43886,36.64027],[127.43667,36.64223],[127.43511,36.64428],[127.43185,36.64443],[127.43186,36.64769],[127.43414,36.64769],[127.43534,36.64935],[127.43534,36.64939],[127.43536,36.65097],[127.43535,36.6537],[127.43572,36.65374],[127.43692,36.65387],[127.43769,36.65394],[127.43836,36.65397],[127.43907,36.65396],[127.4409,36.65377],[127.44126,36.65376],[127.44149,36.6538],[127.44168,36.65387],[127.44191,36.65399],[127.44244,36.65435],[127.44525,36.65611],[127.45114,36.65801],[127.45411,36.65852],[127.45767,36.65864],[127.46108,36.65877],[127.46197,36.65882],[127.46316,36.65888],[127.46434,36.65906],[127.46465,36.65915],[127.46551,36.65734],[127.46384,36.65619],[127.46198,36.65604],[127.46364,36.65497],[127.46474,36.65295],[127.46499,36.65241],[127.46613,36.64998],[127.4665,36.64882],[127.46621,36.64743],[127.46679,36.64601],[127.46886,36.64285]]]]}},{"type":"Feature","properties":{"code":"43113760","name":"강서1동","parent":"43113"},"geometry":{"type":"MultiPolygon","coordinates":[[[[127.42274,36.64622],[127.42325,36.6451],[127.4234,36.64476],[127.42439,36.64103],[127.42478,36.63861],[127.42469,36.63861],[127.42405,36.63864],[127.42298,36.63867],[127.42306,36.63811],[127.42319,36.63723],[127.42321,36.63713],[127.42347,36.63611],[127.4236,36.63559],[127.42362,36.63553],[127.42375,36.63521],[127.42382,36.63503],[127.42388,36.63495],[127.42403,36.63474],[127.42585,36.63221],[127.42731,36.6302],[127.42715,36.6286],[127.42835,36.6286],[127.43149,36.62421],[127.43154,36.62413],[127.43099,36.62394],[127.42771,36.62294],[127.42669,36.62299],[127.42579,36.62293],[127.424,36.62052],[127.42321,36.61937],[127.42314,36.61916],[127.42311,36.61908],[127.42247,36.61691],[127.42245,36.61683],[127.42518,36.61189],[127.42551,36.61166],[127.42781,36.61035],[127.4321,36.60963],[127.4324,36.6096],[127.43259,36.60961],[127.43288,36.6097],[127.43317,36.6099],[127.43677,36.61118],[127.43767,36.61141],[127.43683,36.61064],[127.43672,36.61029],[127.43671,36.60973],[127.43695,36.60901],[127.43702,36.60828],[127.43662,36.60727],[127.43614,36.60664],[127.4359,36.60643],[127.43513,36.60615],[127.43485,36.60622],[127.43424,36.60593],[127.43418,36.60577],[127.43331,36.60283],[127.43378,36.60181],[127.43424,36.60149],[127.43429,36.59999],[127.43428,36.59972],[127.43426,36.59965],[127.43422,36.59949],[127.43411,36.59938],[127.43272,36.59932],[127.4273,36.5995],[127.42674,36.59975],[127.42659,36.59982],[127.42628,36.59993],[127.4252,36.60009],[127.42327,36.60008],[127.42243,36.59983],[127.42115,36.59888],[127.42014,36.59811],[127.41992,36.59795],[127.41946,36.59828],[127.41784,36.59952],[127.41772,36.59962],[127.41717,36.60008],[127.41674,36.60045],[127.41619,36.60096],[127.4157,36.60143],[127.41549,36.60171],[127.41449,36.60278],[127.41445,36.60282],[127.41409,36.60313],[127.41391,36.60327],[127.41351,36.60358],[127.41324,36.60375],[127.41291,36.60396],[127.41263,36.60413],[127.41248,36.60419],[127.41188,36.60446],[127.41153,36.6046],[127.40949,36.60267],[127.40724,36.60035],[127.40726,36.60032],[127.40729,36.60021],[127.40729,36.60011],[127.40724,36.59992],[127.40688,36.59914],[127.40681,36.599],[127.40669,36.59883],[127.40662,36.59874],[127.40652,36.59862],[127.40627,36.59834],[127.4056,36.59799],[127.40551,36.59795],[127.40536,36.59789],[127.40253,36.59697],[127.40244,36.59696],[127.40191,36.59667],[127.40165,36.59652],[127.40101,36.59604],[127.40091,36.59593],[127.40083,36.59556],[127.40068,36.59483],[127.40021,36.59372],[127.39961,36.5926],[127.39924,36.59195],[127.39919,36.59188],[127.39907,36.59171],[127.39825,36.59072],[127.39811,36.5906],[127.39804,36.59054],[127.39202,36.58584],[127.39022,36.58534],[127.38995,36.58533],[127.38985,36.58533],[127.38542,36.58624],[127.38473,36.58649],[127.38394,36.58794],[127.37959,36.58767],[127.37672,36.58718],[127.37669,36.58712],[127.37656,36.58695],[127.37649,36.5869],[127.3762,36.58701],[127.37617,36.58703],[127.37546,36.58745],[127.3717,36.58994],[127.37156,36.59003],[127.37106,36.59039],[127.36671,36.59361],[127.36618,36.59437],[127.36642,36.5974],[127.36651,36.59763],[127.36873,36.60094],[127.36838,36.60416],[127.36853,36.60558],[127.36889,36.60773],[127.36929,36.60794],[127.3702,36.60834],[127.37037,36.6084],[127.37041,36.60841],[127.37282,36.60871],[127.37485,36.60726],[127.37515,36.6068],[127.37534,36.60648],[127.37596,36.60599],[127.37693,36.60571],[127.37732,36.60572],[127.37758,36.60587],[127.37845,36.60678],[127.37834,36.60712],[127.37762,36.60903],[127.37731,36.60957],[127.37674,36.61003],[127.37786,36.61386],[127.37826,36.61413],[127.37841,36.61515],[127.37818,36.61695],[127.37506,36.62329],[127.37297,36.62521],[127.37301,36.62619],[127.37313,36.62791],[127.37364,36.62884],[127.37534,36.62898],[127.38051,36.62899],[127.38224,36.62847],[127.38228,36.62836],[127.38251,36.62779],[127.38258,36.6276],[127.38202,36.62714],[127.38197,36.62663],[127.38217,36.6263],[127.38233,36.62603],[127.38255,36.62568],[127.38267,36.62548],[127.3865,36.62471],[127.38801,36.62446],[127.38984,36.6247],[127.39038,36.62508],[127.39098,36.6255],[127.39366,36.62617],[127.39613,36.62634],[127.39926,36.62642],[127.40045,36.62648],[127.40296,36.62737],[127.40598,36.62859],[127.4061,36.62866],[127.40803,36.62973],[127.40645,36.6324],[127.40344,36.63228],[127.4033,36.63223],[127.40132,36.63145],[127.40109,36.63078],[127.40123,36.63038],[127.40085,36.63016],[127.39993,36.62979],[127.39967,36.62968],[127.39883,36.62959],[127.39669,36.62964],[127.39129,36.63026],[127.39089,36.63038],[127.39079,36.63041],[127.38935,36.63103],[127.39007,36.63251],[127.39046,36.63311],[127.39037,36.63678],[127.38976,36.63833],[127.38951,36.63862],[127.38658,36.64178],[127.38503,36.64295],[127.38473,36.64316],[127.3845,36.64295],[127.38435,36.64284],[127.38428,36.64281],[127.38409,36.64272],[127.38393,36.64266],[127.38381,36.64263],[127.38373,36.64263],[127.38364,36.64262],[127.38346,36.64262],[127.38332,36.64263],[127.38312,36.64266],[127.38176,36.64285],[127.38169,36.64291],[127.38157,36.64299],[127.38103,36.64339],[127.37847,36.64531],[127.3789,36.64638],[127.37693,36.65193],[127.37731,36.65343],[127.37731,36.65374],[127.37682,36.65527],[127.37673,36.65536],[127.37538,36.65641],[127.37506,36.65616],[127.37472,36.6565],[127.37446,36.65725],[127.37433,36.65786],[127.37443,36.65848],[127.37506,36.65891],[127.37815,36.66015],[127.38004,36.66087],[127.38291,36.66103],[127.38569,36.66023],[127.388,36.65949],[127.38821,36.65952],[127.38897,36.65995],[127.39161,36.66099],[127.39455,36.66133],[127.39588,36.66254],[127.39695,36.66254],[127.3988,36.66232],[127.40448,36.66111],[127.40558,36.66047],[127.4061,36.65952],[127.40612,36.6595],[127.40613,36.65935],[127.40619,36.65865],[127.40658,36.65763],[127.40799,36.65594],[127.41117,36.65268],[127.41235,36.6517],[127.41446,36.65172],[127.41619,36.65187],[127.41715,36.65161],[127.42018,36.65],[127.42283,36.64719],[127.42274,36.64622]]]]}},{"type":"Feature","properties":{"code":"43113770","name":"강서2동","parent":"43113"},"geometry":{"type":"MultiPolygon","coordinates":[[[[127.46303,36.66933],[127.46504,36.66646],[127.46439,36.6655],[127.46363,36.66007],[127.46465,36.65915],[127.46434,36.65906],[127.46316,36.65888],[127.46197,36.65882],[127.46108,36.65877],[127.45767,36.65864],[127.45411,36.65852],[127.45114,36.65801],[127.44525,36.65611],[127.44244,36.65435],[127.44191,36.65399],[127.44168,36.65387],[127.44149,36.6538],[127.44126,36.65376],[127.4409,36.65377],[127.43907,36.65396],[127.43836,36.65397],[127.43769,36.65394],[127.43692,36.65387],[127.43572,36.65374],[127.43535,36.6537],[127.43536,36.65097],[127.43534,36.64939],[127.43534,36.64935],[127.43414,36.64769],[127.43186,36.64769],[127.43185,36.64443],[127.43137,36.64445],[127.43129,36.64446],[127.4307,36.64455],[127.43035,36.64461],[127.42961,36.64482],[127.42864,36.64517],[127.42773,36.64556],[127.42723,36.64576],[127.42681,36.64588],[127.42616,36.64602],[127.42608,36.64602],[127.4255,36.64609],[127.42472,36.64613],[127.42372,36.64619],[127.42274,36.64622],[127.42283,36.64719],[127.42018,36.65],[127.41715,36.65161],[127.41619,36.65187],[127.41446,36.65172],[127.41235,36.6517],[127.41117,36.65268],[127.40799,36.65594],[127.40658,36.65763],[127.40619,36.65865],[127.40613,36.65935],[127.40612,36.6595],[127.4061,36.65952],[127.40558,36.66047],[127.40448,36.66111],[127.3988,36.66232],[127.39695,36.66254],[127.39588,36.66254],[127.39455,36.66133],[127.39497,36.66182],[127.39517,36.66236],[127.39536,36.66311],[127.3954,36.6637],[127.39519,36.66429],[127.39518,36.66461],[127.39547,36.66643],[127.39591,36.66845],[127.3973,36.67459],[127.39783,36.67555],[127.39946,36.67761],[127.39972,36.67792],[127.40083,36.67857],[127.40159,36.67883],[127.40193,36.6788],[127.40269,36.67855],[127.40336,36.67836],[127.40426,36.6783],[127.40504,36.67832],[127.40595,36.6784],[127.40836,36.67905],[127.40925,36.67925],[127.40973,36.6793],[127.41048,36.67937],[127.41234,36.67945],[127.41345,36.67947],[127.4145,36.67957],[127.41572,36.67981],[127.41695,36.6803],[127.4195,36.68137],[127.42133,36.68211],[127.4225,36.68235],[127.42297,36.68243],[127.42592,36.68295],[127.42696,36.6831],[127.42828,36.68304],[127.42934,36.68289],[127.42976,36.68269],[127.43012,36.68252],[127.43149,36.68185],[127.43205,36.68163],[127.43274,36.68136],[127.43377,36.68137],[127.43486,36.68204],[127.43542,36.68234],[127.43606,36.68248],[127.43645,36.6825],[127.43703,36.68248],[127.43957,36.68261],[127.44314,36.68288],[127.44367,36.68303],[127.44405,36.68313],[127.44576,36.68431],[127.44601,36.68458],[127.44664,36.6853],[127.44858,36.6829],[127.44838,36.68281],[127.44797,36.6826],[127.44762,36.68236],[127.44739,36.68215],[127.44729,36.68205],[127.44713,36.68176],[127.44709,36.68169],[127.44707,36.68143],[127.44707,36.68128],[127.44734,36.67698],[127.44765,36.67536],[127.44784,36.67519],[127.44809,36.67504],[127.44858,36.67495],[127.44914,36.67487],[127.44969,36.67488],[127.4514,36.6749],[127.45208,36.67496],[127.45252,36.675],[127.45297,36.67505],[127.45403,36.67506],[127.45412,36.67506],[127.45435,36.67506],[127.45484,36.67501],[127.45627,36.67476],[127.45656,36.67461],[127.45686,36.67442],[127.45756,36.67398],[127.46176,36.67062],[127.46222,36.67023],[127.46282,36.6696],[127.46303,36.66933]]]]}}]}