{"type":"FeatureCollection","features":[{"type":"Feature","properties":{"code":"30170510","name":"복수동","parent":"30170"},"geometry":{"type":"MultiPolygon","coordinates":[[[[127.37991,36.31098],[127.38195,36.31018],[127.3845,36.30873],[127.38328,36.30758],[127.38213,36.30639],[127.38166,36.30486],[127.38167,36.30435],[127.38169,36.30291],[127.38215,36.302],[127.38223,36.30183],[127.38274,36.30081],[127.38305,36.29995],[127.38292,36.29918],[127.3829,36.29906],[127.38253,36.29834],[127.38126,36.29612],[127.38115,36.29594],[127.38068,36.29541],[127.3785,36.29301],[127.37839,36.29288],[127.37458,36.29308],[127.37343,36.29324],[127.37324,36.29339],[127.37182,36.2948],[127.37054,36.29757],[127.37074,36.29856],[127.37098,36.29945],[127.37141,36.30238],[127.37134,36.30457],[127.3711,36.30619],[127.37105,36.30621],[127.37022,36.3067],[127.37122,36.30886],[127.37222,36.30994],[127.37689,36.3109],[127.37693,36.31091],[127.37762,36.31104],[127.3779,36.31107],[127.3782,36.3111],[127.37859,36.31112],[127.37925,36.31109],[127.37929,36.31108],[127.37974,36.31103],[127.37991,36.31098]]]]}},{"type":"Feature","properties":{"code":"30170520","name":"도마1동","parent":"30170"},"geometry":{"type":"MultiPolygon","coordinates":[[[[127.38615,36.32097],[127.38591,36.32056],[127.38579,36.32029],[127.38568,36.31995],[127.38567,36.31991],[127.38557,36.31943],[127.38552,36.31906],[127.38555,36.31844],[127.38564,36.31811],[127.38591,36.31715],[127.38644,36.31563],[127.38669,36.31259],[127.3845,36.30873],[127.38195,36.31018],[127.37991,36.31098],[127.37995,36.31131],[127.37996,36.31139],[127.38006,36.31307],[127.38006,36.31311],[127.3777,36.31923],[127.37678,36.31925],[127.37484,36.31927],[127.37358,36.31928],[127.3728,36.31928],[127.37211,36.31929],[127.37147,36.31929],[127.37022,36.32194],[127.37033,36.32462],[127.37035,36.32511],[127.37036,36.32522],[127.37041,36.32612],[127.3706,36.32796],[127.37063,36.32805],[127.37304,36.32771],[127.3741,36.32833],[127.37467,36.32812],[127.37471,36.32811],[127.37492,36.32756],[127.37489,36.32672],[127.3751,36.32239],[127.38263,36.32146],[127.38615,36.32097]]]]}},{"type":"Feature","properties":{"code":"30170530","name":"도마2동","parent":"30170"},"geometry":{"type":"MultiPolygon","coordinates":[[[[127.36368,36.33129],[127.36379,36.3305],[127.36397,36.32974],[127.36405,36.32954],[127.36417,36.32925],[127.36446,36.32875],[127.36452,36.32868],[127.36537,36.32776],[127.36546,36.32774],[127.36592,36.3278],[127.36646,36.3279],[127.36724,36.32814],[127.36738,36.32821],[127.37064,36.32841],[127.37079,36.32838],[127.37083,36.32837],[127.37063,36.32805],[127.3706,36.32796],[127.37041,36.32612],[127.37036,36.32522],[127.37035,36.32511],[127.37033,36.32462],[127.37022,36.32194],[127.37147,36.31929],[127.37211,36.31929],[127.3728,36.31928],[127.37358,36.31928],[127.37484,36.31927],[127.37678,36.31925],[127.3777,36.31923],[127.38006,36.31311],[127.38006,36.31307],[127.37996,36.31139],[127.37995,36.31131],[127.37991,36.31098],[127.37974,36.31103],[127.37929,36.31108],[127.37925,36.31109],[127.37859,36.31112],[127.3782,36.3111],[127.3779,36.31107],[127.37762,36.31104],[127.37693,36.31091],[127.37689,36.3109],[127.37222,36.30994],[127.36927,36.30998],[127.36896,36.31303],[127.36905,36.31338],[127.36506,36.31704],[127.36471,36.31727],[127.36439,36.31748],[127.36196,36.31898],[127.35995,36.3193],[127.35883,36.31947],[127.35844,36.31953],[127.35818,36.31978],[127.35948,36.3217],[127.35957,36.32323],[127.35962,36.32493],[127.3595,36.32541],[127.35949,36.32553],[127.35945,36.32649],[127.35973,36.32777],[127.36007,36.32818],[127.36165,36.33008],[127.36203,36.33071],[127.36222,36.33101],[127.36249,36.33138],[127.36254,36.33142],[127.36257,36.33144],[127.36286,36.33156],[127.36295,36.33157],[127.36312,36.33152],[127.36318,36.33149],[127.36322,36.33147],[127.36324,36.33143],[127.36368,36.33129]]]]}},{"type":"Feature","properties":{"code":"30170535","name":"정림동","parent":"30170"},"geometry":{"type":"MultiPolygon","coordinates":[[[[127.37222,36.30994],[127.37122,36.30886],[127.37022,36.3067],[127.37105,36.30621],[127.3711,36.30619],[127.37134,36.30457],[127.37141,36.30238],[127.37098,36.29945],[127.37074,36.29856],[127.37054,36.29757],[127.37182,36.2948],[127.37324,36.29339],[127.37343,36.29324],[127.37203,36.29128],[127.37036,36.28837],[127.36924,36.28295],[127.36929,36.28189],[127.37128,36.27743],[127.37273,36.27471],[127.37279,36.27448],[127.37272,36.27366],[127.37241,36.27218],[127.3718,36.27069],[127.37158,36.27037],[127.37102,36.26994],[127.3667,36.26876],[127.36628,36.26878],[127.36506,36.26925],[127.36369,36.26977],[127.36335,36.26963],[127.36271,36.26919],[127.36183,36.26597],[127.36101,36.26446],[127.35997,36.26519],[127.35975,36.26623],[127.359,36.26833],[127.35809,36.27037],[127.3565,36.27148],[127.35415,36.27272],[127.35164,36.27347],[127.35111,36.27316],[127.34631,36.27493],[127.35292,36.27587],[127.35444,36.27613],[127.35553,36.27682],[127.3566,36.27756],[127.35693,36.278],[127.35696,36.27833],[127.35696,36.27882],[127.35676,36.2796],[127.35671,36.28053],[127.35679,36.28168],[127.35692,36.28277],[127.3572,36.28496],[127.35766,36.28868],[127.35788,36.29042],[127.35792,36.29069],[127.35847,36.29227],[127.35948,36.29425],[127.36053,36.29627],[127.36111,36.2971],[127.36155,36.29772],[127.36213,36.29959],[127.36226,36.30067],[127.36222,36.3019],[127.36191,36.30351],[127.3612,36.30454],[127.35996,36.30568],[127.35981,36.30582],[127.35969,36.30594],[127.35901,36.30659],[127.35725,36.30829],[127.35625,36.31029],[127.35475,36.31399],[127.35687,36.31683],[127.35792,36.31747],[127.35818,36.31978],[127.35844,36.31953],[127.35883,36.31947],[127.35995,36.3193],[127.36196,36.31898],[127.36439,36.31748],[127.36471,36.31727],[127.36506,36.31704],[127.36905,36.31338],[127.36896,36.31303],[127.36927,36.30998],[127.37222,36.30994]]]]}},{"type":"Feature","properties":{"code":"30170540","name":"변동","parent":"30170"},"geometry":{"type":"MultiPolygon","coordinates":[[[[127.38123,36.32871],[127.38472,36.32828],[127.38512,36.3282],[127.38547,36.32812],[127.38582,36.328],[127.3897,36.32647],[127.38615,36.32097],[127.38263,36.32146],[127.3751,36.32239],[127.37489,36.32672],[127.37492,36.32756],[127.37471,36.32811],[127.37467,36.32812],[127.3741,36.32833],[127.37304,36.32771],[127.37063,36.32805],[127.37083,36.32837],[127.37079,36.32838],[127.37064,36.32841],[127.36738,36.32821],[127.36724,36.32814],[127.36646,36.3279],[127.36592,36.3278],[127.36546,36.32774],[127.36537,36.32776],[127.36452,36.32868],[127.36446,36.32875],[127.36417,36.32925],[127.36405,36.32954],[127.36397,36.32974],[127.36379,36.3305],[127.36368,36.33129],[127.36409,36.33502],[127.36692,36.33503],[127.36776,36.33435],[127.36826,36.33396],[127.37221,36.33112],[127.37586,36.32998],[127.37609,36.3303],[127.37611,36.33033],[127.3763,36.33062],[127.37656,36.33101],[127.37678,36.33131],[127.37715,36.33112],[127.37812,36.33057],[127.37948,36.32977],[127.38103,36.32885],[127.38123,36.32871]]]]}},{"type":"Feature","properties":{"code":"30170550","name":"용문동","parent":"30170"},"geometry":{"type":"MultiPolygon","coordinates":[[[[127.40195,36.33818],[127.39766,36.33463],[127.39813,36.33425],[127.39368,36.33073],[127.38687,36.33642],[127.39135,36.33988],[127.39212,36.33925],[127.3926,36.33887],[127.39283,36.33868],[127.39332,36.33843],[127.39964,36.3433],[127.40328,36.3459],[127.4021,36.33888],[127.40195,36.33818]]]]}},{"type":"Feature","properties":{"code":"30170555","name":"탄방동","parent":"30170"},"geometry":{"type":"MultiPolygon","coordinates":[[[[127.39525,36.34898],[127.40309,36.34896],[127.40328,36.3459],[127.39964,36.3433],[127.39332,36.33843],[127.39283,36.33868],[127.3926,36.33887],[127.39212,36.33925],[127.39135,36.33988],[127.38956,36.34134],[127.38921,36.34152],[127.38916,36.34156],[127.38861,36.34183],[127.38855,36.34184],[127.38704,36.34219],[127.38675,36.34225],[127.38364,36.34293],[127.38281,36.34312],[127.38212,36.34327],[127.38108,36.34184],[127.38028,36.3414],[127.37936,36.34094],[127.37898,36.34096],[127.37827,36.34128],[127.37784,36.34147],[127.37992,36.34482],[127.3806,36.34523],[127.38289,36.34669],[127.38292,36.34789],[127.38294,36.34908],[127.39525,36.34898]]]]}},{"type":"Feature","properties":{"code":"30170630","name":"둔산1동","parent":"30170"},"geometry":{"type":"MultiPolygon","coordinates":[[[[127.39527,36.35768],[127.39527,36.35641],[127.39525,36.34898],[127.38294,36.34908],[127.38297,36.3513],[127.38462,36.35129],[127.38462,36.35358],[127.38462,36.3547],[127.38462,36.35582],[127.38675,36.35773],[127.39527,36.35768]]]]}},{"type":"Feature","properties":{"code":"30170640","name":"둔산2동","parent":"30170"},"geometry":{"type":"MultiPolygon","coordinates":[[[[127.39481,36.3648],[127.39562,36.36482],[127.3961,36.36479],[127.39823,36.36273],[127.40037,36.36093],[127.40284,36.35733],[127.40087,36.35769],[127.39527,36.35768],[127.38675,36.35773],[127.38462,36.35582],[127.38462,36.3547],[127.38462,36.35358],[127.38462,36.35129],[127.38297,36.3513],[127.38294,36.34908],[127.38292,36.34789],[127.38289,36.34669],[127.3806,36.34523],[127.37992,36.34482],[127.37775,36.34766],[127.37665,36.34879],[127.37487,36.34983],[127.3732,36.35055],[127.37326,36.35065],[127.37341,36.35097],[127.37421,36.35262],[127.37429,36.35279],[127.37431,36.35735],[127.37426,36.35779],[127.37948,36.35778],[127.37951,36.36486],[127.39246,36.36482],[127.39481,36.3648]]]]}},{"type":"Feature","properties":{"code":"30170560","name":"괴정동","parent":"30170"},"geometry":{"type":"MultiPolygon","coordinates":[[[[127.39135,36.33988],[127.38687,36.33642],[127.3825,36.33295],[127.38195,36.33342],[127.37926,36.3357],[127.37806,36.33671],[127.3775,36.33718],[127.37699,36.33681],[127.37688,36.33672],[127.37526,36.3353],[127.37001,36.3369],[127.36942,36.33721],[127.36887,36.33789],[127.36871,36.33809],[127.36843,36.34019],[127.37163,36.34226],[127.37372,36.34041],[127.37669,36.34058],[127.37742,36.34075],[127.37784,36.34147],[127.37827,36.34128],[127.37898,36.34096],[127.37936,36.34094],[127.38028,36.3414],[127.38108,36.34184],[127.38212,36.34327],[127.38281,36.34312],[127.38364,36.34293],[127.38675,36.34225],[127.38704,36.34219],[127.38855,36.34184],[127.38861,36.34183],[127.38916,36.34156],[127.38921,36.34152],[127.38956,36.34134],[127.39135,36.33988]]]]}},{"type":"Feature","properties":{"code":"30170570","name":"가장동","parent":"30170"},"geometry":{"type":"MultiPolygon","coordinates":[[[[127.39368,36.33073],[127.39021,36.3272],[127.3897,36.32647],[127.38582,36.328],[127.38547,36.32812],[127.38512,36.3282],[127.38472,36.32828],[127.38123,36.32871],[127.38361,36.33065],[127.3844,36.33129],[127.38447,36.33134],[127.38439,36.3314],[127.38299,36.33255],[127.3825,36.33295],[127.38687,36.33642],[127.39368,36.33073]]]]}},{"type":"Feature","properties":{"code":"30170575","name":"내동","parent":"30170"},"geometry":{"type":"MultiPolygon","coordinates":[[[[127.3825,36.33295],[127.38299,36.33255],[127.38439,36.3314],[127.38447,36.33134],[127.3844,36.33129],[127.38361,36.33065],[127.38123,36.32871],[127.38103,36.32885],[127.37948,36.32977],[127.37812,36.33057],[127.37715,36.33112],[127.37678,36.33131],[127.37656,36.33101],[127.3763,36.33062],[127.37611,36.33033],[127.37609,36.3303],[127.37586,36.32998],[127.37221,36.33112],[127.36826,36.33396],[127.36776,36.33435],[127.36692,36.33503],[127.36409,36.33502],[127.36274,36.33633],[127.36232,36.3369],[127.36161,36.3385],[127.36165,36.33905],[127.36185,36.33948],[127.36347,36.33914],[127.36594,36.33908],[127.36658,36.33909],[127.36792,36.3396],[127.36822,36.33994],[127.36839,36.34014],[127.36843,36.34019],[127.36871,36.33809],[127.36887,36.33789],[127.36942,36.33721],[127.37001,36.3369],[127.37526,36.3353],[127.37688,36.33672],[127.37699,36.33681],[127.3775,36.33718],[127.37806,36.33671],[127.37926,36.3357],[127.38195,36.33342],[127.3825,36.33295]]]]}},{"type":"Feature","properties":{"code":"30170581","name":"갈마1동","parent":"30170"},"geometry":{"type":"MultiPolygon","coordinates":[[[[127.37426,36.35779],[127.37431,36.35735],[127.37429,36.35279],[127.37421,36.35262],[127.37341,36.35097],[127.37326,36.35065],[127.3732,36.35055],[127.36992,36.35244],[127.36954,36.35204],[127.36924,36.3516],[127.36921,36.3512],[127.36919,36.351],[127.36951,36.34499],[127.36953,36.34463],[127.36954,36.34441],[127.36964,36.34404],[127.3699,36.34371],[127.37137,36.34248],[127.3716,36.34229],[127.37163,36.34226],[127.36843,36.34019],[127.36839,36.34014],[127.36822,36.33994],[127.36792,36.3396],[127.36658,36.33909],[127.36594,36.33908],[127.36347,36.33914],[127.36185,36.33948],[127.36206,36.34011],[127.36188,36.34047],[127.36143,36.34095],[127.36108,36.34111],[127.36095,36.34128],[127.36097,36.34167],[127.36123,36.34379],[127.36144,36.34429],[127.36281,36.34656],[127.36251,36.34933],[127.36258,36.34986],[127.36318,36.35369],[127.36337,36.35424],[127.36396,36.35433],[127.36421,36.35436],[127.36433,36.35438],[127.36459,36.35436],[127.36524,36.3543],[127.36545,36.35429],[127.36644,36.35416],[127.36679,36.35412],[127.36685,36.35411],[127.36716,36.35398],[127.36787,36.35369],[127.36841,36.35698],[127.36842,36.35782],[127.37426,36.35792],[127.37426,36.35779]]]]}},{"type":"Feature","properties":{"code":"30170582","name":"갈마2동","parent":"30170"},"geometry":{"type":"MultiPolygon","coordinates":[[[[127.3732,36.35055],[127.37487,36.34983],[127.37665,36.34879],[127.37775,36.34766],[127.37992,36.34482],[127.37784,36.34147],[127.37742,36.34075],[127.37669,36.34058],[127.37372,36.34041],[127.37163,36.34226],[127.3716,36.34229],[127.37137,36.34248],[127.3699,36.34371],[127.36964,36.34404],[127.36954,36.34441],[127.36953,36.34463],[127.36951,36.34499],[127.36919,36.351],[127.36921,36.3512],[127.36924,36.3516],[127.36954,36.35204],[127.36992,36.35244],[127.3732,36.35055]]]]}},{"type":"Feature","properties":{"code":"30170586","name":"월평1동","parent":"30170"},"geometry":{"type":"MultiPolygon","coordinates":[[[[127.36842,36.35782],[127.36841,36.35698],[127.36787,36.35369],[127.36716,36.35398],[127.36685,36.35411],[127.36679,36.35412],[127.36644,36.35416],[127.36545,36.35429],[127.36524,36.3543],[127.36459,36.35436],[127.36433,36.35438],[127.36421,36.35436],[127.36396,36.35433],[127.36337,36.35424],[127.36318,36.35369],[127.36258,36.34986],[127.36251,36.34933],[127.36281,36.34656],[127.36144,36.34429],[127.36123,36.34379],[127.36097,36.34167],[127.36095,36.34128],[127.36108,36.34111],[127.36143,36.34095],[127.36188,36.34047],[127.36206,36.34011],[127.36185,36.33948],[127.36165,36.33905],[127.36161,36.3385],[127.36232,36.3369],[127.36274,36.33633],[127.36409,36.33502],[127.36368,36.33129],[127.36324,36.33143],[127.36322,36.33147],[127.36318,36.33149],[127.36312,36.33152],[127.36295,36.33157],[127.36286,36.33156],[127.36257,36.33144],[127.36254,36.33142],[127.36249,36.33138],[127.36222,36.33101],[127.36203,36.33071],[127.36165,36.33008],[127.36007,36.32818],[127.35973,36.32777],[127.35893,36.33231],[127.35364,36.33214],[127.35375,36.33254],[127.35385,36.33295],[127.35302,36.33719],[127.35107,36.34327],[127.34939,36.34861],[127.34907,36.34985],[127.34939,36.35141],[127.34942,36.35155],[127.34942,36.35159],[127.34949,36.3519],[127.35194,36.35437],[127.3526,36.35503],[127.35297,36.35536],[127.35315,36.35551],[127.35346,36.35579],[127.35406,36.35632],[127.35448,36.35669],[127.35667,36.3588],[127.35682,36.35895],[127.36204,36.3586],[127.36842,36.35782]]]]}},{"type":"Feature","properties":{"code":"30170587","name":"월평2동","parent":"30170"},"geometry":{"type":"MultiPolygon","coordinates":[[[[127.37951,36.36486],[127.37948,36.35778],[127.37426,36.35779],[127.37426,36.35792],[127.37426,36.35844],[127.37428,36.361],[127.37428,36.36164],[127.37428,36.36225],[127.37292,36.36225],[127.37074,36.36226],[127.36984,36.36226],[127.36941,36.36226],[127.36849,36.36227],[127.36602,36.36493],[127.37951,36.36486]]]]}},{"type":"Feature","properties":{"code":"30170588","name":"월평3동","parent":"30170"},"geometry":{"type":"MultiPolygon","coordinates":[[[[127.36602,36.36493],[127.36849,36.36227],[127.36941,36.36226],[127.36984,36.36226],[127.37074,36.36226],[127.37292,36.36225],[127.37428,36.36225],[127.37428,36.36164],[127.37428,36.361],[127.37426,36.35844],[127.37426,36.35792],[127.36842,36.35782],[127.36204,36.3586],[127.35682,36.35895],[127.36364,36.36397],[127.36578,36.36521],[127.36602,36.36493]]]]}},{"type":"Feature","properties":{"code":"30170650","name":"만년동","parent":"30170"},"geometry":{"type":"MultiPolygon","coordinates":[[[[127.39499,36.37267],[127.39466,36.37198],[127.39473,36.36572],[127.39481,36.3648],[127.39246,36.36482],[127.37951,36.36486],[127.36602,36.36493],[127.36578,36.36521],[127.36854,36.3665],[127.37019,36.36764],[127.37036,36.36777],[127.37142,36.3686],[127.37241,36.36938],[127.37335,36.36985],[127.37475,36.37054],[127.37648,36.37132],[127.38042,36.37287],[127.38195,36.37281],[127.38284,36.37279],[127.38418,36.37293],[127.38552,36.37307],[127.38731,36.37335],[127.38863,36.37349],[127.38982,36.37354],[127.39156,36.37329],[127.39305,36.3728],[127.39499,36.37267]]]]}},{"type":"Feature","properties":{"code":"30170590","name":"가수원동","parent":"30170"},"geometry":{"type":"MultiPolygon","coordinates":[[[[127.34515,36.30344],[127.35087,36.30448],[127.35829,36.30628],[127.3612,36.30454],[127.36191,36.30351],[127.36222,36.3019],[127.36226,36.30067],[127.36213,36.29959],[127.36155,36.29772],[127.36111,36.2971],[127.36053,36.29627],[127.35948,36.29425],[127.35847,36.29227],[127.35792,36.29069],[127.35788,36.29042],[127.35766,36.28868],[127.3572,36.28496],[127.35692,36.28277],[127.35679,36.28168],[127.35671,36.28053],[127.35676,36.2796],[127.35696,36.27882],[127.35696,36.27833],[127.35693,36.278],[127.3566,36.27756],[127.35553,36.27682],[127.35444,36.27613],[127.35292,36.27587],[127.34631,36.27493],[127.34589,36.27513],[127.34557,36.27529],[127.34511,36.27551],[127.34405,36.27653],[127.34299,36.27754],[127.34287,36.27847],[127.33842,36.27981],[127.33726,36.27994],[127.3361,36.28006],[127.33493,36.28018],[127.33277,36.2819],[127.33239,36.28346],[127.33183,36.28417],[127.3335,36.28499],[127.33629,36.28614],[127.33989,36.28736],[127.34062,36.2874],[127.34189,36.28736],[127.34315,36.28763],[127.34483,36.288],[127.34632,36.28849],[127.34667,36.28887],[127.34658,36.28892],[127.34606,36.28955],[127.3458,36.28991],[127.34537,36.29116],[127.34535,36.29124],[127.34534,36.29133],[127.34544,36.29147],[127.34589,36.29213],[127.34645,36.29308],[127.34705,36.29412],[127.34801,36.29815],[127.34804,36.29895],[127.34687,36.3016],[127.34515,36.30344]]]]}},{"type":"Feature","properties":{"code":"30170600","name":"기성동","parent":"30170"},"geometry":{"type":"MultiPolygon","coordinates":[[[[127.33183,36.28417],[127.33239,36.28346],[127.33277,36.2819],[127.33493,36.28018],[127.3361,36.28006],[127.33726,36.27994],[127.33842,36.27981],[127.34287,36.27847],[127.34299,36.27754],[127.34405,36.27653],[127.34511,36.27551],[127.34557,36.27529],[127.34589,36.27513],[127.34631,36.27493],[127.35111,36.27316],[127.35164,36.27347],[127.35415,36.27272],[127.3565,36.27148],[127.35809,36.27037],[127.359,36.26833],[127.35975,36.26623],[127.35997,36.26519],[127.36101,36.26446],[127.36063,36.26431],[127.36042,36.26418],[127.36039,36.26414],[127.36031,36.26405],[127.35975,36.26291],[127.35966,36.26267],[127.3597,36.26253],[127.36006,36.26237],[127.3603,36.26208],[127.36043,36.26131],[127.36067,36.25764],[127.36137,36.25358],[127.36322,36.25223],[127.364,36.25165],[127.36459,36.24829],[127.36463,36.24755],[127.36462,36.24503],[127.36451,36.24348],[127.36356,36.2397],[127.36246,36.23554],[127.36196,36.23404],[127.36305,36.2322],[127.36205,36.23065],[127.36005,36.22679],[127.36014,36.22609],[127.36031,36.22562],[127.36068,36.2253],[127.36148,36.22482],[127.36325,36.22348],[127.36358,36.22294],[127.36395,36.22226],[127.36472,36.21997],[127.36423,36.21894],[127.36349,36.21869],[127.36138,36.21838],[127.36114,36.21848],[127.36061,36.2185],[127.36052,36.2185],[127.35996,36.21733],[127.35976,36.21653],[127.35959,36.21527],[127.35946,36.21392],[127.35807,36.21368],[127.35489,36.2128],[127.35402,36.21235],[127.35303,36.21182],[127.34971,36.20829],[127.34774,36.20504],[127.34684,36.2033],[127.34675,36.20251],[127.34686,36.20246],[127.34729,36.20243],[127.34765,36.20212],[127.34773,36.1985],[127.34763,36.19822],[127.34748,36.19777],[127.34574,36.1972],[127.34467,36.19706],[127.34392,36.19673],[127.34236,36.19412],[127.34201,36.19346],[127.34189,36.19323],[127.34172,36.1928],[127.34144,36.19161],[127.34131,36.19107],[127.34106,36.19003],[127.34066,36.18912],[127.3371,36.18557],[127.3351,36.18362],[127.33451,36.18344],[127.33394,36.18327],[127.33267,36.1837],[127.33172,36.18408],[127.33143,36.18432],[127.33165,36.1848],[127.3317,36.18491],[127.33172,36.18499],[127.33179,36.18679],[127.33178,36.18797],[127.33131,36.19121],[127.33069,36.19344],[127.33008,36.19444],[127.33217,36.1977],[127.33346,36.19973],[127.33353,36.1998],[127.33356,36.19985],[127.33356,36.19989],[127.33345,36.20045],[127.33316,36.2008],[127.32813,36.20405],[127.32808,36.20407],[127.32794,36.20405],[127.3273,36.20389],[127.32714,36.20384],[127.32706,36.20378],[127.32702,36.20374],[127.327,36.20372],[127.32363,36.20312],[127.32354,36.20313],[127.32343,36.20321],[127.3234,36.20323],[127.32319,36.20342],[127.32305,36.2036],[127.32295,36.20379],[127.32117,36.20851],[127.32078,36.20966],[127.3207,36.21104],[127.32067,36.21215],[127.32133,36.21278],[127.32142,36.21297],[127.32146,36.21305],[127.32153,36.21334],[127.32153,36.21343],[127.32154,36.21352],[127.3215,36.2137],[127.32141,36.21383],[127.32114,36.21411],[127.32107,36.21418],[127.3197,36.21545],[127.31582,36.22069],[127.31577,36.22076],[127.31568,36.22091],[127.31563,36.22098],[127.31553,36.2211],[127.31445,36.22242],[127.31437,36.22246],[127.31009,36.22434],[127.30997,36.22439],[127.30946,36.22458],[127.30926,36.22462],[127.30908,36.22463],[127.30902,36.22464],[127.30882,36.22464],[127.30871,36.22468],[127.30758,36.22553],[127.3061,36.22678],[127.30599,36.22691],[127.30593,36.22697],[127.30577,36.22717],[127.30508,36.22819],[127.30492,36.2285],[127.30477,36.2288],[127.30474,36.22883],[127.30466,36.22885],[127.3038,36.22897],[127.30376,36.22897],[127.30369,36.22897],[127.30364,36.22897],[127.30359,36.22896],[127.30354,36.22895],[127.30348,36.22892],[127.30331,36.22881],[127.30328,36.22878],[127.30325,36.22875],[127.3032,36.22867],[127.30315,36.22855],[127.30303,36.22795],[127.30284,36.22697],[127.30284,36.22678],[127.30291,36.22625],[127.303,36.22589],[127.30321,36.22498],[127.30334,36.22433],[127.30358,36.22301],[127.30361,36.22265],[127.30358,36.22244],[127.30356,36.22234],[127.30355,36.22224],[127.30342,36.222],[127.30328,36.22184],[127.30312,36.22172],[127.30286,36.22158],[127.30259,36.22147],[127.30228,36.22136],[127.30205,36.22131],[127.30195,36.22129],[127.30181,36.22126],[127.30139,36.22119],[127.30122,36.22119],[127.30096,36.22118],[127.30077,36.22119],[127.30049,36.22121],[127.29998,36.2213],[127.29732,36.22199],[127.29376,36.22312],[127.29365,36.22323],[127.29364,36.22329],[127.29314,36.22534],[127.29284,36.22743],[127.29113,36.23027],[127.28819,36.23293],[127.28299,36.23663],[127.28301,36.23668],[127.28302,36.23675],[127.28302,36.23682],[127.2829,36.23864],[127.28156,36.24135],[127.2805,36.2432],[127.27999,36.24408],[127.27808,36.24407],[127.27873,36.24424],[127.27962,36.24473],[127.28011,36.24511],[127.28102,36.24583],[127.28108,36.24625],[127.28124,36.24757],[127.28096,36.2482],[127.28045,36.25013],[127.28003,36.25234],[127.28094,36.25368],[127.28147,36.25373],[127.28174,36.25382],[127.28188,36.25395],[127.28252,36.25611],[127.28255,36.2563],[127.2822,36.2568],[127.28188,36.25723],[127.28191,36.25751],[127.28198,36.25765],[127.28206,36.25779],[127.28243,36.25826],[127.28342,36.25923],[127.28416,36.25975],[127.28596,36.26075],[127.28701,36.26123],[127.28806,36.26171],[127.28947,36.26233],[127.29088,36.26295],[127.29176,36.26403],[127.29177,36.26419],[127.29245,36.26397],[127.2927,36.2641],[127.29324,36.26437],[127.29403,36.26566],[127.29487,36.26655],[127.29571,36.26745],[127.30048,36.27],[127.30165,36.27027],[127.30282,36.27054],[127.30317,36.27069],[127.30442,36.27123],[127.3069,36.27232],[127.30714,36.27247],[127.30726,36.27255],[127.30734,36.27293],[127.30711,36.27436],[127.30735,36.27507],[127.30753,36.27562],[127.30852,36.27619],[127.3095,36.27676],[127.31048,36.27812],[127.31043,36.2792],[127.31093,36.282],[127.31129,36.28236],[127.3142,36.28487],[127.31565,36.28571],[127.31683,36.28576],[127.31901,36.28406],[127.31947,36.282],[127.31945,36.28154],[127.31937,36.28062],[127.31931,36.28032],[127.31922,36.28011],[127.31892,36.27947],[127.31899,36.27924],[127.32658,36.28175],[127.32685,36.28184],[127.33183,36.28417]]]]}},{"type":"Feature","properties":{"code":"30170596","name":"관저1동","parent":"30170"},"geometry":{"type":"MultiPolygon","coordinates":[[[[127.34515,36.30344],[127.34369,36.30325],[127.34337,36.3032],[127.34274,36.30309],[127.34271,36.30308],[127.34214,36.30295],[127.34201,36.30293],[127.34154,36.30282],[127.34015,36.30249],[127.34004,36.30246],[127.3396,36.30231],[127.33927,36.30219],[127.33905,36.30212],[127.33895,36.30209],[127.3382,36.30186],[127.33799,36.30182],[127.33754,36.30172],[127.33701,36.30161],[127.33661,36.30154],[127.33623,36.30152],[127.33599,36.30151],[127.33486,36.30152],[127.33279,36.30156],[127.33281,36.30461],[127.33253,36.30462],[127.33252,36.30792],[127.3334,36.30946],[127.33445,36.31038],[127.3375,36.31278],[127.33888,36.31321],[127.34036,36.31163],[127.34029,36.31125],[127.34036,36.31073],[127.34045,36.31029],[127.34061,36.30977],[127.34127,36.30783],[127.34178,36.30793],[127.34253,36.30834],[127.34325,36.3091],[127.34499,36.30912],[127.34509,36.30743],[127.34473,36.30587],[127.34486,36.30483],[127.34494,36.3042],[127.34515,36.30344]]]]}},{"type":"Feature","properties":{"code":"30170597","name":"관저2동","parent":"30170"},"geometry":{"type":"MultiPolygon","coordinates":[[[[127.33183,36.28417],[127.32685,36.28184],[127.32658,36.28175],[127.31899,36.27924],[127.31892,36.27947],[127.31922,36.28011],[127.31931,36.28032],[127.31937,36.28062],[127.31945,36.28154],[127.31947,36.282],[127.31901,36.28406],[127.31683,36.28576],[127.31711,36.28585],[127.31787,36.28612],[127.31861,36.28655],[127.3192,36.28703],[127.31967,36.28759],[127.31983,36.28793],[127.31995,36.28834],[127.32002,36.28911],[127.32,36.28974],[127.31998,36.29175],[127.32008,36.29224],[127.32075,36.29388],[127.32211,36.29716],[127.32249,36.29762],[127.32292,36.29813],[127.32475,36.29984],[127.32692,36.30056],[127.32812,36.30096],[127.32882,36.30118],[127.32968,36.30145],[127.33079,36.30158],[127.33225,36.30157],[127.33245,36.30157],[127.33279,36.30156],[127.33486,36.30152],[127.33599,36.30151],[127.33623,36.30152],[127.33661,36.30154],[127.33701,36.30161],[127.33754,36.30172],[127.33799,36.30182],[127.3382,36.30186],[127.33895,36.30209],[127.33905,36.30212],[127.33927,36.30219],[127.3396,36.30231],[127.34004,36.30246],[127.34015,36.30249],[127.34154,36.30282],[127.34201,36.30293],[127.34214,36.30295],[127.34271,36.30308],[127.34274,36.30309],[127.34337,36.3032],[127.34369,36.30325],[127.34515,36.30344],[127.34687,36.3016],[127.34804,36.29895],[127.34801,36.29815],[127.34705,36.29412],[127.34645,36.29308],[127.34589,36.29213],[127.34544,36.29147],[127.34534,36.29133],[127.34535,36.29124],[127.34537,36.29116],[127.3458,36.28991],[127.34606,36.28955],[127.34658,36.28892],[127.34667,36.28887],[127.34632,36.28849],[127.34483,36.288],[127.34315,36.28763],[127.34189,36.28736],[127.34062,36.2874],[127.33989,36.28736],[127.33629,36.28614],[127.3335,36.28499],[127.33183,36.28417]]]]}},{"type":"Feature","properties":{"code":"30170660","name":"둔산3동","parent":"30170"},"geometry":{"type":"MultiPolygon","coordinates":[[[[127.40284,36.35733],[127.40316,36.35629],[127.40318,36.35581],[127.40326,36.35446],[127.40326,36.35334],[127.40325,36.35226],[127.40325,36.35149],[127.4029,36.35009],[127.40309,36.34896],[127.39525,36.34898],[127.39527,36.35641],[127.39527,36.35768],[127.40087,36.35769],[127.40284,36.35733]]]]}},{"type":"Feature","properties":{"code":"30170593","name":"도안동","parent":"30170"},"geometry":{"type":"MultiPolygon","coordinates":[[[[127.3612,36.30454],[127.35829,36.30628],[127.35087,36.30448],[127.34515,36.30344],[127.34494,36.3042],[127.34486,36.30483],[127.34473,36.30587],[127.34509,36.30743],[127.34499,36.30912],[127.34325,36.3091],[127.34253,36.30834],[127.34178,36.30793],[127.34127,36.30783],[127.34061,36.30977],[127.34045,36.31029],[127.34036,36.31073],[127.34029,36.31125],[127.34036,36.31163],[127.33888,36.31321],[127.33918,36.31423],[127.33982,36.31783],[127.33786,36.31786],[127.33762,36.31853],[127.33676,36.32291],[127.33601,36.3283],[127.33601,36.33018],[127.33817,36.33019],[127.33818,36.33092],[127.33821,36.33219],[127.35364,36.33214],[127.35893,36.33231],[127.35973,36.32777],[127.35945,36.32649],[127.35949,36.32553],[127.3595,36.32541],[127.35962,36.32493],[127.35957,36.32323],[127.35948,36.3217],[127.35818,36.31978],[127.35792,36.31747],[127.35687,36.31683],[127.35475,36.31399],[127.35625,36.31029],[127.35725,36.30829],[127.35901,36.30659],[127.35969,36.30594],[127.35981,36.30582],[127.35996,36.30568],[127.3612,36.30454]]]]}}]}