{"type":"FeatureCollection","features":[{"type":"Feature","properties":{"code":"52210250","name":"만경읍","parent":"52210"},"geometry":{"type":"MultiPolygon","coordinates":[[[[126.85606,35.86018],[126.85505,35.85891],[126.85439,35.85773],[126.85316,35.85322],[126.85326,35.85296],[126.85349,35.85261],[126.85366,35.8524],[126.85398,35.85212],[126.85517,35.85129],[126.85709,35.85042],[126.85795,35.85018],[126.85845,35.85019],[126.85906,35.85033],[126.85911,35.85043],[126.85923,35.85057],[126.85947,35.85083],[126.85969,35.85102],[126.86017,35.85128],[126.86031,35.85129],[126.86109,35.85137],[126.86429,35.85168],[126.86552,35.85082],[126.86562,35.85061],[126.86483,35.84811],[126.86431,35.847],[126.86427,35.84692],[126.86251,35.84342],[126.8599,35.8415],[126.85932,35.84128],[126.85825,35.84088],[126.8577,35.84072],[126.85522,35.84015],[126.85397,35.84011],[126.85358,35.84014],[126.85217,35.84068],[126.85171,35.84096],[126.85139,35.84099],[126.84964,35.84052],[126.84816,35.84011],[126.84719,35.83936],[126.84597,35.83886],[126.84418,35.83847],[126.84293,35.83827],[126.84153,35.8381],[126.83983,35.83768],[126.83959,35.83762],[126.83827,35.83697],[126.8374,35.83625],[126.83596,35.83597],[126.83304,35.83532],[126.83193,35.83518],[126.83108,35.83548],[126.83067,35.83577],[126.82992,35.83738],[126.82765,35.83868],[126.82665,35.83929],[126.82634,35.84075],[126.82612,35.84118],[126.82607,35.84129],[126.82224,35.84442],[126.8218,35.84458],[126.8205,35.84501],[126.82045,35.84501],[126.82016,35.84502],[126.81635,35.84348],[126.81596,35.84484],[126.81582,35.84873],[126.81569,35.84916],[126.81562,35.84935],[126.81365,35.85304],[126.81333,35.85349],[126.81234,35.85433],[126.8098,35.85642],[126.80855,35.85678],[126.80648,35.85726],[126.80623,35.85729],[126.8044,35.85961],[126.80496,35.86109],[126.80488,35.86329],[126.8045,35.86371],[126.80333,35.86375],[126.80308,35.8638],[126.80224,35.86438],[126.8015,35.86498],[126.80118,35.86524],[126.80224,35.86871],[126.80464,35.87069],[126.80478,35.8707],[126.8048,35.87077],[126.80461,35.87128],[126.80387,35.87266],[126.80244,35.8739],[126.80176,35.87406],[126.79863,35.87396],[126.79881,35.87468],[126.79949,35.87795],[126.79865,35.87984],[126.79836,35.88004],[126.79786,35.8805],[126.79714,35.88131],[126.79672,35.88178],[126.79645,35.88215],[126.79628,35.8824],[126.79622,35.88257],[126.7962,35.88274],[126.79624,35.88289],[126.79627,35.88295],[126.79636,35.8831],[126.79647,35.88324],[126.79668,35.88344],[126.79698,35.8837],[126.79838,35.88496],[126.80028,35.88922],[126.8009,35.89375],[126.8018,35.89449],[126.80364,35.89464],[126.80481,35.8946],[126.8052,35.89456],[126.81965,35.89653],[126.82326,35.89776],[126.82529,35.89847],[126.82536,35.89851],[126.83095,35.89648],[126.8306,35.89583],[126.82947,35.8959],[126.82878,35.89595],[126.82735,35.89429],[126.82764,35.89373],[126.82839,35.89246],[126.831,35.89082],[126.83144,35.89062],[126.83187,35.89053],[126.83229,35.8904],[126.8327,35.89016],[126.83184,35.88903],[126.83118,35.88823],[126.82981,35.88705],[126.82931,35.88687],[126.82789,35.88535],[126.82764,35.88477],[126.82753,35.88377],[126.82755,35.88307],[126.82758,35.88273],[126.82821,35.88258],[126.82909,35.8821],[126.83226,35.8798],[126.83404,35.87838],[126.83492,35.87821],[126.83525,35.87814],[126.83585,35.87777],[126.83715,35.87697],[126.84011,35.87473],[126.84029,35.87444],[126.84078,35.87292],[126.84041,35.873],[126.8397,35.87314],[126.83963,35.87317],[126.83947,35.87325],[126.83904,35.87343],[126.83886,35.87351],[126.83867,35.87351],[126.83765,35.87347],[126.83728,35.87339],[126.83665,35.87299],[126.83649,35.87198],[126.83658,35.87156],[126.83741,35.87078],[126.83774,35.87047],[126.83729,35.86884],[126.83602,35.86791],[126.83317,35.86881],[126.83308,35.86881],[126.83268,35.8688],[126.83209,35.86833],[126.83183,35.86811],[126.83173,35.86779],[126.83125,35.86629],[126.83184,35.8637],[126.83246,35.86371],[126.83434,35.86373],[126.83569,35.86375],[126.83616,35.86375],[126.83626,35.86373],[126.83948,35.863],[126.84178,35.86169],[126.84226,35.86197],[126.8428,35.8623],[126.84438,35.86327],[126.84568,35.86406],[126.84773,35.86387],[126.8494,35.86369],[126.84957,35.86359],[126.85112,35.86258],[126.85131,35.86138],[126.8513,35.8612],[126.85116,35.86104],[126.85109,35.86095],[126.85435,35.86032],[126.85606,35.86018]]]]}},{"type":"Feature","properties":{"code":"52210320","name":"죽산면","parent":"52210"},"geometry":{"type":"MultiPolygon","coordinates":[[[[126.8494,35.75865],[126.8499,35.75826],[126.8488,35.75607],[126.84849,35.75562],[126.84688,35.75414],[126.84424,35.75406],[126.84305,35.7513],[126.84082,35.75307],[126.84076,35.7531],[126.84062,35.75317],[126.84,35.75337],[126.83975,35.75345],[126.8388,35.75371],[126.83722,35.75014],[126.83487,35.75082],[126.83409,35.74903],[126.83321,35.74698],[126.83301,35.74652],[126.83295,35.74636],[126.82809,35.74722],[126.82071,35.74854],[126.81823,35.74898],[126.818,35.74803],[126.81703,35.74422],[126.81585,35.7436],[126.81109,35.74173],[126.80978,35.73996],[126.80967,35.73976],[126.80965,35.73856],[126.80998,35.738],[126.81037,35.73732],[126.80491,35.73537],[126.80348,35.73761],[126.80049,35.74131],[126.79983,35.7425],[126.79962,35.74346],[126.79955,35.7449],[126.79954,35.74505],[126.79958,35.74615],[126.79915,35.74733],[126.79583,35.75111],[126.79274,35.75354],[126.77748,35.75318],[126.77723,35.75765],[126.77706,35.76076],[126.77674,35.7664],[126.77639,35.76759],[126.77483,35.77016],[126.77472,35.77034],[126.76989,35.77752],[126.76927,35.77985],[126.76782,35.78534],[126.77254,35.7948],[126.77343,35.79719],[126.77628,35.80066],[126.77684,35.80149],[126.78616,35.80105],[126.78847,35.80097],[126.79126,35.80067],[126.79182,35.80061],[126.79613,35.79986],[126.79889,35.79934],[126.79961,35.7994],[126.80082,35.79984],[126.80342,35.80045],[126.80521,35.8008],[126.80547,35.80085],[126.80908,35.80149],[126.81394,35.80269],[126.81792,35.80367],[126.81956,35.80391],[126.82135,35.80022],[126.82293,35.79699],[126.82323,35.7969],[126.82589,35.79617],[126.82631,35.79621],[126.82775,35.7968],[126.82816,35.79682],[126.82831,35.79679],[126.82872,35.79671],[126.83027,35.79629],[126.83068,35.79617],[126.8313,35.79594],[126.83192,35.79563],[126.83259,35.79519],[126.83291,35.79499],[126.83394,35.79426],[126.83539,35.79252],[126.83806,35.78938],[126.83912,35.78891],[126.84118,35.78759],[126.84124,35.78298],[126.84481,35.78297],[126.846,35.78296],[126.85071,35.7802],[126.85254,35.77823],[126.85257,35.77792],[126.85228,35.77703],[126.85208,35.77677],[126.85153,35.77629],[126.85129,35.77609],[126.85126,35.77606],[126.85021,35.77516],[126.85004,35.775],[126.84974,35.77471],[126.84709,35.77216],[126.84854,35.77026],[126.84871,35.76967],[126.84776,35.76811],[126.84544,35.76509],[126.84504,35.76478],[126.84455,35.76467],[126.84402,35.76468],[126.84152,35.76511],[126.84007,35.75956],[126.84255,35.75891],[126.84545,35.75883],[126.84829,35.75873],[126.8494,35.75865]]]]}},{"type":"Feature","properties":{"code":"52210330","name":"백산면","parent":"52210"},"geometry":{"type":"MultiPolygon","coordinates":[[[[126.9412,35.85801],[126.94108,35.85767],[126.94106,35.8576],[126.938,35.8522],[126.93665,35.84981],[126.9361,35.84761],[126.93568,35.84377],[126.93536,35.83993],[126.92987,35.83677],[126.92774,35.83507],[126.92696,35.83433],[126.92633,35.83377],[126.92474,35.83286],[126.92401,35.83293],[126.92318,35.83303],[126.92104,35.83343],[126.92014,35.83364],[126.9198,35.83372],[126.9186,35.83395],[126.9179,35.83409],[126.91742,35.83416],[126.915,35.8345],[126.91468,35.83454],[126.91451,35.83455],[126.91437,35.83456],[126.91372,35.83456],[126.914,35.8345],[126.91291,35.83436],[126.91207,35.8342],[126.9114,35.83387],[126.9112,35.83367],[126.91042,35.83326],[126.91032,35.8332],[126.91009,35.83315],[126.90897,35.83306],[126.9087,35.83307],[126.90849,35.83314],[126.90816,35.83329],[126.90794,35.8334],[126.9078,35.83354],[126.90753,35.83381],[126.90712,35.8354],[126.90693,35.83552],[126.90682,35.83567],[126.90623,35.83826],[126.90631,35.83852],[126.90639,35.83873],[126.90664,35.83942],[126.90658,35.83993],[126.90647,35.84009],[126.90338,35.84304],[126.90301,35.84287],[126.90275,35.84274],[126.90257,35.8426],[126.89993,35.83996],[126.89997,35.83947],[126.89963,35.83745],[126.8994,35.83632],[126.89911,35.83511],[126.89908,35.83504],[126.89901,35.83494],[126.8989,35.83485],[126.89877,35.83478],[126.89854,35.83468],[126.89654,35.83478],[126.89565,35.83489],[126.89518,35.83501],[126.89387,35.83518],[126.89377,35.83493],[126.89281,35.83138],[126.8928,35.83079],[126.89282,35.83039],[126.89289,35.83009],[126.89298,35.82925],[126.89293,35.82853],[126.89289,35.82847],[126.89281,35.82833],[126.89253,35.82794],[126.89215,35.82744],[126.89207,35.82735],[126.89018,35.82638],[126.88973,35.82624],[126.88962,35.82623],[126.88817,35.82629],[126.88498,35.82456],[126.88291,35.82382],[126.88181,35.82372],[126.88064,35.82339],[126.88166,35.81961],[126.88169,35.81958],[126.88181,35.81946],[126.88093,35.81902],[126.88065,35.81889],[126.88043,35.8188],[126.88024,35.81875],[126.87862,35.81856],[126.87829,35.81853],[126.87773,35.8185],[126.87362,35.81904],[126.87206,35.81959],[126.87181,35.81969],[126.8667,35.82246],[126.86453,35.82542],[126.86405,35.82605],[126.86189,35.8243],[126.86055,35.82305],[126.85954,35.822],[126.8575,35.81954],[126.85745,35.81949],[126.85683,35.81816],[126.85481,35.81719],[126.84933,35.81549],[126.84911,35.81869],[126.85027,35.82143],[126.85029,35.82163],[126.85028,35.82249],[126.85023,35.82379],[126.84976,35.8245],[126.84911,35.82499],[126.84781,35.82627],[126.84666,35.8279],[126.84657,35.82824],[126.84654,35.82858],[126.84667,35.82976],[126.84735,35.83126],[126.84715,35.83206],[126.84367,35.83581],[126.84153,35.8381],[126.84293,35.83827],[126.84418,35.83847],[126.84597,35.83886],[126.84719,35.83936],[126.84816,35.84011],[126.84964,35.84052],[126.85139,35.84099],[126.85171,35.84096],[126.85217,35.84068],[126.85358,35.84014],[126.85397,35.84011],[126.85522,35.84015],[126.8577,35.84072],[126.85825,35.84088],[126.85932,35.84128],[126.8599,35.8415],[126.86251,35.84342],[126.86427,35.84692],[126.86431,35.847],[126.86483,35.84811],[126.86562,35.85061],[126.86552,35.85082],[126.86429,35.85168],[126.86109,35.85137],[126.86031,35.85129],[126.86017,35.85128],[126.85969,35.85102],[126.85947,35.85083],[126.85923,35.85057],[126.85911,35.85043],[126.85906,35.85033],[126.85845,35.85019],[126.85795,35.85018],[126.85709,35.85042],[126.85517,35.85129],[126.85398,35.85212],[126.85366,35.8524],[126.85349,35.85261],[126.85326,35.85296],[126.85316,35.85322],[126.85439,35.85773],[126.85505,35.85891],[126.85606,35.86018],[126.85679,35.86017],[126.85753,35.86061],[126.85892,35.86145],[126.86031,35.86271],[126.86047,35.86296],[126.86084,35.86353],[126.86134,35.86455],[126.86211,35.86506],[126.86433,35.86615],[126.86757,35.86634],[126.87287,35.86784],[126.87728,35.86854],[126.88097,35.86901],[126.88114,35.86954],[126.88109,35.8728],[126.8807,35.87348],[126.88138,35.87457],[126.88148,35.87472],[126.8828,35.87661],[126.884,35.87538],[126.8842,35.8754],[126.8845,35.87526],[126.88512,35.87488],[126.88572,35.87424],[126.886,35.87382],[126.8861,35.87374],[126.88622,35.87367],[126.88636,35.87359],[126.88648,35.87352],[126.88661,35.87345],[126.88688,35.87334],[126.89427,35.87093],[126.8959,35.8713],[126.89601,35.87134],[126.89609,35.87138],[126.89613,35.87144],[126.89619,35.87156],[126.8963,35.87185],[126.89638,35.87206],[126.89644,35.87219],[126.89651,35.8723],[126.89669,35.87252],[126.89683,35.87264],[126.89713,35.87281],[126.89756,35.87301],[126.89787,35.87313],[126.89817,35.87319],[126.89834,35.8732],[126.8997,35.87324],[126.90027,35.87324],[126.90064,35.87321],[126.90084,35.87318],[126.90137,35.8731],[126.90159,35.87283],[126.90168,35.87265],[126.90179,35.87242],[126.90185,35.87227],[126.90179,35.87205],[126.90149,35.87105],[126.90144,35.87085],[126.90139,35.87067],[126.9014,35.87055],[126.90185,35.86885],[126.90193,35.86861],[126.90206,35.86828],[126.90225,35.86797],[126.90249,35.86763],[126.90263,35.86749],[126.90277,35.86743],[126.90299,35.86734],[126.90319,35.86722],[126.90351,35.86702],[126.90361,35.86694],[126.90382,35.8666],[126.90398,35.86631],[126.90402,35.86608],[126.90404,35.86543],[126.90404,35.8654],[126.90401,35.865],[126.90396,35.86469],[126.90391,35.86455],[126.90314,35.8629],[126.90301,35.86272],[126.90286,35.86252],[126.90252,35.86228],[126.90235,35.8621],[126.90164,35.86052],[126.90118,35.85928],[126.90116,35.85918],[126.90112,35.85901],[126.90111,35.85832],[126.90114,35.85809],[126.90126,35.85784],[126.90129,35.8578],[126.9014,35.85764],[126.90374,35.85631],[126.90396,35.85623],[126.90445,35.85611],[126.90513,35.856],[126.90777,35.85593],[126.90795,35.85593],[126.91074,35.8569],[126.91084,35.85696],[126.91115,35.85714],[126.9113,35.85728],[126.91187,35.85783],[126.91204,35.858],[126.9123,35.85831],[126.91626,35.85829],[126.91653,35.85823],[126.92295,35.85684],[126.92367,35.85672],[126.924,35.8567],[126.92432,35.85669],[126.92436,35.85669],[126.92448,35.85669],[126.93472,35.85734],[126.93543,35.85749],[126.93574,35.85759],[126.93806,35.85834],[126.9412,35.85801]]]]}},{"type":"Feature","properties":{"code":"52210340","name":"용지면","parent":"52210"},"geometry":{"type":"MultiPolygon","coordinates":[[[[127.00666,35.87045],[127.00603,35.86734],[127.00553,35.86204],[127.00845,35.85736],[127.00967,35.84663],[127.0068,35.84403],[127.006,35.84338],[127.00459,35.84247],[127.00437,35.84231],[127.0021,35.83968],[127.00156,35.83887],[127.00151,35.83869],[127.00125,35.83784],[127.00115,35.83729],[127.00119,35.83598],[127.00125,35.83569],[127.00138,35.83542],[127.00138,35.83525],[127.00138,35.83517],[127.00112,35.83457],[127.00039,35.83327],[126.99911,35.83155],[126.99708,35.83015],[126.99694,35.83008],[126.99609,35.82967],[126.99588,35.82959],[126.99577,35.82957],[126.99558,35.82955],[126.99554,35.82955],[126.99541,35.82954],[126.99505,35.82945],[126.99465,35.82932],[126.99536,35.82713],[126.99592,35.82608],[126.99635,35.8255],[126.99662,35.825],[126.99698,35.82432],[126.99733,35.82353],[126.99788,35.82159],[126.99823,35.81977],[126.99787,35.81828],[126.9964,35.81739],[126.99538,35.81688],[126.99242,35.81552],[126.99188,35.81532],[126.99142,35.81516],[126.99107,35.8151],[126.9892,35.81492],[126.98856,35.81489],[126.98848,35.81488],[126.98487,35.8148],[126.98409,35.81481],[126.97724,35.81503],[126.96626,35.81575],[126.96107,35.81664],[126.95822,35.81666],[126.95616,35.81697],[126.95583,35.81704],[126.95556,35.81711],[126.95523,35.81721],[126.95488,35.81734],[126.95442,35.81752],[126.95302,35.8181],[126.9518,35.81864],[126.95146,35.81876],[126.95091,35.81892],[126.9497,35.81928],[126.9487,35.81953],[126.94848,35.81957],[126.94809,35.81964],[126.9476,35.81965],[126.94726,35.81961],[126.94591,35.81935],[126.9452,35.8192],[126.94483,35.81912],[126.94494,35.81987],[126.94484,35.82068],[126.94447,35.82219],[126.94161,35.82435],[126.9388,35.82621],[126.93862,35.82631],[126.93761,35.82685],[126.93575,35.82978],[126.93556,35.83584],[126.93536,35.83993],[126.93568,35.84377],[126.9361,35.84761],[126.93665,35.84981],[126.938,35.8522],[126.94106,35.8576],[126.94108,35.85767],[126.9412,35.85801],[126.94158,35.85902],[126.94162,35.85928],[126.94156,35.85954],[126.94142,35.85985],[126.93961,35.8634],[126.93796,35.86534],[126.93776,35.86556],[126.93754,35.86572],[126.93706,35.86598],[126.93566,35.86676],[126.93551,35.86687],[126.93533,35.86713],[126.9353,35.86733],[126.93921,35.86682],[126.94069,35.86835],[126.94095,35.86862],[126.94495,35.8694],[126.94531,35.86844],[126.94627,35.86864],[126.94821,35.86911],[126.95213,35.87049],[126.95227,35.87068],[126.95263,35.87161],[126.95272,35.87221],[126.95271,35.87226],[126.95266,35.87253],[126.95268,35.87268],[126.95347,35.87469],[126.95357,35.87479],[126.95807,35.87891],[126.95826,35.87907],[126.95839,35.87916],[126.95851,35.8792],[126.96015,35.87949],[126.96066,35.87948],[126.96088,35.87945],[126.9611,35.87942],[126.9612,35.87936],[126.96143,35.8792],[126.96464,35.8774],[126.96908,35.87361],[126.97007,35.87167],[126.97023,35.8709],[126.9703,35.87047],[126.97024,35.86848],[126.97014,35.86725],[126.97048,35.86666],[126.97117,35.86555],[126.97211,35.86478],[126.97271,35.86439],[126.97476,35.86439],[126.97716,35.8645],[126.98044,35.86517],[126.98565,35.8663],[126.99024,35.86735],[126.99177,35.86787],[126.99221,35.86818],[126.99297,35.86858],[126.99313,35.86866],[126.99852,35.86902],[127.00027,35.86892],[127.001,35.86905],[127.00278,35.86969],[127.00279,35.87005],[127.00281,35.8703],[127.00297,35.87062],[127.00509,35.87052],[127.00666,35.87045]]]]}},{"type":"Feature","properties":{"code":"52210350","name":"백구면","parent":"52210"},"geometry":{"type":"MultiPolygon","coordinates":[[[[126.94136,35.91204],[126.94457,35.91089],[126.94634,35.91033],[126.94836,35.91004],[126.94941,35.90989],[126.95038,35.90974],[126.95295,35.9092],[126.95348,35.90903],[126.95711,35.90664],[126.95857,35.90475],[126.95935,35.90402],[126.96013,35.90329],[126.96217,35.90224],[126.97061,35.89852],[126.97214,35.89788],[126.97292,35.89777],[126.97436,35.89806],[126.97559,35.89837],[126.97708,35.89846],[126.97759,35.89849],[126.9813,35.8982],[126.98682,35.89665],[126.98785,35.89613],[126.98874,35.8951],[126.98969,35.89333],[126.99007,35.89277],[126.99059,35.8925],[126.99123,35.89234],[126.99259,35.89215],[126.99416,35.89219],[126.99496,35.8922],[126.995,35.89219],[126.9954,35.89209],[126.99581,35.8917],[126.9959,35.8912],[126.99587,35.89104],[126.99574,35.89014],[126.99562,35.88935],[126.99562,35.88929],[126.99551,35.88896],[126.99528,35.88884],[126.99499,35.88876],[126.99479,35.88871],[126.99473,35.88876],[126.99469,35.88878],[126.99435,35.88887],[126.99425,35.88884],[126.9939,35.88876],[126.99342,35.88848],[126.99315,35.88823],[126.99302,35.88791],[126.99298,35.88766],[126.99299,35.88763],[126.99301,35.88737],[126.99308,35.88707],[126.99348,35.88563],[126.99349,35.88559],[126.99379,35.88472],[126.99408,35.88408],[126.99472,35.88348],[126.99478,35.88344],[126.99491,35.88335],[126.99725,35.88315],[126.9974,35.88315],[126.99787,35.8837],[127.0004,35.88167],[127.0045,35.87836],[127.00655,35.87671],[127.00657,35.87539],[127.00666,35.87045],[127.00509,35.87052],[127.00297,35.87062],[127.00281,35.8703],[127.00279,35.87005],[127.00278,35.86969],[127.001,35.86905],[127.00027,35.86892],[126.99852,35.86902],[126.99313,35.86866],[126.99297,35.86858],[126.99221,35.86818],[126.99177,35.86787],[126.99024,35.86735],[126.98565,35.8663],[126.98044,35.86517],[126.97716,35.8645],[126.97476,35.86439],[126.97271,35.86439],[126.97211,35.86478],[126.97117,35.86555],[126.97048,35.86666],[126.97014,35.86725],[126.97024,35.86848],[126.9703,35.87047],[126.97023,35.8709],[126.97007,35.87167],[126.96908,35.87361],[126.96464,35.8774],[126.96143,35.8792],[126.9612,35.87936],[126.9611,35.87942],[126.96088,35.87945],[126.96066,35.87948],[126.96015,35.87949],[126.95851,35.8792],[126.95839,35.87916],[126.95826,35.87907],[126.95807,35.87891],[126.95357,35.87479],[126.95347,35.87469],[126.95268,35.87268],[126.95266,35.87253],[126.95271,35.87226],[126.95272,35.87221],[126.95263,35.87161],[126.95227,35.87068],[126.95213,35.87049],[126.94821,35.86911],[126.94627,35.86864],[126.94531,35.86844],[126.94495,35.8694],[126.94095,35.86862],[126.94069,35.86835],[126.93921,35.86682],[126.9353,35.86733],[126.93668,35.8691],[126.93687,35.8694],[126.93716,35.87004],[126.93746,35.8707],[126.93933,35.87493],[126.93935,35.87505],[126.93934,35.87526],[126.93927,35.8755],[126.9382,35.87797],[126.9379,35.87866],[126.93766,35.87919],[126.93749,35.87953],[126.93669,35.88108],[126.93463,35.88425],[126.93448,35.88448],[126.93423,35.88485],[126.93373,35.88555],[126.93235,35.8876],[126.93267,35.88826],[126.93414,35.89155],[126.93418,35.89173],[126.9342,35.89191],[126.93471,35.89768],[126.93469,35.89772],[126.93303,35.89916],[126.93293,35.89921],[126.93278,35.89923],[126.93241,35.8992],[126.93217,35.89918],[126.93156,35.89913],[126.93127,35.89916],[126.93114,35.89921],[126.93016,35.89997],[126.92977,35.90034],[126.92824,35.90178],[126.9282,35.90189],[126.9282,35.90216],[126.92821,35.90247],[126.92825,35.90281],[126.92834,35.90296],[126.92897,35.90423],[126.92911,35.90453],[126.92914,35.9046],[126.92916,35.90467],[126.92918,35.90475],[126.9292,35.90482],[126.92921,35.90489],[126.9292,35.90497],[126.9292,35.90504],[126.92918,35.90511],[126.92917,35.90516],[126.92915,35.9052],[126.92912,35.90524],[126.92908,35.90528],[126.92895,35.90539],[126.9288,35.90547],[126.92869,35.90551],[126.92857,35.90555],[126.92845,35.90558],[126.92834,35.90561],[126.92819,35.90563],[126.92804,35.90564],[126.92784,35.90564],[126.92764,35.90565],[126.92718,35.90564],[126.92693,35.9056],[126.92625,35.90545],[126.9259,35.90534],[126.92554,35.90526],[126.92488,35.90517],[126.92469,35.90519],[126.92462,35.90521],[126.92438,35.90543],[126.92368,35.90702],[126.92342,35.90788],[126.92332,35.90834],[126.93261,35.91157],[126.93556,35.91246],[126.93707,35.91267],[126.93721,35.91269],[126.93838,35.91273],[126.94136,35.91204]]]]}},{"type":"Feature","properties":{"code":"52210360","name":"부량면","parent":"52210"},"geometry":{"type":"MultiPolygon","coordinates":[[[[126.87305,35.75831],[126.87277,35.75745],[126.87284,35.75685],[126.87295,35.75646],[126.87338,35.75502],[126.87501,35.75212],[126.87737,35.75208],[126.8785,35.75208],[126.87846,35.7484],[126.88199,35.74836],[126.882,35.74586],[126.88197,35.74511],[126.88117,35.74408],[126.88103,35.74348],[126.88104,35.7434],[126.88113,35.74009],[126.879,35.73803],[126.87434,35.73317],[126.87326,35.73194],[126.87293,35.73187],[126.8716,35.73144],[126.87037,35.73097],[126.87012,35.73086],[126.86988,35.73074],[126.86973,35.73061],[126.86936,35.73019],[126.8686,35.72933],[126.86853,35.72924],[126.86834,35.72887],[126.86846,35.72866],[126.86708,35.72784],[126.86354,35.72716],[126.86123,35.72671],[126.85486,35.72592],[126.85449,35.7259],[126.852,35.72608],[126.8502,35.72652],[126.8502,35.72661],[126.85014,35.72717],[126.84972,35.72751],[126.84765,35.72805],[126.84674,35.728],[126.84286,35.72658],[126.84252,35.7264],[126.84216,35.72621],[126.83964,35.72473],[126.8374,35.72332],[126.83107,35.72015],[126.83023,35.71979],[126.82917,35.71943],[126.82843,35.71914],[126.82728,35.7185],[126.82686,35.71809],[126.82648,35.71743],[126.82606,35.71656],[126.82618,35.71609],[126.82604,35.71523],[126.8257,35.71455],[126.82527,35.71431],[126.82347,35.71529],[126.82307,35.71631],[126.82303,35.71683],[126.82293,35.71738],[126.82276,35.71773],[126.82241,35.71798],[126.82182,35.71826],[126.82118,35.71833],[126.82111,35.71832],[126.82066,35.71825],[126.82033,35.71812],[126.82006,35.71783],[126.81872,35.71627],[126.81796,35.7154],[126.81749,35.71503],[126.81518,35.71525],[126.8144,35.71532],[126.81377,35.71547],[126.81308,35.71567],[126.81271,35.71583],[126.81247,35.71611],[126.81244,35.71617],[126.81221,35.71658],[126.81212,35.71696],[126.81197,35.71921],[126.81273,35.72082],[126.8115,35.72255],[126.81065,35.72362],[126.8099,35.72593],[126.8094,35.72786],[126.80841,35.73228],[126.80821,35.73393],[126.80491,35.73537],[126.81037,35.73732],[126.80998,35.738],[126.80965,35.73856],[126.80967,35.73976],[126.80978,35.73996],[126.81109,35.74173],[126.81585,35.7436],[126.81703,35.74422],[126.818,35.74803],[126.81823,35.74898],[126.82071,35.74854],[126.82809,35.74722],[126.83295,35.74636],[126.83301,35.74652],[126.83321,35.74698],[126.83409,35.74903],[126.83487,35.75082],[126.83722,35.75014],[126.8388,35.75371],[126.83975,35.75345],[126.84,35.75337],[126.84062,35.75317],[126.84076,35.7531],[126.84082,35.75307],[126.84305,35.7513],[126.84424,35.75406],[126.84688,35.75414],[126.84849,35.75562],[126.8488,35.75607],[126.8499,35.75826],[126.8494,35.75865],[126.85044,35.75882],[126.85359,35.7591],[126.85405,35.75914],[126.85457,35.75919],[126.85819,35.75969],[126.85926,35.76013],[126.86033,35.76083],[126.86089,35.76106],[126.86141,35.76108],[126.86231,35.76081],[126.86325,35.76035],[126.86397,35.75997],[126.86499,35.7595],[126.86597,35.75919],[126.86856,35.75878],[126.86933,35.75873],[126.86998,35.75878],[126.87066,35.7589],[126.87111,35.75891],[126.87169,35.75876],[126.87305,35.75831]]]]}},{"type":"Feature","properties":{"code":"52210380","name":"공덕면","parent":"52210"},"geometry":{"type":"MultiPolygon","coordinates":[[[[126.92332,35.90834],[126.92342,35.90788],[126.92368,35.90702],[126.92438,35.90543],[126.92462,35.90521],[126.92469,35.90519],[126.92488,35.90517],[126.92554,35.90526],[126.9259,35.90534],[126.92625,35.90545],[126.92693,35.9056],[126.92718,35.90564],[126.92764,35.90565],[126.92784,35.90564],[126.92804,35.90564],[126.92819,35.90563],[126.92834,35.90561],[126.92845,35.90558],[126.92857,35.90555],[126.92869,35.90551],[126.9288,35.90547],[126.92895,35.90539],[126.92908,35.90528],[126.92912,35.90524],[126.92915,35.9052],[126.92917,35.90516],[126.92918,35.90511],[126.9292,35.90504],[126.9292,35.90497],[126.92921,35.90489],[126.9292,35.90482],[126.92918,35.90475],[126.92916,35.90467],[126.92914,35.9046],[126.92911,35.90453],[126.92897,35.90423],[126.92834,35.90296],[126.92825,35.90281],[126.92821,35.90247],[126.9282,35.90216],[126.9282,35.90189],[126.92824,35.90178],[126.92977,35.90034],[126.93016,35.89997],[126.93114,35.89921],[126.93127,35.89916],[126.93156,35.89913],[126.93217,35.89918],[126.93241,35.8992],[126.93278,35.89923],[126.93293,35.89921],[126.93303,35.89916],[126.93469,35.89772],[126.93471,35.89768],[126.9342,35.89191],[126.93418,35.89173],[126.93414,35.89155],[126.93267,35.88826],[126.93235,35.8876],[126.93373,35.88555],[126.93423,35.88485],[126.93448,35.88448],[126.93463,35.88425],[126.93669,35.88108],[126.93749,35.87953],[126.93766,35.87919],[126.9379,35.87866],[126.9382,35.87797],[126.93927,35.8755],[126.93934,35.87526],[126.93935,35.87505],[126.93933,35.87493],[126.93746,35.8707],[126.93716,35.87004],[126.93687,35.8694],[126.93668,35.8691],[126.9353,35.86733],[126.93533,35.86713],[126.93551,35.86687],[126.93566,35.86676],[126.93706,35.86598],[126.93754,35.86572],[126.93776,35.86556],[126.93796,35.86534],[126.93961,35.8634],[126.94142,35.85985],[126.94156,35.85954],[126.94162,35.85928],[126.94158,35.85902],[126.9412,35.85801],[126.93806,35.85834],[126.93574,35.85759],[126.93543,35.85749],[126.93472,35.85734],[126.92448,35.85669],[126.92436,35.85669],[126.92432,35.85669],[126.924,35.8567],[126.92367,35.85672],[126.92295,35.85684],[126.91653,35.85823],[126.91626,35.85829],[126.9123,35.85831],[126.91204,35.858],[126.91187,35.85783],[126.9113,35.85728],[126.91115,35.85714],[126.91084,35.85696],[126.91074,35.8569],[126.90795,35.85593],[126.90777,35.85593],[126.90513,35.856],[126.90445,35.85611],[126.90396,35.85623],[126.90374,35.85631],[126.9014,35.85764],[126.90129,35.8578],[126.90126,35.85784],[126.90114,35.85809],[126.90111,35.85832],[126.90112,35.85901],[126.90116,35.85918],[126.90118,35.85928],[126.90164,35.86052],[126.90235,35.8621],[126.90252,35.86228],[126.90286,35.86252],[126.90301,35.86272],[126.90314,35.8629],[126.90391,35.86455],[126.90396,35.86469],[126.90401,35.865],[126.90404,35.8654],[126.90404,35.86543],[126.90402,35.86608],[126.90398,35.86631],[126.90382,35.8666],[126.90361,35.86694],[126.90351,35.86702],[126.90319,35.86722],[126.90299,35.86734],[126.90277,35.86743],[126.90263,35.86749],[126.90249,35.86763],[126.90225,35.86797],[126.90206,35.86828],[126.90193,35.86861],[126.90185,35.86885],[126.9014,35.87055],[126.90139,35.87067],[126.90144,35.87085],[126.90149,35.87105],[126.90179,35.87205],[126.90185,35.87227],[126.90179,35.87242],[126.90168,35.87265],[126.90159,35.87283],[126.90137,35.8731],[126.90084,35.87318],[126.90064,35.87321],[126.90027,35.87324],[126.8997,35.87324],[126.89834,35.8732],[126.89817,35.87319],[126.89787,35.87313],[126.89756,35.87301],[126.89713,35.87281],[126.89683,35.87264],[126.89669,35.87252],[126.89651,35.8723],[126.89644,35.87219],[126.89638,35.87206],[126.8963,35.87185],[126.89619,35.87156],[126.89613,35.87144],[126.89609,35.87138],[126.89601,35.87134],[126.8959,35.8713],[126.89427,35.87093],[126.88688,35.87334],[126.88661,35.87345],[126.88648,35.87352],[126.88636,35.87359],[126.88622,35.87367],[126.8861,35.87374],[126.886,35.87382],[126.88572,35.87424],[126.88512,35.87488],[126.8845,35.87526],[126.8842,35.8754],[126.884,35.87538],[126.8828,35.87661],[126.88248,35.87744],[126.88008,35.87897],[126.87951,35.87916],[126.87606,35.87979],[126.87429,35.87866],[126.87258,35.87824],[126.86941,35.87975],[126.86692,35.88264],[126.86776,35.88377],[126.87026,35.88527],[126.87025,35.8853],[126.86898,35.88614],[126.86766,35.88701],[126.86676,35.88751],[126.86659,35.88763],[126.86644,35.88777],[126.86641,35.88783],[126.8663,35.888],[126.86626,35.88829],[126.86628,35.88909],[126.86761,35.89104],[126.86859,35.89255],[126.86879,35.89286],[126.86896,35.89317],[126.86899,35.89324],[126.86902,35.89334],[126.86955,35.89533],[126.86956,35.89573],[126.86971,35.90458],[126.86835,35.90668],[126.86681,35.90773],[126.86965,35.91001],[126.86991,35.91018],[126.87019,35.91034],[126.87042,35.91046],[126.87054,35.91052],[126.8709,35.91068],[126.87113,35.91075],[126.87138,35.91081],[126.87161,35.91087],[126.87184,35.9109],[126.87211,35.91091],[126.87346,35.91092],[126.87366,35.91092],[126.87386,35.91091],[126.87401,35.91089],[126.87406,35.91088],[126.87428,35.91084],[126.87443,35.9108],[126.87449,35.91079],[126.87466,35.91074],[126.87483,35.91067],[126.87554,35.91036],[126.87571,35.91028],[126.8766,35.90989],[126.87679,35.90982],[126.87697,35.90976],[126.87715,35.90971],[126.87736,35.90969],[126.87758,35.90969],[126.87762,35.9097],[126.87776,35.9097],[126.87793,35.90972],[126.87818,35.90977],[126.88096,35.91047],[126.88188,35.9108],[126.88228,35.91097],[126.88489,35.91223],[126.88538,35.9126],[126.88558,35.91275],[126.88577,35.9129],[126.88599,35.91311],[126.8862,35.91333],[126.88637,35.91353],[126.88653,35.91373],[126.88679,35.91409],[126.88705,35.91445],[126.8872,35.91462],[126.88737,35.91477],[126.88742,35.91481],[126.88748,35.91485],[126.8876,35.91492],[126.88784,35.91502],[126.88793,35.91506],[126.88809,35.91513],[126.88826,35.91519],[126.88845,35.91525],[126.88864,35.9153],[126.8889,35.91536],[126.88916,35.91541],[126.88942,35.91544],[126.88967,35.91545],[126.89003,35.91547],[126.89029,35.91547],[126.89038,35.91547],[126.8907,35.91544],[126.89101,35.91538],[126.89125,35.91532],[126.89146,35.91527],[126.89209,35.9151],[126.89245,35.91497],[126.89251,35.91494],[126.89281,35.91483],[126.89948,35.91233],[126.8996,35.91228],[126.8999,35.91216],[126.90006,35.91209],[126.90017,35.91205],[126.90044,35.91193],[126.90091,35.9117],[126.90105,35.91162],[126.90136,35.91144],[126.90166,35.91124],[126.90183,35.91112],[126.90223,35.91075],[126.90231,35.91066],[126.90248,35.91047],[126.9027,35.91018],[126.90294,35.90984],[126.90397,35.90719],[126.90412,35.90686],[126.90432,35.90655],[126.90451,35.90633],[126.90473,35.90612],[126.90499,35.90588],[126.90527,35.90564],[126.90549,35.90547],[126.90569,35.90534],[126.90572,35.90532],[126.90588,35.90524],[126.90595,35.9052],[126.90618,35.90511],[126.9066,35.90496],[126.9067,35.90493],[126.90703,35.90483],[126.90754,35.90471],[126.90807,35.90463],[126.90841,35.9046],[126.90875,35.9046],[126.9092,35.90464],[126.91782,35.90572],[126.91805,35.90577],[126.91849,35.90586],[126.91893,35.90597],[126.91943,35.90613],[126.91993,35.90631],[126.92031,35.90645],[126.92037,35.90648],[126.92066,35.90662],[126.92332,35.90834]]]]}},{"type":"Feature","properties":{"code":"52210390","name":"청하면","parent":"52210"},"geometry":{"type":"MultiPolygon","coordinates":[[[[126.8536,35.91679],[126.85375,35.91629],[126.85381,35.91599],[126.85396,35.91517],[126.8541,35.91435],[126.85417,35.91392],[126.85423,35.91347],[126.85432,35.91242],[126.85442,35.91137],[126.85448,35.91069],[126.85455,35.91002],[126.85458,35.90988],[126.85462,35.90973],[126.85472,35.90942],[126.85483,35.90913],[126.85493,35.90897],[126.85511,35.90878],[126.85538,35.90852],[126.85566,35.90826],[126.85677,35.90728],[126.8579,35.90632],[126.85812,35.90614],[126.85832,35.906],[126.85851,35.90589],[126.85857,35.90586],[126.8587,35.90579],[126.85886,35.90572],[126.85893,35.90569],[126.8592,35.90558],[126.85976,35.90538],[126.86031,35.90524],[126.86064,35.9052],[126.86138,35.90517],[126.86147,35.90517],[126.86172,35.90517],[126.86192,35.90518],[126.86198,35.90519],[126.86226,35.90522],[126.86244,35.90524],[126.86261,35.90527],[126.86317,35.9054],[126.86372,35.90558],[126.86396,35.90567],[126.8642,35.90579],[126.86455,35.90596],[126.8649,35.90614],[126.8653,35.9064],[126.86568,35.9067],[126.86681,35.90773],[126.86835,35.90668],[126.86971,35.90458],[126.86956,35.89573],[126.86955,35.89533],[126.86902,35.89334],[126.86899,35.89324],[126.86896,35.89317],[126.86879,35.89286],[126.86859,35.89255],[126.86761,35.89104],[126.86628,35.88909],[126.86626,35.88829],[126.8663,35.888],[126.86641,35.88783],[126.86644,35.88777],[126.86659,35.88763],[126.86676,35.88751],[126.86766,35.88701],[126.86898,35.88614],[126.87025,35.8853],[126.87026,35.88527],[126.86776,35.88377],[126.86692,35.88264],[126.86941,35.87975],[126.87258,35.87824],[126.87429,35.87866],[126.87606,35.87979],[126.87951,35.87916],[126.88008,35.87897],[126.88248,35.87744],[126.8828,35.87661],[126.88148,35.87472],[126.88138,35.87457],[126.8807,35.87348],[126.88109,35.8728],[126.88114,35.86954],[126.88097,35.86901],[126.87728,35.86854],[126.87287,35.86784],[126.86757,35.86634],[126.86433,35.86615],[126.86211,35.86506],[126.86134,35.86455],[126.86084,35.86353],[126.86047,35.86296],[126.86031,35.86271],[126.85892,35.86145],[126.85753,35.86061],[126.85679,35.86017],[126.85606,35.86018],[126.85435,35.86032],[126.85109,35.86095],[126.85116,35.86104],[126.8513,35.8612],[126.85131,35.86138],[126.85112,35.86258],[126.84957,35.86359],[126.8494,35.86369],[126.84773,35.86387],[126.84568,35.86406],[126.84438,35.86327],[126.8428,35.8623],[126.84226,35.86197],[126.84178,35.86169],[126.83948,35.863],[126.83626,35.86373],[126.83616,35.86375],[126.83569,35.86375],[126.83434,35.86373],[126.83246,35.86371],[126.83184,35.8637],[126.83125,35.86629],[126.83173,35.86779],[126.83183,35.86811],[126.83209,35.86833],[126.83268,35.8688],[126.83308,35.86881],[126.83317,35.86881],[126.83602,35.86791],[126.83729,35.86884],[126.83774,35.87047],[126.83741,35.87078],[126.83658,35.87156],[126.83649,35.87198],[126.83665,35.87299],[126.83728,35.87339],[126.83765,35.87347],[126.83867,35.87351],[126.83886,35.87351],[126.83904,35.87343],[126.83947,35.87325],[126.83963,35.87317],[126.8397,35.87314],[126.84041,35.873],[126.84078,35.87292],[126.84029,35.87444],[126.84011,35.87473],[126.83715,35.87697],[126.83585,35.87777],[126.83525,35.87814],[126.83492,35.87821],[126.83404,35.87838],[126.83226,35.8798],[126.82909,35.8821],[126.82821,35.88258],[126.82758,35.88273],[126.82755,35.88307],[126.82753,35.88377],[126.82764,35.88477],[126.82789,35.88535],[126.82931,35.88687],[126.82981,35.88705],[126.83118,35.88823],[126.83184,35.88903],[126.8327,35.89016],[126.83229,35.8904],[126.83187,35.89053],[126.83144,35.89062],[126.831,35.89082],[126.82839,35.89246],[126.82764,35.89373],[126.82735,35.89429],[126.82878,35.89595],[126.82947,35.8959],[126.8306,35.89583],[126.83095,35.89648],[126.82536,35.89851],[126.82605,35.8995],[126.82851,35.9019],[126.83249,35.90484],[126.8337,35.90696],[126.83465,35.90831],[126.83512,35.90877],[126.83581,35.90933],[126.83614,35.9095],[126.83814,35.91049],[126.83728,35.91156],[126.83985,35.91299],[126.84036,35.91327],[126.84181,35.91438],[126.84286,35.91528],[126.84299,35.91539],[126.84397,35.91638],[126.84487,35.91727],[126.84491,35.91734],[126.84621,35.91925],[126.84749,35.92021],[126.84787,35.92029],[126.84803,35.9203],[126.84838,35.92032],[126.8487,35.92032],[126.84899,35.92031],[126.84923,35.92027],[126.84959,35.9202],[126.84994,35.92011],[126.85051,35.91992],[126.85106,35.91969],[126.85124,35.9196],[126.85143,35.91949],[126.85165,35.91934],[126.85186,35.91918],[126.85211,35.91898],[126.85234,35.91877],[126.85276,35.9183],[126.85312,35.91782],[126.85327,35.9176],[126.85339,35.91735],[126.8536,35.91679]]]]}},{"type":"Feature","properties":{"code":"52210400","name":"성덕면","parent":"52210"},"geometry":{"type":"MultiPolygon","coordinates":[[[[126.83304,35.83532],[126.83596,35.83597],[126.8374,35.83625],[126.83827,35.83697],[126.83959,35.83762],[126.83983,35.83768],[126.84153,35.8381],[126.84367,35.83581],[126.84715,35.83206],[126.84735,35.83126],[126.84667,35.82976],[126.84654,35.82858],[126.84657,35.82824],[126.84666,35.8279],[126.84781,35.82627],[126.84911,35.82499],[126.84976,35.8245],[126.85023,35.82379],[126.85028,35.82249],[126.85029,35.82163],[126.85027,35.82143],[126.84911,35.81869],[126.84933,35.81549],[126.84279,35.81439],[126.84139,35.81374],[126.8396,35.81227],[126.83901,35.81179],[126.83777,35.81067],[126.83717,35.81013],[126.83688,35.80996],[126.83664,35.80983],[126.83003,35.80637],[126.82771,35.8052],[126.82698,35.80505],[126.82526,35.80508],[126.82469,35.80508],[126.82413,35.805],[126.82229,35.8047],[126.81956,35.80391],[126.81792,35.80367],[126.81394,35.80269],[126.80908,35.80149],[126.80547,35.80085],[126.80521,35.8008],[126.80342,35.80045],[126.80082,35.79984],[126.79961,35.7994],[126.79889,35.79934],[126.79613,35.79986],[126.79182,35.80061],[126.79126,35.80067],[126.78847,35.80097],[126.78616,35.80105],[126.77684,35.80149],[126.77235,35.80341],[126.77085,35.80353],[126.76584,35.80449],[126.76564,35.80741],[126.76554,35.80894],[126.77086,35.80922],[126.77293,35.80932],[126.77354,35.80936],[126.77382,35.80938],[126.77414,35.80943],[126.77473,35.80957],[126.77544,35.80984],[126.77621,35.81032],[126.78138,35.81496],[126.78149,35.81582],[126.7816,35.8168],[126.78154,35.82032],[126.78147,35.82039],[126.7808,35.82107],[126.78169,35.82364],[126.78315,35.82334],[126.78493,35.82654],[126.78698,35.83023],[126.79042,35.82962],[126.79145,35.82942],[126.79266,35.82923],[126.79471,35.83004],[126.79532,35.83044],[126.79636,35.83114],[126.79728,35.83179],[126.79727,35.83187],[126.79746,35.83224],[126.79809,35.83342],[126.79918,35.83307],[126.7993,35.83301],[126.80017,35.83259],[126.80041,35.83075],[126.80043,35.83046],[126.80045,35.83032],[126.80061,35.83024],[126.80399,35.82907],[126.80531,35.8299],[126.81166,35.83587],[126.81522,35.83939],[126.8153,35.83957],[126.81563,35.84037],[126.81599,35.8413],[126.81604,35.84149],[126.81635,35.84348],[126.82016,35.84502],[126.82045,35.84501],[126.8205,35.84501],[126.8218,35.84458],[126.82224,35.84442],[126.82607,35.84129],[126.82612,35.84118],[126.82634,35.84075],[126.82665,35.83929],[126.82765,35.83868],[126.82992,35.83738],[126.83067,35.83577],[126.83108,35.83548],[126.83193,35.83518],[126.83304,35.83532]]]]}},{"type":"Feature","properties":{"code":"52210410","name":"진봉면","parent":"52210"},"geometry":{"type":"MultiPolygon","coordinates":[[[[126.81635,35.84348],[126.81604,35.84149],[126.81599,35.8413],[126.81563,35.84037],[126.8153,35.83957],[126.81522,35.83939],[126.81166,35.83587],[126.80531,35.8299],[126.80399,35.82907],[126.80061,35.83024],[126.80045,35.83032],[126.80043,35.83046],[126.80041,35.83075],[126.80017,35.83259],[126.7993,35.83301],[126.79918,35.83307],[126.79809,35.83342],[126.79746,35.83224],[126.79727,35.83187],[126.79728,35.83179],[126.79636,35.83114],[126.79532,35.83044],[126.79471,35.83004],[126.79266,35.82923],[126.79145,35.82942],[126.79042,35.82962],[126.78698,35.83023],[126.78493,35.82654],[126.78315,35.82334],[126.78169,35.82364],[126.7808,35.82107],[126.77314,35.82891],[126.7724,35.82967],[126.77167,35.83007],[126.77114,35.83043],[126.7684,35.8335],[126.76204,35.84126],[126.76152,35.84191],[126.76162,35.84205],[126.76221,35.84285],[126.76229,35.84298],[126.76237,35.84326],[126.76234,35.84354],[126.76181,35.84436],[126.7613,35.84513],[126.76128,35.84516],[126.76109,35.84544],[126.76093,35.84556],[126.75952,35.84629],[126.75739,35.84707],[126.7561,35.84538],[126.75462,35.84344],[126.75366,35.84392],[126.75162,35.84493],[126.7496,35.84594],[126.74999,35.84654],[126.74896,35.84706],[126.74757,35.8472],[126.74775,35.84681],[126.74681,35.84622],[126.74524,35.84612],[126.74275,35.84616],[126.74239,35.84624],[126.7421,35.84637],[126.74175,35.84664],[126.73871,35.84702],[126.73058,35.847],[126.72389,35.84471],[126.72106,35.84191],[126.72101,35.84186],[126.71976,35.84063],[126.71716,35.8395],[126.71662,35.83963],[126.71603,35.84],[126.71046,35.84298],[126.70793,35.84341],[126.70739,35.84361],[126.70404,35.84647],[126.70371,35.84668],[126.6976,35.8464],[126.69705,35.84625],[126.69343,35.84287],[126.6914,35.84231],[126.69056,35.84201],[126.69023,35.84166],[126.68695,35.84174],[126.6867,35.84178],[126.68648,35.84184],[126.68629,35.8419],[126.68613,35.84196],[126.68596,35.84205],[126.68581,35.84214],[126.68567,35.84226],[126.68549,35.84241],[126.68538,35.84253],[126.6853,35.84264],[126.68527,35.84272],[126.68524,35.84284],[126.68528,35.84374],[126.6853,35.84391],[126.68533,35.84406],[126.68537,35.84418],[126.68546,35.84431],[126.68557,35.84441],[126.68571,35.8445],[126.68586,35.84453],[126.68948,35.84768],[126.6948,35.85182],[126.69729,35.85476],[126.69946,35.85619],[126.70002,35.85599],[126.70007,35.85599],[126.70082,35.85591],[126.70124,35.85589],[126.7084,35.85695],[126.71086,35.85747],[126.71089,35.8575],[126.71098,35.85758],[126.71119,35.85777],[126.71135,35.85792],[126.7114,35.85797],[126.71145,35.85803],[126.71147,35.85805],[126.71152,35.85812],[126.71155,35.85818],[126.71167,35.85837],[126.71168,35.8584],[126.71581,35.86054],[126.71608,35.86061],[126.71783,35.86046],[126.71892,35.86034],[126.71899,35.86032],[126.71905,35.86031],[126.71911,35.86029],[126.71917,35.86027],[126.71924,35.86023],[126.71934,35.86016],[126.7194,35.86011],[126.71944,35.86008],[126.7195,35.86001],[126.71955,35.85997],[126.71959,35.85994],[126.71962,35.85993],[126.71966,35.85993],[126.71971,35.85994],[126.71978,35.85996],[126.71983,35.85998],[126.71987,35.86],[126.72172,35.86101],[126.72916,35.86423],[126.72915,35.86436],[126.72913,35.8645],[126.72914,35.86469],[126.72915,35.86482],[126.72917,35.86492],[126.7292,35.86507],[126.72928,35.86523],[126.72937,35.86537],[126.72945,35.86547],[126.73017,35.86622],[126.73031,35.86636],[126.73045,35.86644],[126.73067,35.86657],[126.73084,35.86663],[126.73097,35.86665],[126.7315,35.86666],[126.7337,35.86668],[126.73879,35.86681],[126.74529,35.86714],[126.74914,35.86659],[126.75554,35.86568],[126.75607,35.8656],[126.75616,35.86559],[126.75624,35.86558],[126.7563,35.86557],[126.75636,35.86556],[126.7564,35.86555],[126.75644,35.86554],[126.7565,35.86552],[126.75653,35.86551],[126.75657,35.8655],[126.75664,35.86548],[126.75668,35.86546],[126.75672,35.86545],[126.75675,35.86544],[126.75678,35.86542],[126.75681,35.86541],[126.75685,35.86539],[126.75741,35.86512],[126.75765,35.865],[126.75788,35.86489],[126.76541,35.86224],[126.76552,35.8622],[126.76621,35.86199],[126.76435,35.86553],[126.76446,35.86596],[126.76476,35.8661],[126.779,35.86542],[126.78431,35.86517],[126.78597,35.86508],[126.78659,35.86497],[126.78732,35.86492],[126.78798,35.86491],[126.7883,35.86501],[126.78915,35.86536],[126.7892,35.86539],[126.78954,35.86561],[126.79425,35.86969],[126.79541,35.87071],[126.79862,35.87353],[126.79871,35.87375],[126.79863,35.87396],[126.80176,35.87406],[126.80244,35.8739],[126.80387,35.87266],[126.80461,35.87128],[126.8048,35.87077],[126.80478,35.8707],[126.80464,35.87069],[126.80224,35.86871],[126.80118,35.86524],[126.8015,35.86498],[126.80224,35.86438],[126.80308,35.8638],[126.80333,35.86375],[126.8045,35.86371],[126.80488,35.86329],[126.80496,35.86109],[126.8044,35.85961],[126.80623,35.85729],[126.80648,35.85726],[126.80855,35.85678],[126.8098,35.85642],[126.81234,35.85433],[126.81333,35.85349],[126.81365,35.85304],[126.81562,35.84935],[126.81569,35.84916],[126.81582,35.84873],[126.81596,35.84484],[126.81635,35.84348]]]]}},{"type":"Feature","properties":{"code":"52210420","name":"금구면","parent":"52210"},"geometry":{"type":"MultiPolygon","coordinates":[[[[127.06591,35.79076],[127.06594,35.79064],[127.06607,35.78997],[127.06602,35.78969],[127.06535,35.789],[127.06442,35.78837],[127.06477,35.78638],[127.06486,35.78616],[127.0659,35.78592],[127.06681,35.78582],[127.06715,35.78567],[127.06773,35.78531],[127.06821,35.7849],[127.07085,35.78246],[127.07117,35.78214],[127.07138,35.78173],[127.07435,35.77519],[127.07435,35.7749],[127.07368,35.7736],[127.07297,35.77319],[127.07289,35.77314],[127.07131,35.77316],[127.0703,35.77282],[127.06672,35.77039],[127.06485,35.7682],[127.065,35.76757],[127.06427,35.76675],[127.06121,35.76523],[127.06027,35.76493],[127.05939,35.76497],[127.058,35.76482],[127.05526,35.76395],[127.05438,35.76343],[127.05369,35.76288],[127.05367,35.76283],[127.05295,35.76065],[127.052,35.75964],[127.05147,35.75966],[127.05101,35.75751],[127.05085,35.75678],[127.05053,35.75573],[127.05044,35.75561],[127.05029,35.7556],[127.04929,35.75582],[127.04857,35.756],[127.04805,35.7561],[127.04779,35.7561],[127.04742,35.75608],[127.04717,35.75605],[127.0471,35.75604],[127.04691,35.75601],[127.04678,35.75598],[127.04661,35.75593],[127.04649,35.75586],[127.04631,35.7557],[127.0451,35.75456],[127.04414,35.75358],[127.04393,35.75336],[127.0438,35.75318],[127.04334,35.7524],[127.04203,35.75124],[127.04027,35.74991],[127.03779,35.74811],[127.03349,35.74582],[127.03329,35.7458],[127.03071,35.74632],[127.0301,35.74664],[127.02976,35.74692],[127.02944,35.74718],[127.02887,35.74747],[127.02816,35.74767],[127.02656,35.74779],[127.02521,35.74783],[127.02347,35.74779],[127.02331,35.74768],[127.02298,35.74744],[127.02244,35.74714],[127.0221,35.74714],[127.02176,35.74714],[127.01981,35.748],[127.01937,35.74827],[127.01905,35.74881],[127.01839,35.75001],[127.01824,35.75067],[127.01827,35.75143],[127.01822,35.75211],[127.01812,35.75251],[127.01776,35.753],[127.01759,35.75314],[127.01727,35.75336],[127.01594,35.75402],[127.01589,35.75403],[127.01576,35.75403],[127.0154,35.75398],[127.01505,35.75397],[127.01469,35.75396],[127.01415,35.75404],[127.01275,35.75431],[127.01251,35.7544],[127.01208,35.75467],[127.01127,35.75528],[127.0097,35.75637],[127.00961,35.75641],[127.0094,35.75643],[127.00598,35.7566],[127.00571,35.75657],[127.00475,35.75624],[127.00405,35.75598],[127.00373,35.75584],[127.00361,35.7558],[127.00345,35.7558],[127.0023,35.75589],[127.00142,35.75615],[127.00136,35.75617],[127.0012,35.75623],[126.99996,35.75673],[126.99957,35.75699],[126.99926,35.75723],[126.99895,35.75762],[126.99876,35.75791],[126.99849,35.75914],[126.99661,35.75927],[126.99372,35.75904],[126.98966,35.75878],[126.98876,35.7589],[126.98844,35.75894],[126.98757,35.75905],[126.9855,35.75866],[126.985,35.75856],[126.98465,35.75845],[126.98385,35.75795],[126.98346,35.75773],[126.98341,35.75778],[126.9833,35.7588],[126.9833,35.75926],[126.98342,35.75964],[126.98352,35.75987],[126.98374,35.76019],[126.98538,35.76233],[126.98562,35.76257],[126.98633,35.76298],[126.98699,35.7633],[126.98741,35.76352],[126.9882,35.76396],[126.9885,35.76415],[126.9887,35.76433],[126.98885,35.76451],[126.98904,35.7648],[126.98908,35.76488],[126.98919,35.76508],[126.98923,35.76516],[126.98925,35.76519],[126.98678,35.76697],[126.98668,35.76704],[126.98558,35.76627],[126.98541,35.76613],[126.9851,35.76584],[126.98486,35.76557],[126.98442,35.76511],[126.98408,35.76481],[126.97923,35.76862],[126.97913,35.76884],[126.97909,35.76892],[126.97919,35.76906],[126.9793,35.76916],[126.97945,35.76934],[126.97972,35.76972],[126.97978,35.76982],[126.97992,35.77012],[126.97997,35.77025],[126.98001,35.77039],[126.98004,35.77052],[126.98006,35.77057],[126.98015,35.77112],[126.98017,35.7713],[126.98016,35.77157],[126.98015,35.77172],[126.98012,35.77193],[126.9801,35.77203],[126.97896,35.77524],[126.97829,35.77804],[126.97827,35.77817],[126.97832,35.77852],[126.97836,35.77877],[126.9784,35.77891],[126.97854,35.77927],[126.9787,35.77971],[126.97873,35.77987],[126.97897,35.78142],[126.97896,35.78178],[126.97894,35.78186],[126.97857,35.7834],[126.97844,35.78378],[126.97838,35.78393],[126.97833,35.78403],[126.97891,35.78538],[126.98012,35.78571],[126.98308,35.78683],[126.98318,35.78688],[126.98347,35.78716],[126.98357,35.78724],[126.98363,35.7873],[126.98397,35.78762],[126.984,35.78769],[126.98373,35.78819],[126.98357,35.78847],[126.98336,35.78898],[126.98318,35.78939],[126.98239,35.79139],[126.98253,35.79314],[126.98264,35.79372],[126.98291,35.79447],[126.98315,35.79493],[126.98326,35.79511],[126.98383,35.7961],[126.98389,35.79625],[126.98404,35.79663],[126.9841,35.79679],[126.9841,35.80066],[126.98227,35.80124],[126.97968,35.80206],[126.97746,35.80276],[126.97485,35.80357],[126.97093,35.80484],[126.97102,35.80503],[126.97151,35.80602],[126.97163,35.80705],[126.97181,35.80907],[126.96849,35.80964],[126.96714,35.80972],[126.96597,35.80979],[126.96328,35.80995],[126.96008,35.81014],[126.9602,35.81177],[126.96032,35.81318],[126.96033,35.81459],[126.95985,35.815],[126.95822,35.81666],[126.96107,35.81664],[126.96626,35.81575],[126.97724,35.81503],[126.98409,35.81481],[126.98487,35.8148],[126.98848,35.81488],[126.98856,35.81489],[126.9892,35.81492],[126.99107,35.8151],[126.99142,35.81516],[126.99188,35.81532],[126.99242,35.81552],[126.99538,35.81688],[126.9964,35.81739],[126.99787,35.81828],[126.99822,35.81516],[126.99969,35.81317],[127.00019,35.81273],[127.00143,35.81166],[127.00164,35.81149],[127.00536,35.80873],[127.00889,35.80731],[127.00926,35.80724],[127.0095,35.80718],[127.00959,35.80714],[127.0099,35.80699],[127.01006,35.8069],[127.01151,35.80582],[127.01172,35.80565],[127.01189,35.80549],[127.01203,35.80529],[127.01217,35.80501],[127.01225,35.80481],[127.01233,35.80463],[127.01245,35.80447],[127.01266,35.8043],[127.01324,35.80396],[127.01381,35.8037],[127.0143,35.80351],[127.01555,35.80314],[127.0165,35.80291],[127.01672,35.80286],[127.01703,35.80275],[127.01731,35.80265],[127.01762,35.80253],[127.01863,35.80215],[127.01912,35.80186],[127.01931,35.80171],[127.01954,35.80149],[127.01964,35.80136],[127.01982,35.80098],[127.01988,35.80081],[127.01996,35.80042],[127.01993,35.80002],[127.01995,35.79992],[127.02047,35.79973],[127.02104,35.79959],[127.02123,35.79958],[127.02164,35.79962],[127.02548,35.80053],[127.02745,35.80154],[127.028,35.80209],[127.02835,35.80261],[127.02851,35.80281],[127.02873,35.80278],[127.02906,35.80253],[127.03055,35.80123],[127.03235,35.79958],[127.03261,35.79916],[127.03283,35.79868],[127.03303,35.79842],[127.03429,35.79786],[127.03638,35.79737],[127.03664,35.79732],[127.03705,35.79735],[127.03722,35.79745],[127.0376,35.79795],[127.0378,35.79813],[127.03896,35.79887],[127.03918,35.79891],[127.03949,35.79891],[127.03985,35.79888],[127.04245,35.79829],[127.04252,35.79819],[127.04263,35.798],[127.04287,35.7972],[127.04324,35.7962],[127.04392,35.79518],[127.04587,35.79534],[127.04881,35.79489],[127.04906,35.79483],[127.04944,35.79471],[127.0499,35.79444],[127.0503,35.79413],[127.05069,35.79382],[127.05105,35.79358],[127.0515,35.79329],[127.05486,35.79162],[127.05543,35.79135],[127.05584,35.79126],[127.05652,35.79122],[127.05695,35.79125],[127.05718,35.79128],[127.05738,35.79138],[127.05751,35.79145],[127.05768,35.79172],[127.05781,35.7919],[127.05801,35.79209],[127.05828,35.79222],[127.05866,35.79226],[127.06159,35.79246],[127.06191,35.79244],[127.06234,35.79233],[127.06309,35.79209],[127.0637,35.79181],[127.06591,35.79076]]]]}},{"type":"Feature","properties":{"code":"52210430","name":"봉남면","parent":"52210"},"geometry":{"type":"MultiPolygon","coordinates":[[[[126.9801,35.77203],[126.98012,35.77193],[126.98015,35.77172],[126.98016,35.77157],[126.98017,35.7713],[126.98015,35.77112],[126.98006,35.77057],[126.98004,35.77052],[126.98001,35.77039],[126.97997,35.77025],[126.97992,35.77012],[126.97978,35.76982],[126.97972,35.76972],[126.97945,35.76934],[126.9793,35.76916],[126.97919,35.76906],[126.97909,35.76892],[126.97913,35.76884],[126.97923,35.76862],[126.98408,35.76481],[126.98442,35.76511],[126.98486,35.76557],[126.9851,35.76584],[126.98541,35.76613],[126.98558,35.76627],[126.98668,35.76704],[126.98678,35.76697],[126.98925,35.76519],[126.98923,35.76516],[126.98919,35.76508],[126.98908,35.76488],[126.98904,35.7648],[126.98885,35.76451],[126.9887,35.76433],[126.9885,35.76415],[126.9882,35.76396],[126.98741,35.76352],[126.98699,35.7633],[126.98633,35.76298],[126.98562,35.76257],[126.98538,35.76233],[126.98374,35.76019],[126.98352,35.75987],[126.98342,35.75964],[126.9833,35.75926],[126.9833,35.7588],[126.98341,35.75778],[126.98346,35.75773],[126.98385,35.75795],[126.98465,35.75845],[126.985,35.75856],[126.9855,35.75866],[126.98757,35.75905],[126.98844,35.75894],[126.98876,35.7589],[126.98878,35.7575],[126.98876,35.75732],[126.98779,35.75534],[126.98747,35.75511],[126.98638,35.75459],[126.9857,35.75442],[126.98527,35.75404],[126.9847,35.75346],[126.98461,35.75313],[126.98446,35.75255],[126.9845,35.75247],[126.98469,35.75206],[126.98783,35.74726],[126.98758,35.74423],[126.98669,35.74123],[126.98534,35.74012],[126.98538,35.73998],[126.98541,35.73986],[126.98543,35.73981],[126.98634,35.73699],[126.98786,35.73321],[126.9887,35.73126],[126.98555,35.73034],[126.98493,35.73069],[126.98342,35.73121],[126.98092,35.7286],[126.97967,35.72721],[126.97939,35.72685],[126.97904,35.72638],[126.97865,35.72585],[126.97808,35.72505],[126.97783,35.72467],[126.97715,35.72354],[126.97647,35.72242],[126.97633,35.72215],[126.97627,35.72203],[126.97531,35.71997],[126.97439,35.71766],[126.97326,35.71801],[126.97288,35.71815],[126.97259,35.71827],[126.97224,35.71842],[126.97171,35.71866],[126.97126,35.71893],[126.97093,35.7192],[126.97074,35.71941],[126.97063,35.71955],[126.96988,35.72016],[126.9698,35.72021],[126.96968,35.72028],[126.96878,35.72078],[126.96849,35.72091],[126.96813,35.72107],[126.96753,35.72127],[126.96281,35.72278],[126.96272,35.72281],[126.96168,35.72312],[126.96114,35.72324],[126.95937,35.72359],[126.95886,35.72368],[126.95089,35.72479],[126.95078,35.72461],[126.95063,35.72443],[126.95033,35.72414],[126.94825,35.72222],[126.94818,35.72219],[126.94813,35.72217],[126.94554,35.72126],[126.94509,35.72112],[126.94506,35.72112],[126.94496,35.72112],[126.94434,35.7211],[126.94411,35.72112],[126.94403,35.72112],[126.94382,35.7212],[126.9436,35.72135],[126.94344,35.72153],[126.93962,35.72141],[126.93807,35.72114],[126.93387,35.72032],[126.93296,35.72218],[126.93165,35.72489],[126.9299,35.72842],[126.92867,35.73091],[126.92803,35.73186],[126.92247,35.73901],[126.92138,35.74016],[126.92054,35.7409],[126.91975,35.74159],[126.91694,35.74381],[126.91583,35.74441],[126.91514,35.74479],[126.91378,35.74533],[126.91515,35.74658],[126.91533,35.74674],[126.91863,35.74962],[126.9207,35.75135],[126.93075,35.75152],[126.93153,35.75153],[126.93343,35.75156],[126.93343,35.75256],[126.93341,35.75313],[126.9334,35.75442],[126.93398,35.75442],[126.93746,35.75446],[126.94023,35.7545],[126.94017,35.75668],[126.94008,35.76125],[126.94053,35.76125],[126.94128,35.76125],[126.94146,35.76125],[126.942,35.76125],[126.94235,35.76122],[126.94247,35.76121],[126.94482,35.76103],[126.94508,35.76099],[126.9454,35.76089],[126.94584,35.76075],[126.94688,35.76041],[126.94688,35.76046],[126.94677,35.76538],[126.9473,35.76584],[126.94738,35.76585],[126.94854,35.76515],[126.94951,35.76453],[126.94985,35.76476],[126.95053,35.76672],[126.95334,35.7631],[126.95228,35.76245],[126.95235,35.76239],[126.95716,35.75905],[126.95842,35.75904],[126.95842,35.76091],[126.95868,35.76092],[126.96436,35.76096],[126.96686,35.76098],[126.96788,35.76098],[126.969,35.76099],[126.97058,35.76238],[126.97124,35.76453],[126.97223,35.76502],[126.97238,35.76507],[126.97258,35.76509],[126.97303,35.76511],[126.97354,35.76513],[126.97388,35.76511],[126.97399,35.76512],[126.97439,35.76548],[126.97534,35.76682],[126.97591,35.76805],[126.97592,35.7681],[126.97593,35.76814],[126.97598,35.76846],[126.97598,35.76849],[126.97601,35.76875],[126.97598,35.76977],[126.97596,35.77024],[126.97585,35.77061],[126.9755,35.77139],[126.97538,35.77223],[126.97571,35.77223],[126.97658,35.7722],[126.97716,35.77217],[126.97729,35.77215],[126.9801,35.77203]]]]}},{"type":"Feature","properties":{"code":"52210440","name":"황산면","parent":"52210"},"geometry":{"type":"MultiPolygon","coordinates":[[[[126.95822,35.81666],[126.95985,35.815],[126.96033,35.81459],[126.96032,35.81318],[126.9602,35.81177],[126.96008,35.81014],[126.96328,35.80995],[126.96597,35.80979],[126.96714,35.80972],[126.96849,35.80964],[126.97181,35.80907],[126.97163,35.80705],[126.97151,35.80602],[126.97102,35.80503],[126.97093,35.80484],[126.97485,35.80357],[126.97746,35.80276],[126.97968,35.80206],[126.98227,35.80124],[126.9841,35.80066],[126.9841,35.79679],[126.98404,35.79663],[126.98389,35.79625],[126.98383,35.7961],[126.98326,35.79511],[126.98315,35.79493],[126.98291,35.79447],[126.98264,35.79372],[126.98253,35.79314],[126.98239,35.79139],[126.98318,35.78939],[126.98336,35.78898],[126.98357,35.78847],[126.98373,35.78819],[126.984,35.78769],[126.98397,35.78762],[126.98363,35.7873],[126.98357,35.78724],[126.98347,35.78716],[126.98318,35.78688],[126.98308,35.78683],[126.98012,35.78571],[126.97891,35.78538],[126.97833,35.78403],[126.97838,35.78393],[126.97844,35.78378],[126.97857,35.7834],[126.97894,35.78186],[126.97896,35.78178],[126.97897,35.78142],[126.97873,35.77987],[126.9787,35.77971],[126.97854,35.77927],[126.9784,35.77891],[126.97836,35.77877],[126.97832,35.77852],[126.97827,35.77817],[126.97829,35.77804],[126.97896,35.77524],[126.9801,35.77203],[126.97729,35.77215],[126.97716,35.77217],[126.97658,35.7722],[126.97571,35.77223],[126.97538,35.77223],[126.9755,35.77139],[126.97585,35.77061],[126.97596,35.77024],[126.97598,35.76977],[126.97601,35.76875],[126.97598,35.76849],[126.97598,35.76846],[126.97593,35.76814],[126.97592,35.7681],[126.97591,35.76805],[126.97534,35.76682],[126.97439,35.76548],[126.97399,35.76512],[126.97388,35.76511],[126.97354,35.76513],[126.97303,35.76511],[126.97258,35.76509],[126.97238,35.76507],[126.97223,35.76502],[126.97124,35.76453],[126.97058,35.76238],[126.969,35.76099],[126.96788,35.76098],[126.96686,35.76098],[126.96436,35.76096],[126.95868,35.76092],[126.95842,35.76091],[126.95842,35.75904],[126.95716,35.75905],[126.95235,35.76239],[126.95228,35.76245],[126.95334,35.7631],[126.95053,35.76672],[126.94909,35.76842],[126.949,35.76857],[126.94897,35.76868],[126.94894,35.76905],[126.94826,35.7714],[126.94526,35.77328],[126.94283,35.77576],[126.94055,35.77667],[126.94007,35.77698],[126.93965,35.77733],[126.93748,35.77938],[126.93758,35.77943],[126.93779,35.77951],[126.93799,35.7796],[126.93823,35.77972],[126.93849,35.77987],[126.93869,35.77998],[126.93891,35.78013],[126.93981,35.78077],[126.93991,35.78086],[126.94005,35.781],[126.94013,35.78112],[126.94024,35.78129],[126.94139,35.78314],[126.94147,35.78329],[126.94151,35.78338],[126.94153,35.78341],[126.94165,35.78366],[126.94175,35.78388],[126.94191,35.78424],[126.94197,35.7844],[126.94203,35.78459],[126.94208,35.78481],[126.94349,35.79139],[126.9435,35.79144],[126.9435,35.79151],[126.94349,35.79163],[126.94347,35.79175],[126.94341,35.79191],[126.94336,35.79201],[126.94329,35.79215],[126.94323,35.79227],[126.94304,35.79259],[126.94293,35.79276],[126.94285,35.79289],[126.94276,35.793],[126.94116,35.79453],[126.93992,35.79515],[126.93848,35.79626],[126.93924,35.79624],[126.94004,35.79625],[126.9405,35.79627],[126.94092,35.79632],[126.94103,35.79634],[126.94139,35.79641],[126.94169,35.79654],[126.9423,35.79682],[126.94276,35.7971],[126.94316,35.79735],[126.94437,35.7987],[126.9426,35.80046],[126.94058,35.80247],[126.94361,35.80466],[126.94675,35.80698],[126.94721,35.81066],[126.94704,35.8111],[126.9464,35.81146],[126.94583,35.81176],[126.94562,35.81235],[126.94483,35.81773],[126.94479,35.81868],[126.94483,35.81912],[126.9452,35.8192],[126.94591,35.81935],[126.94726,35.81961],[126.9476,35.81965],[126.94809,35.81964],[126.94848,35.81957],[126.9487,35.81953],[126.9497,35.81928],[126.95091,35.81892],[126.95146,35.81876],[126.9518,35.81864],[126.95302,35.8181],[126.95442,35.81752],[126.95488,35.81734],[126.95523,35.81721],[126.95556,35.81711],[126.95583,35.81704],[126.95616,35.81697],[126.95822,35.81666]]]]}},{"type":"Feature","properties":{"code":"52210450","name":"금산면","parent":"52210"},"geometry":{"type":"MultiPolygon","coordinates":[[[[127.08518,35.72843],[127.08568,35.7279],[127.08618,35.72698],[127.08642,35.7265],[127.08657,35.72618],[127.08661,35.72567],[127.08642,35.72528],[127.08631,35.72517],[127.08598,35.72484],[127.08549,35.72444],[127.08357,35.72294],[127.08298,35.7226],[127.0811,35.72164],[127.08071,35.72157],[127.07991,35.72154],[127.07944,35.7215],[127.07761,35.72115],[127.07577,35.72064],[127.07512,35.72033],[127.07469,35.72012],[127.07181,35.71786],[127.07151,35.71744],[127.07136,35.71716],[127.07052,35.71469],[127.07018,35.71325],[127.07006,35.71236],[127.0686,35.71102],[127.06788,35.71076],[127.06177,35.70516],[127.06126,35.70468],[127.06106,35.70426],[127.06042,35.70188],[127.06059,35.70155],[127.06392,35.69735],[127.06602,35.69584],[127.06674,35.69538],[127.06799,35.6948],[127.06833,35.69463],[127.06856,35.6944],[127.06872,35.69414],[127.06879,35.69368],[127.06891,35.68985],[127.06887,35.68942],[127.06646,35.6849],[127.06522,35.68314],[127.06498,35.68287],[127.06469,35.68269],[127.06439,35.6825],[127.06364,35.68024],[127.06359,35.67922],[127.06359,35.67906],[127.06412,35.67772],[127.06397,35.67688],[127.06302,35.6743],[127.06072,35.67044],[127.05664,35.66944],[127.05414,35.6698],[127.05301,35.66996],[127.05068,35.67029],[127.0481,35.66982],[127.04761,35.6688],[127.04739,35.66832],[127.04723,35.66798],[127.0468,35.66778],[127.04641,35.6676],[127.04626,35.66753],[127.04182,35.66598],[127.03923,35.66656],[127.03441,35.66718],[127.03393,35.66678],[127.03155,35.66616],[127.03074,35.66602],[127.02888,35.66675],[127.0271,35.66773],[127.02637,35.66804],[127.02535,35.66811],[127.0241,35.66811],[127.02362,35.66826],[127.02122,35.6692],[127.01893,35.67233],[127.01734,35.67476],[127.01679,35.67544],[127.01628,35.67599],[127.01487,35.67668],[127.01035,35.67821],[127.0049,35.68062],[127.00494,35.68154],[127.0024,35.68571],[127.00162,35.68586],[126.99866,35.68616],[126.99645,35.68638],[126.99578,35.68638],[126.99518,35.68733],[126.99474,35.68804],[126.99425,35.68864],[126.99361,35.689],[126.99303,35.68896],[126.99188,35.68881],[126.99115,35.68947],[126.99183,35.69063],[126.99193,35.69083],[126.99199,35.69104],[126.99199,35.69118],[126.99192,35.69134],[126.99182,35.69158],[126.99149,35.69203],[126.99144,35.69214],[126.99143,35.6923],[126.99157,35.69488],[126.99172,35.69532],[126.9919,35.69587],[126.99201,35.69606],[126.99214,35.69622],[126.99239,35.69646],[126.99281,35.69678],[126.99291,35.69691],[126.99299,35.69712],[126.99301,35.69726],[126.993,35.69749],[126.99289,35.69932],[126.99286,35.69948],[126.99196,35.70142],[126.9896,35.70469],[126.98638,35.70812],[126.98425,35.71018],[126.98379,35.71033],[126.98306,35.71075],[126.98147,35.71207],[126.98128,35.71227],[126.98126,35.7123],[126.98129,35.71254],[126.98144,35.71285],[126.98163,35.71345],[126.9817,35.7138],[126.98165,35.71408],[126.98156,35.71419],[126.97755,35.71664],[126.97632,35.71711],[126.97553,35.71738],[126.97507,35.7175],[126.97439,35.71766],[126.97531,35.71997],[126.97627,35.72203],[126.97633,35.72215],[126.97647,35.72242],[126.97715,35.72354],[126.97783,35.72467],[126.97808,35.72505],[126.97865,35.72585],[126.97904,35.72638],[126.97939,35.72685],[126.97967,35.72721],[126.98092,35.7286],[126.98342,35.73121],[126.98493,35.73069],[126.98555,35.73034],[126.9887,35.73126],[126.98786,35.73321],[126.98634,35.73699],[126.98543,35.73981],[126.98541,35.73986],[126.98538,35.73998],[126.98534,35.74012],[126.98669,35.74123],[126.98758,35.74423],[126.98783,35.74726],[126.98469,35.75206],[126.9845,35.75247],[126.98446,35.75255],[126.98461,35.75313],[126.9847,35.75346],[126.98527,35.75404],[126.9857,35.75442],[126.98638,35.75459],[126.98747,35.75511],[126.98779,35.75534],[126.98876,35.75732],[126.98878,35.7575],[126.98876,35.7589],[126.98966,35.75878],[126.99372,35.75904],[126.99661,35.75927],[126.99849,35.75914],[126.99876,35.75791],[126.99895,35.75762],[126.99926,35.75723],[126.99957,35.75699],[126.99996,35.75673],[127.0012,35.75623],[127.00136,35.75617],[127.00142,35.75615],[127.0023,35.75589],[127.00345,35.7558],[127.00361,35.7558],[127.00373,35.75584],[127.00405,35.75598],[127.00475,35.75624],[127.00571,35.75657],[127.00598,35.7566],[127.0094,35.75643],[127.00961,35.75641],[127.0097,35.75637],[127.01127,35.75528],[127.01208,35.75467],[127.01251,35.7544],[127.01275,35.75431],[127.01415,35.75404],[127.01469,35.75396],[127.01505,35.75397],[127.0154,35.75398],[127.01576,35.75403],[127.01589,35.75403],[127.01594,35.75402],[127.01727,35.75336],[127.01759,35.75314],[127.01776,35.753],[127.01812,35.75251],[127.01822,35.75211],[127.01827,35.75143],[127.01824,35.75067],[127.01839,35.75001],[127.01905,35.74881],[127.01937,35.74827],[127.01981,35.748],[127.02176,35.74714],[127.0221,35.74714],[127.02244,35.74714],[127.02298,35.74744],[127.02331,35.74768],[127.02347,35.74779],[127.02521,35.74783],[127.02656,35.74779],[127.02816,35.74767],[127.02887,35.74747],[127.02944,35.74718],[127.02976,35.74692],[127.0301,35.74664],[127.03071,35.74632],[127.03329,35.7458],[127.03349,35.74582],[127.03779,35.74811],[127.04027,35.74991],[127.04203,35.75124],[127.04334,35.7524],[127.0438,35.75318],[127.04393,35.75336],[127.04414,35.75358],[127.0451,35.75456],[127.04631,35.7557],[127.04649,35.75586],[127.04661,35.75593],[127.04678,35.75598],[127.04691,35.75601],[127.0471,35.75604],[127.04717,35.75605],[127.04742,35.75608],[127.04779,35.7561],[127.04805,35.7561],[127.04857,35.756],[127.04929,35.75582],[127.05029,35.7556],[127.05044,35.75561],[127.05053,35.75573],[127.05085,35.75678],[127.05101,35.75751],[127.05147,35.75966],[127.05292,35.75868],[127.05641,35.75826],[127.05854,35.75826],[127.05955,35.75842],[127.06036,35.7577],[127.0613,35.7554],[127.06185,35.75396],[127.06261,35.75298],[127.0648,35.7504],[127.06621,35.74928],[127.06812,35.74899],[127.06967,35.74821],[127.07019,35.74756],[127.07059,35.74678],[127.07087,35.74418],[127.07078,35.74303],[127.07051,35.74223],[127.07092,35.74071],[127.07094,35.74065],[127.0718,35.73968],[127.07355,35.73954],[127.07749,35.73719],[127.07839,35.73663],[127.07977,35.73512],[127.08107,35.73359],[127.08151,35.73213],[127.08162,35.73123],[127.08154,35.73017],[127.08172,35.72964],[127.08365,35.72875],[127.08385,35.72869],[127.08482,35.72843],[127.08507,35.7284],[127.08518,35.72843]]]]}},{"type":"Feature","properties":{"code":"52210460","name":"광활면","parent":"52210"},"geometry":{"type":"MultiPolygon","coordinates":[[[[126.7808,35.82107],[126.78147,35.82039],[126.78154,35.82032],[126.7816,35.8168],[126.78149,35.81582],[126.78138,35.81496],[126.77621,35.81032],[126.77544,35.80984],[126.77473,35.80957],[126.77414,35.80943],[126.77382,35.80938],[126.77354,35.80936],[126.77293,35.80932],[126.77086,35.80922],[126.76554,35.80894],[126.76564,35.80741],[126.76319,35.80818],[126.762,35.80833],[126.76127,35.80842],[126.76094,35.80777],[126.76033,35.80793],[126.75732,35.80875],[126.75317,35.8106],[126.7523,35.81113],[126.75183,35.81141],[126.75122,35.81202],[126.75108,35.81216],[126.74509,35.81418],[126.74466,35.81433],[126.73449,35.8179],[126.73416,35.81803],[126.73388,35.81816],[126.73366,35.81828],[126.73355,35.81834],[126.73344,35.81841],[126.73333,35.81848],[126.73316,35.81861],[126.73291,35.81883],[126.73251,35.81919],[126.72963,35.82178],[126.72589,35.82514],[126.72556,35.82543],[126.72527,35.82569],[126.72489,35.82603],[126.72423,35.82658],[126.72403,35.82675],[126.72383,35.82691],[126.72364,35.82705],[126.72333,35.82727],[126.72311,35.8274],[126.72258,35.82773],[126.71993,35.82915],[126.71823,35.83005],[126.71372,35.83241],[126.71095,35.83385],[126.6993,35.8399],[126.69921,35.83995],[126.69866,35.8402],[126.69862,35.84022],[126.69842,35.84029],[126.6982,35.84037],[126.69813,35.84039],[126.69809,35.8404],[126.69771,35.84046],[126.69744,35.84049],[126.6974,35.8405],[126.69734,35.8405],[126.69702,35.84048],[126.69561,35.84041],[126.69473,35.84035],[126.69387,35.8403],[126.69304,35.84026],[126.69282,35.84026],[126.6926,35.84027],[126.69243,35.8403],[126.69226,35.84034],[126.69191,35.84044],[126.6913,35.84064],[126.69036,35.84097],[126.69015,35.84104],[126.69023,35.84166],[126.69056,35.84201],[126.6914,35.84231],[126.69343,35.84287],[126.69705,35.84625],[126.6976,35.8464],[126.70371,35.84668],[126.70404,35.84647],[126.70739,35.84361],[126.70793,35.84341],[126.71046,35.84298],[126.71603,35.84],[126.71662,35.83963],[126.71716,35.8395],[126.71976,35.84063],[126.72101,35.84186],[126.72106,35.84191],[126.72389,35.84471],[126.73058,35.847],[126.73871,35.84702],[126.74175,35.84664],[126.7421,35.84637],[126.74239,35.84624],[126.74275,35.84616],[126.74524,35.84612],[126.74681,35.84622],[126.74775,35.84681],[126.74757,35.8472],[126.74896,35.84706],[126.74999,35.84654],[126.7496,35.84594],[126.75162,35.84493],[126.75366,35.84392],[126.75462,35.84344],[126.7561,35.84538],[126.75739,35.84707],[126.75952,35.84629],[126.76093,35.84556],[126.76109,35.84544],[126.76128,35.84516],[126.7613,35.84513],[126.76181,35.84436],[126.76234,35.84354],[126.76237,35.84326],[126.76229,35.84298],[126.76221,35.84285],[126.76162,35.84205],[126.76152,35.84191],[126.76204,35.84126],[126.7684,35.8335],[126.77114,35.83043],[126.77167,35.83007],[126.7724,35.82967],[126.77314,35.82891],[126.7808,35.82107]]]]}},{"type":"Feature","properties":{"code":"52210510","name":"요촌동","parent":"52210"},"geometry":{"type":"MultiPolygon","coordinates":[[[[126.914,35.8345],[126.91991,35.83331],[126.92154,35.83261],[126.92186,35.83246],[126.92213,35.83222],[126.92238,35.83185],[126.9216,35.83069],[126.92155,35.83063],[126.92147,35.83055],[126.92138,35.83047],[126.92098,35.83024],[126.92044,35.82996],[126.9199,35.82971],[126.91683,35.82753],[126.9129,35.82452],[126.91015,35.8229],[126.91017,35.82272],[126.91019,35.82255],[126.91021,35.82247],[126.91022,35.8224],[126.91026,35.82225],[126.91029,35.82213],[126.91032,35.82201],[126.91034,35.82195],[126.91037,35.82189],[126.91041,35.82183],[126.91047,35.82177],[126.91041,35.82123],[126.90955,35.82045],[126.90928,35.82021],[126.90921,35.82016],[126.90914,35.82012],[126.90906,35.8201],[126.90898,35.82008],[126.90761,35.81977],[126.90524,35.81931],[126.90112,35.81651],[126.90057,35.81612],[126.90046,35.816],[126.90027,35.81578],[126.90018,35.81558],[126.90011,35.8153],[126.89954,35.81362],[126.89832,35.81034],[126.89721,35.80797],[126.89581,35.80776],[126.89483,35.80762],[126.89414,35.80748],[126.89397,35.80744],[126.89369,35.80737],[126.89372,35.80728],[126.89553,35.80421],[126.89561,35.80411],[126.89564,35.8041],[126.89613,35.80402],[126.89673,35.80341],[126.89666,35.80298],[126.89475,35.79874],[126.89418,35.79835],[126.8931,35.79805],[126.89027,35.79711],[126.89017,35.79704],[126.89008,35.79694],[126.88987,35.79667],[126.88961,35.79613],[126.88756,35.79711],[126.8874,35.79719],[126.88569,35.797],[126.88461,35.79685],[126.88401,35.79664],[126.88371,35.79745],[126.88347,35.79836],[126.8832,35.79962],[126.88279,35.80086],[126.88269,35.80107],[126.88257,35.8013],[126.88255,35.80135],[126.87969,35.80281],[126.87396,35.8056],[126.87067,35.80662],[126.86639,35.80953],[126.86692,35.80968],[126.86708,35.80976],[126.86718,35.80988],[126.86848,35.81149],[126.86848,35.81153],[126.86846,35.81159],[126.86654,35.81396],[126.86433,35.81637],[126.86429,35.81645],[126.8642,35.81662],[126.86268,35.81714],[126.86058,35.81787],[126.85966,35.81834],[126.85745,35.81949],[126.8575,35.81954],[126.85954,35.822],[126.86055,35.82305],[126.86189,35.8243],[126.86405,35.82605],[126.86453,35.82542],[126.8667,35.82246],[126.87181,35.81969],[126.87206,35.81959],[126.87362,35.81904],[126.87773,35.8185],[126.87829,35.81853],[126.87862,35.81856],[126.88024,35.81875],[126.88043,35.8188],[126.88065,35.81889],[126.88093,35.81902],[126.88181,35.81946],[126.88169,35.81958],[126.88166,35.81961],[126.88064,35.82339],[126.88181,35.82372],[126.88291,35.82382],[126.88498,35.82456],[126.88817,35.82629],[126.88962,35.82623],[126.88973,35.82624],[126.89018,35.82638],[126.89207,35.82735],[126.89215,35.82744],[126.89253,35.82794],[126.89281,35.82833],[126.89289,35.82847],[126.89293,35.82853],[126.89298,35.82925],[126.89289,35.83009],[126.89282,35.83039],[126.8928,35.83079],[126.89281,35.83138],[126.89377,35.83493],[126.89387,35.83518],[126.89518,35.83501],[126.89565,35.83489],[126.89654,35.83478],[126.89854,35.83468],[126.89877,35.83478],[126.8989,35.83485],[126.89901,35.83494],[126.89908,35.83504],[126.89911,35.83511],[126.8994,35.83632],[126.89963,35.83745],[126.89997,35.83947],[126.89993,35.83996],[126.90257,35.8426],[126.90275,35.84274],[126.90301,35.84287],[126.90338,35.84304],[126.90647,35.84009],[126.90658,35.83993],[126.90664,35.83942],[126.90639,35.83873],[126.90631,35.83852],[126.90623,35.83826],[126.90682,35.83567],[126.90693,35.83552],[126.90712,35.8354],[126.90753,35.83381],[126.9078,35.83354],[126.90794,35.8334],[126.90816,35.83329],[126.90849,35.83314],[126.9087,35.83307],[126.90897,35.83306],[126.91009,35.83315],[126.91032,35.8332],[126.91042,35.83326],[126.9112,35.83367],[126.9114,35.83387],[126.91207,35.8342],[126.91291,35.83436],[126.914,35.8345]]]]}},{"type":"Feature","properties":{"code":"52210520","name":"신풍동","parent":"52210"},"geometry":{"type":"MultiPolygon","coordinates":[[[[126.93848,35.79626],[126.93992,35.79515],[126.94116,35.79453],[126.94276,35.793],[126.94285,35.79289],[126.94293,35.79276],[126.94304,35.79259],[126.94323,35.79227],[126.94329,35.79215],[126.94336,35.79201],[126.94341,35.79191],[126.94347,35.79175],[126.94349,35.79163],[126.9435,35.79151],[126.9435,35.79144],[126.94349,35.79139],[126.94208,35.78481],[126.94203,35.78459],[126.94197,35.7844],[126.94191,35.78424],[126.94175,35.78388],[126.94165,35.78366],[126.94153,35.78341],[126.94151,35.78338],[126.94147,35.78329],[126.94139,35.78314],[126.94024,35.78129],[126.94013,35.78112],[126.94005,35.781],[126.93991,35.78086],[126.93981,35.78077],[126.93891,35.78013],[126.93869,35.77998],[126.93849,35.77987],[126.93823,35.77972],[126.93799,35.7796],[126.93779,35.77951],[126.93758,35.77943],[126.93748,35.77938],[126.93965,35.77733],[126.94007,35.77698],[126.94055,35.77667],[126.94283,35.77576],[126.94526,35.77328],[126.94826,35.7714],[126.94894,35.76905],[126.94897,35.76868],[126.949,35.76857],[126.94909,35.76842],[126.95053,35.76672],[126.94985,35.76476],[126.94951,35.76453],[126.94854,35.76515],[126.94738,35.76585],[126.9473,35.76584],[126.94677,35.76538],[126.94688,35.76046],[126.94688,35.76041],[126.94584,35.76075],[126.9454,35.76089],[126.94508,35.76099],[126.94482,35.76103],[126.94247,35.76121],[126.94235,35.76122],[126.942,35.76125],[126.94146,35.76125],[126.94128,35.76125],[126.94053,35.76125],[126.94008,35.76125],[126.94017,35.75668],[126.94023,35.7545],[126.93746,35.75446],[126.93398,35.75442],[126.9334,35.75442],[126.93341,35.75313],[126.93343,35.75256],[126.93343,35.75156],[126.93153,35.75153],[126.93075,35.75152],[126.9207,35.75135],[126.91863,35.74962],[126.91533,35.74674],[126.91515,35.74658],[126.91378,35.74533],[126.91165,35.74613],[126.90829,35.74706],[126.90075,35.75021],[126.89926,35.75121],[126.89812,35.75192],[126.89733,35.75235],[126.89511,35.75335],[126.89076,35.75428],[126.8872,35.75421],[126.88731,35.75494],[126.88769,35.75761],[126.88774,35.75795],[126.88966,35.75772],[126.8901,35.75768],[126.89074,35.7577],[126.89126,35.75773],[126.89716,35.76093],[126.89735,35.76117],[126.89862,35.76274],[126.89945,35.76517],[126.89969,35.76761],[126.89971,35.76784],[126.89926,35.77123],[126.89901,35.77309],[126.89879,35.77548],[126.89898,35.77592],[126.89959,35.77658],[126.89982,35.77667],[126.90012,35.77678],[126.89952,35.77822],[126.89773,35.77865],[126.89658,35.77902],[126.89601,35.77927],[126.89098,35.78222],[126.89078,35.78238],[126.88991,35.78322],[126.88942,35.78381],[126.88886,35.78453],[126.88835,35.78518],[126.88741,35.78594],[126.88569,35.7869],[126.88523,35.78705],[126.88491,35.78715],[126.88482,35.78717],[126.88623,35.78989],[126.88749,35.79107],[126.88764,35.79127],[126.88828,35.79247],[126.88869,35.79329],[126.88891,35.79382],[126.88915,35.79445],[126.88961,35.79613],[126.88987,35.79667],[126.89008,35.79694],[126.89017,35.79704],[126.89027,35.79711],[126.8931,35.79805],[126.89418,35.79835],[126.89475,35.79874],[126.89666,35.80298],[126.89673,35.80341],[126.89613,35.80402],[126.89996,35.80347],[126.90107,35.80185],[126.90108,35.80183],[126.90191,35.7998],[126.90204,35.7998],[126.90487,35.79721],[126.90531,35.79666],[126.90588,35.79615],[126.90591,35.79613],[126.90729,35.79544],[126.90899,35.79498],[126.91032,35.79468],[126.91243,35.79476],[126.91355,35.79494],[126.91455,35.79513],[126.91554,35.79532],[126.91718,35.79564],[126.91937,35.79611],[126.92119,35.79653],[126.92208,35.79669],[126.92324,35.79689],[126.92446,35.79702],[126.92519,35.79708],[126.92794,35.79706],[126.93565,35.7965],[126.93848,35.79626]]]]}},{"type":"Feature","properties":{"code":"52210540","name":"검산동","parent":"52210"},"geometry":{"type":"MultiPolygon","coordinates":[[[[126.94483,35.81912],[126.94479,35.81868],[126.94483,35.81773],[126.94562,35.81235],[126.94583,35.81176],[126.9464,35.81146],[126.94704,35.8111],[126.94721,35.81066],[126.94675,35.80698],[126.94361,35.80466],[126.94058,35.80247],[126.9426,35.80046],[126.94437,35.7987],[126.94316,35.79735],[126.94276,35.7971],[126.9423,35.79682],[126.94169,35.79654],[126.94139,35.79641],[126.94103,35.79634],[126.94092,35.79632],[126.9405,35.79627],[126.94004,35.79625],[126.93924,35.79624],[126.93848,35.79626],[126.93565,35.7965],[126.92794,35.79706],[126.92519,35.79708],[126.92446,35.79702],[126.92324,35.79689],[126.92208,35.79669],[126.92119,35.79653],[126.91937,35.79611],[126.91718,35.79564],[126.91554,35.79532],[126.91455,35.79513],[126.91355,35.79494],[126.91243,35.79476],[126.91032,35.79468],[126.90899,35.79498],[126.90729,35.79544],[126.90591,35.79613],[126.90588,35.79615],[126.90531,35.79666],[126.90487,35.79721],[126.90204,35.7998],[126.90191,35.7998],[126.90108,35.80183],[126.90107,35.80185],[126.89996,35.80347],[126.89613,35.80402],[126.89564,35.8041],[126.89561,35.80411],[126.89553,35.80421],[126.89372,35.80728],[126.89369,35.80737],[126.89397,35.80744],[126.89414,35.80748],[126.89483,35.80762],[126.89581,35.80776],[126.89721,35.80797],[126.89832,35.81034],[126.89954,35.81362],[126.90011,35.8153],[126.90018,35.81558],[126.90027,35.81578],[126.90046,35.816],[126.90057,35.81612],[126.90112,35.81651],[126.90524,35.81931],[126.90761,35.81977],[126.90898,35.82008],[126.90906,35.8201],[126.90914,35.82012],[126.90921,35.82016],[126.90928,35.82021],[126.90955,35.82045],[126.91041,35.82123],[126.91047,35.82177],[126.91041,35.82183],[126.91037,35.82189],[126.91034,35.82195],[126.91032,35.82201],[126.91029,35.82213],[126.91026,35.82225],[126.91022,35.8224],[126.91021,35.82247],[126.91019,35.82255],[126.91017,35.82272],[126.91015,35.8229],[126.9129,35.82452],[126.91683,35.82753],[126.9199,35.82971],[126.92044,35.82996],[126.92098,35.83024],[126.92138,35.83047],[126.92147,35.83055],[126.92155,35.83063],[126.9216,35.83069],[126.92238,35.83185],[126.92213,35.83222],[126.92186,35.83246],[126.92154,35.83261],[126.91991,35.83331],[126.914,35.8345],[126.91372,35.83456],[126.91437,35.83456],[126.91451,35.83455],[126.91468,35.83454],[126.915,35.8345],[126.91742,35.83416],[126.9179,35.83409],[126.9186,35.83395],[126.9198,35.83372],[126.92014,35.83364],[126.92104,35.83343],[126.92318,35.83303],[126.92401,35.83293],[126.92474,35.83286],[126.92633,35.83377],[126.92696,35.83433],[126.92774,35.83507],[126.92987,35.83677],[126.93536,35.83993],[126.93556,35.83584],[126.93575,35.82978],[126.93761,35.82685],[126.93862,35.82631],[126.9388,35.82621],[126.94161,35.82435],[126.94447,35.82219],[126.94484,35.82068],[126.94494,35.81987],[126.94483,35.81912]]]]}},{"type":"Feature","properties":{"code":"52210580","name":"교월동","parent":"52210"},"geometry":{"type":"MultiPolygon","coordinates":[[[[126.88961,35.79613],[126.88915,35.79445],[126.88891,35.79382],[126.88869,35.79329],[126.88828,35.79247],[126.88764,35.79127],[126.88749,35.79107],[126.88623,35.78989],[126.88482,35.78717],[126.88491,35.78715],[126.88523,35.78705],[126.88569,35.7869],[126.88741,35.78594],[126.88835,35.78518],[126.88886,35.78453],[126.88942,35.78381],[126.88991,35.78322],[126.89078,35.78238],[126.89098,35.78222],[126.89601,35.77927],[126.89658,35.77902],[126.89773,35.77865],[126.89952,35.77822],[126.90012,35.77678],[126.89982,35.77667],[126.89959,35.77658],[126.89898,35.77592],[126.89879,35.77548],[126.89901,35.77309],[126.89926,35.77123],[126.89971,35.76784],[126.89969,35.76761],[126.89945,35.76517],[126.89862,35.76274],[126.89735,35.76117],[126.89716,35.76093],[126.89126,35.75773],[126.89074,35.7577],[126.8901,35.75768],[126.88966,35.75772],[126.88774,35.75795],[126.88769,35.75761],[126.88731,35.75494],[126.8872,35.75421],[126.88746,35.75297],[126.88751,35.7524],[126.88726,35.75215],[126.88706,35.75204],[126.88682,35.75201],[126.88648,35.75197],[126.88327,35.75206],[126.883,35.75221],[126.88296,35.75245],[126.88304,35.75282],[126.88367,35.75331],[126.88448,35.75415],[126.88459,35.75472],[126.8824,35.75577],[126.87938,35.75654],[126.87557,35.75752],[126.87305,35.75831],[126.87169,35.75876],[126.87111,35.75891],[126.87066,35.7589],[126.86998,35.75878],[126.86933,35.75873],[126.86856,35.75878],[126.86597,35.75919],[126.86499,35.7595],[126.86397,35.75997],[126.86325,35.76035],[126.86231,35.76081],[126.86141,35.76108],[126.86089,35.76106],[126.86033,35.76083],[126.85926,35.76013],[126.85819,35.75969],[126.85457,35.75919],[126.85405,35.75914],[126.85359,35.7591],[126.85044,35.75882],[126.8494,35.75865],[126.84829,35.75873],[126.84545,35.75883],[126.84255,35.75891],[126.84007,35.75956],[126.84152,35.76511],[126.84402,35.76468],[126.84455,35.76467],[126.84504,35.76478],[126.84544,35.76509],[126.84776,35.76811],[126.84871,35.76967],[126.84854,35.77026],[126.84709,35.77216],[126.84974,35.77471],[126.85004,35.775],[126.85021,35.77516],[126.85126,35.77606],[126.85129,35.77609],[126.85153,35.77629],[126.85208,35.77677],[126.85228,35.77703],[126.85257,35.77792],[126.85254,35.77823],[126.85071,35.7802],[126.846,35.78296],[126.84481,35.78297],[126.84124,35.78298],[126.84118,35.78759],[126.83912,35.78891],[126.83806,35.78938],[126.83539,35.79252],[126.83394,35.79426],[126.83291,35.79499],[126.83259,35.79519],[126.83192,35.79563],[126.8313,35.79594],[126.83068,35.79617],[126.83027,35.79629],[126.82872,35.79671],[126.82831,35.79679],[126.82816,35.79682],[126.82775,35.7968],[126.82631,35.79621],[126.82589,35.79617],[126.82323,35.7969],[126.82293,35.79699],[126.82135,35.80022],[126.81956,35.80391],[126.82229,35.8047],[126.82413,35.805],[126.82469,35.80508],[126.82526,35.80508],[126.82698,35.80505],[126.82771,35.8052],[126.83003,35.80637],[126.83664,35.80983],[126.83688,35.80996],[126.83717,35.81013],[126.83777,35.81067],[126.83901,35.81179],[126.8396,35.81227],[126.84139,35.81374],[126.84279,35.81439],[126.84933,35.81549],[126.85481,35.81719],[126.85683,35.81816],[126.85745,35.81949],[126.85966,35.81834],[126.86058,35.81787],[126.86268,35.81714],[126.8642,35.81662],[126.86429,35.81645],[126.86433,35.81637],[126.86654,35.81396],[126.86846,35.81159],[126.86848,35.81153],[126.86848,35.81149],[126.86718,35.80988],[126.86708,35.80976],[126.86692,35.80968],[126.86639,35.80953],[126.87067,35.80662],[126.87396,35.8056],[126.87969,35.80281],[126.88255,35.80135],[126.88257,35.8013],[126.88269,35.80107],[126.88279,35.80086],[126.8832,35.79962],[126.88347,35.79836],[126.88371,35.79745],[126.88401,35.79664],[126.88461,35.79685],[126.88569,35.797],[126.8874,35.79719],[126.88756,35.79711],[126.88961,35.79613]]]]}}]}