{"type":"FeatureCollection","features":[{"type":"Feature","properties":{"code":"44270250","name":"합덕읍","parent":"44270"},"geometry":{"type":"MultiPolygon","coordinates":[[[[126.75994,36.82128],[126.76005,36.82068],[126.76048,36.81899],[126.76082,36.81774],[126.76212,36.81634],[126.76405,36.81475],[126.76418,36.81463],[126.76511,36.81374],[126.76595,36.81291],[126.7661,36.8127],[126.76614,36.81263],[126.76612,36.81231],[126.76612,36.81225],[126.7682,36.81097],[126.77083,36.81032],[126.77091,36.8103],[126.77098,36.81029],[126.77113,36.81027],[126.7713,36.81026],[126.77145,36.81024],[126.77157,36.81024],[126.77167,36.81025],[126.77486,36.81045],[126.77754,36.81063],[126.77784,36.81027],[126.77821,36.80972],[126.77852,36.80896],[126.77894,36.8079],[126.7789,36.80779],[126.77884,36.80754],[126.77889,36.80738],[126.77953,36.80567],[126.77958,36.80557],[126.7816,36.8049],[126.78241,36.80488],[126.78301,36.80489],[126.78337,36.80495],[126.78373,36.80505],[126.78398,36.80523],[126.78619,36.80764],[126.78763,36.8089],[126.78881,36.80926],[126.78974,36.80862],[126.79261,36.80745],[126.79267,36.80745],[126.79274,36.80746],[126.79461,36.8085],[126.79606,36.81031],[126.79613,36.81042],[126.79622,36.81054],[126.79639,36.81075],[126.79686,36.81124],[126.79698,36.8113],[126.79725,36.81142],[126.79735,36.81146],[126.79792,36.81163],[126.798,36.81162],[126.79868,36.81133],[126.79913,36.81113],[126.79931,36.81105],[126.79939,36.81101],[126.79971,36.81085],[126.80004,36.81068],[126.80028,36.81056],[126.8007,36.81035],[126.8008,36.8103],[126.80162,36.81001],[126.80344,36.8101],[126.80422,36.8102],[126.80427,36.81021],[126.80466,36.81035],[126.80489,36.81045],[126.80535,36.81065],[126.80549,36.81069],[126.80568,36.81069],[126.80605,36.81061],[126.80635,36.81051],[126.80666,36.81037],[126.80861,36.80776],[126.81033,36.80474],[126.81088,36.8017],[126.81272,36.79878],[126.81859,36.80285],[126.81862,36.80282],[126.81871,36.80275],[126.81876,36.80271],[126.81913,36.80236],[126.81932,36.80219],[126.81946,36.80208],[126.81963,36.80199],[126.81988,36.80187],[126.8202,36.80173],[126.82045,36.80162],[126.82082,36.80148],[126.82157,36.8013],[126.82362,36.80112],[126.8237,36.80114],[126.82391,36.80124],[126.82432,36.80148],[126.82445,36.80156],[126.82458,36.80162],[126.82469,36.80166],[126.8248,36.8017],[126.82504,36.80176],[126.82911,36.80241],[126.82916,36.80242],[126.82934,36.80241],[126.82952,36.80236],[126.82955,36.80235],[126.82962,36.80232],[126.83,36.80211],[126.83196,36.8009],[126.83276,36.80032],[126.83309,36.80007],[126.83331,36.7999],[126.83336,36.79986],[126.83354,36.79973],[126.83595,36.79888],[126.84114,36.80244],[126.84259,36.80238],[126.84269,36.80235],[126.84275,36.80229],[126.84293,36.80211],[126.84325,36.80181],[126.84331,36.80176],[126.84352,36.80173],[126.85442,36.80303],[126.85454,36.80306],[126.8546,36.80307],[126.85496,36.8032],[126.85535,36.80335],[126.85631,36.80376],[126.85695,36.80404],[126.85757,36.80318],[126.85777,36.80288],[126.85799,36.80201],[126.8581,36.80137],[126.85865,36.79801],[126.8591,36.79456],[126.85914,36.79404],[126.85917,36.79349],[126.85908,36.79299],[126.85895,36.79252],[126.85882,36.79222],[126.8584,36.79154],[126.85812,36.79118],[126.85798,36.79104],[126.85778,36.79086],[126.85698,36.79031],[126.85585,36.78975],[126.85468,36.78936],[126.85364,36.78914],[126.85254,36.78903],[126.85142,36.78906],[126.85052,36.78915],[126.84958,36.78929],[126.84901,36.78936],[126.84846,36.78938],[126.84792,36.78935],[126.8457,36.78918],[126.84286,36.78893],[126.84243,36.78889],[126.84202,36.78883],[126.84117,36.78867],[126.84055,36.78852],[126.83982,36.78832],[126.83773,36.78761],[126.83747,36.78752],[126.83705,36.78734],[126.83677,36.78721],[126.83655,36.78709],[126.83629,36.78694],[126.83581,36.78659],[126.83554,36.78638],[126.83535,36.78622],[126.83524,36.78612],[126.83513,36.78601],[126.835,36.78589],[126.83482,36.78568],[126.83476,36.78561],[126.83466,36.78547],[126.83459,36.78539],[126.83447,36.7852],[126.83441,36.78509],[126.83427,36.78487],[126.83407,36.78454],[126.83356,36.78366],[126.83335,36.78326],[126.83228,36.78459],[126.83115,36.78584],[126.83028,36.78655],[126.8298,36.78676],[126.82869,36.78701],[126.82749,36.78713],[126.82476,36.7869],[126.82075,36.78652],[126.81987,36.78602],[126.81903,36.78506],[126.81737,36.78256],[126.81875,36.78092],[126.81964,36.78008],[126.82059,36.77924],[126.82066,36.77794],[126.82069,36.77716],[126.82004,36.77651],[126.81898,36.77644],[126.81761,36.77608],[126.81679,36.77564],[126.81579,36.77489],[126.815,36.77418],[126.81469,36.7739],[126.814,36.77253],[126.81312,36.77156],[126.81239,36.77135],[126.81163,36.7714],[126.81086,36.7717],[126.80997,36.77233],[126.80921,36.77304],[126.80864,36.77348],[126.80773,36.77391],[126.80688,36.77421],[126.80622,36.77421],[126.80536,36.77405],[126.80449,36.77373],[126.80392,36.7733],[126.80188,36.77098],[126.80158,36.77017],[126.80169,36.76967],[126.80189,36.76925],[126.80189,36.76875],[126.80145,36.76825],[126.80047,36.76794],[126.79921,36.76769],[126.79737,36.76754],[126.79703,36.76754],[126.79671,36.76754],[126.79616,36.76737],[126.79598,36.76731],[126.79494,36.76663],[126.79445,36.7662],[126.79405,36.76547],[126.79394,36.76436],[126.79373,36.76335],[126.7932,36.76256],[126.79227,36.76188],[126.79085,36.76136],[126.78901,36.76102],[126.78864,36.76098],[126.78762,36.76088],[126.78622,36.76073],[126.78427,36.76005],[126.78325,36.75944],[126.78228,36.75812],[126.78161,36.75697],[126.78133,36.75649],[126.78094,36.75582],[126.77988,36.75428],[126.7795,36.75393],[126.77888,36.75409],[126.77717,36.75467],[126.77374,36.75543],[126.77303,36.7555],[126.77232,36.7553],[126.77175,36.75473],[126.77168,36.75429],[126.77179,36.75345],[126.77215,36.75311],[126.77266,36.75275],[126.77328,36.75254],[126.77419,36.75217],[126.77621,36.75037],[126.77635,36.7501],[126.77642,36.74985],[126.77643,36.74978],[126.77637,36.74937],[126.77613,36.74889],[126.77575,36.74848],[126.77531,36.74814],[126.77436,36.74839],[126.77396,36.74853],[126.77358,36.74883],[126.77344,36.749],[126.77241,36.74977],[126.77006,36.75206],[126.76606,36.7544],[126.76565,36.75454],[126.76432,36.75506],[126.76398,36.75526],[126.7637,36.75554],[126.76359,36.75591],[126.76373,36.75665],[126.76388,36.75697],[126.76208,36.75995],[126.7608,36.76159],[126.75933,36.76311],[126.75904,36.76336],[126.75514,36.76515],[126.75416,36.76556],[126.75326,36.7658],[126.75147,36.76607],[126.74854,36.76656],[126.74728,36.76683],[126.74652,36.76705],[126.7434,36.77664],[126.74351,36.777],[126.74364,36.77733],[126.7433,36.77779],[126.743,36.77802],[126.74048,36.77928],[126.73749,36.78165],[126.7371,36.78398],[126.7341,36.78954],[126.7282,36.79571],[126.72785,36.79604],[126.7249,36.79842],[126.72452,36.79857],[126.72338,36.799],[126.72257,36.79874],[126.72192,36.79866],[126.72016,36.79931],[126.71839,36.80025],[126.71638,36.80134],[126.7136,36.80334],[126.71349,36.80472],[126.7135,36.805],[126.71355,36.80536],[126.71377,36.80625],[126.7138,36.80632],[126.71387,36.8064],[126.71398,36.80649],[126.71406,36.80655],[126.71454,36.80692],[126.71505,36.80732],[126.71514,36.80744],[126.71525,36.80782],[126.71528,36.80796],[126.71529,36.81013],[126.71528,36.81017],[126.71519,36.81022],[126.71488,36.81036],[126.71454,36.81053],[126.71443,36.81061],[126.71324,36.81163],[126.7119,36.81464],[126.71201,36.81536],[126.71281,36.81625],[126.71375,36.81629],[126.71456,36.81629],[126.71571,36.81646],[126.71613,36.81866],[126.71605,36.81917],[126.71602,36.82032],[126.71631,36.82072],[126.71704,36.82141],[126.71729,36.82164],[126.7198,36.82377],[126.72143,36.82453],[126.72182,36.82457],[126.72215,36.82437],[126.72509,36.82466],[126.72558,36.82586],[126.72694,36.82807],[126.72713,36.82815],[126.72766,36.82818],[126.72997,36.82853],[126.73044,36.82867],[126.73109,36.82903],[126.73134,36.8298],[126.73154,36.83053],[126.73154,36.83087],[126.73168,36.83117],[126.73307,36.83181],[126.73393,36.83221],[126.73481,36.83221],[126.73515,36.83213],[126.73651,36.83182],[126.73704,36.83149],[126.73748,36.82954],[126.73783,36.82901],[126.73822,36.82844],[126.73922,36.82829],[126.74518,36.8276],[126.74598,36.82758],[126.74663,36.82763],[126.74716,36.82768],[126.74802,36.82788],[126.74882,36.82818],[126.74945,36.82844],[126.75033,36.82846],[126.75136,36.82827],[126.75228,36.82791],[126.75228,36.82748],[126.75237,36.8263],[126.7527,36.82556],[126.75331,36.82462],[126.75727,36.82132],[126.75776,36.82119],[126.75994,36.82128]]]]}},{"type":"Feature","properties":{"code":"44270253","name":"송악읍","parent":"44270"},"geometry":{"type":"MultiPolygon","coordinates":[[[[126.80084,36.92611],[126.80036,36.92547],[126.7993,36.92414],[126.79915,36.92399],[126.79856,36.92342],[126.79792,36.92284],[126.79477,36.9202],[126.79244,36.91842],[126.78891,36.9158],[126.78875,36.91569],[126.78844,36.91554],[126.78708,36.91499],[126.78686,36.91493],[126.78643,36.91489],[126.78557,36.91484],[126.78478,36.9147],[126.78379,36.91447],[126.78343,36.91438],[126.78319,36.91429],[126.78303,36.91423],[126.78293,36.91418],[126.77993,36.9128],[126.77977,36.91271],[126.7796,36.91255],[126.77944,36.91234],[126.7766,36.90785],[126.77335,36.90313],[126.76995,36.90071],[126.76444,36.89782],[126.76428,36.89776],[126.76415,36.89772],[126.76356,36.89758],[126.75971,36.89922],[126.75862,36.89976],[126.75607,36.90125],[126.75582,36.90141],[126.75141,36.90554],[126.75126,36.90571],[126.75122,36.9058],[126.75092,36.90652],[126.75078,36.90689],[126.74864,36.90905],[126.74617,36.9108],[126.74598,36.9109],[126.74584,36.91094],[126.74545,36.91097],[126.73962,36.91137],[126.73945,36.91135],[126.73826,36.91099],[126.73793,36.91087],[126.73776,36.91077],[126.73759,36.91067],[126.73742,36.91054],[126.73707,36.91025],[126.73675,36.90987],[126.73667,36.90976],[126.73645,36.90941],[126.73632,36.909],[126.7363,36.90878],[126.73646,36.9081],[126.73655,36.90806],[126.7366,36.90803],[126.73663,36.90792],[126.73658,36.90658],[126.73653,36.90546],[126.73615,36.90008],[126.73518,36.89613],[126.73514,36.89609],[126.73505,36.89604],[126.73492,36.896],[126.73478,36.89597],[126.73296,36.89554],[126.73292,36.89553],[126.72855,36.89658],[126.72794,36.89833],[126.72795,36.89837],[126.72805,36.89866],[126.72815,36.89889],[126.7282,36.89907],[126.72826,36.89955],[126.72822,36.89976],[126.72783,36.90107],[126.7278,36.90111],[126.72775,36.90115],[126.72561,36.90181],[126.72306,36.90194],[126.72141,36.89889],[126.72097,36.89699],[126.72094,36.8968],[126.7209,36.89651],[126.72091,36.89633],[126.72097,36.89621],[126.72109,36.89607],[126.72141,36.89571],[126.72159,36.8955],[126.72838,36.88927],[126.72951,36.88913],[126.72965,36.88909],[126.73246,36.88756],[126.73256,36.88749],[126.73263,36.88741],[126.73267,36.88735],[126.73271,36.8873],[126.73281,36.88707],[126.73295,36.88671],[126.73298,36.88664],[126.73638,36.88423],[126.74113,36.88151],[126.74126,36.88145],[126.74175,36.88135],[126.74361,36.88101],[126.74706,36.88055],[126.74858,36.88053],[126.74936,36.87782],[126.74871,36.8777],[126.74844,36.87763],[126.74793,36.87748],[126.7468,36.87698],[126.74546,36.8761],[126.74446,36.87532],[126.74344,36.87452],[126.74312,36.87426],[126.743,36.87405],[126.74089,36.86851],[126.74076,36.86778],[126.7409,36.86756],[126.74002,36.86726],[126.73974,36.86714],[126.73943,36.86695],[126.73905,36.86672],[126.73823,36.86617],[126.7377,36.86577],[126.73754,36.86549],[126.73728,36.86492],[126.73723,36.86481],[126.73728,36.86301],[126.73729,36.86286],[126.73737,36.86237],[126.73793,36.86046],[126.73812,36.86007],[126.73647,36.85859],[126.73339,36.85941],[126.7333,36.85943],[126.73304,36.85956],[126.73276,36.85974],[126.73157,36.86057],[126.72698,36.86377],[126.72676,36.86377],[126.72552,36.86385],[126.72535,36.86386],[126.72522,36.86393],[126.72485,36.86415],[126.7247,36.86426],[126.7227,36.86615],[126.72258,36.86631],[126.72247,36.86655],[126.7224,36.86671],[126.72222,36.86693],[126.72203,36.86709],[126.72136,36.86729],[126.72096,36.86739],[126.7209,36.8674],[126.72061,36.86743],[126.72027,36.86744],[126.7199,36.86739],[126.71942,36.86727],[126.71883,36.86708],[126.71852,36.86696],[126.71693,36.86634],[126.71679,36.86624],[126.7167,36.86609],[126.71661,36.86559],[126.71642,36.86476],[126.71635,36.86465],[126.71617,36.86461],[126.71461,36.86446],[126.71394,36.86442],[126.71359,36.86442],[126.71329,36.86446],[126.71215,36.86466],[126.70967,36.86637],[126.7066,36.86833],[126.70637,36.8684],[126.70481,36.86871],[126.70439,36.86877],[126.70392,36.86876],[126.70354,36.86871],[126.70303,36.8686],[126.70233,36.86834],[126.69736,36.86447],[126.69724,36.86436],[126.69719,36.8642],[126.69717,36.86372],[126.69717,36.86364],[126.69361,36.86097],[126.69276,36.86045],[126.69176,36.85994],[126.69061,36.85981],[126.69044,36.85981],[126.69031,36.85981],[126.69018,36.85985],[126.68914,36.86047],[126.689,36.86057],[126.68889,36.86067],[126.68882,36.8608],[126.68875,36.86102],[126.68874,36.86123],[126.68874,36.86171],[126.68876,36.86183],[126.6888,36.86192],[126.68911,36.86234],[126.68951,36.8629],[126.68959,36.86302],[126.68962,36.86314],[126.68963,36.86321],[126.68922,36.86505],[126.68918,36.86515],[126.68909,36.86529],[126.68888,36.86542],[126.68868,36.86551],[126.68808,36.86572],[126.68794,36.86574],[126.68783,36.86574],[126.68759,36.86571],[126.68725,36.86567],[126.68708,36.86568],[126.68695,36.86572],[126.68677,36.86581],[126.68554,36.86661],[126.68527,36.86683],[126.68524,36.86687],[126.68524,36.86693],[126.68557,36.86882],[126.6856,36.86888],[126.68569,36.86894],[126.68605,36.86905],[126.68612,36.86909],[126.68666,36.8696],[126.68672,36.86969],[126.6877,36.87133],[126.68773,36.8714],[126.68779,36.87202],[126.68787,36.87339],[126.68786,36.87359],[126.68781,36.87377],[126.68769,36.87401],[126.68761,36.87414],[126.68731,36.87448],[126.68719,36.87457],[126.68683,36.87478],[126.68613,36.87537],[126.68564,36.87582],[126.68554,36.87592],[126.68543,36.87609],[126.68541,36.87625],[126.68537,36.87686],[126.68539,36.87717],[126.6855,36.87736],[126.68653,36.87845],[126.68674,36.8786],[126.68682,36.87868],[126.68688,36.87875],[126.68693,36.87883],[126.68697,36.87894],[126.68705,36.87968],[126.68707,36.87987],[126.68709,36.88213],[126.68705,36.88262],[126.68702,36.88278],[126.68697,36.88292],[126.6869,36.88303],[126.68596,36.88341],[126.68446,36.88474],[126.68462,36.88505],[126.68619,36.89151],[126.68615,36.89307],[126.68673,36.89769],[126.6871,36.9],[126.68776,36.9021],[126.68589,36.90452],[126.68582,36.9046],[126.68568,36.90468],[126.68555,36.90474],[126.6853,36.90481],[126.68519,36.90482],[126.68491,36.90483],[126.68458,36.90484],[126.68447,36.90485],[126.68436,36.90484],[126.68393,36.90482],[126.68377,36.90599],[126.68379,36.90611],[126.6838,36.90616],[126.68383,36.90633],[126.68392,36.90645],[126.68402,36.90654],[126.6842,36.90664],[126.68427,36.90667],[126.68436,36.9067],[126.68439,36.9067],[126.68451,36.90672],[126.68462,36.90678],[126.68755,36.90879],[126.6877,36.90889],[126.68797,36.91153],[126.68842,36.91318],[126.68969,36.91344],[126.69071,36.9138],[126.69079,36.91384],[126.69306,36.91531],[126.69757,36.91839],[126.69888,36.9193],[126.69942,36.91987],[126.70026,36.92085],[126.70104,36.92237],[126.70126,36.92274],[126.7014,36.92292],[126.70213,36.9239],[126.70332,36.92541],[126.70342,36.92548],[126.70438,36.92591],[126.70907,36.92676],[126.7137,36.9282],[126.71414,36.9284],[126.71472,36.9287],[126.71509,36.92895],[126.71564,36.92957],[126.71583,36.92994],[126.71685,36.93299],[126.71695,36.93336],[126.71695,36.93347],[126.71688,36.93364],[126.71678,36.93374],[126.71672,36.93381],[126.71669,36.93383],[126.71654,36.93392],[126.71626,36.93404],[126.7162,36.93407],[126.71579,36.93444],[126.71194,36.93961],[126.71211,36.9406],[126.71246,36.94269],[126.71271,36.94326],[126.71309,36.94367],[126.71597,36.94651],[126.71669,36.94705],[126.71733,36.94725],[126.71798,36.94741],[126.71851,36.94767],[126.7191,36.94802],[126.71952,36.94846],[126.71981,36.94886],[126.72154,36.95472],[126.72192,36.95932],[126.72089,36.96151],[126.7203,36.96385],[126.72047,36.96489],[126.72049,36.96888],[126.7204,36.96945],[126.71952,36.97548],[126.71946,36.97576],[126.71941,36.97646],[126.71941,36.97713],[126.71947,36.97786],[126.71953,36.97827],[126.71955,36.97843],[126.71969,36.97901],[126.71992,36.97955],[126.72016,36.97996],[126.72048,36.98045],[126.72052,36.9809],[126.72038,36.98162],[126.7198,36.98318],[126.71933,36.9843],[126.71901,36.9852],[126.71894,36.98574],[126.71871,36.9889],[126.71858,36.99234],[126.72157,36.99151],[126.72185,36.99201],[126.72975,36.98961],[126.72946,36.98901],[126.73404,36.98779],[126.73672,36.9885],[126.73844,36.9878],[126.73888,36.98759],[126.73884,36.98728],[126.73925,36.98675],[126.741,36.98486],[126.7418,36.98482],[126.74245,36.98495],[126.74266,36.98526],[126.7456,36.98598],[126.7484,36.98533],[126.76108,36.98186],[126.76272,36.98141],[126.76378,36.98241],[126.77172,36.97967],[126.77815,36.97718],[126.78063,36.9765],[126.78086,36.97641],[126.78253,36.97569],[126.78381,36.97446],[126.78402,36.97386],[126.78389,36.97241],[126.78121,36.96825],[126.78054,36.96768],[126.78034,36.96751],[126.78405,36.96116],[126.79079,36.94961],[126.79365,36.94472],[126.7948,36.94286],[126.7966,36.94023],[126.79208,36.93734],[126.79488,36.93285],[126.80084,36.92611]]]]}},{"type":"Feature","properties":{"code":"44270310","name":"고대면","parent":"44270"},"geometry":{"type":"MultiPolygon","coordinates":[[[[126.62262,36.95295],[126.62286,36.95328],[126.6229,36.95332],[126.62294,36.95333],[126.62722,36.9543],[126.6343,36.95276],[126.63441,36.95251],[126.63444,36.9518],[126.63434,36.95094],[126.63421,36.95027],[126.63389,36.94982],[126.63339,36.94942],[126.63278,36.94914],[126.63202,36.94888],[126.63131,36.94869],[126.63062,36.94861],[126.62993,36.94855],[126.62925,36.94838],[126.62833,36.94802],[126.62724,36.94751],[126.6256,36.94634],[126.62497,36.94583],[126.62461,36.94536],[126.62452,36.94494],[126.62452,36.94459],[126.62463,36.94422],[126.62483,36.94387],[126.6251,36.94358],[126.62558,36.94324],[126.62625,36.94298],[126.62703,36.94278],[126.62792,36.94268],[126.62876,36.94268],[126.62931,36.94271],[126.62982,36.94265],[126.63014,36.94252],[126.63032,36.94228],[126.63041,36.94201],[126.63043,36.9417],[126.63034,36.94125],[126.63023,36.94094],[126.62998,36.94062],[126.62856,36.93806],[126.62703,36.93515],[126.62689,36.93488],[126.62687,36.93462],[126.62689,36.93438],[126.62708,36.93407],[126.62745,36.93368],[126.62808,36.93336],[126.62865,36.93317],[126.62911,36.93299],[126.62948,36.93279],[126.62976,36.93258],[126.62992,36.9323],[126.63028,36.93166],[126.63035,36.93143],[126.63033,36.93124],[126.63024,36.93103],[126.63006,36.93083],[126.62985,36.9306],[126.6296,36.93049],[126.62916,36.93037],[126.62873,36.93029],[126.6283,36.93021],[126.62813,36.93024],[126.62795,36.9303],[126.62737,36.93052],[126.62702,36.93057],[126.62691,36.93059],[126.62651,36.9306],[126.62598,36.93052],[126.62585,36.9305],[126.62546,36.93041],[126.62452,36.93012],[126.62447,36.9301],[126.62432,36.93002],[126.62399,36.92986],[126.62389,36.92981],[126.62358,36.92958],[126.62349,36.92945],[126.6234,36.92929],[126.62361,36.92888],[126.6238,36.92849],[126.6252,36.92718],[126.62544,36.92698],[126.62551,36.92693],[126.62565,36.92683],[126.62577,36.92675],[126.62583,36.92671],[126.62591,36.92668],[126.62613,36.92657],[126.62632,36.92648],[126.62642,36.92639],[126.62649,36.92628],[126.62655,36.92611],[126.62662,36.92504],[126.62656,36.9232],[126.62619,36.92061],[126.6257,36.91858],[126.62562,36.91833],[126.62546,36.91805],[126.62533,36.91788],[126.62528,36.91782],[126.62514,36.91776],[126.62495,36.91773],[126.6247,36.91771],[126.62425,36.91768],[126.6233,36.9177],[126.62294,36.91774],[126.62284,36.91775],[126.62252,36.91778],[126.62198,36.91778],[126.62134,36.91769],[126.62079,36.91754],[126.62062,36.91745],[126.62044,36.9172],[126.62036,36.9168],[126.62032,36.91561],[126.62034,36.91527],[126.62054,36.91334],[126.62035,36.91204],[126.62031,36.91195],[126.61997,36.91152],[126.61975,36.91129],[126.61941,36.91114],[126.61935,36.91113],[126.61913,36.91109],[126.61884,36.91111],[126.61828,36.91127],[126.61807,36.91128],[126.61786,36.91125],[126.61745,36.91109],[126.61732,36.91103],[126.61255,36.90862],[126.61225,36.90844],[126.61217,36.90839],[126.6119,36.90813],[126.61183,36.90806],[126.6118,36.908],[126.61168,36.90775],[126.61164,36.90748],[126.61042,36.90411],[126.60865,36.90169],[126.60765,36.89869],[126.60752,36.89729],[126.60726,36.89452],[126.60722,36.89422],[126.60592,36.88905],[126.60582,36.88888],[126.60513,36.88823],[126.60472,36.88792],[126.60463,36.88787],[126.60443,36.88781],[126.60306,36.88754],[126.60067,36.88682],[126.59731,36.88966],[126.59322,36.89303],[126.59314,36.89307],[126.59311,36.89308],[126.59211,36.89326],[126.59191,36.89328],[126.59169,36.89329],[126.59056,36.89345],[126.5883,36.89377],[126.58798,36.89383],[126.58773,36.89395],[126.58517,36.89518],[126.58449,36.89552],[126.58426,36.89569],[126.58371,36.89613],[126.5835,36.89631],[126.58295,36.89698],[126.58286,36.89715],[126.5822,36.89853],[126.58218,36.89864],[126.58219,36.8987],[126.5822,36.8989],[126.58221,36.89909],[126.58218,36.8992],[126.5821,36.89935],[126.58191,36.8996],[126.58171,36.89984],[126.58162,36.89993],[126.58142,36.90014],[126.58114,36.90039],[126.58103,36.9005],[126.5794,36.90159],[126.57934,36.90164],[126.57626,36.90333],[126.57529,36.90383],[126.57378,36.90369],[126.57345,36.9035],[126.57335,36.90342],[126.5729,36.90307],[126.57224,36.90234],[126.57169,36.90175],[126.57161,36.90171],[126.57015,36.90127],[126.56651,36.90085],[126.56625,36.90086],[126.56576,36.90091],[126.56498,36.90111],[126.56424,36.90137],[126.56379,36.9016],[126.56352,36.9018],[126.5633,36.902],[126.56307,36.90225],[126.56284,36.90265],[126.56149,36.90539],[126.55918,36.91089],[126.55833,36.91293],[126.55827,36.91347],[126.55554,36.9213],[126.55504,36.92177],[126.55419,36.9223],[126.553,36.92331],[126.55152,36.92513],[126.5515,36.92516],[126.55075,36.92607],[126.55001,36.92716],[126.54972,36.92787],[126.54938,36.92904],[126.54867,36.93149],[126.54819,36.9327],[126.54739,36.93447],[126.54609,36.9368],[126.5436,36.93981],[126.54144,36.94241],[126.53796,36.94725],[126.53346,36.95287],[126.53335,36.95299],[126.52295,36.96439],[126.52197,36.96542],[126.52125,36.96615],[126.51985,36.96747],[126.5169,36.96991],[126.51608,36.97049],[126.51511,36.97108],[126.51356,36.9719],[126.51166,36.9729],[126.51008,36.97341],[126.50922,36.97358],[126.51168,36.97463],[126.51448,36.97542],[126.52295,36.97777],[126.52407,36.97778],[126.52414,36.97778],[126.52423,36.9778],[126.5244,36.97786],[126.52641,36.97864],[126.52796,36.97931],[126.52807,36.97935],[126.53135,36.98107],[126.53486,36.98244],[126.53668,36.98287],[126.53878,36.98325],[126.53977,36.98341],[126.54175,36.98373],[126.5457,36.98418],[126.54794,36.98449],[126.54986,36.98484],[126.55036,36.98498],[126.55543,36.98649],[126.55585,36.98671],[126.55605,36.98683],[126.55628,36.98715],[126.55712,36.98824],[126.55795,36.9893],[126.55799,36.98934],[126.55865,36.99002],[126.55897,36.99019],[126.55933,36.99037],[126.56247,36.99155],[126.56332,36.9916],[126.56552,36.99103],[126.56645,36.99078],[126.56796,36.99029],[126.5681,36.99022],[126.5688,36.98959],[126.56952,36.98874],[126.57339,36.98821],[126.57343,36.98824],[126.57358,36.98826],[126.57477,36.98828],[126.57508,36.98828],[126.57531,36.98822],[126.57548,36.98816],[126.57566,36.98806],[126.57917,36.98523],[126.57966,36.98248],[126.57962,36.98126],[126.57952,36.98119],[126.57865,36.9803],[126.57865,36.98027],[126.57866,36.98024],[126.58062,36.97859],[126.58076,36.9785],[126.58181,36.97848],[126.58211,36.97848],[126.58247,36.97856],[126.58265,36.97861],[126.58296,36.97865],[126.58324,36.97863],[126.58355,36.97856],[126.58379,36.97847],[126.58497,36.97756],[126.58552,36.97707],[126.58569,36.97688],[126.58587,36.97662],[126.58588,36.97659],[126.58591,36.97651],[126.58593,36.97629],[126.58593,36.97599],[126.58598,36.97546],[126.58605,36.97496],[126.58611,36.97474],[126.58635,36.97421],[126.58644,36.974],[126.58658,36.97376],[126.58666,36.97372],[126.58679,36.97371],[126.58718,36.97374],[126.58894,36.97379],[126.59095,36.97381],[126.59111,36.97381],[126.5913,36.97375],[126.59165,36.97354],[126.59183,36.97337],[126.59209,36.97303],[126.59286,36.97161],[126.59338,36.9705],[126.59339,36.97043],[126.59331,36.97013],[126.59317,36.96987],[126.59288,36.96849],[126.59281,36.96449],[126.59284,36.96444],[126.5929,36.96441],[126.60007,36.96193],[126.6018,36.96109],[126.60418,36.95995],[126.60526,36.95943],[126.60536,36.95939],[126.60546,36.95935],[126.61039,36.95746],[126.61065,36.95745],[126.61207,36.9575],[126.61332,36.95751],[126.61433,36.95743],[126.61452,36.95739],[126.61464,36.95733],[126.61483,36.95719],[126.61494,36.95704],[126.61508,36.9568],[126.61564,36.956],[126.6165,36.95505],[126.61678,36.95483],[126.61879,36.95334],[126.61893,36.95328],[126.61932,36.95318],[126.61975,36.95309],[126.62036,36.953],[126.62125,36.95296],[126.62208,36.95293],[126.62246,36.95294],[126.62262,36.95295]]]]}},{"type":"Feature","properties":{"code":"44270320","name":"석문면","parent":"44270"},"geometry":{"type":"MultiPolygon","coordinates":[[[[126.45288,37.01426],[126.45197,37.01411],[126.4512,37.01459],[126.45082,37.01536],[126.45069,37.01605],[126.45062,37.01701],[126.45067,37.01743],[126.45096,37.01797],[126.45144,37.0188],[126.45199,37.01908],[126.45256,37.01876],[126.4537,37.01781],[126.45437,37.01661],[126.45344,37.01475],[126.45288,37.01426]]],[[[126.4514,37.02116],[126.45115,37.02055],[126.45037,37.02071],[126.44984,37.02119],[126.44765,37.02368],[126.44726,37.02465],[126.44728,37.02539],[126.44766,37.02619],[126.44854,37.02603],[126.44953,37.0254],[126.45081,37.02439],[126.45097,37.02383],[126.4514,37.02116]]],[[[126.43197,37.02044],[126.43069,37.02014],[126.4298,37.02014],[126.42839,37.02052],[126.42768,37.02123],[126.42683,37.02263],[126.4262,37.02305],[126.42554,37.02324],[126.42348,37.02367],[126.42243,37.02386],[126.42177,37.02446],[126.42153,37.02525],[126.42204,37.02591],[126.42292,37.0261],[126.42403,37.02625],[126.42481,37.02613],[126.42645,37.02556],[126.42734,37.0251],[126.4318,37.02246],[126.43216,37.02147],[126.43197,37.02044]]],[[[126.44791,37.03006],[126.44728,37.02997],[126.44652,37.03],[126.44569,37.03036],[126.44514,37.03087],[126.44474,37.03146],[126.44454,37.03177],[126.44423,37.03231],[126.44401,37.03319],[126.44482,37.03319],[126.4454,37.0331],[126.44616,37.03289],[126.44672,37.03265],[126.44765,37.03212],[126.44809,37.03151],[126.4482,37.03115],[126.44826,37.03053],[126.44791,37.03006]]],[[[126.44028,37.03171],[126.43957,37.03158],[126.43879,37.03164],[126.4382,37.03187],[126.43768,37.03221],[126.43722,37.03261],[126.4371,37.03312],[126.43753,37.03354],[126.43828,37.03371],[126.43905,37.03361],[126.43981,37.03323],[126.44063,37.03279],[126.44103,37.03216],[126.44028,37.03171]]],[[[126.45663,37.03663],[126.45623,37.03634],[126.45567,37.03634],[126.45522,37.03669],[126.45522,37.03718],[126.4559,37.03905],[126.45611,37.03954],[126.45659,37.03937],[126.45688,37.03924],[126.45708,37.03897],[126.45679,37.03718],[126.45663,37.03663]]],[[[126.45347,37.03483],[126.45373,37.03434],[126.45392,37.03326],[126.45388,37.0326],[126.4534,37.03208],[126.45278,37.03228],[126.44883,37.03467],[126.4468,37.034],[126.44553,37.03411],[126.44082,37.03549],[126.44043,37.03596],[126.44007,37.03654],[126.43996,37.0375],[126.44017,37.03837],[126.44082,37.03886],[126.44509,37.04043],[126.45177,37.04174],[126.45319,37.04191],[126.45453,37.04192],[126.4555,37.04148],[126.45655,37.04086],[126.45467,37.03977],[126.4542,37.03928],[126.45262,37.03739],[126.45312,37.03531],[126.45347,37.03483]]],[[[126.63958,36.99809],[126.63871,36.99042],[126.63779,36.98224],[126.63226,36.96821],[126.63097,36.96425],[126.62947,36.96217],[126.62848,36.96083],[126.62765,36.95988],[126.62685,36.9596],[126.62644,36.95903],[126.62616,36.95823],[126.62607,36.95707],[126.62636,36.95648],[126.62642,36.95607],[126.62473,36.95388],[126.62265,36.95395],[126.62262,36.95295],[126.62246,36.95294],[126.62208,36.95293],[126.62125,36.95296],[126.62036,36.953],[126.61975,36.95309],[126.61932,36.95318],[126.61893,36.95328],[126.61879,36.95334],[126.61678,36.95483],[126.6165,36.95505],[126.61564,36.956],[126.61508,36.9568],[126.61494,36.95704],[126.61483,36.95719],[126.61464,36.95733],[126.61452,36.95739],[126.61433,36.95743],[126.61332,36.95751],[126.61207,36.9575],[126.61065,36.95745],[126.61039,36.95746],[126.60546,36.95935],[126.60536,36.95939],[126.60526,36.95943],[126.60418,36.95995],[126.6018,36.96109],[126.60007,36.96193],[126.5929,36.96441],[126.59284,36.96444],[126.59281,36.96449],[126.59288,36.96849],[126.59317,36.96987],[126.59331,36.97013],[126.59339,36.97043],[126.59338,36.9705],[126.59286,36.97161],[126.59209,36.97303],[126.59183,36.97337],[126.59165,36.97354],[126.5913,36.97375],[126.59111,36.97381],[126.59095,36.97381],[126.58894,36.97379],[126.58718,36.97374],[126.58679,36.97371],[126.58666,36.97372],[126.58658,36.97376],[126.58644,36.974],[126.58635,36.97421],[126.58611,36.97474],[126.58605,36.97496],[126.58598,36.97546],[126.58593,36.97599],[126.58593,36.97629],[126.58591,36.97651],[126.58588,36.97659],[126.58587,36.97662],[126.58569,36.97688],[126.58552,36.97707],[126.58497,36.97756],[126.58379,36.97847],[126.58355,36.97856],[126.58324,36.97863],[126.58296,36.97865],[126.58265,36.97861],[126.58247,36.97856],[126.58211,36.97848],[126.58181,36.97848],[126.58076,36.9785],[126.58062,36.97859],[126.57866,36.98024],[126.57865,36.98027],[126.57865,36.9803],[126.57952,36.98119],[126.57962,36.98126],[126.57966,36.98248],[126.57917,36.98523],[126.57566,36.98806],[126.57548,36.98816],[126.57531,36.98822],[126.57508,36.98828],[126.57477,36.98828],[126.57358,36.98826],[126.57343,36.98824],[126.57339,36.98821],[126.56952,36.98874],[126.5688,36.98959],[126.5681,36.99022],[126.56796,36.99029],[126.56645,36.99078],[126.56552,36.99103],[126.56332,36.9916],[126.56247,36.99155],[126.55933,36.99037],[126.55897,36.99019],[126.55865,36.99002],[126.55799,36.98934],[126.55795,36.9893],[126.55712,36.98824],[126.55628,36.98715],[126.55605,36.98683],[126.55585,36.98671],[126.55543,36.98649],[126.55036,36.98498],[126.54986,36.98484],[126.54794,36.98449],[126.5457,36.98418],[126.54175,36.98373],[126.53977,36.98341],[126.53878,36.98325],[126.53668,36.98287],[126.53486,36.98244],[126.53135,36.98107],[126.52807,36.97935],[126.52796,36.97931],[126.52641,36.97864],[126.5244,36.97786],[126.52423,36.9778],[126.52414,36.97778],[126.52407,36.97778],[126.52295,36.97777],[126.51448,36.97542],[126.51168,36.97463],[126.50922,36.97358],[126.50765,36.97385],[126.50688,36.97396],[126.50557,36.9741],[126.50414,36.97417],[126.50146,36.97422],[126.49751,36.97424],[126.4866,36.98281],[126.4839,36.98748],[126.48231,36.9903],[126.47913,36.99677],[126.47505,37.00241],[126.47202,37.00532],[126.4656,37.00875],[126.46218,37.01104],[126.46257,37.01129],[126.46384,37.01214],[126.45777,37.0208],[126.45646,37.02195],[126.45488,37.02289],[126.45356,37.0256],[126.45524,37.02781],[126.45667,37.02834],[126.45746,37.02761],[126.46058,37.03034],[126.47253,37.04041],[126.48625,37.05196],[126.48478,37.05291],[126.48416,37.05395],[126.48246,37.057],[126.48174,37.06134],[126.48281,37.06245],[126.48393,37.0628],[126.48644,37.06062],[126.48967,37.06017],[126.49089,37.06029],[126.4983,37.06527],[126.5087,37.06272],[126.50977,37.06521],[126.51261,37.06421],[126.51238,37.06374],[126.5101,37.06453],[126.50929,37.06255],[126.51442,37.06097],[126.51953,37.05939],[126.51913,37.05751],[126.52326,37.05585],[126.52661,37.05256],[126.52838,37.04805],[126.52832,37.04539],[126.52905,37.04371],[126.5313,37.04302],[126.53514,37.04136],[126.54138,37.03802],[126.54197,37.03658],[126.54407,37.03571],[126.54515,37.0355],[126.54726,37.03509],[126.55036,37.03527],[126.55636,37.03657],[126.55956,37.03771],[126.56092,37.0366],[126.55887,37.03467],[126.56001,37.03154],[126.56282,37.02962],[126.56404,37.02879],[126.56634,37.02795],[126.56706,37.02769],[126.57018,37.02779],[126.57134,37.02747],[126.57192,37.02678],[126.57129,37.02566],[126.57193,37.02501],[126.5749,37.02386],[126.57805,37.02475],[126.57923,37.02458],[126.59807,37.01682],[126.60227,37.01435],[126.60649,37.01186],[126.60989,37.00986],[126.61018,37.00969],[126.61884,37.00459],[126.62207,37.00357],[126.63528,36.99944],[126.63958,36.99809]]],[[[126.42897,37.06397],[126.42848,37.06313],[126.42825,37.06299],[126.42779,37.06245],[126.42783,37.06162],[126.42803,37.06095],[126.42857,37.0598],[126.43047,37.05852],[126.43356,37.05761],[126.43532,37.05738],[126.43705,37.05736],[126.43838,37.0576],[126.43915,37.058],[126.43935,37.05844],[126.43904,37.05888],[126.43887,37.05941],[126.43902,37.05992],[126.43946,37.06128],[126.43993,37.06208],[126.44071,37.06274],[126.44205,37.06256],[126.44303,37.06234],[126.44405,37.0617],[126.44523,37.06048],[126.44596,37.05928],[126.4493,37.05566],[126.45029,37.05482],[126.45057,37.05433],[126.44931,37.05329],[126.44727,37.05177],[126.44635,37.05167],[126.4455,37.05101],[126.44575,37.04982],[126.44625,37.0496],[126.4474,37.04964],[126.44823,37.04985],[126.44966,37.04957],[126.45027,37.049],[126.45087,37.04587],[126.45054,37.04448],[126.44972,37.04369],[126.44893,37.04348],[126.44698,37.0442],[126.44554,37.04445],[126.44348,37.04437],[126.44297,37.04415],[126.4425,37.04326],[126.4408,37.04256],[126.43812,37.04218],[126.43643,37.04314],[126.43538,37.0435],[126.43315,37.04304],[126.43222,37.0427],[126.4314,37.0421],[126.42804,37.03999],[126.4263,37.04014],[126.423,37.04051],[126.42196,37.04076],[126.42094,37.04136],[126.42061,37.04181],[126.42079,37.04236],[126.42154,37.04278],[126.42311,37.04364],[126.42346,37.04477],[126.42327,37.04661],[126.42308,37.04784],[126.42242,37.04955],[126.42203,37.04954],[126.42139,37.04965],[126.42092,37.05009],[126.42085,37.05081],[126.42179,37.05226],[126.42247,37.05391],[126.42231,37.05446],[126.42067,37.05632],[126.41896,37.05789],[126.41821,37.06],[126.41837,37.06316],[126.41885,37.06394],[126.41978,37.06438],[126.42076,37.06454],[126.42147,37.06461],[126.42195,37.06458],[126.42275,37.06404],[126.42357,37.06374],[126.42417,37.06374],[126.42643,37.06419],[126.42812,37.06487],[126.42897,37.06397]]]]}},{"type":"Feature","properties":{"code":"44270330","name":"대호지면","parent":"44270"},"geometry":{"type":"MultiPolygon","coordinates":[[[[126.50922,36.97358],[126.51008,36.97341],[126.51166,36.9729],[126.51356,36.9719],[126.51511,36.97108],[126.51608,36.97049],[126.5169,36.96991],[126.51985,36.96747],[126.52125,36.96615],[126.52197,36.96542],[126.52295,36.96439],[126.53335,36.95299],[126.53346,36.95287],[126.53796,36.94725],[126.54144,36.94241],[126.5436,36.93981],[126.54609,36.9368],[126.54739,36.93447],[126.54819,36.9327],[126.54867,36.93149],[126.54938,36.92904],[126.54972,36.92787],[126.55001,36.92716],[126.55075,36.92607],[126.5515,36.92516],[126.55152,36.92513],[126.553,36.92331],[126.55419,36.9223],[126.55504,36.92177],[126.55554,36.9213],[126.55827,36.91347],[126.55833,36.91293],[126.55918,36.91089],[126.56149,36.90539],[126.56284,36.90265],[126.56307,36.90225],[126.5633,36.902],[126.56352,36.9018],[126.56379,36.9016],[126.56424,36.90137],[126.56498,36.90111],[126.56576,36.90091],[126.56625,36.90086],[126.56651,36.90085],[126.5665,36.90058],[126.56639,36.89802],[126.56636,36.89736],[126.56629,36.89589],[126.56626,36.89527],[126.56622,36.89468],[126.56611,36.89415],[126.56596,36.89365],[126.56586,36.89334],[126.56568,36.89301],[126.56552,36.89278],[126.56529,36.89246],[126.565,36.8921],[126.56474,36.89182],[126.5645,36.89161],[126.56421,36.89137],[126.55982,36.88951],[126.55949,36.88943],[126.55891,36.88935],[126.55853,36.88931],[126.55838,36.88935],[126.55571,36.8909],[126.55461,36.89212],[126.55449,36.89222],[126.55245,36.89327],[126.55236,36.8933],[126.55226,36.89332],[126.55167,36.89338],[126.55125,36.89341],[126.55108,36.89338],[126.5509,36.89332],[126.55071,36.89321],[126.55055,36.89309],[126.54968,36.89233],[126.54961,36.89224],[126.54959,36.89214],[126.5498,36.88917],[126.54997,36.88839],[126.55005,36.88824],[126.55023,36.88795],[126.55038,36.88775],[126.55055,36.88761],[126.55061,36.88752],[126.55064,36.88745],[126.55063,36.88739],[126.5506,36.88732],[126.54973,36.88625],[126.54807,36.88453],[126.54801,36.88446],[126.54679,36.8837],[126.54658,36.88356],[126.54591,36.88254],[126.54551,36.88147],[126.54544,36.87996],[126.5454,36.87894],[126.54538,36.87861],[126.54534,36.87826],[126.5452,36.87793],[126.54493,36.87779],[126.54399,36.87748],[126.54382,36.87746],[126.54326,36.8775],[126.54289,36.87754],[126.53687,36.87778],[126.53632,36.87734],[126.53548,36.87685],[126.53513,36.8767],[126.53395,36.87623],[126.53382,36.8762],[126.53361,36.87616],[126.53158,36.87612],[126.53142,36.87614],[126.52919,36.87583],[126.52459,36.87501],[126.5245,36.87499],[126.52446,36.87495],[126.52444,36.87488],[126.52443,36.87471],[126.52444,36.87404],[126.52519,36.87189],[126.52524,36.87184],[126.52537,36.87178],[126.52551,36.87172],[126.52581,36.87166],[126.52591,36.87164],[126.52623,36.87158],[126.5265,36.8715],[126.52748,36.87112],[126.5276,36.87106],[126.52781,36.8709],[126.5279,36.87084],[126.52819,36.87052],[126.52827,36.8704],[126.52836,36.87026],[126.52943,36.8673],[126.53079,36.8661],[126.53717,36.86336],[126.53741,36.86326],[126.53752,36.86321],[126.53764,36.86313],[126.53778,36.86303],[126.53786,36.86298],[126.53793,36.8629],[126.53796,36.86284],[126.53797,36.8628],[126.53755,36.86208],[126.53629,36.86041],[126.53622,36.86034],[126.53609,36.86023],[126.53557,36.85991],[126.53517,36.85968],[126.53411,36.85913],[126.53392,36.85903],[126.5337,36.85895],[126.5307,36.85787],[126.5296,36.8575],[126.52568,36.85619],[126.52075,36.85515],[126.52052,36.85508],[126.52045,36.85506],[126.52021,36.85498],[126.5201,36.85492],[126.51986,36.85478],[126.51838,36.85387],[126.51778,36.85341],[126.51754,36.85315],[126.51705,36.85266],[126.51665,36.85238],[126.51628,36.85215],[126.51517,36.85168],[126.51504,36.85163],[126.51491,36.85159],[126.51472,36.85156],[126.50997,36.85582],[126.50971,36.85598],[126.50962,36.85613],[126.50957,36.85631],[126.50953,36.8565],[126.50952,36.85666],[126.50952,36.85687],[126.50953,36.85708],[126.50954,36.85723],[126.50956,36.85742],[126.50958,36.85757],[126.5096,36.85771],[126.50985,36.86128],[126.50995,36.86557],[126.5099,36.8665],[126.50975,36.86796],[126.50954,36.86871],[126.50948,36.86889],[126.50924,36.86963],[126.50893,36.87001],[126.50872,36.87017],[126.50848,36.87029],[126.50808,36.87038],[126.50057,36.87082],[126.4984,36.87094],[126.49721,36.87134],[126.49097,36.87323],[126.48353,36.87569],[126.48351,36.87571],[126.48154,36.87726],[126.48075,36.87787],[126.48038,36.87813],[126.48019,36.87826],[126.48009,36.87832],[126.47995,36.8784],[126.47963,36.8785],[126.47919,36.87857],[126.47909,36.87858],[126.47877,36.87861],[126.47829,36.87872],[126.47781,36.87887],[126.47618,36.87956],[126.47541,36.88001],[126.47487,36.88037],[126.47418,36.88096],[126.47366,36.88152],[126.47337,36.882],[126.47294,36.88348],[126.47286,36.88417],[126.47281,36.88525],[126.47352,36.8898],[126.47552,36.8999],[126.47612,36.90287],[126.47633,36.90392],[126.4764,36.90421],[126.47661,36.90487],[126.47678,36.90533],[126.47834,36.90893],[126.48047,36.91352],[126.48087,36.91438],[126.48112,36.91498],[126.48145,36.91577],[126.48158,36.9161],[126.48214,36.91758],[126.48319,36.92035],[126.4833,36.92062],[126.48591,36.92672],[126.48661,36.92815],[126.48706,36.92872],[126.4874,36.9292],[126.4876,36.92955],[126.48879,36.932],[126.48914,36.93291],[126.48929,36.93347],[126.48947,36.93419],[126.48959,36.93471],[126.48966,36.93508],[126.48998,36.9375],[126.49011,36.93882],[126.49014,36.93947],[126.49017,36.94019],[126.49021,36.9416],[126.49007,36.94479],[126.49001,36.94515],[126.48988,36.94595],[126.48962,36.94697],[126.48931,36.94809],[126.48752,36.9527],[126.48656,36.95522],[126.48543,36.95996],[126.48446,36.96451],[126.4833,36.97013],[126.4834,36.97862],[126.4866,36.98281],[126.49751,36.97424],[126.50146,36.97422],[126.50414,36.97417],[126.50557,36.9741],[126.50688,36.97396],[126.50765,36.97385],[126.50922,36.97358]]]]}},{"type":"Feature","properties":{"code":"44270340","name":"정미면","parent":"44270"},"geometry":{"type":"MultiPolygon","coordinates":[[[[126.60067,36.88682],[126.60053,36.88661],[126.60047,36.88653],[126.60043,36.88638],[126.60018,36.88496],[126.60014,36.88472],[126.60015,36.88449],[126.60278,36.87525],[126.60298,36.87467],[126.60306,36.87447],[126.60441,36.87257],[126.6064,36.87025],[126.60678,36.87006],[126.60728,36.87001],[126.6081,36.86979],[126.60845,36.86959],[126.60989,36.86876],[126.61026,36.86854],[126.61189,36.8624],[126.61201,36.86186],[126.61192,36.86018],[126.61168,36.8585],[126.61156,36.85797],[126.61114,36.85746],[126.61052,36.85682],[126.61037,36.85633],[126.61055,36.85531],[126.61083,36.85441],[126.61132,36.85265],[126.6114,36.85222],[126.61141,36.85203],[126.61142,36.85175],[126.61142,36.85155],[126.6114,36.85132],[126.61138,36.85113],[126.61134,36.85099],[126.61124,36.85077],[126.61097,36.85042],[126.61061,36.85014],[126.60548,36.84546],[126.6043,36.84354],[126.60102,36.84052],[126.60093,36.84046],[126.60068,36.84025],[126.60054,36.84009],[126.59968,36.83811],[126.59872,36.83564],[126.59705,36.8346],[126.59543,36.83397],[126.59224,36.83469],[126.58845,36.83658],[126.58381,36.83397],[126.58333,36.83365],[126.58086,36.83095],[126.57914,36.82827],[126.57896,36.82664],[126.57894,36.82658],[126.57688,36.82532],[126.57522,36.82504],[126.57485,36.82504],[126.57445,36.82511],[126.57426,36.82519],[126.57068,36.82712],[126.57051,36.82724],[126.57031,36.82742],[126.57014,36.82764],[126.57005,36.82788],[126.56991,36.82811],[126.56974,36.82839],[126.56961,36.82859],[126.56657,36.82866],[126.56644,36.82865],[126.56628,36.82861],[126.56613,36.82857],[126.56601,36.82851],[126.56493,36.82794],[126.56351,36.82734],[126.56215,36.82679],[126.56168,36.82661],[126.56132,36.82651],[126.56104,36.82646],[126.56081,36.82645],[126.56062,36.82645],[126.56046,36.82647],[126.56023,36.82652],[126.55982,36.82664],[126.55947,36.82673],[126.55933,36.82674],[126.55919,36.82674],[126.55906,36.82673],[126.55769,36.82662],[126.55743,36.82656],[126.55723,36.82647],[126.55619,36.82562],[126.55595,36.82541],[126.55563,36.82501],[126.55533,36.8246],[126.55408,36.82457],[126.54959,36.82423],[126.54465,36.82547],[126.54218,36.82632],[126.53691,36.82767],[126.53651,36.82771],[126.53602,36.82773],[126.53561,36.82773],[126.53553,36.82773],[126.53549,36.82772],[126.53541,36.8277],[126.53389,36.82707],[126.53242,36.82646],[126.53042,36.82606],[126.52931,36.82604],[126.52881,36.82604],[126.52829,36.82609],[126.528,36.82615],[126.5278,36.82619],[126.52762,36.82623],[126.5261,36.82667],[126.52601,36.82673],[126.52315,36.83123],[126.52308,36.83152],[126.52307,36.83171],[126.5231,36.83189],[126.52325,36.83211],[126.52341,36.83234],[126.52353,36.83256],[126.52361,36.83272],[126.52361,36.83306],[126.52328,36.83434],[126.52323,36.83452],[126.52319,36.83461],[126.5231,36.83469],[126.52301,36.83477],[126.52284,36.83491],[126.52258,36.83511],[126.52232,36.83528],[126.52199,36.83539],[126.52175,36.83541],[126.52156,36.83538],[126.52124,36.83529],[126.51988,36.83486],[126.51964,36.83493],[126.519,36.83513],[126.51868,36.83524],[126.51841,36.83536],[126.51821,36.8356],[126.51817,36.83569],[126.51657,36.8394],[126.51542,36.84206],[126.51543,36.8422],[126.51545,36.84243],[126.51544,36.84261],[126.51541,36.84304],[126.51533,36.84321],[126.51522,36.84337],[126.51448,36.84439],[126.51425,36.84467],[126.51413,36.84479],[126.51169,36.84647],[126.51041,36.84719],[126.51105,36.84869],[126.51258,36.84954],[126.51294,36.84967],[126.51338,36.84984],[126.51362,36.84996],[126.51386,36.85019],[126.51413,36.85055],[126.51434,36.85089],[126.51472,36.85156],[126.51491,36.85159],[126.51504,36.85163],[126.51517,36.85168],[126.51628,36.85215],[126.51665,36.85238],[126.51705,36.85266],[126.51754,36.85315],[126.51778,36.85341],[126.51838,36.85387],[126.51986,36.85478],[126.5201,36.85492],[126.52021,36.85498],[126.52045,36.85506],[126.52052,36.85508],[126.52075,36.85515],[126.52568,36.85619],[126.5296,36.8575],[126.5307,36.85787],[126.5337,36.85895],[126.53392,36.85903],[126.53411,36.85913],[126.53517,36.85968],[126.53557,36.85991],[126.53609,36.86023],[126.53622,36.86034],[126.53629,36.86041],[126.53755,36.86208],[126.53797,36.8628],[126.53796,36.86284],[126.53793,36.8629],[126.53786,36.86298],[126.53778,36.86303],[126.53764,36.86313],[126.53752,36.86321],[126.53741,36.86326],[126.53717,36.86336],[126.53079,36.8661],[126.52943,36.8673],[126.52836,36.87026],[126.52827,36.8704],[126.52819,36.87052],[126.5279,36.87084],[126.52781,36.8709],[126.5276,36.87106],[126.52748,36.87112],[126.5265,36.8715],[126.52623,36.87158],[126.52591,36.87164],[126.52581,36.87166],[126.52551,36.87172],[126.52537,36.87178],[126.52524,36.87184],[126.52519,36.87189],[126.52444,36.87404],[126.52443,36.87471],[126.52444,36.87488],[126.52446,36.87495],[126.5245,36.87499],[126.52459,36.87501],[126.52919,36.87583],[126.53142,36.87614],[126.53158,36.87612],[126.53361,36.87616],[126.53382,36.8762],[126.53395,36.87623],[126.53513,36.8767],[126.53548,36.87685],[126.53632,36.87734],[126.53687,36.87778],[126.54289,36.87754],[126.54326,36.8775],[126.54382,36.87746],[126.54399,36.87748],[126.54493,36.87779],[126.5452,36.87793],[126.54534,36.87826],[126.54538,36.87861],[126.5454,36.87894],[126.54544,36.87996],[126.54551,36.88147],[126.54591,36.88254],[126.54658,36.88356],[126.54679,36.8837],[126.54801,36.88446],[126.54807,36.88453],[126.54973,36.88625],[126.5506,36.88732],[126.55063,36.88739],[126.55064,36.88745],[126.55061,36.88752],[126.55055,36.88761],[126.55038,36.88775],[126.55023,36.88795],[126.55005,36.88824],[126.54997,36.88839],[126.5498,36.88917],[126.54959,36.89214],[126.54961,36.89224],[126.54968,36.89233],[126.55055,36.89309],[126.55071,36.89321],[126.5509,36.89332],[126.55108,36.89338],[126.55125,36.89341],[126.55167,36.89338],[126.55226,36.89332],[126.55236,36.8933],[126.55245,36.89327],[126.55449,36.89222],[126.55461,36.89212],[126.55571,36.8909],[126.55838,36.88935],[126.55853,36.88931],[126.55891,36.88935],[126.55949,36.88943],[126.55982,36.88951],[126.56421,36.89137],[126.5645,36.89161],[126.56474,36.89182],[126.565,36.8921],[126.56529,36.89246],[126.56552,36.89278],[126.56568,36.89301],[126.56586,36.89334],[126.56596,36.89365],[126.56611,36.89415],[126.56622,36.89468],[126.56626,36.89527],[126.56629,36.89589],[126.56636,36.89736],[126.56639,36.89802],[126.5665,36.90058],[126.56651,36.90085],[126.57015,36.90127],[126.57161,36.90171],[126.57169,36.90175],[126.57224,36.90234],[126.5729,36.90307],[126.57335,36.90342],[126.57345,36.9035],[126.57378,36.90369],[126.57529,36.90383],[126.57626,36.90333],[126.57934,36.90164],[126.5794,36.90159],[126.58103,36.9005],[126.58114,36.90039],[126.58142,36.90014],[126.58162,36.89993],[126.58171,36.89984],[126.58191,36.8996],[126.5821,36.89935],[126.58218,36.8992],[126.58221,36.89909],[126.5822,36.8989],[126.58219,36.8987],[126.58218,36.89864],[126.5822,36.89853],[126.58286,36.89715],[126.58295,36.89698],[126.5835,36.89631],[126.58371,36.89613],[126.58426,36.89569],[126.58449,36.89552],[126.58517,36.89518],[126.58773,36.89395],[126.58798,36.89383],[126.5883,36.89377],[126.59056,36.89345],[126.59169,36.89329],[126.59191,36.89328],[126.59211,36.89326],[126.59311,36.89308],[126.59314,36.89307],[126.59322,36.89303],[126.59731,36.88966],[126.60067,36.88682]]]]}},{"type":"Feature","properties":{"code":"44270350","name":"면천면","parent":"44270"},"geometry":{"type":"MultiPolygon","coordinates":[[[[126.71201,36.81536],[126.7119,36.81464],[126.71324,36.81163],[126.71443,36.81061],[126.71454,36.81053],[126.71488,36.81036],[126.71519,36.81022],[126.71528,36.81017],[126.71529,36.81013],[126.71528,36.80796],[126.71525,36.80782],[126.71514,36.80744],[126.71505,36.80732],[126.71454,36.80692],[126.71406,36.80655],[126.71398,36.80649],[126.71387,36.8064],[126.7138,36.80632],[126.71377,36.80625],[126.71355,36.80536],[126.7135,36.805],[126.71349,36.80472],[126.7136,36.80334],[126.71198,36.80336],[126.71158,36.80355],[126.71117,36.80369],[126.71032,36.80393],[126.70929,36.80377],[126.70935,36.80332],[126.70911,36.80285],[126.70881,36.80274],[126.70509,36.80205],[126.70445,36.8022],[126.70379,36.80246],[126.70328,36.80274],[126.70244,36.80275],[126.70211,36.80267],[126.69999,36.80215],[126.69958,36.80205],[126.6973,36.80105],[126.69646,36.80062],[126.6952,36.79929],[126.69518,36.79874],[126.69535,36.79803],[126.69555,36.79757],[126.69587,36.79725],[126.69625,36.79721],[126.69668,36.79723],[126.69712,36.79715],[126.6973,36.79639],[126.69766,36.79474],[126.69758,36.7932],[126.69669,36.79155],[126.69629,36.79121],[126.69588,36.79108],[126.69551,36.79082],[126.69531,36.79047],[126.69525,36.78982],[126.69518,36.78824],[126.69515,36.78672],[126.69474,36.78583],[126.6943,36.78499],[126.69328,36.78438],[126.69258,36.78402],[126.69104,36.78356],[126.68952,36.7831],[126.68604,36.78222],[126.68307,36.78152],[126.68261,36.78157],[126.68138,36.78247],[126.68069,36.78303],[126.68037,36.78367],[126.67876,36.78379],[126.67768,36.78388],[126.67594,36.78392],[126.66905,36.78056],[126.66865,36.77958],[126.6686,36.77857],[126.66824,36.77681],[126.66751,36.77396],[126.66494,36.77087],[126.66326,36.77027],[126.66021,36.7709],[126.65976,36.77127],[126.65881,36.77242],[126.6582,36.77398],[126.65678,36.77635],[126.65575,36.77583],[126.65525,36.775],[126.65472,36.77484],[126.65354,36.77497],[126.65364,36.77567],[126.65361,36.77601],[126.65321,36.77674],[126.65302,36.77707],[126.65283,36.77731],[126.65125,36.7789],[126.65009,36.78194],[126.64861,36.78622],[126.64859,36.78639],[126.64858,36.78643],[126.64856,36.78648],[126.64794,36.78733],[126.64764,36.78768],[126.64721,36.78799],[126.64686,36.78813],[126.64656,36.78815],[126.64625,36.78816],[126.64595,36.78825],[126.64563,36.78845],[126.64546,36.78873],[126.64484,36.79204],[126.64342,36.79416],[126.64047,36.79742],[126.63664,36.80117],[126.63606,36.80252],[126.63594,36.80288],[126.63591,36.80378],[126.6359,36.80458],[126.63588,36.80476],[126.63583,36.80491],[126.63569,36.8051],[126.63558,36.80522],[126.63466,36.80602],[126.63446,36.80618],[126.63417,36.80636],[126.63396,36.80645],[126.63362,36.80646],[126.63308,36.80647],[126.63102,36.80714],[126.63099,36.80723],[126.63098,36.80733],[126.631,36.80747],[126.63123,36.80979],[126.63157,36.81197],[126.6316,36.81217],[126.63158,36.81231],[126.63149,36.81243],[126.63083,36.81323],[126.63074,36.8133],[126.63066,36.81331],[126.63055,36.8133],[126.63023,36.81327],[126.62997,36.81322],[126.62972,36.81319],[126.62956,36.81321],[126.62816,36.81351],[126.62805,36.81355],[126.62794,36.8136],[126.62647,36.81443],[126.62665,36.81901],[126.6264,36.82314],[126.62633,36.8238],[126.62304,36.82698],[126.62298,36.82704],[126.62294,36.82705],[126.62272,36.82714],[126.6224,36.82725],[126.62205,36.82734],[126.62163,36.82739],[126.62069,36.82755],[126.61928,36.82788],[126.61825,36.82878],[126.61822,36.82884],[126.61823,36.82892],[126.61829,36.82897],[126.61869,36.82927],[126.61931,36.82967],[126.61955,36.82982],[126.61973,36.82992],[126.61995,36.83015],[126.6203,36.83064],[126.62036,36.83087],[126.62036,36.83131],[126.62032,36.83177],[126.62023,36.83194],[126.62012,36.83208],[126.61925,36.83309],[126.61782,36.83523],[126.61761,36.83558],[126.61727,36.83634],[126.61719,36.8369],[126.61721,36.83707],[126.61722,36.83712],[126.61732,36.83735],[126.61766,36.83781],[126.6178,36.83796],[126.61816,36.83829],[126.61841,36.83846],[126.62079,36.83964],[126.62117,36.83976],[126.62163,36.83984],[126.62191,36.83984],[126.62294,36.83968],[126.623,36.83967],[126.62353,36.83958],[126.62409,36.83953],[126.62429,36.83954],[126.62435,36.83954],[126.6267,36.84027],[126.627,36.84041],[126.63096,36.84268],[126.6355,36.84426],[126.63587,36.8444],[126.63628,36.84473],[126.63651,36.8451],[126.63656,36.84546],[126.63667,36.84572],[126.63675,36.84582],[126.63702,36.8461],[126.63713,36.84619],[126.63718,36.84623],[126.63908,36.84717],[126.64216,36.8488],[126.64487,36.8506],[126.64509,36.85076],[126.64542,36.85107],[126.64566,36.85135],[126.6458,36.85156],[126.64633,36.85455],[126.64643,36.85635],[126.64954,36.85981],[126.65134,36.86135],[126.65137,36.86137],[126.65146,36.86141],[126.65183,36.86147],[126.65232,36.86147],[126.65307,36.86143],[126.65412,36.86133],[126.6548,36.86315],[126.65491,36.86403],[126.65498,36.86452],[126.65503,36.8649],[126.65514,36.86504],[126.65528,36.86514],[126.65657,36.86586],[126.66014,36.86616],[126.66096,36.86507],[126.66388,36.85766],[126.66448,36.8561],[126.66459,36.85551],[126.66466,36.85377],[126.66388,36.85023],[126.66438,36.84817],[126.66537,36.84555],[126.66661,36.84326],[126.66801,36.8407],[126.66962,36.83712],[126.66996,36.83536],[126.67031,36.83399],[126.67117,36.83198],[126.67431,36.82701],[126.67495,36.82619],[126.67739,36.82552],[126.67846,36.82561],[126.67905,36.82564],[126.68001,36.82538],[126.68063,36.81939],[126.68016,36.81764],[126.68046,36.81543],[126.6807,36.81521],[126.6815,36.81519],[126.682,36.81479],[126.68347,36.81308],[126.68409,36.81211],[126.68387,36.81164],[126.68365,36.81083],[126.68341,36.80991],[126.68343,36.80984],[126.68397,36.80967],[126.68531,36.80945],[126.68592,36.80983],[126.68641,36.81048],[126.6867,36.81071],[126.68911,36.81164],[126.69077,36.81192],[126.69175,36.81197],[126.6923,36.81202],[126.69402,36.81226],[126.69438,36.81246],[126.69485,36.81274],[126.69614,36.81363],[126.69681,36.81411],[126.69829,36.81342],[126.69851,36.81273],[126.69891,36.81153],[126.69992,36.80994],[126.70045,36.80958],[126.70125,36.80948],[126.70317,36.80968],[126.70436,36.81019],[126.70628,36.81105],[126.70685,36.81162],[126.70701,36.81241],[126.70809,36.81392],[126.70911,36.81465],[126.71201,36.81536]]]]}},{"type":"Feature","properties":{"code":"44270360","name":"순성면","parent":"44270"},"geometry":{"type":"MultiPolygon","coordinates":[[[[126.68446,36.88474],[126.68596,36.88341],[126.6869,36.88303],[126.68697,36.88292],[126.68702,36.88278],[126.68705,36.88262],[126.68709,36.88213],[126.68707,36.87987],[126.68705,36.87968],[126.68697,36.87894],[126.68693,36.87883],[126.68688,36.87875],[126.68682,36.87868],[126.68674,36.8786],[126.68653,36.87845],[126.6855,36.87736],[126.68539,36.87717],[126.68537,36.87686],[126.68541,36.87625],[126.68543,36.87609],[126.68554,36.87592],[126.68564,36.87582],[126.68613,36.87537],[126.68683,36.87478],[126.68719,36.87457],[126.68731,36.87448],[126.68761,36.87414],[126.68769,36.87401],[126.68781,36.87377],[126.68786,36.87359],[126.68787,36.87339],[126.68779,36.87202],[126.68773,36.8714],[126.6877,36.87133],[126.68672,36.86969],[126.68666,36.8696],[126.68612,36.86909],[126.68605,36.86905],[126.68569,36.86894],[126.6856,36.86888],[126.68557,36.86882],[126.68524,36.86693],[126.68524,36.86687],[126.68527,36.86683],[126.68554,36.86661],[126.68677,36.86581],[126.68695,36.86572],[126.68708,36.86568],[126.68725,36.86567],[126.68759,36.86571],[126.68783,36.86574],[126.68794,36.86574],[126.68808,36.86572],[126.68868,36.86551],[126.68888,36.86542],[126.68909,36.86529],[126.68918,36.86515],[126.68922,36.86505],[126.68963,36.86321],[126.68962,36.86314],[126.68959,36.86302],[126.68951,36.8629],[126.68911,36.86234],[126.6888,36.86192],[126.68876,36.86183],[126.68874,36.86171],[126.68874,36.86123],[126.68875,36.86102],[126.68882,36.8608],[126.68889,36.86067],[126.689,36.86057],[126.68914,36.86047],[126.69018,36.85985],[126.69031,36.85981],[126.69044,36.85981],[126.69061,36.85981],[126.69176,36.85994],[126.69276,36.86045],[126.69361,36.86097],[126.69717,36.86364],[126.69717,36.86372],[126.69719,36.8642],[126.69724,36.86436],[126.69736,36.86447],[126.70233,36.86834],[126.70303,36.8686],[126.70354,36.86871],[126.70392,36.86876],[126.70439,36.86877],[126.70481,36.86871],[126.70637,36.8684],[126.7066,36.86833],[126.70967,36.86637],[126.71215,36.86466],[126.71329,36.86446],[126.71359,36.86442],[126.71394,36.86442],[126.71461,36.86446],[126.71617,36.86461],[126.71635,36.86465],[126.71642,36.86476],[126.71661,36.86559],[126.7167,36.86609],[126.71679,36.86624],[126.71693,36.86634],[126.71852,36.86696],[126.71883,36.86708],[126.71942,36.86727],[126.7199,36.86739],[126.72027,36.86744],[126.72061,36.86743],[126.7209,36.8674],[126.72096,36.86739],[126.72136,36.86729],[126.72203,36.86709],[126.72222,36.86693],[126.7224,36.86671],[126.72247,36.86655],[126.72258,36.86631],[126.7227,36.86615],[126.7247,36.86426],[126.72485,36.86415],[126.72522,36.86393],[126.72535,36.86386],[126.72552,36.86385],[126.72676,36.86377],[126.72698,36.86377],[126.73157,36.86057],[126.73276,36.85974],[126.73304,36.85956],[126.7333,36.85943],[126.73339,36.85941],[126.73647,36.85859],[126.73812,36.86007],[126.73793,36.86046],[126.73737,36.86237],[126.73729,36.86286],[126.73728,36.86301],[126.73723,36.86481],[126.73728,36.86492],[126.73754,36.86549],[126.7377,36.86577],[126.73823,36.86617],[126.73905,36.86672],[126.73943,36.86695],[126.73974,36.86714],[126.74002,36.86726],[126.7409,36.86756],[126.74096,36.86729],[126.74102,36.86719],[126.74136,36.86667],[126.74163,36.86631],[126.74176,36.86614],[126.74184,36.86604],[126.74211,36.86573],[126.74251,36.86535],[126.74262,36.86527],[126.74303,36.86508],[126.74483,36.86452],[126.74617,36.86228],[126.74685,36.86058],[126.74739,36.85805],[126.74768,36.85726],[126.74854,36.85664],[126.74872,36.85658],[126.74878,36.85657],[126.74999,36.85635],[126.75084,36.85628],[126.75346,36.85422],[126.75346,36.85403],[126.75369,36.85385],[126.75662,36.85261],[126.75844,36.85225],[126.75908,36.85225],[126.76028,36.85244],[126.76116,36.85263],[126.76301,36.85257],[126.766,36.8521],[126.76653,36.85187],[126.76702,36.85163],[126.76772,36.85118],[126.76823,36.8508],[126.76844,36.85064],[126.76848,36.85053],[126.76832,36.84982],[126.76805,36.84907],[126.76713,36.84862],[126.76608,36.84798],[126.76272,36.84579],[126.76217,36.84523],[126.76205,36.84505],[126.76177,36.84372],[126.76138,36.83899],[126.763,36.83895],[126.764,36.83896],[126.76559,36.83884],[126.76631,36.83756],[126.76772,36.83368],[126.76772,36.83361],[126.76772,36.83265],[126.76531,36.82927],[126.76379,36.82591],[126.76379,36.82585],[126.76371,36.82467],[126.76121,36.82177],[126.75994,36.82128],[126.75776,36.82119],[126.75727,36.82132],[126.75331,36.82462],[126.7527,36.82556],[126.75237,36.8263],[126.75228,36.82748],[126.75228,36.82791],[126.75136,36.82827],[126.75033,36.82846],[126.74945,36.82844],[126.74882,36.82818],[126.74802,36.82788],[126.74716,36.82768],[126.74663,36.82763],[126.74598,36.82758],[126.74518,36.8276],[126.73922,36.82829],[126.73822,36.82844],[126.73783,36.82901],[126.73748,36.82954],[126.73704,36.83149],[126.73651,36.83182],[126.73515,36.83213],[126.73481,36.83221],[126.73393,36.83221],[126.73307,36.83181],[126.73168,36.83117],[126.73154,36.83087],[126.73154,36.83053],[126.73134,36.8298],[126.73109,36.82903],[126.73044,36.82867],[126.72997,36.82853],[126.72766,36.82818],[126.72713,36.82815],[126.72694,36.82807],[126.72558,36.82586],[126.72509,36.82466],[126.72215,36.82437],[126.72182,36.82457],[126.72143,36.82453],[126.7198,36.82377],[126.71729,36.82164],[126.71704,36.82141],[126.71631,36.82072],[126.71602,36.82032],[126.71605,36.81917],[126.71613,36.81866],[126.71571,36.81646],[126.71456,36.81629],[126.71375,36.81629],[126.71281,36.81625],[126.71201,36.81536],[126.70911,36.81465],[126.70809,36.81392],[126.70701,36.81241],[126.70685,36.81162],[126.70628,36.81105],[126.70436,36.81019],[126.70317,36.80968],[126.70125,36.80948],[126.70045,36.80958],[126.69992,36.80994],[126.69891,36.81153],[126.69851,36.81273],[126.69829,36.81342],[126.69681,36.81411],[126.69614,36.81363],[126.69485,36.81274],[126.69438,36.81246],[126.69402,36.81226],[126.6923,36.81202],[126.69175,36.81197],[126.69077,36.81192],[126.68911,36.81164],[126.6867,36.81071],[126.68641,36.81048],[126.68592,36.80983],[126.68531,36.80945],[126.68397,36.80967],[126.68343,36.80984],[126.68341,36.80991],[126.68365,36.81083],[126.68387,36.81164],[126.68409,36.81211],[126.68347,36.81308],[126.682,36.81479],[126.6815,36.81519],[126.6807,36.81521],[126.68046,36.81543],[126.68016,36.81764],[126.68063,36.81939],[126.68001,36.82538],[126.67905,36.82564],[126.67846,36.82561],[126.67739,36.82552],[126.67495,36.82619],[126.67431,36.82701],[126.67117,36.83198],[126.67031,36.83399],[126.66996,36.83536],[126.66962,36.83712],[126.66801,36.8407],[126.66661,36.84326],[126.66537,36.84555],[126.66438,36.84817],[126.66388,36.85023],[126.66466,36.85377],[126.66459,36.85551],[126.66448,36.8561],[126.66388,36.85766],[126.66096,36.86507],[126.66014,36.86616],[126.66129,36.86616],[126.66196,36.86633],[126.66262,36.86658],[126.6639,36.86714],[126.66568,36.86808],[126.66582,36.86835],[126.66643,36.86965],[126.66642,36.87137],[126.66618,36.8716],[126.6655,36.87175],[126.66507,36.87203],[126.66476,36.87375],[126.66468,36.87533],[126.66487,36.87558],[126.66442,36.87622],[126.66337,36.87696],[126.66366,36.87713],[126.66423,36.87746],[126.66459,36.87792],[126.66565,36.8794],[126.66491,36.88478],[126.6647,36.88618],[126.66474,36.88673],[126.66505,36.88679],[126.66739,36.8858],[126.66746,36.88574],[126.66771,36.88551],[126.66936,36.884],[126.67001,36.88428],[126.67026,36.88427],[126.67212,36.88399],[126.67274,36.8835],[126.67291,36.88312],[126.6727,36.88243],[126.67212,36.88123],[126.6729,36.88069],[126.67331,36.88062],[126.67404,36.88062],[126.67433,36.88063],[126.67543,36.88091],[126.6763,36.88157],[126.67639,36.8817],[126.67643,36.88179],[126.67645,36.88187],[126.67647,36.88194],[126.6765,36.88204],[126.67654,36.8821],[126.67658,36.88215],[126.67761,36.88321],[126.6825,36.88451],[126.6836,36.88469],[126.68446,36.88474]]]]}},{"type":"Feature","properties":{"code":"44270370","name":"우강면","parent":"44270"},"geometry":{"type":"MultiPolygon","coordinates":[[[[126.8318,36.86196],[126.84712,36.86276],[126.84244,36.84264],[126.84161,36.83953],[126.84022,36.83955],[126.83814,36.83921],[126.83758,36.83912],[126.83647,36.83792],[126.8368,36.83493],[126.83899,36.82901],[126.83956,36.82796],[126.84005,36.82725],[126.84063,36.82644],[126.84082,36.8262],[126.84135,36.82556],[126.84506,36.82128],[126.84533,36.82098],[126.84548,36.82081],[126.84632,36.81997],[126.84689,36.8194],[126.84798,36.81829],[126.84829,36.81785],[126.84871,36.81717],[126.84902,36.81662],[126.84922,36.81622],[126.84939,36.81588],[126.84951,36.81562],[126.84964,36.81532],[126.84973,36.81515],[126.84984,36.81491],[126.85012,36.81433],[126.85116,36.81222],[126.85147,36.81158],[126.85165,36.81125],[126.85187,36.81084],[126.85207,36.81049],[126.85237,36.80998],[126.85272,36.80943],[126.85293,36.80913],[126.85295,36.8091],[126.85315,36.80881],[126.85333,36.80855],[126.85352,36.80831],[126.85459,36.80694],[126.85695,36.80404],[126.85631,36.80376],[126.85535,36.80335],[126.85496,36.8032],[126.8546,36.80307],[126.85454,36.80306],[126.85442,36.80303],[126.84352,36.80173],[126.84331,36.80176],[126.84325,36.80181],[126.84293,36.80211],[126.84275,36.80229],[126.84269,36.80235],[126.84259,36.80238],[126.84114,36.80244],[126.83595,36.79888],[126.83354,36.79973],[126.83336,36.79986],[126.83331,36.7999],[126.83309,36.80007],[126.83276,36.80032],[126.83196,36.8009],[126.83,36.80211],[126.82962,36.80232],[126.82955,36.80235],[126.82952,36.80236],[126.82934,36.80241],[126.82916,36.80242],[126.82911,36.80241],[126.82504,36.80176],[126.8248,36.8017],[126.82469,36.80166],[126.82458,36.80162],[126.82445,36.80156],[126.82432,36.80148],[126.82391,36.80124],[126.8237,36.80114],[126.82362,36.80112],[126.82157,36.8013],[126.82082,36.80148],[126.82045,36.80162],[126.8202,36.80173],[126.81988,36.80187],[126.81963,36.80199],[126.81946,36.80208],[126.81932,36.80219],[126.81913,36.80236],[126.81876,36.80271],[126.81871,36.80275],[126.81862,36.80282],[126.81859,36.80285],[126.81272,36.79878],[126.81088,36.8017],[126.81033,36.80474],[126.80861,36.80776],[126.80666,36.81037],[126.80635,36.81051],[126.80605,36.81061],[126.80568,36.81069],[126.80549,36.81069],[126.80535,36.81065],[126.80489,36.81045],[126.80466,36.81035],[126.80427,36.81021],[126.80422,36.8102],[126.80344,36.8101],[126.80162,36.81001],[126.8008,36.8103],[126.8007,36.81035],[126.80028,36.81056],[126.80004,36.81068],[126.79971,36.81085],[126.79939,36.81101],[126.79931,36.81105],[126.79913,36.81113],[126.79868,36.81133],[126.798,36.81162],[126.79792,36.81163],[126.79735,36.81146],[126.79725,36.81142],[126.79698,36.8113],[126.79686,36.81124],[126.79639,36.81075],[126.79622,36.81054],[126.79613,36.81042],[126.79606,36.81031],[126.79461,36.8085],[126.79274,36.80746],[126.79267,36.80745],[126.79261,36.80745],[126.78974,36.80862],[126.78881,36.80926],[126.78763,36.8089],[126.78619,36.80764],[126.78398,36.80523],[126.78373,36.80505],[126.78337,36.80495],[126.78301,36.80489],[126.78241,36.80488],[126.7816,36.8049],[126.77958,36.80557],[126.77953,36.80567],[126.77889,36.80738],[126.77884,36.80754],[126.7789,36.80779],[126.77894,36.8079],[126.77852,36.80896],[126.77821,36.80972],[126.77784,36.81027],[126.77754,36.81063],[126.77486,36.81045],[126.77167,36.81025],[126.77157,36.81024],[126.77145,36.81024],[126.7713,36.81026],[126.77113,36.81027],[126.77098,36.81029],[126.77091,36.8103],[126.77083,36.81032],[126.7682,36.81097],[126.76612,36.81225],[126.76612,36.81231],[126.76614,36.81263],[126.7661,36.8127],[126.76595,36.81291],[126.76511,36.81374],[126.76418,36.81463],[126.76405,36.81475],[126.76212,36.81634],[126.76082,36.81774],[126.76048,36.81899],[126.76005,36.82068],[126.75994,36.82128],[126.76121,36.82177],[126.76371,36.82467],[126.76379,36.82585],[126.76379,36.82591],[126.76531,36.82927],[126.76772,36.83265],[126.76772,36.83361],[126.76772,36.83368],[126.76631,36.83756],[126.76559,36.83884],[126.764,36.83896],[126.763,36.83895],[126.76138,36.83899],[126.76177,36.84372],[126.76205,36.84505],[126.76217,36.84523],[126.76272,36.84579],[126.76608,36.84798],[126.76713,36.84862],[126.76805,36.84907],[126.76847,36.84883],[126.77026,36.84781],[126.77052,36.84767],[126.77094,36.84676],[126.77128,36.84591],[126.77135,36.84426],[126.77112,36.84239],[126.77108,36.84221],[126.77099,36.84128],[126.77107,36.84124],[126.77375,36.84044],[126.77384,36.84042],[126.77395,36.8404],[126.77405,36.84039],[126.7774,36.84044],[126.77755,36.84045],[126.77772,36.84048],[126.7778,36.84056],[126.77785,36.84061],[126.77881,36.84178],[126.77899,36.842],[126.77988,36.84312],[126.77999,36.84321],[126.78202,36.84446],[126.7823,36.84462],[126.78259,36.84478],[126.78289,36.84493],[126.78979,36.84849],[126.79371,36.8498],[126.79373,36.8503],[126.79373,36.85065],[126.79373,36.85072],[126.7937,36.85086],[126.79357,36.85148],[126.79341,36.85193],[126.79325,36.85236],[126.79299,36.85285],[126.79275,36.8535],[126.79255,36.85413],[126.79248,36.85439],[126.79245,36.85452],[126.79245,36.8546],[126.79245,36.85474],[126.79249,36.85488],[126.79293,36.85624],[126.79301,36.85642],[126.79521,36.86021],[126.79735,36.86217],[126.79758,36.86237],[126.79816,36.86281],[126.79821,36.86283],[126.79827,36.86284],[126.79844,36.86287],[126.80698,36.86434],[126.80719,36.86436],[126.80725,36.86436],[126.80747,36.86435],[126.80807,36.8643],[126.80817,36.86429],[126.80844,36.86423],[126.80853,36.8642],[126.80876,36.86413],[126.80912,36.864],[126.80923,36.86395],[126.80926,36.86393],[126.80933,36.86387],[126.80946,36.86376],[126.80953,36.86367],[126.80962,36.86353],[126.80965,36.86334],[126.80963,36.86309],[126.8096,36.86302],[126.80843,36.86196],[126.80821,36.86162],[126.8082,36.86159],[126.80815,36.86147],[126.80814,36.8613],[126.80818,36.86114],[126.80828,36.86093],[126.80837,36.86084],[126.80851,36.86074],[126.80857,36.86071],[126.81205,36.85888],[126.81215,36.85885],[126.8122,36.85884],[126.8124,36.8588],[126.81263,36.85878],[126.81289,36.85879],[126.81322,36.85879],[126.8139,36.8589],[126.81424,36.85898],[126.81439,36.85903],[126.81458,36.85909],[126.81514,36.85931],[126.81983,36.86127],[126.8264,36.86202],[126.82928,36.86049],[126.83087,36.85964],[126.8318,36.86196]]]]}},{"type":"Feature","properties":{"code":"44270380","name":"신평면","parent":"44270"},"geometry":{"type":"MultiPolygon","coordinates":[[[[126.8318,36.86196],[126.83087,36.85964],[126.82928,36.86049],[126.8264,36.86202],[126.81983,36.86127],[126.81514,36.85931],[126.81458,36.85909],[126.81439,36.85903],[126.81424,36.85898],[126.8139,36.8589],[126.81322,36.85879],[126.81289,36.85879],[126.81263,36.85878],[126.8124,36.8588],[126.8122,36.85884],[126.81215,36.85885],[126.81205,36.85888],[126.80857,36.86071],[126.80851,36.86074],[126.80837,36.86084],[126.80828,36.86093],[126.80818,36.86114],[126.80814,36.8613],[126.80815,36.86147],[126.8082,36.86159],[126.80821,36.86162],[126.80843,36.86196],[126.8096,36.86302],[126.80963,36.86309],[126.80965,36.86334],[126.80962,36.86353],[126.80953,36.86367],[126.80946,36.86376],[126.80933,36.86387],[126.80926,36.86393],[126.80923,36.86395],[126.80912,36.864],[126.80876,36.86413],[126.80853,36.8642],[126.80844,36.86423],[126.80817,36.86429],[126.80807,36.8643],[126.80747,36.86435],[126.80725,36.86436],[126.80719,36.86436],[126.80698,36.86434],[126.79844,36.86287],[126.79827,36.86284],[126.79821,36.86283],[126.79816,36.86281],[126.79758,36.86237],[126.79735,36.86217],[126.79521,36.86021],[126.79301,36.85642],[126.79293,36.85624],[126.79249,36.85488],[126.79245,36.85474],[126.79245,36.8546],[126.79245,36.85452],[126.79248,36.85439],[126.79255,36.85413],[126.79275,36.8535],[126.79299,36.85285],[126.79325,36.85236],[126.79341,36.85193],[126.79357,36.85148],[126.7937,36.85086],[126.79373,36.85072],[126.79373,36.85065],[126.79373,36.8503],[126.79371,36.8498],[126.78979,36.84849],[126.78289,36.84493],[126.78259,36.84478],[126.7823,36.84462],[126.78202,36.84446],[126.77999,36.84321],[126.77988,36.84312],[126.77899,36.842],[126.77881,36.84178],[126.77785,36.84061],[126.7778,36.84056],[126.77772,36.84048],[126.77755,36.84045],[126.7774,36.84044],[126.77405,36.84039],[126.77395,36.8404],[126.77384,36.84042],[126.77375,36.84044],[126.77107,36.84124],[126.77099,36.84128],[126.77108,36.84221],[126.77112,36.84239],[126.77135,36.84426],[126.77128,36.84591],[126.77094,36.84676],[126.77052,36.84767],[126.77026,36.84781],[126.76847,36.84883],[126.76805,36.84907],[126.76832,36.84982],[126.76848,36.85053],[126.76844,36.85064],[126.76823,36.8508],[126.76772,36.85118],[126.76702,36.85163],[126.76653,36.85187],[126.766,36.8521],[126.76301,36.85257],[126.76116,36.85263],[126.76028,36.85244],[126.75908,36.85225],[126.75844,36.85225],[126.75662,36.85261],[126.75369,36.85385],[126.75346,36.85403],[126.75346,36.85422],[126.75084,36.85628],[126.74999,36.85635],[126.74878,36.85657],[126.74872,36.85658],[126.74854,36.85664],[126.74768,36.85726],[126.74739,36.85805],[126.74685,36.86058],[126.74617,36.86228],[126.74483,36.86452],[126.74303,36.86508],[126.74262,36.86527],[126.74251,36.86535],[126.74211,36.86573],[126.74184,36.86604],[126.74176,36.86614],[126.74163,36.86631],[126.74136,36.86667],[126.74102,36.86719],[126.74096,36.86729],[126.7409,36.86756],[126.74076,36.86778],[126.74089,36.86851],[126.743,36.87405],[126.74312,36.87426],[126.74344,36.87452],[126.74446,36.87532],[126.74546,36.8761],[126.7468,36.87698],[126.74793,36.87748],[126.74844,36.87763],[126.74871,36.8777],[126.74936,36.87782],[126.74858,36.88053],[126.74706,36.88055],[126.74361,36.88101],[126.74175,36.88135],[126.74126,36.88145],[126.74113,36.88151],[126.73638,36.88423],[126.73298,36.88664],[126.73295,36.88671],[126.73281,36.88707],[126.73271,36.8873],[126.73267,36.88735],[126.73263,36.88741],[126.73256,36.88749],[126.73246,36.88756],[126.72965,36.88909],[126.72951,36.88913],[126.72838,36.88927],[126.72159,36.8955],[126.72141,36.89571],[126.72109,36.89607],[126.72097,36.89621],[126.72091,36.89633],[126.7209,36.89651],[126.72094,36.8968],[126.72097,36.89699],[126.72141,36.89889],[126.72306,36.90194],[126.72561,36.90181],[126.72775,36.90115],[126.7278,36.90111],[126.72783,36.90107],[126.72822,36.89976],[126.72826,36.89955],[126.7282,36.89907],[126.72815,36.89889],[126.72805,36.89866],[126.72795,36.89837],[126.72794,36.89833],[126.72855,36.89658],[126.73292,36.89553],[126.73296,36.89554],[126.73478,36.89597],[126.73492,36.896],[126.73505,36.89604],[126.73514,36.89609],[126.73518,36.89613],[126.73615,36.90008],[126.73653,36.90546],[126.73658,36.90658],[126.73663,36.90792],[126.7366,36.90803],[126.73655,36.90806],[126.73646,36.9081],[126.7363,36.90878],[126.73632,36.909],[126.73645,36.90941],[126.73667,36.90976],[126.73675,36.90987],[126.73707,36.91025],[126.73742,36.91054],[126.73759,36.91067],[126.73776,36.91077],[126.73793,36.91087],[126.73826,36.91099],[126.73945,36.91135],[126.73962,36.91137],[126.74545,36.91097],[126.74584,36.91094],[126.74598,36.9109],[126.74617,36.9108],[126.74864,36.90905],[126.75078,36.90689],[126.75092,36.90652],[126.75122,36.9058],[126.75126,36.90571],[126.75141,36.90554],[126.75582,36.90141],[126.75607,36.90125],[126.75862,36.89976],[126.75971,36.89922],[126.76356,36.89758],[126.76415,36.89772],[126.76428,36.89776],[126.76444,36.89782],[126.76995,36.90071],[126.77335,36.90313],[126.7766,36.90785],[126.77944,36.91234],[126.7796,36.91255],[126.77977,36.91271],[126.77993,36.9128],[126.78293,36.91418],[126.78303,36.91423],[126.78319,36.91429],[126.78343,36.91438],[126.78379,36.91447],[126.78478,36.9147],[126.78557,36.91484],[126.78643,36.91489],[126.78686,36.91493],[126.78708,36.91499],[126.78844,36.91554],[126.78875,36.91569],[126.78891,36.9158],[126.79244,36.91842],[126.79477,36.9202],[126.79792,36.92284],[126.79856,36.92342],[126.79915,36.92399],[126.7993,36.92414],[126.80036,36.92547],[126.80084,36.92611],[126.80219,36.9245],[126.80367,36.92486],[126.80577,36.92996],[126.80615,36.93066],[126.80661,36.93085],[126.80719,36.93073],[126.81066,36.92776],[126.81133,36.92681],[126.81235,36.92516],[126.81276,36.92388],[126.81317,36.9216],[126.81371,36.91659],[126.81525,36.90416],[126.81559,36.90319],[126.81693,36.89886],[126.81651,36.89803],[126.8166,36.89669],[126.82018,36.89331],[126.8235,36.89119],[126.82463,36.89145],[126.8248,36.89137],[126.82567,36.89095],[126.82692,36.89035],[126.82726,36.89005],[126.82709,36.88918],[126.82686,36.88854],[126.82664,36.88791],[126.82647,36.88665],[126.82727,36.88364],[126.82736,36.87896],[126.82732,36.87825],[126.82388,36.87822],[126.8228,36.87798],[126.82271,36.87731],[126.82288,36.87688],[126.82338,36.87681],[126.82446,36.87685],[126.82479,36.87678],[126.82741,36.87602],[126.82795,36.87575],[126.82833,36.87502],[126.82891,36.87335],[126.8318,36.86196]]],[[[126.82086,36.94327],[126.8212,36.94234],[126.81924,36.94352],[126.81896,36.94378],[126.81856,36.94433],[126.81825,36.94499],[126.81815,36.94545],[126.81819,36.94598],[126.81848,36.94632],[126.81884,36.94632],[126.82033,36.94515],[126.82063,36.94484],[126.82086,36.94327]]],[[[126.81113,36.94221],[126.8096,36.94083],[126.80911,36.94085],[126.80727,36.94103],[126.80716,36.94105],[126.80705,36.94109],[126.80695,36.94113],[126.80618,36.9415],[126.80609,36.94156],[126.806,36.94166],[126.80468,36.94544],[126.80457,36.94604],[126.80458,36.94612],[126.80463,36.94631],[126.80472,36.94645],[126.80484,36.94664],[126.80493,36.94672],[126.8062,36.94749],[126.80633,36.94754],[126.8065,36.94754],[126.80662,36.94746],[126.80682,36.94719],[126.80865,36.94553],[126.8087,36.94548],[126.80883,36.94543],[126.81034,36.94478],[126.81039,36.94476],[126.81045,36.94475],[126.81107,36.94467],[126.81116,36.94464],[126.81127,36.9446],[126.81174,36.94438],[126.81188,36.94429],[126.81195,36.94421],[126.81201,36.94411],[126.81203,36.94403],[126.8121,36.94375],[126.81209,36.94367],[126.81208,36.94356],[126.812,36.94338],[126.81187,36.94316],[126.81177,36.94299],[126.81165,36.94279],[126.81139,36.94247],[126.81128,36.94236],[126.81113,36.94221]]],[[[126.82584,36.95861],[126.83547,36.94504],[126.83818,36.94568],[126.84181,36.94058],[126.83203,36.93891],[126.83086,36.94269],[126.82403,36.95297],[126.82385,36.95744],[126.82584,36.95861]]]]}},{"type":"Feature","properties":{"code":"44270390","name":"송산면","parent":"44270"},"geometry":{"type":"MultiPolygon","coordinates":[[[[126.71858,36.99234],[126.71871,36.9889],[126.71894,36.98574],[126.71901,36.9852],[126.71933,36.9843],[126.7198,36.98318],[126.72038,36.98162],[126.72052,36.9809],[126.72048,36.98045],[126.72016,36.97996],[126.71992,36.97955],[126.71969,36.97901],[126.71955,36.97843],[126.71953,36.97827],[126.71947,36.97786],[126.71941,36.97713],[126.71941,36.97646],[126.71946,36.97576],[126.71952,36.97548],[126.7204,36.96945],[126.72049,36.96888],[126.72047,36.96489],[126.7203,36.96385],[126.72089,36.96151],[126.72192,36.95932],[126.72154,36.95472],[126.71981,36.94886],[126.71952,36.94846],[126.7191,36.94802],[126.71851,36.94767],[126.71798,36.94741],[126.71733,36.94725],[126.71669,36.94705],[126.71597,36.94651],[126.71309,36.94367],[126.71271,36.94326],[126.71246,36.94269],[126.71211,36.9406],[126.71194,36.93961],[126.71579,36.93444],[126.7162,36.93407],[126.71626,36.93404],[126.71654,36.93392],[126.71669,36.93383],[126.71672,36.93381],[126.71678,36.93374],[126.71688,36.93364],[126.71695,36.93347],[126.71695,36.93336],[126.71685,36.93299],[126.71583,36.92994],[126.71564,36.92957],[126.71509,36.92895],[126.71472,36.9287],[126.71414,36.9284],[126.7137,36.9282],[126.70907,36.92676],[126.70438,36.92591],[126.70342,36.92548],[126.70332,36.92541],[126.70213,36.9239],[126.7014,36.92292],[126.70126,36.92274],[126.70104,36.92237],[126.70026,36.92085],[126.69942,36.91987],[126.69888,36.9193],[126.69757,36.91839],[126.69306,36.91531],[126.69079,36.91384],[126.69071,36.9138],[126.68969,36.91344],[126.68842,36.91318],[126.68797,36.91153],[126.6877,36.90889],[126.68755,36.90879],[126.68462,36.90678],[126.68451,36.90672],[126.68439,36.9067],[126.68436,36.9067],[126.68427,36.90667],[126.6842,36.90664],[126.68402,36.90654],[126.68392,36.90645],[126.68383,36.90633],[126.6838,36.90616],[126.68379,36.90611],[126.68377,36.90599],[126.68393,36.90482],[126.68262,36.90616],[126.68257,36.90622],[126.67729,36.9098],[126.6771,36.90991],[126.677,36.90995],[126.67387,36.91092],[126.66938,36.91391],[126.66725,36.91627],[126.66539,36.91718],[126.66337,36.91786],[126.66324,36.9179],[126.66043,36.92092],[126.66032,36.92104],[126.66017,36.92116],[126.66013,36.92118],[126.66005,36.92123],[126.65908,36.92178],[126.65899,36.92182],[126.65895,36.92184],[126.6589,36.92186],[126.6588,36.9219],[126.65866,36.92195],[126.6586,36.92197],[126.65842,36.92201],[126.65821,36.92204],[126.65813,36.92205],[126.65784,36.92208],[126.65703,36.92217],[126.6568,36.92218],[126.656,36.9222],[126.65594,36.9222],[126.65506,36.92204],[126.65481,36.922],[126.65466,36.92196],[126.65212,36.92132],[126.65127,36.92106],[126.65092,36.92094],[126.6507,36.92053],[126.65012,36.91945],[126.65004,36.91927],[126.64996,36.91907],[126.64991,36.91895],[126.64988,36.9189],[126.64979,36.91881],[126.6488,36.91802],[126.64828,36.91759],[126.64742,36.91709],[126.64733,36.91703],[126.64721,36.917],[126.64546,36.91689],[126.64369,36.91686],[126.63772,36.91793],[126.63714,36.91803],[126.63704,36.91805],[126.63678,36.91811],[126.63673,36.91813],[126.63662,36.91818],[126.63653,36.91825],[126.63647,36.91833],[126.63642,36.91839],[126.63399,36.92148],[126.63248,36.92344],[126.63245,36.92347],[126.63242,36.92355],[126.6322,36.92787],[126.63219,36.92868],[126.63285,36.93068],[126.62985,36.9306],[126.63006,36.93083],[126.63024,36.93103],[126.63033,36.93124],[126.63035,36.93143],[126.63028,36.93166],[126.62992,36.9323],[126.62976,36.93258],[126.62948,36.93279],[126.62911,36.93299],[126.62865,36.93317],[126.62808,36.93336],[126.62745,36.93368],[126.62708,36.93407],[126.62689,36.93438],[126.62687,36.93462],[126.62689,36.93488],[126.62703,36.93515],[126.62856,36.93806],[126.62998,36.94062],[126.63023,36.94094],[126.63034,36.94125],[126.63043,36.9417],[126.63041,36.94201],[126.63032,36.94228],[126.63014,36.94252],[126.62982,36.94265],[126.62931,36.94271],[126.62876,36.94268],[126.62792,36.94268],[126.62703,36.94278],[126.62625,36.94298],[126.62558,36.94324],[126.6251,36.94358],[126.62483,36.94387],[126.62463,36.94422],[126.62452,36.94459],[126.62452,36.94494],[126.62461,36.94536],[126.62497,36.94583],[126.6256,36.94634],[126.62724,36.94751],[126.62833,36.94802],[126.62925,36.94838],[126.62993,36.94855],[126.63062,36.94861],[126.63131,36.94869],[126.63202,36.94888],[126.63278,36.94914],[126.63339,36.94942],[126.63389,36.94982],[126.63421,36.95027],[126.63434,36.95094],[126.63444,36.9518],[126.63441,36.95251],[126.6343,36.95276],[126.62722,36.9543],[126.62294,36.95333],[126.6229,36.95332],[126.62286,36.95328],[126.62262,36.95295],[126.62265,36.95395],[126.62473,36.95388],[126.62642,36.95607],[126.62636,36.95648],[126.62607,36.95707],[126.62616,36.95823],[126.62644,36.95903],[126.62685,36.9596],[126.62765,36.95988],[126.62848,36.96083],[126.62947,36.96217],[126.63097,36.96425],[126.63226,36.96821],[126.63779,36.98224],[126.63871,36.99042],[126.63958,36.99809],[126.64811,36.9995],[126.66791,36.99868],[126.67523,36.99838],[126.68216,36.99821],[126.68366,36.99821],[126.68377,36.99821],[126.68376,36.99845],[126.68578,36.9995],[126.68591,36.99953],[126.69036,36.99994],[126.69499,37.00025],[126.69515,37.00024],[126.69532,37.00018],[126.69822,36.99933],[126.70089,36.99798],[126.70099,36.99793],[126.70107,36.99786],[126.70106,36.99774],[126.70057,36.99655],[126.70044,36.99649],[126.70031,36.99645],[126.70018,36.99645],[126.70011,36.99581],[126.70462,36.99955],[126.71251,36.99589],[126.71858,36.99306],[126.71858,36.99234]]]]}},{"type":"Feature","properties":{"code":"44270510","name":"당진1동","parent":"44270"},"geometry":{"type":"MultiPolygon","coordinates":[[[[126.6647,36.88618],[126.66491,36.88478],[126.66565,36.8794],[126.66459,36.87792],[126.66423,36.87746],[126.66366,36.87713],[126.66337,36.87696],[126.66067,36.87804],[126.6602,36.87813],[126.66009,36.87811],[126.65979,36.87806],[126.6596,36.87802],[126.65914,36.87783],[126.65905,36.8778],[126.65878,36.87774],[126.6586,36.87771],[126.65794,36.87769],[126.6576,36.87782],[126.65753,36.87784],[126.65711,36.87808],[126.65687,36.87838],[126.65402,36.88197],[126.65401,36.882],[126.6538,36.88239],[126.65371,36.88258],[126.6537,36.88273],[126.65369,36.88308],[126.65381,36.88396],[126.65384,36.88415],[126.65417,36.88484],[126.65435,36.88526],[126.65418,36.88569],[126.65368,36.88604],[126.65361,36.88606],[126.65317,36.88625],[126.65223,36.8864],[126.65115,36.88654],[126.65054,36.88662],[126.64609,36.88545],[126.64561,36.88527],[126.64533,36.88509],[126.64528,36.88506],[126.64492,36.88478],[126.64464,36.8846],[126.64446,36.88448],[126.64411,36.88435],[126.64394,36.88428],[126.64337,36.88427],[126.64318,36.88434],[126.64175,36.88484],[126.64157,36.88491],[126.64146,36.88502],[126.64075,36.88583],[126.64057,36.88607],[126.64039,36.88632],[126.63718,36.88734],[126.63668,36.88749],[126.63594,36.88767],[126.63581,36.88771],[126.63572,36.88771],[126.63562,36.88772],[126.63539,36.88771],[126.63524,36.88771],[126.63506,36.88765],[126.63426,36.8874],[126.63391,36.88729],[126.6336,36.88723],[126.6331,36.88714],[126.63262,36.88711],[126.6324,36.8871],[126.63216,36.8871],[126.6318,36.88716],[126.63155,36.88723],[126.63133,36.88733],[126.63064,36.88771],[126.62742,36.88974],[126.62711,36.89002],[126.62696,36.89016],[126.62597,36.89186],[126.62553,36.89287],[126.62417,36.89766],[126.62405,36.89848],[126.62415,36.8994],[126.63115,36.90261],[126.63384,36.90093],[126.63689,36.90107],[126.6389,36.89929],[126.64052,36.89785],[126.64082,36.89763],[126.64256,36.89637],[126.64287,36.8964],[126.64315,36.89645],[126.64342,36.89655],[126.64354,36.89665],[126.64369,36.89693],[126.64389,36.89786],[126.6442,36.90022],[126.64511,36.9036],[126.64542,36.90396],[126.64567,36.90419],[126.6475,36.90593],[126.64955,36.90619],[126.64993,36.90612],[126.65071,36.90612],[126.65085,36.90611],[126.65104,36.90607],[126.65129,36.90599],[126.65565,36.90429],[126.65829,36.90314],[126.65774,36.9006],[126.65749,36.89973],[126.65651,36.89504],[126.65603,36.89268],[126.65608,36.89235],[126.6563,36.89223],[126.65679,36.89209],[126.65761,36.89187],[126.65833,36.89172],[126.6592,36.89161],[126.6598,36.89138],[126.65993,36.89113],[126.66009,36.89013],[126.6599,36.88938],[126.6595,36.88908],[126.65934,36.88884],[126.65937,36.88831],[126.6595,36.88784],[126.65966,36.88756],[126.66009,36.88698],[126.66042,36.88691],[126.66161,36.88683],[126.66363,36.88643],[126.6647,36.88618]]]]}},{"type":"Feature","properties":{"code":"44270520","name":"당진2동","parent":"44270"},"geometry":{"type":"MultiPolygon","coordinates":[[[[126.62415,36.8994],[126.62405,36.89848],[126.62417,36.89766],[126.62553,36.89287],[126.62597,36.89186],[126.62696,36.89016],[126.62711,36.89002],[126.62742,36.88974],[126.63064,36.88771],[126.63133,36.88733],[126.63155,36.88723],[126.6318,36.88716],[126.63216,36.8871],[126.6324,36.8871],[126.63262,36.88711],[126.6331,36.88714],[126.6336,36.88723],[126.63391,36.88729],[126.63426,36.8874],[126.63506,36.88765],[126.63524,36.88771],[126.63539,36.88771],[126.63562,36.88772],[126.63572,36.88771],[126.63581,36.88771],[126.63594,36.88767],[126.63668,36.88749],[126.63718,36.88734],[126.64039,36.88632],[126.64057,36.88607],[126.64075,36.88583],[126.64146,36.88502],[126.64157,36.88491],[126.64175,36.88484],[126.64318,36.88434],[126.64337,36.88427],[126.64394,36.88428],[126.64411,36.88435],[126.64446,36.88448],[126.64464,36.8846],[126.64492,36.88478],[126.64528,36.88506],[126.64533,36.88509],[126.64561,36.88527],[126.64609,36.88545],[126.65054,36.88662],[126.65115,36.88654],[126.65223,36.8864],[126.65317,36.88625],[126.65361,36.88606],[126.65368,36.88604],[126.65418,36.88569],[126.65435,36.88526],[126.65417,36.88484],[126.65384,36.88415],[126.65381,36.88396],[126.65369,36.88308],[126.6537,36.88273],[126.65371,36.88258],[126.6538,36.88239],[126.65401,36.882],[126.65402,36.88197],[126.65687,36.87838],[126.65711,36.87808],[126.65753,36.87784],[126.6576,36.87782],[126.65794,36.87769],[126.6586,36.87771],[126.65878,36.87774],[126.65905,36.8778],[126.65914,36.87783],[126.6596,36.87802],[126.65979,36.87806],[126.66009,36.87811],[126.6602,36.87813],[126.66067,36.87804],[126.66337,36.87696],[126.66442,36.87622],[126.66487,36.87558],[126.66468,36.87533],[126.66476,36.87375],[126.66507,36.87203],[126.6655,36.87175],[126.66618,36.8716],[126.66642,36.87137],[126.66643,36.86965],[126.66582,36.86835],[126.66568,36.86808],[126.6639,36.86714],[126.66262,36.86658],[126.66196,36.86633],[126.66129,36.86616],[126.66014,36.86616],[126.65657,36.86586],[126.65528,36.86514],[126.65514,36.86504],[126.65503,36.8649],[126.65498,36.86452],[126.65491,36.86403],[126.6548,36.86315],[126.65412,36.86133],[126.65307,36.86143],[126.65232,36.86147],[126.65183,36.86147],[126.65146,36.86141],[126.65137,36.86137],[126.65134,36.86135],[126.64954,36.85981],[126.64643,36.85635],[126.64633,36.85455],[126.6458,36.85156],[126.64566,36.85135],[126.64542,36.85107],[126.64509,36.85076],[126.64487,36.8506],[126.64216,36.8488],[126.63908,36.84717],[126.63718,36.84623],[126.63713,36.84619],[126.63702,36.8461],[126.63675,36.84582],[126.63667,36.84572],[126.63656,36.84546],[126.63651,36.8451],[126.63628,36.84473],[126.63587,36.8444],[126.6355,36.84426],[126.63096,36.84268],[126.627,36.84041],[126.6267,36.84027],[126.62435,36.83954],[126.62429,36.83954],[126.62409,36.83953],[126.62353,36.83958],[126.623,36.83967],[126.62294,36.83968],[126.62191,36.83984],[126.62163,36.83984],[126.62117,36.83976],[126.62079,36.83964],[126.61841,36.83846],[126.61816,36.83829],[126.6178,36.83796],[126.61766,36.83781],[126.61732,36.83735],[126.61722,36.83712],[126.61721,36.83707],[126.61719,36.8369],[126.61727,36.83634],[126.61761,36.83558],[126.61782,36.83523],[126.61925,36.83309],[126.62012,36.83208],[126.62023,36.83194],[126.62032,36.83177],[126.62036,36.83131],[126.62036,36.83087],[126.6203,36.83064],[126.61995,36.83015],[126.61973,36.82992],[126.61955,36.82982],[126.61931,36.82967],[126.61869,36.82927],[126.61829,36.82897],[126.61823,36.82892],[126.61822,36.82884],[126.61825,36.82878],[126.61928,36.82788],[126.62069,36.82755],[126.62163,36.82739],[126.62205,36.82734],[126.6224,36.82725],[126.62272,36.82714],[126.62294,36.82705],[126.62298,36.82704],[126.62304,36.82698],[126.62633,36.8238],[126.6264,36.82314],[126.62665,36.81901],[126.62647,36.81443],[126.62642,36.81427],[126.62629,36.81398],[126.62615,36.81364],[126.6261,36.81356],[126.62603,36.81348],[126.62596,36.81342],[126.62384,36.81279],[126.61745,36.81243],[126.61727,36.81244],[126.61701,36.81255],[126.61599,36.81347],[126.6148,36.81431],[126.61458,36.81444],[126.60959,36.81636],[126.60699,36.81701],[126.60682,36.81703],[126.60665,36.81703],[126.60631,36.81697],[126.60511,36.81675],[126.60334,36.8166],[126.60293,36.81662],[126.60261,36.81666],[126.60214,36.81675],[126.60177,36.81684],[126.60073,36.81716],[126.60063,36.81724],[126.59993,36.8179],[126.59976,36.81807],[126.5982,36.82003],[126.59807,36.8202],[126.59802,36.82027],[126.59802,36.82042],[126.59825,36.82076],[126.59852,36.8211],[126.59878,36.82144],[126.599,36.82176],[126.59922,36.82215],[126.59935,36.82251],[126.59937,36.8227],[126.59942,36.82803],[126.59928,36.82887],[126.59891,36.8299],[126.59883,36.83002],[126.59871,36.83019],[126.59847,36.83037],[126.59839,36.83041],[126.59628,36.83088],[126.59498,36.83114],[126.59488,36.8313],[126.59499,36.83239],[126.59543,36.83397],[126.59705,36.8346],[126.59872,36.83564],[126.59968,36.83811],[126.60054,36.84009],[126.60068,36.84025],[126.60093,36.84046],[126.60102,36.84052],[126.6043,36.84354],[126.60548,36.84546],[126.61061,36.85014],[126.61097,36.85042],[126.61124,36.85077],[126.61134,36.85099],[126.61138,36.85113],[126.6114,36.85132],[126.61142,36.85155],[126.61142,36.85175],[126.61141,36.85203],[126.6114,36.85222],[126.61132,36.85265],[126.61083,36.85441],[126.61055,36.85531],[126.61037,36.85633],[126.61052,36.85682],[126.61114,36.85746],[126.61156,36.85797],[126.61168,36.8585],[126.61192,36.86018],[126.61201,36.86186],[126.61189,36.8624],[126.61026,36.86854],[126.60989,36.86876],[126.60845,36.86959],[126.6081,36.86979],[126.60728,36.87001],[126.60678,36.87006],[126.6064,36.87025],[126.60441,36.87257],[126.60306,36.87447],[126.60298,36.87467],[126.60278,36.87525],[126.60015,36.88449],[126.60014,36.88472],[126.60018,36.88496],[126.60043,36.88638],[126.60047,36.88653],[126.60053,36.88661],[126.60067,36.88682],[126.60306,36.88754],[126.60443,36.88781],[126.60463,36.88787],[126.60472,36.88792],[126.60513,36.88823],[126.60582,36.88888],[126.60592,36.88905],[126.60722,36.89422],[126.60726,36.89452],[126.60752,36.89729],[126.60765,36.89869],[126.60865,36.90169],[126.61042,36.90411],[126.61164,36.90748],[126.61168,36.90775],[126.6118,36.908],[126.61183,36.90806],[126.6119,36.90813],[126.61217,36.90839],[126.61225,36.90844],[126.61255,36.90862],[126.61732,36.91103],[126.61745,36.91109],[126.61786,36.91125],[126.61807,36.91128],[126.61828,36.91127],[126.61884,36.91111],[126.61913,36.91109],[126.61935,36.91113],[126.61941,36.91114],[126.61975,36.91129],[126.61997,36.91152],[126.62031,36.91195],[126.62035,36.91204],[126.62022,36.91118],[126.61815,36.90897],[126.61804,36.9088],[126.61774,36.90763],[126.61776,36.90753],[126.61781,36.90748],[126.61794,36.90748],[126.61904,36.90777],[126.61914,36.90783],[126.61975,36.90826],[126.62099,36.90819],[126.62221,36.90764],[126.62349,36.90666],[126.6248,36.90482],[126.62528,36.90395],[126.62473,36.90136],[126.62471,36.90128],[126.62415,36.8994]]]]}},{"type":"Feature","properties":{"code":"44270530","name":"당진3동","parent":"44270"},"geometry":{"type":"MultiPolygon","coordinates":[[[[126.68393,36.90482],[126.68436,36.90484],[126.68447,36.90485],[126.68458,36.90484],[126.68491,36.90483],[126.68519,36.90482],[126.6853,36.90481],[126.68555,36.90474],[126.68568,36.90468],[126.68582,36.9046],[126.68589,36.90452],[126.68776,36.9021],[126.6871,36.9],[126.68673,36.89769],[126.68615,36.89307],[126.68619,36.89151],[126.68462,36.88505],[126.68446,36.88474],[126.6836,36.88469],[126.6825,36.88451],[126.67761,36.88321],[126.67658,36.88215],[126.67654,36.8821],[126.6765,36.88204],[126.67647,36.88194],[126.67645,36.88187],[126.67643,36.88179],[126.67639,36.8817],[126.6763,36.88157],[126.67543,36.88091],[126.67433,36.88063],[126.67404,36.88062],[126.67331,36.88062],[126.6729,36.88069],[126.67212,36.88123],[126.6727,36.88243],[126.67291,36.88312],[126.67274,36.8835],[126.67212,36.88399],[126.67026,36.88427],[126.67001,36.88428],[126.66936,36.884],[126.66771,36.88551],[126.66746,36.88574],[126.66739,36.8858],[126.66505,36.88679],[126.66474,36.88673],[126.6647,36.88618],[126.66363,36.88643],[126.66161,36.88683],[126.66042,36.88691],[126.66009,36.88698],[126.65966,36.88756],[126.6595,36.88784],[126.65937,36.88831],[126.65934,36.88884],[126.6595,36.88908],[126.6599,36.88938],[126.66009,36.89013],[126.65993,36.89113],[126.6598,36.89138],[126.6592,36.89161],[126.65833,36.89172],[126.65761,36.89187],[126.65679,36.89209],[126.6563,36.89223],[126.65608,36.89235],[126.65603,36.89268],[126.65651,36.89504],[126.65749,36.89973],[126.65774,36.9006],[126.65829,36.90314],[126.65565,36.90429],[126.65129,36.90599],[126.65104,36.90607],[126.65085,36.90611],[126.65071,36.90612],[126.64993,36.90612],[126.64955,36.90619],[126.6475,36.90593],[126.64567,36.90419],[126.64542,36.90396],[126.64511,36.9036],[126.6442,36.90022],[126.64389,36.89786],[126.64369,36.89693],[126.64354,36.89665],[126.64342,36.89655],[126.64315,36.89645],[126.64287,36.8964],[126.64256,36.89637],[126.64082,36.89763],[126.64052,36.89785],[126.6389,36.89929],[126.63689,36.90107],[126.63384,36.90093],[126.63115,36.90261],[126.62415,36.8994],[126.62471,36.90128],[126.62473,36.90136],[126.62528,36.90395],[126.6248,36.90482],[126.62349,36.90666],[126.62221,36.90764],[126.62099,36.90819],[126.61975,36.90826],[126.61914,36.90783],[126.61904,36.90777],[126.61794,36.90748],[126.61781,36.90748],[126.61776,36.90753],[126.61774,36.90763],[126.61804,36.9088],[126.61815,36.90897],[126.62022,36.91118],[126.62035,36.91204],[126.62054,36.91334],[126.62034,36.91527],[126.62032,36.91561],[126.62036,36.9168],[126.62044,36.9172],[126.62062,36.91745],[126.62079,36.91754],[126.62134,36.91769],[126.62198,36.91778],[126.62252,36.91778],[126.62284,36.91775],[126.62294,36.91774],[126.6233,36.9177],[126.62425,36.91768],[126.6247,36.91771],[126.62495,36.91773],[126.62514,36.91776],[126.62528,36.91782],[126.62533,36.91788],[126.62546,36.91805],[126.62562,36.91833],[126.6257,36.91858],[126.62619,36.92061],[126.62656,36.9232],[126.62662,36.92504],[126.62655,36.92611],[126.62649,36.92628],[126.62642,36.92639],[126.62632,36.92648],[126.62613,36.92657],[126.62591,36.92668],[126.62583,36.92671],[126.62577,36.92675],[126.62565,36.92683],[126.62551,36.92693],[126.62544,36.92698],[126.6252,36.92718],[126.6238,36.92849],[126.62361,36.92888],[126.6234,36.92929],[126.62349,36.92945],[126.62358,36.92958],[126.62389,36.92981],[126.62399,36.92986],[126.62432,36.93002],[126.62447,36.9301],[126.62452,36.93012],[126.62546,36.93041],[126.62585,36.9305],[126.62598,36.93052],[126.62651,36.9306],[126.62691,36.93059],[126.62702,36.93057],[126.62737,36.93052],[126.62795,36.9303],[126.62813,36.93024],[126.6283,36.93021],[126.62873,36.93029],[126.62916,36.93037],[126.6296,36.93049],[126.62985,36.9306],[126.63285,36.93068],[126.63219,36.92868],[126.6322,36.92787],[126.63242,36.92355],[126.63245,36.92347],[126.63248,36.92344],[126.63399,36.92148],[126.63642,36.91839],[126.63647,36.91833],[126.63653,36.91825],[126.63662,36.91818],[126.63673,36.91813],[126.63678,36.91811],[126.63704,36.91805],[126.63714,36.91803],[126.63772,36.91793],[126.64369,36.91686],[126.64546,36.91689],[126.64721,36.917],[126.64733,36.91703],[126.64742,36.91709],[126.64828,36.91759],[126.6488,36.91802],[126.64979,36.91881],[126.64988,36.9189],[126.64991,36.91895],[126.64996,36.91907],[126.65004,36.91927],[126.65012,36.91945],[126.6507,36.92053],[126.65092,36.92094],[126.65127,36.92106],[126.65212,36.92132],[126.65466,36.92196],[126.65481,36.922],[126.65506,36.92204],[126.65594,36.9222],[126.656,36.9222],[126.6568,36.92218],[126.65703,36.92217],[126.65784,36.92208],[126.65813,36.92205],[126.65821,36.92204],[126.65842,36.92201],[126.6586,36.92197],[126.65866,36.92195],[126.6588,36.9219],[126.6589,36.92186],[126.65895,36.92184],[126.65899,36.92182],[126.65908,36.92178],[126.66005,36.92123],[126.66013,36.92118],[126.66017,36.92116],[126.66032,36.92104],[126.66043,36.92092],[126.66324,36.9179],[126.66337,36.91786],[126.66539,36.91718],[126.66725,36.91627],[126.66938,36.91391],[126.67387,36.91092],[126.677,36.90995],[126.6771,36.90991],[126.67729,36.9098],[126.68257,36.90622],[126.68262,36.90616],[126.68393,36.90482]]]]}}]}