{"type":"FeatureCollection","features":[{"type":"Feature","properties":{"code":"28200510","name":"구월1동","parent":"28200"},"geometry":{"type":"MultiPolygon","coordinates":[[[[126.71897,37.45224],[126.71776,37.44079],[126.7177,37.43934],[126.7151,37.43715],[126.71339,37.43696],[126.71268,37.43746],[126.71172,37.43795],[126.71067,37.43759],[126.71063,37.43758],[126.7106,37.43756],[126.71058,37.43754],[126.71049,37.43744],[126.70922,37.43604],[126.70904,37.43497],[126.70906,37.43493],[126.70908,37.4349],[126.70909,37.43487],[126.70888,37.43463],[126.7085,37.43441],[126.70812,37.43428],[126.7062,37.43415],[126.7049,37.4366],[126.70472,37.43817],[126.70474,37.4385],[126.70474,37.43862],[126.7047,37.43871],[126.70463,37.43884],[126.70293,37.43887],[126.70236,37.43887],[126.70288,37.44277],[126.70102,37.44336],[126.70018,37.44362],[126.70025,37.44363],[126.70092,37.44815],[126.70166,37.45333],[126.70185,37.45474],[126.70215,37.45677],[126.70357,37.45669],[126.70867,37.45698],[126.70811,37.45304],[126.71743,37.45235],[126.71847,37.45228],[126.71897,37.45224]]]]}},{"type":"Feature","properties":{"code":"28200520","name":"구월2동","parent":"28200"},"geometry":{"type":"MultiPolygon","coordinates":[[[[126.72182,37.46068],[126.72163,37.45574],[126.72008,37.45585],[126.71948,37.4559],[126.71939,37.45589],[126.71934,37.45582],[126.71928,37.45525],[126.71925,37.45493],[126.71912,37.45377],[126.7191,37.45355],[126.7191,37.4535],[126.719,37.45257],[126.71897,37.45224],[126.71847,37.45228],[126.71743,37.45235],[126.70811,37.45304],[126.70867,37.45698],[126.71144,37.45675],[126.7114,37.45709],[126.71273,37.45722],[126.7125,37.46065],[126.72,37.46076],[126.72007,37.46109],[126.72182,37.46068]]]]}},{"type":"Feature","properties":{"code":"28200521","name":"구월3동","parent":"28200"},"geometry":{"type":"MultiPolygon","coordinates":[[[[126.70185,37.45474],[126.70166,37.45333],[126.70092,37.44815],[126.70025,37.44363],[126.70018,37.44362],[126.69641,37.44462],[126.69587,37.44485],[126.69581,37.44487],[126.69562,37.445],[126.69533,37.4452],[126.69342,37.44664],[126.69409,37.44716],[126.69288,37.44823],[126.69293,37.44833],[126.69261,37.45054],[126.69429,37.4515],[126.69504,37.45566],[126.70027,37.4543],[126.70185,37.45474]]]]}},{"type":"Feature","properties":{"code":"28200522","name":"구월4동","parent":"28200"},"geometry":{"type":"MultiPolygon","coordinates":[[[[126.72163,37.45574],[126.72234,37.45569],[126.72527,37.45362],[126.72577,37.4524],[126.72589,37.45209],[126.72595,37.45187],[126.72613,37.45135],[126.72629,37.4509],[126.72636,37.4507],[126.72642,37.45059],[126.72648,37.4505],[126.72655,37.4504],[126.72725,37.44994],[126.72974,37.44784],[126.72963,37.44784],[126.729,37.44758],[126.72886,37.44747],[126.72826,37.4459],[126.72807,37.44498],[126.728,37.44485],[126.72787,37.44472],[126.72774,37.44464],[126.7258,37.444],[126.72489,37.44398],[126.72476,37.44396],[126.7246,37.44393],[126.72445,37.44388],[126.72292,37.44334],[126.7203,37.44224],[126.72014,37.44216],[126.71994,37.44203],[126.71987,37.4419],[126.71985,37.44179],[126.7189,37.44092],[126.71776,37.44079],[126.71897,37.45224],[126.719,37.45257],[126.7191,37.4535],[126.7191,37.45355],[126.71912,37.45377],[126.71925,37.45493],[126.71928,37.45525],[126.71934,37.45582],[126.71939,37.45589],[126.71948,37.4559],[126.72008,37.45585],[126.72163,37.45574]]]]}},{"type":"Feature","properties":{"code":"28200530","name":"간석1동","parent":"28200"},"geometry":{"type":"MultiPolygon","coordinates":[[[[126.70795,37.46684],[126.70835,37.46139],[126.70836,37.46044],[126.70761,37.46042],[126.70653,37.46037],[126.70546,37.46031],[126.70551,37.45953],[126.70553,37.45921],[126.70554,37.4591],[126.70555,37.45891],[126.70867,37.45698],[126.70357,37.45669],[126.70215,37.45677],[126.70185,37.45474],[126.70027,37.4543],[126.69504,37.45566],[126.69453,37.45598],[126.69451,37.45607],[126.6945,37.45753],[126.69454,37.45787],[126.69466,37.45874],[126.69467,37.45881],[126.69524,37.46033],[126.69724,37.46129],[126.70454,37.46479],[126.70598,37.46517],[126.70603,37.46519],[126.70663,37.46558],[126.70706,37.46599],[126.70764,37.46653],[126.70795,37.46684]]]]}},{"type":"Feature","properties":{"code":"28200540","name":"간석2동","parent":"28200"},"geometry":{"type":"MultiPolygon","coordinates":[[[[126.71273,37.45722],[126.7114,37.45709],[126.71144,37.45675],[126.70867,37.45698],[126.70555,37.45891],[126.70554,37.4591],[126.70553,37.45921],[126.70551,37.45953],[126.70546,37.46031],[126.70653,37.46037],[126.70761,37.46042],[126.70836,37.46044],[126.70835,37.46139],[126.70795,37.46684],[126.70797,37.46715],[126.72007,37.46109],[126.72,37.46076],[126.7125,37.46065],[126.71273,37.45722]]]]}},{"type":"Feature","properties":{"code":"28200550","name":"간석3동","parent":"28200"},"geometry":{"type":"MultiPolygon","coordinates":[[[[126.72285,37.47027],[126.72369,37.46817],[126.72339,37.46785],[126.72318,37.46761],[126.72253,37.46687],[126.72139,37.465],[126.72192,37.46385],[126.72188,37.46261],[126.72182,37.46068],[126.72007,37.46109],[126.70797,37.46715],[126.70798,37.46933],[126.70806,37.47101],[126.70928,37.4746],[126.70961,37.47589],[126.71094,37.47962],[126.71191,37.47735],[126.71213,37.47697],[126.71253,37.47653],[126.71265,37.4764],[126.71274,37.47638],[126.71286,37.47638],[126.71435,37.47654],[126.71587,37.47641],[126.71604,37.47637],[126.71631,37.47622],[126.71702,37.47577],[126.71753,37.47543],[126.71968,37.47362],[126.7227,37.47061],[126.72285,37.47027]]]]}},{"type":"Feature","properties":{"code":"28200551","name":"간석4동","parent":"28200"},"geometry":{"type":"MultiPolygon","coordinates":[[[[126.69339,37.46994],[126.6934,37.46991],[126.69344,37.46987],[126.69387,37.46968],[126.69499,37.46917],[126.69503,37.46915],[126.69631,37.46858],[126.69706,37.46827],[126.69761,37.46809],[126.70266,37.46791],[126.70322,37.46792],[126.70325,37.46792],[126.70329,37.46792],[126.70455,37.46837],[126.7046,37.46854],[126.70663,37.46936],[126.70798,37.46933],[126.70797,37.46715],[126.70795,37.46684],[126.70764,37.46653],[126.70706,37.46599],[126.70663,37.46558],[126.70603,37.46519],[126.70598,37.46517],[126.70454,37.46479],[126.69724,37.46129],[126.69294,37.46472],[126.69279,37.46551],[126.68704,37.46617],[126.6868,37.46621],[126.68703,37.4677],[126.68724,37.46897],[126.68722,37.46899],[126.68643,37.46914],[126.68581,37.46925],[126.68576,37.46926],[126.68512,37.46938],[126.68508,37.46938],[126.68436,37.46953],[126.68436,37.46956],[126.68496,37.47045],[126.68504,37.47056],[126.68573,37.47156],[126.68575,37.4716],[126.68588,37.47178],[126.68598,37.47192],[126.68605,37.47202],[126.68641,37.47181],[126.6883,37.47077],[126.68861,37.4707],[126.68866,37.47068],[126.68995,37.47067],[126.69045,37.47064],[126.6907,37.47063],[126.69132,37.47048],[126.69172,37.47028],[126.69193,37.47017],[126.69247,37.46981],[126.69267,37.46968],[126.69339,37.46994]]]]}},{"type":"Feature","properties":{"code":"28200560","name":"만수1동","parent":"28200"},"geometry":{"type":"MultiPolygon","coordinates":[[[[126.73334,37.45488],[126.7384,37.45171],[126.74272,37.45068],[126.74023,37.44802],[126.73175,37.44843],[126.72984,37.44852],[126.72978,37.44852],[126.72971,37.44848],[126.72967,37.44842],[126.72974,37.44784],[126.72725,37.44994],[126.72655,37.4504],[126.72648,37.4505],[126.72642,37.45059],[126.72636,37.4507],[126.72629,37.4509],[126.72613,37.45135],[126.72595,37.45187],[126.72673,37.45183],[126.72865,37.45172],[126.72925,37.45169],[126.72983,37.45165],[126.7299,37.45244],[126.72995,37.45298],[126.72997,37.45313],[126.73009,37.45447],[126.73015,37.45509],[126.73334,37.45488]]]]}},{"type":"Feature","properties":{"code":"28200570","name":"만수2동","parent":"28200"},"geometry":{"type":"MultiPolygon","coordinates":[[[[126.74514,37.46537],[126.74412,37.46515],[126.74349,37.46493],[126.74243,37.46268],[126.74293,37.46144],[126.74335,37.46076],[126.74359,37.46033],[126.74359,37.4603],[126.74355,37.46028],[126.74313,37.46016],[126.74299,37.46012],[126.74282,37.46008],[126.74263,37.46007],[126.74272,37.4602],[126.74276,37.46032],[126.74278,37.46038],[126.74278,37.46045],[126.74278,37.46056],[126.74277,37.46073],[126.74274,37.46082],[126.74272,37.46087],[126.74254,37.46116],[126.74247,37.46121],[126.7422,37.46131],[126.74131,37.46043],[126.74,37.46128],[126.7396,37.46164],[126.7392,37.46196],[126.73882,37.46223],[126.73558,37.46169],[126.73179,37.45928],[126.73167,37.4592],[126.7307,37.45842],[126.7307,37.45661],[126.72726,37.45903],[126.72974,37.46142],[126.72922,37.46187],[126.72817,37.46255],[126.72759,37.46439],[126.72773,37.46472],[126.72876,37.46482],[126.72885,37.46482],[126.72907,37.46478],[126.72943,37.46473],[126.72955,37.4647],[126.72962,37.46467],[126.72977,37.46461],[126.72993,37.46454],[126.73005,37.46452],[126.73027,37.46449],[126.73057,37.46447],[126.73127,37.46448],[126.73189,37.46747],[126.73164,37.46912],[126.73118,37.47036],[126.73229,37.47159],[126.73568,37.47083],[126.73618,37.47098],[126.73662,37.47102],[126.73847,37.4709],[126.74172,37.46929],[126.74195,37.46915],[126.74488,37.46629],[126.74511,37.46596],[126.74514,37.46537]]]]}},{"type":"Feature","properties":{"code":"28200580","name":"만수3동","parent":"28200"},"geometry":{"type":"MultiPolygon","coordinates":[[[[126.73118,37.47244],[126.73229,37.47159],[126.73118,37.47036],[126.73164,37.46912],[126.73189,37.46747],[126.73127,37.46448],[126.73057,37.46447],[126.73027,37.46449],[126.73005,37.46452],[126.72993,37.46454],[126.72977,37.46461],[126.72962,37.46467],[126.72955,37.4647],[126.72943,37.46473],[126.72907,37.46478],[126.72885,37.46482],[126.72876,37.46482],[126.72773,37.46472],[126.72759,37.46439],[126.72817,37.46255],[126.72922,37.46187],[126.72974,37.46142],[126.72726,37.45903],[126.72182,37.46068],[126.72188,37.46261],[126.72192,37.46385],[126.72139,37.465],[126.72253,37.46687],[126.72318,37.46761],[126.72339,37.46785],[126.72369,37.46817],[126.72285,37.47027],[126.72349,37.47005],[126.72475,37.47011],[126.72512,37.47014],[126.72685,37.47029],[126.727,37.47031],[126.72714,37.47039],[126.72745,37.47062],[126.72756,37.47075],[126.72778,37.4711],[126.72789,37.47128],[126.72809,37.47164],[126.72816,37.47177],[126.72828,37.47185],[126.72974,37.4724],[126.73054,37.47253],[126.73118,37.47244]]]]}},{"type":"Feature","properties":{"code":"28200581","name":"만수4동","parent":"28200"},"geometry":{"type":"MultiPolygon","coordinates":[[[[126.74263,37.46007],[126.74242,37.45978],[126.74233,37.45959],[126.74228,37.45947],[126.74227,37.4594],[126.74265,37.45817],[126.74297,37.45733],[126.743,37.45686],[126.74294,37.45217],[126.74272,37.45068],[126.7384,37.45171],[126.73334,37.45488],[126.7316,37.45602],[126.7307,37.45661],[126.7307,37.45842],[126.73167,37.4592],[126.73179,37.45928],[126.73558,37.46169],[126.73882,37.46223],[126.7392,37.46196],[126.7396,37.46164],[126.74,37.46128],[126.74131,37.46043],[126.7422,37.46131],[126.74247,37.46121],[126.74254,37.46116],[126.74272,37.46087],[126.74274,37.46082],[126.74277,37.46073],[126.74278,37.46056],[126.74278,37.46045],[126.74278,37.46038],[126.74276,37.46032],[126.74272,37.4602],[126.74263,37.46007]]]]}},{"type":"Feature","properties":{"code":"28200582","name":"만수5동","parent":"28200"},"geometry":{"type":"MultiPolygon","coordinates":[[[[126.72726,37.45903],[126.7307,37.45661],[126.7316,37.45602],[126.73334,37.45488],[126.73015,37.45509],[126.73009,37.45447],[126.72997,37.45313],[126.72995,37.45298],[126.7299,37.45244],[126.72983,37.45165],[126.72925,37.45169],[126.72865,37.45172],[126.72673,37.45183],[126.72595,37.45187],[126.72589,37.45209],[126.72577,37.4524],[126.72527,37.45362],[126.72234,37.45569],[126.72163,37.45574],[126.72182,37.46068],[126.72726,37.45903]]]]}},{"type":"Feature","properties":{"code":"28200583","name":"만수6동","parent":"28200"},"geometry":{"type":"MultiPolygon","coordinates":[[[[126.74023,37.44802],[126.74027,37.44801],[126.74158,37.44791],[126.74383,37.44771],[126.74418,37.44767],[126.7447,37.4476],[126.74499,37.44748],[126.74506,37.44745],[126.74519,37.44732],[126.74537,37.44698],[126.74571,37.44646],[126.74641,37.44558],[126.74809,37.44528],[126.74838,37.4453],[126.74868,37.44532],[126.74931,37.44531],[126.74995,37.44524],[126.75008,37.44521],[126.75025,37.44514],[126.75032,37.44505],[126.75036,37.4449],[126.75038,37.44468],[126.75035,37.44434],[126.75026,37.44337],[126.75023,37.44327],[126.7502,37.44313],[126.74964,37.44225],[126.74935,37.44187],[126.74928,37.44182],[126.74866,37.44177],[126.74827,37.44177],[126.7478,37.44175],[126.74774,37.44174],[126.74768,37.44172],[126.74667,37.44137],[126.74393,37.43965],[126.7428,37.43884],[126.74281,37.43868],[126.7429,37.43853],[126.74293,37.4385],[126.74299,37.43842],[126.74306,37.43839],[126.7431,37.43838],[126.74316,37.43836],[126.74325,37.43834],[126.74341,37.43833],[126.74346,37.43833],[126.74362,37.4358],[126.74362,37.43575],[126.7436,37.43543],[126.74358,37.43533],[126.74323,37.4342],[126.74321,37.43414],[126.74317,37.43408],[126.74179,37.43285],[126.74164,37.4328],[126.73847,37.43289],[126.73568,37.43301],[126.73647,37.43668],[126.73649,37.43709],[126.7365,37.43727],[126.7365,37.43735],[126.73647,37.43748],[126.73642,37.43759],[126.73633,37.43773],[126.73614,37.43798],[126.7349,37.43963],[126.73459,37.44],[126.73437,37.44028],[126.73409,37.44067],[126.73406,37.44078],[126.73354,37.44297],[126.7334,37.44365],[126.73338,37.44377],[126.73334,37.44405],[126.72974,37.44784],[126.72967,37.44842],[126.72971,37.44848],[126.72978,37.44852],[126.72984,37.44852],[126.73175,37.44843],[126.74023,37.44802]]]]}},{"type":"Feature","properties":{"code":"28200655","name":"서창2동","parent":"28200"},"geometry":{"type":"MultiPolygon","coordinates":[[[[126.74179,37.43285],[126.75915,37.43221],[126.75923,37.43203],[126.75931,37.43173],[126.75941,37.43147],[126.75945,37.43127],[126.75947,37.43107],[126.75947,37.43081],[126.75944,37.43062],[126.75946,37.43042],[126.75948,37.43029],[126.76005,37.42888],[126.76012,37.42875],[126.76018,37.42868],[126.76037,37.42859],[126.76063,37.42845],[126.761,37.42827],[126.7614,37.42804],[126.76162,37.42788],[126.76183,37.42767],[126.76192,37.42756],[126.762,37.42744],[126.76204,37.42734],[126.76213,37.42708],[126.76221,37.42671],[126.76202,37.42667],[126.76193,37.4267],[126.76146,37.42647],[126.76146,37.4264],[126.76098,37.42629],[126.75968,37.42653],[126.75868,37.42596],[126.75369,37.42254],[126.75379,37.42133],[126.75408,37.42061],[126.75477,37.41888],[126.75493,37.41846],[126.75504,37.41816],[126.75505,37.41805],[126.75504,37.41799],[126.75498,37.41793],[126.75329,37.41692],[126.75056,37.4182],[126.74748,37.41959],[126.74539,37.42023],[126.74385,37.42053],[126.74246,37.42059],[126.74002,37.4207],[126.73979,37.4209],[126.73871,37.42217],[126.73866,37.42225],[126.7386,37.42236],[126.73859,37.42244],[126.73863,37.42331],[126.73891,37.42418],[126.73893,37.42429],[126.7389,37.42466],[126.73877,37.42548],[126.73814,37.42784],[126.73807,37.42796],[126.73792,37.42812],[126.73778,37.42823],[126.73748,37.42848],[126.73554,37.431],[126.73568,37.43301],[126.73847,37.43289],[126.74164,37.4328],[126.74179,37.43285]]]]}},{"type":"Feature","properties":{"code":"28200660","name":"남촌도림동","parent":"28200"},"geometry":{"type":"MultiPolygon","coordinates":[[[[126.73568,37.43301],[126.73554,37.431],[126.73748,37.42848],[126.73778,37.42823],[126.73792,37.42812],[126.73807,37.42796],[126.73814,37.42784],[126.73877,37.42548],[126.7389,37.42466],[126.73893,37.42429],[126.73891,37.42418],[126.73863,37.42331],[126.73859,37.42244],[126.7386,37.42236],[126.73866,37.42225],[126.73871,37.42217],[126.73979,37.4209],[126.74002,37.4207],[126.74023,37.4206],[126.74036,37.42053],[126.74046,37.42042],[126.74091,37.41968],[126.74099,37.41953],[126.74103,37.4194],[126.74102,37.41935],[126.73887,37.41821],[126.73882,37.41819],[126.73873,37.41817],[126.7381,37.4181],[126.73798,37.4181],[126.73785,37.4181],[126.73771,37.41811],[126.73759,37.41812],[126.73745,37.41811],[126.73678,37.41808],[126.73668,37.41807],[126.73655,37.41803],[126.73643,37.41798],[126.73632,37.41781],[126.73528,37.41578],[126.73134,37.41162],[126.73,37.41084],[126.72881,37.41037],[126.72754,37.4099],[126.72451,37.41017],[126.72401,37.41022],[126.72253,37.40976],[126.71844,37.40838],[126.71823,37.40849],[126.71784,37.40875],[126.71769,37.40896],[126.71758,37.40929],[126.71743,37.41019],[126.7174,37.4112],[126.7174,37.4113],[126.71736,37.41136],[126.71489,37.41303],[126.71342,37.41285],[126.71351,37.41444],[126.71343,37.41653],[126.71319,37.41703],[126.71276,37.41793],[126.71259,37.41809],[126.71251,37.41812],[126.71241,37.41811],[126.7124,37.41808],[126.71218,37.41747],[126.71171,37.41612],[126.71023,37.41219],[126.71006,37.41173],[126.70993,37.4115],[126.70953,37.41092],[126.70923,37.41049],[126.70904,37.41026],[126.70895,37.41025],[126.70882,37.41031],[126.70755,37.4109],[126.70517,37.41202],[126.69862,37.41511],[126.69808,37.41536],[126.69643,37.41641],[126.69534,37.4171],[126.69561,37.41729],[126.69791,37.41894],[126.69866,37.41949],[126.69886,37.41966],[126.70281,37.42359],[126.70383,37.42461],[126.70393,37.42471],[126.70412,37.42492],[126.70429,37.42512],[126.70449,37.42539],[126.70462,37.42556],[126.70493,37.426],[126.70501,37.42615],[126.70508,37.42632],[126.70512,37.42642],[126.70518,37.42663],[126.70528,37.42698],[126.70533,37.42723],[126.70535,37.42733],[126.70604,37.43279],[126.7062,37.43415],[126.70812,37.43428],[126.7085,37.43441],[126.70888,37.43463],[126.70909,37.43487],[126.70908,37.4349],[126.70906,37.43493],[126.70904,37.43497],[126.70922,37.43604],[126.71049,37.43744],[126.71058,37.43754],[126.7106,37.43756],[126.71063,37.43758],[126.71067,37.43759],[126.71172,37.43795],[126.71268,37.43746],[126.71339,37.43696],[126.7151,37.43715],[126.7177,37.43934],[126.71776,37.44079],[126.7189,37.44092],[126.71985,37.44179],[126.71987,37.4419],[126.71994,37.44203],[126.72014,37.44216],[126.7203,37.44224],[126.72292,37.44334],[126.72445,37.44388],[126.7246,37.44393],[126.72476,37.44396],[126.72489,37.44398],[126.7258,37.444],[126.72774,37.44464],[126.72787,37.44472],[126.728,37.44485],[126.72807,37.44498],[126.72826,37.4459],[126.72886,37.44747],[126.729,37.44758],[126.72963,37.44784],[126.72974,37.44784],[126.73334,37.44405],[126.73338,37.44377],[126.7334,37.44365],[126.73354,37.44297],[126.73406,37.44078],[126.73409,37.44067],[126.73437,37.44028],[126.73459,37.44],[126.7349,37.43963],[126.73614,37.43798],[126.73633,37.43773],[126.73642,37.43759],[126.73647,37.43748],[126.7365,37.43735],[126.7365,37.43727],[126.73649,37.43709],[126.73647,37.43668],[126.73568,37.43301]]]]}},{"type":"Feature","properties":{"code":"28200690","name":"논현1동","parent":"28200"},"geometry":{"type":"MultiPolygon","coordinates":[[[[126.75329,37.41692],[126.75224,37.41448],[126.75059,37.40981],[126.75058,37.40761],[126.74884,37.40575],[126.74704,37.40338],[126.74585,37.40159],[126.74589,37.40138],[126.74585,37.40122],[126.74582,37.40117],[126.74529,37.40095],[126.74417,37.4005],[126.74384,37.40037],[126.74308,37.4001],[126.74294,37.40004],[126.74242,37.39982],[126.74225,37.39972],[126.74204,37.39958],[126.74179,37.39943],[126.74162,37.39929],[126.74118,37.39892],[126.74112,37.39887],[126.74106,37.39881],[126.74066,37.39843],[126.73902,37.39692],[126.73884,37.39681],[126.73836,37.39652],[126.73793,37.39722],[126.73757,37.39765],[126.73749,37.39774],[126.73735,37.39784],[126.73358,37.40049],[126.73215,37.40141],[126.7315,37.40183],[126.73028,37.40196],[126.7296,37.40196],[126.72849,37.40196],[126.7284,37.40193],[126.72802,37.40179],[126.7272,37.4015],[126.72442,37.40103],[126.72396,37.40262],[126.72293,37.40772],[126.72291,37.40824],[126.72332,37.40938],[126.72401,37.41022],[126.72451,37.41017],[126.72754,37.4099],[126.72881,37.41037],[126.73,37.41084],[126.73134,37.41162],[126.73528,37.41578],[126.73632,37.41781],[126.73643,37.41798],[126.73655,37.41803],[126.73668,37.41807],[126.73678,37.41808],[126.73745,37.41811],[126.73759,37.41812],[126.73771,37.41811],[126.73785,37.4181],[126.73798,37.4181],[126.7381,37.4181],[126.73873,37.41817],[126.73882,37.41819],[126.73887,37.41821],[126.74102,37.41935],[126.74103,37.4194],[126.74099,37.41953],[126.74091,37.41968],[126.74046,37.42042],[126.74036,37.42053],[126.74023,37.4206],[126.74002,37.4207],[126.74246,37.42059],[126.74385,37.42053],[126.74539,37.42023],[126.74748,37.41959],[126.75056,37.4182],[126.75329,37.41692]]]]}},{"type":"Feature","properties":{"code":"28200700","name":"논현2동","parent":"28200"},"geometry":{"type":"MultiPolygon","coordinates":[[[[126.72401,37.41022],[126.72332,37.40938],[126.72291,37.40824],[126.72293,37.40772],[126.72396,37.40262],[126.72442,37.40103],[126.72391,37.40074],[126.72215,37.40042],[126.72143,37.40031],[126.71348,37.39915],[126.71232,37.39903],[126.70865,37.40045],[126.70654,37.40136],[126.70302,37.40306],[126.70116,37.40483],[126.70054,37.40508],[126.69798,37.40616],[126.69717,37.40657],[126.69666,37.40688],[126.69337,37.40894],[126.68953,37.41127],[126.6871,37.41063],[126.68727,37.41084],[126.68765,37.41123],[126.6925,37.41508],[126.69333,37.41571],[126.69453,37.41656],[126.69534,37.4171],[126.69643,37.41641],[126.69808,37.41536],[126.69862,37.41511],[126.70517,37.41202],[126.70755,37.4109],[126.70882,37.41031],[126.70895,37.41025],[126.70904,37.41026],[126.70923,37.41049],[126.70953,37.41092],[126.70993,37.4115],[126.71006,37.41173],[126.71023,37.41219],[126.71171,37.41612],[126.71218,37.41747],[126.7124,37.41808],[126.71241,37.41811],[126.71251,37.41812],[126.71259,37.41809],[126.71276,37.41793],[126.71319,37.41703],[126.71343,37.41653],[126.71351,37.41444],[126.71342,37.41285],[126.71489,37.41303],[126.71736,37.41136],[126.7174,37.4113],[126.7174,37.4112],[126.71743,37.41019],[126.71758,37.40929],[126.71769,37.40896],[126.71784,37.40875],[126.71823,37.40849],[126.71844,37.40838],[126.72253,37.40976],[126.72401,37.41022]]]]}},{"type":"Feature","properties":{"code":"28200710","name":"논현고잔동","parent":"28200"},"geometry":{"type":"MultiPolygon","coordinates":[[[[126.72442,37.40103],[126.7272,37.4015],[126.72802,37.40179],[126.7284,37.40193],[126.72849,37.40196],[126.7296,37.40196],[126.73028,37.40196],[126.7315,37.40183],[126.73215,37.40141],[126.73358,37.40049],[126.73735,37.39784],[126.73749,37.39774],[126.73757,37.39765],[126.73793,37.39722],[126.73836,37.39652],[126.73654,37.39543],[126.73624,37.39528],[126.73604,37.3952],[126.73344,37.39217],[126.72998,37.38879],[126.72686,37.3859],[126.72091,37.38114],[126.71771,37.38111],[126.7114,37.38105],[126.70989,37.38157],[126.71026,37.38316],[126.6973,37.38534],[126.68485,37.38737],[126.6745,37.38911],[126.67298,37.38942],[126.67183,37.38989],[126.66778,37.3923],[126.66798,37.39255],[126.66837,37.39291],[126.66984,37.39423],[126.67013,37.39449],[126.67135,37.39557],[126.67336,37.39734],[126.67693,37.40048],[126.67783,37.40127],[126.67802,37.40142],[126.6781,37.40148],[126.67822,37.40157],[126.67849,37.40176],[126.6787,37.40191],[126.67902,37.4021],[126.67931,37.40227],[126.68005,37.40269],[126.68027,37.40278],[126.68085,37.40295],[126.68129,37.4031],[126.68161,37.40321],[126.6823,37.40344],[126.68277,37.40361],[126.68331,37.40385],[126.68357,37.40399],[126.68383,37.40416],[126.68402,37.40429],[126.68434,37.40453],[126.68441,37.4046],[126.68464,37.40482],[126.68478,37.40498],[126.68489,37.40513],[126.68503,37.40533],[126.68517,37.40554],[126.68528,37.40575],[126.68534,37.40587],[126.6854,37.40601],[126.68548,37.40625],[126.68552,37.40657],[126.6871,37.41063],[126.68953,37.41127],[126.69337,37.40894],[126.69666,37.40688],[126.69717,37.40657],[126.69798,37.40616],[126.70054,37.40508],[126.70116,37.40483],[126.70302,37.40306],[126.70654,37.40136],[126.70865,37.40045],[126.71232,37.39903],[126.71348,37.39915],[126.72143,37.40031],[126.72215,37.40042],[126.72391,37.40074],[126.72442,37.40103]]]]}},{"type":"Feature","properties":{"code":"28200650","name":"장수서창동","parent":"28200"},"geometry":{"type":"MultiPolygon","coordinates":[[[[126.76098,37.42629],[126.76146,37.4264],[126.76146,37.42647],[126.76193,37.4267],[126.76202,37.42667],[126.76221,37.42671],[126.76213,37.42708],[126.76204,37.42734],[126.762,37.42744],[126.76192,37.42756],[126.76183,37.42767],[126.76162,37.42788],[126.7614,37.42804],[126.761,37.42827],[126.76063,37.42845],[126.76037,37.42859],[126.76018,37.42868],[126.76012,37.42875],[126.76005,37.42888],[126.75948,37.43029],[126.75946,37.43042],[126.75944,37.43062],[126.75947,37.43081],[126.75947,37.43107],[126.75945,37.43127],[126.75941,37.43147],[126.75931,37.43173],[126.75923,37.43203],[126.75915,37.43221],[126.74179,37.43285],[126.74317,37.43408],[126.74321,37.43414],[126.74323,37.4342],[126.74358,37.43533],[126.7436,37.43543],[126.74362,37.43575],[126.74362,37.4358],[126.74346,37.43833],[126.74341,37.43833],[126.74325,37.43834],[126.74316,37.43836],[126.7431,37.43838],[126.74306,37.43839],[126.74299,37.43842],[126.74293,37.4385],[126.7429,37.43853],[126.74281,37.43868],[126.7428,37.43884],[126.74393,37.43965],[126.74667,37.44137],[126.74768,37.44172],[126.74774,37.44174],[126.7478,37.44175],[126.74827,37.44177],[126.74866,37.44177],[126.74928,37.44182],[126.74935,37.44187],[126.74964,37.44225],[126.7502,37.44313],[126.75023,37.44327],[126.75026,37.44337],[126.75035,37.44434],[126.75038,37.44468],[126.75036,37.4449],[126.75032,37.44505],[126.75025,37.44514],[126.75008,37.44521],[126.74995,37.44524],[126.74931,37.44531],[126.74868,37.44532],[126.74838,37.4453],[126.74809,37.44528],[126.74641,37.44558],[126.74571,37.44646],[126.74537,37.44698],[126.74519,37.44732],[126.74506,37.44745],[126.74499,37.44748],[126.7447,37.4476],[126.74418,37.44767],[126.74383,37.44771],[126.74158,37.44791],[126.74027,37.44801],[126.74023,37.44802],[126.74272,37.45068],[126.74294,37.45217],[126.743,37.45686],[126.74297,37.45733],[126.74265,37.45817],[126.74227,37.4594],[126.74228,37.45947],[126.74233,37.45959],[126.74242,37.45978],[126.74263,37.46007],[126.74282,37.46008],[126.74299,37.46012],[126.74313,37.46016],[126.74355,37.46028],[126.74359,37.4603],[126.74359,37.46033],[126.74335,37.46076],[126.74293,37.46144],[126.74243,37.46268],[126.74349,37.46493],[126.74412,37.46515],[126.74514,37.46537],[126.74605,37.46482],[126.7472,37.46556],[126.74757,37.46571],[126.74766,37.46574],[126.74871,37.46585],[126.74971,37.46579],[126.75107,37.46533],[126.7513,37.46526],[126.75138,37.46523],[126.75172,37.4652],[126.75273,37.46519],[126.75452,37.46573],[126.75627,37.4679],[126.75678,37.46871],[126.75691,37.46912],[126.75694,37.46917],[126.7584,37.46956],[126.76253,37.47022],[126.76263,37.47024],[126.76483,37.47012],[126.76613,37.46997],[126.76637,37.4699],[126.76644,37.4699],[126.76676,37.47032],[126.76774,37.47176],[126.77041,37.4718],[126.77156,37.47185],[126.77188,37.47236],[126.77296,37.47231],[126.77456,37.47142],[126.7752,37.4717],[126.77609,37.47164],[126.7771,37.47221],[126.77776,37.47183],[126.77808,37.47181],[126.77823,37.47179],[126.77805,37.4709],[126.77797,37.47017],[126.77796,37.47],[126.77797,37.46996],[126.77799,37.46991],[126.77846,37.46948],[126.77919,37.46869],[126.77942,37.46838],[126.77946,37.46829],[126.77966,37.46712],[126.77984,37.46579],[126.77971,37.46533],[126.77969,37.46529],[126.77968,37.46526],[126.77965,37.46522],[126.77959,37.46516],[126.77946,37.46505],[126.77851,37.46197],[126.7777,37.45906],[126.77745,37.45752],[126.77748,37.4574],[126.77829,37.45508],[126.77897,37.45473],[126.77937,37.45458],[126.77972,37.45445],[126.77976,37.4544],[126.77977,37.45433],[126.77921,37.4527],[126.77832,37.45079],[126.77755,37.45082],[126.77476,37.45056],[126.77174,37.45027],[126.77162,37.45015],[126.77071,37.44851],[126.76958,37.44518],[126.76884,37.44293],[126.76923,37.44235],[126.76933,37.44211],[126.77105,37.43682],[126.77112,37.43652],[126.77115,37.43636],[126.77131,37.43523],[126.77131,37.43514],[126.77127,37.43138],[126.77061,37.42955],[126.77035,37.42905],[126.77005,37.42863],[126.76978,37.42828],[126.76931,37.42766],[126.76903,37.42734],[126.76874,37.42718],[126.76867,37.42714],[126.76737,37.42659],[126.76381,37.42576],[126.76098,37.42629]]]]}}]}