{"type":"FeatureCollection","features":[{"type":"Feature","properties":{"code":"41113520","name":"세류1동","parent":"41113"},"geometry":{"type":"MultiPolygon","coordinates":[[[[127.01219,37.2663],[127.01118,37.26485],[127.00842,37.25951],[127.00789,37.25661],[127.00782,37.25637],[127.00762,37.25605],[127.00715,37.2557],[127.00602,37.25522],[127.00463,37.25465],[127.00456,37.25462],[127.00352,37.25431],[127.00345,37.2543],[127.00285,37.25416],[127.00214,37.25403],[126.99999,37.25374],[126.99903,37.25363],[126.99844,37.25357],[126.99814,37.25353],[126.99863,37.25541],[126.99874,37.25561],[126.99962,37.25643],[127.00155,37.25789],[127.00317,37.25911],[127.00364,37.25952],[127.00317,37.26031],[127.0031,37.26043],[127.00255,37.26134],[127.00102,37.2634],[127.00191,37.26415],[127.00208,37.26413],[127.0022,37.26412],[127.00506,37.26382],[127.00525,37.2638],[127.00598,37.26372],[127.00625,37.26369],[127.00681,37.26364],[127.0071,37.2636],[127.00719,37.2636],[127.0096,37.26699],[127.00971,37.2672],[127.00981,37.26765],[127.01219,37.2663]]]]}},{"type":"Feature","properties":{"code":"41113530","name":"세류2동","parent":"41113"},"geometry":{"type":"MultiPolygon","coordinates":[[[[127.02026,37.25313],[127.01874,37.25017],[127.0181,37.24887],[127.018,37.24867],[127.01771,37.24795],[127.01767,37.24597],[127.01621,37.24103],[127.01569,37.23937],[127.016,37.23783],[127.01561,37.23712],[127.0139,37.23648],[127.01286,37.23612],[127.01269,37.23615],[127.01173,37.23635],[127.01093,37.23651],[127.0106,37.23658],[127.00965,37.23656],[127.00681,37.23502],[127.0055,37.2343],[127.00301,37.23284],[127.00294,37.23051],[127.00296,37.23047],[127.00318,37.22986],[127.00368,37.22929],[126.99758,37.23023],[126.99773,37.23094],[126.9977,37.23188],[126.99761,37.23469],[126.99759,37.23512],[126.99758,37.23563],[126.99751,37.2375],[126.99791,37.2375],[126.99813,37.2375],[127.00081,37.24357],[127.0005,37.24676],[126.99869,37.24918],[126.99841,37.25279],[126.99843,37.25346],[126.99844,37.25354],[126.99844,37.25357],[126.99903,37.25363],[126.99999,37.25374],[127.00214,37.25403],[127.00285,37.25416],[127.00345,37.2543],[127.00352,37.25431],[127.00456,37.25462],[127.00463,37.25465],[127.00602,37.25522],[127.00715,37.2557],[127.00762,37.25605],[127.00782,37.25637],[127.00789,37.25661],[127.00842,37.25951],[127.00881,37.25943],[127.01016,37.25916],[127.01052,37.25908],[127.01124,37.25893],[127.01221,37.25872],[127.01202,37.25836],[127.01174,37.25784],[127.01169,37.25775],[127.01127,37.25694],[127.01128,37.25669],[127.01129,37.25608],[127.01226,37.25606],[127.01262,37.25606],[127.01283,37.25605],[127.01527,37.25602],[127.01506,37.25562],[127.01498,37.25548],[127.01476,37.25507],[127.01559,37.25467],[127.01649,37.25438],[127.01878,37.25362],[127.02026,37.25313]]]]}},{"type":"Feature","properties":{"code":"41113540","name":"세류3동","parent":"41113"},"geometry":{"type":"MultiPolygon","coordinates":[[[[127.02068,37.2645],[127.02043,37.26403],[127.01938,37.26197],[127.01704,37.25743],[127.01806,37.25718],[127.02138,37.25637],[127.02163,37.25631],[127.0219,37.25625],[127.02026,37.25313],[127.01878,37.25362],[127.01649,37.25438],[127.01559,37.25467],[127.01476,37.25507],[127.01498,37.25548],[127.01506,37.25562],[127.01527,37.25602],[127.01283,37.25605],[127.01262,37.25606],[127.01226,37.25606],[127.01129,37.25608],[127.01128,37.25669],[127.01127,37.25694],[127.01169,37.25775],[127.01174,37.25784],[127.01202,37.25836],[127.01221,37.25872],[127.01124,37.25893],[127.01052,37.25908],[127.01016,37.25916],[127.00881,37.25943],[127.00842,37.25951],[127.01118,37.26485],[127.01219,37.2663],[127.01358,37.2645],[127.01507,37.26426],[127.01674,37.26469],[127.02003,37.26457],[127.02068,37.2645]]]]}},{"type":"Feature","properties":{"code":"41113550","name":"평동","parent":"41113"},"geometry":{"type":"MultiPolygon","coordinates":[[[[127.00102,37.2634],[127.00255,37.26134],[127.0031,37.26043],[127.00317,37.26031],[127.00364,37.25952],[127.00317,37.25911],[127.00155,37.25789],[126.99962,37.25643],[126.99874,37.25561],[126.99863,37.25541],[126.99814,37.25353],[126.99844,37.25357],[126.99844,37.25354],[126.99843,37.25346],[126.99841,37.25279],[126.99869,37.24918],[127.0005,37.24676],[127.00081,37.24357],[126.99813,37.2375],[126.99791,37.2375],[126.99751,37.2375],[126.99758,37.23563],[126.99759,37.23512],[126.99761,37.23469],[126.9977,37.23188],[126.99773,37.23094],[126.99758,37.23023],[126.99265,37.23085],[126.99119,37.23204],[126.99039,37.23263],[126.98949,37.2331],[126.98852,37.23351],[126.98825,37.23358],[126.98812,37.23359],[126.98572,37.23264],[126.9824,37.23226],[126.98158,37.23226],[126.98036,37.23224],[126.98032,37.23223],[126.98026,37.23219],[126.98022,37.23216],[126.9802,37.23213],[126.98006,37.23161],[126.97991,37.23104],[126.97953,37.23059],[126.97895,37.2301],[126.97822,37.22957],[126.97282,37.22872],[126.97199,37.22887],[126.97039,37.2292],[126.96925,37.23067],[126.96899,37.23164],[126.9677,37.23484],[126.96695,37.23563],[126.96501,37.23665],[126.964,37.23709],[126.96299,37.23752],[126.962,37.23768],[126.96095,37.23811],[126.95776,37.23976],[126.95736,37.24032],[126.95735,37.2404],[126.95742,37.24044],[126.9576,37.24054],[126.95777,37.24076],[126.95799,37.24127],[126.95799,37.2413],[126.95796,37.2426],[126.95779,37.24317],[126.95731,37.24418],[126.9567,37.2451],[126.95668,37.24519],[126.95619,37.24677],[126.95489,37.24744],[126.95368,37.24799],[126.95337,37.24813],[126.95297,37.24873],[126.95272,37.24909],[126.95224,37.25147],[126.9529,37.2527],[126.95315,37.25293],[126.95852,37.25339],[126.96074,37.25358],[126.96548,37.25735],[126.96641,37.2579],[126.96678,37.25812],[126.96733,37.25834],[126.96738,37.25835],[126.96744,37.25836],[126.96731,37.25687],[126.96731,37.25684],[126.96731,37.25666],[126.96736,37.25643],[126.9674,37.2564],[126.96754,37.2563],[126.96866,37.25588],[126.97375,37.25662],[126.97338,37.25962],[126.97433,37.25938],[126.9756,37.25906],[126.97652,37.25883],[126.97762,37.25855],[126.97939,37.2583],[126.98051,37.25818],[126.98104,37.25812],[126.98249,37.25797],[126.9832,37.25801],[126.98363,37.25803],[126.98445,37.25819],[126.98492,37.2583],[126.9854,37.25842],[126.98837,37.25934],[126.99592,37.26176],[126.99846,37.26272],[126.9986,37.26277],[126.99887,37.26287],[126.99904,37.26294],[127.00039,37.26418],[127.00102,37.2634]]]]}},{"type":"Feature","properties":{"code":"41113560","name":"서둔동","parent":"41113"},"geometry":{"type":"MultiPolygon","coordinates":[[[[126.99314,37.27737],[126.99539,37.27362],[126.99743,37.2699],[126.99867,37.26619],[126.99889,37.26584],[127.00005,37.26414],[127.00039,37.26418],[126.99904,37.26294],[126.99887,37.26287],[126.9986,37.26277],[126.99846,37.26272],[126.99592,37.26176],[126.98837,37.25934],[126.9854,37.25842],[126.98492,37.2583],[126.98445,37.25819],[126.98363,37.25803],[126.9832,37.25801],[126.98249,37.25797],[126.98104,37.25812],[126.98051,37.25818],[126.97939,37.2583],[126.97762,37.25855],[126.97652,37.25883],[126.9756,37.25906],[126.97433,37.25938],[126.97338,37.25962],[126.97375,37.25662],[126.96866,37.25588],[126.96754,37.2563],[126.9674,37.2564],[126.96736,37.25643],[126.96731,37.25666],[126.96731,37.25684],[126.96731,37.25687],[126.96744,37.25836],[126.96751,37.25936],[126.96866,37.26033],[126.96906,37.26067],[126.97047,37.26108],[126.97065,37.2628],[126.97044,37.26343],[126.97008,37.26451],[126.96949,37.26537],[126.96773,37.26794],[126.96385,37.27191],[126.96211,37.27316],[126.96499,37.27356],[126.97964,37.27619],[126.97901,37.27671],[126.97859,37.27707],[126.97845,37.27729],[126.97842,37.27737],[126.97841,37.27799],[126.97851,37.28286],[126.97864,37.28289],[126.98134,37.28352],[126.98228,37.28389],[126.98386,37.28425],[126.98612,37.28282],[126.98646,37.28244],[126.98655,37.28229],[126.98661,37.28211],[126.98666,37.27956],[126.98664,37.27942],[126.98659,37.27931],[126.98644,37.27889],[126.98594,37.27784],[126.98578,37.27761],[126.98568,37.27747],[126.98583,37.27542],[126.98587,37.27494],[126.98634,37.2748],[126.98646,37.27479],[126.98654,37.27479],[126.98676,37.27477],[126.98693,37.27476],[126.99314,37.27737]]]]}},{"type":"Feature","properties":{"code":"41113650","name":"구운동","parent":"41113"},"geometry":{"type":"MultiPolygon","coordinates":[[[[126.96973,37.28777],[126.96964,37.28705],[126.96958,37.28662],[126.97428,37.28552],[126.97614,37.28577],[126.97877,37.28657],[126.98134,37.28352],[126.97864,37.28289],[126.97851,37.28286],[126.97841,37.27799],[126.97842,37.27737],[126.97845,37.27729],[126.97859,37.27707],[126.97901,37.27671],[126.97964,37.27619],[126.96499,37.27356],[126.96211,37.27316],[126.95938,37.27979],[126.9595,37.27985],[126.96004,37.28009],[126.96091,37.28021],[126.96177,37.28187],[126.9621,37.28202],[126.96283,37.28235],[126.96496,37.28332],[126.96503,37.28336],[126.96506,37.28337],[126.96478,37.28448],[126.96424,37.2853],[126.96368,37.28621],[126.96311,37.28878],[126.96391,37.28878],[126.96406,37.28878],[126.96655,37.28767],[126.96973,37.28777]]]]}},{"type":"Feature","properties":{"code":"41113664","name":"호매실동","parent":"41113"},"geometry":{"type":"MultiPolygon","coordinates":[[[[126.96211,37.27316],[126.96385,37.27191],[126.96773,37.26794],[126.96949,37.26537],[126.97008,37.26451],[126.97044,37.26343],[126.97065,37.2628],[126.97047,37.26108],[126.96906,37.26067],[126.96866,37.26033],[126.96751,37.25936],[126.96744,37.25836],[126.96738,37.25835],[126.96733,37.25834],[126.96678,37.25812],[126.96641,37.2579],[126.96548,37.25735],[126.96074,37.25358],[126.95852,37.25339],[126.95315,37.25293],[126.9529,37.2527],[126.95224,37.25147],[126.95071,37.25237],[126.94998,37.25382],[126.9502,37.25531],[126.95016,37.25545],[126.95005,37.25584],[126.94853,37.25683],[126.94792,37.25708],[126.94653,37.2575],[126.94584,37.25734],[126.94504,37.25716],[126.94473,37.25704],[126.94466,37.25701],[126.94359,37.25684],[126.9395,37.25659],[126.93928,37.25659],[126.93823,37.25659],[126.93578,37.25677],[126.93513,37.25692],[126.93509,37.25695],[126.93495,37.25705],[126.93478,37.25788],[126.932,37.26056],[126.93085,37.26104],[126.93156,37.26136],[126.93317,37.26202],[126.93581,37.2627],[126.93706,37.26321],[126.93758,37.26403],[126.93785,37.26487],[126.93876,37.26575],[126.93859,37.26638],[126.9393,37.26686],[126.93952,37.26736],[126.93993,37.2676],[126.94056,37.26861],[126.94078,37.26912],[126.94122,37.26958],[126.94169,37.27046],[126.94216,37.27085],[126.9429,37.2712],[126.94353,37.27116],[126.94436,37.27125],[126.94532,37.27134],[126.94623,37.27046],[126.94703,37.27044],[126.94784,37.2707],[126.9484,37.27065],[126.94923,37.27035],[126.95065,37.26958],[126.95188,37.26909],[126.95291,37.26912],[126.95293,37.26876],[126.95604,37.26879],[126.95743,37.26964],[126.95903,37.27045],[126.96026,37.272],[126.96211,37.27316]]]]}},{"type":"Feature","properties":{"code":"41113690","name":"곡선동","parent":"41113"},"geometry":{"type":"MultiPolygon","coordinates":[[[[127.04254,37.25116],[127.04124,37.24981],[127.03974,37.24736],[127.03956,37.247],[127.0395,37.24676],[127.03951,37.24654],[127.03961,37.24614],[127.03982,37.24577],[127.04021,37.24523],[127.04031,37.24503],[127.04031,37.24494],[127.04031,37.24465],[127.04017,37.24437],[127.03968,37.2435],[127.03899,37.24273],[127.03714,37.2405],[127.0367,37.2384],[127.03347,37.2353],[127.02964,37.23201],[127.02614,37.23067],[127.0229,37.22951],[127.02397,37.22742],[127.02396,37.22718],[127.0239,37.22706],[127.02263,37.2249],[127.0225,37.22479],[127.02199,37.22446],[127.02166,37.22429],[127.02137,37.22424],[127.017,37.22553],[127.01658,37.22567],[127.01636,37.22576],[127.01517,37.22624],[127.01449,37.22654],[127.01403,37.22671],[127.0136,37.22688],[127.01189,37.22721],[127.01158,37.22726],[127.01127,37.22727],[127.0107,37.22729],[127.00987,37.22731],[127.0081,37.22784],[127.00368,37.22929],[127.00318,37.22986],[127.00296,37.23047],[127.00294,37.23051],[127.00301,37.23284],[127.0055,37.2343],[127.00681,37.23502],[127.00965,37.23656],[127.0106,37.23658],[127.01093,37.23651],[127.01173,37.23635],[127.01269,37.23615],[127.01286,37.23612],[127.0139,37.23648],[127.01561,37.23712],[127.016,37.23783],[127.01767,37.23784],[127.01934,37.23785],[127.01971,37.23705],[127.01981,37.23684],[127.02006,37.23631],[127.02014,37.23614],[127.0208,37.23481],[127.02129,37.23387],[127.02136,37.23391],[127.02345,37.235],[127.02434,37.23552],[127.02513,37.23603],[127.02567,37.23638],[127.02598,37.23666],[127.0265,37.23713],[127.02664,37.23726],[127.02682,37.23748],[127.02687,37.23755],[127.02719,37.23794],[127.02783,37.23896],[127.02906,37.24126],[127.02966,37.24204],[127.03041,37.24325],[127.03043,37.24329],[127.03157,37.24524],[127.03245,37.24678],[127.03345,37.24907],[127.03349,37.24917],[127.03428,37.25102],[127.03507,37.25287],[127.03695,37.25239],[127.03947,37.25417],[127.04039,37.25245],[127.04254,37.25116]]]]}},{"type":"Feature","properties":{"code":"41113700","name":"입북동","parent":"41113"},"geometry":{"type":"MultiPolygon","coordinates":[[[[126.96108,37.30197],[126.96141,37.30205],[126.96424,37.30272],[126.96426,37.30267],[126.96444,37.30167],[126.96421,37.30108],[126.96418,37.30103],[126.96395,37.30074],[126.96372,37.30044],[126.96367,37.29997],[126.96367,37.29874],[126.96495,37.29679],[126.965,37.29678],[126.9651,37.29675],[126.9655,37.29667],[126.96604,37.2962],[126.96777,37.29463],[126.96807,37.29426],[126.9698,37.28869],[126.96979,37.28837],[126.96975,37.288],[126.96973,37.28777],[126.96655,37.28767],[126.96406,37.28878],[126.96391,37.28878],[126.96311,37.28878],[126.96368,37.28621],[126.96424,37.2853],[126.96478,37.28448],[126.96506,37.28337],[126.96503,37.28336],[126.96496,37.28332],[126.96283,37.28235],[126.9621,37.28202],[126.96177,37.28187],[126.96091,37.28021],[126.96004,37.28009],[126.95355,37.28257],[126.95281,37.28297],[126.94917,37.28264],[126.9468,37.28179],[126.94403,37.28143],[126.94363,37.28138],[126.94307,37.2815],[126.94217,37.28166],[126.94131,37.28156],[126.94048,37.27967],[126.94065,37.27933],[126.94108,37.27884],[126.94197,37.27792],[126.94217,37.27762],[126.9423,37.27742],[126.94193,37.27725],[126.94143,37.27713],[126.9414,37.27712],[126.94074,37.27707],[126.93792,37.27718],[126.93666,37.27726],[126.93409,37.27742],[126.9339,37.27754],[126.93374,37.27764],[126.93347,37.27782],[126.93337,37.27789],[126.93327,37.27795],[126.93309,37.27806],[126.93205,37.27825],[126.92904,37.27874],[126.9274,37.27885],[126.92767,37.27946],[126.92778,37.27993],[126.92808,37.28234],[126.92913,37.28557],[126.92924,37.28589],[126.92929,37.28602],[126.92959,37.28622],[126.93139,37.28842],[126.93245,37.29016],[126.93281,37.29102],[126.93298,37.29163],[126.93407,37.29232],[126.93507,37.29269],[126.93929,37.29498],[126.93955,37.29532],[126.93954,37.29535],[126.93934,37.29692],[126.93652,37.29766],[126.93547,37.29803],[126.93355,37.29985],[126.93259,37.30076],[126.93276,37.30297],[126.93295,37.30305],[126.93475,37.30307],[126.94159,37.30102],[126.95174,37.30065],[126.95229,37.30065],[126.95291,37.30213],[126.9541,37.30307],[126.9543,37.30314],[126.95451,37.30311],[126.95553,37.3029],[126.95577,37.30281],[126.95939,37.30223],[126.96108,37.30197]]]]}},{"type":"Feature","properties":{"code":"41113662","name":"금곡동","parent":"41113"},"geometry":{"type":"MultiPolygon","coordinates":[[[[126.96004,37.28009],[126.9595,37.27985],[126.95938,37.27979],[126.96211,37.27316],[126.96026,37.272],[126.95903,37.27045],[126.95743,37.26964],[126.95604,37.26879],[126.95293,37.26876],[126.95291,37.26912],[126.95188,37.26909],[126.95065,37.26958],[126.94923,37.27035],[126.9484,37.27065],[126.94784,37.2707],[126.94703,37.27044],[126.94623,37.27046],[126.94532,37.27134],[126.94436,37.27125],[126.94353,37.27116],[126.9429,37.2712],[126.94216,37.27085],[126.94169,37.27046],[126.94122,37.26958],[126.94078,37.26912],[126.94056,37.26861],[126.93993,37.2676],[126.93952,37.26736],[126.9393,37.26686],[126.93859,37.26638],[126.93876,37.26575],[126.93785,37.26487],[126.93758,37.26403],[126.93706,37.26321],[126.93581,37.2627],[126.93317,37.26202],[126.93156,37.26136],[126.93085,37.26104],[126.93023,37.26191],[126.92901,37.26366],[126.92726,37.27143],[126.92753,37.27345],[126.9282,37.27508],[126.92868,37.27672],[126.92802,37.27708],[126.92759,37.27821],[126.92737,37.2788],[126.9274,37.27885],[126.92904,37.27874],[126.93205,37.27825],[126.93309,37.27806],[126.93327,37.27795],[126.93337,37.27789],[126.93347,37.27782],[126.93374,37.27764],[126.9339,37.27754],[126.93409,37.27742],[126.93666,37.27726],[126.93792,37.27718],[126.94074,37.27707],[126.9414,37.27712],[126.94143,37.27713],[126.94193,37.27725],[126.9423,37.27742],[126.94217,37.27762],[126.94197,37.27792],[126.94108,37.27884],[126.94065,37.27933],[126.94048,37.27967],[126.94131,37.28156],[126.94217,37.28166],[126.94307,37.2815],[126.94363,37.28138],[126.94403,37.28143],[126.9468,37.28179],[126.94917,37.28264],[126.95281,37.28297],[126.95355,37.28257],[126.96004,37.28009]]]]}},{"type":"Feature","properties":{"code":"41113680","name":"권선2동","parent":"41113"},"geometry":{"type":"MultiPolygon","coordinates":[[[[127.03507,37.25287],[127.03428,37.25102],[127.03349,37.24917],[127.03345,37.24907],[127.03245,37.24678],[127.03157,37.24524],[127.03043,37.24329],[127.03041,37.24325],[127.02966,37.24204],[127.02906,37.24126],[127.02783,37.23896],[127.02719,37.23794],[127.02687,37.23755],[127.02682,37.23748],[127.02664,37.23726],[127.0265,37.23713],[127.02598,37.23666],[127.02567,37.23638],[127.02513,37.23603],[127.02434,37.23552],[127.02345,37.235],[127.02136,37.23391],[127.02129,37.23387],[127.0208,37.23481],[127.02014,37.23614],[127.02006,37.23631],[127.01981,37.23684],[127.01971,37.23705],[127.01934,37.23785],[127.01767,37.23784],[127.016,37.23783],[127.01569,37.23937],[127.01621,37.24103],[127.01767,37.24597],[127.01771,37.24795],[127.018,37.24867],[127.0181,37.24887],[127.01874,37.25017],[127.02026,37.25313],[127.0219,37.25625],[127.03507,37.25287]]]]}},{"type":"Feature","properties":{"code":"41113670","name":"권선1동","parent":"41113"},"geometry":{"type":"MultiPolygon","coordinates":[[[[127.02068,37.2645],[127.02308,37.26391],[127.02609,37.26314],[127.02935,37.26228],[127.03135,37.26154],[127.03147,37.26133],[127.03159,37.26106],[127.03156,37.26098],[127.03104,37.25967],[127.0307,37.2588],[127.03046,37.2582],[127.03238,37.25768],[127.0329,37.25754],[127.03341,37.2574],[127.03667,37.25652],[127.03947,37.25417],[127.03695,37.25239],[127.03507,37.25287],[127.0219,37.25625],[127.02163,37.25631],[127.02138,37.25637],[127.01806,37.25718],[127.01704,37.25743],[127.01938,37.26197],[127.02043,37.26403],[127.02068,37.2645]]]]}}]}