{"type":"FeatureCollection","features":[{"type":"Feature","properties":{"code":"26320510","name":"구포1동","parent":"26320"},"geometry":{"type":"MultiPolygon","coordinates":[[[[129.0139,35.20535],[129.01482,35.20428],[129.01702,35.20218],[129.01756,35.20172],[129.01825,35.20086],[129.01832,35.20001],[129.01708,35.20042],[129.01384,35.20095],[129.01307,35.20084],[129.01166,35.20127],[129.01107,35.20151],[129.01071,35.20176],[129.00992,35.20264],[129.00904,35.20378],[129.00899,35.20383],[129.00871,35.20421],[129.00864,35.20427],[129.00813,35.20417],[129.00637,35.20376],[129.00585,35.20325],[129.00565,35.20302],[129.00537,35.2027],[129.00529,35.20266],[129.00458,35.20244],[129.00414,35.20231],[129.0036,35.20217],[129.00334,35.20207],[129.00319,35.20216],[129.00182,35.20342],[129.00148,35.20388],[129.00132,35.20415],[129.00127,35.20446],[129.00125,35.20456],[129.00113,35.20524],[129.00109,35.20544],[129.00093,35.20622],[128.99892,35.20621],[128.99633,35.20611],[128.99569,35.20559],[128.99434,35.20671],[128.99505,35.2073],[128.99581,35.20794],[128.99593,35.20966],[128.99616,35.21306],[129.00109,35.21061],[129.00245,35.21015],[129.00354,35.20986],[129.0041,35.20981],[129.00486,35.20998],[129.00733,35.20938],[129.00901,35.20783],[129.00995,35.20695],[129.01041,35.20651],[129.01055,35.20637],[129.01054,35.20633],[129.01047,35.20606],[129.01041,35.20583],[129.01139,35.20508],[129.0121,35.20487],[129.01229,35.20487],[129.0139,35.20535]]]]}},{"type":"Feature","properties":{"code":"26320520","name":"구포2동","parent":"26320"},"geometry":{"type":"MultiPolygon","coordinates":[[[[129.0036,35.20217],[129.00392,35.20198],[129.00397,35.20195],[129.00405,35.20188],[129.00413,35.20179],[129.0045,35.20132],[129.00458,35.20122],[129.00463,35.20114],[129.00491,35.20063],[129.00518,35.19917],[129.00505,35.19886],[129.00258,35.1944],[129.00171,35.19281],[129.00061,35.19166],[128.99821,35.1923],[128.99548,35.19386],[128.99496,35.19479],[128.99424,35.19513],[128.99397,35.19524],[128.99392,35.19526],[128.99159,35.1941],[128.99142,35.19401],[128.99112,35.19382],[128.98795,35.1959],[128.98804,35.19641],[128.98819,35.19724],[128.98987,35.19891],[128.99178,35.20096],[128.98928,35.2025],[128.99287,35.20549],[128.99351,35.20602],[128.9942,35.2066],[128.99434,35.20671],[128.99569,35.20559],[128.99633,35.20611],[128.99892,35.20621],[129.00093,35.20622],[129.00109,35.20544],[129.00113,35.20524],[129.00125,35.20456],[129.00127,35.20446],[129.00132,35.20415],[129.00148,35.20388],[129.00182,35.20342],[129.00319,35.20216],[129.00334,35.20207],[129.0036,35.20217]]]]}},{"type":"Feature","properties":{"code":"26320521","name":"구포3동","parent":"26320"},"geometry":{"type":"MultiPolygon","coordinates":[[[[129.01832,35.20001],[129.02178,35.1994],[129.02322,35.19789],[129.02449,35.19632],[129.02514,35.19491],[129.0255,35.19341],[129.02534,35.1926],[129.02464,35.19137],[129.02303,35.18935],[129.02206,35.18835],[129.02114,35.18775],[129.02068,35.1876],[129.02052,35.18759],[129.01938,35.18778],[129.01793,35.18827],[129.01708,35.1886],[129.01682,35.1889],[129.01599,35.18931],[129.01158,35.18892],[129.00911,35.18881],[129.00826,35.18901],[129.00786,35.1895],[129.00721,35.19045],[129.00735,35.19168],[129.00759,35.19224],[129.0077,35.1925],[129.00729,35.19252],[129.00551,35.19261],[129.00332,35.19272],[129.00171,35.19281],[129.00258,35.1944],[129.00505,35.19886],[129.00518,35.19917],[129.00491,35.20063],[129.00463,35.20114],[129.00458,35.20122],[129.0045,35.20132],[129.00413,35.20179],[129.00405,35.20188],[129.00397,35.20195],[129.00392,35.20198],[129.0036,35.20217],[129.00414,35.20231],[129.00458,35.20244],[129.00529,35.20266],[129.00537,35.2027],[129.00565,35.20302],[129.00585,35.20325],[129.00637,35.20376],[129.00813,35.20417],[129.00864,35.20427],[129.00871,35.20421],[129.00899,35.20383],[129.00904,35.20378],[129.00992,35.20264],[129.01071,35.20176],[129.01107,35.20151],[129.01166,35.20127],[129.01307,35.20084],[129.01384,35.20095],[129.01708,35.20042],[129.01832,35.20001]]]]}},{"type":"Feature","properties":{"code":"26320530","name":"금곡동","parent":"26320"},"geometry":{"type":"MultiPolygon","coordinates":[[[[129.05057,35.28006],[129.04688,35.27377],[129.04624,35.27288],[129.04456,35.2708],[129.0435,35.26992],[129.04318,35.26953],[129.04258,35.26864],[129.0424,35.26792],[129.0424,35.2668],[129.04234,35.26543],[129.04213,35.26401],[129.04189,35.26368],[129.0416,35.26333],[129.04001,35.2628],[129.03912,35.26284],[129.03775,35.26212],[129.037,35.26119],[129.0361,35.25972],[129.03604,35.2595],[129.03598,35.25926],[129.03539,35.25876],[129.03489,35.25835],[129.02987,35.25556],[129.0293,35.25553],[129.02808,35.25574],[129.02723,35.25557],[129.02184,35.25122],[129.02156,35.25],[129.01977,35.24764],[129.01711,35.24529],[129.01665,35.24529],[129.016,35.24529],[129.01474,35.24529],[129.01305,35.24452],[129.01396,35.24154],[129.0141,35.24081],[129.01423,35.24016],[129.0142,35.23987],[129.01318,35.23992],[129.01319,35.2401],[129.01267,35.24029],[129.00596,35.24238],[129.00256,35.24324],[129.00195,35.24306],[129.00146,35.24212],[129.00551,35.25041],[129.00749,35.25425],[129.00994,35.259],[129.01025,35.25974],[129.01098,35.26162],[129.01112,35.262],[129.01146,35.26313],[129.01165,35.26389],[129.01174,35.26426],[129.01244,35.26736],[129.01252,35.26774],[129.01274,35.26889],[129.01281,35.26926],[129.01287,35.26963],[129.0129,35.27],[129.01294,35.27038],[129.01296,35.27076],[129.01297,35.27114],[129.01295,35.27153],[129.01288,35.27219],[129.01261,35.27328],[129.01263,35.2733],[129.01281,35.27345],[129.01489,35.27452],[129.01628,35.27513],[129.01667,35.27528],[129.01678,35.27531],[129.01706,35.27539],[129.01722,35.27543],[129.01808,35.27547],[129.01827,35.27545],[129.0187,35.2755],[129.01996,35.27575],[129.02038,35.27584],[129.02113,35.27612],[129.02151,35.27625],[129.02618,35.27807],[129.03009,35.27852],[129.03392,35.27695],[129.03406,35.27691],[129.03423,35.27686],[129.03787,35.2761],[129.03923,35.27589],[129.04155,35.27848],[129.04211,35.27909],[129.04223,35.27917],[129.04395,35.28025],[129.04411,35.28031],[129.0443,35.28033],[129.04859,35.28039],[129.04869,35.28038],[129.04991,35.27999],[129.05057,35.28006]]]]}},{"type":"Feature","properties":{"code":"26320541","name":"화명1동","parent":"26320"},"geometry":{"type":"MultiPolygon","coordinates":[[[[129.04881,35.23848],[129.04916,35.23803],[129.04697,35.23477],[129.04654,35.23444],[129.04574,35.23334],[129.04609,35.23131],[129.04653,35.231],[129.04912,35.23087],[129.04881,35.22841],[129.04745,35.22592],[129.04643,35.22493],[129.04538,35.22423],[129.04474,35.22719],[129.04407,35.22849],[129.04093,35.22824],[129.03886,35.22778],[129.03432,35.22755],[129.03342,35.22771],[129.02601,35.22626],[129.02469,35.22436],[129.02402,35.22382],[129.02216,35.22391],[129.02148,35.22389],[129.02105,35.22403],[129.02085,35.22405],[129.02038,35.22401],[129.01966,35.22384],[129.01951,35.22374],[129.01549,35.22083],[129.01214,35.21886],[129.01097,35.21789],[129.0107,35.21782],[129.01059,35.2178],[129.00911,35.21745],[129.00841,35.22026],[129.00821,35.2211],[129.00857,35.22188],[129.00863,35.22201],[129.00872,35.22219],[129.00906,35.22346],[129.00907,35.22357],[129.00834,35.22396],[129.00762,35.22433],[129.0075,35.2244],[129.00778,35.22468],[129.00851,35.22543],[129.00928,35.22621],[129.01011,35.22702],[129.01224,35.22822],[129.01239,35.22843],[129.01243,35.22852],[129.01251,35.22869],[129.01254,35.22879],[129.01268,35.22929],[129.0127,35.22936],[129.01326,35.23174],[129.01327,35.23179],[129.0134,35.23236],[129.01348,35.23269],[129.01382,35.23415],[129.01387,35.23445],[129.01412,35.2346],[129.01471,35.23495],[129.0162,35.23595],[129.01658,35.23629],[129.01683,35.23653],[129.01717,35.23685],[129.01768,35.23734],[129.02319,35.23519],[129.02432,35.23435],[129.02588,35.23381],[129.02635,35.23456],[129.02769,35.23672],[129.02764,35.23677],[129.02323,35.23867],[129.02314,35.23867],[129.02302,35.2385],[129.02284,35.23826],[129.0227,35.23832],[129.02291,35.23864],[129.02299,35.23872],[129.0231,35.23877],[129.02319,35.2388],[129.02336,35.23882],[129.02353,35.23883],[129.03343,35.23915],[129.03741,35.23946],[129.03926,35.23942],[129.04881,35.23848]]]]}},{"type":"Feature","properties":{"code":"26320550","name":"덕천1동","parent":"26320"},"geometry":{"type":"MultiPolygon","coordinates":[[[[129.02216,35.22391],[129.02351,35.22231],[129.02365,35.22128],[129.0236,35.2205],[129.02349,35.21957],[129.02338,35.21859],[129.02308,35.21644],[129.02336,35.21399],[129.02402,35.2135],[129.02405,35.21349],[129.02504,35.21336],[129.02351,35.21214],[129.02316,35.21214],[129.02284,35.21213],[129.0202,35.21205],[129.01933,35.21202],[129.01765,35.21196],[129.01728,35.21187],[129.01248,35.21067],[129.01207,35.21056],[129.01094,35.21027],[129.01056,35.21129],[129.01048,35.21152],[129.00961,35.21413],[129.0095,35.21479],[129.01074,35.21527],[129.01194,35.21582],[129.01174,35.21633],[129.01165,35.21656],[129.01155,35.21683],[129.01114,35.21766],[129.01097,35.21789],[129.01214,35.21886],[129.01549,35.22083],[129.01951,35.22374],[129.01966,35.22384],[129.02038,35.22401],[129.02085,35.22405],[129.02105,35.22403],[129.02148,35.22389],[129.02216,35.22391]]]]}},{"type":"Feature","properties":{"code":"26320560","name":"덕천2동","parent":"26320"},"geometry":{"type":"MultiPolygon","coordinates":[[[[129.00821,35.2211],[129.00841,35.22026],[129.00911,35.21745],[129.01059,35.2178],[129.0107,35.21782],[129.01097,35.21789],[129.01114,35.21766],[129.01155,35.21683],[129.01165,35.21656],[129.01174,35.21633],[129.01194,35.21582],[129.01074,35.21527],[129.0095,35.21479],[129.00961,35.21413],[129.01048,35.21152],[129.01056,35.21129],[129.01094,35.21027],[129.01132,35.20924],[129.0115,35.20873],[129.01153,35.20865],[129.01182,35.20872],[129.01237,35.20885],[129.01257,35.2089],[129.01274,35.20894],[129.01397,35.20927],[129.01466,35.20782],[129.0143,35.20562],[129.0139,35.20535],[129.01229,35.20487],[129.0121,35.20487],[129.01139,35.20508],[129.01041,35.20583],[129.01047,35.20606],[129.01054,35.20633],[129.01055,35.20637],[129.01041,35.20651],[129.00995,35.20695],[129.00901,35.20783],[129.00733,35.20938],[129.00486,35.20998],[129.0041,35.20981],[129.00354,35.20986],[129.00245,35.21015],[129.00109,35.21061],[128.99616,35.21306],[128.99688,35.22363],[129.00359,35.22256],[129.00463,35.22246],[129.00468,35.22273],[129.00485,35.2241],[129.00432,35.22513],[129.0042,35.22535],[129.00397,35.22555],[129.00364,35.2262],[129.00401,35.22621],[129.00462,35.22604],[129.00536,35.22573],[129.00584,35.2253],[129.00606,35.22497],[129.00592,35.22463],[129.0055,35.22174],[129.00544,35.22112],[129.00541,35.2205],[129.00611,35.22038],[129.00716,35.22032],[129.00821,35.2211]]]]}},{"type":"Feature","properties":{"code":"26320561","name":"덕천3동","parent":"26320"},"geometry":{"type":"MultiPolygon","coordinates":[[[[129.02178,35.1994],[129.01832,35.20001],[129.01825,35.20086],[129.01756,35.20172],[129.01702,35.20218],[129.01482,35.20428],[129.0139,35.20535],[129.0143,35.20562],[129.01466,35.20782],[129.01397,35.20927],[129.01274,35.20894],[129.01257,35.2089],[129.01237,35.20885],[129.01182,35.20872],[129.01153,35.20865],[129.0115,35.20873],[129.01132,35.20924],[129.01094,35.21027],[129.01207,35.21056],[129.01248,35.21067],[129.01728,35.21187],[129.01765,35.21196],[129.01933,35.21202],[129.0202,35.21205],[129.02284,35.21213],[129.02316,35.21214],[129.02351,35.21214],[129.02294,35.21129],[129.02288,35.21108],[129.02286,35.21102],[129.02276,35.21051],[129.02262,35.20939],[129.02262,35.20921],[129.02262,35.20917],[129.02276,35.20891],[129.02279,35.20887],[129.02282,35.20881],[129.02295,35.20877],[129.02317,35.20863],[129.02355,35.20737],[129.02389,35.2062],[129.024,35.20539],[129.02399,35.20514],[129.02394,35.20494],[129.02383,35.2047],[129.0237,35.20447],[129.02343,35.20416],[129.02303,35.2037],[129.02259,35.20327],[129.02204,35.20271],[129.02173,35.20227],[129.02166,35.20201],[129.02151,35.20128],[129.0215,35.20052],[129.02178,35.1994]]]]}},{"type":"Feature","properties":{"code":"26320571","name":"만덕1동","parent":"26320"},"geometry":{"type":"MultiPolygon","coordinates":[[[[129.05971,35.23002],[129.06,35.22968],[129.06033,35.22924],[129.06057,35.22847],[129.06056,35.22834],[129.0604,35.22814],[129.0603,35.22789],[129.05997,35.22679],[129.06,35.22664],[129.06015,35.22631],[129.0602,35.22622],[129.05926,35.22404],[129.0587,35.22373],[129.05807,35.22322],[129.05779,35.22273],[129.05689,35.2208],[129.05627,35.21908],[129.05479,35.2172],[129.05334,35.21565],[129.05183,35.21397],[129.05164,35.21374],[129.05134,35.21324],[129.05134,35.21298],[129.05137,35.21223],[129.05141,35.21167],[129.05145,35.21136],[129.05099,35.21122],[129.05056,35.21122],[129.0484,35.21135],[129.04783,35.21143],[129.04544,35.21187],[129.04487,35.21221],[129.04441,35.21257],[129.04417,35.21264],[129.04399,35.21269],[129.04301,35.21295],[129.04233,35.21308],[129.0413,35.21305],[129.04118,35.21304],[129.0401,35.2129],[129.03952,35.21283],[129.03855,35.21274],[129.0383,35.21274],[129.03814,35.21274],[129.03807,35.21274],[129.03779,35.21276],[129.03691,35.21313],[129.03686,35.21317],[129.0312,35.21294],[129.02727,35.21304],[129.02504,35.21336],[129.02405,35.21349],[129.02402,35.2135],[129.02336,35.21399],[129.02308,35.21644],[129.02338,35.21859],[129.02349,35.21957],[129.0236,35.2205],[129.02365,35.22128],[129.02351,35.22231],[129.02216,35.22391],[129.02402,35.22382],[129.02469,35.22436],[129.02601,35.22626],[129.03342,35.22771],[129.03432,35.22755],[129.03886,35.22778],[129.04093,35.22824],[129.04407,35.22849],[129.04474,35.22719],[129.04538,35.22423],[129.04643,35.22493],[129.04745,35.22592],[129.04881,35.22841],[129.04912,35.23087],[129.05159,35.22965],[129.0527,35.22955],[129.05381,35.22951],[129.05615,35.22967],[129.05625,35.22968],[129.05699,35.22993],[129.05798,35.23016],[129.05812,35.23019],[129.05832,35.23019],[129.05971,35.23002]]]]}},{"type":"Feature","properties":{"code":"26320572","name":"만덕2동","parent":"26320"},"geometry":{"type":"MultiPolygon","coordinates":[[[[129.05145,35.21136],[129.05098,35.20844],[129.0504,35.20722],[129.05,35.20666],[129.04738,35.20408],[129.0451,35.20197],[129.04358,35.20216],[129.04351,35.20191],[129.04347,35.20125],[129.04353,35.19929],[129.0436,35.19896],[129.04387,35.19839],[129.04154,35.19911],[129.04107,35.19922],[129.03983,35.1995],[129.03955,35.1995],[129.03555,35.19845],[129.03477,35.19817],[129.03437,35.19797],[129.03381,35.19762],[129.03351,35.19704],[129.03311,35.19637],[129.03194,35.19527],[129.02895,35.19404],[129.02753,35.19351],[129.02695,35.19338],[129.02611,35.19334],[129.0255,35.19341],[129.02702,35.19535],[129.02723,35.19631],[129.0273,35.19651],[129.0277,35.19717],[129.02797,35.19761],[129.02968,35.20009],[129.0308,35.20093],[129.03095,35.20104],[129.0313,35.20143],[129.03129,35.20163],[129.03078,35.20408],[129.03116,35.20704],[129.03123,35.20742],[129.03146,35.20841],[129.03152,35.20859],[129.03163,35.20893],[129.03181,35.20948],[129.03246,35.20946],[129.03259,35.20945],[129.0329,35.21093],[129.03254,35.21256],[129.0312,35.21294],[129.03686,35.21317],[129.03691,35.21313],[129.03779,35.21276],[129.03807,35.21274],[129.03814,35.21274],[129.0383,35.21274],[129.03855,35.21274],[129.03952,35.21283],[129.0401,35.2129],[129.04118,35.21304],[129.0413,35.21305],[129.04233,35.21308],[129.04301,35.21295],[129.04399,35.21269],[129.04417,35.21264],[129.04441,35.21257],[129.04487,35.21221],[129.04544,35.21187],[129.04783,35.21143],[129.0484,35.21135],[129.05056,35.21122],[129.05099,35.21122],[129.05145,35.21136]]]]}},{"type":"Feature","properties":{"code":"26320573","name":"만덕3동","parent":"26320"},"geometry":{"type":"MultiPolygon","coordinates":[[[[129.0312,35.21294],[129.03254,35.21256],[129.0329,35.21093],[129.03259,35.20945],[129.03246,35.20946],[129.03181,35.20948],[129.03163,35.20893],[129.03152,35.20859],[129.03146,35.20841],[129.03123,35.20742],[129.03116,35.20704],[129.03078,35.20408],[129.03129,35.20163],[129.0313,35.20143],[129.03095,35.20104],[129.0308,35.20093],[129.02968,35.20009],[129.02797,35.19761],[129.0277,35.19717],[129.0273,35.19651],[129.02723,35.19631],[129.02702,35.19535],[129.0255,35.19341],[129.02514,35.19491],[129.02449,35.19632],[129.02322,35.19789],[129.02178,35.1994],[129.0215,35.20052],[129.02151,35.20128],[129.02166,35.20201],[129.02173,35.20227],[129.02204,35.20271],[129.02259,35.20327],[129.02303,35.2037],[129.02343,35.20416],[129.0237,35.20447],[129.02383,35.2047],[129.02394,35.20494],[129.02399,35.20514],[129.024,35.20539],[129.02389,35.2062],[129.02355,35.20737],[129.02317,35.20863],[129.02295,35.20877],[129.02282,35.20881],[129.02279,35.20887],[129.02276,35.20891],[129.02262,35.20917],[129.02262,35.20921],[129.02262,35.20939],[129.02276,35.21051],[129.02286,35.21102],[129.02288,35.21108],[129.02294,35.21129],[129.02351,35.21214],[129.02504,35.21336],[129.02727,35.21304],[129.0312,35.21294]]]]}},{"type":"Feature","properties":{"code":"26320542","name":"화명2동","parent":"26320"},"geometry":{"type":"MultiPolygon","coordinates":[[[[129.04881,35.23848],[129.03926,35.23942],[129.03741,35.23946],[129.03343,35.23915],[129.02353,35.23883],[129.02336,35.23882],[129.02319,35.2388],[129.0231,35.23877],[129.02299,35.23872],[129.02291,35.23864],[129.0227,35.23832],[129.02284,35.23826],[129.02302,35.2385],[129.02314,35.23867],[129.02323,35.23867],[129.02764,35.23677],[129.02769,35.23672],[129.02635,35.23456],[129.02588,35.23381],[129.02432,35.23435],[129.02319,35.23519],[129.01768,35.23734],[129.01717,35.23685],[129.01683,35.23653],[129.01658,35.23629],[129.0162,35.23595],[129.01471,35.23495],[129.01412,35.2346],[129.01387,35.23445],[129.01365,35.23463],[129.01367,35.23633],[129.0137,35.2369],[129.01397,35.2369],[129.0142,35.23987],[129.01423,35.24016],[129.0141,35.24081],[129.01396,35.24154],[129.01305,35.24452],[129.01474,35.24529],[129.016,35.24529],[129.01665,35.24529],[129.01711,35.24529],[129.01977,35.24764],[129.02156,35.25],[129.02184,35.25122],[129.02723,35.25557],[129.02808,35.25574],[129.0293,35.25553],[129.02987,35.25556],[129.03489,35.25835],[129.03539,35.25876],[129.03598,35.25926],[129.03604,35.2595],[129.0361,35.25972],[129.03765,35.25972],[129.04065,35.2589],[129.04673,35.25703],[129.04779,35.25646],[129.04855,35.25507],[129.04774,35.25464],[129.047,35.25423],[129.04542,35.25214],[129.04537,35.25094],[129.04544,35.24766],[129.04552,35.24702],[129.0461,35.24627],[129.04762,35.24621],[129.04828,35.24603],[129.04872,35.24587],[129.04961,35.24513],[129.05107,35.24102],[129.05064,35.23988],[129.04992,35.23898],[129.04881,35.23848]]]]}},{"type":"Feature","properties":{"code":"26320543","name":"화명3동","parent":"26320"},"geometry":{"type":"MultiPolygon","coordinates":[[[[129.0142,35.23987],[129.01397,35.2369],[129.0137,35.2369],[129.01367,35.23633],[129.01365,35.23463],[129.01387,35.23445],[129.01382,35.23415],[129.01348,35.23269],[129.0134,35.23236],[129.01327,35.23179],[129.01326,35.23174],[129.0127,35.22936],[129.01268,35.22929],[129.01254,35.22879],[129.01251,35.22869],[129.01243,35.22852],[129.01239,35.22843],[129.01224,35.22822],[129.01011,35.22702],[129.00928,35.22621],[129.00851,35.22543],[129.00778,35.22468],[129.0075,35.2244],[129.00762,35.22433],[129.00834,35.22396],[129.00907,35.22357],[129.00906,35.22346],[129.00872,35.22219],[129.00863,35.22201],[129.00857,35.22188],[129.00821,35.2211],[129.00716,35.22032],[129.00611,35.22038],[129.00541,35.2205],[129.00544,35.22112],[129.0055,35.22174],[129.00592,35.22463],[129.00606,35.22497],[129.00584,35.2253],[129.00536,35.22573],[129.00462,35.22604],[129.00401,35.22621],[129.00364,35.2262],[129.00397,35.22555],[129.0042,35.22535],[129.00432,35.22513],[129.00485,35.2241],[129.00468,35.22273],[129.00463,35.22246],[129.00359,35.22256],[128.99688,35.22363],[128.99757,35.2338],[128.99761,35.23439],[128.99774,35.23525],[128.9986,35.237],[129.00146,35.24212],[129.00195,35.24306],[129.00256,35.24324],[129.00596,35.24238],[129.01267,35.24029],[129.01319,35.2401],[129.01318,35.23992],[129.0142,35.23987]]]]}}]}