{"type":"FeatureCollection","features":[{"type":"Feature","properties":{"code":"41430510","name":"고천동","parent":"41430"},"geometry":{"type":"MultiPolygon","coordinates":[[[[127.01687,37.35375],[127.01881,37.35156],[127.01851,37.35044],[127.01776,37.35009],[127.01701,37.35003],[127.01589,37.34976],[127.01461,37.34915],[127.01331,37.34783],[127.0127,37.34688],[127.01269,37.34671],[127.01263,37.34539],[127.01262,37.34513],[127.01159,37.3438],[127.01094,37.34322],[127.0109,37.34314],[127.01042,37.34211],[127.01034,37.34195],[127.01029,37.34183],[127.01015,37.34151],[127.01018,37.34147],[127.01019,37.34142],[127.01022,37.3413],[127.01023,37.34127],[127.01024,37.34124],[127.01026,37.34113],[127.01026,37.34105],[127.01025,37.34101],[127.01022,37.34098],[127.01018,37.34094],[127.01008,37.34084],[127.01001,37.34073],[127.01,37.3407],[127.00999,37.34065],[127.00998,37.34053],[127.00998,37.34044],[127.00995,37.34037],[127.0099,37.34028],[127.00986,37.34022],[127.00982,37.34018],[127.00971,37.34009],[127.00966,37.34006],[127.00957,37.34],[127.00954,37.33998],[127.0095,37.33996],[127.00943,37.33992],[127.0093,37.33982],[127.00922,37.33975],[127.00918,37.33971],[127.00915,37.33967],[127.00913,37.33963],[127.00912,37.33959],[127.00912,37.33954],[127.00913,37.33947],[127.00915,37.33932],[127.00917,37.33921],[127.00918,37.33915],[127.00919,37.33908],[127.00917,37.33893],[127.00914,37.33884],[127.0091,37.33879],[127.00906,37.33877],[127.00903,37.33876],[127.0089,37.33875],[127.00882,37.33876],[127.00876,37.33876],[127.00872,37.33877],[127.00855,37.33878],[127.00836,37.33878],[127.00829,37.33878],[127.008,37.33876],[127.00795,37.33875],[127.00661,37.33863],[127.00653,37.33862],[127.00649,37.33858],[127.00627,37.33832],[127.00625,37.33829],[127.0061,37.33811],[127.00612,37.33807],[127.00399,37.3382],[127.00105,37.33839],[127.0007,37.33845],[127.00047,37.33849],[126.99141,37.33401],[126.99135,37.33397],[126.99047,37.33329],[126.99034,37.33317],[126.98976,37.33248],[126.98967,37.33231],[126.98711,37.32945],[126.98278,37.32675],[126.98234,37.32669],[126.98204,37.32665],[126.98147,37.32662],[126.98105,37.3266],[126.98094,37.32659],[126.9767,37.32852],[126.97354,37.33018],[126.97119,37.33179],[126.97203,37.33391],[126.97204,37.33397],[126.97202,37.33406],[126.97078,37.33665],[126.96953,37.33784],[126.96876,37.33834],[126.96733,37.33897],[126.96682,37.33902],[126.96657,37.33905],[126.96459,37.34032],[126.96456,37.34034],[126.96423,37.34093],[126.96421,37.34125],[126.96423,37.34255],[126.96333,37.34367],[126.9628,37.34428],[126.96248,37.34431],[126.96244,37.34431],[126.96237,37.34432],[126.96233,37.34432],[126.96186,37.34448],[126.95911,37.34656],[126.95824,37.34723],[126.95864,37.3475],[126.95902,37.34777],[126.95909,37.34783],[126.95955,37.34822],[126.95943,37.35062],[126.96139,37.3538],[126.96237,37.35534],[126.96254,37.35538],[126.96309,37.35552],[126.96384,37.35548],[126.96421,37.35544],[126.96455,37.35537],[126.96475,37.35531],[126.96501,37.35519],[126.96514,37.35509],[126.96562,37.35476],[126.96654,37.35412],[126.96705,37.35389],[126.96811,37.35352],[126.9695,37.35369],[126.96967,37.35371],[126.97023,37.35375],[126.97026,37.35373],[126.97027,37.35371],[126.97139,37.35255],[126.97156,37.35238],[126.97179,37.352],[126.97182,37.35195],[126.97206,37.35152],[126.97493,37.34976],[126.98059,37.34939],[126.98482,37.34984],[126.98524,37.35017],[126.98648,37.35053],[126.99195,37.35054],[126.99255,37.35134],[126.99262,37.35142],[126.99264,37.35146],[126.99272,37.35152],[126.99279,37.35158],[126.99283,37.3516],[126.99288,37.35162],[126.99648,37.35321],[126.99673,37.35323],[126.99743,37.35318],[126.99893,37.35308],[127.00068,37.35226],[127.0035,37.35246],[127.00417,37.35251],[127.00439,37.35252],[127.00548,37.35285],[127.00682,37.35325],[127.01015,37.35312],[127.01363,37.35291],[127.01687,37.35375]]]]}},{"type":"Feature","properties":{"code":"41430520","name":"부곡동","parent":"41430"},"geometry":{"type":"MultiPolygon","coordinates":[[[[126.97119,37.33179],[126.9707,37.33006],[126.96727,37.32443],[126.96701,37.32421],[126.96698,37.32416],[126.96696,37.32413],[126.96694,37.32408],[126.96692,37.32324],[126.96874,37.31905],[126.97,37.31692],[126.96771,37.31594],[126.96666,37.31305],[126.96663,37.31259],[126.96636,37.30835],[126.96635,37.30821],[126.96595,37.3074],[126.96575,37.30699],[126.96398,37.30437],[126.96162,37.30242],[126.96108,37.30197],[126.95939,37.30223],[126.95577,37.30281],[126.95553,37.3029],[126.95451,37.30311],[126.9543,37.30314],[126.9541,37.30307],[126.95291,37.30213],[126.95229,37.30065],[126.95174,37.30065],[126.94159,37.30102],[126.93475,37.30307],[126.93295,37.30305],[126.93154,37.30381],[126.93135,37.30396],[126.93128,37.30405],[126.9312,37.30413],[126.93052,37.30521],[126.93051,37.3053],[126.93043,37.30706],[126.93091,37.30708],[126.93137,37.3071],[126.93236,37.30742],[126.93278,37.30771],[126.93289,37.30784],[126.93301,37.308],[126.93302,37.30813],[126.93301,37.30836],[126.93294,37.30859],[126.93286,37.30882],[126.93285,37.30885],[126.93118,37.31159],[126.93086,37.31171],[126.93079,37.31178],[126.93073,37.31186],[126.93029,37.31283],[126.93026,37.31291],[126.93024,37.31296],[126.92953,37.31579],[126.92947,37.31604],[126.92945,37.31617],[126.92948,37.31651],[126.92952,37.31673],[126.92957,37.31684],[126.9296,37.31694],[126.92964,37.31703],[126.93025,37.31729],[126.93057,37.31745],[126.93216,37.31845],[126.9355,37.32164],[126.93559,37.32173],[126.93566,37.32178],[126.93574,37.32183],[126.93603,37.32197],[126.93709,37.32229],[126.93739,37.32233],[126.93742,37.32234],[126.93846,37.32245],[126.93852,37.32245],[126.93861,37.32246],[126.93867,37.32246],[126.93878,37.32245],[126.93887,37.32242],[126.93895,37.32239],[126.93899,37.32237],[126.93908,37.32232],[126.93917,37.32227],[126.93936,37.32213],[126.93964,37.32182],[126.9407,37.32123],[126.94094,37.32116],[126.94352,37.32057],[126.94476,37.3203],[126.94505,37.32034],[126.94529,37.32088],[126.94696,37.32477],[126.9474,37.32696],[126.94742,37.32708],[126.94743,37.32748],[126.94741,37.32814],[126.9479,37.33119],[126.94812,37.33183],[126.9484,37.3369],[126.94856,37.33975],[126.95134,37.34175],[126.95365,37.34102],[126.95444,37.3411],[126.95758,37.34434],[126.95799,37.34611],[126.95824,37.34723],[126.95911,37.34656],[126.96186,37.34448],[126.96233,37.34432],[126.96237,37.34432],[126.96244,37.34431],[126.96248,37.34431],[126.9628,37.34428],[126.96333,37.34367],[126.96423,37.34255],[126.96421,37.34125],[126.96423,37.34093],[126.96456,37.34034],[126.96459,37.34032],[126.96657,37.33905],[126.96682,37.33902],[126.96733,37.33897],[126.96876,37.33834],[126.96953,37.33784],[126.97078,37.33665],[126.97202,37.33406],[126.97204,37.33397],[126.97203,37.33391],[126.97119,37.33179]]]]}},{"type":"Feature","properties":{"code":"41430530","name":"오전동","parent":"41430"},"geometry":{"type":"MultiPolygon","coordinates":[[[[127.01613,37.35664],[127.01687,37.35375],[127.01363,37.35291],[127.01015,37.35312],[127.00682,37.35325],[127.00548,37.35285],[127.00439,37.35252],[127.00417,37.35251],[127.0035,37.35246],[127.00068,37.35226],[126.99893,37.35308],[126.99743,37.35318],[126.99673,37.35323],[126.99648,37.35321],[126.99288,37.35162],[126.99283,37.3516],[126.99279,37.35158],[126.99272,37.35152],[126.99264,37.35146],[126.99262,37.35142],[126.99255,37.35134],[126.99195,37.35054],[126.98648,37.35053],[126.98524,37.35017],[126.98482,37.34984],[126.98059,37.34939],[126.97493,37.34976],[126.97206,37.35152],[126.97182,37.35195],[126.97179,37.352],[126.97156,37.35238],[126.97139,37.35255],[126.97027,37.35371],[126.97026,37.35373],[126.97023,37.35375],[126.96967,37.35371],[126.9695,37.35369],[126.96811,37.35352],[126.96705,37.35389],[126.96654,37.35412],[126.96562,37.35476],[126.96514,37.35509],[126.96501,37.35519],[126.96475,37.35531],[126.96455,37.35537],[126.96421,37.35544],[126.96384,37.35548],[126.96309,37.35552],[126.96254,37.35538],[126.96237,37.35534],[126.96223,37.35538],[126.96195,37.35552],[126.96052,37.35639],[126.96201,37.36144],[126.96202,37.36148],[126.96214,37.36156],[126.96437,37.36177],[126.96444,37.36178],[126.96585,37.3621],[126.96601,37.36215],[126.96613,37.36219],[126.96624,37.36248],[126.96617,37.36325],[126.9661,37.36335],[126.96597,37.36349],[126.9659,37.36357],[126.96571,37.36377],[126.96541,37.36402],[126.96506,37.36425],[126.96483,37.36439],[126.96453,37.36461],[126.9645,37.36464],[126.96442,37.3648],[126.96436,37.36506],[126.96434,37.36515],[126.96461,37.36569],[126.96501,37.36637],[126.96535,37.36735],[126.96545,37.36877],[126.96534,37.37099],[126.96532,37.37172],[126.96532,37.37177],[126.96533,37.37183],[126.96535,37.37191],[126.96537,37.37198],[126.96573,37.37272],[126.96576,37.37275],[126.96607,37.37289],[126.96615,37.37289],[126.96667,37.37289],[126.96689,37.37286],[126.96705,37.37285],[126.96768,37.3724],[126.96769,37.37235],[126.96792,37.37202],[126.9702,37.37112],[126.97064,37.37118],[126.97107,37.37114],[126.97113,37.37113],[126.97145,37.37104],[126.97172,37.37099],[126.972,37.37105],[126.97204,37.37106],[126.97209,37.37109],[126.97218,37.3711],[126.97222,37.37111],[126.97224,37.37115],[126.97226,37.37119],[126.97229,37.3712],[126.97233,37.37118],[126.97242,37.37111],[126.97265,37.37097],[126.97291,37.37083],[126.974,37.3706],[126.97446,37.37018],[126.97449,37.37015],[126.97438,37.36956],[126.9766,37.36805],[126.97682,37.36812],[126.97838,37.36929],[126.97882,37.36994],[126.97929,37.37061],[126.98062,37.37241],[126.98148,37.3733],[126.98157,37.37336],[126.9844,37.37403],[126.98433,37.37336],[126.9864,37.37007],[126.98729,37.36929],[126.98789,37.36949],[126.98843,37.36968],[126.98953,37.36975],[126.9897,37.36977],[126.99029,37.36959],[126.99059,37.3695],[126.99212,37.36785],[126.99265,37.36668],[126.99282,37.36611],[126.99379,37.36472],[126.99515,37.36317],[126.99556,37.36311],[126.99622,37.36302],[126.99686,37.36312],[126.99726,37.36318],[127.00014,37.36287],[127.00336,37.36185],[127.00473,37.36108],[127.00926,37.35859],[127.01613,37.35664]]]]}},{"type":"Feature","properties":{"code":"41430540","name":"내손1동","parent":"41430"},"geometry":{"type":"MultiPolygon","coordinates":[[[[126.98865,37.37961],[126.98843,37.37784],[126.98721,37.37498],[126.9844,37.37403],[126.98157,37.37336],[126.98148,37.3733],[126.98062,37.37241],[126.97929,37.37061],[126.97882,37.36994],[126.97838,37.36929],[126.97682,37.36812],[126.9766,37.36805],[126.97438,37.36956],[126.97449,37.37015],[126.97446,37.37018],[126.974,37.3706],[126.97291,37.37083],[126.97265,37.37097],[126.97242,37.37111],[126.97233,37.37118],[126.97229,37.3712],[126.97226,37.37119],[126.97224,37.37115],[126.97222,37.37111],[126.97218,37.3711],[126.97209,37.37109],[126.97204,37.37106],[126.972,37.37105],[126.97172,37.37099],[126.97145,37.37104],[126.97113,37.37113],[126.97107,37.37114],[126.97064,37.37118],[126.9702,37.37112],[126.96792,37.37202],[126.96769,37.37235],[126.96768,37.3724],[126.96705,37.37285],[126.96689,37.37286],[126.96667,37.37289],[126.96615,37.37289],[126.96607,37.37289],[126.96576,37.37275],[126.96625,37.3733],[126.96778,37.37521],[126.97144,37.38027],[126.97147,37.38031],[126.97223,37.38126],[126.97234,37.38259],[126.97234,37.38262],[126.97245,37.38369],[126.97249,37.38405],[126.9728,37.38677],[126.97293,37.38676],[126.97416,37.38847],[126.97543,37.3869],[126.97641,37.38541],[126.97729,37.38285],[126.97816,37.38154],[126.9785,37.38114],[126.97878,37.38081],[126.9845,37.37964],[126.98695,37.37948],[126.98819,37.37949],[126.98831,37.37952],[126.98865,37.37961]]]]}},{"type":"Feature","properties":{"code":"41430550","name":"내손2동","parent":"41430"},"geometry":{"type":"MultiPolygon","coordinates":[[[[126.98865,37.37961],[126.98831,37.37952],[126.98819,37.37949],[126.98695,37.37948],[126.9845,37.37964],[126.97878,37.38081],[126.9785,37.38114],[126.97816,37.38154],[126.97729,37.38285],[126.97641,37.38541],[126.97543,37.3869],[126.97416,37.38847],[126.97842,37.39169],[126.9787,37.39219],[126.97874,37.39223],[126.97877,37.39227],[126.97881,37.39231],[126.97889,37.39236],[126.97944,37.39271],[126.97949,37.39272],[126.97955,37.39274],[126.98014,37.39292],[126.98054,37.393],[126.98082,37.3931],[126.98101,37.39319],[126.98109,37.39327],[126.98118,37.39335],[126.9815,37.39382],[126.98171,37.39415],[126.98183,37.39438],[126.98367,37.39284],[126.98393,37.39293],[126.98474,37.39254],[126.98594,37.39191],[126.9882,37.38914],[126.98801,37.38894],[126.98706,37.38833],[126.9864,37.38808],[126.98638,37.38792],[126.98638,37.38762],[126.9869,37.38704],[126.98921,37.38445],[126.99015,37.38108],[126.98865,37.37961]]]]}},{"type":"Feature","properties":{"code":"41430560","name":"청계동","parent":"41430"},"geometry":{"type":"MultiPolygon","coordinates":[[[[127.04675,37.4136],[127.0469,37.41349],[127.04696,37.41342],[127.047,37.41331],[127.04701,37.41326],[127.04704,37.41315],[127.04705,37.41306],[127.04704,37.41289],[127.04691,37.41129],[127.0469,37.41119],[127.04686,37.41094],[127.0468,37.41084],[127.04675,37.41076],[127.04666,37.41068],[127.04663,37.41066],[127.0466,37.41062],[127.04496,37.40954],[127.04411,37.40901],[127.04395,37.40894],[127.04386,37.40889],[127.04279,37.40824],[127.04272,37.40818],[127.04268,37.4081],[127.04237,37.40723],[127.04237,37.40711],[127.0424,37.40696],[127.04297,37.40512],[127.04305,37.40494],[127.0437,37.40421],[127.04371,37.40409],[127.04367,37.40393],[127.04353,37.40363],[127.04347,37.40358],[127.04083,37.4023],[127.04075,37.40227],[127.04057,37.40223],[127.04047,37.40221],[127.04043,37.40221],[127.04031,37.40219],[127.04004,37.40214],[127.03982,37.40215],[127.0396,37.40216],[127.03955,37.40217],[127.03952,37.40217],[127.03945,37.40217],[127.03928,37.40217],[127.03923,37.40216],[127.03918,37.40216],[127.03904,37.40213],[127.03854,37.40199],[127.03846,37.40197],[127.03839,37.40193],[127.03834,37.40191],[127.03783,37.40155],[127.03775,37.40149],[127.03764,37.40139],[127.03746,37.40115],[127.03741,37.40107],[127.03738,37.40099],[127.03739,37.40093],[127.0374,37.40084],[127.03771,37.39974],[127.03803,37.39892],[127.03809,37.39886],[127.0382,37.39866],[127.03824,37.39852],[127.03828,37.39817],[127.03872,37.39133],[127.03872,37.39121],[127.03872,37.39115],[127.03871,37.39107],[127.03854,37.39069],[127.03847,37.39056],[127.03839,37.39046],[127.03714,37.38947],[127.03711,37.38944],[127.03704,37.38938],[127.03695,37.38935],[127.03536,37.38879],[127.0327,37.38409],[127.03146,37.38124],[127.02969,37.37934],[127.02962,37.37935],[127.02942,37.37936],[127.02937,37.37936],[127.02913,37.37934],[127.02906,37.37933],[127.02899,37.37931],[127.02894,37.37929],[127.02889,37.37925],[127.02805,37.37787],[127.02741,37.37678],[127.0274,37.37673],[127.02708,37.37557],[127.02709,37.37552],[127.02709,37.37548],[127.0271,37.37538],[127.02717,37.37503],[127.02772,37.37266],[127.02794,37.37214],[127.02797,37.37198],[127.02764,37.37023],[127.02748,37.36971],[127.02738,37.36944],[127.02731,37.36926],[127.02726,37.36914],[127.02704,37.36877],[127.02701,37.36874],[127.02698,37.36871],[127.02696,37.36869],[127.02692,37.36865],[127.02689,37.36863],[127.02681,37.36859],[127.02672,37.36854],[127.02658,37.36846],[127.0264,37.36836],[127.0257,37.36784],[127.02561,37.36773],[127.02559,37.36771],[127.02497,37.36651],[127.02458,37.3655],[127.024,37.36421],[127.02379,37.36386],[127.0237,37.36373],[127.02337,37.36333],[127.0229,37.36295],[127.02243,37.3629],[127.02232,37.36287],[127.02214,37.36282],[127.02183,37.36271],[127.02158,37.36258],[127.02148,37.36253],[127.02083,37.36214],[127.01825,37.36035],[127.01819,37.3603],[127.01755,37.35948],[127.01704,37.3588],[127.01637,37.35775],[127.01613,37.35724],[127.01611,37.35711],[127.01609,37.35693],[127.01613,37.35664],[127.00926,37.35859],[127.00473,37.36108],[127.00336,37.36185],[127.00014,37.36287],[126.99726,37.36318],[126.99686,37.36312],[126.99622,37.36302],[126.99556,37.36311],[126.99515,37.36317],[126.99379,37.36472],[126.99282,37.36611],[126.99265,37.36668],[126.99212,37.36785],[126.99059,37.3695],[126.99029,37.36959],[126.9897,37.36977],[126.98953,37.36975],[126.98843,37.36968],[126.98789,37.36949],[126.98729,37.36929],[126.9864,37.37007],[126.98433,37.37336],[126.9844,37.37403],[126.98721,37.37498],[126.98843,37.37784],[126.98865,37.37961],[126.99015,37.38108],[126.98921,37.38445],[126.9869,37.38704],[126.98638,37.38762],[126.98638,37.38792],[126.9864,37.38808],[126.98706,37.38833],[126.98801,37.38894],[126.9882,37.38914],[126.98594,37.39191],[126.98474,37.39254],[126.98393,37.39293],[126.98367,37.39284],[126.98183,37.39438],[126.97951,37.39589],[126.98087,37.3977],[126.98136,37.3979],[126.98155,37.39804],[126.98173,37.39822],[126.98219,37.39884],[126.98223,37.39896],[126.98247,37.39962],[126.98256,37.39994],[126.98268,37.40035],[126.98257,37.40067],[126.98347,37.40216],[126.98578,37.40664],[126.98593,37.40674],[126.98752,37.40766],[126.98827,37.40794],[126.98988,37.40806],[126.99017,37.40803],[126.99167,37.40776],[126.99177,37.40774],[126.9919,37.40772],[126.99194,37.4077],[126.99199,37.40768],[126.99202,37.40767],[126.99212,37.40758],[126.99219,37.40749],[126.99224,37.40742],[126.99225,37.40739],[126.99236,37.40719],[126.99245,37.40695],[126.99248,37.40692],[126.99254,37.40683],[126.99268,37.4067],[126.99454,37.40535],[126.99477,37.40521],[126.99484,37.40518],[126.99487,37.40517],[126.9949,37.40516],[126.99498,37.40514],[126.99507,37.40513],[126.99514,37.40512],[126.99778,37.40482],[126.99954,37.40463],[126.99971,37.40462],[126.99977,37.40463],[126.99993,37.40473],[127.00018,37.4049],[127.00039,37.40506],[127.00041,37.40509],[127.00048,37.40516],[127.00052,37.40523],[127.00075,37.40574],[127.00168,37.40668],[127.00178,37.40677],[127.00185,37.40683],[127.00209,37.40703],[127.00212,37.40706],[127.00231,37.40714],[127.00261,37.40725],[127.00413,37.40777],[127.00704,37.41054],[127.00845,37.41218],[127.00849,37.4122],[127.0086,37.41223],[127.00866,37.41223],[127.0129,37.4127],[127.01814,37.41318],[127.01946,37.41282],[127.02086,37.41246],[127.02115,37.4124],[127.02605,37.41205],[127.02615,37.41205],[127.02813,37.41209],[127.02822,37.41209],[127.02834,37.4121],[127.0284,37.41211],[127.02908,37.41244],[127.0295,37.41264],[127.03049,37.41296],[127.03375,37.41384],[127.03396,37.41388],[127.03486,37.41406],[127.03503,37.4141],[127.03531,37.41412],[127.03547,37.41413],[127.03582,37.41414],[127.03595,37.41414],[127.03654,37.41408],[127.03674,37.41403],[127.03688,37.41401],[127.03716,37.41397],[127.03759,37.41391],[127.03781,37.41389],[127.03793,37.41391],[127.03798,37.41392],[127.03802,37.41394],[127.0401,37.4148],[127.04098,37.41518],[127.04168,37.41563],[127.04675,37.4136]]]]}}]}