{"type":"FeatureCollection","features":[{"type":"Feature","properties":{"code":"12110510","name":"용당1동","parent":"12110"},"geometry":{"type":"MultiPolygon","coordinates":[[[[126.40397,34.80613],[126.39812,34.80533],[126.39797,34.80527],[126.39763,34.80512],[126.3954,34.80398],[126.39442,34.80347],[126.39359,34.80304],[126.39302,34.80275],[126.39275,34.80257],[126.39255,34.80239],[126.39146,34.80117],[126.39074,34.80036],[126.38938,34.79882],[126.38937,34.79864],[126.38938,34.79853],[126.38939,34.79842],[126.38783,34.79843],[126.38654,34.79781],[126.38668,34.79967],[126.38625,34.80184],[126.38624,34.80187],[126.38623,34.8019],[126.38617,34.80196],[126.38587,34.80227],[126.38565,34.80249],[126.38515,34.80248],[126.3851,34.80256],[126.38506,34.80264],[126.38506,34.80271],[126.38506,34.80276],[126.38525,34.8032],[126.38651,34.80514],[126.38797,34.80642],[126.38866,34.80678],[126.38916,34.80705],[126.38935,34.80715],[126.38821,34.80993],[126.38817,34.81002],[126.38813,34.81009],[126.38802,34.81023],[126.38784,34.81044],[126.3888,34.81072],[126.3889,34.81197],[126.38886,34.813],[126.38897,34.81311],[126.38901,34.81314],[126.3892,34.81322],[126.38973,34.81337],[126.38976,34.81337],[126.39174,34.81364],[126.3938,34.81373],[126.39877,34.8105],[126.40198,34.80814],[126.4029,34.80674],[126.40299,34.80668],[126.40317,34.80656],[126.40358,34.80632],[126.40397,34.80613]]]]}},{"type":"Feature","properties":{"code":"12110520","name":"용당2동","parent":"12110"},"geometry":{"type":"MultiPolygon","coordinates":[[[[126.40423,34.79366],[126.40057,34.79618],[126.39691,34.79615],[126.39683,34.79633],[126.39647,34.79736],[126.39635,34.79777],[126.39629,34.79801],[126.39625,34.79817],[126.39625,34.79823],[126.39625,34.79898],[126.39613,34.7995],[126.39558,34.80029],[126.39536,34.80059],[126.39359,34.80304],[126.39442,34.80347],[126.3954,34.80398],[126.39763,34.80512],[126.39797,34.80527],[126.39812,34.80533],[126.40397,34.80613],[126.40489,34.8051],[126.40359,34.80497],[126.40351,34.80466],[126.40344,34.80437],[126.40383,34.80324],[126.40435,34.80188],[126.40416,34.80111],[126.40407,34.80081],[126.40405,34.80074],[126.40385,34.80033],[126.4037,34.79945],[126.4037,34.79936],[126.4038,34.79896],[126.40484,34.79612],[126.40486,34.79609],[126.40513,34.79583],[126.40591,34.79522],[126.40592,34.79518],[126.40597,34.795],[126.40486,34.79403],[126.40423,34.79366]]]]}},{"type":"Feature","properties":{"code":"12110535","name":"연동","parent":"12110"},"geometry":{"type":"MultiPolygon","coordinates":[[[[126.39691,34.79615],[126.39581,34.79349],[126.38986,34.79359],[126.38972,34.79372],[126.38974,34.79379],[126.3898,34.79407],[126.38983,34.79421],[126.39002,34.79522],[126.39014,34.7961],[126.39013,34.79634],[126.39006,34.7973],[126.39003,34.79753],[126.38978,34.79816],[126.38954,34.79841],[126.38939,34.79842],[126.38938,34.79853],[126.38937,34.79864],[126.38938,34.79882],[126.39074,34.80036],[126.39146,34.80117],[126.39255,34.80239],[126.39275,34.80257],[126.39302,34.80275],[126.39359,34.80304],[126.39536,34.80059],[126.39558,34.80029],[126.39613,34.7995],[126.39625,34.79898],[126.39625,34.79823],[126.39625,34.79817],[126.39629,34.79801],[126.39635,34.79777],[126.39647,34.79736],[126.39683,34.79633],[126.39691,34.79615]]]]}},{"type":"Feature","properties":{"code":"12110545","name":"산정동","parent":"12110"},"geometry":{"type":"MultiPolygon","coordinates":[[[[126.38784,34.81044],[126.38802,34.81023],[126.38813,34.81009],[126.38817,34.81002],[126.38821,34.80993],[126.38935,34.80715],[126.38916,34.80705],[126.38866,34.80678],[126.38797,34.80642],[126.38651,34.80514],[126.38525,34.8032],[126.38506,34.80276],[126.38506,34.80271],[126.38506,34.80264],[126.3851,34.80256],[126.38515,34.80248],[126.38442,34.80274],[126.37984,34.80261],[126.37777,34.80439],[126.37768,34.8048],[126.37764,34.80498],[126.3774,34.80649],[126.37743,34.80651],[126.38128,34.80967],[126.38477,34.8126],[126.38518,34.81222],[126.38784,34.81044]]]]}},{"type":"Feature","properties":{"code":"12110554","name":"연산동","parent":"12110"},"geometry":{"type":"MultiPolygon","coordinates":[[[[126.39271,34.82879],[126.39371,34.82857],[126.39413,34.82845],[126.39419,34.82842],[126.39437,34.82817],[126.39511,34.82685],[126.39529,34.82533],[126.39531,34.82514],[126.39527,34.82497],[126.39495,34.82485],[126.39337,34.82466],[126.39286,34.82414],[126.3916,34.82192],[126.39148,34.82165],[126.39142,34.82145],[126.39138,34.82125],[126.3911,34.81944],[126.39265,34.816],[126.39174,34.81364],[126.38976,34.81337],[126.38973,34.81337],[126.3892,34.81322],[126.38901,34.81314],[126.38897,34.81311],[126.38886,34.813],[126.3889,34.81197],[126.3888,34.81072],[126.38784,34.81044],[126.38518,34.81222],[126.38477,34.8126],[126.38364,34.8134],[126.38323,34.81369],[126.38234,34.81431],[126.38157,34.81482],[126.38136,34.81495],[126.38131,34.81497],[126.38128,34.81495],[126.38117,34.81487],[126.3742,34.8097],[126.3716,34.80779],[126.36767,34.81124],[126.37011,34.8134],[126.37562,34.82126],[126.38214,34.82813],[126.38571,34.82939],[126.38653,34.82958],[126.38742,34.82949],[126.38775,34.82949],[126.38797,34.82952],[126.3883,34.82965],[126.38866,34.82982],[126.38892,34.82994],[126.38912,34.83007],[126.38934,34.83022],[126.38968,34.83044],[126.38983,34.83052],[126.39001,34.8306],[126.39018,34.83064],[126.39037,34.83065],[126.39061,34.83063],[126.39075,34.83059],[126.39095,34.8302],[126.3911,34.82957],[126.39271,34.82879]]]]}},{"type":"Feature","properties":{"code":"12110558","name":"원산동","parent":"12110"},"geometry":{"type":"MultiPolygon","coordinates":[[[[126.38477,34.8126],[126.38128,34.80967],[126.37743,34.80651],[126.3774,34.80649],[126.37764,34.80498],[126.37768,34.8048],[126.37777,34.80439],[126.37984,34.80261],[126.37868,34.8017],[126.3716,34.80779],[126.3742,34.8097],[126.38117,34.81487],[126.38128,34.81495],[126.38131,34.81497],[126.38136,34.81495],[126.38157,34.81482],[126.38234,34.81431],[126.38323,34.81369],[126.38364,34.8134],[126.38477,34.8126]]]]}},{"type":"Feature","properties":{"code":"12110565","name":"대성동","parent":"12110"},"geometry":{"type":"MultiPolygon","coordinates":[[[[126.38515,34.80248],[126.38565,34.80249],[126.38587,34.80227],[126.38617,34.80196],[126.38623,34.8019],[126.38624,34.80187],[126.38625,34.80184],[126.38668,34.79967],[126.38654,34.79781],[126.38542,34.79655],[126.38446,34.79624],[126.38187,34.79701],[126.38013,34.79766],[126.37999,34.79772],[126.37996,34.79773],[126.37947,34.79799],[126.37931,34.79807],[126.37831,34.80104],[126.37868,34.8017],[126.37984,34.80261],[126.38442,34.80274],[126.38515,34.80248]]]]}},{"type":"Feature","properties":{"code":"12110595","name":"목원동","parent":"12110"},"geometry":{"type":"MultiPolygon","coordinates":[[[[126.38939,34.79842],[126.38954,34.79841],[126.38978,34.79816],[126.39003,34.79753],[126.39006,34.7973],[126.39013,34.79634],[126.39014,34.7961],[126.39002,34.79522],[126.38983,34.79421],[126.3898,34.79407],[126.38974,34.79379],[126.38972,34.79372],[126.38922,34.79085],[126.3883,34.78977],[126.38809,34.78957],[126.38769,34.78922],[126.38455,34.78792],[126.38338,34.78848],[126.37817,34.78884],[126.3781,34.78881],[126.37737,34.78851],[126.37684,34.7884],[126.37382,34.78919],[126.37361,34.78925],[126.37346,34.78933],[126.3733,34.78943],[126.37326,34.78945],[126.37245,34.79012],[126.37218,34.79081],[126.37217,34.79084],[126.37212,34.79185],[126.37217,34.79198],[126.37231,34.79224],[126.37242,34.79259],[126.37244,34.79272],[126.37149,34.7944],[126.37165,34.79454],[126.37219,34.79499],[126.37382,34.79615],[126.37386,34.79617],[126.3739,34.79617],[126.37597,34.79647],[126.37861,34.79753],[126.37931,34.79807],[126.37947,34.79799],[126.37996,34.79773],[126.37999,34.79772],[126.38013,34.79766],[126.38187,34.79701],[126.38446,34.79624],[126.38542,34.79655],[126.38654,34.79781],[126.38783,34.79843],[126.38939,34.79842]]]]}},{"type":"Feature","properties":{"code":"12110640","name":"동명동","parent":"12110"},"geometry":{"type":"MultiPolygon","coordinates":[[[[126.39581,34.79349],[126.39894,34.79333],[126.39889,34.7897],[126.39889,34.78932],[126.40018,34.78718],[126.40087,34.78634],[126.3996,34.78548],[126.39866,34.78551],[126.3904,34.78719],[126.38839,34.78864],[126.38804,34.78892],[126.38769,34.78922],[126.38809,34.78957],[126.3883,34.78977],[126.38922,34.79085],[126.38972,34.79372],[126.38986,34.79359],[126.39581,34.79349]]]]}},{"type":"Feature","properties":{"code":"12110645","name":"삼학동","parent":"12110"},"geometry":{"type":"MultiPolygon","coordinates":[[[[126.40423,34.79366],[126.40768,34.79375],[126.40792,34.79375],[126.40807,34.79372],[126.40875,34.79345],[126.41001,34.79214],[126.40839,34.79091],[126.40791,34.79057],[126.40751,34.7904],[126.40746,34.79039],[126.40741,34.79039],[126.40738,34.79037],[126.40734,34.79034],[126.407,34.79005],[126.40698,34.79002],[126.40696,34.78999],[126.40694,34.78996],[126.40694,34.78993],[126.40694,34.7899],[126.40696,34.78986],[126.40697,34.78983],[126.40705,34.78963],[126.40731,34.7892],[126.40779,34.78866],[126.41207,34.79103],[126.41443,34.78845],[126.40977,34.78623],[126.4041,34.7843],[126.40264,34.78558],[126.40087,34.78634],[126.40018,34.78718],[126.39889,34.78932],[126.39889,34.7897],[126.39894,34.79333],[126.39581,34.79349],[126.39691,34.79615],[126.40057,34.79618],[126.40423,34.79366]]]]}},{"type":"Feature","properties":{"code":"12110655","name":"만호동","parent":"12110"},"geometry":{"type":"MultiPolygon","coordinates":[[[[126.40087,34.78634],[126.40264,34.78558],[126.40159,34.78481],[126.40149,34.78466],[126.40126,34.78355],[126.40037,34.78315],[126.39608,34.78226],[126.39173,34.78137],[126.38894,34.78132],[126.38854,34.78055],[126.38861,34.78027],[126.38848,34.78014],[126.38752,34.78052],[126.38992,34.78534],[126.38844,34.78558],[126.38608,34.78252],[126.38452,34.78056],[126.38238,34.77944],[126.38189,34.77944],[126.38163,34.78057],[126.37965,34.7804],[126.3793,34.78036],[126.37935,34.78087],[126.38078,34.78275],[126.3808,34.78278],[126.38075,34.78295],[126.38056,34.78544],[126.38223,34.78584],[126.38322,34.7859],[126.38323,34.78575],[126.38413,34.78521],[126.38514,34.78694],[126.38455,34.78792],[126.38769,34.78922],[126.38804,34.78892],[126.38839,34.78864],[126.3904,34.78719],[126.39866,34.78551],[126.3996,34.78548],[126.40087,34.78634]]]]}},{"type":"Feature","properties":{"code":"12110660","name":"유달동","parent":"12110"},"geometry":{"type":"MultiPolygon","coordinates":[[[[126.29638,34.77597],[126.29631,34.77597],[126.29624,34.77597],[126.29618,34.77598],[126.29605,34.77601],[126.29598,34.77602],[126.29154,34.77727],[126.29022,34.77795],[126.29028,34.77796],[126.29035,34.77797],[126.29039,34.77799],[126.29042,34.778],[126.29045,34.77802],[126.29047,34.77804],[126.29062,34.77814],[126.29204,34.77917],[126.29214,34.77925],[126.29218,34.77929],[126.29258,34.77971],[126.29261,34.77975],[126.29381,34.78113],[126.29395,34.7813],[126.29403,34.78141],[126.29412,34.78155],[126.29419,34.78169],[126.29423,34.7818],[126.29448,34.78295],[126.29445,34.78337],[126.29446,34.78343],[126.29453,34.78349],[126.29519,34.7839],[126.29525,34.78394],[126.29564,34.78403],[126.29572,34.78404],[126.29632,34.78407],[126.29638,34.78407],[126.29645,34.78405],[126.29723,34.78348],[126.30038,34.78186],[126.30159,34.78057],[126.3008,34.77776],[126.30019,34.77681],[126.29653,34.77599],[126.29638,34.77597]]],[[[126.36325,34.77568],[126.3654,34.77441],[126.366,34.77426],[126.36657,34.77458],[126.36705,34.77486],[126.36756,34.77484],[126.3713,34.77346],[126.373,34.77273],[126.37561,34.77094],[126.37569,34.77054],[126.37558,34.76967],[126.37533,34.7688],[126.37435,34.76817],[126.3728,34.76496],[126.37258,34.76412],[126.37273,34.76313],[126.37315,34.76263],[126.37338,34.76189],[126.37273,34.759],[126.37221,34.75832],[126.3715,34.75788],[126.36954,34.75703],[126.36874,34.75688],[126.36727,34.75827],[126.36643,34.75905],[126.36541,34.75995],[126.36521,34.76002],[126.36435,34.75976],[126.36427,34.75943],[126.3643,34.75835],[126.36393,34.7565],[126.36202,34.75158],[126.36113,34.75182],[126.35839,34.75249],[126.35843,34.75033],[126.35846,34.75019],[126.35851,34.75001],[126.35857,34.74983],[126.35872,34.74942],[126.35909,34.74884],[126.35921,34.74873],[126.35938,34.74861],[126.35955,34.74851],[126.35971,34.74843],[126.36048,34.74744],[126.36053,34.74608],[126.36041,34.74496],[126.3604,34.74489],[126.36039,34.74486],[126.36037,34.74483],[126.36034,34.74482],[126.36016,34.74478],[126.36006,34.74477],[126.36001,34.74477],[126.35995,34.74478],[126.35991,34.7448],[126.35987,34.74481],[126.35912,34.74536],[126.35899,34.74545],[126.35867,34.74569],[126.35864,34.74572],[126.35665,34.74759],[126.35661,34.74763],[126.35658,34.74766],[126.35654,34.74772],[126.35651,34.74777],[126.35648,34.74783],[126.35645,34.74787],[126.35643,34.74792],[126.35641,34.74797],[126.3564,34.74801],[126.35638,34.74807],[126.35637,34.74812],[126.35636,34.74823],[126.35634,34.74836],[126.35633,34.74844],[126.35632,34.74848],[126.35631,34.74854],[126.35629,34.7486],[126.35627,34.74865],[126.35624,34.74873],[126.35623,34.74876],[126.35587,34.74944],[126.35581,34.74954],[126.35579,34.74958],[126.35577,34.74961],[126.3557,34.7497],[126.35563,34.74979],[126.35556,34.74989],[126.35546,34.75],[126.35543,34.75003],[126.35535,34.75011],[126.35531,34.75014],[126.35526,34.75017],[126.35514,34.75024],[126.35509,34.75027],[126.35503,34.7503],[126.35498,34.75031],[126.35359,34.75077],[126.35355,34.75078],[126.35349,34.7508],[126.35338,34.75083],[126.35333,34.75084],[126.35327,34.75085],[126.35322,34.75086],[126.35125,34.74833],[126.34887,34.75018],[126.34884,34.75962],[126.3533,34.75976],[126.35804,34.75976],[126.36223,34.75978],[126.36269,34.75982],[126.36284,34.75994],[126.36352,34.76099],[126.36494,34.76374],[126.36495,34.76437],[126.36495,34.76479],[126.3649,34.765],[126.36292,34.76711],[126.3608,34.76965],[126.3607,34.77221],[126.35978,34.77494],[126.35937,34.77534],[126.35903,34.77554],[126.3588,34.77559],[126.35855,34.77554],[126.3581,34.77544],[126.35699,34.77648],[126.35547,34.77842],[126.35514,34.77944],[126.35494,34.78313],[126.35496,34.78356],[126.35501,34.78501],[126.3551,34.78528],[126.35536,34.78534],[126.35558,34.78537],[126.3557,34.78537],[126.35581,34.78533],[126.35586,34.78522],[126.35589,34.78507],[126.35589,34.78489],[126.35589,34.78459],[126.35589,34.78421],[126.35593,34.78368],[126.35648,34.78171],[126.35666,34.78135],[126.35685,34.78099],[126.35775,34.78012],[126.35844,34.77953],[126.35987,34.77845],[126.36101,34.77725],[126.36325,34.77568]]],[[[126.3269,34.78497],[126.32734,34.7847],[126.32808,34.78515],[126.33109,34.78508],[126.33119,34.78506],[126.33129,34.78502],[126.33138,34.78491],[126.33144,34.78482],[126.33147,34.78472],[126.33146,34.78462],[126.33144,34.78456],[126.33088,34.7826],[126.33062,34.78189],[126.33059,34.78181],[126.3279,34.77483],[126.32738,34.77457],[126.32718,34.77446],[126.32709,34.7744],[126.32697,34.7743],[126.32659,34.77395],[126.32553,34.77298],[126.3251,34.77259],[126.32419,34.77167],[126.32369,34.77112],[126.32342,34.77079],[126.32302,34.77021],[126.32274,34.7698],[126.32249,34.7694],[126.32237,34.76919],[126.32227,34.76899],[126.32191,34.76829],[126.3218,34.76804],[126.32166,34.76768],[126.32124,34.7665],[126.32112,34.76613],[126.32109,34.76599],[126.32092,34.7647],[126.32091,34.76458],[126.32092,34.76453],[126.32102,34.76444],[126.32129,34.76429],[126.32132,34.76425],[126.32133,34.76422],[126.32138,34.76388],[126.32138,34.76358],[126.32135,34.76289],[126.32134,34.76276],[126.32104,34.76065],[126.32103,34.76061],[126.32101,34.76055],[126.3209,34.76036],[126.32083,34.76028],[126.32001,34.75941],[126.31995,34.75934],[126.31982,34.7592],[126.31976,34.75916],[126.31968,34.75913],[126.31956,34.75909],[126.31936,34.75906],[126.31924,34.75905],[126.31835,34.75907],[126.31798,34.7591],[126.31791,34.7591],[126.31058,34.76155],[126.30838,34.76273],[126.30832,34.76278],[126.30672,34.76417],[126.30666,34.76423],[126.30657,34.76434],[126.30648,34.76445],[126.30636,34.76463],[126.3051,34.76799],[126.30508,34.76812],[126.30503,34.76855],[126.30503,34.76862],[126.30492,34.77126],[126.30492,34.77144],[126.30497,34.77203],[126.30583,34.77631],[126.30589,34.77643],[126.3064,34.77678],[126.30654,34.77706],[126.30678,34.77752],[126.30695,34.77794],[126.30723,34.77909],[126.30846,34.78224],[126.3085,34.7823],[126.30852,34.78234],[126.30856,34.78238],[126.3086,34.78242],[126.3088,34.78254],[126.30886,34.78257],[126.30892,34.78261],[126.30901,34.78263],[126.30915,34.78265],[126.30921,34.78266],[126.30933,34.78262],[126.31059,34.78208],[126.31251,34.78144],[126.31416,34.78099],[126.31438,34.78093],[126.31508,34.78127],[126.31522,34.78134],[126.3156,34.78288],[126.31571,34.7838],[126.31917,34.7865],[126.32379,34.78919],[126.32386,34.78921],[126.32395,34.78921],[126.32407,34.78919],[126.32532,34.78862],[126.32544,34.78856],[126.32559,34.78845],[126.3257,34.78834],[126.32571,34.78704],[126.32572,34.78686],[126.32581,34.78644],[126.32589,34.78624],[126.32597,34.78607],[126.32614,34.78577],[126.32628,34.78558],[126.32657,34.78523],[126.32674,34.78508],[126.3269,34.78497]]],[[[126.31787,34.79071],[126.31792,34.79057],[126.31843,34.79057],[126.31847,34.79057],[126.3185,34.79054],[126.31818,34.78978],[126.31816,34.78973],[126.31808,34.78959],[126.31805,34.78955],[126.31767,34.78921],[126.31757,34.78912],[126.31742,34.78903],[126.31732,34.78897],[126.31703,34.78882],[126.31692,34.78875],[126.3163,34.78844],[126.31623,34.78841],[126.31617,34.78839],[126.31611,34.78838],[126.31604,34.78838],[126.31571,34.78906],[126.31567,34.78916],[126.31566,34.78924],[126.3157,34.78941],[126.31577,34.78956],[126.31582,34.78962],[126.31629,34.79005],[126.3165,34.79023],[126.31716,34.79072],[126.3172,34.79076],[126.31732,34.79084],[126.31739,34.79087],[126.31744,34.7909],[126.31757,34.79094],[126.31763,34.79093],[126.31771,34.79091],[126.31777,34.79086],[126.31787,34.79071]]],[[[126.34002,34.79484],[126.34011,34.79481],[126.3404,34.79487],[126.34047,34.79486],[126.34053,34.79484],[126.34057,34.79476],[126.34059,34.79469],[126.3406,34.79449],[126.34061,34.79364],[126.34061,34.79353],[126.34057,34.79307],[126.33966,34.7857],[126.33941,34.78377],[126.33936,34.78347],[126.33932,34.78326],[126.33904,34.78212],[126.33902,34.78205],[126.33899,34.782],[126.33896,34.78195],[126.3389,34.78192],[126.33887,34.78191],[126.3388,34.78189],[126.33872,34.7819],[126.33867,34.78192],[126.33861,34.78196],[126.33853,34.782],[126.33841,34.78208],[126.33815,34.78224],[126.33808,34.78231],[126.33803,34.78237],[126.33798,34.78243],[126.3379,34.78256],[126.33778,34.78299],[126.33776,34.78305],[126.33769,34.78401],[126.33791,34.78474],[126.33815,34.7849],[126.33822,34.78498],[126.33823,34.78502],[126.33823,34.78506],[126.33822,34.7851],[126.3382,34.78518],[126.33815,34.78528],[126.3381,34.78535],[126.33731,34.7865],[126.33728,34.78654],[126.33569,34.78777],[126.33566,34.78779],[126.3353,34.788],[126.33499,34.78806],[126.33447,34.78802],[126.33443,34.78802],[126.33437,34.788],[126.33414,34.78787],[126.33402,34.7877],[126.33401,34.78767],[126.33402,34.78764],[126.33404,34.78761],[126.33409,34.78758],[126.33414,34.78755],[126.3342,34.78751],[126.33424,34.78744],[126.33425,34.78738],[126.33429,34.78705],[126.33428,34.78702],[126.33426,34.78697],[126.33423,34.78695],[126.33402,34.78687],[126.33389,34.78682],[126.33381,34.78681],[126.33368,34.78682],[126.3336,34.78683],[126.33354,34.78686],[126.33343,34.78693],[126.33339,34.78699],[126.33337,34.78704],[126.33336,34.78711],[126.33335,34.78718],[126.33336,34.78724],[126.33337,34.78729],[126.33339,34.78736],[126.33349,34.78753],[126.33399,34.78828],[126.33742,34.79327],[126.33751,34.79339],[126.33773,34.79368],[126.338,34.79399],[126.33811,34.79408],[126.33821,34.79416],[126.33903,34.79469],[126.33917,34.79478],[126.33928,34.79482],[126.33941,34.79487],[126.33953,34.7949],[126.33968,34.79491],[126.33979,34.7949],[126.33992,34.79487],[126.34002,34.79484]]],[[[126.33125,34.79489],[126.33142,34.79495],[126.33149,34.79492],[126.33301,34.79403],[126.33309,34.79399],[126.33317,34.79393],[126.33322,34.79389],[126.33326,34.79383],[126.33329,34.79377],[126.33332,34.79369],[126.33334,34.79358],[126.33332,34.79331],[126.33308,34.79081],[126.33295,34.79049],[126.33289,34.79033],[126.33272,34.78996],[126.33269,34.7899],[126.33263,34.78981],[126.33258,34.78978],[126.33239,34.79102],[126.33237,34.79114],[126.33217,34.79228],[126.3317,34.79354],[126.33131,34.79431],[126.33127,34.79439],[126.33124,34.79448],[126.3312,34.79468],[126.33121,34.79474],[126.33122,34.79482],[126.33125,34.79489]]],[[[126.38455,34.78792],[126.38514,34.78694],[126.38413,34.78521],[126.38323,34.78575],[126.38322,34.7859],[126.38223,34.78584],[126.38056,34.78544],[126.38075,34.78295],[126.3808,34.78278],[126.38078,34.78275],[126.37935,34.78087],[126.3793,34.78036],[126.37639,34.78],[126.37474,34.77984],[126.3735,34.7798],[126.37265,34.77996],[126.3697,34.78057],[126.36891,34.78084],[126.36879,34.78094],[126.3687,34.78107],[126.36819,34.78244],[126.36817,34.7825],[126.36808,34.78285],[126.36805,34.78306],[126.36808,34.78403],[126.36819,34.78485],[126.3678,34.78658],[126.36697,34.78787],[126.36683,34.78808],[126.3662,34.78859],[126.36521,34.78929],[126.36174,34.79152],[126.35743,34.79421],[126.35774,34.79488],[126.35806,34.79546],[126.35848,34.79612],[126.35898,34.79678],[126.35962,34.7975],[126.36035,34.7982],[126.36257,34.79999],[126.36561,34.80009],[126.36603,34.79987],[126.36768,34.79903],[126.36788,34.79862],[126.36789,34.79858],[126.36791,34.79854],[126.36792,34.79844],[126.36792,34.7984],[126.36792,34.79834],[126.36792,34.79829],[126.36791,34.79824],[126.3679,34.79819],[126.36783,34.79789],[126.36778,34.79772],[126.36856,34.79691],[126.37103,34.79474],[126.37149,34.7944],[126.37244,34.79272],[126.37242,34.79259],[126.37231,34.79224],[126.37217,34.79198],[126.37212,34.79185],[126.37217,34.79084],[126.37218,34.79081],[126.37245,34.79012],[126.37326,34.78945],[126.3733,34.78943],[126.37346,34.78933],[126.37361,34.78925],[126.37382,34.78919],[126.37684,34.7884],[126.37737,34.78851],[126.3781,34.78881],[126.37817,34.78884],[126.38338,34.78848],[126.38455,34.78792]]],[[[126.33142,34.79495],[126.33134,34.79495],[126.33129,34.79492],[126.33125,34.79489],[126.32998,34.79444],[126.32743,34.79467],[126.32714,34.79473],[126.32508,34.79518],[126.32493,34.7952],[126.32457,34.79526],[126.3242,34.79528],[126.32341,34.79529],[126.32321,34.79529],[126.32298,34.79528],[126.31813,34.79473],[126.31641,34.79372],[126.31641,34.7936],[126.31639,34.79348],[126.31638,34.79341],[126.31637,34.79336],[126.31634,34.79329],[126.31628,34.79316],[126.31625,34.79311],[126.31588,34.79259],[126.31578,34.79244],[126.31569,34.79235],[126.31563,34.79232],[126.31557,34.7923],[126.31486,34.7922],[126.31477,34.7922],[126.31458,34.79226],[126.31452,34.79228],[126.31434,34.79235],[126.31426,34.79239],[126.31397,34.79252],[126.31391,34.79256],[126.31386,34.79261],[126.31335,34.79307],[126.31326,34.79318],[126.31319,34.79329],[126.31315,34.79341],[126.31312,34.79356],[126.3131,34.7938],[126.3131,34.79386],[126.31312,34.79399],[126.31317,34.79421],[126.31321,34.79434],[126.31397,34.79667],[126.31403,34.79678],[126.3141,34.79692],[126.31419,34.79709],[126.31454,34.79911],[126.31451,34.80138],[126.31415,34.80358],[126.3141,34.80376],[126.31403,34.80425],[126.31403,34.80474],[126.31407,34.80507],[126.31493,34.8087],[126.3156,34.81079],[126.31565,34.81092],[126.3157,34.81106],[126.3158,34.81131],[126.31587,34.81147],[126.31596,34.81165],[126.31605,34.81181],[126.31642,34.81238],[126.31664,34.81272],[126.31678,34.81286],[126.3169,34.81298],[126.31725,34.81329],[126.31754,34.81353],[126.31798,34.81383],[126.31835,34.81401],[126.32125,34.81495],[126.32296,34.81549],[126.32305,34.81551],[126.32353,34.81559],[126.32363,34.81561],[126.32755,34.81601],[126.32874,34.81565],[126.32893,34.81554],[126.32901,34.81547],[126.32914,34.81536],[126.3293,34.8152],[126.32934,34.81516],[126.3308,34.81309],[126.33109,34.81248],[126.33112,34.81241],[126.33114,34.81233],[126.33115,34.81226],[126.33115,34.81221],[126.33115,34.81217],[126.33196,34.80844],[126.33389,34.80525],[126.33314,34.80357],[126.33385,34.80296],[126.33672,34.79984],[126.33687,34.79967],[126.33698,34.79955],[126.33703,34.79944],[126.33709,34.79929],[126.33713,34.79912],[126.33715,34.79902],[126.33715,34.7988],[126.33713,34.79871],[126.33707,34.7986],[126.33697,34.79843],[126.33681,34.79824],[126.33661,34.79799],[126.33577,34.79718],[126.33481,34.79645],[126.33456,34.79627],[126.33431,34.79612],[126.33408,34.79598],[126.33384,34.79585],[126.33363,34.79575],[126.33344,34.79567],[126.33142,34.79495]]]]}},{"type":"Feature","properties":{"code":"12110695","name":"죽교동","parent":"12110"},"geometry":{"type":"MultiPolygon","coordinates":[[[[126.36461,34.80335],[126.3655,34.80332],[126.36803,34.80317],[126.36812,34.80314],[126.36822,34.80306],[126.3683,34.803],[126.36882,34.80256],[126.37312,34.80232],[126.37646,34.80178],[126.37831,34.80104],[126.37931,34.79807],[126.37861,34.79753],[126.37597,34.79647],[126.3739,34.79617],[126.37386,34.79617],[126.37382,34.79615],[126.37219,34.79499],[126.37165,34.79454],[126.37149,34.7944],[126.37103,34.79474],[126.36856,34.79691],[126.36778,34.79772],[126.36783,34.79789],[126.3679,34.79819],[126.36791,34.79824],[126.36792,34.79829],[126.36792,34.79834],[126.36792,34.7984],[126.36792,34.79844],[126.36791,34.79854],[126.36789,34.79858],[126.36788,34.79862],[126.36768,34.79903],[126.36603,34.79987],[126.36561,34.80009],[126.36257,34.79999],[126.36035,34.7982],[126.35962,34.7975],[126.35898,34.79678],[126.35848,34.79612],[126.35806,34.79546],[126.35774,34.79488],[126.35743,34.79421],[126.35559,34.79536],[126.35533,34.79478],[126.35505,34.79468],[126.353,34.79531],[126.34989,34.79627],[126.34966,34.79647],[126.35604,34.80162],[126.35596,34.80219],[126.358,34.80383],[126.35838,34.80351],[126.35682,34.80225],[126.35995,34.79961],[126.3616,34.80019],[126.36461,34.80335]]]]}},{"type":"Feature","properties":{"code":"12110705","name":"북항동","parent":"12110"},"geometry":{"type":"MultiPolygon","coordinates":[[[[126.3716,34.80779],[126.37868,34.8017],[126.37831,34.80104],[126.37646,34.80178],[126.37312,34.80232],[126.36882,34.80256],[126.3683,34.803],[126.36822,34.80306],[126.36812,34.80314],[126.36803,34.80317],[126.3655,34.80332],[126.36461,34.80335],[126.3645,34.80462],[126.36252,34.80624],[126.36236,34.80671],[126.36767,34.81124],[126.3716,34.80779]]]]}},{"type":"Feature","properties":{"code":"12110745","name":"용해동","parent":"12110"},"geometry":{"type":"MultiPolygon","coordinates":[[[[126.40466,34.82364],[126.40513,34.82342],[126.40519,34.82337],[126.40524,34.82332],[126.40529,34.82325],[126.40626,34.82169],[126.40632,34.82156],[126.40845,34.81311],[126.40828,34.81081],[126.40824,34.80706],[126.41012,34.80585],[126.40818,34.80623],[126.40397,34.80613],[126.40358,34.80632],[126.40317,34.80656],[126.40299,34.80668],[126.4029,34.80674],[126.40198,34.80814],[126.39877,34.8105],[126.3938,34.81373],[126.39174,34.81364],[126.39265,34.816],[126.3911,34.81944],[126.39138,34.82125],[126.39142,34.82145],[126.39148,34.82165],[126.3916,34.82192],[126.39286,34.82414],[126.39337,34.82466],[126.39495,34.82485],[126.39527,34.82497],[126.39531,34.82514],[126.39529,34.82533],[126.39511,34.82685],[126.39437,34.82817],[126.39419,34.82842],[126.39413,34.82845],[126.39371,34.82857],[126.39271,34.82879],[126.39288,34.82893],[126.39292,34.82895],[126.39354,34.82929],[126.39363,34.8293],[126.39395,34.8293],[126.39422,34.82919],[126.39451,34.82904],[126.39657,34.82783],[126.39827,34.82499],[126.39848,34.8246],[126.3985,34.82457],[126.39853,34.82455],[126.40354,34.82351],[126.40431,34.82347],[126.40438,34.82347],[126.40444,34.82348],[126.4045,34.8235],[126.4046,34.82357],[126.40463,34.8236],[126.40466,34.82364]]]]}},{"type":"Feature","properties":{"code":"12110750","name":"이로동","parent":"12110"},"geometry":{"type":"MultiPolygon","coordinates":[[[[126.41012,34.80585],[126.41027,34.80526],[126.41185,34.80121],[126.4129,34.80025],[126.41311,34.79991],[126.414,34.79857],[126.41597,34.79701],[126.42097,34.79573],[126.42115,34.79568],[126.42262,34.79572],[126.42361,34.79597],[126.42468,34.79657],[126.42492,34.79658],[126.42551,34.79645],[126.42568,34.79636],[126.42612,34.79559],[126.42622,34.79535],[126.42571,34.79308],[126.42513,34.79215],[126.42015,34.79107],[126.41751,34.79112],[126.41571,34.79147],[126.41469,34.79181],[126.41354,34.79235],[126.4135,34.79237],[126.41301,34.79202],[126.41269,34.79179],[126.41207,34.79103],[126.40779,34.78866],[126.40731,34.7892],[126.40705,34.78963],[126.40697,34.78983],[126.40696,34.78986],[126.40694,34.7899],[126.40694,34.78993],[126.40694,34.78996],[126.40696,34.78999],[126.40698,34.79002],[126.407,34.79005],[126.40734,34.79034],[126.40738,34.79037],[126.40741,34.79039],[126.40746,34.79039],[126.40751,34.7904],[126.40791,34.79057],[126.40839,34.79091],[126.41001,34.79214],[126.40875,34.79345],[126.40807,34.79372],[126.40792,34.79375],[126.40768,34.79375],[126.40423,34.79366],[126.40486,34.79403],[126.40597,34.795],[126.40592,34.79518],[126.40591,34.79522],[126.40513,34.79583],[126.40486,34.79609],[126.40484,34.79612],[126.4038,34.79896],[126.4037,34.79936],[126.4037,34.79945],[126.40385,34.80033],[126.40405,34.80074],[126.40407,34.80081],[126.40416,34.80111],[126.40435,34.80188],[126.40383,34.80324],[126.40344,34.80437],[126.40351,34.80466],[126.40359,34.80497],[126.40489,34.8051],[126.40397,34.80613],[126.40818,34.80623],[126.41012,34.80585]]]]}},{"type":"Feature","properties":{"code":"12110756","name":"상동","parent":"12110"},"geometry":{"type":"MultiPolygon","coordinates":[[[[126.42726,34.8198],[126.42693,34.81978],[126.42636,34.81973],[126.42604,34.81969],[126.42511,34.81954],[126.42467,34.81942],[126.42424,34.81922],[126.42347,34.81886],[126.42296,34.81863],[126.42276,34.81854],[126.42245,34.81832],[126.42214,34.81806],[126.42189,34.81784],[126.42166,34.8176],[126.42145,34.81736],[126.42104,34.81682],[126.42053,34.81572],[126.42046,34.81558],[126.41963,34.81357],[126.41851,34.81087],[126.41775,34.80919],[126.41755,34.80875],[126.41731,34.80839],[126.41695,34.808],[126.41672,34.80775],[126.41629,34.80744],[126.41577,34.80705],[126.41571,34.80703],[126.41507,34.80675],[126.41475,34.80661],[126.41349,34.80632],[126.41012,34.80585],[126.40824,34.80706],[126.40828,34.81081],[126.40845,34.81311],[126.40632,34.82156],[126.40626,34.82169],[126.40529,34.82325],[126.40524,34.82332],[126.40519,34.82337],[126.40513,34.82342],[126.40466,34.82364],[126.40535,34.82516],[126.40842,34.82515],[126.4089,34.82499],[126.40959,34.82507],[126.41096,34.82563],[126.411,34.82566],[126.41103,34.82568],[126.41114,34.82587],[126.41117,34.82595],[126.41119,34.826],[126.41135,34.82659],[126.41145,34.82707],[126.41037,34.82799],[126.41039,34.82826],[126.41046,34.82881],[126.41104,34.82914],[126.41123,34.82919],[126.41297,34.8295],[126.41496,34.82933],[126.41686,34.82922],[126.41859,34.83014],[126.42109,34.82727],[126.4234,34.82513],[126.4256,34.82359],[126.42638,34.82304],[126.42667,34.82262],[126.42711,34.8214],[126.42716,34.82085],[126.42722,34.82021],[126.42724,34.82005],[126.42726,34.8198]]]]}},{"type":"Feature","properties":{"code":"12110757","name":"하당동","parent":"12110"},"geometry":{"type":"MultiPolygon","coordinates":[[[[126.42785,34.81945],[126.42709,34.81878],[126.42672,34.81696],[126.42696,34.81643],[126.42763,34.81505],[126.42792,34.81447],[126.42576,34.81401],[126.42267,34.81334],[126.42455,34.81043],[126.42524,34.80942],[126.42694,34.80697],[126.4129,34.80025],[126.41185,34.80121],[126.41027,34.80526],[126.41012,34.80585],[126.41349,34.80632],[126.41475,34.80661],[126.41507,34.80675],[126.41571,34.80703],[126.41577,34.80705],[126.41629,34.80744],[126.41672,34.80775],[126.41695,34.808],[126.41731,34.80839],[126.41755,34.80875],[126.41775,34.80919],[126.41851,34.81087],[126.41963,34.81357],[126.42046,34.81558],[126.42053,34.81572],[126.42104,34.81682],[126.42145,34.81736],[126.42166,34.8176],[126.42189,34.81784],[126.42214,34.81806],[126.42245,34.81832],[126.42276,34.81854],[126.42296,34.81863],[126.42347,34.81886],[126.42424,34.81922],[126.42467,34.81942],[126.42511,34.81954],[126.42604,34.81969],[126.42636,34.81973],[126.42693,34.81978],[126.42726,34.8198],[126.42785,34.81945]]]]}},{"type":"Feature","properties":{"code":"12110758","name":"신흥동","parent":"12110"},"geometry":{"type":"MultiPolygon","coordinates":[[[[126.42858,34.80462],[126.43137,34.80063],[126.43179,34.80004],[126.43245,34.80036],[126.4337,34.80094],[126.43397,34.80107],[126.43667,34.79717],[126.43457,34.79622],[126.43286,34.79544],[126.43012,34.79413],[126.42697,34.79379],[126.42571,34.79308],[126.42622,34.79535],[126.42612,34.79559],[126.42568,34.79636],[126.42551,34.79645],[126.42492,34.79658],[126.42468,34.79657],[126.42361,34.79597],[126.42262,34.79572],[126.42115,34.79568],[126.42097,34.79573],[126.41597,34.79701],[126.414,34.79857],[126.41311,34.79991],[126.4129,34.80025],[126.42694,34.80697],[126.42858,34.80462]]]]}},{"type":"Feature","properties":{"code":"12110780","name":"삼향동","parent":"12110"},"geometry":{"type":"MultiPolygon","coordinates":[[[[126.41211,34.84389],[126.41239,34.84384],[126.4128,34.84378],[126.41746,34.84403],[126.41905,34.84441],[126.41984,34.84407],[126.4214,34.84236],[126.42493,34.83901],[126.42507,34.83891],[126.42775,34.83788],[126.42782,34.83786],[126.42815,34.83784],[126.43173,34.83766],[126.43302,34.83769],[126.43317,34.83772],[126.43339,34.83777],[126.43351,34.83782],[126.43381,34.838],[126.43406,34.83818],[126.43637,34.83772],[126.43641,34.83771],[126.43645,34.83769],[126.43648,34.83767],[126.43824,34.83663],[126.43827,34.8366],[126.43857,34.8361],[126.43874,34.83579],[126.43884,34.83552],[126.43889,34.83535],[126.4392,34.83396],[126.4392,34.83391],[126.43921,34.83386],[126.43923,34.83043],[126.43895,34.82887],[126.43814,34.82546],[126.43836,34.82141],[126.43835,34.82127],[126.43831,34.82113],[126.43389,34.82127],[126.43384,34.82129],[126.43335,34.82123],[126.43326,34.82121],[126.43309,34.82118],[126.43299,34.82115],[126.43289,34.82113],[126.43282,34.8211],[126.43231,34.8209],[126.4317,34.82065],[126.43145,34.82053],[126.43135,34.82049],[126.43128,34.82045],[126.43129,34.82036],[126.4313,34.82027],[126.43134,34.82003],[126.43136,34.8198],[126.43137,34.81974],[126.42785,34.81945],[126.42726,34.8198],[126.42724,34.82005],[126.42722,34.82021],[126.42716,34.82085],[126.42711,34.8214],[126.42667,34.82262],[126.42638,34.82304],[126.4256,34.82359],[126.4234,34.82513],[126.42109,34.82727],[126.41859,34.83014],[126.41686,34.82922],[126.41496,34.82933],[126.41297,34.8295],[126.41123,34.82919],[126.41104,34.82914],[126.41046,34.82881],[126.41039,34.82826],[126.41037,34.82799],[126.41145,34.82707],[126.41135,34.82659],[126.41119,34.826],[126.41117,34.82595],[126.41114,34.82587],[126.41103,34.82568],[126.411,34.82566],[126.41096,34.82563],[126.40959,34.82507],[126.4089,34.82499],[126.40842,34.82515],[126.40535,34.82516],[126.40466,34.82364],[126.40463,34.8236],[126.4046,34.82357],[126.4045,34.8235],[126.40444,34.82348],[126.40438,34.82347],[126.40431,34.82347],[126.40354,34.82351],[126.39853,34.82455],[126.3985,34.82457],[126.39848,34.8246],[126.39827,34.82499],[126.39657,34.82783],[126.39451,34.82904],[126.39422,34.82919],[126.39395,34.8293],[126.39363,34.8293],[126.39354,34.82929],[126.39292,34.82895],[126.39288,34.82893],[126.39271,34.82879],[126.3911,34.82957],[126.39095,34.8302],[126.39075,34.83059],[126.39061,34.83063],[126.39037,34.83065],[126.39018,34.83064],[126.39001,34.8306],[126.38983,34.83052],[126.38968,34.83044],[126.38934,34.83022],[126.38912,34.83007],[126.38892,34.82994],[126.38866,34.82982],[126.3883,34.82965],[126.38797,34.82952],[126.38775,34.82949],[126.38742,34.82949],[126.38653,34.82958],[126.38819,34.83386],[126.38805,34.83689],[126.39273,34.8371],[126.39663,34.83816],[126.39891,34.83981],[126.40039,34.8419],[126.40008,34.84282],[126.40011,34.8444],[126.40095,34.84434],[126.40096,34.84273],[126.40353,34.84293],[126.40679,34.84295],[126.4074,34.84263],[126.40871,34.84245],[126.41028,34.84246],[126.41241,34.8427],[126.41211,34.84389]]]]}},{"type":"Feature","properties":{"code":"12110790","name":"옥암동","parent":"12110"},"geometry":{"type":"MultiPolygon","coordinates":[[[[126.43831,34.82113],[126.44213,34.82011],[126.44283,34.81997],[126.44977,34.81908],[126.44983,34.81909],[126.44988,34.81909],[126.44992,34.81908],[126.44996,34.81908],[126.45189,34.81871],[126.45285,34.81848],[126.45319,34.81833],[126.45435,34.81765],[126.45442,34.81761],[126.45444,34.81759],[126.45449,34.81753],[126.45461,34.81735],[126.45466,34.81728],[126.45467,34.81725],[126.45468,34.81722],[126.45483,34.81684],[126.45484,34.81681],[126.45484,34.81677],[126.45485,34.8167],[126.45489,34.8144],[126.45123,34.8142],[126.44862,34.81505],[126.44826,34.81577],[126.4481,34.81584],[126.44783,34.81593],[126.44756,34.81598],[126.44733,34.816],[126.44695,34.81598],[126.44565,34.81584],[126.44422,34.81546],[126.44333,34.81509],[126.44271,34.8148],[126.4422,34.81441],[126.44159,34.81364],[126.44103,34.81256],[126.44091,34.81222],[126.43774,34.81087],[126.43677,34.81082],[126.43588,34.81077],[126.43565,34.81072],[126.43549,34.81068],[126.43462,34.81047],[126.4344,34.81041],[126.43295,34.80985],[126.43284,34.8098],[126.43391,34.80914],[126.43439,34.80884],[126.43525,34.80831],[126.43558,34.80806],[126.43577,34.80784],[126.4361,34.80733],[126.43386,34.80636],[126.43351,34.80659],[126.43309,34.80666],[126.43297,34.80667],[126.43288,34.80664],[126.4328,34.80662],[126.43274,34.8066],[126.43199,34.80625],[126.43115,34.80585],[126.43035,34.80547],[126.42858,34.80462],[126.42694,34.80697],[126.42524,34.80942],[126.42455,34.81043],[126.42267,34.81334],[126.42576,34.81401],[126.42792,34.81447],[126.42763,34.81505],[126.42696,34.81643],[126.42672,34.81696],[126.42709,34.81878],[126.42785,34.81945],[126.43137,34.81974],[126.43136,34.8198],[126.43134,34.82003],[126.4313,34.82027],[126.43129,34.82036],[126.43128,34.82045],[126.43135,34.82049],[126.43145,34.82053],[126.4317,34.82065],[126.43231,34.8209],[126.43282,34.8211],[126.43289,34.82113],[126.43299,34.82115],[126.43309,34.82118],[126.43326,34.82121],[126.43335,34.82123],[126.43384,34.82129],[126.43389,34.82127],[126.43831,34.82113]]]]}},{"type":"Feature","properties":{"code":"12110800","name":"부흥동","parent":"12110"},"geometry":{"type":"MultiPolygon","coordinates":[[[[126.44146,34.79942],[126.43667,34.79717],[126.43397,34.80107],[126.4337,34.80094],[126.43245,34.80036],[126.43179,34.80004],[126.43137,34.80063],[126.42858,34.80462],[126.43035,34.80547],[126.43115,34.80585],[126.43199,34.80625],[126.43274,34.8066],[126.4328,34.80662],[126.43288,34.80664],[126.43297,34.80667],[126.43309,34.80666],[126.43351,34.80659],[126.43386,34.80636],[126.4361,34.80733],[126.43655,34.80665],[126.43684,34.80619],[126.43725,34.80554],[126.43743,34.80526],[126.43795,34.80451],[126.43812,34.80432],[126.43868,34.80371],[126.43917,34.80317],[126.43924,34.80309],[126.43941,34.80287],[126.43954,34.80269],[126.43967,34.8025],[126.43986,34.80221],[126.44008,34.80184],[126.44018,34.80167],[126.4408,34.80058],[126.44146,34.79942]]]]}},{"type":"Feature","properties":{"code":"12110810","name":"부주동","parent":"12110"},"geometry":{"type":"MultiPolygon","coordinates":[[[[126.45489,34.8144],[126.45492,34.81294],[126.45495,34.8118],[126.45505,34.81048],[126.45637,34.80933],[126.4579,34.80813],[126.45806,34.80828],[126.45824,34.80841],[126.45834,34.80847],[126.45845,34.80853],[126.45859,34.80856],[126.45941,34.80858],[126.45941,34.80739],[126.45941,34.80594],[126.45941,34.80538],[126.45863,34.80537],[126.45859,34.80077],[126.46194,34.80006],[126.4619,34.79996],[126.46129,34.79875],[126.45951,34.79488],[126.45883,34.79335],[126.4564,34.79382],[126.4542,34.79409],[126.45068,34.79434],[126.44797,34.79448],[126.44542,34.79293],[126.44518,34.79278],[126.44495,34.79263],[126.44466,34.79244],[126.44497,34.79316],[126.44416,34.79462],[126.44204,34.79839],[126.44169,34.79901],[126.44146,34.79942],[126.4408,34.80058],[126.44018,34.80167],[126.44008,34.80184],[126.43986,34.80221],[126.43967,34.8025],[126.43954,34.80269],[126.43941,34.80287],[126.43924,34.80309],[126.43917,34.80317],[126.43868,34.80371],[126.43812,34.80432],[126.43795,34.80451],[126.43743,34.80526],[126.43725,34.80554],[126.43684,34.80619],[126.43655,34.80665],[126.4361,34.80733],[126.43577,34.80784],[126.43558,34.80806],[126.43525,34.80831],[126.43439,34.80884],[126.43391,34.80914],[126.43284,34.8098],[126.43295,34.80985],[126.4344,34.81041],[126.43462,34.81047],[126.43549,34.81068],[126.43565,34.81072],[126.43588,34.81077],[126.43677,34.81082],[126.43774,34.81087],[126.44091,34.81222],[126.44103,34.81256],[126.44159,34.81364],[126.4422,34.81441],[126.44271,34.8148],[126.44333,34.81509],[126.44422,34.81546],[126.44565,34.81584],[126.44695,34.81598],[126.44733,34.816],[126.44756,34.81598],[126.44783,34.81593],[126.4481,34.81584],[126.44826,34.81577],[126.44862,34.81505],[126.45123,34.8142],[126.45489,34.8144]]]]}}]}