{"type":"FeatureCollection","features":[{"type":"Feature","properties":{"code":"11350560","name":"월계1동","parent":"11350"},"geometry":{"type":"MultiPolygon","coordinates":[[[[127.06801,37.61557],[127.06801,37.61554],[127.06801,37.61544],[127.06775,37.61522],[127.06605,37.6143],[127.06594,37.61428],[127.06487,37.61422],[127.06289,37.61434],[127.06274,37.61431],[127.06242,37.61429],[127.06221,37.61433],[127.06201,37.61438],[127.06172,37.61452],[127.06152,37.61462],[127.06146,37.61465],[127.06123,37.61477],[127.06091,37.61495],[127.06061,37.61565],[127.05691,37.61812],[127.05421,37.62017],[127.05396,37.62038],[127.05384,37.62048],[127.05373,37.62058],[127.05335,37.6209],[127.05272,37.62153],[127.05217,37.62209],[127.05111,37.62325],[127.04999,37.62443],[127.05904,37.6302],[127.05909,37.63005],[127.05914,37.62987],[127.05916,37.62981],[127.05922,37.62964],[127.05931,37.62937],[127.05963,37.62858],[127.05991,37.62793],[127.05994,37.62786],[127.05997,37.6278],[127.06017,37.62737],[127.06074,37.62629],[127.06166,37.62433],[127.06206,37.6234],[127.06241,37.62336],[127.0643,37.61903],[127.06508,37.61723],[127.06508,37.61716],[127.06513,37.61697],[127.06517,37.61688],[127.06546,37.61622],[127.06576,37.61554],[127.06587,37.6153],[127.06596,37.61509],[127.06801,37.61557]]]]}},{"type":"Feature","properties":{"code":"11350570","name":"월계2동","parent":"11350"},"geometry":{"type":"MultiPolygon","coordinates":[[[[127.05494,37.64076],[127.05888,37.63763],[127.05959,37.63655],[127.05862,37.63627],[127.05882,37.63177],[127.05893,37.63072],[127.05896,37.63059],[127.05904,37.6302],[127.04999,37.62443],[127.04824,37.62647],[127.04616,37.62809],[127.04289,37.63044],[127.04216,37.63088],[127.04197,37.63099],[127.04148,37.63128],[127.0429,37.6327],[127.04353,37.63308],[127.04394,37.63344],[127.04403,37.63362],[127.04492,37.63592],[127.04492,37.63596],[127.04501,37.63687],[127.0453,37.63749],[127.04551,37.63783],[127.04635,37.63916],[127.048,37.6417],[127.0506,37.64515],[127.05125,37.6452],[127.05126,37.64516],[127.05225,37.64279],[127.05233,37.6426],[127.05262,37.64209],[127.05289,37.64175],[127.05321,37.6414],[127.05338,37.64123],[127.05362,37.64104],[127.05401,37.64074],[127.05413,37.64067],[127.05419,37.64066],[127.05427,37.64064],[127.05437,37.64064],[127.05494,37.64076]]]]}},{"type":"Feature","properties":{"code":"11350580","name":"월계3동","parent":"11350"},"geometry":{"type":"MultiPolygon","coordinates":[[[[127.06439,37.63078],[127.06469,37.62929],[127.06484,37.62887],[127.06494,37.62861],[127.06535,37.62819],[127.06716,37.62646],[127.06826,37.62555],[127.07005,37.62355],[127.07083,37.62157],[127.07117,37.61808],[127.07118,37.61732],[127.07119,37.61643],[127.07119,37.61637],[127.06801,37.61557],[127.06596,37.61509],[127.06587,37.6153],[127.06576,37.61554],[127.06546,37.61622],[127.06517,37.61688],[127.06513,37.61697],[127.06508,37.61716],[127.06508,37.61723],[127.0643,37.61903],[127.06241,37.62336],[127.06206,37.6234],[127.06166,37.62433],[127.06074,37.62629],[127.06017,37.62737],[127.05997,37.6278],[127.05994,37.62786],[127.05991,37.62793],[127.05963,37.62858],[127.05931,37.62937],[127.05922,37.62964],[127.05916,37.62981],[127.05914,37.62987],[127.05909,37.63005],[127.05904,37.6302],[127.05896,37.63059],[127.05893,37.63072],[127.05882,37.63177],[127.05862,37.63627],[127.05959,37.63655],[127.06028,37.63549],[127.0605,37.63519],[127.06088,37.63471],[127.06118,37.63442],[127.0616,37.63407],[127.06222,37.63354],[127.06228,37.6335],[127.06289,37.63298],[127.06359,37.63235],[127.0637,37.63224],[127.06386,37.63205],[127.06395,37.63191],[127.06402,37.63179],[127.06415,37.63145],[127.06439,37.63078]]]]}},{"type":"Feature","properties":{"code":"11350600","name":"공릉2동","parent":"11350"},"geometry":{"type":"MultiPolygon","coordinates":[[[[127.11115,37.64241],[127.11134,37.642],[127.11195,37.64027],[127.11238,37.63523],[127.11204,37.63262],[127.11142,37.63133],[127.11098,37.63059],[127.11091,37.63053],[127.11084,37.63047],[127.11042,37.63014],[127.10862,37.62914],[127.10549,37.62726],[127.10537,37.62714],[127.10526,37.62691],[127.10353,37.62307],[127.10353,37.62304],[127.10351,37.6229],[127.10366,37.62247],[127.10398,37.62177],[127.10403,37.62169],[127.10407,37.62166],[127.10424,37.62152],[127.10429,37.62149],[127.10435,37.62146],[127.10496,37.62117],[127.10502,37.62117],[127.10511,37.62117],[127.10525,37.62116],[127.1053,37.62115],[127.10537,37.62113],[127.10542,37.62111],[127.1055,37.62106],[127.10562,37.62102],[127.10566,37.621],[127.1057,37.62095],[127.10572,37.6209],[127.10571,37.62083],[127.10502,37.62068],[127.10183,37.61989],[127.10155,37.61981],[127.10151,37.6198],[127.10145,37.61976],[127.1005,37.61888],[127.09704,37.61705],[127.09695,37.61705],[127.09682,37.61705],[127.09615,37.6171],[127.09305,37.61804],[127.09261,37.61821],[127.09244,37.61828],[127.08954,37.61964],[127.08797,37.61989],[127.08573,37.62017],[127.08415,37.61963],[127.08245,37.6193],[127.08164,37.61925],[127.08103,37.61977],[127.0808,37.61978],[127.08032,37.61989],[127.08016,37.61995],[127.08001,37.62001],[127.07989,37.62006],[127.0797,37.62015],[127.07964,37.62018],[127.07954,37.62023],[127.07931,37.62036],[127.07906,37.62053],[127.07862,37.62092],[127.07856,37.62098],[127.07851,37.62102],[127.07831,37.62126],[127.07815,37.62162],[127.07806,37.62185],[127.07791,37.62238],[127.07785,37.62276],[127.0778,37.6231],[127.07778,37.62322],[127.07776,37.62335],[127.07773,37.62354],[127.07765,37.62404],[127.07763,37.62413],[127.07754,37.62471],[127.07754,37.62474],[127.07752,37.62481],[127.07745,37.62511],[127.07739,37.62528],[127.07735,37.62543],[127.07732,37.6255],[127.07724,37.6257],[127.07719,37.62582],[127.07711,37.62598],[127.07687,37.62646],[127.07683,37.62653],[127.0764,37.62719],[127.07624,37.62741],[127.07621,37.62745],[127.07615,37.62753],[127.0761,37.62758],[127.07597,37.62772],[127.07581,37.6279],[127.07576,37.62796],[127.07573,37.62799],[127.07568,37.62802],[127.07563,37.62807],[127.07549,37.62819],[127.07401,37.62937],[127.07313,37.62998],[127.0721,37.63068],[127.07173,37.63092],[127.0713,37.63108],[127.07417,37.63083],[127.07531,37.63076],[127.07665,37.63469],[127.08033,37.63641],[127.0804,37.63645],[127.08075,37.63663],[127.08149,37.63743],[127.08154,37.63749],[127.08158,37.63754],[127.08306,37.64007],[127.08571,37.64089],[127.08597,37.64094],[127.08603,37.64094],[127.0878,37.64099],[127.08793,37.64099],[127.08801,37.64098],[127.08832,37.64096],[127.08841,37.64094],[127.08848,37.6409],[127.08851,37.64089],[127.08866,37.64084],[127.08872,37.64082],[127.08917,37.64082],[127.08926,37.64082],[127.09056,37.6411],[127.09103,37.64126],[127.09413,37.64259],[127.09462,37.64383],[127.09445,37.64576],[127.09493,37.64551],[127.09781,37.64528],[127.10139,37.64538],[127.10396,37.64563],[127.10657,37.64549],[127.10742,37.64503],[127.10803,37.64464],[127.10807,37.64452],[127.10822,37.64416],[127.10907,37.64303],[127.10918,37.64292],[127.10956,37.64261],[127.10959,37.64258],[127.10964,37.64255],[127.1097,37.64251],[127.10975,37.64249],[127.11115,37.64241]]]]}},{"type":"Feature","properties":{"code":"11350611","name":"하계1동","parent":"11350"},"geometry":{"type":"MultiPolygon","coordinates":[[[[127.0765,37.646],[127.07821,37.64435],[127.07833,37.64429],[127.07912,37.64389],[127.07959,37.64417],[127.07994,37.64418],[127.08069,37.64386],[127.08091,37.64368],[127.08194,37.64219],[127.08309,37.64051],[127.08306,37.64007],[127.08158,37.63754],[127.08154,37.63749],[127.08149,37.63743],[127.08075,37.63663],[127.0804,37.63645],[127.08033,37.63641],[127.07665,37.63469],[127.07531,37.63076],[127.07417,37.63083],[127.0713,37.63108],[127.0703,37.6314],[127.0694,37.63329],[127.06875,37.63421],[127.0668,37.63868],[127.06936,37.63939],[127.07185,37.6431],[127.07121,37.64441],[127.07077,37.64531],[127.07289,37.64591],[127.07421,37.64629],[127.07424,37.64624],[127.07465,37.6454],[127.07604,37.64446],[127.0765,37.646]]]]}},{"type":"Feature","properties":{"code":"11350612","name":"하계2동","parent":"11350"},"geometry":{"type":"MultiPolygon","coordinates":[[[[127.0668,37.63868],[127.06875,37.63421],[127.0694,37.63329],[127.0703,37.6314],[127.06439,37.63078],[127.06415,37.63145],[127.06402,37.63179],[127.06395,37.63191],[127.06386,37.63205],[127.0637,37.63224],[127.06359,37.63235],[127.06289,37.63298],[127.06228,37.6335],[127.06222,37.63354],[127.0616,37.63407],[127.06118,37.63442],[127.06088,37.63471],[127.0605,37.63519],[127.06028,37.63549],[127.05959,37.63655],[127.05888,37.63763],[127.06013,37.63953],[127.06136,37.63718],[127.0668,37.63868]]]]}},{"type":"Feature","properties":{"code":"11350619","name":"중계본동","parent":"11350"},"geometry":{"type":"MultiPolygon","coordinates":[[[[127.09445,37.64576],[127.09462,37.64383],[127.09413,37.64259],[127.09103,37.64126],[127.09056,37.6411],[127.08926,37.64082],[127.08917,37.64082],[127.08872,37.64082],[127.08866,37.64084],[127.08851,37.64089],[127.08848,37.6409],[127.08841,37.64094],[127.08832,37.64096],[127.08801,37.64098],[127.08793,37.64099],[127.0878,37.64099],[127.08603,37.64094],[127.08597,37.64094],[127.08571,37.64089],[127.08306,37.64007],[127.08309,37.64051],[127.08194,37.64219],[127.08091,37.64368],[127.08069,37.64386],[127.07994,37.64418],[127.07959,37.64417],[127.07912,37.64389],[127.07833,37.64429],[127.07821,37.64435],[127.0765,37.646],[127.07671,37.65017],[127.07806,37.65274],[127.07811,37.65284],[127.07813,37.65292],[127.07816,37.65308],[127.07817,37.65315],[127.07817,37.65319],[127.07817,37.65322],[127.07817,37.65327],[127.07817,37.65335],[127.07817,37.65343],[127.08603,37.65591],[127.08634,37.6555],[127.08658,37.65541],[127.08921,37.65495],[127.09062,37.6549],[127.09282,37.6549],[127.0936,37.65332],[127.0923,37.64999],[127.09229,37.64995],[127.0923,37.64992],[127.09234,37.64973],[127.09237,37.6496],[127.09245,37.64925],[127.09255,37.64888],[127.09258,37.64881],[127.09348,37.64699],[127.09394,37.64633],[127.09445,37.64576]]]]}},{"type":"Feature","properties":{"code":"11350621","name":"중계1동","parent":"11350"},"geometry":{"type":"MultiPolygon","coordinates":[[[[127.07817,37.65343],[127.07817,37.65335],[127.07817,37.65327],[127.07817,37.65322],[127.07817,37.65319],[127.07817,37.65315],[127.07816,37.65308],[127.07813,37.65292],[127.07811,37.65284],[127.07806,37.65274],[127.07671,37.65017],[127.0765,37.646],[127.07604,37.64446],[127.07465,37.6454],[127.07424,37.64624],[127.07421,37.64629],[127.07289,37.64591],[127.07077,37.64531],[127.0686,37.65048],[127.06877,37.65062],[127.06968,37.65135],[127.06974,37.65141],[127.07019,37.65182],[127.07038,37.65199],[127.0706,37.65219],[127.07071,37.65231],[127.07085,37.65246],[127.071,37.65263],[127.07106,37.65269],[127.0714,37.65306],[127.07145,37.65315],[127.07168,37.65362],[127.07191,37.65407],[127.07201,37.65455],[127.07208,37.6549],[127.07213,37.65516],[127.07422,37.65469],[127.07817,37.65343]]]]}},{"type":"Feature","properties":{"code":"11350624","name":"중계4동","parent":"11350"},"geometry":{"type":"MultiPolygon","coordinates":[[[[127.09396,37.66257],[127.09244,37.65809],[127.09023,37.65728],[127.08845,37.65662],[127.08603,37.65591],[127.07817,37.65343],[127.07422,37.65469],[127.07213,37.65516],[127.07161,37.65836],[127.07441,37.66149],[127.07481,37.66186],[127.075,37.66203],[127.07527,37.66227],[127.07586,37.66259],[127.07753,37.66241],[127.07767,37.66237],[127.07824,37.66201],[127.07847,37.66186],[127.07853,37.66184],[127.07879,37.6618],[127.0796,37.66191],[127.08321,37.66244],[127.08583,37.66302],[127.0888,37.66372],[127.09062,37.66334],[127.09075,37.66313],[127.09396,37.66257]]]]}},{"type":"Feature","properties":{"code":"11350630","name":"상계1동","parent":"11350"},"geometry":{"type":"MultiPolygon","coordinates":[[[[127.08111,37.69609],[127.08286,37.6951],[127.08349,37.69461],[127.08377,37.69466],[127.08429,37.69401],[127.08514,37.69142],[127.08514,37.691],[127.08502,37.69085],[127.08493,37.69084],[127.08364,37.69013],[127.08011,37.68855],[127.07918,37.68848],[127.07853,37.68784],[127.07695,37.68616],[127.07597,37.68434],[127.0752,37.68224],[127.07384,37.67766],[127.0738,37.67729],[127.07362,37.67679],[127.07132,37.67477],[127.07121,37.67471],[127.07115,37.67467],[127.07098,37.67458],[127.07053,37.67435],[127.06905,37.67388],[127.06877,37.674],[127.06771,37.67424],[127.06693,37.67395],[127.06668,37.67385],[127.06656,37.6738],[127.06539,37.67331],[127.06336,37.67263],[127.06271,37.67241],[127.05981,37.67227],[127.05826,37.6713],[127.05624,37.67052],[127.04893,37.6712],[127.04893,37.67123],[127.04897,37.67185],[127.049,37.6721],[127.04906,37.67264],[127.04908,37.67278],[127.04914,37.67312],[127.05094,37.68015],[127.05149,37.682],[127.05182,37.68242],[127.05186,37.68247],[127.05201,37.68366],[127.05202,37.68387],[127.05192,37.68481],[127.05144,37.68579],[127.05118,37.68632],[127.05107,37.68651],[127.05094,37.68673],[127.05078,37.68702],[127.05294,37.68813],[127.05463,37.68929],[127.05482,37.68935],[127.05683,37.68957],[127.05755,37.6894],[127.05816,37.68915],[127.05885,37.68894],[127.06038,37.68869],[127.0618,37.68898],[127.06451,37.68964],[127.06511,37.68985],[127.06535,37.69005],[127.06547,37.69023],[127.06564,37.69047],[127.06566,37.6906],[127.06826,37.69347],[127.06837,37.69358],[127.06881,37.69406],[127.06939,37.69437],[127.06994,37.69426],[127.07043,37.69408],[127.07104,37.69413],[127.072,37.69426],[127.07263,37.69435],[127.07283,37.69443],[127.07292,37.69446],[127.07446,37.69548],[127.07594,37.69596],[127.07734,37.69638],[127.08111,37.69609]]]]}},{"type":"Feature","properties":{"code":"11350640","name":"상계2동","parent":"11350"},"geometry":{"type":"MultiPolygon","coordinates":[[[[127.07161,37.65836],[127.07213,37.65516],[127.07208,37.6549],[127.07201,37.65455],[127.07191,37.65407],[127.07168,37.65362],[127.07145,37.65315],[127.0714,37.65306],[127.07106,37.65269],[127.071,37.65263],[127.07085,37.65246],[127.07071,37.65231],[127.0706,37.65219],[127.07038,37.65199],[127.07019,37.65182],[127.06974,37.65141],[127.06968,37.65135],[127.06877,37.65062],[127.0686,37.65048],[127.0674,37.65457],[127.06735,37.65477],[127.0671,37.65563],[127.06701,37.65575],[127.0664,37.65562],[127.06499,37.65532],[127.06445,37.65519],[127.06236,37.65471],[127.06078,37.65436],[127.06043,37.65571],[127.06082,37.65577],[127.06106,37.65581],[127.06135,37.65588],[127.06172,37.65597],[127.06158,37.6574],[127.0626,37.65893],[127.06289,37.65896],[127.06466,37.65922],[127.06521,37.6594],[127.0653,37.65973],[127.06533,37.65985],[127.0655,37.66062],[127.06569,37.6614],[127.06572,37.66155],[127.06805,37.66032],[127.07161,37.65836]]]]}},{"type":"Feature","properties":{"code":"11350670","name":"상계5동","parent":"11350"},"geometry":{"type":"MultiPolygon","coordinates":[[[[127.07012,37.66795],[127.07094,37.66735],[127.07096,37.66685],[127.07095,37.66663],[127.07094,37.66648],[127.07085,37.66615],[127.07077,37.66589],[127.07073,37.66559],[127.07074,37.66544],[127.07075,37.66537],[127.07081,37.66524],[127.0709,37.6651],[127.07102,37.66494],[127.07107,37.66487],[127.07122,37.66464],[127.0713,37.66453],[127.07133,37.6645],[127.0714,37.66444],[127.07205,37.66403],[127.07249,37.66378],[127.07363,37.66277],[127.07441,37.66149],[127.07161,37.65836],[127.06805,37.66032],[127.06572,37.66155],[127.0667,37.66778],[127.06672,37.66784],[127.06857,37.66806],[127.06913,37.66799],[127.06936,37.66784],[127.07012,37.66795]]]]}},{"type":"Feature","properties":{"code":"11350700","name":"상계8동","parent":"11350"},"geometry":{"type":"MultiPolygon","coordinates":[[[[127.05624,37.67052],[127.05768,37.66419],[127.05803,37.66374],[127.05869,37.66121],[127.0587,37.66118],[127.05278,37.66167],[127.05147,37.6618],[127.05132,37.66365],[127.05127,37.66398],[127.05113,37.66436],[127.05105,37.66457],[127.05085,37.66495],[127.05061,37.66531],[127.05006,37.66611],[127.04979,37.66646],[127.04976,37.6665],[127.04972,37.66656],[127.04967,37.66662],[127.04929,37.66737],[127.04928,37.6674],[127.04901,37.66807],[127.04889,37.66874],[127.04882,37.66909],[127.04893,37.6712],[127.05624,37.67052]]]]}},{"type":"Feature","properties":{"code":"11350710","name":"상계9동","parent":"11350"},"geometry":{"type":"MultiPolygon","coordinates":[[[[127.07012,37.66795],[127.06936,37.66784],[127.06913,37.66799],[127.06857,37.66806],[127.06672,37.66784],[127.0667,37.66778],[127.06572,37.66155],[127.06569,37.6614],[127.06423,37.66139],[127.06354,37.66139],[127.06293,37.66139],[127.06295,37.66157],[127.063,37.66189],[127.06305,37.66195],[127.06314,37.6624],[127.0632,37.66278],[127.06343,37.6648],[127.06333,37.66483],[127.06316,37.66489],[127.06263,37.66507],[127.06251,37.6651],[127.06243,37.66513],[127.06222,37.66516],[127.06187,37.66519],[127.06162,37.66517],[127.06111,37.66509],[127.05804,37.66458],[127.05803,37.66374],[127.05768,37.66419],[127.05624,37.67052],[127.05826,37.6713],[127.05981,37.67227],[127.06271,37.67241],[127.06336,37.67263],[127.06539,37.67331],[127.06656,37.6738],[127.06628,37.67048],[127.07012,37.66795]]]]}},{"type":"Feature","properties":{"code":"11350720","name":"상계10동","parent":"11350"},"geometry":{"type":"MultiPolygon","coordinates":[[[[127.06569,37.6614],[127.0655,37.66062],[127.06533,37.65985],[127.0653,37.65973],[127.06521,37.6594],[127.06466,37.65922],[127.06289,37.65896],[127.0626,37.65893],[127.06158,37.6574],[127.06172,37.65597],[127.06135,37.65588],[127.06106,37.65581],[127.06082,37.65577],[127.06043,37.65571],[127.05418,37.65448],[127.05244,37.65816],[127.05155,37.66066],[127.05147,37.6618],[127.05278,37.66167],[127.0587,37.66118],[127.05869,37.66121],[127.05803,37.66374],[127.05804,37.66458],[127.06111,37.66509],[127.06162,37.66517],[127.06187,37.66519],[127.06222,37.66516],[127.06243,37.66513],[127.06251,37.6651],[127.06263,37.66507],[127.06316,37.66489],[127.06333,37.66483],[127.06343,37.6648],[127.0632,37.66278],[127.06314,37.6624],[127.06305,37.66195],[127.063,37.66189],[127.06295,37.66157],[127.06293,37.66139],[127.06354,37.66139],[127.06423,37.66139],[127.06569,37.6614]]]]}},{"type":"Feature","properties":{"code":"11350665","name":"상계3·4동","parent":"11350"},"geometry":{"type":"MultiPolygon","coordinates":[[[[127.09592,37.68772],[127.09632,37.68595],[127.09629,37.68579],[127.09629,37.68574],[127.09586,37.68475],[127.09563,37.68432],[127.09553,37.68426],[127.0954,37.68419],[127.09506,37.6841],[127.09499,37.68408],[127.09467,37.684],[127.09428,37.68355],[127.09281,37.6818],[127.0928,37.68178],[127.0927,37.68158],[127.09183,37.67919],[127.09184,37.67901],[127.09184,37.67892],[127.09193,37.67839],[127.09204,37.67792],[127.09227,37.67748],[127.09246,37.67736],[127.09279,37.67738],[127.09298,37.67728],[127.09361,37.67662],[127.09556,37.67281],[127.09563,37.6726],[127.09574,37.67227],[127.09575,37.672],[127.09573,37.67042],[127.09441,37.66436],[127.09396,37.66257],[127.09075,37.66313],[127.09062,37.66334],[127.0888,37.66372],[127.08583,37.66302],[127.08321,37.66244],[127.0796,37.66191],[127.07879,37.6618],[127.07853,37.66184],[127.07847,37.66186],[127.07824,37.66201],[127.07767,37.66237],[127.07753,37.66241],[127.07586,37.66259],[127.07527,37.66227],[127.075,37.66203],[127.07481,37.66186],[127.07441,37.66149],[127.07363,37.66277],[127.07249,37.66378],[127.07205,37.66403],[127.0714,37.66444],[127.07133,37.6645],[127.0713,37.66453],[127.07122,37.66464],[127.07107,37.66487],[127.07102,37.66494],[127.0709,37.6651],[127.07081,37.66524],[127.07075,37.66537],[127.07074,37.66544],[127.07073,37.66559],[127.07077,37.66589],[127.07085,37.66615],[127.07094,37.66648],[127.07095,37.66663],[127.07096,37.66685],[127.07094,37.66735],[127.07012,37.66795],[127.06628,37.67048],[127.06656,37.6738],[127.06668,37.67385],[127.06693,37.67395],[127.06771,37.67424],[127.06877,37.674],[127.06905,37.67388],[127.07053,37.67435],[127.07098,37.67458],[127.07115,37.67467],[127.07121,37.67471],[127.07132,37.67477],[127.07362,37.67679],[127.0738,37.67729],[127.07384,37.67766],[127.0752,37.68224],[127.07597,37.68434],[127.07695,37.68616],[127.07853,37.68784],[127.07918,37.68848],[127.08011,37.68855],[127.08364,37.69013],[127.08493,37.69084],[127.08583,37.69045],[127.08624,37.69031],[127.08899,37.68976],[127.08941,37.68977],[127.08959,37.68981],[127.08993,37.68989],[127.0922,37.68973],[127.09233,37.68972],[127.09241,37.68971],[127.09284,37.68968],[127.09495,37.68917],[127.09531,37.68904],[127.0955,37.68897],[127.09558,37.68894],[127.09579,37.68886],[127.09592,37.68772]]]]}},{"type":"Feature","properties":{"code":"11350695","name":"상계6·7동","parent":"11350"},"geometry":{"type":"MultiPolygon","coordinates":[[[[127.0686,37.65048],[127.06741,37.65001],[127.06617,37.64951],[127.06592,37.64938],[127.06584,37.64932],[127.06577,37.64928],[127.06149,37.6453],[127.06145,37.64526],[127.0614,37.6452],[127.06138,37.64518],[127.06133,37.64511],[127.06125,37.645],[127.06119,37.6449],[127.06114,37.64475],[127.0611,37.64465],[127.06107,37.64433],[127.06106,37.64416],[127.06103,37.64387],[127.06102,37.64334],[127.06089,37.64174],[127.06084,37.64147],[127.06031,37.64002],[127.06013,37.63953],[127.05888,37.63763],[127.05494,37.64076],[127.05507,37.64163],[127.05573,37.64531],[127.05589,37.64597],[127.05558,37.64711],[127.05547,37.64747],[127.05532,37.64796],[127.05521,37.64833],[127.05504,37.64867],[127.05482,37.6491],[127.05463,37.64947],[127.05453,37.64967],[127.05443,37.65011],[127.05441,37.65021],[127.05436,37.65041],[127.05429,37.65093],[127.05424,37.65195],[127.05423,37.65204],[127.05423,37.65214],[127.05422,37.65254],[127.05421,37.65302],[127.05418,37.65448],[127.06043,37.65571],[127.06078,37.65436],[127.06236,37.65471],[127.06445,37.65519],[127.06499,37.65532],[127.0664,37.65562],[127.06701,37.65575],[127.0671,37.65563],[127.06735,37.65477],[127.0674,37.65457],[127.0686,37.65048]]]]}},{"type":"Feature","properties":{"code":"11350625","name":"중계2·3동","parent":"11350"},"geometry":{"type":"MultiPolygon","coordinates":[[[[127.07077,37.64531],[127.07121,37.64441],[127.07185,37.6431],[127.06936,37.63939],[127.0668,37.63868],[127.06136,37.63718],[127.06013,37.63953],[127.06031,37.64002],[127.06084,37.64147],[127.06089,37.64174],[127.06102,37.64334],[127.06103,37.64387],[127.06106,37.64416],[127.06107,37.64433],[127.0611,37.64465],[127.06114,37.64475],[127.06119,37.6449],[127.06125,37.645],[127.06133,37.64511],[127.06138,37.64518],[127.0614,37.6452],[127.06145,37.64526],[127.06149,37.6453],[127.06577,37.64928],[127.06584,37.64932],[127.06592,37.64938],[127.06617,37.64951],[127.06741,37.65001],[127.0686,37.65048],[127.07077,37.64531]]]]}},{"type":"Feature","properties":{"code":"11350595","name":"공릉1동","parent":"11350"},"geometry":{"type":"MultiPolygon","coordinates":[[[[127.0713,37.63108],[127.07173,37.63092],[127.0721,37.63068],[127.07313,37.62998],[127.07401,37.62937],[127.07549,37.62819],[127.07563,37.62807],[127.07568,37.62802],[127.07573,37.62799],[127.07576,37.62796],[127.07581,37.6279],[127.07597,37.62772],[127.0761,37.62758],[127.07615,37.62753],[127.07621,37.62745],[127.07624,37.62741],[127.0764,37.62719],[127.07683,37.62653],[127.07687,37.62646],[127.07711,37.62598],[127.07719,37.62582],[127.07724,37.6257],[127.07732,37.6255],[127.07735,37.62543],[127.07739,37.62528],[127.07745,37.62511],[127.07752,37.62481],[127.07754,37.62474],[127.07754,37.62471],[127.07763,37.62413],[127.07765,37.62404],[127.07773,37.62354],[127.07776,37.62335],[127.07778,37.62322],[127.0778,37.6231],[127.07785,37.62276],[127.07791,37.62238],[127.07806,37.62185],[127.07815,37.62162],[127.07831,37.62126],[127.07851,37.62102],[127.07856,37.62098],[127.07862,37.62092],[127.07906,37.62053],[127.07931,37.62036],[127.07954,37.62023],[127.07964,37.62018],[127.0797,37.62015],[127.07989,37.62006],[127.08001,37.62001],[127.08016,37.61995],[127.08032,37.61989],[127.0808,37.61978],[127.08103,37.61977],[127.08164,37.61925],[127.07585,37.61708],[127.0714,37.61563],[127.07119,37.61637],[127.07119,37.61643],[127.07118,37.61732],[127.07117,37.61808],[127.07083,37.62157],[127.07005,37.62355],[127.06826,37.62555],[127.06716,37.62646],[127.06535,37.62819],[127.06494,37.62861],[127.06484,37.62887],[127.06469,37.62929],[127.06439,37.63078],[127.0703,37.6314],[127.0713,37.63108]]]]}}]}