{"type":"FeatureCollection","features":[{"type":"Feature","properties":{"code":"51170510","name":"천곡동","parent":"51170"},"geometry":{"type":"MultiPolygon","coordinates":[[[[129.11475,37.53614],[129.1165,37.53438],[129.12174,37.52939],[129.12478,37.52581],[129.12363,37.52356],[129.12347,37.52345],[129.12328,37.52328],[129.12314,37.52309],[129.12226,37.52153],[129.12228,37.5208],[129.1225,37.52008],[129.12263,37.51979],[129.12281,37.51949],[129.12397,37.51785],[129.12434,37.51732],[129.12452,37.5172],[129.12471,37.51712],[129.12508,37.51726],[129.1244,37.51499],[129.12174,37.51247],[129.11728,37.51219],[129.11671,37.51217],[129.11659,37.51217],[129.11572,37.51217],[129.11539,37.51312],[129.11227,37.51342],[129.11158,37.51345],[129.10222,37.51304],[129.09697,37.51252],[129.09268,37.51222],[129.08936,37.51199],[129.08761,37.51232],[129.08746,37.51245],[129.08668,37.51317],[129.08578,37.51352],[129.08552,37.51354],[129.08522,37.51351],[129.08486,37.51347],[129.07916,37.51344],[129.07672,37.51386],[129.07615,37.5134],[129.0754,37.51353],[129.07451,37.51432],[129.07269,37.51596],[129.07051,37.51886],[129.07041,37.51933],[129.07064,37.52086],[129.07064,37.52108],[129.07065,37.52129],[129.07068,37.52144],[129.07078,37.52164],[129.07128,37.52248],[129.07226,37.52373],[129.07254,37.52399],[129.07285,37.52419],[129.07319,37.52432],[129.07541,37.52557],[129.07948,37.52917],[129.0793,37.53007],[129.07927,37.53029],[129.07933,37.53064],[129.07943,37.5309],[129.08016,37.53224],[129.08262,37.53634],[129.08277,37.53655],[129.08294,37.53675],[129.08422,37.53695],[129.0845,37.537],[129.08635,37.53715],[129.08708,37.537],[129.08723,37.53692],[129.08734,37.53663],[129.08743,37.53648],[129.08806,37.53575],[129.08872,37.53547],[129.08942,37.53518],[129.08972,37.53515],[129.09217,37.53523],[129.09587,37.53568],[129.09648,37.53576],[129.09674,37.53597],[129.09736,37.53629],[129.0975,37.53637],[129.10098,37.5363],[129.10104,37.53624],[129.10166,37.5355],[129.10181,37.53533],[129.10261,37.53449],[129.10574,37.53461],[129.1089,37.53483],[129.11365,37.5356],[129.11396,37.53576],[129.11475,37.53614]]]]}},{"type":"Feature","properties":{"code":"51170520","name":"송정동","parent":"51170"},"geometry":{"type":"MultiPolygon","coordinates":[[[[129.14218,37.49217],[129.13592,37.4882],[129.13381,37.48763],[129.12551,37.48538],[129.12519,37.48529],[129.12508,37.48526],[129.12172,37.48424],[129.11973,37.48364],[129.11941,37.48479],[129.11933,37.48735],[129.11825,37.48784],[129.11644,37.48868],[129.11592,37.48892],[129.11584,37.48907],[129.11581,37.48912],[129.11511,37.49172],[129.11509,37.49243],[129.1161,37.49259],[129.11821,37.49501],[129.11848,37.49551],[129.1186,37.49574],[129.11872,37.49597],[129.11876,37.49605],[129.11997,37.49998],[129.11889,37.50499],[129.11808,37.50558],[129.118,37.5056],[129.11774,37.50563],[129.11646,37.50663],[129.11627,37.50828],[129.11584,37.51152],[129.11572,37.51217],[129.11659,37.51217],[129.11671,37.51217],[129.11728,37.51219],[129.12174,37.51247],[129.1244,37.51499],[129.12508,37.51726],[129.1255,37.51701],[129.12671,37.51583],[129.12713,37.51473],[129.12833,37.51302],[129.12871,37.51254],[129.13077,37.51012],[129.13346,37.50697],[129.13524,37.5049],[129.1356,37.50467],[129.14352,37.50031],[129.14825,37.49812],[129.14826,37.49778],[129.1455,37.49874],[129.13564,37.50397],[129.13517,37.50372],[129.13137,37.50139],[129.13299,37.49918],[129.13353,37.49851],[129.13456,37.49865],[129.13634,37.49638],[129.13508,37.49577],[129.13505,37.49575],[129.12868,37.49268],[129.12417,37.49038],[129.12613,37.48738],[129.13076,37.48967],[129.14198,37.49511],[129.14373,37.4961],[129.14464,37.49683],[129.14493,37.49665],[129.14402,37.49424],[129.14218,37.49217]]]]}},{"type":"Feature","properties":{"code":"51170530","name":"북삼동","parent":"51170"},"geometry":{"type":"MultiPolygon","coordinates":[[[[129.11572,37.51217],[129.11584,37.51152],[129.11627,37.50828],[129.11646,37.50663],[129.11774,37.50563],[129.118,37.5056],[129.11808,37.50558],[129.11889,37.50499],[129.11997,37.49998],[129.11876,37.49605],[129.11872,37.49597],[129.1186,37.49574],[129.11848,37.49551],[129.11821,37.49501],[129.1161,37.49259],[129.11509,37.49243],[129.11511,37.49172],[129.11581,37.48912],[129.11584,37.48907],[129.11592,37.48892],[129.11644,37.48868],[129.11825,37.48784],[129.11933,37.48735],[129.11941,37.48479],[129.11973,37.48364],[129.11684,37.48302],[129.11337,37.48236],[129.11129,37.48236],[129.10839,37.4824],[129.10793,37.48241],[129.10603,37.48244],[129.1026,37.48249],[129.09931,37.48252],[129.09886,37.48252],[129.09724,37.4823],[129.0948,37.48197],[129.09461,37.48191],[129.09165,37.481],[129.09114,37.48084],[129.08997,37.47915],[129.08864,37.47452],[129.08822,37.4736],[129.08795,37.47328],[129.08734,37.47282],[129.08432,37.47098],[129.08329,37.47065],[129.08246,37.47055],[129.07629,37.46905],[129.07205,37.46787],[129.06745,37.46794],[129.06693,37.46787],[129.06597,37.46762],[129.06532,37.46731],[129.06379,37.46403],[129.06375,37.46357],[129.06399,37.4616],[129.06431,37.46097],[129.06479,37.46047],[129.06519,37.4601],[129.06438,37.45988],[129.06393,37.45977],[129.06365,37.45971],[129.0629,37.45959],[129.06273,37.45957],[129.06221,37.45953],[129.06165,37.45949],[129.06108,37.45943],[129.05983,37.45926],[129.05938,37.45917],[129.05924,37.45913],[129.05816,37.45844],[129.058,37.45833],[129.05789,37.45814],[129.05777,37.45786],[129.05763,37.45773],[129.05752,37.45763],[129.05736,37.45757],[129.05054,37.45601],[129.05046,37.45601],[129.04948,37.45653],[129.04968,37.45855],[129.05107,37.46101],[129.05383,37.46501],[129.05434,37.46527],[129.05531,37.46523],[129.05732,37.46619],[129.05836,37.46697],[129.05836,37.46946],[129.05905,37.47021],[129.06007,37.47128],[129.06122,37.47238],[129.06689,37.47755],[129.06898,37.47912],[129.06918,37.47927],[129.07255,37.48063],[129.07573,37.48184],[129.07493,37.48494],[129.07412,37.48607],[129.07407,37.48804],[129.07501,37.49015],[129.07674,37.49278],[129.07692,37.49305],[129.07834,37.49519],[129.07863,37.49644],[129.07885,37.49738],[129.07761,37.49879],[129.07747,37.49896],[129.07656,37.50041],[129.07566,37.50209],[129.07566,37.50426],[129.07563,37.50659],[129.07495,37.50846],[129.0752,37.50958],[129.07616,37.51129],[129.07672,37.51386],[129.07916,37.51344],[129.08486,37.51347],[129.08522,37.51351],[129.08552,37.51354],[129.08578,37.51352],[129.08668,37.51317],[129.08746,37.51245],[129.08761,37.51232],[129.08936,37.51199],[129.09268,37.51222],[129.09697,37.51252],[129.10222,37.51304],[129.11158,37.51345],[129.11227,37.51342],[129.11539,37.51312],[129.11572,37.51217]]]]}},{"type":"Feature","properties":{"code":"51170540","name":"부곡동","parent":"51170"},"geometry":{"type":"MultiPolygon","coordinates":[[[[129.10177,37.53943],[129.10212,37.53932],[129.10282,37.5392],[129.10296,37.53919],[129.10316,37.53919],[129.10349,37.53924],[129.10357,37.53926],[129.10977,37.54081],[129.1119,37.54139],[129.11243,37.54157],[129.11305,37.54181],[129.11297,37.53939],[129.11299,37.53933],[129.11354,37.53816],[129.11475,37.53614],[129.11396,37.53576],[129.11365,37.5356],[129.1089,37.53483],[129.10574,37.53461],[129.10261,37.53449],[129.10181,37.53533],[129.10166,37.5355],[129.10104,37.53624],[129.10098,37.5363],[129.0975,37.53637],[129.09736,37.53629],[129.09674,37.53597],[129.09648,37.53576],[129.09587,37.53568],[129.09217,37.53523],[129.08972,37.53515],[129.08942,37.53518],[129.08872,37.53547],[129.08806,37.53575],[129.08743,37.53648],[129.08734,37.53663],[129.08723,37.53692],[129.08708,37.537],[129.08635,37.53715],[129.0845,37.537],[129.08422,37.53695],[129.08294,37.53675],[129.08277,37.53655],[129.08262,37.53634],[129.08016,37.53224],[129.07943,37.5309],[129.07933,37.53064],[129.07927,37.53029],[129.0793,37.53007],[129.07948,37.52917],[129.07541,37.52557],[129.07319,37.52432],[129.07285,37.52419],[129.07254,37.52399],[129.07226,37.52373],[129.07128,37.52248],[129.07078,37.52164],[129.07068,37.52144],[129.07065,37.52129],[129.07064,37.52108],[129.07064,37.52086],[129.07033,37.521],[129.06914,37.52206],[129.06885,37.52269],[129.06904,37.52278],[129.06915,37.52395],[129.06735,37.52602],[129.06687,37.52636],[129.06636,37.52639],[129.06567,37.52644],[129.06425,37.52799],[129.06369,37.5286],[129.06369,37.52949],[129.0628,37.53163],[129.06161,37.53344],[129.0612,37.53401],[129.06069,37.53407],[129.0603,37.5347],[129.06023,37.53561],[129.06056,37.53739],[129.06084,37.53796],[129.06122,37.5383],[129.06324,37.54001],[129.06403,37.54053],[129.06688,37.54169],[129.06929,37.54267],[129.06983,37.54289],[129.07188,37.54379],[129.07214,37.54394],[129.07349,37.54551],[129.07448,37.54526],[129.0787,37.54448],[129.0809,37.54427],[129.08138,37.54427],[129.08156,37.54449],[129.08272,37.54537],[129.08322,37.54566],[129.08398,37.54576],[129.08562,37.54527],[129.08607,37.54496],[129.08681,37.5442],[129.08722,37.54366],[129.08993,37.54272],[129.09137,37.54238],[129.09238,37.54194],[129.0931,37.54158],[129.09408,37.54057],[129.09687,37.53962],[129.09989,37.53946],[129.10124,37.5394],[129.10177,37.53943]]]]}},{"type":"Feature","properties":{"code":"51170550","name":"동호동","parent":"51170"},"geometry":{"type":"MultiPolygon","coordinates":[[[[129.10241,37.54998],[129.10281,37.54927],[129.10475,37.54822],[129.10617,37.54745],[129.1055,37.54594],[129.10443,37.54521],[129.10215,37.54284],[129.10199,37.54217],[129.10183,37.54024],[129.10177,37.53943],[129.10124,37.5394],[129.09989,37.53946],[129.09687,37.53962],[129.09408,37.54057],[129.0931,37.54158],[129.09238,37.54194],[129.09137,37.54238],[129.08993,37.54272],[129.08722,37.54366],[129.08681,37.5442],[129.08607,37.54496],[129.08562,37.54527],[129.08398,37.54576],[129.08322,37.54566],[129.08272,37.54537],[129.08156,37.54449],[129.08138,37.54427],[129.0809,37.54427],[129.0787,37.54448],[129.07448,37.54526],[129.07349,37.54551],[129.07338,37.54569],[129.07333,37.5458],[129.0745,37.5491],[129.07478,37.5495],[129.07502,37.54983],[129.07523,37.55004],[129.07673,37.5509],[129.07713,37.55107],[129.07748,37.55121],[129.07977,37.55268],[129.08225,37.55471],[129.08215,37.55523],[129.08203,37.55558],[129.08176,37.55582],[129.08144,37.55604],[129.08177,37.55662],[129.08329,37.55848],[129.08402,37.55859],[129.08436,37.55853],[129.08525,37.55798],[129.08737,37.55656],[129.08854,37.55572],[129.0886,37.55561],[129.08868,37.55529],[129.08856,37.55483],[129.08829,37.55366],[129.08829,37.55339],[129.08835,37.55281],[129.08879,37.55269],[129.08971,37.55256],[129.09131,37.55249],[129.09206,37.55215],[129.09225,37.55207],[129.09286,37.5517],[129.09304,37.55152],[129.09403,37.55037],[129.09487,37.54938],[129.09549,37.54904],[129.096,37.54916],[129.10241,37.54998]]]]}},{"type":"Feature","properties":{"code":"51170570","name":"발한동","parent":"51170"},"geometry":{"type":"MultiPolygon","coordinates":[[[[129.11258,37.54981],[129.11224,37.54935],[129.11231,37.5482],[129.11253,37.54443],[129.11382,37.54377],[129.11383,37.5431],[129.11356,37.54224],[129.11341,37.54187],[129.11305,37.54181],[129.11243,37.54157],[129.1119,37.54139],[129.10977,37.54081],[129.10357,37.53926],[129.10349,37.53924],[129.10316,37.53919],[129.10296,37.53919],[129.10282,37.5392],[129.10212,37.53932],[129.10177,37.53943],[129.10183,37.54024],[129.10199,37.54217],[129.10215,37.54284],[129.10443,37.54521],[129.1055,37.54594],[129.10617,37.54745],[129.10475,37.54822],[129.10281,37.54927],[129.10241,37.54998],[129.10241,37.55042],[129.10266,37.55102],[129.10269,37.55106],[129.10357,37.55136],[129.10364,37.55138],[129.10419,37.55129],[129.10439,37.55123],[129.10448,37.55121],[129.10474,37.55119],[129.10479,37.55119],[129.10521,37.55123],[129.10582,37.5513],[129.10624,37.55262],[129.10633,37.55293],[129.10644,37.55343],[129.1065,37.55374],[129.10651,37.55393],[129.10639,37.55415],[129.1064,37.55419],[129.10671,37.55467],[129.10736,37.55515],[129.10814,37.55561],[129.10865,37.55591],[129.10878,37.55596],[129.11054,37.55247],[129.11258,37.54981]]]]}},{"type":"Feature","properties":{"code":"51170590","name":"묵호동","parent":"51170"},"geometry":{"type":"MultiPolygon","coordinates":[[[[129.11258,37.54981],[129.11054,37.55247],[129.10878,37.55596],[129.10847,37.55626],[129.10809,37.55663],[129.10718,37.55764],[129.10701,37.55793],[129.10676,37.55834],[129.10672,37.55845],[129.10652,37.55941],[129.10661,37.55997],[129.10662,37.56002],[129.10664,37.56107],[129.10562,37.56489],[129.10491,37.56603],[129.10431,37.56675],[129.1028,37.56864],[129.10227,37.57228],[129.10294,37.57357],[129.10548,37.57806],[129.10741,37.57965],[129.1115,37.5816],[129.11366,37.58132],[129.11406,37.57985],[129.11428,37.57937],[129.11442,37.57931],[129.11499,37.57944],[129.11503,37.57948],[129.11513,37.57964],[129.11533,37.57969],[129.11548,37.57967],[129.11584,37.57936],[129.11636,37.57845],[129.11641,37.57834],[129.11645,37.57823],[129.11704,37.57623],[129.11712,37.57513],[129.1171,37.57388],[129.11698,37.57305],[129.11674,37.57204],[129.11646,37.57104],[129.11643,37.57083],[129.1165,37.57063],[129.11712,37.56956],[129.11735,37.56928],[129.11871,37.56778],[129.11883,37.56766],[129.12003,37.56498],[129.12002,37.56304],[129.12021,37.55943],[129.12039,37.55913],[129.12049,37.55902],[129.12067,37.55883],[129.12095,37.55858],[129.121,37.55854],[129.12128,37.55842],[129.12171,37.5584],[129.12215,37.55782],[129.12145,37.55596],[129.12045,37.55359],[129.11917,37.5521],[129.11795,37.54922],[129.11809,37.5456],[129.11791,37.54513],[129.11715,37.54513],[129.11697,37.54562],[129.11696,37.54902],[129.11666,37.54936],[129.11258,37.54981]]]]}},{"type":"Feature","properties":{"code":"51170600","name":"북평동","parent":"51170"},"geometry":{"type":"MultiPolygon","coordinates":[[[[129.16,37.47674],[129.15929,37.47661],[129.15783,37.4758],[129.15502,37.47399],[129.15486,37.47373],[129.15473,37.47335],[129.15474,37.47313],[129.15475,37.47237],[129.15365,37.47077],[129.15139,37.46751],[129.15035,37.46623],[129.14978,37.4656],[129.1488,37.46486],[129.14787,37.46516],[129.14771,37.46525],[129.1476,37.46532],[129.14746,37.46542],[129.14729,37.46559],[129.14716,37.46578],[129.14697,37.46594],[129.14671,37.46607],[129.144,37.46648],[129.1435,37.46656],[129.14256,37.46657],[129.14222,37.46653],[129.1417,37.46645],[129.14157,37.4664],[129.1413,37.46627],[129.13902,37.46454],[129.13837,37.4633],[129.13795,37.46158],[129.13816,37.46066],[129.13821,37.46018],[129.13738,37.45824],[129.1353,37.45357],[129.13489,37.45316],[129.13315,37.45308],[129.13302,37.45308],[129.13287,37.45313],[129.13135,37.45403],[129.13117,37.45418],[129.13075,37.45467],[129.13054,37.45502],[129.12854,37.45632],[129.12793,37.4567],[129.12777,37.45676],[129.12753,37.4568],[129.12605,37.45706],[129.12519,37.4568],[129.12506,37.45679],[129.12329,37.45707],[129.12244,37.45746],[129.12167,37.45808],[129.12141,37.45832],[129.1213,37.45855],[129.12114,37.45877],[129.12086,37.45899],[129.11959,37.45993],[129.11787,37.46033],[129.11625,37.46029],[129.11612,37.46028],[129.1152,37.45991],[129.11506,37.45981],[129.11499,37.45935],[129.11491,37.45897],[129.11486,37.45883],[129.11316,37.45749],[129.11224,37.45693],[129.11203,37.45682],[129.10865,37.45576],[129.10829,37.45577],[129.10754,37.45579],[129.10739,37.45583],[129.10726,37.45592],[129.1069,37.4564],[129.10681,37.45664],[129.10582,37.45734],[129.10448,37.45829],[129.1035,37.45888],[129.10342,37.45891],[129.10333,37.45892],[129.10207,37.45887],[129.10023,37.45981],[129.09952,37.46037],[129.09937,37.46049],[129.09903,37.46096],[129.09877,37.4615],[129.09852,37.46213],[129.09835,37.4624],[129.09826,37.46247],[129.0969,37.46304],[129.09659,37.46314],[129.0961,37.46329],[129.09586,37.46334],[129.09575,37.46336],[129.09556,37.46333],[129.09183,37.46219],[129.08354,37.46049],[129.0834,37.46044],[129.08298,37.46019],[129.08239,37.45949],[129.08226,37.45913],[129.08215,37.45899],[129.08179,37.4586],[129.07705,37.45626],[129.07687,37.45619],[129.07675,37.45617],[129.07484,37.45614],[129.07233,37.45701],[129.06913,37.45801],[129.06893,37.45804],[129.06875,37.45809],[129.06856,37.45816],[129.06746,37.45863],[129.06703,37.45885],[129.06677,37.45906],[129.06619,37.45951],[129.06519,37.4601],[129.06479,37.46047],[129.06431,37.46097],[129.06399,37.4616],[129.06375,37.46357],[129.06379,37.46403],[129.06532,37.46731],[129.06597,37.46762],[129.06693,37.46787],[129.06745,37.46794],[129.07205,37.46787],[129.07629,37.46905],[129.08246,37.47055],[129.08329,37.47065],[129.08432,37.47098],[129.08734,37.47282],[129.08795,37.47328],[129.08822,37.4736],[129.08864,37.47452],[129.08997,37.47915],[129.09114,37.48084],[129.09165,37.481],[129.09461,37.48191],[129.0948,37.48197],[129.09724,37.4823],[129.09886,37.48252],[129.09931,37.48252],[129.1026,37.48249],[129.10603,37.48244],[129.10793,37.48241],[129.10839,37.4824],[129.11129,37.48236],[129.11337,37.48236],[129.11684,37.48302],[129.11973,37.48364],[129.12172,37.48424],[129.12508,37.48526],[129.12519,37.48529],[129.12551,37.48538],[129.13381,37.48763],[129.13592,37.4882],[129.14218,37.49217],[129.14711,37.49173],[129.14733,37.49152],[129.14923,37.48973],[129.15737,37.482],[129.15776,37.48161],[129.15947,37.47969],[129.16051,37.47849],[129.16017,37.47832],[129.15996,37.47812],[129.15989,37.47784],[129.15979,37.4773],[129.16,37.47674]]]]}},{"type":"Feature","properties":{"code":"51170630","name":"망상동","parent":"51170"},"geometry":{"type":"MultiPolygon","coordinates":[[[[129.1115,37.5816],[129.10741,37.57965],[129.10548,37.57806],[129.10294,37.57357],[129.10227,37.57228],[129.1028,37.56864],[129.10431,37.56675],[129.10491,37.56603],[129.10562,37.56489],[129.10664,37.56107],[129.10662,37.56002],[129.10661,37.55997],[129.10652,37.55941],[129.10672,37.55845],[129.10676,37.55834],[129.10701,37.55793],[129.10718,37.55764],[129.10809,37.55663],[129.10847,37.55626],[129.10878,37.55596],[129.10865,37.55591],[129.10814,37.55561],[129.10736,37.55515],[129.10671,37.55467],[129.1064,37.55419],[129.10639,37.55415],[129.10651,37.55393],[129.1065,37.55374],[129.10644,37.55343],[129.10633,37.55293],[129.10624,37.55262],[129.10582,37.5513],[129.10521,37.55123],[129.10479,37.55119],[129.10474,37.55119],[129.10448,37.55121],[129.10439,37.55123],[129.10419,37.55129],[129.10364,37.55138],[129.10357,37.55136],[129.10269,37.55106],[129.10266,37.55102],[129.10241,37.55042],[129.10241,37.54998],[129.096,37.54916],[129.09549,37.54904],[129.09487,37.54938],[129.09403,37.55037],[129.09304,37.55152],[129.09286,37.5517],[129.09225,37.55207],[129.09206,37.55215],[129.09131,37.55249],[129.08971,37.55256],[129.08879,37.55269],[129.08835,37.55281],[129.08829,37.55339],[129.08829,37.55366],[129.08856,37.55483],[129.08868,37.55529],[129.0886,37.55561],[129.08854,37.55572],[129.08737,37.55656],[129.08525,37.55798],[129.08436,37.55853],[129.08402,37.55859],[129.08329,37.55848],[129.08177,37.55662],[129.08144,37.55604],[129.08176,37.55582],[129.08203,37.55558],[129.08215,37.55523],[129.08225,37.55471],[129.07977,37.55268],[129.07748,37.55121],[129.07713,37.55107],[129.07673,37.5509],[129.07523,37.55004],[129.07502,37.54983],[129.07478,37.5495],[129.0745,37.5491],[129.07333,37.5458],[129.07338,37.54569],[129.07349,37.54551],[129.07214,37.54394],[129.07188,37.54379],[129.06983,37.54289],[129.06929,37.54267],[129.06688,37.54169],[129.06403,37.54053],[129.06324,37.54001],[129.06122,37.5383],[129.06084,37.53796],[129.06056,37.53739],[129.05811,37.53699],[129.05692,37.53665],[129.05663,37.53652],[129.0565,37.53643],[129.05631,37.53641],[129.05593,37.53649],[129.05509,37.53672],[129.05449,37.53719],[129.05433,37.53745],[129.05393,37.53841],[129.05373,37.53899],[129.05359,37.5395],[129.05283,37.54071],[129.04892,37.54488],[129.04873,37.545],[129.04656,37.54587],[129.04591,37.54593],[129.04676,37.5464],[129.04722,37.54677],[129.04771,37.54726],[129.04773,37.54728],[129.0478,37.54741],[129.04784,37.54759],[129.04779,37.54781],[129.04771,37.54795],[129.04766,37.548],[129.0476,37.54806],[129.04751,37.54826],[129.04748,37.54857],[129.04749,37.54881],[129.04759,37.54949],[129.04948,37.55427],[129.04797,37.55806],[129.04793,37.55822],[129.04851,37.56427],[129.04854,37.56443],[129.04865,37.56463],[129.04885,37.56481],[129.04905,37.56499],[129.04939,37.56526],[129.04981,37.56558],[129.05014,37.56605],[129.05042,37.56664],[129.05056,37.567],[129.05059,37.56719],[129.0506,37.56726],[129.05127,37.57341],[129.0509,37.57554],[129.05075,37.57583],[129.0507,37.57598],[129.05072,37.57629],[129.05085,37.57654],[129.0518,37.57781],[129.05194,37.57799],[129.05447,37.58059],[129.05476,37.58087],[129.05664,37.58352],[129.05671,37.58414],[129.05694,37.58544],[129.05746,37.58676],[129.05795,37.58742],[129.05838,37.58788],[129.05879,37.58824],[129.05899,37.58836],[129.05919,37.58847],[129.05932,37.5885],[129.05948,37.58855],[129.05957,37.58859],[129.05958,37.58863],[129.05959,37.58866],[129.05971,37.58966],[129.05971,37.58989],[129.05965,37.59016],[129.05948,37.59043],[129.05798,37.59248],[129.05724,37.59334],[129.05702,37.59353],[129.05671,37.59365],[129.05634,37.59371],[129.0561,37.59372],[129.05586,37.59372],[129.05569,37.59375],[129.05472,37.59474],[129.05458,37.59489],[129.05459,37.595],[129.05521,37.59745],[129.05535,37.59748],[129.05556,37.59745],[129.05588,37.59736],[129.05629,37.59725],[129.05672,37.5972],[129.0571,37.59719],[129.05764,37.59722],[129.05947,37.59743],[129.06091,37.59781],[129.06103,37.5979],[129.06105,37.59801],[129.06136,37.59894],[129.06203,37.59999],[129.06371,37.60153],[129.06389,37.60168],[129.06418,37.60184],[129.06932,37.60408],[129.06947,37.60413],[129.06985,37.60415],[129.07031,37.60418],[129.07045,37.60419],[129.07066,37.60424],[129.07084,37.60434],[129.07304,37.60607],[129.07471,37.60497],[129.07819,37.60258],[129.08224,37.59995],[129.08433,37.59875],[129.08735,37.5968],[129.09064,37.59468],[129.10249,37.58673],[129.11001,37.58162],[129.11066,37.58142],[129.11088,37.58145],[129.1115,37.5816]]]]}},{"type":"Feature","properties":{"code":"51170650","name":"삼화동","parent":"51170"},"geometry":{"type":"MultiPolygon","coordinates":[[[[129.04591,37.54593],[129.04656,37.54587],[129.04873,37.545],[129.04892,37.54488],[129.05283,37.54071],[129.05359,37.5395],[129.05373,37.53899],[129.05393,37.53841],[129.05433,37.53745],[129.05449,37.53719],[129.05509,37.53672],[129.05593,37.53649],[129.05631,37.53641],[129.0565,37.53643],[129.05663,37.53652],[129.05692,37.53665],[129.05811,37.53699],[129.06056,37.53739],[129.06023,37.53561],[129.0603,37.5347],[129.06069,37.53407],[129.0612,37.53401],[129.06161,37.53344],[129.0628,37.53163],[129.06369,37.52949],[129.06369,37.5286],[129.06425,37.52799],[129.06567,37.52644],[129.06636,37.52639],[129.06687,37.52636],[129.06735,37.52602],[129.06915,37.52395],[129.06904,37.52278],[129.06885,37.52269],[129.06914,37.52206],[129.07033,37.521],[129.07064,37.52086],[129.07041,37.51933],[129.07051,37.51886],[129.07269,37.51596],[129.07451,37.51432],[129.0754,37.51353],[129.07615,37.5134],[129.07672,37.51386],[129.07616,37.51129],[129.0752,37.50958],[129.07495,37.50846],[129.07563,37.50659],[129.07566,37.50426],[129.07566,37.50209],[129.07656,37.50041],[129.07747,37.49896],[129.07761,37.49879],[129.07885,37.49738],[129.07863,37.49644],[129.07834,37.49519],[129.07692,37.49305],[129.07674,37.49278],[129.07501,37.49015],[129.07407,37.48804],[129.07412,37.48607],[129.07493,37.48494],[129.07573,37.48184],[129.07255,37.48063],[129.06918,37.47927],[129.06898,37.47912],[129.06689,37.47755],[129.06122,37.47238],[129.06007,37.47128],[129.05905,37.47021],[129.05836,37.46946],[129.05836,37.46697],[129.05732,37.46619],[129.05531,37.46523],[129.05434,37.46527],[129.05383,37.46501],[129.05107,37.46101],[129.04968,37.45855],[129.04948,37.45653],[129.04874,37.45661],[129.04469,37.45588],[129.04419,37.45576],[129.03868,37.45339],[129.03709,37.45266],[129.0368,37.45248],[129.03656,37.45227],[129.03638,37.45208],[129.03625,37.45183],[129.0362,37.45166],[129.03604,37.45062],[129.03592,37.44961],[129.0358,37.4494],[129.03264,37.44736],[129.03243,37.4473],[129.03078,37.44683],[129.03015,37.44678],[129.02968,37.44682],[129.02943,37.44688],[129.02928,37.44686],[129.02698,37.44529],[129.02685,37.44516],[129.02654,37.44485],[129.02642,37.44468],[129.02623,37.44439],[129.02617,37.44426],[129.02588,37.4438],[129.02522,37.44316],[129.02482,37.44286],[129.02358,37.44219],[129.02323,37.44202],[129.02037,37.44085],[129.01919,37.44041],[129.01894,37.44036],[129.01871,37.44029],[129.01817,37.44014],[129.01769,37.43997],[129.01485,37.43863],[129.01244,37.43704],[129.01069,37.43579],[129.00903,37.43459],[129.00892,37.4345],[129.00888,37.43447],[129.00877,37.4343],[129.00855,37.43383],[129.00853,37.43371],[129.00845,37.433],[129.0081,37.43177],[129.00703,37.42889],[129.00686,37.42861],[129.00664,37.4283],[129.00641,37.42803],[129.00599,37.42762],[129.00537,37.42699],[129.00454,37.42657],[129.0045,37.42662],[129.00445,37.42667],[129.00412,37.42695],[129.00192,37.42859],[129.00165,37.42878],[129.00139,37.42893],[128.99948,37.42981],[128.99928,37.42989],[128.99914,37.42994],[128.99798,37.43031],[128.99772,37.43039],[128.99689,37.43053],[128.99662,37.43058],[128.99599,37.43067],[128.99538,37.43073],[128.99184,37.43157],[128.98928,37.43222],[128.98607,37.43343],[128.98552,37.43366],[128.98536,37.43373],[128.98512,37.4338],[128.98485,37.43387],[128.98464,37.43391],[128.98442,37.43394],[128.9843,37.43395],[128.98059,37.43414],[128.97839,37.4335],[128.97801,37.43327],[128.97794,37.43324],[128.97787,37.43322],[128.97597,37.43317],[128.97586,37.43319],[128.97559,37.43326],[128.97551,37.43329],[128.97298,37.43461],[128.97293,37.43465],[128.97288,37.43472],[128.97285,37.43487],[128.97283,37.43499],[128.97283,37.43564],[128.97284,37.43589],[128.97281,37.43609],[128.97277,37.4362],[128.97209,37.43784],[128.972,37.43793],[128.97192,37.438],[128.97052,37.43924],[128.97037,37.43937],[128.97009,37.43956],[128.96861,37.44052],[128.96849,37.4406],[128.96833,37.44068],[128.96535,37.44191],[128.96442,37.44225],[128.96297,37.44272],[128.96117,37.44329],[128.95918,37.44403],[128.95908,37.4441],[128.95893,37.44423],[128.95882,37.44435],[128.95877,37.44443],[128.9587,37.44455],[128.95762,37.44676],[128.95765,37.44718],[128.96007,37.451],[128.96026,37.45123],[128.9605,37.45133],[128.96107,37.45146],[128.96339,37.45353],[128.9639,37.45409],[128.96415,37.45448],[128.96495,37.45694],[128.96486,37.45725],[128.96468,37.45748],[128.96463,37.45879],[128.96478,37.45906],[128.9658,37.4601],[128.9661,37.46021],[128.96748,37.46002],[128.96903,37.46044],[128.97041,37.46134],[128.97062,37.46176],[128.97087,37.46221],[128.97157,37.46303],[128.97605,37.46765],[128.97758,37.469],[128.97765,37.46907],[128.97822,37.469],[128.97948,37.46905],[128.98078,37.46934],[128.9826,37.46977],[128.98327,37.46995],[128.98381,37.47039],[128.98782,37.47506],[128.98786,37.47518],[128.98815,37.47921],[128.98674,37.48253],[128.9866,37.48309],[128.98661,37.4836],[128.98669,37.48404],[128.98706,37.48415],[128.98769,37.48417],[128.988,37.48416],[128.98986,37.48377],[128.99021,37.48401],[128.99058,37.48451],[128.99058,37.48483],[128.98879,37.48964],[128.98853,37.49016],[128.98672,37.49284],[128.98663,37.49296],[128.98647,37.49298],[128.98641,37.49298],[128.98417,37.49323],[128.97901,37.49371],[128.97793,37.49345],[128.97356,37.49266],[128.97031,37.49464],[128.96991,37.49503],[128.9715,37.49819],[128.97174,37.49848],[128.97215,37.49871],[128.97322,37.4998],[128.97371,37.50051],[128.97464,37.50285],[128.97477,37.50358],[128.97437,37.50423],[128.97418,37.50453],[128.97353,37.50522],[128.97294,37.50566],[128.97204,37.50608],[128.97035,37.50639],[128.96859,37.5064],[128.96597,37.50614],[128.96314,37.50943],[128.96272,37.50999],[128.96243,37.51105],[128.96211,37.51305],[128.96225,37.51363],[128.96428,37.51623],[128.96624,37.51847],[128.96712,37.51916],[128.96746,37.51969],[128.96813,37.52151],[128.96842,37.52237],[128.96834,37.52327],[128.96776,37.52501],[128.96764,37.52556],[128.96769,37.5262],[128.96833,37.52954],[128.96888,37.53044],[128.97314,37.53397],[128.97554,37.53434],[128.97591,37.53435],[128.97621,37.53437],[128.97646,37.53435],[128.97679,37.53433],[128.9781,37.53403],[128.97863,37.53382],[128.97917,37.53361],[128.97983,37.53326],[128.98019,37.53318],[128.98055,37.53314],[128.98142,37.53321],[128.98715,37.53404],[128.98735,37.53415],[128.98769,37.53456],[128.98818,37.53542],[128.98896,37.53651],[128.99085,37.53878],[128.99128,37.53911],[128.99528,37.54154],[128.99607,37.54192],[128.9985,37.54282],[128.99864,37.54285],[128.99872,37.54286],[128.99998,37.54285],[129.00006,37.54281],[129.00453,37.54185],[129.00825,37.54146],[129.01327,37.54076],[129.01334,37.54074],[129.01341,37.54072],[129.01625,37.53968],[129.0181,37.53837],[129.01816,37.53832],[129.01822,37.53831],[129.01827,37.53829],[129.01872,37.53827],[129.01886,37.5383],[129.01978,37.53864],[129.02009,37.53878],[129.02119,37.53942],[129.02136,37.53953],[129.02171,37.53979],[129.0225,37.54039],[129.02437,37.54287],[129.0252,37.54405],[129.02528,37.54422],[129.02531,37.54437],[129.02533,37.54461],[129.02535,37.54481],[129.02543,37.54498],[129.0255,37.54509],[129.02579,37.54548],[129.0259,37.54562],[129.02613,37.54575],[129.02696,37.54607],[129.03128,37.54734],[129.03153,37.5474],[129.03691,37.54849],[129.03934,37.54839],[129.04051,37.54692],[129.04509,37.54602],[129.04591,37.54593]]]]}}]}