{"type":"FeatureCollection","features":[{"type":"Feature","properties":{"code":"27260510","name":"범어1동","parent":"27260"},"geometry":{"type":"MultiPolygon","coordinates":[[[[128.62245,35.85955],[128.62421,35.85937],[128.62657,35.85939],[128.63254,35.85893],[128.63226,35.85854],[128.63187,35.85654],[128.63184,35.85588],[128.63193,35.85373],[128.6321,35.85321],[128.63287,35.85105],[128.63306,35.85053],[128.63294,35.8505],[128.63223,35.8493],[128.63214,35.84854],[128.6323,35.84781],[128.63223,35.84724],[128.63111,35.8464],[128.63073,35.84623],[128.63052,35.84624],[128.6304,35.84648],[128.63008,35.8473],[128.6261,35.84823],[128.62615,35.84928],[128.62519,35.85037],[128.62438,35.85042],[128.62388,35.85045],[128.62356,35.85047],[128.62065,35.85065],[128.62069,35.8513],[128.62145,35.85963],[128.62245,35.85955]]]]}},{"type":"Feature","properties":{"code":"27260520","name":"범어2동","parent":"27260"},"geometry":{"type":"MultiPolygon","coordinates":[[[[128.63905,35.86625],[128.639,35.8659],[128.63922,35.86462],[128.63968,35.86255],[128.64041,35.859],[128.63254,35.85893],[128.62657,35.85939],[128.62686,35.86085],[128.62705,35.86204],[128.6271,35.8623],[128.62711,35.86237],[128.62711,35.86246],[128.62712,35.86249],[128.62715,35.86305],[128.62715,35.86312],[128.62716,35.86398],[128.62717,35.86419],[128.6271,35.86713],[128.62985,35.86682],[128.63477,35.86751],[128.63513,35.86752],[128.63517,35.86752],[128.63538,35.8675],[128.63563,35.86748],[128.63582,35.86744],[128.6363,35.86726],[128.63663,35.86708],[128.63905,35.86625]]]]}},{"type":"Feature","properties":{"code":"27260530","name":"범어3동","parent":"27260"},"geometry":{"type":"MultiPolygon","coordinates":[[[[128.61859,35.86781],[128.61927,35.86774],[128.6271,35.86713],[128.62717,35.86419],[128.62716,35.86398],[128.62715,35.86312],[128.62715,35.86305],[128.62712,35.86249],[128.62711,35.86246],[128.62711,35.86237],[128.6271,35.8623],[128.62705,35.86204],[128.62686,35.86085],[128.62657,35.85939],[128.62421,35.85937],[128.62245,35.85955],[128.6225,35.86032],[128.62256,35.86145],[128.62255,35.86151],[128.62252,35.86173],[128.62228,35.86225],[128.62225,35.86229],[128.62202,35.86248],[128.62143,35.86279],[128.62129,35.86284],[128.62123,35.86287],[128.62088,35.86299],[128.62006,35.86329],[128.61938,35.86362],[128.6173,35.86472],[128.6172,35.8648],[128.61715,35.86485],[128.61702,35.86497],[128.61692,35.86516],[128.61689,35.86526],[128.61689,35.86528],[128.6169,35.86539],[128.61699,35.86553],[128.61707,35.8656],[128.61744,35.86588],[128.61749,35.86594],[128.61773,35.86627],[128.61777,35.8664],[128.61787,35.86696],[128.61787,35.86715],[128.61783,35.86737],[128.61777,35.86749],[128.61764,35.86761],[128.61747,35.86769],[128.61736,35.86772],[128.61731,35.86773],[128.61724,35.86774],[128.61502,35.86775],[128.61457,35.86796],[128.61474,35.86818],[128.61859,35.86781]]]]}},{"type":"Feature","properties":{"code":"27260540","name":"범어4동","parent":"27260"},"geometry":{"type":"MultiPolygon","coordinates":[[[[128.64336,35.84805],[128.6422,35.84717],[128.64139,35.84698],[128.64135,35.84697],[128.64107,35.84694],[128.64084,35.84694],[128.63936,35.84709],[128.63768,35.84883],[128.63567,35.85018],[128.63457,35.85041],[128.63306,35.85053],[128.63287,35.85105],[128.6321,35.85321],[128.63193,35.85373],[128.63184,35.85588],[128.63187,35.85654],[128.63226,35.85854],[128.63254,35.85893],[128.64041,35.859],[128.64279,35.85902],[128.64373,35.85797],[128.64452,35.85632],[128.64475,35.8558],[128.6436,35.85332],[128.64336,35.84805]]]]}},{"type":"Feature","properties":{"code":"27260550","name":"만촌1동","parent":"27260"},"geometry":{"type":"MultiPolygon","coordinates":[[[[128.66022,35.87684],[128.66269,35.87323],[128.66231,35.87052],[128.66229,35.86911],[128.66233,35.8685],[128.66282,35.86785],[128.66299,35.86717],[128.66277,35.86665],[128.6622,35.86591],[128.65004,35.86574],[128.64999,35.86575],[128.64979,35.8667],[128.64977,35.86681],[128.64972,35.86705],[128.64961,35.86749],[128.64898,35.87009],[128.64743,35.86906],[128.6474,35.86904],[128.64617,35.86815],[128.64611,35.86811],[128.64488,35.86716],[128.64436,35.86683],[128.64382,35.86653],[128.64375,35.8665],[128.64321,35.86627],[128.64292,35.86619],[128.64243,35.86605],[128.64185,35.86594],[128.64145,35.86593],[128.64094,35.8659],[128.64064,35.86592],[128.64029,35.86594],[128.64011,35.86596],[128.63985,35.86603],[128.63905,35.86625],[128.63663,35.86708],[128.6363,35.86726],[128.63582,35.86744],[128.63563,35.86748],[128.63538,35.8675],[128.63517,35.86752],[128.63513,35.86752],[128.63477,35.86751],[128.62985,35.86682],[128.63042,35.86748],[128.6307,35.86779],[128.63193,35.86915],[128.63218,35.86944],[128.63391,35.87134],[128.63439,35.87181],[128.63455,35.87188],[128.63485,35.87203],[128.63521,35.87213],[128.63587,35.87231],[128.63722,35.87269],[128.63768,35.87282],[128.6379,35.87288],[128.6382,35.87297],[128.63841,35.87303],[128.63879,35.87313],[128.63884,35.87315],[128.63896,35.87318],[128.63923,35.87326],[128.63937,35.87334],[128.63944,35.87338],[128.6395,35.87342],[128.64442,35.87632],[128.64491,35.87662],[128.64529,35.87684],[128.64952,35.87841],[128.64972,35.87842],[128.65093,35.87849],[128.65247,35.87807],[128.65417,35.8769],[128.65605,35.8761],[128.66022,35.87684]]]]}},{"type":"Feature","properties":{"code":"27260560","name":"만촌2동","parent":"27260"},"geometry":{"type":"MultiPolygon","coordinates":[[[[128.6622,35.86591],[128.66127,35.86404],[128.65702,35.8606],[128.65683,35.85751],[128.6579,35.85671],[128.65849,35.85688],[128.6589,35.85692],[128.66196,35.85564],[128.66144,35.85501],[128.66082,35.85456],[128.66032,35.85398],[128.66077,35.85299],[128.65923,35.85314],[128.65893,35.85317],[128.65745,35.85355],[128.65581,35.85421],[128.65389,35.85502],[128.64814,35.85801],[128.64279,35.85902],[128.64041,35.859],[128.63968,35.86255],[128.63922,35.86462],[128.639,35.8659],[128.63905,35.86625],[128.63985,35.86603],[128.64011,35.86596],[128.64029,35.86594],[128.64064,35.86592],[128.64094,35.8659],[128.64145,35.86593],[128.64185,35.86594],[128.64243,35.86605],[128.64292,35.86619],[128.64321,35.86627],[128.64375,35.8665],[128.64382,35.86653],[128.64436,35.86683],[128.64488,35.86716],[128.64611,35.86811],[128.64617,35.86815],[128.6474,35.86904],[128.64743,35.86906],[128.64898,35.87009],[128.64961,35.86749],[128.64972,35.86705],[128.64977,35.86681],[128.64979,35.8667],[128.64999,35.86575],[128.65004,35.86574],[128.6622,35.86591]]]]}},{"type":"Feature","properties":{"code":"27260561","name":"만촌3동","parent":"27260"},"geometry":{"type":"MultiPolygon","coordinates":[[[[128.66077,35.85299],[128.66037,35.85237],[128.65864,35.84898],[128.6541,35.84515],[128.65126,35.84325],[128.65077,35.84297],[128.64704,35.84161],[128.64651,35.8415],[128.64657,35.84204],[128.64684,35.84509],[128.64668,35.84557],[128.64608,35.84739],[128.646,35.84757],[128.64584,35.84787],[128.64525,35.84836],[128.64336,35.84805],[128.6436,35.85332],[128.64475,35.8558],[128.64452,35.85632],[128.64373,35.85797],[128.64279,35.85902],[128.64814,35.85801],[128.65389,35.85502],[128.65581,35.85421],[128.65745,35.85355],[128.65893,35.85317],[128.65923,35.85314],[128.66077,35.85299]]]]}},{"type":"Feature","properties":{"code":"27260570","name":"수성1가동","parent":"27260"},"geometry":{"type":"MultiPolygon","coordinates":[[[[128.61406,35.85997],[128.61329,35.85112],[128.6132,35.84992],[128.61306,35.84912],[128.60877,35.84899],[128.60734,35.84937],[128.60852,35.85435],[128.60847,35.85495],[128.60815,35.85758],[128.60823,35.85826],[128.60839,35.85975],[128.60845,35.85991],[128.60899,35.86131],[128.60914,35.86143],[128.61406,35.85997]]]]}},{"type":"Feature","properties":{"code":"27260580","name":"수성2·3가동","parent":"27260"},"geometry":{"type":"MultiPolygon","coordinates":[[[[128.62145,35.85963],[128.62069,35.8513],[128.62065,35.85065],[128.61685,35.85091],[128.61329,35.85112],[128.61406,35.85997],[128.62145,35.85963]]]]}},{"type":"Feature","properties":{"code":"27260590","name":"수성4가동","parent":"27260"},"geometry":{"type":"MultiPolygon","coordinates":[[[[128.62245,35.85955],[128.62145,35.85963],[128.61406,35.85997],[128.60914,35.86143],[128.60962,35.86184],[128.61317,35.86548],[128.61457,35.86796],[128.61502,35.86775],[128.61724,35.86774],[128.61731,35.86773],[128.61736,35.86772],[128.61747,35.86769],[128.61764,35.86761],[128.61777,35.86749],[128.61783,35.86737],[128.61787,35.86715],[128.61787,35.86696],[128.61777,35.8664],[128.61773,35.86627],[128.61749,35.86594],[128.61744,35.86588],[128.61707,35.8656],[128.61699,35.86553],[128.6169,35.86539],[128.61689,35.86528],[128.61689,35.86526],[128.61692,35.86516],[128.61702,35.86497],[128.61715,35.86485],[128.6172,35.8648],[128.6173,35.86472],[128.61938,35.86362],[128.62006,35.86329],[128.62088,35.86299],[128.62123,35.86287],[128.62129,35.86284],[128.62143,35.86279],[128.62202,35.86248],[128.62225,35.86229],[128.62228,35.86225],[128.62252,35.86173],[128.62255,35.86151],[128.62256,35.86145],[128.6225,35.86032],[128.62245,35.85955]]]]}},{"type":"Feature","properties":{"code":"27260601","name":"황금1동","parent":"27260"},"geometry":{"type":"MultiPolygon","coordinates":[[[[128.64336,35.84805],[128.64525,35.84836],[128.64584,35.84787],[128.646,35.84757],[128.64608,35.84739],[128.64668,35.84557],[128.64684,35.84509],[128.64657,35.84204],[128.64651,35.8415],[128.64617,35.84062],[128.6472,35.83694],[128.64762,35.83642],[128.64655,35.83559],[128.64646,35.83552],[128.64433,35.83357],[128.6445,35.83308],[128.64446,35.83277],[128.64379,35.83146],[128.64311,35.83079],[128.64056,35.83034],[128.64035,35.83054],[128.64018,35.83085],[128.6401,35.83124],[128.64008,35.83158],[128.64011,35.83197],[128.63917,35.83332],[128.63707,35.83492],[128.63615,35.83558],[128.63592,35.83563],[128.6357,35.83563],[128.63548,35.83559],[128.63534,35.83552],[128.63422,35.83501],[128.63342,35.83443],[128.63196,35.8343],[128.63173,35.83447],[128.63017,35.83572],[128.62992,35.83596],[128.62985,35.83605],[128.62986,35.83632],[128.62989,35.83671],[128.62953,35.83922],[128.62721,35.83915],[128.62779,35.83977],[128.62791,35.84021],[128.62787,35.84089],[128.62774,35.84126],[128.62763,35.84158],[128.62762,35.84164],[128.62759,35.84182],[128.62793,35.84302],[128.62976,35.846],[128.63008,35.8473],[128.6304,35.84648],[128.63052,35.84624],[128.63073,35.84623],[128.63111,35.8464],[128.63223,35.84724],[128.6323,35.84781],[128.63214,35.84854],[128.63223,35.8493],[128.63294,35.8505],[128.63306,35.85053],[128.63457,35.85041],[128.63567,35.85018],[128.63768,35.84883],[128.63936,35.84709],[128.64084,35.84694],[128.64107,35.84694],[128.64135,35.84697],[128.64139,35.84698],[128.6422,35.84717],[128.64336,35.84805]]]]}},{"type":"Feature","properties":{"code":"27260602","name":"황금2동","parent":"27260"},"geometry":{"type":"MultiPolygon","coordinates":[[[[128.62065,35.85065],[128.62356,35.85047],[128.62388,35.85045],[128.62438,35.85042],[128.62519,35.85037],[128.62615,35.84928],[128.6261,35.84823],[128.63008,35.8473],[128.62976,35.846],[128.62793,35.84302],[128.62759,35.84182],[128.62762,35.84164],[128.62763,35.84158],[128.62774,35.84126],[128.62787,35.84089],[128.62791,35.84021],[128.62779,35.83977],[128.62721,35.83915],[128.62627,35.83928],[128.6243,35.83996],[128.61673,35.84051],[128.61678,35.84884],[128.61685,35.85091],[128.62065,35.85065]]]]}},{"type":"Feature","properties":{"code":"27260610","name":"중동","parent":"27260"},"geometry":{"type":"MultiPolygon","coordinates":[[[[128.61685,35.85091],[128.61678,35.84884],[128.61673,35.84051],[128.61448,35.84062],[128.6122,35.84078],[128.61216,35.84042],[128.61211,35.84004],[128.61205,35.83916],[128.60684,35.8391],[128.60718,35.83961],[128.60727,35.83983],[128.60773,35.84224],[128.60773,35.84245],[128.6077,35.84327],[128.60769,35.84389],[128.60667,35.84381],[128.60647,35.84503],[128.60747,35.84505],[128.60735,35.84575],[128.60728,35.84598],[128.6072,35.84626],[128.6071,35.84659],[128.60698,35.84844],[128.60717,35.84893],[128.60734,35.84937],[128.60877,35.84899],[128.61306,35.84912],[128.6132,35.84992],[128.61329,35.85112],[128.61685,35.85091]]]]}},{"type":"Feature","properties":{"code":"27260620","name":"상동","parent":"27260"},"geometry":{"type":"MultiPolygon","coordinates":[[[[128.61673,35.84051],[128.61673,35.83917],[128.61672,35.83072],[128.61672,35.82978],[128.61379,35.82608],[128.61163,35.82585],[128.61,35.82533],[128.60849,35.82515],[128.60746,35.82751],[128.60765,35.82759],[128.60798,35.82772],[128.60775,35.82883],[128.60741,35.83011],[128.60697,35.83102],[128.60686,35.83127],[128.60663,35.83178],[128.60652,35.8323],[128.60643,35.83268],[128.60605,35.83537],[128.60623,35.83622],[128.60635,35.83678],[128.60676,35.83872],[128.60678,35.83882],[128.60684,35.8391],[128.61205,35.83916],[128.61211,35.84004],[128.61216,35.84042],[128.6122,35.84078],[128.61448,35.84062],[128.61673,35.84051]]]]}},{"type":"Feature","properties":{"code":"27260630","name":"파동","parent":"27260"},"geometry":{"type":"MultiPolygon","coordinates":[[[[128.60746,35.82751],[128.60849,35.82515],[128.61,35.82533],[128.61163,35.82585],[128.61397,35.82434],[128.61585,35.82386],[128.61597,35.82382],[128.61639,35.82357],[128.61875,35.82214],[128.61897,35.82196],[128.61964,35.82137],[128.62063,35.82043],[128.62099,35.81996],[128.62224,35.81783],[128.62225,35.81769],[128.62214,35.81755],[128.62223,35.81734],[128.62233,35.81724],[128.62261,35.8171],[128.62349,35.81666],[128.62468,35.81614],[128.62607,35.81571],[128.63055,35.81291],[128.63217,35.81176],[128.63237,35.81161],[128.63585,35.80895],[128.63586,35.80609],[128.63581,35.80611],[128.63535,35.80623],[128.63509,35.80627],[128.63302,35.80654],[128.63263,35.80652],[128.6322,35.8065],[128.63175,35.80645],[128.63115,35.8063],[128.62681,35.80709],[128.62666,35.80715],[128.62486,35.80773],[128.62364,35.80683],[128.6234,35.80657],[128.62326,35.80634],[128.62319,35.80598],[128.62233,35.8052],[128.61623,35.8042],[128.61611,35.8042],[128.61592,35.80421],[128.60849,35.80506],[128.60141,35.80657],[128.59588,35.80742],[128.59453,35.80766],[128.59071,35.80977],[128.59079,35.80993],[128.59089,35.81006],[128.5921,35.81157],[128.59383,35.81306],[128.59477,35.81343],[128.59717,35.81419],[128.59804,35.81432],[128.59856,35.81437],[128.59883,35.8144],[128.60062,35.81489],[128.60109,35.81527],[128.60312,35.81933],[128.60352,35.82035],[128.6046,35.82318],[128.60511,35.82459],[128.60515,35.82541],[128.60516,35.8256],[128.60519,35.82613],[128.60516,35.82723],[128.60561,35.8295],[128.60643,35.82855],[128.60746,35.82751]]]]}},{"type":"Feature","properties":{"code":"27260640","name":"두산동","parent":"27260"},"geometry":{"type":"MultiPolygon","coordinates":[[[[128.6243,35.83996],[128.62411,35.83726],[128.62368,35.83231],[128.62354,35.83027],[128.62355,35.83017],[128.62697,35.83044],[128.62719,35.83017],[128.62792,35.82865],[128.62795,35.82852],[128.62794,35.8283],[128.6275,35.82753],[128.62707,35.82723],[128.627,35.82722],[128.62673,35.82697],[128.62644,35.82655],[128.62602,35.82588],[128.62478,35.82296],[128.62474,35.82287],[128.62435,35.82116],[128.62482,35.82085],[128.62605,35.82032],[128.62605,35.81966],[128.62571,35.81815],[128.62468,35.81614],[128.62349,35.81666],[128.62261,35.8171],[128.62233,35.81724],[128.62223,35.81734],[128.62214,35.81755],[128.62225,35.81769],[128.62224,35.81783],[128.62099,35.81996],[128.62063,35.82043],[128.61964,35.82137],[128.61897,35.82196],[128.61875,35.82214],[128.61639,35.82357],[128.61597,35.82382],[128.61585,35.82386],[128.61397,35.82434],[128.61163,35.82585],[128.61379,35.82608],[128.61672,35.82978],[128.61672,35.83072],[128.61673,35.83917],[128.61673,35.84051],[128.6243,35.83996]]]]}},{"type":"Feature","properties":{"code":"27260651","name":"지산1동","parent":"27260"},"geometry":{"type":"MultiPolygon","coordinates":[[[[128.62721,35.83915],[128.62953,35.83922],[128.62989,35.83671],[128.62986,35.83632],[128.62985,35.83605],[128.62992,35.83596],[128.63017,35.83572],[128.63173,35.83447],[128.63196,35.8343],[128.63342,35.83443],[128.63422,35.83501],[128.63534,35.83552],[128.63548,35.83559],[128.6357,35.83563],[128.63592,35.83563],[128.63615,35.83558],[128.63707,35.83492],[128.63917,35.83332],[128.64011,35.83197],[128.64008,35.83158],[128.6401,35.83124],[128.64018,35.83085],[128.64035,35.83054],[128.64056,35.83034],[128.64311,35.83079],[128.64379,35.83146],[128.64446,35.83277],[128.6445,35.83308],[128.64433,35.83357],[128.64646,35.83552],[128.64655,35.83559],[128.64762,35.83642],[128.64783,35.83699],[128.6489,35.83648],[128.64913,35.83633],[128.64947,35.83566],[128.64971,35.8347],[128.65002,35.83412],[128.65038,35.83369],[128.65141,35.83256],[128.6525,35.83276],[128.65347,35.83098],[128.65335,35.82886],[128.65309,35.82837],[128.6528,35.82803],[128.65276,35.82742],[128.65399,35.82611],[128.65419,35.8259],[128.65232,35.82615],[128.6512,35.82628],[128.65041,35.82614],[128.64905,35.82556],[128.64557,35.82413],[128.64261,35.82336],[128.63974,35.8212],[128.63785,35.82248],[128.63613,35.82352],[128.6358,35.82359],[128.63544,35.8237],[128.63306,35.82458],[128.63276,35.82479],[128.6322,35.82524],[128.62707,35.82723],[128.6275,35.82753],[128.62794,35.8283],[128.62795,35.82852],[128.62792,35.82865],[128.62719,35.83017],[128.62697,35.83044],[128.62355,35.83017],[128.62354,35.83027],[128.62368,35.83231],[128.62411,35.83726],[128.6243,35.83996],[128.62627,35.83928],[128.62721,35.83915]]]]}},{"type":"Feature","properties":{"code":"27260652","name":"지산2동","parent":"27260"},"geometry":{"type":"MultiPolygon","coordinates":[[[[128.63974,35.8212],[128.63657,35.82037],[128.6368,35.81881],[128.6378,35.81632],[128.63772,35.81324],[128.63877,35.81055],[128.6378,35.80935],[128.63696,35.80837],[128.6367,35.80846],[128.63589,35.80892],[128.63585,35.80895],[128.63237,35.81161],[128.63217,35.81176],[128.63055,35.81291],[128.62607,35.81571],[128.62468,35.81614],[128.62571,35.81815],[128.62605,35.81966],[128.62605,35.82032],[128.62482,35.82085],[128.62435,35.82116],[128.62474,35.82287],[128.62478,35.82296],[128.62602,35.82588],[128.62644,35.82655],[128.62673,35.82697],[128.627,35.82722],[128.62707,35.82723],[128.6322,35.82524],[128.63276,35.82479],[128.63306,35.82458],[128.63544,35.8237],[128.6358,35.82359],[128.63613,35.82352],[128.63785,35.82248],[128.63974,35.8212]]]]}},{"type":"Feature","properties":{"code":"27260661","name":"범물1동","parent":"27260"},"geometry":{"type":"MultiPolygon","coordinates":[[[[128.65419,35.8259],[128.65479,35.82561],[128.65529,35.82521],[128.65557,35.82397],[128.65566,35.82352],[128.65567,35.82339],[128.65569,35.82292],[128.65564,35.8222],[128.65563,35.82172],[128.65564,35.82129],[128.65586,35.82075],[128.65604,35.82051],[128.65719,35.81955],[128.65783,35.81968],[128.65815,35.81971],[128.65969,35.81963],[128.66244,35.81929],[128.66415,35.81906],[128.66683,35.81853],[128.66856,35.81816],[128.66895,35.81806],[128.66965,35.8178],[128.67016,35.81758],[128.67143,35.817],[128.67255,35.81607],[128.67304,35.81567],[128.67335,35.81494],[128.67329,35.8147],[128.67132,35.80932],[128.67068,35.80816],[128.67057,35.80684],[128.67252,35.80363],[128.67567,35.8026],[128.67758,35.80264],[128.67781,35.80181],[128.67846,35.79849],[128.67847,35.79808],[128.67825,35.79598],[128.67821,35.79569],[128.6772,35.79412],[128.67717,35.79417],[128.67709,35.79427],[128.67691,35.79441],[128.67663,35.79461],[128.67501,35.79554],[128.67485,35.7956],[128.67476,35.79562],[128.67217,35.79581],[128.66807,35.79733],[128.66798,35.79736],[128.66745,35.79753],[128.66654,35.79783],[128.66414,35.79842],[128.66394,35.79846],[128.662,35.79887],[128.66184,35.79889],[128.66173,35.79889],[128.66165,35.79888],[128.66056,35.79883],[128.6601,35.79878],[128.65994,35.79875],[128.65985,35.79872],[128.65959,35.79858],[128.65892,35.79846],[128.65736,35.79872],[128.65314,35.79976],[128.65305,35.79979],[128.65278,35.79998],[128.65264,35.80008],[128.65242,35.80026],[128.65228,35.80041],[128.65212,35.80059],[128.65184,35.80099],[128.65174,35.80118],[128.65086,35.80286],[128.65108,35.80318],[128.65207,35.80544],[128.65223,35.80629],[128.65187,35.80814],[128.6512,35.81085],[128.65076,35.81301],[128.65065,35.81439],[128.65036,35.81486],[128.64945,35.81502],[128.6494,35.81503],[128.64885,35.81506],[128.64771,35.81555],[128.6467,35.81603],[128.64652,35.81608],[128.64567,35.81638],[128.64562,35.81642],[128.64524,35.81675],[128.64231,35.81952],[128.63974,35.8212],[128.64261,35.82336],[128.64557,35.82413],[128.64905,35.82556],[128.65041,35.82614],[128.6512,35.82628],[128.65232,35.82615],[128.65419,35.8259]]]]}},{"type":"Feature","properties":{"code":"27260662","name":"범물2동","parent":"27260"},"geometry":{"type":"MultiPolygon","coordinates":[[[[128.65086,35.80286],[128.64929,35.80348],[128.64912,35.80353],[128.64898,35.80354],[128.64886,35.80353],[128.64872,35.80349],[128.64857,35.80342],[128.6484,35.80332],[128.64753,35.80285],[128.64712,35.80264],[128.64675,35.80249],[128.64654,35.80242],[128.64631,35.80237],[128.64588,35.80229],[128.6455,35.80226],[128.64203,35.80201],[128.64198,35.80201],[128.64039,35.80223],[128.64032,35.80225],[128.64024,35.80229],[128.64015,35.80237],[128.63922,35.80328],[128.63877,35.80401],[128.63867,35.8042],[128.63808,35.80483],[128.63789,35.80501],[128.63742,35.8053],[128.63606,35.80601],[128.63586,35.80609],[128.63585,35.80895],[128.63589,35.80892],[128.6367,35.80846],[128.63696,35.80837],[128.6378,35.80935],[128.63877,35.81055],[128.63772,35.81324],[128.6378,35.81632],[128.6368,35.81881],[128.63657,35.82037],[128.63974,35.8212],[128.64231,35.81952],[128.64524,35.81675],[128.64562,35.81642],[128.64567,35.81638],[128.64652,35.81608],[128.6467,35.81603],[128.64771,35.81555],[128.64885,35.81506],[128.6494,35.81503],[128.64945,35.81502],[128.65036,35.81486],[128.65065,35.81439],[128.65076,35.81301],[128.6512,35.81085],[128.65187,35.80814],[128.65223,35.80629],[128.65207,35.80544],[128.65108,35.80318],[128.65086,35.80286]]]]}},{"type":"Feature","properties":{"code":"27260670","name":"고산1동","parent":"27260"},"geometry":{"type":"MultiPolygon","coordinates":[[[[128.7233,35.83529],[128.72051,35.83582],[128.71896,35.83566],[128.71888,35.83565],[128.71846,35.83546],[128.71819,35.83533],[128.71661,35.83417],[128.71422,35.83207],[128.71252,35.83053],[128.71181,35.83],[128.71081,35.82904],[128.70974,35.82797],[128.70883,35.82668],[128.70879,35.8266],[128.70875,35.8265],[128.70871,35.82638],[128.70867,35.82622],[128.7086,35.82586],[128.70857,35.82562],[128.70849,35.82427],[128.70849,35.82412],[128.70852,35.82383],[128.70883,35.82234],[128.70964,35.82084],[128.70973,35.82069],[128.70981,35.82056],[128.70991,35.82041],[128.70993,35.82039],[128.71008,35.82023],[128.71019,35.82013],[128.71028,35.82006],[128.71034,35.82001],[128.71041,35.81998],[128.71056,35.81989],[128.71149,35.81933],[128.71159,35.81926],[128.71172,35.81916],[128.71178,35.81911],[128.71186,35.81904],[128.71309,35.81794],[128.71317,35.81787],[128.71322,35.81781],[128.71328,35.81775],[128.71331,35.81771],[128.71335,35.81764],[128.71342,35.81748],[128.71354,35.81718],[128.71358,35.81702],[128.7136,35.8169],[128.71361,35.81683],[128.71391,35.81533],[128.71452,35.81335],[128.71516,35.81159],[128.71594,35.80941],[128.71599,35.8093],[128.71769,35.80671],[128.71639,35.80589],[128.71618,35.80581],[128.71608,35.80578],[128.71477,35.80546],[128.7146,35.80542],[128.71456,35.80542],[128.71449,35.80542],[128.71444,35.80543],[128.71436,35.80546],[128.71414,35.80552],[128.71407,35.80553],[128.71397,35.80555],[128.71389,35.80556],[128.71377,35.80555],[128.71126,35.8051],[128.71108,35.80506],[128.71103,35.80504],[128.71088,35.80497],[128.7107,35.80487],[128.71063,35.80482],[128.71033,35.80462],[128.71024,35.80456],[128.70996,35.80436],[128.70989,35.80431],[128.70904,35.80369],[128.7025,35.79854],[128.70235,35.79842],[128.70019,35.79665],[128.70015,35.79658],[128.70011,35.79608],[128.70012,35.79548],[128.70012,35.79532],[128.70009,35.79522],[128.69999,35.79513],[128.69938,35.7949],[128.69737,35.79415],[128.69718,35.79413],[128.69695,35.79415],[128.69677,35.7942],[128.69663,35.79426],[128.69545,35.79503],[128.69535,35.7951],[128.69492,35.79554],[128.69483,35.79565],[128.69479,35.79581],[128.69461,35.79631],[128.69446,35.79655],[128.69442,35.79659],[128.69434,35.79662],[128.69428,35.79662],[128.69316,35.79657],[128.69297,35.79654],[128.69278,35.79647],[128.69141,35.79583],[128.69122,35.79573],[128.69094,35.79548],[128.69069,35.79515],[128.69063,35.79499],[128.68913,35.79241],[128.68906,35.79233],[128.68888,35.79228],[128.68405,35.79059],[128.68258,35.7899],[128.68146,35.79085],[128.67863,35.79281],[128.67855,35.79282],[128.6784,35.79283],[128.67821,35.79288],[128.67801,35.793],[128.67784,35.7931],[128.67748,35.79336],[128.67729,35.79349],[128.67726,35.79353],[128.67723,35.79358],[128.6772,35.79412],[128.67821,35.79569],[128.67825,35.79598],[128.67847,35.79808],[128.67846,35.79849],[128.67781,35.80181],[128.67758,35.80264],[128.68118,35.80413],[128.68359,35.80626],[128.6839,35.80655],[128.68668,35.80927],[128.68677,35.80947],[128.68659,35.80983],[128.68658,35.80986],[128.68584,35.811],[128.6863,35.81184],[128.68804,35.81215],[128.68971,35.81232],[128.69083,35.81221],[128.69261,35.81313],[128.69486,35.81469],[128.69641,35.81702],[128.69671,35.81777],[128.69702,35.81882],[128.69727,35.82077],[128.69751,35.82088],[128.7002,35.82218],[128.70186,35.82581],[128.70226,35.83003],[128.70314,35.83261],[128.70381,35.83372],[128.70383,35.83396],[128.70386,35.83433],[128.70392,35.83539],[128.70392,35.8365],[128.70392,35.83755],[128.70332,35.83755],[128.7034,35.84063],[128.7035,35.84125],[128.70388,35.84116],[128.70735,35.84027],[128.70758,35.84017],[128.70825,35.83987],[128.70834,35.83983],[128.7091,35.83945],[128.7092,35.8394],[128.70935,35.83931],[128.70968,35.83911],[128.70993,35.83896],[128.71011,35.83885],[128.71026,35.83876],[128.71032,35.83872],[128.711,35.83844],[128.71202,35.83803],[128.71263,35.83779],[128.71268,35.83777],[128.71333,35.83758],[128.71342,35.83756],[128.71364,35.8375],[128.7233,35.83529]]]]}},{"type":"Feature","properties":{"code":"27260680","name":"고산2동","parent":"27260"},"geometry":{"type":"MultiPolygon","coordinates":[[[[128.68013,35.86679],[128.68023,35.86282],[128.68029,35.86224],[128.68066,35.86173],[128.68105,35.86132],[128.68175,35.86077],[128.68224,35.86047],[128.68569,35.85936],[128.68636,35.85917],[128.68664,35.85911],[128.68724,35.85897],[128.68731,35.85896],[128.6892,35.85856],[128.69188,35.85816],[128.6925,35.85812],[128.69289,35.85812],[128.69387,35.85812],[128.69472,35.85811],[128.69672,35.85801],[128.6975,35.85797],[128.69893,35.8579],[128.69986,35.85785],[128.70101,35.85625],[128.70206,35.85532],[128.70187,35.85462],[128.70163,35.85394],[128.70027,35.85293],[128.69898,35.85141],[128.69884,35.85123],[128.69872,35.8508],[128.69863,35.85047],[128.69868,35.85036],[128.70125,35.84857],[128.70139,35.8485],[128.70344,35.84809],[128.70253,35.84511],[128.70209,35.84438],[128.70139,35.84384],[128.70085,35.84352],[128.70036,35.84342],[128.6999,35.84336],[128.69949,35.8433],[128.69913,35.84225],[128.70299,35.84137],[128.7035,35.84125],[128.7034,35.84063],[128.70332,35.83755],[128.70392,35.83755],[128.70392,35.8365],[128.70392,35.83539],[128.70386,35.83433],[128.70383,35.83396],[128.70381,35.83372],[128.70314,35.83261],[128.70226,35.83003],[128.70186,35.82581],[128.7002,35.82218],[128.69751,35.82088],[128.69727,35.82077],[128.69702,35.81882],[128.69671,35.81777],[128.69641,35.81702],[128.69486,35.81469],[128.69261,35.81313],[128.69083,35.81221],[128.68971,35.81232],[128.68804,35.81215],[128.6863,35.81184],[128.68584,35.811],[128.68658,35.80986],[128.68659,35.80983],[128.68677,35.80947],[128.68668,35.80927],[128.6839,35.80655],[128.68359,35.80626],[128.68118,35.80413],[128.67758,35.80264],[128.67567,35.8026],[128.67252,35.80363],[128.67057,35.80684],[128.67068,35.80816],[128.67132,35.80932],[128.67329,35.8147],[128.67335,35.81494],[128.67304,35.81567],[128.67255,35.81607],[128.67143,35.817],[128.67016,35.81758],[128.66965,35.8178],[128.66895,35.81806],[128.66856,35.81816],[128.66683,35.81853],[128.66415,35.81906],[128.66244,35.81929],[128.65969,35.81963],[128.65815,35.81971],[128.65783,35.81968],[128.65719,35.81955],[128.65604,35.82051],[128.65586,35.82075],[128.65564,35.82129],[128.65563,35.82172],[128.65564,35.8222],[128.65569,35.82292],[128.65567,35.82339],[128.65566,35.82352],[128.65557,35.82397],[128.65529,35.82521],[128.65479,35.82561],[128.65419,35.8259],[128.65399,35.82611],[128.65276,35.82742],[128.6528,35.82803],[128.65309,35.82837],[128.65335,35.82886],[128.65347,35.83098],[128.6525,35.83276],[128.65141,35.83256],[128.65038,35.83369],[128.65002,35.83412],[128.64971,35.8347],[128.64947,35.83566],[128.64913,35.83633],[128.6489,35.83648],[128.64783,35.83699],[128.64762,35.83642],[128.6472,35.83694],[128.64617,35.84062],[128.64651,35.8415],[128.64704,35.84161],[128.65077,35.84297],[128.65126,35.84325],[128.6541,35.84515],[128.65864,35.84898],[128.66037,35.85237],[128.66077,35.85299],[128.66032,35.85398],[128.66082,35.85456],[128.66144,35.85501],[128.66196,35.85564],[128.6589,35.85692],[128.65849,35.85688],[128.6579,35.85671],[128.65683,35.85751],[128.65702,35.8606],[128.66127,35.86404],[128.6622,35.86591],[128.66277,35.86665],[128.66299,35.86717],[128.66282,35.86785],[128.66233,35.8685],[128.66229,35.86911],[128.66231,35.87052],[128.66269,35.87323],[128.66342,35.87282],[128.66367,35.87278],[128.66629,35.87318],[128.66633,35.87318],[128.66829,35.8736],[128.66845,35.87363],[128.67333,35.8739],[128.67606,35.87334],[128.67749,35.87155],[128.6795,35.86822],[128.68001,35.8672],[128.68013,35.86679]]]]}},{"type":"Feature","properties":{"code":"27260690","name":"고산3동","parent":"27260"},"geometry":{"type":"MultiPolygon","coordinates":[[[[128.72613,35.85712],[128.72496,35.85782],[128.72151,35.85628],[128.72241,35.85541],[128.72422,35.85424],[128.72529,35.85352],[128.72612,35.84598],[128.72616,35.8449],[128.72618,35.84423],[128.72539,35.84339],[128.72405,35.84004],[128.72406,35.83935],[128.72415,35.83859],[128.72518,35.83657],[128.72518,35.83652],[128.72518,35.83644],[128.72516,35.83633],[128.72511,35.83613],[128.72465,35.83574],[128.72367,35.83541],[128.7233,35.83529],[128.71364,35.8375],[128.71342,35.83756],[128.71333,35.83758],[128.71268,35.83777],[128.71263,35.83779],[128.71202,35.83803],[128.711,35.83844],[128.71032,35.83872],[128.71026,35.83876],[128.71011,35.83885],[128.70993,35.83896],[128.70968,35.83911],[128.70935,35.83931],[128.7092,35.8394],[128.7091,35.83945],[128.70834,35.83983],[128.70825,35.83987],[128.70758,35.84017],[128.70735,35.84027],[128.70388,35.84116],[128.7035,35.84125],[128.70299,35.84137],[128.69913,35.84225],[128.69949,35.8433],[128.6999,35.84336],[128.70036,35.84342],[128.70085,35.84352],[128.70139,35.84384],[128.70209,35.84438],[128.70253,35.84511],[128.70344,35.84809],[128.70139,35.8485],[128.70125,35.84857],[128.69868,35.85036],[128.69863,35.85047],[128.69872,35.8508],[128.69884,35.85123],[128.69898,35.85141],[128.70027,35.85293],[128.70163,35.85394],[128.70187,35.85462],[128.70206,35.85532],[128.70101,35.85625],[128.69986,35.85785],[128.70403,35.85768],[128.70612,35.85826],[128.71142,35.86084],[128.71411,35.8623],[128.71427,35.86236],[128.71496,35.86239],[128.71527,35.86241],[128.71665,35.86238],[128.71726,35.86234],[128.7183,35.86215],[128.71952,35.86188],[128.71978,35.86181],[128.72046,35.86158],[128.72078,35.86146],[128.72401,35.86013],[128.72613,35.85712]]]]}}]}