{"type":"FeatureCollection","features":[{"type":"Feature","properties":{"code":"41390510","name":"대야동","parent":"41390"},"geometry":{"type":"MultiPolygon","coordinates":[[[[126.80106,37.46375],[126.80094,37.46289],[126.80141,37.46292],[126.8024,37.46265],[126.80308,37.46174],[126.8041,37.4615],[126.80468,37.4617],[126.80544,37.46171],[126.80575,37.46201],[126.80699,37.46202],[126.80773,37.462],[126.80889,37.46209],[126.80893,37.46172],[126.80936,37.46132],[126.8099,37.46117],[126.81017,37.46083],[126.81049,37.46076],[126.81088,37.46038],[126.8111,37.46028],[126.81151,37.45988],[126.81184,37.45886],[126.81217,37.45912],[126.81268,37.45918],[126.81335,37.45872],[126.81323,37.45993],[126.81548,37.46098],[126.81644,37.46],[126.81705,37.45957],[126.81774,37.45919],[126.81817,37.45922],[126.81973,37.45945],[126.8209,37.45862],[126.82319,37.45835],[126.82378,37.45649],[126.82329,37.4559],[126.82352,37.4544],[126.82419,37.45386],[126.82364,37.45198],[126.82505,37.45108],[126.82423,37.44957],[126.82485,37.44877],[126.82572,37.44707],[126.82475,37.44578],[126.82314,37.44444],[126.82305,37.44338],[126.824,37.44234],[126.82306,37.44223],[126.82254,37.44195],[126.82205,37.44184],[126.82124,37.44161],[126.82093,37.44139],[126.82058,37.44084],[126.8201,37.44004],[126.81987,37.43979],[126.8195,37.43957],[126.8179,37.4391],[126.81702,37.43896],[126.81334,37.43847],[126.81329,37.43847],[126.8115,37.43827],[126.80871,37.43811],[126.8106,37.44365],[126.80665,37.44824],[126.80151,37.4469],[126.79915,37.44553],[126.79413,37.4429],[126.79356,37.44195],[126.79294,37.44092],[126.79286,37.44072],[126.79286,37.44039],[126.79286,37.44033],[126.79302,37.43929],[126.79305,37.4391],[126.79307,37.43897],[126.7934,37.43878],[126.79345,37.43875],[126.79148,37.43877],[126.79013,37.43878],[126.79002,37.4388],[126.78978,37.43883],[126.78953,37.43886],[126.78888,37.43897],[126.78877,37.43898],[126.78686,37.43967],[126.78706,37.43999],[126.78765,37.44096],[126.78505,37.44301],[126.78325,37.44436],[126.78235,37.44511],[126.77888,37.44868],[126.77881,37.44892],[126.77832,37.45079],[126.77921,37.4527],[126.77977,37.45433],[126.77976,37.4544],[126.77972,37.45445],[126.77937,37.45458],[126.77897,37.45473],[126.77829,37.45508],[126.77748,37.4574],[126.77745,37.45752],[126.7777,37.45906],[126.77851,37.46197],[126.77946,37.46505],[126.77959,37.46516],[126.77965,37.46522],[126.77968,37.46526],[126.77969,37.46529],[126.77971,37.46533],[126.77984,37.46579],[126.77966,37.46712],[126.77946,37.46829],[126.77942,37.46838],[126.77919,37.46869],[126.77846,37.46948],[126.77799,37.46991],[126.77797,37.46996],[126.77796,37.47],[126.77797,37.47017],[126.77805,37.4709],[126.77823,37.47179],[126.77965,37.47146],[126.78023,37.47157],[126.78047,37.4715],[126.78299,37.47205],[126.78319,37.47228],[126.78384,37.47233],[126.78432,37.47241],[126.78436,37.47127],[126.78519,37.47006],[126.78791,37.46926],[126.78778,37.46684],[126.78927,37.46566],[126.79152,37.46529],[126.79253,37.46526],[126.79422,37.46577],[126.79477,37.46572],[126.79652,37.46402],[126.79749,37.4641],[126.79881,37.46454],[126.79978,37.46417],[126.80106,37.46375]]]]}},{"type":"Feature","properties":{"code":"41390520","name":"신천동","parent":"41390"},"geometry":{"type":"MultiPolygon","coordinates":[[[[126.77832,37.45079],[126.77881,37.44892],[126.77888,37.44868],[126.78235,37.44511],[126.78325,37.44436],[126.78505,37.44301],[126.78765,37.44096],[126.78706,37.43999],[126.78686,37.43967],[126.78877,37.43898],[126.78888,37.43897],[126.78953,37.43886],[126.78978,37.43883],[126.79002,37.4388],[126.79013,37.43878],[126.79148,37.43877],[126.79345,37.43875],[126.79322,37.43835],[126.79319,37.43829],[126.79316,37.43824],[126.79314,37.43821],[126.79313,37.43818],[126.79309,37.43812],[126.79312,37.43767],[126.79315,37.43733],[126.79317,37.43722],[126.79318,37.43705],[126.79316,37.43703],[126.79315,37.43699],[126.79313,37.43694],[126.79311,37.4369],[126.7931,37.43685],[126.7931,37.43672],[126.79311,37.43669],[126.79313,37.43651],[126.79318,37.43643],[126.79316,37.43632],[126.79313,37.43626],[126.79307,37.43597],[126.7931,37.43543],[126.79313,37.43539],[126.79325,37.43528],[126.79339,37.43519],[126.79365,37.43499],[126.79377,37.43484],[126.79343,37.43353],[126.79262,37.43091],[126.79246,37.43042],[126.7923,37.42995],[126.79208,37.4294],[126.79204,37.42929],[126.79202,37.42925],[126.79189,37.42891],[126.79162,37.42823],[126.79146,37.42823],[126.79129,37.42823],[126.79076,37.4282],[126.79064,37.42819],[126.79058,37.42818],[126.79054,37.42818],[126.79042,37.42816],[126.79016,37.42813],[126.78995,37.42813],[126.78976,37.42814],[126.78962,37.42816],[126.78948,37.42822],[126.78783,37.42894],[126.7874,37.42962],[126.78582,37.42989],[126.77997,37.43085],[126.77885,37.431],[126.77682,37.43128],[126.77242,37.42991],[126.77101,37.42935],[126.77035,37.42905],[126.77061,37.42955],[126.77127,37.43138],[126.77131,37.43514],[126.77131,37.43523],[126.77115,37.43636],[126.77112,37.43652],[126.77105,37.43682],[126.76933,37.44211],[126.76923,37.44235],[126.76884,37.44293],[126.76958,37.44518],[126.77071,37.44851],[126.77162,37.45015],[126.77174,37.45027],[126.77476,37.45056],[126.77755,37.45082],[126.77832,37.45079]]]]}},{"type":"Feature","properties":{"code":"41390531","name":"신현동","parent":"41390"},"geometry":{"type":"MultiPolygon","coordinates":[[[[126.79162,37.42823],[126.7915,37.42794],[126.79139,37.42756],[126.79122,37.42702],[126.79118,37.42645],[126.79119,37.42635],[126.79292,37.42413],[126.79302,37.42401],[126.79308,37.42395],[126.79315,37.4239],[126.79418,37.42359],[126.79434,37.42354],[126.79471,37.42345],[126.79489,37.42345],[126.79508,37.42347],[126.79569,37.42359],[126.79624,37.42371],[126.79648,37.42377],[126.79705,37.42388],[126.80198,37.42359],[126.80207,37.42358],[126.80213,37.42356],[126.80218,37.42355],[126.80304,37.42326],[126.80324,37.42318],[126.80323,37.42301],[126.80305,37.42053],[126.80225,37.41984],[126.80184,37.41947],[126.8012,37.41887],[126.79854,37.41642],[126.79853,37.4164],[126.79807,37.41582],[126.79767,37.41522],[126.79506,37.41289],[126.79058,37.40911],[126.79021,37.40885],[126.78926,37.40829],[126.78931,37.40676],[126.78731,37.40705],[126.78709,37.40655],[126.78646,37.40419],[126.78636,37.40381],[126.78618,37.40304],[126.78618,37.40299],[126.78618,37.4029],[126.78619,37.40274],[126.78677,37.40243],[126.78744,37.40206],[126.78889,37.40105],[126.7897,37.39886],[126.78992,37.39621],[126.78931,37.39555],[126.78832,37.39491],[126.7879,37.39464],[126.78765,37.39446],[126.78724,37.39417],[126.78646,37.39362],[126.78578,37.39292],[126.78554,37.39268],[126.7851,37.39211],[126.78507,37.39206],[126.78465,37.39169],[126.7828,37.39245],[126.78134,37.39361],[126.77933,37.39308],[126.77882,37.39274],[126.77753,37.3919],[126.77697,37.39183],[126.77451,37.39314],[126.77339,37.3938],[126.77339,37.39497],[126.77313,37.39517],[126.77284,37.39521],[126.77256,37.39522],[126.77239,37.39519],[126.77219,37.39515],[126.77183,37.39501],[126.76984,37.39478],[126.76628,37.39461],[126.76599,37.39466],[126.7658,37.39469],[126.76522,37.39504],[126.7651,37.39556],[126.76532,37.39687],[126.76531,37.39723],[126.76522,37.3973],[126.76495,37.39753],[126.76255,37.39868],[126.76181,37.3989],[126.76173,37.39892],[126.75446,37.39971],[126.75374,37.39967],[126.75306,37.39955],[126.75244,37.39927],[126.75227,37.39919],[126.75178,37.39885],[126.75145,37.39862],[126.7508,37.39843],[126.74908,37.39848],[126.74857,37.39853],[126.74384,37.40037],[126.74417,37.4005],[126.74529,37.40095],[126.74582,37.40117],[126.74585,37.40122],[126.74589,37.40138],[126.74585,37.40159],[126.74704,37.40338],[126.74884,37.40575],[126.75058,37.40761],[126.75059,37.40981],[126.75224,37.41448],[126.75329,37.41692],[126.75498,37.41793],[126.75504,37.41799],[126.75505,37.41805],[126.75504,37.41816],[126.75493,37.41846],[126.75477,37.41888],[126.75408,37.42061],[126.75379,37.42133],[126.75369,37.42254],[126.75868,37.42596],[126.75968,37.42653],[126.76098,37.42629],[126.76381,37.42576],[126.76737,37.42659],[126.76867,37.42714],[126.76874,37.42718],[126.76903,37.42734],[126.76931,37.42766],[126.76978,37.42828],[126.77005,37.42863],[126.77035,37.42905],[126.77101,37.42935],[126.77242,37.42991],[126.77682,37.43128],[126.77885,37.431],[126.77997,37.43085],[126.78582,37.42989],[126.7874,37.42962],[126.78783,37.42894],[126.78948,37.42822],[126.78962,37.42816],[126.78976,37.42814],[126.78995,37.42813],[126.79016,37.42813],[126.79042,37.42816],[126.79054,37.42818],[126.79058,37.42818],[126.79064,37.42819],[126.79076,37.4282],[126.79129,37.42823],[126.79146,37.42823],[126.79162,37.42823]]]]}},{"type":"Feature","properties":{"code":"41390540","name":"은행동","parent":"41390"},"geometry":{"type":"MultiPolygon","coordinates":[[[[126.82205,37.44184],[126.82313,37.44046],[126.82588,37.43606],[126.82591,37.43601],[126.82595,37.43593],[126.82604,37.43566],[126.82623,37.4344],[126.82599,37.4324],[126.8254,37.42868],[126.82339,37.42647],[126.82175,37.42564],[126.82152,37.42557],[126.82143,37.42554],[126.82131,37.42551],[126.82115,37.42548],[126.82091,37.42543],[126.82072,37.42541],[126.82065,37.4254],[126.82059,37.4254],[126.82039,37.4254],[126.81964,37.42526],[126.81865,37.42505],[126.81844,37.425],[126.81748,37.42471],[126.81715,37.4244],[126.81574,37.42385],[126.81555,37.42377],[126.8151,37.42348],[126.81509,37.42334],[126.81509,37.42331],[126.8154,37.4228],[126.81571,37.42222],[126.81647,37.42032],[126.81473,37.41967],[126.8132,37.41925],[126.81072,37.41899],[126.80973,37.41939],[126.80949,37.41949],[126.80915,37.4197],[126.80907,37.41976],[126.80901,37.4198],[126.80888,37.41989],[126.80792,37.42084],[126.80758,37.42118],[126.80744,37.42133],[126.80741,37.42135],[126.80359,37.42126],[126.80314,37.42069],[126.80305,37.42053],[126.80323,37.42301],[126.80324,37.42318],[126.80304,37.42326],[126.80218,37.42355],[126.80213,37.42356],[126.80207,37.42358],[126.80198,37.42359],[126.79705,37.42388],[126.79648,37.42377],[126.79624,37.42371],[126.79569,37.42359],[126.79508,37.42347],[126.79489,37.42345],[126.79471,37.42345],[126.79434,37.42354],[126.79418,37.42359],[126.79315,37.4239],[126.79308,37.42395],[126.79302,37.42401],[126.79292,37.42413],[126.79119,37.42635],[126.79118,37.42645],[126.79122,37.42702],[126.79139,37.42756],[126.7915,37.42794],[126.79162,37.42823],[126.79189,37.42891],[126.79202,37.42925],[126.79204,37.42929],[126.79208,37.4294],[126.7923,37.42995],[126.79246,37.43042],[126.79262,37.43091],[126.79343,37.43353],[126.79377,37.43484],[126.79365,37.43499],[126.79339,37.43519],[126.79325,37.43528],[126.79313,37.43539],[126.7931,37.43543],[126.79307,37.43597],[126.79313,37.43626],[126.79316,37.43632],[126.79318,37.43643],[126.79313,37.43651],[126.79311,37.43669],[126.7931,37.43672],[126.7931,37.43685],[126.79311,37.4369],[126.79313,37.43694],[126.79315,37.43699],[126.79316,37.43703],[126.79318,37.43705],[126.79317,37.43722],[126.79315,37.43733],[126.79312,37.43767],[126.79309,37.43812],[126.79313,37.43818],[126.79314,37.43821],[126.79316,37.43824],[126.79319,37.43829],[126.79322,37.43835],[126.79345,37.43875],[126.7934,37.43878],[126.79307,37.43897],[126.79305,37.4391],[126.79302,37.43929],[126.79286,37.44033],[126.79286,37.44039],[126.79286,37.44072],[126.79294,37.44092],[126.79356,37.44195],[126.79413,37.4429],[126.79915,37.44553],[126.80151,37.4469],[126.80665,37.44824],[126.8106,37.44365],[126.80871,37.43811],[126.8115,37.43827],[126.81329,37.43847],[126.81334,37.43847],[126.81702,37.43896],[126.8179,37.4391],[126.8195,37.43957],[126.81987,37.43979],[126.8201,37.44004],[126.82058,37.44084],[126.82093,37.44139],[126.82124,37.44161],[126.82205,37.44184]]]]}},{"type":"Feature","properties":{"code":"41390550","name":"매화동","parent":"41390"},"geometry":{"type":"MultiPolygon","coordinates":[[[[126.85024,37.40363],[126.84865,37.4018],[126.84859,37.40162],[126.84864,37.40155],[126.84866,37.4015],[126.84874,37.40137],[126.84928,37.40079],[126.84974,37.4004],[126.85019,37.39998],[126.85015,37.39872],[126.84983,37.39804],[126.84896,37.39773],[126.84858,37.39759],[126.84844,37.39449],[126.84844,37.3943],[126.84866,37.39119],[126.84889,37.39028],[126.84834,37.38945],[126.84403,37.38867],[126.84372,37.38864],[126.84346,37.38861],[126.83693,37.39021],[126.835,37.39091],[126.83396,37.3907],[126.83325,37.39011],[126.83285,37.38978],[126.83267,37.38962],[126.83217,37.38936],[126.82826,37.38867],[126.82646,37.38936],[126.8253,37.38993],[126.82424,37.3896],[126.82226,37.38897],[126.82195,37.38925],[126.82173,37.38947],[126.82136,37.38991],[126.82075,37.39069],[126.82045,37.39109],[126.82041,37.39115],[126.82021,37.39142],[126.82014,37.39153],[126.82002,37.39172],[126.81791,37.39601],[126.81788,37.39618],[126.81797,37.39666],[126.81827,37.3975],[126.81847,37.39825],[126.81843,37.39852],[126.81829,37.39883],[126.81824,37.39893],[126.8182,37.39902],[126.81685,37.40131],[126.81665,37.4016],[126.81653,37.40176],[126.81624,37.40209],[126.81583,37.40255],[126.81559,37.40267],[126.81538,37.40277],[126.81222,37.40336],[126.8121,37.40338],[126.81199,37.40339],[126.81114,37.40348],[126.80948,37.40358],[126.80987,37.40506],[126.8037,37.40973],[126.8024,37.41071],[126.79838,37.40745],[126.79807,37.40718],[126.79768,37.40685],[126.79548,37.4049],[126.79537,37.40479],[126.79388,37.40406],[126.78931,37.40676],[126.78926,37.40829],[126.79021,37.40885],[126.79058,37.40911],[126.79506,37.41289],[126.79767,37.41522],[126.79807,37.41582],[126.79853,37.4164],[126.79854,37.41642],[126.8012,37.41887],[126.80184,37.41947],[126.80225,37.41984],[126.80305,37.42053],[126.80314,37.42069],[126.80359,37.42126],[126.80741,37.42135],[126.80744,37.42133],[126.80758,37.42118],[126.80792,37.42084],[126.80888,37.41989],[126.80901,37.4198],[126.80907,37.41976],[126.80915,37.4197],[126.80949,37.41949],[126.80973,37.41939],[126.81072,37.41899],[126.8132,37.41925],[126.81473,37.41967],[126.81647,37.42032],[126.81571,37.42222],[126.8154,37.4228],[126.81509,37.42331],[126.81509,37.42334],[126.8151,37.42348],[126.81555,37.42377],[126.81574,37.42385],[126.81715,37.4244],[126.81908,37.42441],[126.82102,37.42461],[126.82168,37.42435],[126.82239,37.42406],[126.82341,37.42366],[126.82654,37.4223],[126.82731,37.42155],[126.82784,37.42057],[126.82834,37.41955],[126.82941,37.41703],[126.83307,37.41233],[126.83558,37.41073],[126.83632,37.41047],[126.8399,37.4083],[126.8399,37.40795],[126.83992,37.40746],[126.84159,37.40621],[126.84403,37.40696],[126.84586,37.40705],[126.84816,37.40549],[126.85013,37.40392],[126.85024,37.40363]]]]}},{"type":"Feature","properties":{"code":"41390570","name":"목감동","parent":"41390"},"geometry":{"type":"MultiPolygon","coordinates":[[[[126.877,37.40205],[126.87707,37.4014],[126.87727,37.40014],[126.87751,37.39994],[126.87771,37.39978],[126.87774,37.39907],[126.87758,37.39713],[126.87609,37.39466],[126.87793,37.38729],[126.87908,37.38461],[126.88014,37.38219],[126.88073,37.38022],[126.88191,37.37622],[126.88107,37.37508],[126.87933,37.37352],[126.8778,37.37233],[126.87315,37.36851],[126.87155,37.36591],[126.87122,37.36567],[126.87007,37.36483],[126.86483,37.36152],[126.86362,37.3615],[126.862,37.36149],[126.86131,37.36148],[126.85996,37.36148],[126.85662,37.3611],[126.85449,37.36029],[126.85343,37.36044],[126.85209,37.361],[126.85028,37.36203],[126.85017,37.36286],[126.84977,37.36359],[126.84925,37.36417],[126.84825,37.36505],[126.84622,37.36402],[126.84335,37.36329],[126.84247,37.36325],[126.84166,37.36321],[126.84075,37.36369],[126.83959,37.36289],[126.8339,37.36193],[126.83352,37.36187],[126.83318,37.36182],[126.83163,37.36165],[126.83058,37.36218],[126.82914,37.36326],[126.82874,37.3635],[126.82763,37.3642],[126.82644,37.36413],[126.82615,37.36381],[126.82562,37.36323],[126.82372,37.36314],[126.82294,37.36451],[126.82274,37.36486],[126.82147,37.36581],[126.82001,37.36741],[126.81997,37.36855],[126.82067,37.37074],[126.82219,37.37139],[126.82366,37.37184],[126.82517,37.37253],[126.82578,37.37472],[126.82577,37.37548],[126.82534,37.37691],[126.82468,37.37752],[126.82417,37.37774],[126.82387,37.3777],[126.82377,37.37768],[126.82214,37.37879],[126.8221,37.37886],[126.82206,37.37898],[126.82223,37.38107],[126.82257,37.38241],[126.82377,37.38465],[126.82402,37.38468],[126.82478,37.38477],[126.8252,37.38475],[126.82666,37.38629],[126.82503,37.38729],[126.82226,37.38897],[126.82424,37.3896],[126.8253,37.38993],[126.82646,37.38936],[126.82826,37.38867],[126.83217,37.38936],[126.83267,37.38962],[126.83285,37.38978],[126.83325,37.39011],[126.83396,37.3907],[126.835,37.39091],[126.83693,37.39021],[126.84346,37.38861],[126.84372,37.38864],[126.84403,37.38867],[126.84834,37.38945],[126.84889,37.39028],[126.84866,37.39119],[126.84844,37.3943],[126.84844,37.39449],[126.84858,37.39759],[126.84896,37.39773],[126.84983,37.39804],[126.85015,37.39872],[126.85019,37.39998],[126.84974,37.4004],[126.84928,37.40079],[126.84874,37.40137],[126.84866,37.4015],[126.84864,37.40155],[126.84859,37.40162],[126.84865,37.4018],[126.85024,37.40363],[126.85374,37.40547],[126.85769,37.40224],[126.85932,37.40179],[126.86197,37.40151],[126.86574,37.40162],[126.8687,37.40204],[126.87028,37.40215],[126.87045,37.40215],[126.87061,37.40216],[126.8727,37.40195],[126.8741,37.40177],[126.87434,37.40171],[126.87445,37.40169],[126.87499,37.40157],[126.877,37.40205]]]]}},{"type":"Feature","properties":{"code":"41390621","name":"과림동","parent":"41390"},"geometry":{"type":"MultiPolygon","coordinates":[[[[126.83883,37.4557],[126.83811,37.45294],[126.83847,37.45073],[126.83836,37.44622],[126.83776,37.44301],[126.83771,37.44243],[126.83781,37.43693],[126.8385,37.43665],[126.83877,37.43682],[126.83918,37.43678],[126.83975,37.4366],[126.84089,37.43556],[126.84105,37.43538],[126.84174,37.43443],[126.84186,37.4338],[126.84166,37.43359],[126.8415,37.43356],[126.84116,37.43349],[126.84092,37.4334],[126.84079,37.43327],[126.84062,37.4331],[126.84027,37.43239],[126.84004,37.43171],[126.84061,37.43073],[126.84191,37.42785],[126.84193,37.42638],[126.84312,37.42539],[126.84418,37.42451],[126.84489,37.42383],[126.84551,37.42291],[126.84552,37.42263],[126.84546,37.4225],[126.8453,37.42242],[126.84527,37.42241],[126.84504,37.4222],[126.8446,37.42097],[126.84553,37.41602],[126.8458,37.41478],[126.84632,37.41247],[126.84655,37.41211],[126.84683,37.41167],[126.84715,37.41145],[126.84746,37.41131],[126.85215,37.40878],[126.85284,37.40829],[126.8538,37.40574],[126.85374,37.40547],[126.85024,37.40363],[126.85013,37.40392],[126.84816,37.40549],[126.84586,37.40705],[126.84403,37.40696],[126.84159,37.40621],[126.83992,37.40746],[126.8399,37.40795],[126.8399,37.4083],[126.83632,37.41047],[126.83558,37.41073],[126.83307,37.41233],[126.82941,37.41703],[126.82834,37.41955],[126.82784,37.42057],[126.82731,37.42155],[126.82654,37.4223],[126.82341,37.42366],[126.82239,37.42406],[126.82168,37.42435],[126.82102,37.42461],[126.81908,37.42441],[126.81715,37.4244],[126.81748,37.42471],[126.81844,37.425],[126.81865,37.42505],[126.81964,37.42526],[126.82039,37.4254],[126.82059,37.4254],[126.82065,37.4254],[126.82072,37.42541],[126.82091,37.42543],[126.82115,37.42548],[126.82131,37.42551],[126.82143,37.42554],[126.82152,37.42557],[126.82175,37.42564],[126.82339,37.42647],[126.8254,37.42868],[126.82599,37.4324],[126.82623,37.4344],[126.82604,37.43566],[126.82595,37.43593],[126.82591,37.43601],[126.82588,37.43606],[126.82313,37.44046],[126.82205,37.44184],[126.82254,37.44195],[126.82306,37.44223],[126.824,37.44234],[126.82305,37.44338],[126.82314,37.44444],[126.82475,37.44578],[126.82572,37.44707],[126.82485,37.44877],[126.82423,37.44957],[126.82505,37.45108],[126.82364,37.45198],[126.82419,37.45386],[126.82352,37.4544],[126.82329,37.4559],[126.82378,37.45649],[126.82319,37.45835],[126.82379,37.45924],[126.82542,37.45898],[126.82597,37.4594],[126.82808,37.45962],[126.82854,37.45956],[126.82923,37.4587],[126.82928,37.45778],[126.83225,37.45903],[126.83314,37.46035],[126.83519,37.45883],[126.83628,37.45812],[126.83761,37.4584],[126.83835,37.45733],[126.83701,37.45601],[126.83883,37.4557]]]]}},{"type":"Feature","properties":{"code":"41390650","name":"거북섬동","parent":"41390"},"geometry":{"type":"MultiPolygon","coordinates":[[[[126.70178,37.32851],[126.71202,37.3223],[126.72403,37.31469],[126.7228,37.31341],[126.72072,37.31123],[126.71716,37.30752],[126.70611,37.31044],[126.70267,37.31234],[126.6924,37.319],[126.68483,37.31988],[126.68136,37.32008],[126.68047,37.31948],[126.67716,37.32009],[126.67732,37.32152],[126.67604,37.3218],[126.67531,37.32379],[126.67106,37.32989],[126.69149,37.33593],[126.69185,37.3347],[126.70178,37.32851]]]]}},{"type":"Feature","properties":{"code":"41390593","name":"정왕3동","parent":"41390"},"geometry":{"type":"MultiPolygon","coordinates":[[[[126.72903,37.35645],[126.7219,37.34922],[126.72056,37.34786],[126.71236,37.3394],[126.70572,37.33253],[126.70318,37.32994],[126.70178,37.32851],[126.69185,37.3347],[126.69149,37.33593],[126.69181,37.33742],[126.69143,37.33858],[126.69115,37.33921],[126.68986,37.3399],[126.68705,37.34055],[126.68559,37.34088],[126.68722,37.34559],[126.68842,37.34879],[126.68845,37.34886],[126.69103,37.34853],[126.69291,37.34829],[126.697,37.34933],[126.70148,37.35069],[126.70074,37.35161],[126.70114,37.35187],[126.70247,37.35093],[126.7032,37.35127],[126.70637,37.35299],[126.70695,37.35432],[126.70825,37.35627],[126.71034,37.35795],[126.71178,37.35884],[126.71426,37.35714],[126.7214,37.3612],[126.72177,37.36097],[126.72903,37.35645]]]]}},{"type":"Feature","properties":{"code":"41390594","name":"정왕4동","parent":"41390"},"geometry":{"type":"MultiPolygon","coordinates":[[[[126.72177,37.36097],[126.7342,37.36807],[126.73813,37.36679],[126.74035,37.36606],[126.73848,37.36363],[126.73737,37.3622],[126.73616,37.36008],[126.73414,37.36121],[126.73118,37.35814],[126.72903,37.35645],[126.72177,37.36097]]]]}},{"type":"Feature","properties":{"code":"41390589","name":"정왕본동","parent":"41390"},"geometry":{"type":"MultiPolygon","coordinates":[[[[126.76611,37.36103],[126.76571,37.3602],[126.76568,37.36015],[126.76563,37.36003],[126.76542,37.35935],[126.7653,37.35698],[126.76526,37.35615],[126.76527,37.35603],[126.76531,37.3557],[126.76564,37.35299],[126.76567,37.35288],[126.76569,37.35281],[126.76592,37.35237],[126.76652,37.35198],[126.76713,37.35159],[126.76803,37.35101],[126.76808,37.35019],[126.76798,37.34989],[126.7678,37.34952],[126.76771,37.34935],[126.76756,37.34917],[126.76719,37.34878],[126.76682,37.34843],[126.76802,37.34271],[126.76813,37.34253],[126.76817,37.34249],[126.76917,37.3414],[126.77059,37.34042],[126.76822,37.33942],[126.76394,37.34162],[126.76371,37.34161],[126.76162,37.34147],[126.7615,37.34147],[126.7602,37.34105],[126.7601,37.341],[126.75983,37.34085],[126.75979,37.34065],[126.75975,37.34039],[126.75968,37.34018],[126.75964,37.34011],[126.75954,37.33995],[126.75812,37.33849],[126.75733,37.33897],[126.75153,37.34256],[126.74118,37.34895],[126.73936,37.3501],[126.74074,37.35153],[126.74063,37.35157],[126.73967,37.35188],[126.73895,37.35227],[126.7389,37.3523],[126.73865,37.35247],[126.73846,37.3526],[126.7374,37.35346],[126.73722,37.35368],[126.73701,37.35397],[126.73645,37.35555],[126.73611,37.35965],[126.73614,37.3599],[126.73615,37.36003],[126.73616,37.36008],[126.73737,37.3622],[126.73848,37.36363],[126.74035,37.36606],[126.73813,37.36679],[126.7342,37.36807],[126.73415,37.36832],[126.73613,37.36948],[126.7366,37.36988],[126.73891,37.37328],[126.73927,37.37379],[126.73935,37.37444],[126.73958,37.37626],[126.74215,37.37594],[126.74921,37.37541],[126.75657,37.37489],[126.75905,37.37422],[126.76005,37.37394],[126.76157,37.37303],[126.76353,37.37036],[126.76363,37.3701],[126.76401,37.3692],[126.7641,37.36894],[126.76425,37.3685],[126.76497,37.36632],[126.76357,37.36594],[126.76319,37.36584],[126.7629,37.36588],[126.76268,37.36583],[126.76283,37.3637],[126.76504,37.36101],[126.76611,37.36103]]]]}},{"type":"Feature","properties":{"code":"41390591","name":"정왕1동","parent":"41390"},"geometry":{"type":"MultiPolygon","coordinates":[[[[126.73936,37.3501],[126.74118,37.34895],[126.75153,37.34256],[126.75733,37.33897],[126.75812,37.33849],[126.75803,37.33839],[126.75777,37.33813],[126.75765,37.33805],[126.75737,37.33787],[126.75566,37.33694],[126.75437,37.33623],[126.75241,37.33516],[126.75023,37.33396],[126.75012,37.33389],[126.74989,37.33373],[126.74979,37.33364],[126.74973,37.33358],[126.74962,37.33345],[126.74959,37.3334],[126.74947,37.3332],[126.74945,37.33314],[126.7493,37.33275],[126.74809,37.32785],[126.74767,37.3256],[126.74765,37.32478],[126.74656,37.32473],[126.74515,37.32558],[126.74433,37.3261],[126.74358,37.32657],[126.74338,37.32669],[126.74175,37.32769],[126.74147,37.32787],[126.74032,37.32858],[126.73976,37.32892],[126.73887,37.32947],[126.73852,37.32968],[126.73436,37.32539],[126.73226,37.32322],[126.73121,37.32212],[126.72974,37.3206],[126.72403,37.31469],[126.71202,37.3223],[126.71258,37.3229],[126.71284,37.32321],[126.71654,37.32716],[126.73041,37.34147],[126.73639,37.34766],[126.73753,37.34885],[126.73833,37.34967],[126.73896,37.35033],[126.73936,37.3501]]]]}},{"type":"Feature","properties":{"code":"41390640","name":"능곡동","parent":"41390"},"geometry":{"type":"MultiPolygon","coordinates":[[[[126.82219,37.37139],[126.82067,37.37074],[126.81997,37.36855],[126.82001,37.36741],[126.82147,37.36581],[126.82274,37.36486],[126.82294,37.36451],[126.82372,37.36314],[126.81856,37.35971],[126.81665,37.35765],[126.81465,37.35686],[126.81087,37.3557],[126.81022,37.35562],[126.80894,37.35514],[126.80578,37.35349],[126.80547,37.35342],[126.80312,37.35311],[126.80269,37.35309],[126.8023,37.35308],[126.80216,37.3531],[126.79625,37.35474],[126.79528,37.35514],[126.79507,37.35664],[126.79512,37.35683],[126.79537,37.35699],[126.79545,37.35704],[126.79574,37.3572],[126.79613,37.35747],[126.79689,37.35863],[126.79707,37.35987],[126.79719,37.36068],[126.7971,37.36465],[126.79717,37.36572],[126.79718,37.36581],[126.79718,37.36584],[126.79724,37.36677],[126.79729,37.36697],[126.79735,37.36715],[126.79739,37.36719],[126.79743,37.36724],[126.79842,37.36816],[126.80385,37.369],[126.80466,37.369],[126.80643,37.36871],[126.80831,37.36839],[126.80842,37.36872],[126.80874,37.36968],[126.8088,37.36997],[126.80889,37.37052],[126.80891,37.3709],[126.80891,37.37173],[126.80891,37.37308],[126.8089,37.37444],[126.80885,37.37536],[126.80877,37.37564],[126.80876,37.37567],[126.80874,37.37571],[126.80958,37.37725],[126.81437,37.37896],[126.81438,37.3777],[126.81557,37.37768],[126.81579,37.37766],[126.81654,37.37739],[126.8212,37.37273],[126.82219,37.37139]]]]}},{"type":"Feature","properties":{"code":"41390581","name":"군자동","parent":"41390"},"geometry":{"type":"MultiPolygon","coordinates":[[[[126.79133,37.36779],[126.79162,37.36722],[126.79447,37.36636],[126.79717,37.36572],[126.7971,37.36465],[126.79719,37.36068],[126.79707,37.35987],[126.79689,37.35863],[126.79613,37.35747],[126.79574,37.3572],[126.79545,37.35704],[126.79537,37.35699],[126.79512,37.35683],[126.79507,37.35664],[126.79528,37.35514],[126.79341,37.35346],[126.79253,37.35303],[126.79174,37.35263],[126.79158,37.35248],[126.7908,37.35037],[126.79072,37.34983],[126.79053,37.34868],[126.79051,37.34798],[126.79087,37.34729],[126.79209,37.34314],[126.79183,37.34298],[126.7911,37.34247],[126.79102,37.3424],[126.79091,37.34229],[126.79079,37.34219],[126.79061,37.34201],[126.79034,37.34171],[126.79024,37.3416],[126.78941,37.34068],[126.78937,37.3406],[126.7893,37.34045],[126.78929,37.34042],[126.78923,37.34024],[126.78914,37.34008],[126.78898,37.33981],[126.78892,37.33975],[126.78818,37.33913],[126.78794,37.33896],[126.78739,37.33857],[126.78405,37.33747],[126.78405,37.33855],[126.7828,37.34006],[126.78153,37.34026],[126.78086,37.34036],[126.7792,37.34066],[126.77907,37.34071],[126.77887,37.3408],[126.77638,37.34201],[126.77479,37.34103],[126.77391,37.34075],[126.77059,37.34042],[126.76917,37.3414],[126.76817,37.34249],[126.76813,37.34253],[126.76802,37.34271],[126.76682,37.34843],[126.76719,37.34878],[126.76756,37.34917],[126.76771,37.34935],[126.7678,37.34952],[126.76798,37.34989],[126.76808,37.35019],[126.76803,37.35101],[126.76713,37.35159],[126.76652,37.35198],[126.76592,37.35237],[126.76569,37.35281],[126.76567,37.35288],[126.76564,37.35299],[126.76531,37.3557],[126.76527,37.35603],[126.76526,37.35615],[126.7653,37.35698],[126.76542,37.35935],[126.76563,37.36003],[126.76568,37.36015],[126.76571,37.3602],[126.76611,37.36103],[126.76651,37.36101],[126.76703,37.3611],[126.76744,37.36139],[126.76743,37.36185],[126.76691,37.36321],[126.76689,37.36375],[126.76711,37.36413],[126.77089,37.36631],[126.77588,37.36856],[126.77666,37.36847],[126.77792,37.36844],[126.77958,37.36878],[126.78046,37.36905],[126.78121,37.36937],[126.78238,37.37022],[126.78248,37.37038],[126.78246,37.37054],[126.78236,37.37081],[126.78234,37.37122],[126.78238,37.37155],[126.78244,37.37163],[126.78273,37.37178],[126.78381,37.37216],[126.78415,37.37179],[126.78605,37.36944],[126.78675,37.36903],[126.7879,37.369],[126.78843,37.36903],[126.78948,37.3691],[126.79007,37.36914],[126.79062,37.36909],[126.79081,37.36895],[126.79104,37.36879],[126.79133,37.36779]]]]}},{"type":"Feature","properties":{"code":"41390582","name":"월곶동","parent":"41390"},"geometry":{"type":"MultiPolygon","coordinates":[[[[126.77339,37.3938],[126.77342,37.38892],[126.77296,37.38515],[126.77292,37.38469],[126.77285,37.3839],[126.77282,37.38293],[126.77281,37.38256],[126.77246,37.38052],[126.77258,37.37966],[126.77252,37.3782],[126.77525,37.37764],[126.77966,37.37472],[126.78211,37.37314],[126.78381,37.37216],[126.78273,37.37178],[126.78244,37.37163],[126.78238,37.37155],[126.78234,37.37122],[126.78236,37.37081],[126.78246,37.37054],[126.78248,37.37038],[126.78238,37.37022],[126.78121,37.36937],[126.78046,37.36905],[126.77958,37.36878],[126.77792,37.36844],[126.77666,37.36847],[126.77588,37.36856],[126.77089,37.36631],[126.76711,37.36413],[126.76689,37.36375],[126.76691,37.36321],[126.76743,37.36185],[126.76744,37.36139],[126.76703,37.3611],[126.76651,37.36101],[126.76611,37.36103],[126.76504,37.36101],[126.76283,37.3637],[126.76268,37.36583],[126.7629,37.36588],[126.76319,37.36584],[126.76357,37.36594],[126.76497,37.36632],[126.76425,37.3685],[126.7641,37.36894],[126.76401,37.3692],[126.76363,37.3701],[126.76353,37.37036],[126.76157,37.37303],[126.76005,37.37394],[126.75905,37.37422],[126.75657,37.37489],[126.74921,37.37541],[126.74215,37.37594],[126.73958,37.37626],[126.73961,37.37701],[126.73989,37.37877],[126.74059,37.38028],[126.74165,37.38138],[126.74259,37.38264],[126.74309,37.38391],[126.7457,37.38752],[126.74498,37.38854],[126.74205,37.38455],[126.73983,37.38547],[126.74055,37.3869],[126.73977,37.38723],[126.73745,37.38822],[126.73611,37.3874],[126.73549,37.38702],[126.73502,37.3871],[126.73419,37.38755],[126.73372,37.38825],[126.73351,37.38903],[126.73454,37.39204],[126.73565,37.39323],[126.7367,37.39436],[126.73654,37.39543],[126.73836,37.39652],[126.73884,37.39681],[126.73902,37.39692],[126.74066,37.39843],[126.74106,37.39881],[126.74112,37.39887],[126.74118,37.39892],[126.74162,37.39929],[126.74179,37.39943],[126.74204,37.39958],[126.74225,37.39972],[126.74242,37.39982],[126.74294,37.40004],[126.74308,37.4001],[126.74384,37.40037],[126.74857,37.39853],[126.74908,37.39848],[126.7508,37.39843],[126.75145,37.39862],[126.75178,37.39885],[126.75227,37.39919],[126.75244,37.39927],[126.75306,37.39955],[126.75374,37.39967],[126.75446,37.39971],[126.76173,37.39892],[126.76181,37.3989],[126.76255,37.39868],[126.76495,37.39753],[126.76522,37.3973],[126.76531,37.39723],[126.76532,37.39687],[126.7651,37.39556],[126.76522,37.39504],[126.7658,37.39469],[126.76599,37.39466],[126.76628,37.39461],[126.76984,37.39478],[126.77183,37.39501],[126.77219,37.39515],[126.77239,37.39519],[126.77256,37.39522],[126.77284,37.39521],[126.77313,37.39517],[126.77339,37.39497],[126.77339,37.3938]]]]}},{"type":"Feature","properties":{"code":"41390630","name":"연성동","parent":"41390"},"geometry":{"type":"MultiPolygon","coordinates":[[[[126.82226,37.38897],[126.82503,37.38729],[126.82666,37.38629],[126.8252,37.38475],[126.82478,37.38477],[126.82402,37.38468],[126.82377,37.38465],[126.82257,37.38241],[126.82223,37.38107],[126.82206,37.37898],[126.8221,37.37886],[126.82214,37.37879],[126.82377,37.37768],[126.82387,37.3777],[126.82417,37.37774],[126.82468,37.37752],[126.82534,37.37691],[126.82577,37.37548],[126.82578,37.37472],[126.82517,37.37253],[126.82366,37.37184],[126.82219,37.37139],[126.8212,37.37273],[126.81654,37.37739],[126.81579,37.37766],[126.81557,37.37768],[126.81438,37.3777],[126.81437,37.37896],[126.80958,37.37725],[126.80874,37.37571],[126.80876,37.37567],[126.80877,37.37564],[126.80885,37.37536],[126.8089,37.37444],[126.80891,37.37308],[126.80891,37.37173],[126.80891,37.3709],[126.80889,37.37052],[126.8088,37.36997],[126.80874,37.36968],[126.80842,37.36872],[126.80831,37.36839],[126.80643,37.36871],[126.80466,37.369],[126.80385,37.369],[126.79842,37.36816],[126.79743,37.36724],[126.79739,37.36719],[126.79735,37.36715],[126.79729,37.36697],[126.79724,37.36677],[126.79718,37.36584],[126.79718,37.36581],[126.79717,37.36572],[126.79447,37.36636],[126.79162,37.36722],[126.79133,37.36779],[126.79326,37.37157],[126.79349,37.37256],[126.79342,37.37348],[126.79353,37.37458],[126.79325,37.3757],[126.79332,37.37654],[126.79313,37.37734],[126.79272,37.37889],[126.7927,37.37899],[126.79221,37.3819],[126.79168,37.38304],[126.79128,37.38386],[126.78914,37.38797],[126.78912,37.3883],[126.79051,37.39207],[126.79159,37.39288],[126.79144,37.39311],[126.79062,37.39435],[126.79054,37.39445],[126.79034,37.39469],[126.78957,37.39543],[126.78931,37.39555],[126.78992,37.39621],[126.7897,37.39886],[126.78889,37.40105],[126.78744,37.40206],[126.78677,37.40243],[126.78619,37.40274],[126.78618,37.4029],[126.78618,37.40299],[126.78618,37.40304],[126.78636,37.40381],[126.78646,37.40419],[126.78709,37.40655],[126.78731,37.40705],[126.78931,37.40676],[126.79388,37.40406],[126.79537,37.40479],[126.79548,37.4049],[126.79768,37.40685],[126.79807,37.40718],[126.79838,37.40745],[126.8024,37.41071],[126.8037,37.40973],[126.80987,37.40506],[126.80948,37.40358],[126.81114,37.40348],[126.81199,37.40339],[126.8121,37.40338],[126.81222,37.40336],[126.81538,37.40277],[126.81559,37.40267],[126.81583,37.40255],[126.81624,37.40209],[126.81653,37.40176],[126.81665,37.4016],[126.81685,37.40131],[126.8182,37.39902],[126.81824,37.39893],[126.81829,37.39883],[126.81843,37.39852],[126.81847,37.39825],[126.81827,37.3975],[126.81797,37.39666],[126.81788,37.39618],[126.81791,37.39601],[126.82002,37.39172],[126.82014,37.39153],[126.82021,37.39142],[126.82041,37.39115],[126.82045,37.39109],[126.82075,37.39069],[126.82136,37.38991],[126.82173,37.38947],[126.82195,37.38925],[126.82226,37.38897]]]]}},{"type":"Feature","properties":{"code":"41390631","name":"장곡동","parent":"41390"},"geometry":{"type":"MultiPolygon","coordinates":[[[[126.79133,37.36779],[126.79104,37.36879],[126.79081,37.36895],[126.79062,37.36909],[126.79007,37.36914],[126.78948,37.3691],[126.78843,37.36903],[126.7879,37.369],[126.78675,37.36903],[126.78605,37.36944],[126.78415,37.37179],[126.78381,37.37216],[126.78211,37.37314],[126.77966,37.37472],[126.77525,37.37764],[126.77252,37.3782],[126.77258,37.37966],[126.77246,37.38052],[126.77281,37.38256],[126.77282,37.38293],[126.77285,37.3839],[126.77292,37.38469],[126.77296,37.38515],[126.77342,37.38892],[126.77339,37.3938],[126.77451,37.39314],[126.77697,37.39183],[126.77753,37.3919],[126.77882,37.39274],[126.77933,37.39308],[126.78134,37.39361],[126.7828,37.39245],[126.78465,37.39169],[126.78507,37.39206],[126.7851,37.39211],[126.78554,37.39268],[126.78578,37.39292],[126.78646,37.39362],[126.78724,37.39417],[126.78765,37.39446],[126.7879,37.39464],[126.78832,37.39491],[126.78931,37.39555],[126.78957,37.39543],[126.79034,37.39469],[126.79054,37.39445],[126.79062,37.39435],[126.79144,37.39311],[126.79159,37.39288],[126.79051,37.39207],[126.78912,37.3883],[126.78914,37.38797],[126.79128,37.38386],[126.79168,37.38304],[126.79221,37.3819],[126.7927,37.37899],[126.79272,37.37889],[126.79313,37.37734],[126.79332,37.37654],[126.79325,37.3757],[126.79353,37.37458],[126.79342,37.37348],[126.79349,37.37256],[126.79326,37.37157],[126.79133,37.36779]]]]}},{"type":"Feature","properties":{"code":"41390597","name":"배곧2동","parent":"41390"},"geometry":{"type":"MultiPolygon","coordinates":[[[[126.71648,37.3719],[126.72323,37.36797],[126.72703,37.37222],[126.7342,37.36807],[126.72177,37.36097],[126.7214,37.3612],[126.71426,37.35714],[126.71178,37.35884],[126.71034,37.35795],[126.70825,37.35627],[126.70695,37.35432],[126.70637,37.35299],[126.7032,37.35127],[126.70078,37.35329],[126.70019,37.35395],[126.70045,37.35466],[126.71202,37.36712],[126.71419,37.36949],[126.71648,37.3719]]]]}},{"type":"Feature","properties":{"code":"41390596","name":"배곧1동","parent":"41390"},"geometry":{"type":"MultiPolygon","coordinates":[[[[126.7342,37.36807],[126.72703,37.37222],[126.72323,37.36797],[126.71648,37.3719],[126.71829,37.37382],[126.72321,37.37879],[126.72984,37.38557],[126.7306,37.3862],[126.73161,37.38651],[126.73282,37.3864],[126.74259,37.38264],[126.74165,37.38138],[126.74059,37.38028],[126.73989,37.37877],[126.73961,37.37701],[126.73958,37.37626],[126.73935,37.37444],[126.73927,37.37379],[126.73891,37.37328],[126.7366,37.36988],[126.73613,37.36948],[126.73415,37.36832],[126.7342,37.36807]]]]}},{"type":"Feature","properties":{"code":"41390592","name":"정왕2동","parent":"41390"},"geometry":{"type":"MultiPolygon","coordinates":[[[[126.71202,37.3223],[126.70178,37.32851],[126.70318,37.32994],[126.70572,37.33253],[126.71236,37.3394],[126.72056,37.34786],[126.7219,37.34922],[126.72903,37.35645],[126.73118,37.35814],[126.73414,37.36121],[126.73616,37.36008],[126.73615,37.36003],[126.73614,37.3599],[126.73611,37.35965],[126.73645,37.35555],[126.73701,37.35397],[126.73722,37.35368],[126.7374,37.35346],[126.73846,37.3526],[126.73865,37.35247],[126.7389,37.3523],[126.73895,37.35227],[126.73967,37.35188],[126.74063,37.35157],[126.74074,37.35153],[126.73936,37.3501],[126.73896,37.35033],[126.73833,37.34967],[126.73753,37.34885],[126.73639,37.34766],[126.73041,37.34147],[126.71654,37.32716],[126.71284,37.32321],[126.71258,37.3229],[126.71202,37.3223]]]]}}]}