{"type":"FeatureCollection","features":[{"type":"Feature","properties":{"code":"11215710","name":"화양동","parent":"11215"},"geometry":{"type":"MultiPolygon","coordinates":[[[[127.07406,37.54734],[127.07702,37.54602],[127.07728,37.54592],[127.07733,37.5459],[127.07832,37.54567],[127.07879,37.54557],[127.07948,37.54543],[127.07992,37.54538],[127.08,37.54538],[127.0805,37.54535],[127.08085,37.54533],[127.08161,37.5453],[127.08238,37.54497],[127.08192,37.54409],[127.08177,37.54381],[127.08151,37.54333],[127.08137,37.54312],[127.08135,37.54308],[127.0813,37.5429],[127.08128,37.54281],[127.08128,37.54267],[127.08128,37.54216],[127.08131,37.54212],[127.0814,37.54202],[127.08247,37.5415],[127.08293,37.54137],[127.08229,37.54004],[127.07995,37.539],[127.07894,37.53893],[127.07848,37.53902],[127.07678,37.53921],[127.07526,37.53933],[127.07514,37.53871],[127.07327,37.53907],[127.07055,37.53983],[127.06394,37.54215],[127.0675,37.54831],[127.0717,37.54788],[127.07406,37.54734]]]]}},{"type":"Feature","properties":{"code":"11215730","name":"군자동","parent":"11215"},"geometry":{"type":"MultiPolygon","coordinates":[[[[127.07793,37.55778],[127.07866,37.55739],[127.07914,37.55704],[127.07915,37.557],[127.0792,37.55663],[127.07616,37.5506],[127.07614,37.55056],[127.07612,37.55054],[127.07519,37.54889],[127.07425,37.5476],[127.07406,37.54734],[127.0717,37.54788],[127.0675,37.54831],[127.0737,37.55944],[127.07793,37.55778]]]]}},{"type":"Feature","properties":{"code":"11215740","name":"중곡1동","parent":"11215"},"geometry":{"type":"MultiPolygon","coordinates":[[[[127.08336,37.56421],[127.08014,37.55835],[127.07986,37.5578],[127.07826,37.55776],[127.07793,37.55778],[127.0737,37.55944],[127.0721,37.56005],[127.07585,37.56664],[127.08336,37.56421]]]]}},{"type":"Feature","properties":{"code":"11215750","name":"중곡2동","parent":"11215"},"geometry":{"type":"MultiPolygon","coordinates":[[[[127.08692,37.56351],[127.08867,37.55329],[127.08864,37.55332],[127.08829,37.55359],[127.08741,37.55406],[127.08521,37.55494],[127.0831,37.55577],[127.08138,37.55644],[127.08009,37.55693],[127.07963,37.55723],[127.07986,37.5578],[127.08014,37.55835],[127.08336,37.56421],[127.08539,37.56349],[127.08692,37.56351]]]]}},{"type":"Feature","properties":{"code":"11215760","name":"중곡3동","parent":"11215"},"geometry":{"type":"MultiPolygon","coordinates":[[[[127.08617,37.57082],[127.08611,37.57008],[127.08608,37.56927],[127.08607,37.56881],[127.08607,37.56866],[127.08606,37.56857],[127.08615,37.568],[127.08674,37.56452],[127.08688,37.56371],[127.08692,37.56351],[127.08539,37.56349],[127.08336,37.56421],[127.07585,37.56664],[127.07686,37.56844],[127.07778,37.57008],[127.0782,37.57094],[127.07858,37.57186],[127.08098,37.57161],[127.08617,37.57082]]]]}},{"type":"Feature","properties":{"code":"11215770","name":"중곡4동","parent":"11215"},"geometry":{"type":"MultiPolygon","coordinates":[[[[127.10115,37.56002],[127.1009,37.55958],[127.10034,37.55901],[127.09946,37.55823],[127.09767,37.55743],[127.09614,37.55719],[127.09281,37.55449],[127.09091,37.5528],[127.09029,37.55259],[127.08963,37.5524],[127.08867,37.55329],[127.08692,37.56351],[127.08688,37.56371],[127.08674,37.56452],[127.08615,37.568],[127.08606,37.56857],[127.08607,37.56866],[127.08607,37.56881],[127.08608,37.56927],[127.08611,37.57008],[127.08617,37.57082],[127.08672,37.57084],[127.08683,37.57084],[127.08688,37.57084],[127.08696,37.57084],[127.087,37.57084],[127.08704,37.57084],[127.08713,37.57084],[127.08718,37.57084],[127.08723,37.57084],[127.08755,37.57084],[127.08759,37.57084],[127.0879,37.57083],[127.08801,37.57083],[127.08805,37.57083],[127.08816,37.57082],[127.0883,37.57039],[127.08833,37.5703],[127.0884,37.57008],[127.08871,37.57013],[127.08876,37.57014],[127.08892,37.57017],[127.08898,37.57018],[127.08909,37.57018],[127.08919,37.57016],[127.08931,37.57012],[127.08958,37.56997],[127.08977,37.56988],[127.08986,37.5698],[127.0899,37.56976],[127.09,37.5697],[127.0901,37.56968],[127.09023,37.56965],[127.09035,37.56962],[127.09046,37.56961],[127.09072,37.56958],[127.09077,37.56958],[127.09117,37.56956],[127.09121,37.56956],[127.09146,37.56959],[127.0918,37.56965],[127.09195,37.56971],[127.09208,37.56976],[127.09223,37.56983],[127.09231,37.56987],[127.0924,37.56996],[127.09249,37.5701],[127.09253,37.57025],[127.09263,37.57041],[127.09269,37.5704],[127.09278,37.57038],[127.09292,37.57036],[127.09309,37.57033],[127.09323,37.57032],[127.09331,37.57031],[127.09345,37.57033],[127.09365,37.57039],[127.0938,37.57041],[127.09393,37.57042],[127.09398,37.57043],[127.09409,37.57045],[127.09419,37.57047],[127.09428,37.5705],[127.09432,37.57052],[127.09443,37.57055],[127.09457,37.5706],[127.09477,37.57073],[127.09496,37.57082],[127.0951,37.57088],[127.09515,37.5709],[127.09531,37.57097],[127.09544,37.57103],[127.09551,37.57105],[127.09565,37.5711],[127.09575,37.5711],[127.10093,37.57356],[127.10164,37.57256],[127.10293,37.57237],[127.10297,37.57237],[127.10308,37.57233],[127.10316,37.57229],[127.10326,37.57223],[127.10369,37.57194],[127.10383,37.57183],[127.10397,37.57173],[127.104,37.57171],[127.10401,37.57168],[127.10419,37.5711],[127.10419,37.57105],[127.10418,37.571],[127.10416,37.57092],[127.10407,37.5708],[127.10398,37.57069],[127.10395,37.57066],[127.1039,37.57062],[127.10383,37.57053],[127.1038,37.57048],[127.10375,37.57042],[127.1035,37.57003],[127.10343,37.56989],[127.10338,37.56979],[127.10337,37.56975],[127.10334,37.56965],[127.10109,37.56091],[127.10108,37.56082],[127.10108,37.56076],[127.10115,37.56002]]]]}},{"type":"Feature","properties":{"code":"11215780","name":"능동","parent":"11215"},"geometry":{"type":"MultiPolygon","coordinates":[[[[127.08867,37.55329],[127.08963,37.5524],[127.08955,37.55179],[127.086,37.54945],[127.08548,37.5488],[127.08542,37.54872],[127.08538,37.54855],[127.08569,37.54614],[127.08506,37.54511],[127.08161,37.5453],[127.08085,37.54533],[127.0805,37.54535],[127.08,37.54538],[127.07992,37.54538],[127.07948,37.54543],[127.07879,37.54557],[127.07832,37.54567],[127.07733,37.5459],[127.07728,37.54592],[127.07702,37.54602],[127.07406,37.54734],[127.07425,37.5476],[127.07519,37.54889],[127.07612,37.55054],[127.07614,37.55056],[127.07616,37.5506],[127.0792,37.55663],[127.07915,37.557],[127.07914,37.55704],[127.07866,37.55739],[127.07793,37.55778],[127.07826,37.55776],[127.07986,37.5578],[127.07963,37.55723],[127.08009,37.55693],[127.08138,37.55644],[127.0831,37.55577],[127.08521,37.55494],[127.08741,37.55406],[127.08829,37.55359],[127.08864,37.55332],[127.08867,37.55329]]]]}},{"type":"Feature","properties":{"code":"11215850","name":"구의1동","parent":"11215"},"geometry":{"type":"MultiPolygon","coordinates":[[[[127.08506,37.54511],[127.08531,37.54509],[127.09065,37.54469],[127.08905,37.5379],[127.08355,37.53663],[127.0832,37.54007],[127.08293,37.54137],[127.08247,37.5415],[127.0814,37.54202],[127.08131,37.54212],[127.08128,37.54216],[127.08128,37.54267],[127.08128,37.54281],[127.0813,37.5429],[127.08135,37.54308],[127.08137,37.54312],[127.08151,37.54333],[127.08177,37.54381],[127.08192,37.54409],[127.08238,37.54497],[127.08161,37.5453],[127.08506,37.54511]]]]}},{"type":"Feature","properties":{"code":"11215860","name":"구의2동","parent":"11215"},"geometry":{"type":"MultiPolygon","coordinates":[[[[127.10425,37.55988],[127.10339,37.55724],[127.10203,37.5555],[127.10008,37.553],[127.09957,37.55263],[127.09869,37.55199],[127.09824,37.55029],[127.09825,37.55021],[127.09865,37.54902],[127.09802,37.54623],[127.09778,37.54551],[127.09758,37.5456],[127.09746,37.54566],[127.09696,37.5459],[127.09675,37.54585],[127.09395,37.54424],[127.09318,37.54369],[127.09247,37.54412],[127.09065,37.54469],[127.08531,37.54509],[127.08506,37.54511],[127.08569,37.54614],[127.08538,37.54855],[127.08542,37.54872],[127.08548,37.5488],[127.086,37.54945],[127.08955,37.55179],[127.08963,37.5524],[127.09029,37.55259],[127.09091,37.5528],[127.09281,37.55449],[127.09614,37.55719],[127.09767,37.55743],[127.09946,37.55823],[127.10034,37.55901],[127.1009,37.55958],[127.10115,37.56002],[127.10425,37.55988]]]]}},{"type":"Feature","properties":{"code":"11215870","name":"구의3동","parent":"11215"},"geometry":{"type":"MultiPolygon","coordinates":[[[[127.09318,37.54369],[127.09508,37.54187],[127.09697,37.54023],[127.09705,37.54017],[127.09713,37.54011],[127.09775,37.53966],[127.10061,37.53709],[127.1032,37.53467],[127.09896,37.52795],[127.09812,37.52756],[127.09225,37.52679],[127.09182,37.53144],[127.09167,37.53298],[127.09165,37.53326],[127.09088,37.53366],[127.09013,37.5334],[127.08944,37.5357],[127.08937,37.53597],[127.08926,37.53638],[127.08942,37.53745],[127.08905,37.5379],[127.09065,37.54469],[127.09247,37.54412],[127.09318,37.54369]]]]}},{"type":"Feature","properties":{"code":"11215810","name":"광장동","parent":"11215"},"geometry":{"type":"MultiPolygon","coordinates":[[[[127.11377,37.55889],[127.1139,37.5586],[127.11389,37.55666],[127.11389,37.55512],[127.11389,37.55333],[127.11336,37.55203],[127.11334,37.552],[127.11307,37.55133],[127.11244,37.54951],[127.11222,37.54834],[127.11207,37.54755],[127.11157,37.54651],[127.11089,37.54547],[127.10956,37.54347],[127.10416,37.536],[127.1032,37.53467],[127.10061,37.53709],[127.09775,37.53966],[127.09713,37.54011],[127.09705,37.54017],[127.09697,37.54023],[127.09508,37.54187],[127.09318,37.54369],[127.09395,37.54424],[127.09675,37.54585],[127.09696,37.5459],[127.09746,37.54566],[127.09758,37.5456],[127.09778,37.54551],[127.09802,37.54623],[127.09865,37.54902],[127.09825,37.55021],[127.09824,37.55029],[127.09869,37.55199],[127.09957,37.55263],[127.10008,37.553],[127.10203,37.5555],[127.10339,37.55724],[127.10425,37.55988],[127.10896,37.55982],[127.11002,37.55846],[127.11147,37.55889],[127.11377,37.55889]]]]}},{"type":"Feature","properties":{"code":"11215820","name":"자양1동","parent":"11215"},"geometry":{"type":"MultiPolygon","coordinates":[[[[127.08355,37.53663],[127.08379,37.53598],[127.08421,37.53488],[127.08458,37.53395],[127.08482,37.53336],[127.08483,37.53332],[127.08515,37.53278],[127.08535,37.53246],[127.08432,37.53196],[127.08399,37.53181],[127.0833,37.53157],[127.08293,37.53152],[127.08259,37.53147],[127.08211,37.53145],[127.0816,37.53149],[127.08153,37.53149],[127.08138,37.53151],[127.08117,37.53157],[127.08105,37.5316],[127.07841,37.53238],[127.07566,37.5332],[127.07655,37.53603],[127.07658,37.53612],[127.07661,37.53624],[127.07709,37.53785],[127.07717,37.53821],[127.07713,37.53822],[127.07514,37.53871],[127.07526,37.53933],[127.07678,37.53921],[127.07848,37.53902],[127.07894,37.53893],[127.07995,37.539],[127.08229,37.54004],[127.08293,37.54137],[127.0832,37.54007],[127.08355,37.53663]]]]}},{"type":"Feature","properties":{"code":"11215830","name":"자양2동","parent":"11215"},"geometry":{"type":"MultiPolygon","coordinates":[[[[127.09225,37.52679],[127.09044,37.526],[127.08852,37.52549],[127.08759,37.52525],[127.08559,37.52474],[127.08429,37.52442],[127.08342,37.52431],[127.08236,37.52418],[127.07989,37.52387],[127.07758,37.52358],[127.07695,37.52359],[127.07285,37.52371],[127.07258,37.52378],[127.07386,37.52703],[127.07486,37.53056],[127.07566,37.5332],[127.07841,37.53238],[127.08105,37.5316],[127.08117,37.53157],[127.08138,37.53151],[127.08153,37.53149],[127.0816,37.53149],[127.08211,37.53145],[127.08259,37.53147],[127.08293,37.53152],[127.0833,37.53157],[127.08399,37.53181],[127.08432,37.53196],[127.08535,37.53246],[127.08515,37.53278],[127.08483,37.53332],[127.08482,37.53336],[127.08458,37.53395],[127.08421,37.53488],[127.08379,37.53598],[127.08355,37.53663],[127.08905,37.5379],[127.08942,37.53745],[127.08926,37.53638],[127.08937,37.53597],[127.08944,37.5357],[127.09013,37.5334],[127.09088,37.53366],[127.09165,37.53326],[127.09167,37.53298],[127.09182,37.53144],[127.09225,37.52679]]]]}},{"type":"Feature","properties":{"code":"11215840","name":"자양3동","parent":"11215"},"geometry":{"type":"MultiPolygon","coordinates":[[[[127.07514,37.53871],[127.07713,37.53822],[127.07717,37.53821],[127.07709,37.53785],[127.07661,37.53624],[127.07658,37.53612],[127.07655,37.53603],[127.07566,37.5332],[127.07486,37.53056],[127.07386,37.52703],[127.07258,37.52378],[127.06696,37.52508],[127.06526,37.5256],[127.06556,37.52741],[127.06715,37.53251],[127.06766,37.5336],[127.06797,37.53427],[127.07055,37.53983],[127.07327,37.53907],[127.07514,37.53871]]]]}},{"type":"Feature","properties":{"code":"11215847","name":"자양4동","parent":"11215"},"geometry":{"type":"MultiPolygon","coordinates":[[[[127.07055,37.53983],[127.06797,37.53427],[127.06766,37.5336],[127.06715,37.53251],[127.06556,37.52741],[127.06526,37.5256],[127.06025,37.52752],[127.05657,37.5291],[127.06283,37.54019],[127.06394,37.54215],[127.07055,37.53983]]]]}}]}