{"type":"FeatureCollection","features":[{"type":"Feature","properties":{"code":"26290530","name":"대연3동","parent":"26290"},"geometry":{"type":"MultiPolygon","coordinates":[[[[129.096,35.15987],[129.09797,35.15581],[129.09812,35.15554],[129.09823,35.15534],[129.09911,35.15405],[129.10015,35.15255],[129.10164,35.15069],[129.10196,35.14947],[129.10256,35.1477],[129.1033,35.14601],[129.10334,35.14576],[129.10341,35.14436],[129.10274,35.14365],[129.10243,35.14322],[129.10232,35.1428],[129.10274,35.14231],[129.10295,35.14207],[129.10333,35.14164],[129.10363,35.14133],[129.10369,35.14127],[129.10399,35.14098],[129.10488,35.14021],[129.10603,35.13936],[129.10687,35.13874],[129.10764,35.13817],[129.11134,35.13568],[129.1086,35.13237],[129.10596,35.12918],[129.10601,35.12783],[129.10615,35.12762],[129.10628,35.12732],[129.10627,35.12714],[129.10579,35.12691],[129.10493,35.12649],[129.10356,35.12658],[129.10307,35.12642],[129.10274,35.1263],[129.10214,35.12606],[129.10154,35.12577],[129.10088,35.12544],[129.09994,35.12503],[129.09872,35.12491],[129.09985,35.12701],[129.10064,35.12809],[129.1007,35.12818],[129.0998,35.1287],[129.0972,35.1301],[129.09815,35.1301],[129.09821,35.13417],[129.09819,35.13424],[129.09778,35.13478],[129.09767,35.13492],[129.0976,35.13498],[129.09715,35.13536],[129.09708,35.13538],[129.09671,35.13545],[129.09642,35.13577],[129.09761,35.13625],[129.09764,35.13626],[129.09789,35.13637],[129.09606,35.14016],[129.09603,35.14022],[129.09499,35.14203],[129.0912,35.14627],[129.09115,35.14632],[129.09112,35.14634],[129.09069,35.14661],[129.08774,35.1483],[129.08756,35.14838],[129.0873,35.14846],[129.08711,35.1485],[129.08675,35.14857],[129.08608,35.14867],[129.08499,35.1488],[129.08364,35.14905],[129.08332,35.14929],[129.07987,35.1527],[129.08,35.15334],[129.08226,35.1575],[129.08254,35.15787],[129.08293,35.15824],[129.08413,35.15881],[129.0877,35.16037],[129.08802,35.16047],[129.08939,35.16081],[129.08978,35.1607],[129.09031,35.1605],[129.09105,35.16035],[129.09277,35.16032],[129.09371,35.16065],[129.09437,35.16114],[129.09482,35.16174],[129.09554,35.16033],[129.096,35.15987]]]]}},{"type":"Feature","properties":{"code":"26290540","name":"대연4동","parent":"26290"},"geometry":{"type":"MultiPolygon","coordinates":[[[[129.0972,35.1301],[129.0998,35.1287],[129.1007,35.12818],[129.10064,35.12809],[129.09985,35.12701],[129.09872,35.12491],[129.09475,35.12518],[129.09454,35.12513],[129.09274,35.12444],[129.0921,35.12414],[129.09167,35.12366],[129.09137,35.12309],[129.09149,35.12281],[129.09128,35.12207],[129.09068,35.12103],[129.09035,35.12085],[129.08733,35.12488],[129.08545,35.12524],[129.08621,35.12655],[129.08595,35.12775],[129.08586,35.12805],[129.08582,35.12814],[129.08558,35.12846],[129.08543,35.12861],[129.08458,35.12889],[129.084,35.12899],[129.08376,35.12898],[129.08291,35.12895],[129.08273,35.12918],[129.08215,35.13054],[129.08212,35.13088],[129.08324,35.13139],[129.08793,35.13316],[129.08802,35.13314],[129.08812,35.13312],[129.08814,35.13309],[129.08826,35.13229],[129.08827,35.13221],[129.0883,35.13206],[129.08837,35.13155],[129.08839,35.13152],[129.08913,35.13041],[129.08928,35.13019],[129.0972,35.1301]]]]}},{"type":"Feature","properties":{"code":"26290550","name":"대연5동","parent":"26290"},"geometry":{"type":"MultiPolygon","coordinates":[[[[129.09642,35.13577],[129.09384,35.13528],[129.09362,35.13526],[129.09054,35.13506],[129.09051,35.13506],[129.08966,35.13502],[129.0894,35.135],[129.08935,35.135],[129.08923,35.135],[129.08914,35.13499],[129.08833,35.13496],[129.08798,35.13495],[129.08706,35.13577],[129.08702,35.13619],[129.08697,35.13658],[129.08697,35.13662],[129.08687,35.13762],[129.08684,35.13804],[129.08707,35.13804],[129.08729,35.13804],[129.08726,35.13882],[129.08652,35.14034],[129.08649,35.14038],[129.08639,35.1405],[129.08621,35.14072],[129.08274,35.14125],[129.08235,35.14317],[129.08231,35.14357],[129.08326,35.14473],[129.08364,35.14905],[129.08499,35.1488],[129.08608,35.14867],[129.08675,35.14857],[129.08711,35.1485],[129.0873,35.14846],[129.08756,35.14838],[129.08774,35.1483],[129.09069,35.14661],[129.09112,35.14634],[129.09115,35.14632],[129.0912,35.14627],[129.09499,35.14203],[129.09603,35.14022],[129.09606,35.14016],[129.09789,35.13637],[129.09764,35.13626],[129.09761,35.13625],[129.09642,35.13577]]]]}},{"type":"Feature","properties":{"code":"26290560","name":"대연6동","parent":"26290"},"geometry":{"type":"MultiPolygon","coordinates":[[[[129.08798,35.13495],[129.08559,35.13487],[129.08387,35.13478],[129.08161,35.13453],[129.08149,35.13451],[129.08128,35.13447],[129.07895,35.13369],[129.07927,35.13495],[129.07928,35.13505],[129.07926,35.1353],[129.07868,35.13657],[129.07813,35.13714],[129.07766,35.13718],[129.0761,35.14062],[129.07607,35.14071],[129.07605,35.14079],[129.07607,35.14084],[129.07615,35.14088],[129.07626,35.1409],[129.07649,35.14094],[129.07755,35.14092],[129.08231,35.14357],[129.08235,35.14317],[129.08274,35.14125],[129.08621,35.14072],[129.08639,35.1405],[129.08649,35.14038],[129.08652,35.14034],[129.08726,35.13882],[129.08729,35.13804],[129.08707,35.13804],[129.08684,35.13804],[129.08687,35.13762],[129.08697,35.13662],[129.08697,35.13658],[129.08702,35.13619],[129.08706,35.13577],[129.08798,35.13495]]]]}},{"type":"Feature","properties":{"code":"26290570","name":"용호1동","parent":"26290"},"geometry":{"type":"MultiPolygon","coordinates":[[[[129.11181,35.13548],[129.11341,35.1348],[129.11476,35.13416],[129.11505,35.134],[129.11551,35.13375],[129.11689,35.13286],[129.11624,35.13213],[129.11552,35.13132],[129.11543,35.13121],[129.11521,35.13097],[129.11653,35.13021],[129.11583,35.12915],[129.11376,35.12702],[129.1132,35.1264],[129.11315,35.12634],[129.11305,35.1262],[129.11251,35.12481],[129.11245,35.124],[129.11242,35.12354],[129.11183,35.11879],[129.11106,35.11638],[129.10611,35.11676],[129.10277,35.11724],[129.1036,35.11782],[129.10382,35.11809],[129.10518,35.11994],[129.10536,35.12019],[129.10484,35.12123],[129.10481,35.1213],[129.10432,35.12236],[129.10423,35.12372],[129.10422,35.12378],[129.10433,35.12492],[129.10493,35.12649],[129.10579,35.12691],[129.10627,35.12714],[129.10628,35.12732],[129.10615,35.12762],[129.10601,35.12783],[129.10596,35.12918],[129.1086,35.13237],[129.11134,35.13568],[129.11181,35.13548]]]]}},{"type":"Feature","properties":{"code":"26290580","name":"용호2동","parent":"26290"},"geometry":{"type":"MultiPolygon","coordinates":[[[[129.12724,35.1143],[129.12744,35.11215],[129.12779,35.11099],[129.12793,35.11024],[129.12783,35.10963],[129.12685,35.1075],[129.12607,35.10624],[129.12374,35.10195],[129.12369,35.10174],[129.12391,35.10143],[129.12466,35.10093],[129.12521,35.10086],[129.12518,35.1007],[129.12418,35.09929],[129.12388,35.09904],[129.1235,35.09886],[129.11957,35.09938],[129.11853,35.09956],[129.11572,35.10014],[129.11543,35.10028],[129.11461,35.10095],[129.11389,35.10161],[129.11295,35.10299],[129.11271,35.10459],[129.11205,35.1078],[129.11106,35.11131],[129.11102,35.11311],[129.11106,35.11638],[129.11678,35.11558],[129.12323,35.11484],[129.12724,35.1143]]]]}},{"type":"Feature","properties":{"code":"26290590","name":"용호3동","parent":"26290"},"geometry":{"type":"MultiPolygon","coordinates":[[[[129.12724,35.1143],[129.12323,35.11484],[129.11678,35.11558],[129.11106,35.11638],[129.11183,35.11879],[129.11242,35.12354],[129.11245,35.124],[129.11251,35.12481],[129.11305,35.1262],[129.11315,35.12634],[129.1132,35.1264],[129.11376,35.12702],[129.11583,35.12915],[129.11653,35.13021],[129.11665,35.13014],[129.11717,35.13027],[129.11831,35.13151],[129.11858,35.13184],[129.12061,35.13395],[129.12108,35.13327],[129.12118,35.13289],[129.12107,35.13254],[129.1216,35.13133],[129.12234,35.12877],[129.12254,35.12707],[129.12287,35.12629],[129.12494,35.12217],[129.12595,35.12104],[129.12703,35.11981],[129.12715,35.11928],[129.12724,35.1148],[129.12724,35.1143]]]]}},{"type":"Feature","properties":{"code":"26290600","name":"용호4동","parent":"26290"},"geometry":{"type":"MultiPolygon","coordinates":[[[[129.11106,35.11638],[129.11102,35.11311],[129.11106,35.11131],[129.11205,35.1078],[129.11271,35.10459],[129.11295,35.10299],[129.11053,35.1011],[129.10879,35.10233],[129.10568,35.10001],[129.10563,35.09996],[129.10535,35.09963],[129.10527,35.09951],[129.105,35.09918],[129.10489,35.09906],[129.10478,35.09896],[129.10469,35.09887],[129.10456,35.09875],[129.10449,35.09872],[129.10442,35.09869],[129.10432,35.09866],[129.10423,35.09864],[129.10414,35.09862],[129.1032,35.09843],[129.10273,35.09836],[129.09953,35.09823],[129.09944,35.09826],[129.09756,35.09932],[129.09835,35.09984],[129.1029,35.10269],[129.10696,35.10932],[129.10702,35.10942],[129.10703,35.10956],[129.10704,35.11001],[129.10628,35.11358],[129.10616,35.11378],[129.10586,35.11404],[129.10565,35.11408],[129.10523,35.11407],[129.10485,35.11404],[129.10412,35.11471],[129.10284,35.11678],[129.10277,35.11724],[129.10611,35.11676],[129.11106,35.11638]]]]}},{"type":"Feature","properties":{"code":"26290610","name":"용당동","parent":"26290"},"geometry":{"type":"MultiPolygon","coordinates":[[[[129.10493,35.12649],[129.10433,35.12492],[129.10422,35.12378],[129.10423,35.12372],[129.10432,35.12236],[129.10481,35.1213],[129.10484,35.12123],[129.10536,35.12019],[129.10518,35.11994],[129.10382,35.11809],[129.1036,35.11782],[129.10277,35.11724],[129.10284,35.11678],[129.10412,35.11471],[129.10485,35.11404],[129.10523,35.11407],[129.10565,35.11408],[129.10586,35.11404],[129.10616,35.11378],[129.10628,35.11358],[129.10704,35.11001],[129.10703,35.10956],[129.10702,35.10942],[129.10696,35.10932],[129.1029,35.10269],[129.09835,35.09984],[129.09756,35.09932],[129.0946,35.09913],[129.09374,35.10753],[129.09181,35.10779],[129.08738,35.10714],[129.08721,35.1075],[129.08715,35.10901],[129.0873,35.10902],[129.08837,35.10909],[129.0882,35.11044],[129.08787,35.11689],[129.08785,35.11729],[129.08825,35.11856],[129.09035,35.12085],[129.09068,35.12103],[129.09128,35.12207],[129.09149,35.12281],[129.09137,35.12309],[129.09167,35.12366],[129.0921,35.12414],[129.09274,35.12444],[129.09454,35.12513],[129.09475,35.12518],[129.09872,35.12491],[129.09994,35.12503],[129.10088,35.12544],[129.10154,35.12577],[129.10214,35.12606],[129.10274,35.1263],[129.10307,35.12642],[129.10356,35.12658],[129.10493,35.12649]]]]}},{"type":"Feature","properties":{"code":"26290620","name":"감만1동","parent":"26290"},"geometry":{"type":"MultiPolygon","coordinates":[[[[129.0776,35.12081],[129.07708,35.11973],[129.0791,35.11861],[129.07989,35.11886],[129.08049,35.1192],[129.0808,35.11956],[129.08334,35.11949],[129.08733,35.11878],[129.08825,35.11856],[129.08785,35.11729],[129.08787,35.11689],[129.0882,35.11044],[129.08837,35.10909],[129.0873,35.10902],[129.08715,35.10901],[129.08721,35.1075],[129.08738,35.10714],[129.08759,35.10359],[129.07491,35.10358],[129.06743,35.10756],[129.0672,35.10769],[129.06989,35.11384],[129.07378,35.11675],[129.07325,35.11814],[129.07227,35.11873],[129.07135,35.11771],[129.07101,35.11738],[129.0695,35.1183],[129.073,35.12217],[129.07308,35.12217],[129.07498,35.12171],[129.0762,35.12091],[129.0776,35.12081]]]]}},{"type":"Feature","properties":{"code":"26290630","name":"감만2동","parent":"26290"},"geometry":{"type":"MultiPolygon","coordinates":[[[[129.09035,35.12085],[129.08825,35.11856],[129.08733,35.11878],[129.08334,35.11949],[129.0808,35.11956],[129.08049,35.1192],[129.07989,35.11886],[129.0791,35.11861],[129.07708,35.11973],[129.0776,35.12081],[129.07905,35.12109],[129.07962,35.12128],[129.07968,35.12131],[129.08081,35.12179],[129.08098,35.12186],[129.08175,35.12271],[129.0836,35.1241],[129.08363,35.12412],[129.08407,35.12441],[129.08545,35.12524],[129.08733,35.12488],[129.09035,35.12085]]]]}},{"type":"Feature","properties":{"code":"26290680","name":"문현1동","parent":"26290"},"geometry":{"type":"MultiPolygon","coordinates":[[[[129.08364,35.14905],[129.08326,35.14473],[129.08231,35.14357],[129.07755,35.14092],[129.07627,35.14316],[129.07628,35.14322],[129.07628,35.14334],[129.07621,35.14338],[129.07617,35.14341],[129.07606,35.14342],[129.07584,35.14341],[129.0756,35.1434],[129.07539,35.14337],[129.0752,35.14334],[129.0751,35.14331],[129.07208,35.14239],[129.0709,35.14184],[129.06874,35.1407],[129.06705,35.13999],[129.06716,35.14037],[129.06789,35.14181],[129.06801,35.14205],[129.06842,35.14263],[129.07083,35.14581],[129.071,35.14767],[129.07134,35.14878],[129.0717,35.14906],[129.07424,35.15029],[129.07781,35.15194],[129.07872,35.15229],[129.07987,35.1527],[129.08332,35.14929],[129.08364,35.14905]]]]}},{"type":"Feature","properties":{"code":"26290690","name":"문현2동","parent":"26290"},"geometry":{"type":"MultiPolygon","coordinates":[[[[129.06705,35.13999],[129.06789,35.13692],[129.06609,35.13698],[129.06448,35.14139],[129.06399,35.14208],[129.06364,35.14258],[129.0635,35.14277],[129.06343,35.14295],[129.0632,35.14356],[129.06319,35.14374],[129.06317,35.14454],[129.06312,35.14818],[129.06328,35.14855],[129.06333,35.14869],[129.06677,35.14778],[129.07134,35.14878],[129.071,35.14767],[129.07083,35.14581],[129.06842,35.14263],[129.06801,35.14205],[129.06789,35.14181],[129.06716,35.14037],[129.06705,35.13999]]]]}},{"type":"Feature","properties":{"code":"26290700","name":"문현3동","parent":"26290"},"geometry":{"type":"MultiPolygon","coordinates":[[[[129.07755,35.14092],[129.07649,35.14094],[129.07626,35.1409],[129.07615,35.14088],[129.07607,35.14084],[129.07605,35.14079],[129.07607,35.14071],[129.0761,35.14062],[129.07766,35.13718],[129.07813,35.13714],[129.07868,35.13657],[129.07926,35.1353],[129.07928,35.13505],[129.07927,35.13495],[129.07895,35.13369],[129.07861,35.13366],[129.07852,35.13365],[129.07824,35.13368],[129.07788,35.13378],[129.07753,35.13393],[129.07729,35.13405],[129.07688,35.13426],[129.0765,35.13447],[129.07653,35.13452],[129.07519,35.13526],[129.07504,35.13533],[129.07457,35.13557],[129.07317,35.1363],[129.07199,35.13686],[129.07194,35.13688],[129.07185,35.13692],[129.07168,35.13697],[129.07062,35.13698],[129.06789,35.13692],[129.06705,35.13999],[129.06874,35.1407],[129.0709,35.14184],[129.07208,35.14239],[129.0751,35.14331],[129.0752,35.14334],[129.07539,35.14337],[129.0756,35.1434],[129.07584,35.14341],[129.07606,35.14342],[129.07617,35.14341],[129.07621,35.14338],[129.07628,35.14334],[129.07628,35.14322],[129.07627,35.14316],[129.07755,35.14092]]]]}},{"type":"Feature","properties":{"code":"26290710","name":"문현4동","parent":"26290"},"geometry":{"type":"MultiPolygon","coordinates":[[[[129.07895,35.13369],[129.07585,35.1299],[129.07283,35.13133],[129.07308,35.13163],[129.07304,35.13177],[129.07281,35.13204],[129.06968,35.13041],[129.06954,35.13003],[129.0693,35.1293],[129.06856,35.12788],[129.06852,35.12783],[129.0684,35.12769],[129.06782,35.12711],[129.06771,35.12706],[129.06642,35.12759],[129.0653,35.12962],[129.06533,35.12991],[129.06609,35.13698],[129.06789,35.13692],[129.07062,35.13698],[129.07168,35.13697],[129.07185,35.13692],[129.07194,35.13688],[129.07199,35.13686],[129.07317,35.1363],[129.07457,35.13557],[129.07504,35.13533],[129.07519,35.13526],[129.07653,35.13452],[129.0765,35.13447],[129.07688,35.13426],[129.07729,35.13405],[129.07753,35.13393],[129.07788,35.13378],[129.07824,35.13368],[129.07852,35.13365],[129.07861,35.13366],[129.07895,35.13369]]]]}},{"type":"Feature","properties":{"code":"26290510","name":"대연1동","parent":"26290"},"geometry":{"type":"MultiPolygon","coordinates":[[[[129.0972,35.1301],[129.08928,35.13019],[129.08913,35.13041],[129.08839,35.13152],[129.08837,35.13155],[129.0883,35.13206],[129.08827,35.13221],[129.08826,35.13229],[129.08814,35.13309],[129.08812,35.13312],[129.08802,35.13314],[129.08793,35.13316],[129.08324,35.13139],[129.08212,35.13088],[129.08122,35.13103],[129.08119,35.13102],[129.07996,35.13028],[129.07903,35.12971],[129.07892,35.12965],[129.07873,35.12955],[129.0787,35.12955],[129.07805,35.12955],[129.07752,35.12959],[129.07585,35.1299],[129.07895,35.13369],[129.08128,35.13447],[129.08149,35.13451],[129.08161,35.13453],[129.08387,35.13478],[129.08559,35.13487],[129.08798,35.13495],[129.08833,35.13496],[129.08914,35.13499],[129.08923,35.135],[129.08935,35.135],[129.0894,35.135],[129.08966,35.13502],[129.09051,35.13506],[129.09054,35.13506],[129.09362,35.13526],[129.09384,35.13528],[129.09642,35.13577],[129.09671,35.13545],[129.09708,35.13538],[129.09715,35.13536],[129.0976,35.13498],[129.09767,35.13492],[129.09778,35.13478],[129.09819,35.13424],[129.09821,35.13417],[129.09815,35.1301],[129.0972,35.1301]]]]}},{"type":"Feature","properties":{"code":"26290645","name":"우암동","parent":"26290"},"geometry":{"type":"MultiPolygon","coordinates":[[[[129.07585,35.1299],[129.07752,35.12959],[129.07805,35.12955],[129.0787,35.12955],[129.07873,35.12955],[129.07892,35.12965],[129.07903,35.12971],[129.07996,35.13028],[129.08119,35.13102],[129.08122,35.13103],[129.08212,35.13088],[129.08215,35.13054],[129.08273,35.12918],[129.08291,35.12895],[129.08376,35.12898],[129.084,35.12899],[129.08458,35.12889],[129.08543,35.12861],[129.08558,35.12846],[129.08582,35.12814],[129.08586,35.12805],[129.08595,35.12775],[129.08621,35.12655],[129.08545,35.12524],[129.08407,35.12441],[129.08363,35.12412],[129.0836,35.1241],[129.08175,35.12271],[129.08098,35.12186],[129.08081,35.12179],[129.07968,35.12131],[129.07962,35.12128],[129.07905,35.12109],[129.0776,35.12081],[129.0762,35.12091],[129.07498,35.12171],[129.07308,35.12217],[129.073,35.12217],[129.07197,35.12251],[129.07095,35.12283],[129.06998,35.12313],[129.06994,35.12309],[129.0694,35.12248],[129.06866,35.12168],[129.06708,35.12226],[129.06534,35.12289],[129.06544,35.12309],[129.06546,35.12312],[129.06627,35.12466],[129.06652,35.12512],[129.06672,35.1255],[129.06678,35.12589],[129.06672,35.12637],[129.06666,35.12679],[129.06657,35.1271],[129.06642,35.12759],[129.06771,35.12706],[129.06782,35.12711],[129.0684,35.12769],[129.06852,35.12783],[129.06856,35.12788],[129.0693,35.1293],[129.06954,35.13003],[129.06968,35.13041],[129.07281,35.13204],[129.07304,35.13177],[129.07308,35.13163],[129.07283,35.13133],[129.07585,35.1299]]]]}}]}