{"type":"FeatureCollection","features":[{"type":"Feature","properties":{"code":"30110530","name":"효동","parent":"30110"},"geometry":{"type":"MultiPolygon","coordinates":[[[[127.44846,36.31925],[127.44832,36.31888],[127.44969,36.31772],[127.45077,36.31611],[127.45086,36.31588],[127.45055,36.31464],[127.45046,36.31443],[127.45023,36.31398],[127.4502,36.31382],[127.44996,36.3127],[127.44978,36.31172],[127.45066,36.31109],[127.45252,36.31156],[127.45425,36.31215],[127.45766,36.31242],[127.4599,36.31247],[127.46109,36.31261],[127.46205,36.31277],[127.46265,36.31294],[127.46317,36.31341],[127.46319,36.31343],[127.46396,36.31303],[127.46506,36.31203],[127.46524,36.31172],[127.46526,36.31151],[127.46365,36.3099],[127.46285,36.30909],[127.46124,36.30748],[127.46135,36.30561],[127.46146,36.30374],[127.46162,36.30093],[127.46153,36.30117],[127.4614,36.30143],[127.46122,36.3017],[127.46099,36.30196],[127.4586,36.30446],[127.45754,36.30372],[127.45571,36.30243],[127.45656,36.30161],[127.45585,36.30069],[127.45508,36.30113],[127.45174,36.30399],[127.45085,36.30492],[127.44844,36.30793],[127.44739,36.30939],[127.44736,36.30944],[127.44694,36.31005],[127.44682,36.31023],[127.44663,36.3105],[127.44614,36.31087],[127.44486,36.31133],[127.44306,36.31125],[127.44022,36.31297],[127.43803,36.31839],[127.44127,36.31924],[127.44139,36.31926],[127.44625,36.31953],[127.44693,36.31955],[127.44846,36.31925]]]]}},{"type":"Feature","properties":{"code":"30110551","name":"판암1동","parent":"30110"},"geometry":{"type":"MultiPolygon","coordinates":[[[[127.481,36.30044],[127.47953,36.2994],[127.47851,36.29937],[127.47798,36.29936],[127.4779,36.29936],[127.47776,36.29936],[127.47685,36.29949],[127.47597,36.2997],[127.47437,36.30061],[127.47302,36.30134],[127.46911,36.30299],[127.46858,36.30307],[127.46777,36.30292],[127.46623,36.30259],[127.46566,36.30219],[127.46448,36.30075],[127.4642,36.30066],[127.46366,36.30062],[127.46186,36.30062],[127.46166,36.30088],[127.46162,36.30093],[127.46146,36.30374],[127.46135,36.30561],[127.46124,36.30748],[127.46285,36.30909],[127.46365,36.3099],[127.46526,36.31151],[127.46524,36.31172],[127.46506,36.31203],[127.46396,36.31303],[127.46319,36.31343],[127.46317,36.31341],[127.46265,36.31294],[127.46205,36.31277],[127.46109,36.31261],[127.4599,36.31247],[127.45766,36.31242],[127.45425,36.31215],[127.45252,36.31156],[127.45066,36.31109],[127.44978,36.31172],[127.44996,36.3127],[127.4502,36.31382],[127.45023,36.31398],[127.45046,36.31443],[127.45055,36.31464],[127.45086,36.31588],[127.45077,36.31611],[127.44969,36.31772],[127.44832,36.31888],[127.44846,36.31925],[127.44913,36.31929],[127.45194,36.31822],[127.45394,36.3173],[127.45446,36.31714],[127.45503,36.31703],[127.45628,36.31697],[127.45644,36.31696],[127.45649,36.31768],[127.45652,36.31785],[127.45655,36.31809],[127.45659,36.31832],[127.4567,36.31872],[127.4569,36.31931],[127.45693,36.31937],[127.45701,36.31949],[127.45716,36.3197],[127.45742,36.31998],[127.45745,36.32002],[127.46126,36.3213],[127.46267,36.32155],[127.46271,36.32157],[127.4636,36.32187],[127.46418,36.32195],[127.46488,36.32193],[127.46518,36.32168],[127.46603,36.32167],[127.46709,36.32208],[127.46736,36.3225],[127.46758,36.32286],[127.46837,36.32424],[127.47066,36.3286],[127.47077,36.3295],[127.47288,36.33027],[127.47697,36.33215],[127.47783,36.33274],[127.47869,36.33333],[127.48026,36.33427],[127.48123,36.33269],[127.48064,36.33157],[127.48061,36.331],[127.48119,36.33079],[127.48233,36.33048],[127.48374,36.33018],[127.48402,36.33005],[127.48363,36.32798],[127.48356,36.32766],[127.48144,36.32376],[127.48103,36.32347],[127.48037,36.323],[127.48023,36.32246],[127.48018,36.32184],[127.48021,36.32162],[127.48073,36.32107],[127.48167,36.3195],[127.48275,36.31585],[127.48244,36.31488],[127.48113,36.30953],[127.4804,36.30319],[127.48038,36.30217],[127.48094,36.30047],[127.481,36.30044]]]]}},{"type":"Feature","properties":{"code":"30110552","name":"판암2동","parent":"30110"},"geometry":{"type":"MultiPolygon","coordinates":[[[[127.46267,36.32155],[127.46126,36.3213],[127.45745,36.32002],[127.45742,36.31998],[127.45716,36.3197],[127.45701,36.31949],[127.45693,36.31937],[127.4569,36.31931],[127.4567,36.31872],[127.45659,36.31832],[127.45655,36.31809],[127.45652,36.31785],[127.45649,36.31768],[127.45644,36.31696],[127.45628,36.31697],[127.45503,36.31703],[127.45446,36.31714],[127.45394,36.3173],[127.45194,36.31822],[127.44913,36.31929],[127.44819,36.31975],[127.44697,36.32052],[127.44708,36.32068],[127.44781,36.32042],[127.44787,36.32041],[127.44837,36.32115],[127.44862,36.32152],[127.44886,36.32187],[127.44772,36.32316],[127.44764,36.32323],[127.44697,36.32386],[127.44734,36.32413],[127.44959,36.32446],[127.44993,36.32484],[127.4511,36.32533],[127.4513,36.32534],[127.4528,36.32483],[127.45288,36.32481],[127.45484,36.32428],[127.45819,36.32534],[127.46267,36.32155]]]]}},{"type":"Feature","properties":{"code":"30110560","name":"용운동","parent":"30110"},"geometry":{"type":"MultiPolygon","coordinates":[[[[127.47077,36.3295],[127.47066,36.3286],[127.46837,36.32424],[127.46758,36.32286],[127.46736,36.3225],[127.46709,36.32208],[127.46603,36.32167],[127.46518,36.32168],[127.46488,36.32193],[127.46418,36.32195],[127.4636,36.32187],[127.46271,36.32157],[127.46267,36.32155],[127.45819,36.32534],[127.45484,36.32428],[127.45288,36.32481],[127.4528,36.32483],[127.4513,36.32534],[127.4511,36.32533],[127.44993,36.32484],[127.44959,36.32446],[127.44734,36.32413],[127.44801,36.32462],[127.44831,36.32484],[127.44872,36.32515],[127.45163,36.32999],[127.45216,36.33135],[127.45221,36.33157],[127.4519,36.33198],[127.45158,36.33237],[127.45321,36.33383],[127.45364,36.3343],[127.45508,36.3376],[127.4563,36.34122],[127.45699,36.34388],[127.46181,36.34501],[127.46482,36.34519],[127.46588,36.34408],[127.46832,36.34088],[127.47142,36.33639],[127.47235,36.33447],[127.47243,36.33386],[127.47214,36.33246],[127.47185,36.33171],[127.47077,36.3295]]]]}},{"type":"Feature","properties":{"code":"30110590","name":"자양동","parent":"30110"},"geometry":{"type":"MultiPolygon","coordinates":[[[[127.45699,36.34388],[127.4563,36.34122],[127.45508,36.3376],[127.45364,36.3343],[127.45321,36.33383],[127.45158,36.33237],[127.44835,36.33258],[127.44767,36.33302],[127.44742,36.33316],[127.44568,36.33387],[127.4452,36.33406],[127.44457,36.33339],[127.44443,36.33316],[127.44432,36.33291],[127.44425,36.33274],[127.44413,36.33256],[127.44391,36.33227],[127.44342,36.33188],[127.44321,36.33174],[127.44297,36.33162],[127.44278,36.33157],[127.44076,36.3315],[127.44263,36.33566],[127.44415,36.3377],[127.44429,36.33785],[127.44498,36.33856],[127.44579,36.33939],[127.4483,36.34198],[127.44872,36.34241],[127.44899,36.34265],[127.44955,36.34313],[127.45349,36.34519],[127.45359,36.34506],[127.45699,36.34388]]]]}},{"type":"Feature","properties":{"code":"30110620","name":"가양1동","parent":"30110"},"geometry":{"type":"MultiPolygon","coordinates":[[[[127.4483,36.34198],[127.44579,36.33939],[127.44498,36.33856],[127.44429,36.33785],[127.44415,36.3377],[127.44263,36.33566],[127.44179,36.33671],[127.44152,36.33686],[127.44054,36.33735],[127.4398,36.33765],[127.43892,36.33776],[127.43807,36.33774],[127.43761,36.33838],[127.43849,36.33897],[127.43861,36.33907],[127.43864,36.33912],[127.43917,36.34081],[127.43891,36.34375],[127.43756,36.34942],[127.44146,36.35068],[127.44224,36.35093],[127.44266,36.35026],[127.44302,36.34971],[127.44329,36.34928],[127.44593,36.34523],[127.4483,36.34198]]]]}},{"type":"Feature","properties":{"code":"30110630","name":"가양2동","parent":"30110"},"geometry":{"type":"MultiPolygon","coordinates":[[[[127.4639,36.35076],[127.46482,36.34519],[127.46181,36.34501],[127.45699,36.34388],[127.45359,36.34506],[127.45349,36.34519],[127.44955,36.34313],[127.44899,36.34265],[127.44872,36.34241],[127.4483,36.34198],[127.44593,36.34523],[127.44329,36.34928],[127.44302,36.34971],[127.44266,36.35026],[127.44224,36.35093],[127.44146,36.35068],[127.4414,36.35237],[127.44252,36.35185],[127.44269,36.35176],[127.44516,36.35079],[127.44545,36.35129],[127.44553,36.35142],[127.44606,36.35237],[127.44591,36.35233],[127.44576,36.35227],[127.44559,36.35219],[127.44551,36.35222],[127.4457,36.35323],[127.4459,36.35362],[127.44699,36.354],[127.4545,36.35448],[127.45446,36.35441],[127.45415,36.35388],[127.45414,36.35385],[127.45381,36.3533],[127.4539,36.35327],[127.45498,36.35307],[127.45605,36.35294],[127.45716,36.35309],[127.458,36.35303],[127.45854,36.35299],[127.4628,36.35119],[127.4639,36.35076]]]]}},{"type":"Feature","properties":{"code":"30110640","name":"용전동","parent":"30110"},"geometry":{"type":"MultiPolygon","coordinates":[[[[127.4414,36.35237],[127.44146,36.35068],[127.43756,36.34942],[127.43197,36.34744],[127.43206,36.3482],[127.43222,36.34962],[127.42837,36.34999],[127.42792,36.35259],[127.42757,36.35503],[127.42909,36.35676],[127.43068,36.35905],[127.43227,36.35906],[127.43244,36.35906],[127.43255,36.35906],[127.43544,36.36075],[127.43677,36.36024],[127.43729,36.36026],[127.43749,36.36025],[127.43839,36.35996],[127.4387,36.35973],[127.43927,36.35858],[127.4397,36.35664],[127.43966,36.35506],[127.44033,36.35452],[127.44086,36.35408],[127.44148,36.35356],[127.4414,36.35237]]]]}},{"type":"Feature","properties":{"code":"30110670","name":"홍도동","parent":"30110"},"geometry":{"type":"MultiPolygon","coordinates":[[[[127.43197,36.34744],[127.43134,36.34691],[127.42991,36.34572],[127.42849,36.34452],[127.42755,36.34382],[127.42745,36.34376],[127.42727,36.34367],[127.42722,36.34365],[127.42517,36.34357],[127.42321,36.34368],[127.4207,36.34446],[127.42043,36.34466],[127.41991,36.34504],[127.41833,36.34622],[127.41958,36.3483],[127.42121,36.34851],[127.4218,36.34857],[127.4231,36.34851],[127.42389,36.34843],[127.42487,36.3488],[127.42495,36.34886],[127.42507,36.34898],[127.42544,36.34976],[127.42565,36.35024],[127.42577,36.35045],[127.42583,36.35055],[127.42725,36.35252],[127.42792,36.35259],[127.42837,36.34999],[127.43222,36.34962],[127.43206,36.3482],[127.43197,36.34744]]]]}},{"type":"Feature","properties":{"code":"30110725","name":"대청동","parent":"30110"},"geometry":{"type":"MultiPolygon","coordinates":[[[[127.48921,36.4327],[127.49333,36.42622],[127.4939,36.42528],[127.49446,36.42434],[127.49668,36.42067],[127.49771,36.41895],[127.49786,36.41863],[127.49963,36.41473],[127.5004,36.41296],[127.50079,36.41208],[127.50118,36.4112],[127.50158,36.41031],[127.50197,36.40942],[127.50256,36.4082],[127.50316,36.40766],[127.50412,36.40706],[127.50539,36.40658],[127.50666,36.4061],[127.50793,36.40563],[127.50909,36.40519],[127.51004,36.40312],[127.51103,36.4065],[127.51162,36.40835],[127.51307,36.41296],[127.51366,36.4148],[127.51453,36.41757],[127.51569,36.42228],[127.5165,36.42217],[127.51756,36.42175],[127.51841,36.42087],[127.51949,36.42018],[127.5202,36.42062],[127.52121,36.42162],[127.52298,36.42279],[127.52415,36.42319],[127.52879,36.42058],[127.52934,36.41934],[127.53399,36.41879],[127.53546,36.419],[127.53804,36.42017],[127.53975,36.42072],[127.54108,36.42073],[127.5424,36.42075],[127.54338,36.42025],[127.54436,36.41976],[127.5443,36.41962],[127.54386,36.4186],[127.5435,36.41773],[127.54313,36.41687],[127.5433,36.41506],[127.54339,36.41416],[127.54348,36.41326],[127.54426,36.41179],[127.54463,36.41109],[127.54573,36.41025],[127.54683,36.40941],[127.54785,36.40863],[127.54887,36.40786],[127.54989,36.40709],[127.55207,36.40528],[127.55336,36.40355],[127.55386,36.40287],[127.55419,36.40189],[127.55483,36.39994],[127.55515,36.39897],[127.55597,36.39794],[127.55648,36.39766],[127.55725,36.39724],[127.55639,36.3959],[127.55419,36.39473],[127.55147,36.39525],[127.55077,36.3957],[127.54812,36.39676],[127.54687,36.39643],[127.54466,36.39616],[127.54361,36.3961],[127.54311,36.39701],[127.54123,36.39719],[127.53916,36.39719],[127.53564,36.39475],[127.5346,36.39402],[127.5341,36.39368],[127.5337,36.39275],[127.53331,36.39182],[127.53305,36.39153],[127.53275,36.39136],[127.53177,36.39092],[127.5267,36.38797],[127.52572,36.38731],[127.52521,36.38619],[127.52517,36.38366],[127.52529,36.37622],[127.52562,36.37506],[127.52576,36.37456],[127.52623,36.37401],[127.52642,36.37365],[127.52658,36.37335],[127.52665,36.37234],[127.52672,36.37132],[127.52686,36.36929],[127.52496,36.36379],[127.52308,36.35764],[127.52131,36.3532],[127.52016,36.35333],[127.51847,36.3535],[127.51587,36.353],[127.51419,36.35152],[127.50977,36.35045],[127.50856,36.34812],[127.50792,36.34574],[127.50816,36.34394],[127.50931,36.3431],[127.50847,36.34208],[127.50683,36.34064],[127.50584,36.3403],[127.50571,36.34029],[127.50398,36.34022],[127.50214,36.33976],[127.50125,36.33871],[127.50117,36.33738],[127.50122,36.3333],[127.50205,36.32918],[127.50271,36.32805],[127.50351,36.3267],[127.50353,36.32648],[127.50358,36.32576],[127.50211,36.32324],[127.50018,36.32054],[127.49828,36.31895],[127.49929,36.31579],[127.49926,36.31493],[127.49643,36.31239],[127.49587,36.31224],[127.49572,36.31219],[127.49476,36.31169],[127.49793,36.30723],[127.49915,36.30581],[127.49945,36.30528],[127.49869,36.30404],[127.4933,36.30003],[127.49202,36.29985],[127.489,36.30084],[127.48714,36.30021],[127.48437,36.29955],[127.4822,36.29982],[127.481,36.30044],[127.48094,36.30047],[127.48038,36.30217],[127.4804,36.30319],[127.48113,36.30953],[127.48244,36.31488],[127.48275,36.31585],[127.48167,36.3195],[127.48073,36.32107],[127.48021,36.32162],[127.48018,36.32184],[127.48023,36.32246],[127.48037,36.323],[127.48103,36.32347],[127.48144,36.32376],[127.48356,36.32766],[127.48363,36.32798],[127.48402,36.33005],[127.48374,36.33018],[127.48233,36.33048],[127.48119,36.33079],[127.48061,36.331],[127.48064,36.33157],[127.48123,36.33269],[127.48026,36.33427],[127.47869,36.33333],[127.47783,36.33274],[127.47697,36.33215],[127.47288,36.33027],[127.47077,36.3295],[127.47185,36.33171],[127.47214,36.33246],[127.47243,36.33386],[127.47235,36.33447],[127.47142,36.33639],[127.46832,36.34088],[127.46588,36.34408],[127.46482,36.34519],[127.4639,36.35076],[127.46513,36.35155],[127.4651,36.35227],[127.4647,36.3531],[127.46473,36.35412],[127.46477,36.35514],[127.46533,36.35665],[127.46563,36.35744],[127.46605,36.35803],[127.46607,36.35805],[127.46607,36.35809],[127.46615,36.35933],[127.4659,36.36049],[127.46487,36.36099],[127.46373,36.36131],[127.46228,36.36437],[127.45965,36.36902],[127.45723,36.37233],[127.45441,36.37588],[127.45274,36.37793],[127.45131,36.38091],[127.45153,36.38146],[127.45233,36.38252],[127.45313,36.38358],[127.45469,36.38698],[127.45522,36.38871],[127.45395,36.39007],[127.45421,36.39586],[127.45528,36.39913],[127.45653,36.40147],[127.45738,36.40297],[127.45852,36.40347],[127.45965,36.40397],[127.46112,36.40462],[127.46249,36.406],[127.46311,36.40663],[127.46504,36.40769],[127.46646,36.40841],[127.46835,36.41036],[127.47218,36.41497],[127.47282,36.41574],[127.47781,36.42227],[127.48073,36.42691],[127.48132,36.42784],[127.48119,36.4293],[127.4818,36.4305],[127.48255,36.4315],[127.48403,36.43349],[127.48515,36.43321],[127.48627,36.43293],[127.48774,36.43282],[127.48921,36.4327]]]]}},{"type":"Feature","properties":{"code":"30110740","name":"산내동","parent":"30110"},"geometry":{"type":"MultiPolygon","coordinates":[[[[127.46162,36.30093],[127.46166,36.30088],[127.46186,36.30062],[127.46366,36.30062],[127.4642,36.30066],[127.46448,36.30075],[127.46566,36.30219],[127.46623,36.30259],[127.46777,36.30292],[127.46858,36.30307],[127.46911,36.30299],[127.47302,36.30134],[127.47437,36.30061],[127.47597,36.2997],[127.47685,36.29949],[127.47776,36.29936],[127.4779,36.29936],[127.47798,36.29936],[127.47851,36.29937],[127.47953,36.2994],[127.481,36.30044],[127.4822,36.29982],[127.48437,36.29955],[127.48714,36.30021],[127.489,36.30084],[127.49014,36.30022],[127.49131,36.29844],[127.49101,36.29694],[127.49121,36.29658],[127.4967,36.28709],[127.4973,36.28668],[127.49826,36.28287],[127.49807,36.28126],[127.49666,36.27947],[127.49625,36.27911],[127.49521,36.27847],[127.49425,36.27773],[127.48858,36.27324],[127.48852,36.27306],[127.48846,36.27287],[127.48847,36.27281],[127.4886,36.27225],[127.48886,36.27123],[127.48936,36.27003],[127.48859,36.26744],[127.48766,36.2652],[127.48625,36.26144],[127.48615,36.25981],[127.48619,36.25924],[127.48752,36.25833],[127.488,36.25836],[127.48885,36.25838],[127.48931,36.25824],[127.48981,36.25789],[127.49029,36.25394],[127.49015,36.25339],[127.48993,36.25294],[127.48918,36.25286],[127.48896,36.2528],[127.48867,36.25273],[127.48756,36.2515],[127.48769,36.25062],[127.48852,36.24736],[127.4893,36.2459],[127.48954,36.24552],[127.48964,36.24547],[127.48991,36.24534],[127.49026,36.24522],[127.49046,36.24514],[127.49117,36.24519],[127.49152,36.24523],[127.49192,36.24527],[127.49217,36.24507],[127.49259,36.24471],[127.49336,36.2407],[127.49334,36.2402],[127.49298,36.23976],[127.49288,36.23961],[127.4927,36.23933],[127.49277,36.23809],[127.49062,36.23769],[127.49039,36.23759],[127.48997,36.23737],[127.48932,36.23601],[127.48936,36.23578],[127.48962,36.23538],[127.48967,36.23529],[127.48988,36.23468],[127.48995,36.23415],[127.48995,36.23377],[127.48837,36.23282],[127.4836,36.2308],[127.48093,36.23033],[127.47913,36.23013],[127.47805,36.22981],[127.47783,36.22974],[127.47795,36.22876],[127.47805,36.22844],[127.47788,36.22678],[127.47748,36.22652],[127.47685,36.22613],[127.47441,36.22512],[127.47379,36.22506],[127.47185,36.22513],[127.47174,36.2251],[127.47088,36.22492],[127.46752,36.22325],[127.46719,36.22278],[127.46712,36.22243],[127.4673,36.21894],[127.4678,36.21709],[127.46836,36.21656],[127.46865,36.21642],[127.46903,36.21607],[127.46914,36.21579],[127.46922,36.2155],[127.4692,36.21548],[127.46879,36.21503],[127.46855,36.2148],[127.4684,36.21476],[127.46835,36.21474],[127.4683,36.21473],[127.46369,36.21372],[127.46028,36.21304],[127.46012,36.21293],[127.45997,36.21244],[127.45989,36.21133],[127.45909,36.20978],[127.45752,36.20871],[127.45713,36.20868],[127.4553,36.20801],[127.45325,36.20677],[127.45326,36.20641],[127.4533,36.20623],[127.45331,36.20615],[127.45349,36.20586],[127.45453,36.20518],[127.45538,36.20484],[127.45591,36.20452],[127.45627,36.20408],[127.45649,36.20375],[127.45645,36.203],[127.45586,36.20113],[127.45573,36.20087],[127.45562,36.20087],[127.45516,36.20088],[127.45507,36.20087],[127.4548,36.20084],[127.45451,36.20072],[127.45339,36.20019],[127.45043,36.19876],[127.44413,36.19497],[127.44281,36.19406],[127.44219,36.19419],[127.44108,36.19447],[127.44091,36.1948],[127.44074,36.19594],[127.43663,36.19828],[127.43349,36.19918],[127.43265,36.20105],[127.43106,36.20378],[127.43104,36.20382],[127.43091,36.20404],[127.42968,36.20511],[127.42927,36.20534],[127.42646,36.20604],[127.42631,36.20602],[127.42594,36.20596],[127.42545,36.20597],[127.42385,36.20615],[127.42367,36.20625],[127.42323,36.2066],[127.42305,36.20685],[127.42297,36.207],[127.42293,36.20709],[127.42262,36.20773],[127.42236,36.20829],[127.42284,36.20893],[127.4243,36.21007],[127.42531,36.21064],[127.42581,36.21101],[127.42606,36.21141],[127.42597,36.21182],[127.42536,36.21298],[127.42544,36.21512],[127.42604,36.21641],[127.42603,36.2177],[127.42584,36.22312],[127.4257,36.22478],[127.42531,36.22512],[127.4248,36.2255],[127.42411,36.22572],[127.42392,36.22606],[127.42377,36.22648],[127.42372,36.22681],[127.42382,36.22723],[127.42398,36.22789],[127.42464,36.22893],[127.42762,36.22919],[127.42811,36.22904],[127.42903,36.22853],[127.42932,36.22822],[127.42959,36.22804],[127.43105,36.22731],[127.43168,36.2273],[127.43312,36.22744],[127.43334,36.22752],[127.43366,36.22763],[127.43413,36.22787],[127.43676,36.23113],[127.43765,36.23226],[127.43764,36.23258],[127.43754,36.23386],[127.43743,36.23532],[127.43755,36.23658],[127.43831,36.23698],[127.43907,36.23725],[127.44051,36.23771],[127.4429,36.2387],[127.44243,36.24231],[127.44234,36.24267],[127.44202,36.24391],[127.44097,36.24464],[127.44035,36.24483],[127.4398,36.24513],[127.43919,36.24563],[127.43898,36.24585],[127.43531,36.24998],[127.4348,36.25098],[127.43478,36.25132],[127.43499,36.25151],[127.43549,36.25175],[127.43671,36.25294],[127.43353,36.25409],[127.4326,36.25409],[127.43125,36.25421],[127.42854,36.25447],[127.42718,36.25459],[127.42713,36.2546],[127.42789,36.25528],[127.42866,36.25597],[127.42943,36.25665],[127.4302,36.25734],[127.42978,36.26004],[127.42964,36.26094],[127.43459,36.26494],[127.43863,36.26806],[127.43888,36.26899],[127.43912,36.26993],[127.43669,36.27483],[127.43522,36.27514],[127.43374,36.27546],[127.43214,36.27884],[127.43318,36.27968],[127.43422,36.28051],[127.43525,36.28134],[127.43512,36.28215],[127.43447,36.2822],[127.43386,36.28246],[127.43275,36.28294],[127.43079,36.28478],[127.43061,36.2901],[127.43103,36.29151],[127.43266,36.29108],[127.43771,36.29272],[127.44041,36.29507],[127.44092,36.29585],[127.44185,36.29619],[127.4432,36.29642],[127.44623,36.29651],[127.44723,36.29594],[127.44864,36.29484],[127.45124,36.29387],[127.4525,36.29348],[127.45327,36.29335],[127.45616,36.29286],[127.45783,36.29404],[127.45752,36.29414],[127.45723,36.29453],[127.45617,36.29899],[127.45585,36.30069],[127.45656,36.30161],[127.45571,36.30243],[127.45754,36.30372],[127.4586,36.30446],[127.46099,36.30196],[127.46122,36.3017],[127.4614,36.30143],[127.46153,36.30117],[127.46162,36.30093]]]]}},{"type":"Feature","properties":{"code":"30110515","name":"중앙동","parent":"30110"},"geometry":{"type":"MultiPolygon","coordinates":[[[[127.44263,36.33566],[127.44076,36.3315],[127.44077,36.33115],[127.44021,36.32812],[127.4383,36.32637],[127.43826,36.32629],[127.43806,36.32582],[127.43802,36.32571],[127.43796,36.32545],[127.43795,36.32539],[127.43804,36.32505],[127.43789,36.32499],[127.43645,36.32446],[127.43641,36.32444],[127.43629,36.32468],[127.43627,36.3247],[127.43569,36.3258],[127.43518,36.32677],[127.43254,36.32577],[127.43087,36.32783],[127.42926,36.32984],[127.42721,36.33149],[127.42545,36.33282],[127.42703,36.33367],[127.4311,36.33606],[127.43157,36.33632],[127.43167,36.33637],[127.43233,36.33662],[127.43289,36.33667],[127.43346,36.3363],[127.43611,36.33701],[127.43807,36.33774],[127.43892,36.33776],[127.4398,36.33765],[127.44054,36.33735],[127.44152,36.33686],[127.44179,36.33671],[127.44263,36.33566]]]]}},{"type":"Feature","properties":{"code":"30110545","name":"신인동","parent":"30110"},"geometry":{"type":"MultiPolygon","coordinates":[[[[127.43795,36.32539],[127.4408,36.32646],[127.44465,36.32618],[127.44503,36.32549],[127.44548,36.32465],[127.44555,36.32454],[127.44641,36.32369],[127.44656,36.32356],[127.44694,36.32384],[127.44697,36.32386],[127.44764,36.32323],[127.44772,36.32316],[127.44886,36.32187],[127.44862,36.32152],[127.44837,36.32115],[127.44787,36.32041],[127.44781,36.32042],[127.44708,36.32068],[127.44697,36.32052],[127.44819,36.31975],[127.44913,36.31929],[127.44846,36.31925],[127.44693,36.31955],[127.44625,36.31953],[127.44139,36.31926],[127.44127,36.31924],[127.43803,36.31839],[127.43456,36.32324],[127.43344,36.32467],[127.43254,36.32577],[127.43518,36.32677],[127.43569,36.3258],[127.43627,36.3247],[127.43629,36.32468],[127.43641,36.32444],[127.43645,36.32446],[127.43789,36.32499],[127.43804,36.32505],[127.43795,36.32539]]]]}},{"type":"Feature","properties":{"code":"30110585","name":"대동","parent":"30110"},"geometry":{"type":"MultiPolygon","coordinates":[[[[127.45158,36.33237],[127.4519,36.33198],[127.45221,36.33157],[127.45216,36.33135],[127.45163,36.32999],[127.44872,36.32515],[127.44831,36.32484],[127.44801,36.32462],[127.44734,36.32413],[127.44697,36.32386],[127.44694,36.32384],[127.44656,36.32356],[127.44641,36.32369],[127.44555,36.32454],[127.44548,36.32465],[127.44503,36.32549],[127.44465,36.32618],[127.4408,36.32646],[127.43795,36.32539],[127.43796,36.32545],[127.43802,36.32571],[127.43806,36.32582],[127.43826,36.32629],[127.4383,36.32637],[127.44021,36.32812],[127.44077,36.33115],[127.44076,36.3315],[127.44278,36.33157],[127.44297,36.33162],[127.44321,36.33174],[127.44342,36.33188],[127.44391,36.33227],[127.44413,36.33256],[127.44425,36.33274],[127.44432,36.33291],[127.44443,36.33316],[127.44457,36.33339],[127.4452,36.33406],[127.44568,36.33387],[127.44742,36.33316],[127.44767,36.33302],[127.44835,36.33258],[127.45158,36.33237]]]]}},{"type":"Feature","properties":{"code":"30110665","name":"성남동","parent":"30110"},"geometry":{"type":"MultiPolygon","coordinates":[[[[127.43761,36.33838],[127.4359,36.33844],[127.42923,36.34079],[127.4289,36.3411],[127.42778,36.34198],[127.42668,36.34254],[127.42664,36.34256],[127.42573,36.34287],[127.42533,36.343],[127.42321,36.34368],[127.42517,36.34357],[127.42722,36.34365],[127.42727,36.34367],[127.42745,36.34376],[127.42755,36.34382],[127.42849,36.34452],[127.42991,36.34572],[127.43134,36.34691],[127.43197,36.34744],[127.43756,36.34942],[127.43891,36.34375],[127.43917,36.34081],[127.43864,36.33912],[127.43861,36.33907],[127.43849,36.33897],[127.43761,36.33838]]]]}},{"type":"Feature","properties":{"code":"30110695","name":"삼성동","parent":"30110"},"geometry":{"type":"MultiPolygon","coordinates":[[[[127.4207,36.34446],[127.42321,36.34368],[127.42533,36.343],[127.42573,36.34287],[127.42664,36.34256],[127.42668,36.34254],[127.42778,36.34198],[127.4289,36.3411],[127.42923,36.34079],[127.4359,36.33844],[127.43761,36.33838],[127.43807,36.33774],[127.43611,36.33701],[127.43346,36.3363],[127.43289,36.33667],[127.43233,36.33662],[127.43167,36.33637],[127.43157,36.33632],[127.4311,36.33606],[127.42703,36.33367],[127.42545,36.33282],[127.42388,36.33426],[127.42233,36.33613],[127.42211,36.33649],[127.42198,36.33662],[127.42128,36.33729],[127.42024,36.33785],[127.41858,36.33864],[127.41751,36.339],[127.41702,36.33917],[127.41603,36.33955],[127.41569,36.33986],[127.41517,36.34033],[127.41436,36.34106],[127.41389,36.34148],[127.4136,36.34201],[127.41322,36.34268],[127.41277,36.34369],[127.41339,36.34385],[127.41366,36.34392],[127.4138,36.34394],[127.41672,36.34455],[127.41694,36.3446],[127.41762,36.34468],[127.4181,36.34469],[127.41822,36.34469],[127.41909,36.34467],[127.41973,36.34459],[127.4207,36.34446]]]]}}]}