{"type":"FeatureCollection","features":[{"type":"Feature","properties":{"code":"11305595","name":"번1동","parent":"11305"},"geometry":{"type":"MultiPolygon","coordinates":[[[[127.03644,37.63689],[127.03848,37.63391],[127.0379,37.63402],[127.03743,37.6341],[127.03729,37.63413],[127.03597,37.63447],[127.03586,37.6345],[127.03579,37.63452],[127.03575,37.63454],[127.0357,37.63457],[127.03563,37.63461],[127.0356,37.63462],[127.03483,37.63507],[127.03449,37.63527],[127.03429,37.63536],[127.03425,37.63537],[127.03405,37.6354],[127.03386,37.63541],[127.03382,37.63541],[127.03359,37.6354],[127.03175,37.63528],[127.03152,37.63527],[127.03128,37.63525],[127.02749,37.63496],[127.02325,37.63465],[127.02358,37.63609],[127.0253,37.63745],[127.03083,37.64286],[127.03125,37.64262],[127.0317,37.64235],[127.03179,37.64229],[127.03229,37.64194],[127.03267,37.64163],[127.03291,37.64132],[127.03294,37.64129],[127.03301,37.64116],[127.03315,37.64094],[127.0333,37.64063],[127.03355,37.6401],[127.03358,37.64003],[127.0336,37.63999],[127.03384,37.63939],[127.03389,37.63928],[127.03397,37.63908],[127.03402,37.63895],[127.03424,37.63845],[127.03427,37.63839],[127.0343,37.6383],[127.03436,37.63818],[127.0345,37.63785],[127.03463,37.63768],[127.03469,37.6376],[127.03496,37.63738],[127.0355,37.63714],[127.03553,37.63712],[127.0357,37.63708],[127.03588,37.63704],[127.03609,37.63699],[127.03644,37.63689]]]]}},{"type":"Feature","properties":{"code":"11305603","name":"번2동","parent":"11305"},"geometry":{"type":"MultiPolygon","coordinates":[[[[127.03848,37.63391],[127.04148,37.63128],[127.04197,37.63099],[127.04152,37.63059],[127.04062,37.62979],[127.0398,37.6291],[127.03938,37.62874],[127.03882,37.62828],[127.03847,37.628],[127.0369,37.62668],[127.03687,37.62665],[127.03682,37.62658],[127.03674,37.62643],[127.03673,37.62629],[127.03677,37.62619],[127.03678,37.62615],[127.03701,37.62557],[127.03748,37.62437],[127.0376,37.62378],[127.03763,37.6236],[127.03767,37.62332],[127.0376,37.62165],[127.03759,37.62152],[127.03758,37.6214],[127.03732,37.62078],[127.03683,37.61996],[127.03471,37.62093],[127.03458,37.62102],[127.03447,37.62109],[127.03383,37.62249],[127.03259,37.62551],[127.0326,37.62553],[127.03278,37.62592],[127.03279,37.62612],[127.03275,37.62632],[127.03241,37.62763],[127.03211,37.62801],[127.03185,37.62818],[127.03142,37.62859],[127.03132,37.6287],[127.0313,37.62873],[127.03002,37.63055],[127.02982,37.63085],[127.02976,37.63096],[127.02901,37.63305],[127.02757,37.6335],[127.02749,37.63496],[127.03128,37.63525],[127.03152,37.63527],[127.03175,37.63528],[127.03359,37.6354],[127.03382,37.63541],[127.03386,37.63541],[127.03405,37.6354],[127.03425,37.63537],[127.03429,37.63536],[127.03449,37.63527],[127.03483,37.63507],[127.0356,37.63462],[127.03563,37.63461],[127.0357,37.63457],[127.03575,37.63454],[127.03579,37.63452],[127.03586,37.6345],[127.03597,37.63447],[127.03729,37.63413],[127.03743,37.6341],[127.0379,37.63402],[127.03848,37.63391]]]]}},{"type":"Feature","properties":{"code":"11305608","name":"번3동","parent":"11305"},"geometry":{"type":"MultiPolygon","coordinates":[[[[127.04999,37.62443],[127.04792,37.62322],[127.04473,37.61955],[127.04468,37.61949],[127.04455,37.61934],[127.04396,37.61868],[127.04391,37.61864],[127.04304,37.618],[127.04231,37.61747],[127.04019,37.61595],[127.03912,37.61631],[127.0389,37.61638],[127.03874,37.61644],[127.03871,37.61647],[127.03865,37.61655],[127.03849,37.61741],[127.03849,37.61753],[127.03849,37.61761],[127.03851,37.61782],[127.03854,37.61796],[127.03858,37.61827],[127.03866,37.61856],[127.03871,37.61871],[127.03872,37.61875],[127.03885,37.6189],[127.0389,37.61904],[127.03879,37.61947],[127.03791,37.61975],[127.03683,37.61996],[127.03732,37.62078],[127.03758,37.6214],[127.03759,37.62152],[127.0376,37.62165],[127.03767,37.62332],[127.03763,37.6236],[127.0376,37.62378],[127.03748,37.62437],[127.03701,37.62557],[127.03678,37.62615],[127.03677,37.62619],[127.03673,37.62629],[127.03674,37.62643],[127.03682,37.62658],[127.03687,37.62665],[127.0369,37.62668],[127.03847,37.628],[127.03882,37.62828],[127.03938,37.62874],[127.0398,37.6291],[127.04062,37.62979],[127.04152,37.63059],[127.04197,37.63099],[127.04216,37.63088],[127.04289,37.63044],[127.04616,37.62809],[127.04824,37.62647],[127.04999,37.62443]]]]}},{"type":"Feature","properties":{"code":"11305615","name":"수유1동","parent":"11305"},"geometry":{"type":"MultiPolygon","coordinates":[[[[127.02259,37.63034],[127.02123,37.63012],[127.01776,37.6293],[127.01588,37.62746],[127.01009,37.62524],[127.00921,37.62504],[127.00822,37.62495],[127.00781,37.62503],[127.00766,37.62506],[127.00714,37.62511],[127.00647,37.62513],[127.00544,37.62487],[127.0045,37.62444],[127.0029,37.62537],[127.00236,37.6256],[127.00174,37.62571],[126.99894,37.62688],[126.99455,37.62983],[126.99433,37.62983],[126.99416,37.6299],[126.9941,37.62992],[126.99404,37.62999],[126.99334,37.63152],[126.99325,37.63183],[126.99319,37.63203],[126.99761,37.63205],[127.00037,37.6321],[127.0026,37.63228],[127.00307,37.63235],[127.00813,37.63301],[127.01092,37.63342],[127.01171,37.63356],[127.01203,37.63362],[127.01252,37.63368],[127.01315,37.63375],[127.01327,37.63377],[127.01459,37.6339],[127.01468,37.63391],[127.01504,37.63395],[127.01922,37.63435],[127.02073,37.63449],[127.02195,37.63457],[127.02253,37.63461],[127.02325,37.63465],[127.02343,37.63324],[127.02259,37.63034]]]]}},{"type":"Feature","properties":{"code":"11305625","name":"수유2동","parent":"11305"},"geometry":{"type":"MultiPolygon","coordinates":[[[[127.01562,37.6491],[127.01634,37.6489],[127.017,37.64873],[127.01745,37.64865],[127.01763,37.64863],[127.01779,37.64862],[127.01796,37.64861],[127.0182,37.64861],[127.01858,37.64867],[127.01879,37.64871],[127.01887,37.64872],[127.01893,37.64874],[127.01918,37.6488],[127.01971,37.64894],[127.01996,37.64901],[127.02023,37.64907],[127.02049,37.64908],[127.02056,37.64908],[127.02077,37.64906],[127.02084,37.64905],[127.02114,37.64902],[127.02131,37.64896],[127.02462,37.6474],[127.02478,37.64724],[127.02515,37.6466],[127.02412,37.64535],[127.02397,37.64438],[127.02395,37.64368],[127.02082,37.64142],[127.02054,37.64125],[127.02045,37.64122],[127.02021,37.64114],[127.01986,37.64108],[127.01981,37.64108],[127.01778,37.64088],[127.01691,37.64081],[127.01592,37.64431],[127.0139,37.64905],[127.01518,37.64911],[127.01562,37.6491]]]]}},{"type":"Feature","properties":{"code":"11305635","name":"수유3동","parent":"11305"},"geometry":{"type":"MultiPolygon","coordinates":[[[[127.03083,37.64286],[127.0253,37.63745],[127.02358,37.63609],[127.02289,37.63624],[127.02256,37.63627],[127.0224,37.63627],[127.0221,37.63628],[127.02178,37.63626],[127.02152,37.63621],[127.02148,37.6362],[127.02136,37.63617],[127.02111,37.6361],[127.0206,37.63595],[127.02056,37.63593],[127.01986,37.6357],[127.0198,37.63567],[127.01964,37.6356],[127.01952,37.63554],[127.01718,37.63726],[127.01691,37.64081],[127.01778,37.64088],[127.01981,37.64108],[127.01986,37.64108],[127.02021,37.64114],[127.02045,37.64122],[127.02054,37.64125],[127.02082,37.64142],[127.02395,37.64368],[127.02397,37.64438],[127.02412,37.64535],[127.02515,37.6466],[127.0255,37.64608],[127.02564,37.64589],[127.02566,37.64586],[127.02592,37.64572],[127.02609,37.64564],[127.02616,37.6456],[127.0266,37.64538],[127.02664,37.64536],[127.02708,37.64518],[127.02727,37.64512],[127.02791,37.64475],[127.02972,37.64364],[127.02977,37.64361],[127.02993,37.6435],[127.03013,37.64337],[127.03061,37.64305],[127.03083,37.64286]]]]}},{"type":"Feature","properties":{"code":"11305534","name":"삼양동","parent":"11305"},"geometry":{"type":"MultiPolygon","coordinates":[[[[127.02201,37.62518],[127.0184,37.62486],[127.01844,37.6246],[127.01847,37.62433],[127.01856,37.62404],[127.01858,37.62399],[127.01867,37.62375],[127.01883,37.62352],[127.02059,37.62099],[127.02109,37.61947],[127.02029,37.61971],[127.02004,37.61976],[127.01933,37.61987],[127.01921,37.61988],[127.01894,37.61991],[127.01883,37.61992],[127.01776,37.62001],[127.015,37.6202],[127.01489,37.62021],[127.01483,37.62021],[127.01468,37.62022],[127.0144,37.62023],[127.01339,37.62023],[127.00856,37.61856],[127.00849,37.61857],[127.00805,37.61937],[127.00751,37.62102],[127.00737,37.62244],[127.00741,37.62247],[127.00744,37.62251],[127.00748,37.62256],[127.00754,37.62265],[127.00765,37.6229],[127.00782,37.62332],[127.00788,37.62391],[127.00757,37.62403],[127.00644,37.62434],[127.0045,37.62444],[127.00544,37.62487],[127.00647,37.62513],[127.00714,37.62511],[127.00766,37.62506],[127.00781,37.62503],[127.00822,37.62495],[127.00921,37.62504],[127.01009,37.62524],[127.01588,37.62746],[127.01776,37.6293],[127.02123,37.63012],[127.02259,37.63034],[127.02086,37.62913],[127.02201,37.62518]]]]}},{"type":"Feature","properties":{"code":"11305535","name":"미아동","parent":"11305"},"geometry":{"type":"MultiPolygon","coordinates":[[[[127.03259,37.62551],[127.03235,37.62569],[127.02689,37.62446],[127.02586,37.62367],[127.02287,37.62295],[127.02251,37.62383],[127.02235,37.62422],[127.02207,37.625],[127.02201,37.62518],[127.02086,37.62913],[127.02259,37.63034],[127.02343,37.63324],[127.02325,37.63465],[127.02749,37.63496],[127.02757,37.6335],[127.02901,37.63305],[127.02976,37.63096],[127.02982,37.63085],[127.03002,37.63055],[127.0313,37.62873],[127.03132,37.6287],[127.03142,37.62859],[127.03185,37.62818],[127.03211,37.62801],[127.03241,37.62763],[127.03275,37.62632],[127.03279,37.62612],[127.03278,37.62592],[127.0326,37.62553],[127.03259,37.62551]]]]}},{"type":"Feature","properties":{"code":"11305545","name":"송중동","parent":"11305"},"geometry":{"type":"MultiPolygon","coordinates":[[[[127.03259,37.62551],[127.03383,37.62249],[127.03447,37.62109],[127.03458,37.62102],[127.03471,37.62093],[127.03683,37.61996],[127.03791,37.61975],[127.03879,37.61947],[127.0389,37.61904],[127.03885,37.6189],[127.03872,37.61875],[127.03871,37.61871],[127.03866,37.61856],[127.03858,37.61827],[127.03854,37.61796],[127.03851,37.61782],[127.03849,37.61761],[127.03849,37.61753],[127.03849,37.61741],[127.03865,37.61655],[127.03871,37.61647],[127.03874,37.61644],[127.0389,37.61638],[127.03912,37.61631],[127.0371,37.61271],[127.03041,37.60914],[127.02998,37.61234],[127.02995,37.61487],[127.02988,37.61617],[127.02984,37.61684],[127.02981,37.61712],[127.02893,37.61934],[127.02689,37.62446],[127.03235,37.62569],[127.03259,37.62551]]]]}},{"type":"Feature","properties":{"code":"11305555","name":"송천동","parent":"11305"},"geometry":{"type":"MultiPolygon","coordinates":[[[[127.02689,37.62446],[127.02893,37.61934],[127.02981,37.61712],[127.02984,37.61684],[127.02988,37.61617],[127.02995,37.61487],[127.02998,37.61234],[127.02722,37.61256],[127.02223,37.61127],[127.02203,37.61229],[127.02221,37.6145],[127.02222,37.61532],[127.0222,37.61553],[127.0221,37.6159],[127.02188,37.61672],[127.02181,37.61696],[127.02109,37.61947],[127.02059,37.62099],[127.01883,37.62352],[127.01867,37.62375],[127.01858,37.62399],[127.01856,37.62404],[127.01847,37.62433],[127.01844,37.6246],[127.0184,37.62486],[127.02201,37.62518],[127.02207,37.625],[127.02235,37.62422],[127.02251,37.62383],[127.02287,37.62295],[127.02586,37.62367],[127.02689,37.62446]]]]}},{"type":"Feature","properties":{"code":"11305575","name":"삼각산동","parent":"11305"},"geometry":{"type":"MultiPolygon","coordinates":[[[[127.02109,37.61947],[127.02181,37.61696],[127.02188,37.61672],[127.0221,37.6159],[127.0222,37.61553],[127.02222,37.61532],[127.02221,37.6145],[127.02203,37.61229],[127.02067,37.6125],[127.02061,37.61252],[127.02048,37.61255],[127.02038,37.61262],[127.01979,37.61326],[127.01926,37.61375],[127.01764,37.61457],[127.01631,37.61496],[127.01525,37.61481],[127.01494,37.61542],[127.01475,37.61559],[127.01147,37.61642],[127.00944,37.61817],[127.00856,37.61856],[127.01339,37.62023],[127.0144,37.62023],[127.01468,37.62022],[127.01483,37.62021],[127.01489,37.62021],[127.015,37.6202],[127.01776,37.62001],[127.01883,37.61992],[127.01894,37.61991],[127.01921,37.61988],[127.01933,37.61987],[127.02004,37.61976],[127.02029,37.61971],[127.02109,37.61947]]]]}},{"type":"Feature","properties":{"code":"11305645","name":"우이동","parent":"11305"},"geometry":{"type":"MultiPolygon","coordinates":[[[[127.00829,37.68468],[127.00841,37.6813],[127.01036,37.67954],[127.01045,37.67954],[127.01049,37.67954],[127.01056,37.67953],[127.01074,37.67951],[127.01195,37.67931],[127.01198,37.67929],[127.01202,37.67925],[127.01277,37.67807],[127.01322,37.67724],[127.01342,37.67645],[127.01387,37.67537],[127.01412,37.67502],[127.01458,37.6744],[127.01482,37.67424],[127.01574,37.67345],[127.01663,37.67267],[127.01732,37.67183],[127.01739,37.67174],[127.01844,37.67008],[127.01852,37.66996],[127.01847,37.66964],[127.01844,37.6694],[127.01816,37.66878],[127.01763,37.66828],[127.01693,37.6679],[127.01655,37.66755],[127.01583,37.66686],[127.01566,37.6667],[127.01552,37.66634],[127.01545,37.66616],[127.01541,37.66584],[127.01544,37.66376],[127.01545,37.66348],[127.01634,37.66158],[127.01585,37.66144],[127.01516,37.66159],[127.01463,37.66089],[127.01428,37.65989],[127.01379,37.65848],[127.01266,37.65331],[127.01256,37.65275],[127.01255,37.65246],[127.01256,37.65222],[127.01264,37.65185],[127.01269,37.65163],[127.0129,37.65118],[127.01291,37.65115],[127.01324,37.65044],[127.0152,37.64931],[127.01529,37.64926],[127.01538,37.64921],[127.01562,37.6491],[127.01518,37.64911],[127.0139,37.64905],[127.01592,37.64431],[127.01066,37.64503],[127.00734,37.64499],[127.00627,37.64478],[127.00457,37.64436],[127.00429,37.64417],[127.00407,37.64402],[127.00362,37.64369],[127.00346,37.64357],[127.0032,37.64338],[127.00188,37.6421],[127.00056,37.64071],[126.99823,37.63957],[126.99696,37.63897],[126.99673,37.63889],[126.99651,37.63885],[126.99486,37.63871],[126.99151,37.63872],[126.98926,37.63946],[126.98842,37.63978],[126.98637,37.64065],[126.98589,37.64057],[126.98426,37.64177],[126.98411,37.64191],[126.98404,37.64199],[126.98398,37.64206],[126.98392,37.64213],[126.98388,37.64217],[126.98327,37.6436],[126.98325,37.64365],[126.98324,37.6437],[126.98332,37.6438],[126.98345,37.64394],[126.98362,37.64404],[126.98376,37.64412],[126.9842,37.64447],[126.98478,37.64551],[126.98494,37.64582],[126.98496,37.6459],[126.98496,37.64599],[126.98464,37.64746],[126.98462,37.64755],[126.9837,37.64978],[126.98363,37.64991],[126.98351,37.65003],[126.98224,37.6513],[126.9821,37.65143],[126.98099,37.6529],[126.9797,37.65479],[126.97964,37.65488],[126.97945,37.65574],[126.97945,37.65583],[126.97955,37.65603],[126.97957,37.65608],[126.97965,37.65622],[126.97978,37.65642],[126.97995,37.65658],[126.98129,37.65742],[126.98142,37.65749],[126.98169,37.65753],[126.98307,37.65811],[126.98464,37.65906],[126.98485,37.6592],[126.985,37.6593],[126.98618,37.66066],[126.98641,37.66098],[126.98664,37.66141],[126.98802,37.66334],[126.98937,37.6638],[126.98984,37.6639],[126.99243,37.66483],[126.99284,37.66502],[126.99416,37.66628],[126.99426,37.66648],[126.99355,37.67324],[126.99299,37.67742],[126.99296,37.67761],[126.99276,37.67841],[126.99257,37.67878],[126.99174,37.67947],[126.99307,37.67989],[126.9938,37.68025],[126.99385,37.68028],[126.99581,37.68193],[126.99714,37.68306],[126.99735,37.68328],[126.99754,37.68346],[126.99766,37.68358],[126.99774,37.68365],[126.99791,37.68379],[126.99799,37.68382],[127.00364,37.6851],[127.00386,37.68514],[127.00419,37.68517],[127.00565,37.68523],[127.00575,37.68523],[127.00586,37.68522],[127.00615,37.68515],[127.00636,37.6851],[127.00657,37.68505],[127.00666,37.68503],[127.00829,37.68468]]]]}},{"type":"Feature","properties":{"code":"11305660","name":"인수동","parent":"11305"},"geometry":{"type":"MultiPolygon","coordinates":[[[[127.01592,37.64431],[127.01691,37.64081],[127.01718,37.63726],[127.01952,37.63554],[127.01964,37.6356],[127.0198,37.63567],[127.01986,37.6357],[127.02056,37.63593],[127.0206,37.63595],[127.02111,37.6361],[127.02136,37.63617],[127.02148,37.6362],[127.02152,37.63621],[127.02178,37.63626],[127.0221,37.63628],[127.0224,37.63627],[127.02256,37.63627],[127.02289,37.63624],[127.02358,37.63609],[127.02325,37.63465],[127.02253,37.63461],[127.02195,37.63457],[127.02073,37.63449],[127.01922,37.63435],[127.01504,37.63395],[127.01468,37.63391],[127.01459,37.6339],[127.01327,37.63377],[127.01315,37.63375],[127.01252,37.63368],[127.01203,37.63362],[127.01171,37.63356],[127.01092,37.63342],[127.00813,37.63301],[127.00307,37.63235],[127.0026,37.63228],[127.00037,37.6321],[126.99761,37.63205],[126.99319,37.63203],[126.99182,37.63231],[126.98606,37.6352],[126.9856,37.63544],[126.98522,37.63586],[126.98495,37.63617],[126.98463,37.63656],[126.98637,37.64065],[126.98842,37.63978],[126.98926,37.63946],[126.99151,37.63872],[126.99486,37.63871],[126.99651,37.63885],[126.99673,37.63889],[126.99696,37.63897],[126.99823,37.63957],[127.00056,37.64071],[127.00188,37.6421],[127.0032,37.64338],[127.00346,37.64357],[127.00362,37.64369],[127.00407,37.64402],[127.00429,37.64417],[127.00457,37.64436],[127.00627,37.64478],[127.00734,37.64499],[127.01066,37.64503],[127.01592,37.64431]]]]}}]}