{"type":"FeatureCollection","features":[{"type":"Feature","properties":{"code":"11500510","name":"염창동","parent":"11500"},"geometry":{"type":"MultiPolygon","coordinates":[[[[126.87203,37.56004],[126.88038,37.55618],[126.87932,37.55483],[126.8792,37.5532],[126.87799,37.55343],[126.87814,37.55155],[126.88071,37.54787],[126.87988,37.54767],[126.8794,37.54755],[126.87849,37.54731],[126.87814,37.54721],[126.87789,37.54718],[126.87781,37.54717],[126.87772,37.54715],[126.87737,37.54711],[126.87685,37.54706],[126.87501,37.54696],[126.87495,37.54695],[126.87489,37.54695],[126.87462,37.54694],[126.87402,37.54693],[126.87347,37.54697],[126.873,37.54702],[126.87242,37.54711],[126.87206,37.54721],[126.87177,37.54729],[126.87116,37.54749],[126.8707,37.54765],[126.86498,37.55093],[126.86508,37.55106],[126.86617,37.55256],[126.86621,37.55261],[126.86645,37.55295],[126.86732,37.5542],[126.86451,37.55607],[126.86431,37.55618],[126.86408,37.55631],[126.86304,37.55688],[126.8656,37.55909],[126.86721,37.55971],[126.86738,37.55978],[126.86741,37.55981],[126.86743,37.55984],[126.86772,37.56033],[126.862,37.56335],[126.86306,37.565],[126.87203,37.56004]]]]}},{"type":"Feature","properties":{"code":"11500520","name":"등촌1동","parent":"11500"},"geometry":{"type":"MultiPolygon","coordinates":[[[[126.86304,37.55688],[126.86408,37.55631],[126.86431,37.55618],[126.86451,37.55607],[126.86732,37.5542],[126.86645,37.55295],[126.86621,37.55261],[126.86617,37.55256],[126.86508,37.55106],[126.86498,37.55093],[126.86428,37.55139],[126.85771,37.55407],[126.85231,37.55589],[126.85518,37.56107],[126.86304,37.55688]]]]}},{"type":"Feature","properties":{"code":"11500530","name":"등촌2동","parent":"11500"},"geometry":{"type":"MultiPolygon","coordinates":[[[[126.86428,37.55139],[126.86293,37.54702],[126.86254,37.54585],[126.86243,37.54543],[126.86219,37.54456],[126.86217,37.54448],[126.86216,37.54414],[126.86229,37.54374],[126.86233,37.54364],[126.86234,37.5436],[126.86294,37.54247],[126.86367,37.53928],[126.86349,37.5356],[126.86275,37.53556],[126.86188,37.53552],[126.86098,37.53714],[126.8607,37.53858],[126.86067,37.53877],[126.86063,37.5391],[126.86062,37.53987],[126.86064,37.54037],[126.86061,37.54077],[126.86048,37.54156],[126.85971,37.54195],[126.85798,37.54241],[126.85749,37.54222],[126.85594,37.5427],[126.85564,37.54276],[126.85509,37.54311],[126.85456,37.54345],[126.85455,37.54349],[126.85452,37.54357],[126.85455,37.54388],[126.85483,37.54419],[126.8549,37.5446],[126.8549,37.54502],[126.85483,37.5461],[126.85581,37.547],[126.85612,37.54736],[126.85655,37.54815],[126.85671,37.54846],[126.85706,37.54923],[126.85704,37.54927],[126.857,37.54936],[126.85683,37.54978],[126.85741,37.55086],[126.85798,37.55144],[126.85771,37.55407],[126.86428,37.55139]]]]}},{"type":"Feature","properties":{"code":"11500535","name":"등촌3동","parent":"11500"},"geometry":{"type":"MultiPolygon","coordinates":[[[[126.84883,37.5644],[126.85518,37.56107],[126.85231,37.55589],[126.84572,37.55782],[126.83822,37.55857],[126.83857,37.55961],[126.83859,37.55966],[126.83878,37.56023],[126.83935,37.56198],[126.83936,37.562],[126.83984,37.56349],[126.84081,37.56661],[126.84087,37.56684],[126.84095,37.56716],[126.84592,37.56473],[126.84883,37.5644]]]]}},{"type":"Feature","properties":{"code":"11500590","name":"화곡본동","parent":"11500"},"geometry":{"type":"MultiPolygon","coordinates":[[[[126.85483,37.5461],[126.8549,37.54502],[126.8549,37.5446],[126.85483,37.54419],[126.85455,37.54388],[126.85452,37.54357],[126.85455,37.54349],[126.85456,37.54345],[126.85509,37.54311],[126.85564,37.54276],[126.85594,37.5427],[126.85592,37.54233],[126.85582,37.5422],[126.85571,37.54206],[126.85545,37.54182],[126.85406,37.54091],[126.85269,37.54031],[126.85247,37.54023],[126.85226,37.54011],[126.85222,37.53986],[126.85221,37.53982],[126.85221,37.53954],[126.85238,37.53814],[126.85339,37.53679],[126.85175,37.53663],[126.8521,37.5385],[126.85202,37.53871],[126.85156,37.53899],[126.84771,37.5389],[126.84722,37.53878],[126.84587,37.53827],[126.84494,37.53774],[126.84369,37.53669],[126.84044,37.54162],[126.84113,37.54191],[126.84141,37.54204],[126.84189,37.54229],[126.84195,37.54234],[126.84205,37.54241],[126.84222,37.54254],[126.84246,37.54278],[126.84272,37.54305],[126.84293,37.54326],[126.84295,37.54329],[126.84311,37.54345],[126.84316,37.54352],[126.84322,37.54358],[126.8438,37.54429],[126.84382,37.54432],[126.84446,37.54519],[126.84707,37.54886],[126.84786,37.54893],[126.84913,37.5483],[126.8492,37.54802],[126.84926,37.54776],[126.85196,37.5457],[126.8527,37.54549],[126.85286,37.54546],[126.85331,37.5454],[126.85358,37.54538],[126.85483,37.5461]]]]}},{"type":"Feature","properties":{"code":"11500550","name":"화곡2동","parent":"11500"},"geometry":{"type":"MultiPolygon","coordinates":[[[[126.85849,37.52911],[126.85196,37.52828],[126.85179,37.52909],[126.8517,37.52952],[126.85143,37.53089],[126.85142,37.53096],[126.8514,37.53119],[126.85137,37.53147],[126.85109,37.53558],[126.85153,37.53627],[126.85175,37.53663],[126.85339,37.53679],[126.8547,37.53629],[126.85763,37.53342],[126.85849,37.52911]]]]}},{"type":"Feature","properties":{"code":"11500560","name":"화곡3동","parent":"11500"},"geometry":{"type":"MultiPolygon","coordinates":[[[[126.8363,37.54797],[126.83639,37.54672],[126.8365,37.54624],[126.83657,37.54597],[126.8368,37.54551],[126.83696,37.54526],[126.83712,37.54503],[126.83715,37.545],[126.83764,37.54454],[126.83788,37.54429],[126.8404,37.54166],[126.83378,37.53987],[126.83349,37.5408],[126.83333,37.54129],[126.83328,37.54143],[126.83314,37.54184],[126.83143,37.54178],[126.83069,37.54176],[126.83045,37.54175],[126.83008,37.54172],[126.83005,37.54243],[126.83022,37.54268],[126.82974,37.54407],[126.83035,37.54577],[126.82974,37.54767],[126.83075,37.54787],[126.83103,37.54747],[126.83305,37.54741],[126.83333,37.54798],[126.83445,37.54797],[126.8347,37.54797],[126.8363,37.54797]]]]}},{"type":"Feature","properties":{"code":"11500570","name":"화곡4동","parent":"11500"},"geometry":{"type":"MultiPolygon","coordinates":[[[[126.86349,37.5356],[126.86401,37.5298],[126.85849,37.52911],[126.85763,37.53342],[126.8547,37.53629],[126.85339,37.53679],[126.85238,37.53814],[126.85221,37.53954],[126.85221,37.53982],[126.85222,37.53986],[126.85226,37.54011],[126.85247,37.54023],[126.85269,37.54031],[126.85406,37.54091],[126.85545,37.54182],[126.85571,37.54206],[126.85582,37.5422],[126.85592,37.54233],[126.85594,37.5427],[126.85749,37.54222],[126.85798,37.54241],[126.85971,37.54195],[126.86048,37.54156],[126.86061,37.54077],[126.86064,37.54037],[126.86062,37.53987],[126.86063,37.5391],[126.86067,37.53877],[126.8607,37.53858],[126.86098,37.53714],[126.86188,37.53552],[126.86275,37.53556],[126.86349,37.5356]]]]}},{"type":"Feature","properties":{"code":"11500591","name":"화곡6동","parent":"11500"},"geometry":{"type":"MultiPolygon","coordinates":[[[[126.85231,37.55589],[126.85771,37.55407],[126.85798,37.55144],[126.85741,37.55086],[126.85683,37.54978],[126.857,37.54936],[126.85704,37.54927],[126.85706,37.54923],[126.85671,37.54846],[126.85655,37.54815],[126.85612,37.54736],[126.85581,37.547],[126.85483,37.5461],[126.85358,37.54538],[126.85331,37.5454],[126.85286,37.54546],[126.8527,37.54549],[126.85196,37.5457],[126.84926,37.54776],[126.8492,37.54802],[126.84913,37.5483],[126.84786,37.54893],[126.84707,37.54886],[126.84636,37.5492],[126.84441,37.55176],[126.84428,37.55203],[126.84424,37.55227],[126.84423,37.55231],[126.8443,37.55297],[126.8456,37.55608],[126.84572,37.55782],[126.85231,37.55589]]]]}},{"type":"Feature","properties":{"code":"11500593","name":"화곡8동","parent":"11500"},"geometry":{"type":"MultiPolygon","coordinates":[[[[126.85175,37.53663],[126.85153,37.53627],[126.85109,37.53558],[126.85137,37.53147],[126.8514,37.53119],[126.85142,37.53096],[126.85143,37.53089],[126.8517,37.52952],[126.85179,37.52909],[126.85196,37.52828],[126.8489,37.5279],[126.84853,37.52851],[126.84731,37.53075],[126.84725,37.53087],[126.84737,37.53092],[126.84687,37.53182],[126.84677,37.53199],[126.84644,37.53253],[126.84606,37.53309],[126.84584,37.53321],[126.84369,37.53669],[126.84494,37.53774],[126.84587,37.53827],[126.84722,37.53878],[126.84771,37.5389],[126.85156,37.53899],[126.85202,37.53871],[126.8521,37.5385],[126.85175,37.53663]]]]}},{"type":"Feature","properties":{"code":"11500603","name":"가양1동","parent":"11500"},"geometry":{"type":"MultiPolygon","coordinates":[[[[126.85163,37.57326],[126.84952,37.57096],[126.84887,37.57018],[126.84848,37.5697],[126.84814,37.56927],[126.84969,37.5683],[126.85085,37.5673],[126.84941,37.56519],[126.84883,37.5644],[126.84592,37.56473],[126.84095,37.56716],[126.84087,37.56684],[126.84081,37.56661],[126.83984,37.56349],[126.83936,37.562],[126.83935,37.56198],[126.83878,37.56023],[126.83859,37.55966],[126.83857,37.55961],[126.83822,37.55857],[126.82696,37.5597],[126.82722,37.56184],[126.8278,37.56663],[126.8242,37.56693],[126.82316,37.56702],[126.823,37.56738],[126.82261,37.56852],[126.82259,37.56864],[126.82259,37.56874],[126.82259,37.56878],[126.82259,37.56883],[126.82261,37.5689],[126.82264,37.56899],[126.82265,37.56904],[126.82276,37.56963],[126.8227,37.57068],[126.8224,37.5727],[126.82236,37.57283],[126.82229,37.57308],[126.82208,37.57328],[126.82104,37.574],[126.82085,37.57528],[126.82128,37.57714],[126.82323,37.57909],[126.82419,37.57973],[126.8249,37.57994],[126.82594,37.58141],[126.82724,37.58258],[126.82883,37.58404],[126.83209,37.58577],[126.85163,37.57326]]]]}},{"type":"Feature","properties":{"code":"11500604","name":"가양2동","parent":"11500"},"geometry":{"type":"MultiPolygon","coordinates":[[[[126.85356,37.57181],[126.85517,37.56998],[126.8595,37.56733],[126.85732,37.56461],[126.85627,37.56287],[126.85615,37.56268],[126.85545,37.56153],[126.85518,37.56107],[126.84883,37.5644],[126.84941,37.56519],[126.85085,37.5673],[126.84969,37.5683],[126.84814,37.56927],[126.84848,37.5697],[126.84887,37.57018],[126.84952,37.57096],[126.85163,37.57326],[126.85356,37.57181]]]]}},{"type":"Feature","properties":{"code":"11500605","name":"가양3동","parent":"11500"},"geometry":{"type":"MultiPolygon","coordinates":[[[[126.86306,37.565],[126.862,37.56335],[126.86772,37.56033],[126.86743,37.55984],[126.86741,37.55981],[126.86738,37.55978],[126.86721,37.55971],[126.8656,37.55909],[126.86304,37.55688],[126.85518,37.56107],[126.85545,37.56153],[126.85615,37.56268],[126.85627,37.56287],[126.85732,37.56461],[126.8595,37.56733],[126.86306,37.565]]]]}},{"type":"Feature","properties":{"code":"11500611","name":"발산1동","parent":"11500"},"geometry":{"type":"MultiPolygon","coordinates":[[[[126.82696,37.5597],[126.83822,37.55857],[126.83636,37.55265],[126.83634,37.5526],[126.83632,37.548],[126.8363,37.54797],[126.8347,37.54797],[126.83445,37.54797],[126.83333,37.54798],[126.83305,37.54741],[126.83103,37.54747],[126.83075,37.54787],[126.82974,37.54767],[126.8276,37.54768],[126.82755,37.54706],[126.82713,37.54639],[126.8268,37.54578],[126.82593,37.5447],[126.82573,37.54394],[126.826,37.54322],[126.82613,37.54281],[126.82525,37.54215],[126.82541,37.54165],[126.82443,37.54138],[126.82215,37.54068],[126.81942,37.54078],[126.81662,37.54057],[126.81466,37.54064],[126.81236,37.54071],[126.81331,37.54177],[126.81335,37.54328],[126.81443,37.54364],[126.81525,37.54456],[126.81537,37.54562],[126.81348,37.54743],[126.81426,37.54826],[126.8127,37.54962],[126.8161,37.55216],[126.81704,37.55298],[126.81778,37.55334],[126.8192,37.55439],[126.82162,37.5562],[126.82276,37.55707],[126.82315,37.55741],[126.82341,37.55801],[126.82357,37.55915],[126.8236,37.55933],[126.82358,37.55944],[126.82353,37.55972],[126.82351,37.55981],[126.82347,37.56003],[126.82346,37.56006],[126.82696,37.5597]]]]}},{"type":"Feature","properties":{"code":"11500620","name":"공항동","parent":"11500"},"geometry":{"type":"MultiPolygon","coordinates":[[[[126.81104,37.56406],[126.81118,37.56395],[126.81124,37.56392],[126.81236,37.56397],[126.81368,37.56436],[126.81645,37.56462],[126.81651,37.56461],[126.81651,37.56451],[126.81652,37.56309],[126.82129,37.56246],[126.82722,37.56184],[126.82696,37.5597],[126.82346,37.56006],[126.82347,37.56003],[126.82351,37.55981],[126.82353,37.55972],[126.82358,37.55944],[126.8236,37.55933],[126.82357,37.55915],[126.82341,37.55801],[126.82315,37.55741],[126.82276,37.55707],[126.82162,37.5562],[126.8192,37.55439],[126.81778,37.55334],[126.81704,37.55298],[126.8161,37.55216],[126.8127,37.54962],[126.81426,37.54826],[126.81348,37.54743],[126.81537,37.54562],[126.81525,37.54456],[126.81443,37.54364],[126.81335,37.54328],[126.81331,37.54177],[126.81236,37.54071],[126.81038,37.54161],[126.80732,37.54362],[126.80543,37.54339],[126.80285,37.54308],[126.80161,37.54246],[126.80039,37.5417],[126.80083,37.54088],[126.79898,37.54027],[126.79875,37.53945],[126.79924,37.53929],[126.79949,37.53786],[126.79907,37.53751],[126.79838,37.53763],[126.79788,37.53703],[126.79607,37.53673],[126.7944,37.53583],[126.794,37.53686],[126.79419,37.53824],[126.79332,37.53973],[126.7943,37.5401],[126.79475,37.54152],[126.79204,37.54181],[126.79175,37.54375],[126.78738,37.54586],[126.78465,37.54629],[126.78186,37.54614],[126.7812,37.54614],[126.78033,37.54616],[126.7799,37.54625],[126.77759,37.54658],[126.77681,37.54822],[126.77535,37.54907],[126.77262,37.5487],[126.77174,37.54831],[126.77007,37.55098],[126.76832,37.55157],[126.76755,37.55196],[126.76777,37.55325],[126.7662,37.55413],[126.76634,37.55493],[126.76469,37.55537],[126.7666,37.55667],[126.77031,37.55719],[126.77208,37.557],[126.77311,37.5575],[126.77201,37.5588],[126.77563,37.5618],[126.77792,37.56011],[126.777,37.56398],[126.77501,37.56601],[126.7748,37.56753],[126.77563,37.56816],[126.77696,37.56634],[126.78053,37.56833],[126.7825,37.57023],[126.78197,37.57169],[126.7819,37.57185],[126.78257,37.57335],[126.78262,37.57342],[126.7827,37.57356],[126.78289,37.5737],[126.78458,37.57467],[126.78757,37.5756],[126.7991,37.56846],[126.79771,37.56454],[126.79965,37.56232],[126.80277,37.56219],[126.80767,37.56171],[126.80912,37.56255],[126.81019,37.56337],[126.81042,37.56355],[126.81104,37.56406]]]]}},{"type":"Feature","properties":{"code":"11500630","name":"방화1동","parent":"11500"},"geometry":{"type":"MultiPolygon","coordinates":[[[[126.82208,37.57328],[126.82229,37.57308],[126.82236,37.57283],[126.8224,37.5727],[126.8227,37.57068],[126.82276,37.56963],[126.82265,37.56904],[126.82264,37.56899],[126.82261,37.5689],[126.82259,37.56883],[126.82259,37.56878],[126.82259,37.56874],[126.82259,37.56864],[126.82261,37.56852],[126.823,37.56738],[126.82316,37.56702],[126.8242,37.56693],[126.8278,37.56663],[126.82722,37.56184],[126.82129,37.56246],[126.81652,37.56309],[126.81651,37.56451],[126.81651,37.56461],[126.81645,37.56462],[126.81368,37.56436],[126.81236,37.56397],[126.81124,37.56392],[126.81118,37.56395],[126.81104,37.56406],[126.81231,37.56585],[126.81248,37.56617],[126.81251,37.56623],[126.81259,37.56647],[126.81261,37.56653],[126.81275,37.56721],[126.81282,37.56813],[126.8128,37.56983],[126.8128,37.56996],[126.81274,37.57011],[126.81267,37.57028],[126.81245,37.57069],[126.8119,37.57151],[126.8115,37.57209],[126.81125,37.57246],[126.81091,37.57295],[126.81067,37.57329],[126.80997,37.57316],[126.80979,37.57313],[126.80973,37.57312],[126.80936,37.57305],[126.80884,37.57296],[126.80868,37.57294],[126.80799,37.57284],[126.8074,37.57275],[126.80648,37.57262],[126.80635,37.57261],[126.80583,37.57257],[126.80578,37.57257],[126.80417,37.57257],[126.80362,37.57258],[126.80336,37.5734],[126.80394,37.57408],[126.80414,37.57403],[126.80514,37.57402],[126.80734,37.57427],[126.80739,37.57441],[126.80753,37.57482],[126.80754,37.57487],[126.80859,37.57529],[126.80868,37.57529],[126.80934,37.57527],[126.81001,37.57525],[126.8101,37.57525],[126.81311,37.57516],[126.81389,37.57514],[126.81402,37.57514],[126.81421,37.57513],[126.81551,37.57508],[126.81558,37.57508],[126.81578,37.57507],[126.81655,37.57502],[126.81655,37.57492],[126.81654,37.57428],[126.81651,37.57398],[126.81651,37.57338],[126.81677,37.57337],[126.81686,37.57337],[126.81956,37.57332],[126.82094,37.5733],[126.82208,37.57328]]]]}},{"type":"Feature","properties":{"code":"11500640","name":"방화2동","parent":"11500"},"geometry":{"type":"MultiPolygon","coordinates":[[[[126.80494,37.60402],[126.8055,37.60369],[126.80664,37.60279],[126.80689,37.60258],[126.80719,37.60231],[126.80987,37.59995],[126.81001,37.59982],[126.81013,37.59972],[126.811,37.59894],[126.81128,37.59868],[126.81408,37.59759],[126.81641,37.59564],[126.81759,37.59529],[126.81858,37.59359],[126.8142,37.58696],[126.81455,37.58673],[126.81405,37.58619],[126.81492,37.58584],[126.81495,37.58536],[126.8147,37.584],[126.81422,37.58251],[126.81369,37.5834],[126.81292,37.58376],[126.81198,37.58289],[126.81064,37.58347],[126.80904,37.58363],[126.80834,37.58304],[126.80782,37.58228],[126.80635,37.58198],[126.80643,37.58121],[126.80619,37.58062],[126.80548,37.57953],[126.80621,37.57948],[126.80591,37.57786],[126.80511,37.57711],[126.80401,37.57449],[126.80394,37.57408],[126.80336,37.5734],[126.80362,37.57258],[126.80417,37.57257],[126.80578,37.57257],[126.80583,37.57257],[126.80635,37.57261],[126.80648,37.57262],[126.8074,37.57275],[126.80799,37.57284],[126.80868,37.57294],[126.80884,37.57296],[126.80936,37.57305],[126.80973,37.57312],[126.80979,37.57313],[126.80997,37.57316],[126.81067,37.57329],[126.81091,37.57295],[126.81125,37.57246],[126.8115,37.57209],[126.8119,37.57151],[126.81245,37.57069],[126.81267,37.57028],[126.81274,37.57011],[126.8128,37.56996],[126.8128,37.56983],[126.81282,37.56813],[126.81275,37.56721],[126.81261,37.56653],[126.81259,37.56647],[126.81251,37.56623],[126.81248,37.56617],[126.81231,37.56585],[126.81104,37.56406],[126.81042,37.56355],[126.81019,37.56337],[126.80912,37.56255],[126.80767,37.56171],[126.80277,37.56219],[126.79965,37.56232],[126.79771,37.56454],[126.7991,37.56846],[126.78757,37.5756],[126.79006,37.57757],[126.79052,37.58031],[126.79174,37.58114],[126.79299,37.57974],[126.7937,37.58154],[126.79367,37.5816],[126.79482,37.58331],[126.79572,37.58312],[126.79591,37.58316],[126.79595,37.58318],[126.79626,37.58345],[126.7969,37.58402],[126.79703,37.58418],[126.79736,37.58558],[126.79834,37.58779],[126.79869,37.5881],[126.79883,37.58822],[126.79964,37.58802],[126.80068,37.5879],[126.80079,37.588],[126.80088,37.58875],[126.80082,37.58897],[126.80081,37.58901],[126.80062,37.58927],[126.79906,37.59211],[126.79758,37.59576],[126.79753,37.59587],[126.79725,37.59659],[126.79711,37.59728],[126.79707,37.59788],[126.79706,37.59793],[126.79702,37.59849],[126.7971,37.59891],[126.79714,37.59904],[126.79723,37.59934],[126.79747,37.59999],[126.79761,37.60026],[126.79792,37.60075],[126.80035,37.60382],[126.8006,37.6041],[126.80093,37.60434],[126.80128,37.6045],[126.80185,37.60465],[126.80222,37.60466],[126.80237,37.60465],[126.80289,37.60462],[126.80351,37.60451],[126.80397,37.60441],[126.80432,37.60429],[126.80494,37.60402]]]]}},{"type":"Feature","properties":{"code":"11500641","name":"방화3동","parent":"11500"},"geometry":{"type":"MultiPolygon","coordinates":[[[[126.82682,37.58799],[126.83209,37.58577],[126.82883,37.58404],[126.82724,37.58258],[126.82594,37.58141],[126.8249,37.57994],[126.82419,37.57973],[126.82323,37.57909],[126.82128,37.57714],[126.82085,37.57528],[126.82104,37.574],[126.82208,37.57328],[126.82094,37.5733],[126.81956,37.57332],[126.81686,37.57337],[126.81677,37.57337],[126.81651,37.57338],[126.81651,37.57398],[126.81654,37.57428],[126.81655,37.57492],[126.81655,37.57502],[126.81578,37.57507],[126.81558,37.57508],[126.81551,37.57508],[126.81421,37.57513],[126.81402,37.57514],[126.81389,37.57514],[126.81311,37.57516],[126.8101,37.57525],[126.81001,37.57525],[126.80934,37.57527],[126.80868,37.57529],[126.80859,37.57529],[126.80754,37.57487],[126.80753,37.57482],[126.80739,37.57441],[126.80734,37.57427],[126.80514,37.57402],[126.80414,37.57403],[126.80394,37.57408],[126.80401,37.57449],[126.80511,37.57711],[126.80591,37.57786],[126.80621,37.57948],[126.80548,37.57953],[126.80619,37.58062],[126.80643,37.58121],[126.80635,37.58198],[126.80782,37.58228],[126.80834,37.58304],[126.80904,37.58363],[126.81064,37.58347],[126.81198,37.58289],[126.81292,37.58376],[126.81369,37.5834],[126.81422,37.58251],[126.8147,37.584],[126.81495,37.58536],[126.81492,37.58584],[126.81405,37.58619],[126.81455,37.58673],[126.8142,37.58696],[126.81858,37.59359],[126.82326,37.59033],[126.82453,37.5894],[126.82682,37.58799]]]]}},{"type":"Feature","properties":{"code":"11500540","name":"화곡1동","parent":"11500"},"geometry":{"type":"MultiPolygon","coordinates":[[[[126.84044,37.54162],[126.84369,37.53669],[126.84584,37.53321],[126.84606,37.53309],[126.84644,37.53253],[126.84677,37.53199],[126.84687,37.53182],[126.84737,37.53092],[126.84725,37.53087],[126.84731,37.53075],[126.84853,37.52851],[126.8489,37.5279],[126.84049,37.52654],[126.83473,37.53603],[126.83517,37.53691],[126.83378,37.53987],[126.8404,37.54166],[126.84044,37.54162]]]]}},{"type":"Feature","properties":{"code":"11500615","name":"우장산동","parent":"11500"},"geometry":{"type":"MultiPolygon","coordinates":[[[[126.84572,37.55782],[126.8456,37.55608],[126.8443,37.55297],[126.84423,37.55231],[126.84424,37.55227],[126.84428,37.55203],[126.84441,37.55176],[126.84636,37.5492],[126.84707,37.54886],[126.84446,37.54519],[126.84382,37.54432],[126.8438,37.54429],[126.84322,37.54358],[126.84316,37.54352],[126.84311,37.54345],[126.84295,37.54329],[126.84293,37.54326],[126.84272,37.54305],[126.84246,37.54278],[126.84222,37.54254],[126.84205,37.54241],[126.84195,37.54234],[126.84189,37.54229],[126.84141,37.54204],[126.84113,37.54191],[126.84044,37.54162],[126.8404,37.54166],[126.83788,37.54429],[126.83764,37.54454],[126.83715,37.545],[126.83712,37.54503],[126.83696,37.54526],[126.8368,37.54551],[126.83657,37.54597],[126.8365,37.54624],[126.83639,37.54672],[126.8363,37.54797],[126.83632,37.548],[126.83634,37.5526],[126.83636,37.55265],[126.83822,37.55857],[126.84572,37.55782]]]]}}]}