{"type":"FeatureCollection","features":[{"type":"Feature","properties":{"code":"11320660","name":"쌍문1동","parent":"11320"},"geometry":{"type":"MultiPolygon","coordinates":[[[[127.01634,37.66158],[127.01719,37.66002],[127.01846,37.6575],[127.01893,37.65686],[127.02056,37.65485],[127.02087,37.65458],[127.02092,37.65454],[127.02187,37.65424],[127.02196,37.65422],[127.02204,37.65421],[127.0221,37.65421],[127.02217,37.65423],[127.02222,37.65427],[127.02226,37.6543],[127.02239,37.65438],[127.02248,37.65441],[127.02289,37.65439],[127.02303,37.65438],[127.02459,37.65425],[127.02547,37.65402],[127.02571,37.65397],[127.02695,37.65372],[127.02762,37.65353],[127.02805,37.65314],[127.02867,37.65071],[127.02515,37.6466],[127.02478,37.64724],[127.02462,37.6474],[127.02131,37.64896],[127.02114,37.64902],[127.02084,37.64905],[127.02077,37.64906],[127.02056,37.64908],[127.02049,37.64908],[127.02023,37.64907],[127.01996,37.64901],[127.01971,37.64894],[127.01918,37.6488],[127.01893,37.64874],[127.01887,37.64872],[127.01879,37.64871],[127.01858,37.64867],[127.0182,37.64861],[127.01796,37.64861],[127.01779,37.64862],[127.01763,37.64863],[127.01745,37.64865],[127.017,37.64873],[127.01634,37.6489],[127.01562,37.6491],[127.01538,37.64921],[127.01529,37.64926],[127.0152,37.64931],[127.01324,37.65044],[127.01291,37.65115],[127.0129,37.65118],[127.01269,37.65163],[127.01264,37.65185],[127.01256,37.65222],[127.01255,37.65246],[127.01256,37.65275],[127.01266,37.65331],[127.01379,37.65848],[127.01428,37.65989],[127.01463,37.66089],[127.01516,37.66159],[127.01585,37.66144],[127.01634,37.66158]]]]}},{"type":"Feature","properties":{"code":"11320670","name":"쌍문2동","parent":"11320"},"geometry":{"type":"MultiPolygon","coordinates":[[[[127.04222,37.66171],[127.0422,37.66164],[127.04206,37.66114],[127.04201,37.661],[127.04194,37.66083],[127.04192,37.66077],[127.04173,37.66037],[127.03721,37.65284],[127.03633,37.65137],[127.03329,37.65114],[127.03295,37.65261],[127.03305,37.6532],[127.03307,37.65324],[127.03355,37.65382],[127.03362,37.65388],[127.03369,37.65394],[127.03378,37.65399],[127.03384,37.65402],[127.03438,37.6567],[127.03418,37.65953],[127.03379,37.66008],[127.03491,37.66032],[127.03775,37.66175],[127.04222,37.66171]]]]}},{"type":"Feature","properties":{"code":"11320680","name":"쌍문3동","parent":"11320"},"geometry":{"type":"MultiPolygon","coordinates":[[[[127.03347,37.6465],[127.03098,37.64299],[127.03083,37.64286],[127.03061,37.64305],[127.03013,37.64337],[127.02993,37.6435],[127.02977,37.64361],[127.02972,37.64364],[127.02791,37.64475],[127.02727,37.64512],[127.02708,37.64518],[127.02664,37.64536],[127.0266,37.64538],[127.02616,37.6456],[127.02609,37.64564],[127.02592,37.64572],[127.02566,37.64586],[127.02564,37.64589],[127.0255,37.64608],[127.02515,37.6466],[127.02867,37.65071],[127.03329,37.65114],[127.03633,37.65137],[127.03347,37.6465]]]]}},{"type":"Feature","properties":{"code":"11320681","name":"쌍문4동","parent":"11320"},"geometry":{"type":"MultiPolygon","coordinates":[[[[127.03329,37.65114],[127.02867,37.65071],[127.02805,37.65314],[127.02762,37.65353],[127.02695,37.65372],[127.02571,37.65397],[127.02547,37.65402],[127.02607,37.65671],[127.02777,37.65881],[127.02781,37.65882],[127.02802,37.65893],[127.02817,37.65901],[127.02981,37.65957],[127.02991,37.6596],[127.02999,37.65962],[127.03006,37.65963],[127.03013,37.65965],[127.03023,37.65965],[127.03039,37.65962],[127.03278,37.65978],[127.03379,37.66008],[127.03418,37.65953],[127.03438,37.6567],[127.03384,37.65402],[127.03378,37.65399],[127.03369,37.65394],[127.03362,37.65388],[127.03355,37.65382],[127.03307,37.65324],[127.03305,37.6532],[127.03295,37.65261],[127.03329,37.65114]]]]}},{"type":"Feature","properties":{"code":"11320690","name":"방학1동","parent":"11320"},"geometry":{"type":"MultiPolygon","coordinates":[[[[127.04365,37.66982],[127.04882,37.66909],[127.04889,37.66874],[127.04901,37.66807],[127.04928,37.6674],[127.04929,37.66737],[127.04967,37.66662],[127.04972,37.66656],[127.04976,37.6665],[127.04979,37.66646],[127.05006,37.66611],[127.05061,37.66531],[127.05085,37.66495],[127.05105,37.66457],[127.05113,37.66436],[127.05127,37.66398],[127.05132,37.66365],[127.05147,37.6618],[127.05155,37.66066],[127.04458,37.66203],[127.04222,37.66171],[127.03775,37.66175],[127.03491,37.66032],[127.03473,37.66254],[127.03471,37.66279],[127.03469,37.66298],[127.03468,37.66309],[127.03468,37.66323],[127.03469,37.66333],[127.03469,37.66336],[127.03472,37.66352],[127.03481,37.66377],[127.03494,37.664],[127.035,37.66408],[127.03515,37.66425],[127.03539,37.66444],[127.03604,37.6649],[127.03659,37.66527],[127.03764,37.66599],[127.03779,37.66609],[127.03789,37.66616],[127.03816,37.66634],[127.03904,37.66695],[127.03909,37.66704],[127.03933,37.66833],[127.03942,37.66884],[127.0396,37.66996],[127.04365,37.66982]]]]}},{"type":"Feature","properties":{"code":"11320700","name":"방학2동","parent":"11320"},"geometry":{"type":"MultiPolygon","coordinates":[[[[127.0396,37.66996],[127.03942,37.66884],[127.03933,37.66833],[127.03909,37.66704],[127.03904,37.66695],[127.03816,37.66634],[127.03789,37.66616],[127.03779,37.66609],[127.03764,37.66599],[127.03659,37.66527],[127.03604,37.6649],[127.03539,37.66444],[127.03515,37.66425],[127.035,37.66408],[127.03494,37.664],[127.03481,37.66377],[127.03472,37.66352],[127.03469,37.66336],[127.03469,37.66333],[127.03468,37.66323],[127.03468,37.66309],[127.03469,37.66298],[127.03471,37.66279],[127.03473,37.66254],[127.03309,37.66235],[127.03147,37.66217],[127.03143,37.6622],[127.03136,37.66226],[127.03081,37.66267],[127.03078,37.66271],[127.03075,37.66276],[127.03048,37.66342],[127.03058,37.66363],[127.0308,37.66387],[127.03086,37.66392],[127.03093,37.66398],[127.03065,37.66521],[127.03063,37.66526],[127.03061,37.66534],[127.03052,37.66552],[127.02789,37.66812],[127.02716,37.66864],[127.02544,37.66943],[127.0228,37.67162],[127.02289,37.67196],[127.03047,37.67463],[127.03122,37.67493],[127.03128,37.67467],[127.03136,37.67459],[127.03151,37.67444],[127.03172,37.67432],[127.03685,37.67158],[127.0372,37.67145],[127.03758,37.67136],[127.03773,37.67152],[127.0381,37.67192],[127.03829,37.67203],[127.03881,37.67211],[127.03927,37.6721],[127.03976,37.67184],[127.03981,37.67175],[127.03978,37.67126],[127.03974,37.6708],[127.03972,37.67062],[127.03968,37.67042],[127.0396,37.66996]]]]}},{"type":"Feature","properties":{"code":"11320710","name":"방학3동","parent":"11320"},"geometry":{"type":"MultiPolygon","coordinates":[[[[127.02544,37.66943],[127.02716,37.66864],[127.02789,37.66812],[127.03052,37.66552],[127.03061,37.66534],[127.03063,37.66526],[127.03065,37.66521],[127.03093,37.66398],[127.03086,37.66392],[127.0308,37.66387],[127.03058,37.66363],[127.03048,37.66342],[127.03075,37.66276],[127.03078,37.66271],[127.03081,37.66267],[127.03136,37.66226],[127.03143,37.6622],[127.03147,37.66217],[127.03309,37.66235],[127.03473,37.66254],[127.03491,37.66032],[127.03379,37.66008],[127.03278,37.65978],[127.03039,37.65962],[127.03023,37.65965],[127.03013,37.65965],[127.03006,37.65963],[127.02999,37.65962],[127.02991,37.6596],[127.02981,37.65957],[127.02817,37.65901],[127.02802,37.65893],[127.02781,37.65882],[127.02777,37.65881],[127.02607,37.65671],[127.02547,37.65402],[127.02459,37.65425],[127.02303,37.65438],[127.02289,37.65439],[127.02248,37.65441],[127.02239,37.65438],[127.02226,37.6543],[127.02222,37.65427],[127.02217,37.65423],[127.0221,37.65421],[127.02204,37.65421],[127.02196,37.65422],[127.02187,37.65424],[127.02092,37.65454],[127.02087,37.65458],[127.02056,37.65485],[127.01893,37.65686],[127.01846,37.6575],[127.01719,37.66002],[127.01634,37.66158],[127.01545,37.66348],[127.01544,37.66376],[127.01541,37.66584],[127.01545,37.66616],[127.01552,37.66634],[127.01566,37.6667],[127.01583,37.66686],[127.01655,37.66755],[127.01693,37.6679],[127.01763,37.66828],[127.01816,37.66878],[127.01844,37.6694],[127.01847,37.66964],[127.01852,37.66996],[127.01844,37.67008],[127.01844,37.67011],[127.01844,37.67016],[127.01862,37.6708],[127.01872,37.67093],[127.01877,37.67099],[127.01904,37.67112],[127.01922,37.6712],[127.02156,37.6712],[127.0228,37.66955],[127.02544,37.66943]]]]}},{"type":"Feature","properties":{"code":"11320511","name":"창1동","parent":"11320"},"geometry":{"type":"MultiPolygon","coordinates":[[[[127.0483,37.65166],[127.05125,37.6452],[127.0506,37.64515],[127.048,37.6417],[127.04635,37.63916],[127.04547,37.63946],[127.04519,37.63955],[127.04502,37.63967],[127.04494,37.63987],[127.04427,37.64262],[127.04365,37.64392],[127.03998,37.64637],[127.03347,37.6465],[127.03633,37.65137],[127.0416,37.65169],[127.04466,37.65122],[127.04516,37.65114],[127.04532,37.65113],[127.04551,37.65112],[127.04575,37.65112],[127.04594,37.65114],[127.04612,37.65116],[127.04628,37.6512],[127.04638,37.65122],[127.0483,37.65166]]]]}},{"type":"Feature","properties":{"code":"11320512","name":"창2동","parent":"11320"},"geometry":{"type":"MultiPolygon","coordinates":[[[[127.04365,37.64392],[127.04262,37.64331],[127.0425,37.64322],[127.04226,37.64304],[127.039,37.63961],[127.03644,37.63689],[127.03609,37.63699],[127.03588,37.63704],[127.0357,37.63708],[127.03553,37.63712],[127.0355,37.63714],[127.03496,37.63738],[127.03469,37.6376],[127.03463,37.63768],[127.0345,37.63785],[127.03436,37.63818],[127.0343,37.6383],[127.03427,37.63839],[127.03424,37.63845],[127.03402,37.63895],[127.03397,37.63908],[127.03389,37.63928],[127.03384,37.63939],[127.0336,37.63999],[127.03358,37.64003],[127.03355,37.6401],[127.0333,37.64063],[127.03315,37.64094],[127.03301,37.64116],[127.03294,37.64129],[127.03291,37.64132],[127.03267,37.64163],[127.03229,37.64194],[127.03179,37.64229],[127.0317,37.64235],[127.03125,37.64262],[127.03083,37.64286],[127.03098,37.64299],[127.03347,37.6465],[127.03998,37.64637],[127.04365,37.64392]]]]}},{"type":"Feature","properties":{"code":"11320513","name":"창3동","parent":"11320"},"geometry":{"type":"MultiPolygon","coordinates":[[[[127.04635,37.63916],[127.04551,37.63783],[127.0453,37.63749],[127.04501,37.63687],[127.04492,37.63596],[127.04492,37.63592],[127.04403,37.63362],[127.04394,37.63344],[127.04353,37.63308],[127.0429,37.6327],[127.04148,37.63128],[127.03848,37.63391],[127.03644,37.63689],[127.039,37.63961],[127.04226,37.64304],[127.0425,37.64322],[127.04262,37.64331],[127.04365,37.64392],[127.04427,37.64262],[127.04494,37.63987],[127.04502,37.63967],[127.04519,37.63955],[127.04547,37.63946],[127.04635,37.63916]]]]}},{"type":"Feature","properties":{"code":"11320514","name":"창4동","parent":"11320"},"geometry":{"type":"MultiPolygon","coordinates":[[[[127.05155,37.66066],[127.05244,37.65816],[127.05418,37.65448],[127.05421,37.65302],[127.05422,37.65254],[127.05423,37.65214],[127.05423,37.65204],[127.05424,37.65195],[127.05429,37.65093],[127.05436,37.65041],[127.05441,37.65021],[127.05443,37.65011],[127.05453,37.64967],[127.05463,37.64947],[127.05482,37.6491],[127.05504,37.64867],[127.05521,37.64833],[127.05532,37.64796],[127.05547,37.64747],[127.05558,37.64711],[127.05589,37.64597],[127.05573,37.64531],[127.05507,37.64163],[127.05494,37.64076],[127.05437,37.64064],[127.05427,37.64064],[127.05419,37.64066],[127.05413,37.64067],[127.05401,37.64074],[127.05362,37.64104],[127.05338,37.64123],[127.05321,37.6414],[127.05289,37.64175],[127.05262,37.64209],[127.05233,37.6426],[127.05225,37.64279],[127.05126,37.64516],[127.05125,37.6452],[127.0483,37.65166],[127.04828,37.6517],[127.04729,37.6539],[127.04718,37.65416],[127.04701,37.65458],[127.04679,37.65512],[127.04655,37.65572],[127.04633,37.65626],[127.04631,37.65631],[127.04586,37.65737],[127.04566,37.65784],[127.04559,37.658],[127.04529,37.65843],[127.04458,37.66203],[127.05155,37.66066]]]]}},{"type":"Feature","properties":{"code":"11320515","name":"창5동","parent":"11320"},"geometry":{"type":"MultiPolygon","coordinates":[[[[127.0483,37.65166],[127.04638,37.65122],[127.04628,37.6512],[127.04612,37.65116],[127.04594,37.65114],[127.04575,37.65112],[127.04551,37.65112],[127.04532,37.65113],[127.04516,37.65114],[127.04466,37.65122],[127.0416,37.65169],[127.03633,37.65137],[127.03721,37.65284],[127.04173,37.66037],[127.04192,37.66077],[127.04194,37.66083],[127.04201,37.661],[127.04206,37.66114],[127.0422,37.66164],[127.04222,37.66171],[127.04458,37.66203],[127.04529,37.65843],[127.04559,37.658],[127.04566,37.65784],[127.04586,37.65737],[127.04631,37.65631],[127.04633,37.65626],[127.04655,37.65572],[127.04679,37.65512],[127.04701,37.65458],[127.04718,37.65416],[127.04729,37.6539],[127.04828,37.6517],[127.0483,37.65166]]]]}},{"type":"Feature","properties":{"code":"11320521","name":"도봉1동","parent":"11320"},"geometry":{"type":"MultiPolygon","coordinates":[[[[127.04509,37.69244],[127.04538,37.69064],[127.04539,37.69054],[127.04578,37.68768],[127.046,37.68549],[127.04605,37.68498],[127.04604,37.68485],[127.04588,37.68279],[127.04588,37.68274],[127.04584,37.68252],[127.04561,37.68096],[127.04559,37.68084],[127.04558,37.68079],[127.04433,37.67345],[127.04365,37.66982],[127.0396,37.66996],[127.03968,37.67042],[127.03972,37.67062],[127.03974,37.6708],[127.03978,37.67126],[127.03981,37.67175],[127.03976,37.67184],[127.03927,37.6721],[127.03881,37.67211],[127.03829,37.67203],[127.0381,37.67192],[127.03773,37.67152],[127.03758,37.67136],[127.0372,37.67145],[127.03685,37.67158],[127.03172,37.67432],[127.03151,37.67444],[127.03136,37.67459],[127.03128,37.67467],[127.03122,37.67493],[127.03047,37.67463],[127.02289,37.67196],[127.0228,37.67162],[127.02544,37.66943],[127.0228,37.66955],[127.02156,37.6712],[127.01922,37.6712],[127.01904,37.67112],[127.01877,37.67099],[127.01872,37.67093],[127.01862,37.6708],[127.01844,37.67016],[127.01844,37.67011],[127.01844,37.67008],[127.01739,37.67174],[127.01732,37.67183],[127.01663,37.67267],[127.01574,37.67345],[127.01482,37.67424],[127.01458,37.6744],[127.01412,37.67502],[127.01387,37.67537],[127.01342,37.67645],[127.01322,37.67724],[127.01277,37.67807],[127.01202,37.67925],[127.01198,37.67929],[127.01195,37.67931],[127.01074,37.67951],[127.01056,37.67953],[127.01049,37.67954],[127.01045,37.67954],[127.01036,37.67954],[127.00841,37.6813],[127.00829,37.68468],[127.0084,37.68473],[127.00863,37.68487],[127.00869,37.68494],[127.0087,37.68497],[127.00872,37.68501],[127.00875,37.68511],[127.00881,37.68533],[127.00896,37.68661],[127.00897,37.68697],[127.00897,37.68705],[127.00896,37.68711],[127.00871,37.68824],[127.00869,37.6883],[127.00864,37.68839],[127.00855,37.68849],[127.00829,37.68874],[127.00819,37.68883],[127.00814,37.68891],[127.00809,37.68903],[127.00808,37.68912],[127.00806,37.69055],[127.00806,37.6906],[127.00882,37.69455],[127.00884,37.69461],[127.0089,37.69472],[127.00907,37.69502],[127.00913,37.69511],[127.00916,37.69515],[127.00921,37.69523],[127.01075,37.69705],[127.01192,37.69821],[127.01195,37.69824],[127.01199,37.69825],[127.01204,37.69825],[127.0121,37.69825],[127.01215,37.69825],[127.01219,37.69824],[127.01234,37.69824],[127.01238,37.69824],[127.01278,37.69824],[127.01379,37.69825],[127.01437,37.69826],[127.01449,37.69827],[127.01453,37.69828],[127.01461,37.69832],[127.01494,37.69855],[127.01498,37.6986],[127.01502,37.69867],[127.01585,37.70103],[127.01957,37.70108],[127.01968,37.70095],[127.01979,37.70083],[127.01989,37.70075],[127.02028,37.70051],[127.02209,37.6996],[127.02215,37.69959],[127.0247,37.69945],[127.02478,37.69944],[127.02482,37.69944],[127.0249,37.69944],[127.02497,37.69945],[127.02507,37.69948],[127.0253,37.69955],[127.0254,37.69957],[127.02551,37.69961],[127.02565,37.69966],[127.02678,37.70022],[127.02684,37.70026],[127.02689,37.7003],[127.02695,37.7004],[127.027,37.7005],[127.02701,37.70052],[127.02704,37.7006],[127.02707,37.70065],[127.02711,37.7007],[127.02715,37.70072],[127.02722,37.70071],[127.02796,37.70062],[127.02799,37.70061],[127.02803,37.70059],[127.02807,37.70056],[127.02821,37.70039],[127.02889,37.69954],[127.029,37.69938],[127.02922,37.699],[127.02928,37.69886],[127.0293,37.69882],[127.02939,37.69859],[127.02967,37.6977],[127.0297,37.69757],[127.0297,37.69747],[127.02973,37.69708],[127.02973,37.69697],[127.02973,37.69676],[127.0297,37.69654],[127.0297,37.69635],[127.02973,37.69619],[127.02986,37.69579],[127.02993,37.69561],[127.03007,37.69523],[127.03114,37.69294],[127.03117,37.6929],[127.03247,37.69171],[127.0325,37.69171],[127.03257,37.6917],[127.03282,37.69172],[127.03407,37.69188],[127.03411,37.69189],[127.03416,37.69189],[127.03584,37.69222],[127.03589,37.69224],[127.03838,37.69324],[127.03843,37.69327],[127.03855,37.69336],[127.03885,37.69363],[127.03905,37.69388],[127.03969,37.69409],[127.03975,37.69414],[127.03981,37.69421],[127.04001,37.69443],[127.04023,37.69466],[127.04026,37.69469],[127.04038,37.69478],[127.04043,37.69482],[127.0405,37.69484],[127.04055,37.69486],[127.04062,37.69487],[127.04072,37.6949],[127.0408,37.69492],[127.04102,37.69503],[127.04143,37.6953],[127.04153,37.69534],[127.04158,37.69536],[127.04172,37.69535],[127.04301,37.69521],[127.04312,37.69515],[127.04319,37.69503],[127.0432,37.69491],[127.04321,37.69467],[127.04509,37.69244]]]]}},{"type":"Feature","properties":{"code":"11320522","name":"도봉2동","parent":"11320"},"geometry":{"type":"MultiPolygon","coordinates":[[[[127.05078,37.68702],[127.05094,37.68673],[127.05107,37.68651],[127.05118,37.68632],[127.05144,37.68579],[127.05192,37.68481],[127.05202,37.68387],[127.05201,37.68366],[127.05186,37.68247],[127.05182,37.68242],[127.05149,37.682],[127.05094,37.68015],[127.04914,37.67312],[127.04908,37.67278],[127.04906,37.67264],[127.049,37.6721],[127.04897,37.67185],[127.04893,37.67123],[127.04893,37.6712],[127.04882,37.66909],[127.04365,37.66982],[127.04433,37.67345],[127.04558,37.68079],[127.04559,37.68084],[127.04561,37.68096],[127.04584,37.68252],[127.04588,37.68274],[127.04588,37.68279],[127.04604,37.68485],[127.04605,37.68498],[127.046,37.68549],[127.04578,37.68768],[127.04539,37.69054],[127.04538,37.69064],[127.04509,37.69244],[127.0482,37.69391],[127.04912,37.69352],[127.04937,37.69291],[127.05007,37.69045],[127.0501,37.69035],[127.05013,37.69011],[127.05012,37.68985],[127.05008,37.68961],[127.05003,37.68929],[127.05002,37.6892],[127.05,37.68877],[127.05003,37.68851],[127.05005,37.68822],[127.05006,37.68818],[127.05014,37.68788],[127.05026,37.6877],[127.05035,37.68754],[127.05039,37.68749],[127.05045,37.68739],[127.05078,37.68702]]]]}}]}