{"type":"FeatureCollection","features":[{"type":"Feature","properties":{"code":"41171510","name":"안양1동","parent":"41171"},"geometry":{"type":"MultiPolygon","coordinates":[[[[126.92784,37.40083],[126.92786,37.40082],[126.9279,37.40079],[126.9285,37.40029],[126.92955,37.39943],[126.93032,37.39868],[126.93146,37.39744],[126.92827,37.39574],[126.92615,37.39466],[126.92529,37.39423],[126.92515,37.39437],[126.92505,37.39447],[126.92391,37.3958],[126.92332,37.39645],[126.92162,37.39829],[126.91988,37.40051],[126.92016,37.40076],[126.92049,37.40108],[126.92055,37.40117],[126.92062,37.40131],[126.92064,37.4014],[126.92065,37.40146],[126.92065,37.40165],[126.92062,37.40216],[126.9206,37.40241],[126.92065,37.40285],[126.92095,37.40355],[126.92234,37.40454],[126.92331,37.40398],[126.92381,37.40365],[126.92784,37.40083]]]]}},{"type":"Feature","properties":{"code":"41171520","name":"안양2동","parent":"41171"},"geometry":{"type":"MultiPolygon","coordinates":[[[[126.93708,37.41419],[126.93655,37.41354],[126.93522,37.41332],[126.93306,37.41379],[126.9294,37.41339],[126.92831,37.41033],[126.92802,37.40944],[126.92779,37.40885],[126.92752,37.40734],[126.92824,37.40494],[126.92784,37.40083],[126.92381,37.40365],[126.92331,37.40398],[126.92234,37.40454],[126.92095,37.40355],[126.92065,37.40285],[126.9206,37.40241],[126.92062,37.40216],[126.92065,37.40165],[126.92065,37.40146],[126.92064,37.4014],[126.92062,37.40131],[126.92055,37.40117],[126.92049,37.40108],[126.92016,37.40076],[126.91988,37.40051],[126.91866,37.40196],[126.91336,37.40262],[126.91306,37.40483],[126.91085,37.40852],[126.91121,37.40861],[126.91285,37.40903],[126.91287,37.40916],[126.91297,37.41038],[126.91361,37.41319],[126.91422,37.41351],[126.91531,37.41409],[126.91551,37.4143],[126.91565,37.41459],[126.91565,37.41462],[126.91568,37.41492],[126.91569,37.41508],[126.91571,37.41541],[126.91572,37.41556],[126.91573,37.4158],[126.91583,37.41604],[126.91595,37.4163],[126.91598,37.41634],[126.91605,37.41642],[126.91813,37.41779],[126.91876,37.41819],[126.91891,37.41826],[126.91908,37.41834],[126.91931,37.41843],[126.91999,37.41857],[126.92052,37.41863],[126.92235,37.41743],[126.92243,37.41734],[126.92253,37.41715],[126.92258,37.41697],[126.9226,37.41655],[126.92265,37.41644],[126.92277,37.41629],[126.92299,37.41611],[126.92335,37.41597],[126.92409,37.41581],[126.92457,37.41894],[126.92909,37.41961],[126.93106,37.4179],[126.93394,37.41766],[126.93469,37.41907],[126.94126,37.42083],[126.94283,37.42026],[126.94631,37.42171],[126.94742,37.42136],[126.94181,37.41908],[126.93708,37.41419]]]]}},{"type":"Feature","properties":{"code":"41171530","name":"안양3동","parent":"41171"},"geometry":{"type":"MultiPolygon","coordinates":[[[[126.91988,37.40051],[126.91688,37.39885],[126.91681,37.39879],[126.91674,37.39874],[126.9147,37.3959],[126.9165,37.39327],[126.91584,37.39174],[126.91433,37.39223],[126.91418,37.39228],[126.91411,37.39232],[126.91407,37.39237],[126.91344,37.39374],[126.9131,37.39486],[126.91275,37.39496],[126.9127,37.39498],[126.9099,37.39497],[126.90783,37.39495],[126.90635,37.39481],[126.90575,37.39512],[126.90434,37.39708],[126.90506,37.39784],[126.90608,37.39778],[126.90792,37.39769],[126.90797,37.3977],[126.90814,37.39771],[126.90832,37.39779],[126.91026,37.39947],[126.91025,37.40018],[126.91031,37.40126],[126.91118,37.40134],[126.91111,37.40156],[126.91284,37.40156],[126.91286,37.4026],[126.91336,37.40262],[126.91866,37.40196],[126.91988,37.40051]]]]}},{"type":"Feature","properties":{"code":"41171540","name":"안양4동","parent":"41171"},"geometry":{"type":"MultiPolygon","coordinates":[[[[126.92332,37.39645],[126.91885,37.39447],[126.91887,37.39442],[126.91885,37.39438],[126.91883,37.39436],[126.91818,37.39362],[126.91724,37.39311],[126.91672,37.39322],[126.9165,37.39327],[126.9147,37.3959],[126.91674,37.39874],[126.91681,37.39879],[126.91688,37.39885],[126.91988,37.40051],[126.92162,37.39829],[126.92332,37.39645]]]]}},{"type":"Feature","properties":{"code":"41171550","name":"안양5동","parent":"41171"},"geometry":{"type":"MultiPolygon","coordinates":[[[[126.92827,37.39574],[126.93014,37.3943],[126.92671,37.39245],[126.92714,37.39193],[126.9273,37.39173],[126.92743,37.39157],[126.92635,37.39098],[126.92617,37.39089],[126.92531,37.39043],[126.92523,37.39039],[126.92409,37.38999],[126.92045,37.3883],[126.91881,37.38727],[126.91864,37.38785],[126.91732,37.39075],[126.91696,37.39101],[126.91584,37.39174],[126.9165,37.39327],[126.91672,37.39322],[126.91724,37.39311],[126.91818,37.39362],[126.91883,37.39436],[126.91885,37.39438],[126.91887,37.39442],[126.91885,37.39447],[126.92332,37.39645],[126.92391,37.3958],[126.92505,37.39447],[126.92515,37.39437],[126.92529,37.39423],[126.92615,37.39466],[126.92827,37.39574]]]]}},{"type":"Feature","properties":{"code":"41171560","name":"안양6동","parent":"41171"},"geometry":{"type":"MultiPolygon","coordinates":[[[[126.93601,37.38326],[126.93382,37.3839],[126.93377,37.38397],[126.93224,37.3858],[126.92579,37.38425],[126.92574,37.38422],[126.92569,37.3842],[126.92544,37.38403],[126.92417,37.38303],[126.92193,37.3809],[126.92058,37.37934],[126.91943,37.37782],[126.91935,37.37771],[126.91929,37.37754],[126.91921,37.37718],[126.91918,37.37693],[126.91753,37.37678],[126.91759,37.37717],[126.9176,37.37721],[126.91761,37.37733],[126.91761,37.37745],[126.91729,37.37894],[126.91663,37.37963],[126.91481,37.38135],[126.9147,37.38139],[126.91459,37.38149],[126.91452,37.38161],[126.91449,37.38178],[126.9145,37.38211],[126.91455,37.38282],[126.91482,37.38329],[126.91505,37.38354],[126.91612,37.38414],[126.91676,37.38447],[126.91756,37.38489],[126.91848,37.38548],[126.91882,37.38571],[126.91892,37.38583],[126.91891,37.3861],[126.91881,37.38727],[126.92045,37.3883],[126.92409,37.38999],[126.92523,37.39039],[126.92531,37.39043],[126.92617,37.39089],[126.92635,37.39098],[126.92743,37.39157],[126.9273,37.39173],[126.92714,37.39193],[126.92671,37.39245],[126.93014,37.3943],[126.93336,37.39044],[126.93601,37.38326]]]]}},{"type":"Feature","properties":{"code":"41171570","name":"안양7동","parent":"41171"},"geometry":{"type":"MultiPolygon","coordinates":[[[[126.93149,37.39742],[126.93767,37.39465],[126.93805,37.39443],[126.9387,37.39407],[126.93972,37.3935],[126.94016,37.39306],[126.94033,37.39287],[126.94055,37.39261],[126.94082,37.39217],[126.94134,37.39182],[126.94142,37.39154],[126.94165,37.39067],[126.94174,37.39031],[126.94176,37.39017],[126.94177,37.39004],[126.94178,37.38987],[126.9413,37.38613],[126.94066,37.38474],[126.94015,37.38375],[126.93944,37.38232],[126.93908,37.38146],[126.93902,37.38128],[126.93901,37.38111],[126.93901,37.38097],[126.93902,37.38084],[126.93904,37.38068],[126.93908,37.38055],[126.9391,37.38051],[126.93916,37.3804],[126.93941,37.38009],[126.93945,37.38004],[126.93951,37.37997],[126.94066,37.37921],[126.94082,37.37913],[126.94119,37.37676],[126.94096,37.37713],[126.94088,37.37724],[126.94079,37.37736],[126.94074,37.37742],[126.94051,37.3777],[126.9403,37.37795],[126.94021,37.37803],[126.9402,37.37805],[126.94003,37.37823],[126.93968,37.37856],[126.93886,37.3793],[126.93868,37.37947],[126.93838,37.37973],[126.93794,37.38014],[126.93748,37.38061],[126.93714,37.38104],[126.93691,37.38137],[126.93677,37.38161],[126.93674,37.38164],[126.93665,37.3818],[126.93651,37.38207],[126.93644,37.38221],[126.93624,37.38266],[126.93601,37.38326],[126.93336,37.39044],[126.93014,37.3943],[126.92827,37.39574],[126.93146,37.39744],[126.93149,37.39742]]]]}},{"type":"Feature","properties":{"code":"41171582","name":"명학동","parent":"41171"},"geometry":{"type":"MultiPolygon","coordinates":[[[[126.93601,37.38326],[126.93624,37.38266],[126.93644,37.38221],[126.93651,37.38207],[126.93665,37.3818],[126.93674,37.38164],[126.93677,37.38161],[126.93691,37.38137],[126.93714,37.38104],[126.93748,37.38061],[126.93794,37.38014],[126.93838,37.37973],[126.93868,37.37947],[126.93886,37.3793],[126.93968,37.37856],[126.94003,37.37823],[126.9402,37.37805],[126.94021,37.37803],[126.9403,37.37795],[126.94051,37.3777],[126.94074,37.37742],[126.94079,37.37736],[126.94088,37.37724],[126.94096,37.37713],[126.94119,37.37676],[126.94056,37.37624],[126.94051,37.37621],[126.94032,37.37605],[126.94008,37.37585],[126.93917,37.37601],[126.93737,37.37656],[126.93489,37.377],[126.93277,37.37747],[126.93098,37.37753],[126.92695,37.37764],[126.92414,37.37731],[126.92392,37.37726],[126.92142,37.37652],[126.9199,37.37656],[126.91918,37.37693],[126.91921,37.37718],[126.91929,37.37754],[126.91935,37.37771],[126.91943,37.37782],[126.92058,37.37934],[126.92193,37.3809],[126.92417,37.38303],[126.92544,37.38403],[126.92569,37.3842],[126.92574,37.38422],[126.92579,37.38425],[126.93224,37.3858],[126.93377,37.38397],[126.93382,37.3839],[126.93601,37.38326]]]]}},{"type":"Feature","properties":{"code":"41171583","name":"병목안동","parent":"41171"},"geometry":{"type":"MultiPolygon","coordinates":[[[[126.91584,37.39174],[126.91696,37.39101],[126.91732,37.39075],[126.91864,37.38785],[126.91881,37.38727],[126.91891,37.3861],[126.91892,37.38583],[126.91882,37.38571],[126.91848,37.38548],[126.91756,37.38489],[126.91676,37.38447],[126.91612,37.38414],[126.91505,37.38354],[126.91482,37.38329],[126.91455,37.38282],[126.9145,37.38211],[126.91449,37.38178],[126.91452,37.38161],[126.91459,37.38149],[126.9147,37.38139],[126.91481,37.38135],[126.91663,37.37963],[126.91729,37.37894],[126.91761,37.37745],[126.91761,37.37733],[126.9176,37.37721],[126.91759,37.37717],[126.91753,37.37678],[126.9169,37.37609],[126.91668,37.37588],[126.9165,37.37581],[126.91585,37.3756],[126.9156,37.37553],[126.91549,37.3755],[126.91483,37.37541],[126.91377,37.37285],[126.91335,37.37213],[126.9128,37.37115],[126.91265,37.37088],[126.91253,37.37067],[126.91171,37.36909],[126.9117,37.36901],[126.91172,37.36893],[126.91178,37.3687],[126.9118,37.36852],[126.91181,37.36836],[126.91181,37.36827],[126.91176,37.36807],[126.91164,37.36784],[126.91154,37.36767],[126.9105,37.36602],[126.91031,37.36581],[126.91019,37.36572],[126.90831,37.36339],[126.90799,37.36164],[126.90792,37.36138],[126.90775,37.36081],[126.90759,37.36033],[126.90743,37.3601],[126.90725,37.3599],[126.90697,37.3597],[126.90554,37.35875],[126.90526,37.35818],[126.90504,37.35787],[126.90434,37.35709],[126.90408,37.35699],[126.90119,37.35683],[126.90097,37.35687],[126.89724,37.35807],[126.89605,37.35938],[126.89569,37.35998],[126.89561,37.36014],[126.89556,37.36045],[126.89387,37.36635],[126.89128,37.37479],[126.8911,37.37527],[126.89345,37.37987],[126.89521,37.38168],[126.89548,37.3822],[126.8956,37.38243],[126.89556,37.38252],[126.89542,37.38291],[126.89472,37.38329],[126.89452,37.38344],[126.89412,37.3841],[126.8951,37.38653],[126.89565,37.38727],[126.89596,37.38737],[126.89661,37.3873],[126.89693,37.38722],[126.89734,37.38717],[126.89764,37.38714],[126.89792,37.38718],[126.89798,37.38724],[126.898,37.38727],[126.89802,37.38732],[126.89815,37.3876],[126.89854,37.38879],[126.89855,37.38882],[126.89855,37.38886],[126.8995,37.39281],[126.90223,37.39413],[126.90436,37.39481],[126.90555,37.3951],[126.90572,37.39511],[126.90575,37.39512],[126.90635,37.39481],[126.90783,37.39495],[126.9099,37.39497],[126.9127,37.39498],[126.91275,37.39496],[126.9131,37.39486],[126.91344,37.39374],[126.91407,37.39237],[126.91411,37.39232],[126.91418,37.39228],[126.91433,37.39223],[126.91584,37.39174]]]]}},{"type":"Feature","properties":{"code":"41171590","name":"석수1동","parent":"41171"},"geometry":{"type":"MultiPolygon","coordinates":[[[[126.93103,37.44782],[126.93033,37.44739],[126.93026,37.44633],[126.93051,37.44529],[126.93389,37.44355],[126.93537,37.44285],[126.93785,37.44018],[126.93727,37.43845],[126.93864,37.43605],[126.94021,37.43572],[126.9414,37.43741],[126.94492,37.43704],[126.9469,37.43805],[126.94822,37.43852],[126.94788,37.43554],[126.94886,37.43196],[126.9483,37.43096],[126.94893,37.42987],[126.94813,37.42783],[126.94802,37.42231],[126.94631,37.42171],[126.94283,37.42026],[126.94126,37.42083],[126.93469,37.41907],[126.93394,37.41766],[126.93106,37.4179],[126.92909,37.41961],[126.92457,37.41894],[126.92409,37.41581],[126.92335,37.41597],[126.92299,37.41611],[126.92277,37.41629],[126.92265,37.41644],[126.9226,37.41655],[126.92258,37.41697],[126.92253,37.41715],[126.92243,37.41734],[126.92235,37.41743],[126.92052,37.41863],[126.91999,37.41857],[126.91931,37.41843],[126.91908,37.41834],[126.91891,37.41826],[126.91876,37.41819],[126.91813,37.41779],[126.91605,37.41642],[126.91598,37.41634],[126.91595,37.4163],[126.91583,37.41604],[126.91573,37.4158],[126.91572,37.41556],[126.91571,37.41541],[126.91569,37.41508],[126.91568,37.41492],[126.91565,37.41462],[126.91565,37.41459],[126.91551,37.4143],[126.91531,37.41409],[126.91422,37.41351],[126.91361,37.41319],[126.90823,37.4199],[126.90776,37.4205],[126.90761,37.42069],[126.90741,37.42096],[126.90719,37.42129],[126.90712,37.4214],[126.90698,37.42164],[126.90695,37.4217],[126.90667,37.4222],[126.90573,37.42388],[126.90435,37.42642],[126.9041,37.42691],[126.90406,37.42702],[126.90384,37.42759],[126.90373,37.42792],[126.90345,37.42929],[126.90334,37.42982],[126.90304,37.43141],[126.90192,37.43637],[126.90279,37.43551],[126.90447,37.43406],[126.90724,37.43359],[126.90739,37.4336],[126.9082,37.43368],[126.90829,37.43371],[126.90873,37.43382],[126.90893,37.43391],[126.90911,37.43399],[126.90934,37.43416],[126.91038,37.43541],[126.91047,37.43565],[126.91082,37.4366],[126.91125,37.43738],[126.91132,37.43749],[126.91135,37.43754],[126.91236,37.43859],[126.91403,37.43982],[126.91412,37.43989],[126.91433,37.44004],[126.9148,37.4401],[126.91487,37.44009],[126.91522,37.44006],[126.91795,37.4399],[126.91805,37.43989],[126.91811,37.43992],[126.91943,37.44078],[126.91951,37.44085],[126.9199,37.44129],[126.91993,37.44134],[126.92096,37.44362],[126.92109,37.44413],[126.92212,37.44517],[126.92373,37.44665],[126.92535,37.44752],[126.92834,37.44969],[126.92875,37.45019],[126.93103,37.44782]]]]}},{"type":"Feature","properties":{"code":"41171600","name":"석수2동","parent":"41171"},"geometry":{"type":"MultiPolygon","coordinates":[[[[126.90049,37.43736],[126.90192,37.43637],[126.90304,37.43141],[126.90334,37.42982],[126.90345,37.42929],[126.90373,37.42792],[126.90384,37.42759],[126.90406,37.42702],[126.9041,37.42691],[126.90435,37.42642],[126.90573,37.42388],[126.90667,37.4222],[126.90695,37.4217],[126.90698,37.42164],[126.90712,37.4214],[126.90719,37.42129],[126.90741,37.42096],[126.90761,37.42069],[126.90776,37.4205],[126.90823,37.4199],[126.91361,37.41319],[126.91297,37.41038],[126.91287,37.40916],[126.91285,37.40903],[126.91121,37.40861],[126.91085,37.40852],[126.90745,37.40761],[126.90713,37.40825],[126.90489,37.40828],[126.90244,37.40832],[126.90353,37.41042],[126.90335,37.41069],[126.9029,37.41092],[126.90235,37.41095],[126.90234,37.41135],[126.90225,37.41155],[126.90136,37.41173],[126.90112,37.41175],[126.89942,37.41185],[126.8968,37.41214],[126.89451,37.41281],[126.8943,37.41332],[126.89444,37.41356],[126.89454,37.41373],[126.89369,37.41595],[126.89351,37.41611],[126.89293,37.41757],[126.88961,37.41776],[126.88938,37.41785],[126.88902,37.41818],[126.88895,37.41837],[126.88893,37.41843],[126.88891,37.41848],[126.88887,37.4186],[126.88895,37.41887],[126.88986,37.41992],[126.89035,37.4204],[126.89189,37.42053],[126.89396,37.42168],[126.89648,37.42562],[126.89683,37.42714],[126.89677,37.42733],[126.89665,37.42759],[126.89657,37.42776],[126.89627,37.42815],[126.8961,37.42826],[126.89574,37.42839],[126.89565,37.42843],[126.89534,37.42855],[126.895,37.4285],[126.89461,37.42846],[126.89407,37.42903],[126.89432,37.42942],[126.89447,37.42959],[126.89457,37.4297],[126.89488,37.42998],[126.89583,37.43063],[126.89748,37.43095],[126.89759,37.43097],[126.89781,37.43102],[126.89862,37.43243],[126.89909,37.4337],[126.89917,37.43392],[126.89942,37.43505],[126.8995,37.43671],[126.89965,37.43745],[126.90049,37.43736]]]]}},{"type":"Feature","properties":{"code":"41171611","name":"충훈동","parent":"41171"},"geometry":{"type":"MultiPolygon","coordinates":[[[[126.90745,37.40761],[126.90325,37.40487],[126.89792,37.40349],[126.89748,37.4034],[126.8974,37.40341],[126.89705,37.40343],[126.89685,37.40344],[126.89671,37.40349],[126.89633,37.40362],[126.89594,37.40381],[126.89576,37.4039],[126.8953,37.40432],[126.89279,37.40882],[126.89108,37.41021],[126.89078,37.41081],[126.89077,37.41097],[126.89076,37.41113],[126.89102,37.41224],[126.89154,37.41333],[126.89184,37.41398],[126.89221,37.41448],[126.89258,37.41499],[126.89351,37.41611],[126.89369,37.41595],[126.89454,37.41373],[126.89444,37.41356],[126.8943,37.41332],[126.89451,37.41281],[126.8968,37.41214],[126.89942,37.41185],[126.90112,37.41175],[126.90136,37.41173],[126.90225,37.41155],[126.90234,37.41135],[126.90235,37.41095],[126.9029,37.41092],[126.90335,37.41069],[126.90353,37.41042],[126.90244,37.40832],[126.90489,37.40828],[126.90713,37.40825],[126.90745,37.40761]]]]}},{"type":"Feature","properties":{"code":"41171640","name":"박달동","parent":"41171"},"geometry":{"type":"MultiPolygon","coordinates":[[[[126.91336,37.40262],[126.91286,37.4026],[126.91284,37.40156],[126.91111,37.40156],[126.91118,37.40134],[126.91031,37.40126],[126.91025,37.40018],[126.90927,37.40059],[126.90832,37.40114],[126.90804,37.40162],[126.90794,37.40256],[126.90586,37.40247],[126.90567,37.40421],[126.90456,37.40462],[126.90325,37.40487],[126.90745,37.40761],[126.91085,37.40852],[126.91306,37.40483],[126.91336,37.40262]]]]}},{"type":"Feature","properties":{"code":"41171650","name":"호현동","parent":"41171"},"geometry":{"type":"MultiPolygon","coordinates":[[[[126.89351,37.41611],[126.89258,37.41499],[126.89221,37.41448],[126.89184,37.41398],[126.89154,37.41333],[126.89102,37.41224],[126.89076,37.41113],[126.89077,37.41097],[126.89078,37.41081],[126.89108,37.41021],[126.89279,37.40882],[126.8953,37.40432],[126.89576,37.4039],[126.89594,37.40381],[126.89633,37.40362],[126.89671,37.40349],[126.89685,37.40344],[126.89705,37.40343],[126.8974,37.40341],[126.89748,37.4034],[126.89792,37.40349],[126.90325,37.40487],[126.90456,37.40462],[126.90567,37.40421],[126.90586,37.40247],[126.90794,37.40256],[126.90804,37.40162],[126.90832,37.40114],[126.90927,37.40059],[126.91025,37.40018],[126.91026,37.39947],[126.90832,37.39779],[126.90814,37.39771],[126.90797,37.3977],[126.90792,37.39769],[126.90608,37.39778],[126.90506,37.39784],[126.90434,37.39708],[126.90575,37.39512],[126.90572,37.39511],[126.90555,37.3951],[126.90436,37.39481],[126.90223,37.39413],[126.8995,37.39281],[126.89855,37.38886],[126.89855,37.38882],[126.89854,37.38879],[126.89815,37.3876],[126.89802,37.38732],[126.898,37.38727],[126.89798,37.38724],[126.89792,37.38718],[126.89764,37.38714],[126.89734,37.38717],[126.89693,37.38722],[126.89661,37.3873],[126.89596,37.38737],[126.89565,37.38727],[126.8951,37.38653],[126.89412,37.3841],[126.89452,37.38344],[126.89472,37.38329],[126.89542,37.38291],[126.89556,37.38252],[126.8956,37.38243],[126.89548,37.3822],[126.89521,37.38168],[126.89345,37.37987],[126.8911,37.37527],[126.88649,37.37658],[126.88191,37.37622],[126.88073,37.38022],[126.88014,37.38219],[126.87908,37.38461],[126.87793,37.38729],[126.87609,37.39466],[126.87758,37.39713],[126.87774,37.39907],[126.87771,37.39978],[126.87751,37.39994],[126.87727,37.40014],[126.87707,37.4014],[126.877,37.40205],[126.87728,37.40336],[126.87743,37.40451],[126.87741,37.40475],[126.87731,37.4049],[126.87576,37.40658],[126.87572,37.40661],[126.87557,37.40671],[126.87541,37.40679],[126.87524,37.40683],[126.87492,37.40686],[126.87463,37.40687],[126.87428,37.40685],[126.87422,37.40685],[126.87384,37.40682],[126.87357,37.4068],[126.87339,37.40679],[126.87291,37.40672],[126.87281,37.4067],[126.87239,37.40666],[126.87181,37.40665],[126.87155,37.40665],[126.87122,37.40666],[126.87094,37.40669],[126.87089,37.40669],[126.87078,37.40674],[126.87061,37.40691],[126.87046,37.40722],[126.87039,37.40743],[126.87033,37.40763],[126.87032,37.40784],[126.8703,37.40811],[126.87071,37.41046],[126.87107,37.41214],[126.87124,37.41255],[126.87186,37.41246],[126.87512,37.41168],[126.87524,37.41163],[126.87541,37.41152],[126.87609,37.41104],[126.87618,37.41096],[126.87994,37.41019],[126.88891,37.41256],[126.88961,37.41776],[126.89293,37.41757],[126.89351,37.41611]]]]}}]}