{"type":"FeatureCollection","features":[{"type":"Feature","properties":{"code":"44790250","name":"청양읍","parent":"44790"},"geometry":{"type":"MultiPolygon","coordinates":[[[[126.82512,36.47324],[126.82438,36.46949],[126.82597,36.46753],[126.82658,36.46314],[126.82654,36.46274],[126.82429,36.45998],[126.82169,36.45699],[126.82081,36.45601],[126.81974,36.45583],[126.81826,36.45552],[126.81774,36.45526],[126.81693,36.45478],[126.81669,36.45429],[126.81685,36.45406],[126.81773,36.45329],[126.81653,36.44915],[126.81656,36.44699],[126.81662,36.44417],[126.81744,36.44226],[126.8181,36.44209],[126.81877,36.44186],[126.81903,36.44083],[126.81899,36.44015],[126.81876,36.43926],[126.81831,36.43891],[126.81779,36.43548],[126.81795,36.43503],[126.81893,36.43467],[126.82002,36.43442],[126.82091,36.43474],[126.82161,36.43426],[126.82239,36.43344],[126.82299,36.43271],[126.82341,36.43184],[126.82327,36.42923],[126.8229,36.42889],[126.82185,36.42759],[126.82128,36.42602],[126.82066,36.42257],[126.82046,36.41987],[126.82002,36.41817],[126.81859,36.41874],[126.81584,36.41899],[126.81058,36.41983],[126.80795,36.42032],[126.80684,36.42067],[126.80328,36.42112],[126.8023,36.41949],[126.80076,36.41764],[126.79943,36.41761],[126.79683,36.41938],[126.79645,36.4199],[126.79576,36.42186],[126.79262,36.4188],[126.79245,36.41846],[126.79236,36.41828],[126.79222,36.418],[126.79081,36.41657],[126.78923,36.41537],[126.78663,36.41567],[126.7823,36.41806],[126.78112,36.4195],[126.77877,36.42135],[126.77744,36.422],[126.77611,36.42149],[126.77506,36.42094],[126.77228,36.42094],[126.77094,36.42178],[126.76952,36.42283],[126.7693,36.4239],[126.76713,36.42525],[126.76558,36.42507],[126.76444,36.42587],[126.76233,36.42771],[126.76121,36.42911],[126.76096,36.42981],[126.76127,36.43121],[126.75901,36.43158],[126.75722,36.4315],[126.75617,36.43107],[126.75375,36.43127],[126.75198,36.43117],[126.75125,36.43204],[126.7509,36.43381],[126.75176,36.43501],[126.75241,36.43576],[126.75294,36.43564],[126.7558,36.43844],[126.75586,36.44007],[126.75437,36.44346],[126.75342,36.44409],[126.7534,36.4441],[126.75133,36.44548],[126.75076,36.44831],[126.75167,36.45292],[126.75254,36.45423],[126.75343,36.4552],[126.7542,36.45586],[126.75464,36.45588],[126.7559,36.45676],[126.75735,36.45829],[126.75787,36.45896],[126.75973,36.45969],[126.76078,36.46034],[126.76068,36.46127],[126.76021,36.46194],[126.76,36.46229],[126.76012,36.46254],[126.76132,36.46394],[126.76243,36.46517],[126.76107,36.46567],[126.76048,36.46589],[126.76048,36.46771],[126.76186,36.47001],[126.7642,36.47297],[126.76497,36.47349],[126.76667,36.47442],[126.76868,36.47515],[126.76998,36.47553],[126.77202,36.47585],[126.77406,36.47586],[126.77731,36.47539],[126.78055,36.4754],[126.78059,36.4754],[126.78061,36.47545],[126.78062,36.47549],[126.78111,36.47687],[126.7825,36.47845],[126.78364,36.47932],[126.79058,36.47881],[126.79333,36.47844],[126.79491,36.47814],[126.79561,36.47801],[126.79788,36.47758],[126.79825,36.47703],[126.79825,36.4764],[126.79841,36.47555],[126.79956,36.47563],[126.80262,36.47603],[126.8101,36.47772],[126.81131,36.4786],[126.81288,36.48135],[126.81232,36.48225],[126.81383,36.4835],[126.81465,36.48287],[126.81662,36.48248],[126.81741,36.48219],[126.8177,36.48208],[126.81975,36.48078],[126.81926,36.47898],[126.81796,36.47851],[126.81799,36.47813],[126.8187,36.47718],[126.81914,36.47661],[126.81952,36.47646],[126.8209,36.47594],[126.82493,36.47365],[126.82512,36.47324]]]]}},{"type":"Feature","properties":{"code":"44790310","name":"운곡면","parent":"44790"},"geometry":{"type":"MultiPolygon","coordinates":[[[[126.899,36.55896],[126.89938,36.55881],[126.89989,36.55811],[126.89996,36.55797],[126.89997,36.55785],[126.89995,36.55762],[126.89994,36.55748],[126.89987,36.55735],[126.89975,36.55719],[126.89965,36.55703],[126.89953,36.55672],[126.89947,36.55639],[126.89907,36.55079],[126.89907,36.55071],[126.89912,36.55058],[126.89958,36.54947],[126.89792,36.54911],[126.89787,36.54909],[126.89764,36.54897],[126.89463,36.54693],[126.88997,36.54133],[126.88982,36.54061],[126.88856,36.53399],[126.88856,36.53387],[126.88857,36.53376],[126.88866,36.53364],[126.88949,36.53276],[126.89059,36.5318],[126.89374,36.5268],[126.89382,36.52664],[126.89379,36.52654],[126.89253,36.52533],[126.89239,36.5252],[126.89226,36.52507],[126.89166,36.52457],[126.89156,36.52449],[126.89145,36.52447],[126.89129,36.52449],[126.89095,36.52452],[126.8907,36.5245],[126.89051,36.52443],[126.89036,36.52434],[126.89031,36.52425],[126.88931,36.52053],[126.88928,36.52027],[126.88931,36.52017],[126.8895,36.51986],[126.88964,36.51962],[126.88968,36.51949],[126.88968,36.51929],[126.88961,36.51917],[126.88851,36.51771],[126.88689,36.51558],[126.88667,36.51533],[126.8847,36.51319],[126.88456,36.51303],[126.88442,36.51282],[126.88432,36.51263],[126.88428,36.51251],[126.88391,36.51148],[126.88365,36.51106],[126.88276,36.51059],[126.88115,36.51009],[126.8773,36.50887],[126.87633,36.50874],[126.87512,36.50892],[126.87368,36.50919],[126.87322,36.50896],[126.87307,36.50889],[126.87153,36.50803],[126.87003,36.50722],[126.86776,36.50642],[126.86727,36.50625],[126.86332,36.50572],[126.86249,36.50588],[126.86125,36.50607],[126.85893,36.5062],[126.85817,36.50529],[126.85778,36.5043],[126.85741,36.50372],[126.85551,36.50148],[126.85508,36.50102],[126.85323,36.49954],[126.85224,36.49906],[126.85155,36.49849],[126.85154,36.49838],[126.85156,36.49625],[126.85165,36.49542],[126.85218,36.49461],[126.8523,36.49417],[126.85238,36.49138],[126.85222,36.49069],[126.85216,36.49053],[126.85158,36.49064],[126.85064,36.4904],[126.84911,36.48962],[126.84749,36.4887],[126.84721,36.48849],[126.84714,36.48843],[126.84643,36.48788],[126.84431,36.48396],[126.84475,36.48251],[126.84399,36.48116],[126.84331,36.48113],[126.84191,36.48127],[126.84104,36.48147],[126.84004,36.4818],[126.83974,36.48203],[126.8396,36.48213],[126.83945,36.4822],[126.83906,36.48237],[126.83794,36.48286],[126.83485,36.48321],[126.83476,36.48321],[126.83457,36.48323],[126.83317,36.4829],[126.83135,36.47631],[126.83107,36.47519],[126.83115,36.47364],[126.83017,36.47338],[126.82793,36.47289],[126.82512,36.47324],[126.82493,36.47365],[126.8209,36.47594],[126.81952,36.47646],[126.81914,36.47661],[126.8187,36.47718],[126.81799,36.47813],[126.81796,36.47851],[126.81926,36.47898],[126.81975,36.48078],[126.8177,36.48208],[126.81741,36.48219],[126.81662,36.48248],[126.81465,36.48287],[126.81383,36.4835],[126.8133,36.48434],[126.813,36.48594],[126.813,36.48631],[126.813,36.48635],[126.81337,36.48667],[126.81391,36.48702],[126.81435,36.48742],[126.81462,36.48769],[126.81503,36.48852],[126.81742,36.49335],[126.81727,36.49397],[126.81672,36.49438],[126.81648,36.49484],[126.81696,36.49842],[126.8173,36.50023],[126.81733,36.50086],[126.81712,36.50135],[126.8167,36.50171],[126.81535,36.50255],[126.81473,36.50258],[126.81391,36.50291],[126.81366,36.50325],[126.81357,36.50373],[126.81352,36.50395],[126.81355,36.50431],[126.81459,36.50526],[126.81537,36.50583],[126.81592,36.50636],[126.81634,36.50692],[126.81678,36.508],[126.81691,36.50888],[126.81701,36.50954],[126.81811,36.51049],[126.81867,36.51079],[126.81959,36.51107],[126.82047,36.51141],[126.82118,36.51177],[126.82159,36.51222],[126.82206,36.51398],[126.8223,36.51488],[126.82246,36.51563],[126.82222,36.51715],[126.82207,36.51761],[126.82207,36.51828],[126.82224,36.51944],[126.82249,36.52033],[126.8235,36.52118],[126.82414,36.52168],[126.82507,36.52323],[126.82519,36.52376],[126.8252,36.52426],[126.82513,36.52775],[126.82486,36.52849],[126.82518,36.52868],[126.82575,36.52945],[126.82591,36.53004],[126.8258,36.53047],[126.8258,36.53083],[126.82689,36.53402],[126.82713,36.53443],[126.8275,36.53506],[126.82796,36.53551],[126.83099,36.54291],[126.83082,36.54347],[126.83047,36.54371],[126.83036,36.54404],[126.83081,36.54746],[126.83304,36.55127],[126.83415,36.55276],[126.83485,36.55323],[126.83542,36.55347],[126.83609,36.55364],[126.83734,36.55401],[126.83787,36.55453],[126.83811,36.55487],[126.83854,36.55559],[126.83952,36.55795],[126.83952,36.55863],[126.83969,36.56017],[126.83974,36.56036],[126.84025,36.56222],[126.84046,36.56258],[126.84161,36.56346],[126.84234,36.56358],[126.84283,36.5638],[126.8439,36.56434],[126.84444,36.56483],[126.84466,36.5651],[126.84487,36.56551],[126.846,36.5683],[126.84595,36.56941],[126.84568,36.56971],[126.84385,36.5707],[126.84538,36.5715],[126.84602,36.57164],[126.8489,36.57217],[126.84994,36.57182],[126.85067,36.57158],[126.85172,36.57104],[126.85375,36.5714],[126.85555,36.57069],[126.85714,36.5696],[126.85893,36.56863],[126.86272,36.56841],[126.86381,36.56866],[126.866,36.56916],[126.86622,36.56923],[126.86729,36.56958],[126.86857,36.57001],[126.86979,36.56991],[126.87222,36.56971],[126.87319,36.56863],[126.87415,36.56754],[126.87865,36.56539],[126.88297,36.56401],[126.88771,36.56141],[126.89157,36.5605],[126.89454,36.55915],[126.899,36.55896]]]]}},{"type":"Feature","properties":{"code":"44790320","name":"대치면","parent":"44790"},"geometry":{"type":"MultiPolygon","coordinates":[[[[126.91404,36.46197],[126.91361,36.46095],[126.91276,36.46008],[126.91213,36.45955],[126.91057,36.45872],[126.90693,36.458],[126.90653,36.45766],[126.90656,36.45543],[126.90674,36.4525],[126.90473,36.45122],[126.9035,36.45078],[126.90219,36.45078],[126.8972,36.44876],[126.89685,36.44789],[126.89686,36.44779],[126.89702,36.44671],[126.89662,36.44438],[126.8954,36.44267],[126.89279,36.43758],[126.89171,36.43591],[126.89056,36.43467],[126.8889,36.43284],[126.8881,36.43189],[126.88826,36.42968],[126.88768,36.42771],[126.88605,36.4271],[126.88472,36.4232],[126.88413,36.42007],[126.88478,36.41882],[126.88544,36.41685],[126.88488,36.41296],[126.88301,36.41161],[126.88294,36.41156],[126.88287,36.40888],[126.88094,36.40271],[126.88089,36.40271],[126.87784,36.40265],[126.87588,36.40258],[126.87425,36.40158],[126.87098,36.39876],[126.86634,36.39523],[126.86574,36.39379],[126.86503,36.39322],[126.86416,36.39296],[126.86336,36.39273],[126.86016,36.39237],[126.85906,36.39243],[126.85814,36.39249],[126.85638,36.39204],[126.85628,36.39102],[126.85701,36.38993],[126.85889,36.38725],[126.85858,36.38587],[126.85758,36.38549],[126.85632,36.38591],[126.8533,36.38802],[126.85269,36.38932],[126.84868,36.39083],[126.84759,36.39023],[126.84838,36.38717],[126.84868,36.38676],[126.84728,36.38606],[126.84515,36.38535],[126.84385,36.38543],[126.84257,36.38562],[126.841,36.38493],[126.83961,36.38431],[126.83891,36.38385],[126.83463,36.38381],[126.83345,36.38444],[126.82948,36.38545],[126.82864,36.38515],[126.82798,36.38391],[126.82696,36.38313],[126.82406,36.38173],[126.82274,36.38129],[126.8215,36.38264],[126.82022,36.38311],[126.81889,36.38398],[126.81893,36.38467],[126.81901,36.38558],[126.81923,36.38634],[126.81947,36.38678],[126.8205,36.38841],[126.82147,36.39051],[126.82182,36.39224],[126.82162,36.39307],[126.82028,36.39708],[126.81944,36.39814],[126.81887,36.39897],[126.8187,36.39979],[126.81866,36.40175],[126.8192,36.40825],[126.8196,36.41032],[126.81993,36.41198],[126.82146,36.4126],[126.82243,36.4153],[126.82189,36.41742],[126.8215,36.41775],[126.82002,36.41817],[126.82046,36.41987],[126.82066,36.42257],[126.82128,36.42602],[126.82185,36.42759],[126.8229,36.42889],[126.82327,36.42923],[126.82341,36.43184],[126.82299,36.43271],[126.82239,36.43344],[126.82161,36.43426],[126.82091,36.43474],[126.82002,36.43442],[126.81893,36.43467],[126.81795,36.43503],[126.81779,36.43548],[126.81831,36.43891],[126.81876,36.43926],[126.81899,36.44015],[126.81903,36.44083],[126.81877,36.44186],[126.8181,36.44209],[126.81744,36.44226],[126.81662,36.44417],[126.81656,36.44699],[126.81653,36.44915],[126.81773,36.45329],[126.81685,36.45406],[126.81669,36.45429],[126.81693,36.45478],[126.81774,36.45526],[126.81826,36.45552],[126.81974,36.45583],[126.82081,36.45601],[126.82169,36.45699],[126.82429,36.45998],[126.82654,36.46274],[126.82658,36.46314],[126.82597,36.46753],[126.82438,36.46949],[126.82512,36.47324],[126.82793,36.47289],[126.83017,36.47338],[126.83115,36.47364],[126.83107,36.47519],[126.83135,36.47631],[126.83317,36.4829],[126.83457,36.48323],[126.83476,36.48321],[126.83485,36.48321],[126.83794,36.48286],[126.83906,36.48237],[126.83945,36.4822],[126.8396,36.48213],[126.83974,36.48203],[126.84004,36.4818],[126.84104,36.48147],[126.84191,36.48127],[126.84331,36.48113],[126.84399,36.48116],[126.84475,36.48251],[126.84431,36.48396],[126.84643,36.48788],[126.84714,36.48843],[126.84721,36.48849],[126.84749,36.4887],[126.84911,36.48962],[126.85064,36.4904],[126.85158,36.49064],[126.85216,36.49053],[126.85222,36.49069],[126.85238,36.49138],[126.8523,36.49417],[126.85218,36.49461],[126.85165,36.49542],[126.85156,36.49625],[126.85154,36.49838],[126.85155,36.49849],[126.85224,36.49906],[126.85323,36.49954],[126.85508,36.50102],[126.85551,36.50148],[126.85741,36.50372],[126.85778,36.5043],[126.85817,36.50529],[126.85893,36.5062],[126.86125,36.50607],[126.86249,36.50588],[126.86332,36.50572],[126.86727,36.50625],[126.86776,36.50642],[126.87003,36.50722],[126.87153,36.50803],[126.87307,36.50889],[126.87322,36.50896],[126.87368,36.50919],[126.87512,36.50892],[126.87633,36.50874],[126.8773,36.50887],[126.88115,36.51009],[126.88276,36.51059],[126.88365,36.51106],[126.88391,36.51148],[126.88521,36.51004],[126.88534,36.50932],[126.88586,36.50843],[126.88647,36.50798],[126.88849,36.50685],[126.89219,36.50437],[126.89412,36.50289],[126.89408,36.50176],[126.89407,36.50169],[126.89401,36.50136],[126.89333,36.50022],[126.89287,36.49968],[126.89268,36.49921],[126.89233,36.49801],[126.89284,36.4937],[126.89338,36.48929],[126.89283,36.48757],[126.89209,36.4869],[126.89289,36.48465],[126.89291,36.48461],[126.89298,36.48453],[126.89357,36.48421],[126.89424,36.48384],[126.89443,36.48087],[126.89437,36.47954],[126.89436,36.47851],[126.89582,36.47726],[126.89783,36.47677],[126.89939,36.47677],[126.8997,36.47626],[126.90089,36.47319],[126.9013,36.47184],[126.90426,36.46904],[126.90593,36.46805],[126.90672,36.46831],[126.90698,36.46827],[126.90774,36.46816],[126.91261,36.46601],[126.91335,36.46526],[126.91391,36.46469],[126.91404,36.46197]]]]}},{"type":"Feature","properties":{"code":"44790330","name":"정산면","parent":"44790"},"geometry":{"type":"MultiPolygon","coordinates":[[[[127.00077,36.45601],[127.00042,36.45551],[127.00019,36.45523],[126.99819,36.45354],[126.99772,36.45317],[126.99713,36.45278],[126.9966,36.45256],[126.99625,36.45248],[126.98965,36.45203],[126.98539,36.45275],[126.98442,36.45305],[126.98349,36.45266],[126.98253,36.45207],[126.98185,36.45147],[126.98158,36.45108],[126.98143,36.44925],[126.98208,36.44696],[126.98161,36.44704],[126.97708,36.44779],[126.97678,36.44828],[126.97663,36.44827],[126.97321,36.44807],[126.97176,36.44625],[126.97028,36.44418],[126.96852,36.44032],[126.96659,36.43764],[126.96616,36.43381],[126.96629,36.43375],[126.96958,36.43235],[126.97038,36.4319],[126.97216,36.43072],[126.97347,36.42975],[126.97351,36.4295],[126.97365,36.42867],[126.97335,36.4278],[126.97267,36.4264],[126.97166,36.42612],[126.97131,36.42532],[126.97135,36.42506],[126.97141,36.42459],[126.9737,36.4192],[126.97491,36.41761],[126.9751,36.41742],[126.97616,36.4164],[126.97681,36.41629],[126.97719,36.41556],[126.97715,36.41509],[126.97697,36.41272],[126.97566,36.41142],[126.97428,36.41055],[126.97325,36.40998],[126.97237,36.40876],[126.97245,36.40704],[126.97305,36.4059],[126.97275,36.40237],[126.97225,36.39977],[126.97166,36.39949],[126.9716,36.39946],[126.97127,36.39931],[126.96746,36.39612],[126.96198,36.38895],[126.96084,36.38744],[126.96031,36.38654],[126.96051,36.38321],[126.96102,36.38172],[126.96156,36.38115],[126.95951,36.38009],[126.95696,36.37852],[126.95561,36.37679],[126.95549,36.37671],[126.95332,36.37579],[126.95114,36.37616],[126.95022,36.37617],[126.94931,36.37579],[126.94803,36.37452],[126.94746,36.3737],[126.9474,36.37336],[126.94698,36.37218],[126.9456,36.37205],[126.94404,36.37193],[126.94374,36.37236],[126.94351,36.3727],[126.94144,36.37478],[126.93814,36.3749],[126.937,36.37554],[126.93588,36.37711],[126.93524,36.37797],[126.93421,36.37737],[126.9339,36.37668],[126.93382,36.37607],[126.93339,36.37608],[126.92961,36.37752],[126.92633,36.37886],[126.924,36.37936],[126.92292,36.37911],[126.92279,36.38057],[126.92275,36.38136],[126.92263,36.38343],[126.92271,36.3853],[126.92276,36.38733],[126.92207,36.38808],[126.921,36.38856],[126.9178,36.38994],[126.90531,36.39459],[126.90476,36.39784],[126.90454,36.40227],[126.89914,36.40281],[126.89499,36.4036],[126.8942,36.4051],[126.89344,36.40616],[126.88943,36.40751],[126.88874,36.40774],[126.88727,36.4091],[126.88625,36.4123],[126.88488,36.41296],[126.88544,36.41685],[126.88478,36.41882],[126.88413,36.42007],[126.88472,36.4232],[126.88605,36.4271],[126.88768,36.42771],[126.88826,36.42968],[126.8881,36.43189],[126.8889,36.43284],[126.89056,36.43467],[126.89171,36.43591],[126.89279,36.43758],[126.8954,36.44267],[126.89662,36.44438],[126.89702,36.44671],[126.89686,36.44779],[126.89685,36.44789],[126.8972,36.44876],[126.90219,36.45078],[126.9035,36.45078],[126.90473,36.45122],[126.90674,36.4525],[126.90656,36.45543],[126.90653,36.45766],[126.90693,36.458],[126.91057,36.45872],[126.91213,36.45955],[126.91276,36.46008],[126.91361,36.46095],[126.91404,36.46197],[126.91462,36.46118],[126.91603,36.4556],[126.91909,36.4546],[126.92181,36.45444],[126.92414,36.45518],[126.92683,36.4552],[126.93027,36.45502],[126.93447,36.45776],[126.93889,36.46083],[126.94052,36.46186],[126.94412,36.46366],[126.95004,36.46541],[126.95227,36.4655],[126.95468,36.46662],[126.95536,36.46695],[126.95662,36.46861],[126.96025,36.46606],[126.96111,36.46633],[126.96496,36.46755],[126.96647,36.46762],[126.97152,36.46728],[126.97404,36.46685],[126.97469,36.46672],[126.976,36.46638],[126.97616,36.4663],[126.97847,36.46495],[126.98004,36.46389],[126.98308,36.46299],[126.98995,36.46112],[126.99037,36.46101],[126.99061,36.46097],[126.99282,36.461],[126.99321,36.46101],[126.99344,36.46105],[126.99362,36.46115],[126.99368,36.46118],[126.99374,36.46121],[126.99395,36.46131],[126.99409,36.46135],[126.99416,36.46137],[126.99449,36.46141],[126.99457,36.46141],[126.99478,36.46142],[126.9949,36.46139],[126.99496,36.46136],[126.99522,36.46125],[126.9973,36.46024],[126.99791,36.45986],[126.99795,36.45983],[126.99823,36.45958],[126.99831,36.45951],[126.99834,36.45948],[126.99837,36.45943],[126.9984,36.45937],[126.99992,36.45695],[127.00077,36.45601]]]]}},{"type":"Feature","properties":{"code":"44790340","name":"목면","parent":"44790"},"geometry":{"type":"MultiPolygon","coordinates":[[[[127.02369,36.39726],[127.02337,36.39641],[127.02295,36.39592],[127.01901,36.39171],[127.01821,36.39093],[127.01626,36.3892],[127.01428,36.38811],[127.01307,36.38744],[127.0056,36.38249],[127.00498,36.38203],[126.99916,36.3783],[126.9947,36.37562],[126.9936,36.3747],[126.99206,36.37321],[126.99097,36.37209],[126.99076,36.37225],[126.99024,36.37251],[126.98928,36.37274],[126.98866,36.37278],[126.98824,36.37265],[126.98766,36.37238],[126.98546,36.37243],[126.98356,36.37385],[126.98095,36.37634],[126.97948,36.37733],[126.97589,36.37914],[126.97134,36.38225],[126.96982,36.38337],[126.96949,36.38346],[126.96777,36.38326],[126.96555,36.3823],[126.96463,36.38142],[126.96433,36.38107],[126.96289,36.38065],[126.96156,36.38115],[126.96102,36.38172],[126.96051,36.38321],[126.96031,36.38654],[126.96084,36.38744],[126.96198,36.38895],[126.96746,36.39612],[126.97127,36.39931],[126.9716,36.39946],[126.97166,36.39949],[126.97225,36.39977],[126.97275,36.40237],[126.97305,36.4059],[126.97245,36.40704],[126.97237,36.40876],[126.97325,36.40998],[126.97428,36.41055],[126.97566,36.41142],[126.97697,36.41272],[126.97715,36.41509],[126.97719,36.41556],[126.97681,36.41629],[126.97616,36.4164],[126.9751,36.41742],[126.97491,36.41761],[126.9737,36.4192],[126.97141,36.42459],[126.97135,36.42506],[126.97131,36.42532],[126.97166,36.42612],[126.97267,36.4264],[126.97335,36.4278],[126.97365,36.42867],[126.97351,36.4295],[126.97347,36.42975],[126.97216,36.43072],[126.97038,36.4319],[126.96958,36.43235],[126.96629,36.43375],[126.96616,36.43381],[126.96659,36.43764],[126.96852,36.44032],[126.97028,36.44418],[126.97176,36.44625],[126.97321,36.44807],[126.97663,36.44827],[126.97678,36.44828],[126.97708,36.44779],[126.98161,36.44704],[126.98208,36.44696],[126.98143,36.44925],[126.98158,36.45108],[126.98185,36.45147],[126.98253,36.45207],[126.98349,36.45266],[126.98442,36.45305],[126.98539,36.45275],[126.98965,36.45203],[126.99625,36.45248],[126.9966,36.45256],[126.99713,36.45278],[126.99772,36.45317],[126.99819,36.45354],[127.00019,36.45523],[127.00042,36.45551],[127.00077,36.45601],[127.00423,36.45564],[127.00421,36.45555],[127.00419,36.45544],[127.00414,36.4553],[127.00407,36.4551],[127.00401,36.45495],[127.00391,36.45475],[127.00384,36.45461],[127.00373,36.45442],[127.00365,36.45428],[127.0035,36.4541],[127.00339,36.45398],[127.00327,36.45386],[127.00316,36.45377],[127.00306,36.45369],[127.00295,36.45362],[127.00284,36.45356],[127.00272,36.4535],[127.00248,36.45338],[127.00242,36.45334],[127.00229,36.45323],[127.00224,36.45318],[127.00219,36.45312],[127.00216,36.45308],[127.00214,36.45302],[127.00201,36.45258],[127.00198,36.45241],[127.00195,36.45222],[127.00195,36.4519],[127.00198,36.45164],[127.00202,36.45141],[127.00211,36.45123],[127.00218,36.45107],[127.00234,36.45086],[127.0025,36.45081],[127.00267,36.45081],[127.00292,36.45083],[127.00308,36.45085],[127.00339,36.45095],[127.00414,36.45134],[127.00439,36.4515],[127.00477,36.45171],[127.00519,36.45185],[127.00564,36.45197],[127.00627,36.45204],[127.00662,36.45204],[127.00693,36.45198],[127.00718,36.45187],[127.00735,36.45171],[127.0075,36.4515],[127.00758,36.45136],[127.00763,36.45115],[127.00832,36.44446],[127.00645,36.44127],[127.00636,36.44109],[127.00626,36.44083],[127.00623,36.44073],[127.00627,36.43992],[127.00636,36.43963],[127.00666,36.43924],[127.00673,36.43916],[127.00698,36.43889],[127.00754,36.43854],[127.00798,36.43836],[127.01258,36.43757],[127.01277,36.43755],[127.01301,36.43757],[127.01497,36.43796],[127.01533,36.43804],[127.016,36.43821],[127.01669,36.4386],[127.0172,36.43891],[127.01739,36.43904],[127.01765,36.43915],[127.01795,36.4392],[127.01829,36.43921],[127.01884,36.4392],[127.01892,36.43918],[127.01898,36.43917],[127.01918,36.43911],[127.01944,36.43899],[127.01955,36.43894],[127.01983,36.43873],[127.02003,36.43856],[127.02019,36.43827],[127.02019,36.43801],[127.02008,36.43772],[127.02004,36.43761],[127.01969,36.43722],[127.01932,36.43688],[127.01908,36.43666],[127.01881,36.43639],[127.01848,36.43585],[127.01829,36.43552],[127.01819,36.4353],[127.01809,36.43508],[127.01801,36.43482],[127.01797,36.4346],[127.01796,36.43429],[127.01798,36.43413],[127.02069,36.42901],[127.02085,36.42882],[127.022,36.42768],[127.02214,36.42757],[127.02217,36.42754],[127.02257,36.42734],[127.02306,36.42717],[127.02337,36.42707],[127.02345,36.42705],[127.02355,36.427],[127.02365,36.42695],[127.02374,36.42687],[127.02388,36.42676],[127.02396,36.42666],[127.02405,36.42656],[127.02411,36.42644],[127.02416,36.4263],[127.02417,36.42615],[127.02416,36.42595],[127.02414,36.42579],[127.02408,36.42546],[127.02397,36.42496],[127.02382,36.42433],[127.02379,36.42423],[127.02373,36.42406],[127.02352,36.42376],[127.02344,36.42366],[127.0233,36.42349],[127.02315,36.4234],[127.02299,36.42329],[127.02262,36.4231],[127.02178,36.42286],[127.02098,36.42257],[127.0206,36.42234],[127.01623,36.41937],[127.01569,36.4189],[127.01545,36.41861],[127.0153,36.41834],[127.01532,36.41825],[127.01542,36.41813],[127.01558,36.41798],[127.01588,36.41766],[127.01774,36.41591],[127.02428,36.40925],[127.02433,36.4092],[127.02444,36.40906],[127.02486,36.40853],[127.02781,36.40444],[127.02788,36.40434],[127.02797,36.40416],[127.02805,36.40388],[127.02805,36.40355],[127.02791,36.40313],[127.0273,36.40147],[127.02715,36.40115],[127.02551,36.39931],[127.02467,36.39856],[127.02428,36.39819],[127.02413,36.39801],[127.02393,36.3977],[127.02369,36.39726]]]]}},{"type":"Feature","properties":{"code":"44790350","name":"청남면","parent":"44790"},"geometry":{"type":"MultiPolygon","coordinates":[[[[126.99097,36.37209],[126.98954,36.36963],[126.98915,36.36891],[126.98845,36.36643],[126.98781,36.36303],[126.98762,36.36201],[126.98744,36.35911],[126.98788,36.3569],[126.9883,36.35293],[126.98824,36.35006],[126.98767,36.34701],[126.98676,36.3439],[126.98588,36.34245],[126.98362,36.34024],[126.97946,36.33746],[126.97575,36.33549],[126.97432,36.33476],[126.97261,36.33425],[126.96591,36.33394],[126.9652,36.33391],[126.95931,36.33205],[126.95835,36.33063],[126.95829,36.33051],[126.95748,36.32883],[126.95555,36.32728],[126.95405,36.32606],[126.95248,36.32501],[126.94854,36.32238],[126.94817,36.32216],[126.9437,36.31957],[126.94045,36.31825],[126.93861,36.31788],[126.93062,36.31596],[126.9273,36.31513],[126.92654,36.31574],[126.92638,36.31585],[126.92621,36.31594],[126.92572,36.31618],[126.91937,36.31922],[126.91597,36.32015],[126.91566,36.32018],[126.91532,36.32025],[126.91505,36.32035],[126.91484,36.32046],[126.91464,36.32057],[126.91441,36.32073],[126.91419,36.32094],[126.91355,36.32167],[126.91344,36.32188],[126.91317,36.32247],[126.91305,36.3228],[126.91301,36.32304],[126.91305,36.32318],[126.91316,36.3234],[126.91332,36.32358],[126.91348,36.32372],[126.9137,36.32387],[126.91405,36.32414],[126.91429,36.32441],[126.91445,36.3247],[126.9145,36.32491],[126.91447,36.32521],[126.91439,36.32553],[126.9143,36.32577],[126.91422,36.32594],[126.91413,36.32604],[126.91275,36.32699],[126.91245,36.32717],[126.91224,36.32727],[126.91199,36.32734],[126.9113,36.32743],[126.91101,36.32744],[126.91064,36.32739],[126.91044,36.32735],[126.91025,36.32725],[126.91004,36.32709],[126.90983,36.32691],[126.90975,36.32685],[126.90954,36.3267],[126.90937,36.32659],[126.90902,36.3264],[126.90868,36.32623],[126.90851,36.32618],[126.9072,36.32602],[126.90741,36.32769],[126.90924,36.32801],[126.91063,36.33086],[126.90828,36.3316],[126.91102,36.33693],[126.90949,36.33834],[126.90636,36.33745],[126.90515,36.33929],[126.90514,36.33932],[126.90226,36.339],[126.89825,36.34002],[126.89594,36.34139],[126.89594,36.34143],[126.89615,36.34344],[126.90152,36.34722],[126.90516,36.34971],[126.90537,36.34938],[126.90568,36.34844],[126.90882,36.34776],[126.91256,36.35009],[126.91549,36.35343],[126.92098,36.3577],[126.9258,36.36192],[126.92623,36.36212],[126.92664,36.36223],[126.92712,36.36235],[126.92776,36.36241],[126.92832,36.36241],[126.92882,36.36234],[126.92924,36.36221],[126.92956,36.36207],[126.92977,36.36193],[126.93245,36.36487],[126.93216,36.36633],[126.93221,36.36726],[126.93376,36.37176],[126.9353,36.37077],[126.93759,36.37078],[126.93624,36.37314],[126.93485,36.37463],[126.93382,36.37607],[126.9339,36.37668],[126.93421,36.37737],[126.93524,36.37797],[126.93588,36.37711],[126.937,36.37554],[126.93814,36.3749],[126.94144,36.37478],[126.94351,36.3727],[126.94374,36.37236],[126.94404,36.37193],[126.9456,36.37205],[126.94698,36.37218],[126.9474,36.37336],[126.94746,36.3737],[126.94803,36.37452],[126.94931,36.37579],[126.95022,36.37617],[126.95114,36.37616],[126.95332,36.37579],[126.95549,36.37671],[126.95561,36.37679],[126.95696,36.37852],[126.95951,36.38009],[126.96156,36.38115],[126.96289,36.38065],[126.96433,36.38107],[126.96463,36.38142],[126.96555,36.3823],[126.96777,36.38326],[126.96949,36.38346],[126.96982,36.38337],[126.97134,36.38225],[126.97589,36.37914],[126.97948,36.37733],[126.98095,36.37634],[126.98356,36.37385],[126.98546,36.37243],[126.98766,36.37238],[126.98824,36.37265],[126.98866,36.37278],[126.98928,36.37274],[126.99024,36.37251],[126.99076,36.37225],[126.99097,36.37209]]]]}},{"type":"Feature","properties":{"code":"44790360","name":"장평면","parent":"44790"},"geometry":{"type":"MultiPolygon","coordinates":[[[[126.93382,36.37607],[126.93485,36.37463],[126.93624,36.37314],[126.93759,36.37078],[126.9353,36.37077],[126.93376,36.37176],[126.93221,36.36726],[126.93216,36.36633],[126.93245,36.36487],[126.92977,36.36193],[126.92956,36.36207],[126.92924,36.36221],[126.92882,36.36234],[126.92832,36.36241],[126.92776,36.36241],[126.92712,36.36235],[126.92664,36.36223],[126.92623,36.36212],[126.9258,36.36192],[126.92098,36.3577],[126.91549,36.35343],[126.91256,36.35009],[126.90882,36.34776],[126.90568,36.34844],[126.90537,36.34938],[126.90516,36.34971],[126.90152,36.34722],[126.89615,36.34344],[126.89594,36.34143],[126.89594,36.34139],[126.89825,36.34002],[126.90226,36.339],[126.90514,36.33932],[126.90515,36.33929],[126.90636,36.33745],[126.90949,36.33834],[126.91102,36.33693],[126.90828,36.3316],[126.91063,36.33086],[126.90924,36.32801],[126.90741,36.32769],[126.9072,36.32602],[126.90596,36.32562],[126.90583,36.32561],[126.90573,36.32564],[126.90452,36.326],[126.90443,36.32605],[126.90433,36.32618],[126.90423,36.3264],[126.90409,36.32665],[126.90396,36.32689],[126.90372,36.32714],[126.90356,36.32724],[126.90336,36.32735],[126.90309,36.32745],[126.90294,36.32747],[126.90285,36.32746],[126.90169,36.32725],[126.90142,36.32731],[126.9013,36.32734],[126.90109,36.32741],[126.90092,36.32753],[126.90078,36.3277],[126.9006,36.32794],[126.90065,36.3283],[126.90072,36.32856],[126.90095,36.32905],[126.90105,36.32921],[126.90116,36.3294],[126.90134,36.32984],[126.90137,36.33009],[126.90129,36.33047],[126.90119,36.33081],[126.90071,36.33134],[126.90051,36.33144],[126.9001,36.33156],[126.89973,36.33158],[126.89932,36.33156],[126.89904,36.33149],[126.8988,36.33137],[126.89854,36.33121],[126.89828,36.33103],[126.89792,36.33068],[126.89755,36.33007],[126.89731,36.32968],[126.89691,36.3292],[126.89652,36.32878],[126.89521,36.32743],[126.89342,36.32619],[126.89322,36.32605],[126.89304,36.32594],[126.89283,36.32584],[126.89252,36.32575],[126.89214,36.32567],[126.89184,36.32562],[126.89139,36.32555],[126.89107,36.32551],[126.88124,36.32459],[126.88105,36.32458],[126.88078,36.32463],[126.88043,36.32475],[126.88027,36.32477],[126.87991,36.32477],[126.87948,36.32476],[126.87919,36.32474],[126.87884,36.32469],[126.87846,36.32462],[126.87814,36.32456],[126.87776,36.32443],[126.87696,36.32412],[126.87654,36.32394],[126.87598,36.32348],[126.87584,36.32338],[126.8757,36.3233],[126.87558,36.32325],[126.87542,36.32321],[126.87518,36.32317],[126.87496,36.32313],[126.87461,36.3231],[126.87435,36.32309],[126.87422,36.32308],[126.87408,36.32311],[126.8739,36.32316],[126.8737,36.32324],[126.87292,36.32362],[126.87247,36.32399],[126.87207,36.32409],[126.87167,36.32415],[126.87086,36.32418],[126.87004,36.32418],[126.86987,36.32416],[126.86967,36.3241],[126.86922,36.32386],[126.86898,36.32372],[126.86888,36.32365],[126.8688,36.32358],[126.86861,36.32341],[126.86847,36.32334],[126.86838,36.32332],[126.86669,36.32298],[126.86649,36.32295],[126.86629,36.32295],[126.86325,36.32347],[126.86312,36.3235],[126.86279,36.3236],[126.86259,36.32368],[126.86234,36.32379],[126.86218,36.32388],[126.85928,36.32575],[126.85911,36.32587],[126.85901,36.32595],[126.85555,36.33079],[126.85553,36.33096],[126.85557,36.33111],[126.85566,36.33135],[126.85587,36.33169],[126.85737,36.33297],[126.85809,36.33355],[126.85829,36.33365],[126.85846,36.33377],[126.85875,36.33417],[126.85981,36.33586],[126.86,36.3362],[126.86026,36.33688],[126.86042,36.33754],[126.86046,36.33833],[126.86045,36.33882],[126.86035,36.33986],[126.86026,36.34033],[126.85987,36.34184],[126.85963,36.34274],[126.85938,36.34317],[126.85913,36.34342],[126.85726,36.3446],[126.85695,36.34478],[126.85538,36.34554],[126.85481,36.34578],[126.85411,36.34605],[126.85375,36.34621],[126.85371,36.34624],[126.85364,36.34631],[126.85328,36.34693],[126.85259,36.34827],[126.85228,36.34891],[126.85179,36.35003],[126.84993,36.35308],[126.84938,36.35393],[126.849,36.35448],[126.84852,36.35512],[126.84842,36.35524],[126.84835,36.35532],[126.84821,36.35544],[126.8481,36.35551],[126.84804,36.35554],[126.84792,36.35557],[126.84773,36.35559],[126.84742,36.35557],[126.84556,36.35537],[126.84491,36.35526],[126.84443,36.3552],[126.84373,36.35512],[126.84278,36.35503],[126.84249,36.35501],[126.84229,36.35504],[126.84203,36.3551],[126.84179,36.35518],[126.84168,36.35522],[126.84158,36.3553],[126.84143,36.35543],[126.84109,36.35584],[126.84063,36.35646],[126.84047,36.3567],[126.84044,36.35683],[126.84045,36.35695],[126.84053,36.35716],[126.8407,36.35749],[126.84098,36.35798],[126.84119,36.35829],[126.84134,36.35848],[126.84226,36.35937],[126.84288,36.35984],[126.84338,36.36019],[126.84372,36.36049],[126.84405,36.36086],[126.84447,36.36138],[126.84471,36.36179],[126.84481,36.3621],[126.84488,36.36245],[126.8449,36.36292],[126.84488,36.36331],[126.84484,36.36362],[126.84477,36.3639],[126.84469,36.36405],[126.84414,36.36464],[126.844,36.36476],[126.84377,36.36489],[126.84339,36.36503],[126.84319,36.36507],[126.84278,36.36511],[126.84249,36.36513],[126.84213,36.36509],[126.84169,36.36501],[126.83904,36.36425],[126.83856,36.36411],[126.83811,36.36398],[126.83763,36.36383],[126.83682,36.36363],[126.83641,36.36355],[126.83607,36.36352],[126.83592,36.36351],[126.83563,36.36352],[126.83548,36.36354],[126.83523,36.3636],[126.83504,36.36368],[126.83495,36.36376],[126.83486,36.36386],[126.83479,36.36396],[126.8347,36.36411],[126.83453,36.36454],[126.83442,36.36493],[126.8343,36.36576],[126.83427,36.36618],[126.83425,36.36659],[126.83431,36.3677],[126.83438,36.36844],[126.83442,36.36878],[126.83448,36.36927],[126.83457,36.37],[126.8346,36.37032],[126.8346,36.37068],[126.8346,36.37079],[126.83453,36.37128],[126.83445,36.37153],[126.83427,36.37195],[126.83411,36.37229],[126.83378,36.37281],[126.83335,36.37347],[126.83289,36.37409],[126.83273,36.37427],[126.83234,36.3747],[126.832,36.37509],[126.83174,36.37549],[126.83163,36.37576],[126.83159,36.37594],[126.8316,36.37615],[126.83165,36.37636],[126.83177,36.3767],[126.83186,36.37691],[126.83196,36.37707],[126.83204,36.37713],[126.83222,36.37721],[126.83306,36.37746],[126.83372,36.37761],[126.83425,36.37771],[126.8346,36.37775],[126.83509,36.3778],[126.83552,36.37783],[126.83596,36.37782],[126.83635,36.37778],[126.83652,36.37773],[126.83679,36.37761],[126.83723,36.37736],[126.83752,36.3772],[126.83781,36.37699],[126.83798,36.37685],[126.83924,36.37551],[126.84023,36.37446],[126.84032,36.37439],[126.84084,36.37407],[126.84155,36.37365],[126.84175,36.37354],[126.84252,36.37342],[126.84264,36.37341],[126.84275,36.37342],[126.84284,36.37346],[126.84302,36.3736],[126.84343,36.37392],[126.84399,36.37443],[126.84426,36.37469],[126.84461,36.37505],[126.84516,36.37576],[126.84563,36.37643],[126.84573,36.37658],[126.84586,36.37686],[126.84596,36.37716],[126.84614,36.37776],[126.84637,36.3785],[126.84651,36.37904],[126.84665,36.37959],[126.84678,36.37995],[126.84686,36.38012],[126.8474,36.38102],[126.84757,36.38128],[126.84797,36.38185],[126.84834,36.38233],[126.849,36.38318],[126.84926,36.3835],[126.84954,36.38379],[126.84999,36.38419],[126.8502,36.38441],[126.85037,36.38465],[126.85042,36.38478],[126.85045,36.3849],[126.8504,36.38512],[126.85029,36.38528],[126.84984,36.38569],[126.84868,36.38676],[126.84838,36.38717],[126.84759,36.39023],[126.84868,36.39083],[126.85269,36.38932],[126.8533,36.38802],[126.85632,36.38591],[126.85758,36.38549],[126.85858,36.38587],[126.85889,36.38725],[126.85701,36.38993],[126.85628,36.39102],[126.85638,36.39204],[126.85814,36.39249],[126.85906,36.39243],[126.86016,36.39237],[126.86336,36.39273],[126.86416,36.39296],[126.86503,36.39322],[126.86574,36.39379],[126.86634,36.39523],[126.87098,36.39876],[126.87425,36.40158],[126.87588,36.40258],[126.87784,36.40265],[126.88089,36.40271],[126.88094,36.40271],[126.88287,36.40888],[126.88294,36.41156],[126.88301,36.41161],[126.88488,36.41296],[126.88625,36.4123],[126.88727,36.4091],[126.88874,36.40774],[126.88943,36.40751],[126.89344,36.40616],[126.8942,36.4051],[126.89499,36.4036],[126.89914,36.40281],[126.90454,36.40227],[126.90476,36.39784],[126.90531,36.39459],[126.9178,36.38994],[126.921,36.38856],[126.92207,36.38808],[126.92276,36.38733],[126.92271,36.3853],[126.92263,36.38343],[126.92275,36.38136],[126.92279,36.38057],[126.92292,36.37911],[126.924,36.37936],[126.92633,36.37886],[126.92961,36.37752],[126.93339,36.37608],[126.93382,36.37607]]]]}},{"type":"Feature","properties":{"code":"44790370","name":"남양면","parent":"44790"},"geometry":{"type":"MultiPolygon","coordinates":[[[[126.82002,36.41817],[126.8215,36.41775],[126.82189,36.41742],[126.82243,36.4153],[126.82146,36.4126],[126.81993,36.41198],[126.8196,36.41032],[126.8192,36.40825],[126.81866,36.40175],[126.8187,36.39979],[126.81887,36.39897],[126.81944,36.39814],[126.82028,36.39708],[126.82162,36.39307],[126.82182,36.39224],[126.82147,36.39051],[126.8205,36.38841],[126.81947,36.38678],[126.81923,36.38634],[126.81901,36.38558],[126.81893,36.38467],[126.81889,36.38398],[126.82022,36.38311],[126.8215,36.38264],[126.82274,36.38129],[126.82265,36.38091],[126.82006,36.37721],[126.81932,36.37673],[126.81854,36.37651],[126.81783,36.3765],[126.81777,36.37651],[126.81718,36.37683],[126.81626,36.3771],[126.8156,36.37725],[126.81517,36.37729],[126.81379,36.37741],[126.81238,36.37726],[126.80904,36.37675],[126.80863,36.37659],[126.80653,36.37414],[126.80639,36.37366],[126.80635,36.37256],[126.80612,36.36961],[126.8036,36.36373],[126.80328,36.36314],[126.80277,36.36267],[126.80216,36.36235],[126.80074,36.36211],[126.80011,36.36181],[126.79769,36.35899],[126.79758,36.35861],[126.79739,36.35686],[126.7977,36.35613],[126.79746,36.35567],[126.7971,36.35504],[126.79705,36.35496],[126.7958,36.35325],[126.79497,36.35224],[126.79432,36.35198],[126.79218,36.35187],[126.7878,36.35478],[126.78726,36.35516],[126.78683,36.35593],[126.78657,36.3564],[126.78624,36.35692],[126.7855,36.35702],[126.78324,36.35713],[126.7815,36.35707],[126.78108,36.35704],[126.78081,36.3567],[126.78047,36.35638],[126.77293,36.35433],[126.7656,36.35311],[126.76524,36.35305],[126.76482,36.35305],[126.76243,36.35353],[126.76116,36.35389],[126.7607,36.35408],[126.76032,36.35443],[126.75994,36.35478],[126.75951,36.35502],[126.75927,36.35505],[126.75887,36.3551],[126.75694,36.35468],[126.75532,36.35598],[126.75508,36.35608],[126.75466,36.35608],[126.75416,36.35594],[126.75378,36.35591],[126.75227,36.35622],[126.75187,36.35667],[126.75149,36.35711],[126.74942,36.35963],[126.74807,36.36228],[126.74794,36.36261],[126.74779,36.36392],[126.74779,36.36467],[126.7482,36.36506],[126.74838,36.36543],[126.74831,36.36606],[126.74795,36.36619],[126.74666,36.36616],[126.7463,36.36614],[126.74461,36.3652],[126.74445,36.36476],[126.74436,36.36431],[126.74418,36.36387],[126.74388,36.36351],[126.7435,36.3634],[126.74312,36.3634],[126.74125,36.3636],[126.73949,36.36509],[126.7391,36.36557],[126.73878,36.36608],[126.73859,36.36645],[126.73888,36.36888],[126.7393,36.37135],[126.73941,36.37192],[126.73943,36.37255],[126.73917,36.37359],[126.73848,36.37479],[126.73804,36.37539],[126.73789,36.37554],[126.73758,36.37584],[126.7373,36.37604],[126.73717,36.37613],[126.73655,36.37638],[126.73502,36.37773],[126.73475,36.37795],[126.73469,36.37797],[126.73448,36.37803],[126.73415,36.37803],[126.73123,36.37738],[126.73111,36.37735],[126.73076,36.37725],[126.72964,36.37688],[126.72743,36.37614],[126.72662,36.37583],[126.72475,36.37475],[126.72438,36.37507],[126.72293,36.37634],[126.72271,36.37655],[126.72217,36.37713],[126.72173,36.37785],[126.71842,36.38072],[126.71701,36.3816],[126.71538,36.38266],[126.71521,36.38281],[126.71142,36.38737],[126.71114,36.38773],[126.71097,36.38798],[126.71063,36.38855],[126.7105,36.38879],[126.71049,36.38883],[126.71087,36.38946],[126.71102,36.38967],[126.71376,36.3929],[126.71399,36.39314],[126.71422,36.39336],[126.7146,36.39368],[126.71499,36.39486],[126.7161,36.39527],[126.71868,36.39676],[126.71879,36.3975],[126.71926,36.39979],[126.72002,36.40291],[126.72027,36.40375],[126.72094,36.40415],[126.72155,36.40451],[126.72202,36.40456],[126.72263,36.40496],[126.72415,36.40643],[126.72437,36.40731],[126.72437,36.40798],[126.72423,36.40852],[126.72389,36.40885],[126.72372,36.40935],[126.72431,36.41],[126.72508,36.41077],[126.72777,36.41302],[126.72965,36.41455],[126.72968,36.41507],[126.72954,36.41599],[126.73048,36.41772],[126.73225,36.41822],[126.73395,36.41867],[126.7365,36.41933],[126.73725,36.42001],[126.73769,36.42043],[126.73797,36.42169],[126.73901,36.4228],[126.7391,36.42291],[126.74021,36.42347],[126.74097,36.42325],[126.74152,36.42291],[126.74211,36.42274],[126.74383,36.42227],[126.74686,36.42198],[126.74761,36.42241],[126.7493,36.42394],[126.74989,36.42453],[126.75205,36.42705],[126.75232,36.42972],[126.75217,36.43033],[126.75198,36.43117],[126.75375,36.43127],[126.75617,36.43107],[126.75722,36.4315],[126.75901,36.43158],[126.76127,36.43121],[126.76096,36.42981],[126.76121,36.42911],[126.76233,36.42771],[126.76444,36.42587],[126.76558,36.42507],[126.76713,36.42525],[126.7693,36.4239],[126.76952,36.42283],[126.77094,36.42178],[126.77228,36.42094],[126.77506,36.42094],[126.77611,36.42149],[126.77744,36.422],[126.77877,36.42135],[126.78112,36.4195],[126.7823,36.41806],[126.78663,36.41567],[126.78923,36.41537],[126.79081,36.41657],[126.79222,36.418],[126.79236,36.41828],[126.79245,36.41846],[126.79262,36.4188],[126.79576,36.42186],[126.79645,36.4199],[126.79683,36.41938],[126.79943,36.41761],[126.80076,36.41764],[126.8023,36.41949],[126.80328,36.42112],[126.80684,36.42067],[126.80795,36.42032],[126.81058,36.41983],[126.81584,36.41899],[126.81859,36.41874],[126.82002,36.41817]]]]}},{"type":"Feature","properties":{"code":"44790380","name":"화성면","parent":"44790"},"geometry":{"type":"MultiPolygon","coordinates":[[[[126.73618,36.47177],[126.7361,36.47115],[126.73602,36.47058],[126.73704,36.46649],[126.73787,36.46649],[126.73848,36.46669],[126.73896,36.46622],[126.74172,36.4634],[126.74276,36.46199],[126.74437,36.46226],[126.74454,36.46227],[126.74512,36.46231],[126.74548,36.46208],[126.74743,36.46056],[126.75086,36.45794],[126.75315,36.45693],[126.75365,36.45644],[126.7542,36.45586],[126.75343,36.4552],[126.75254,36.45423],[126.75167,36.45292],[126.75076,36.44831],[126.75133,36.44548],[126.7534,36.4441],[126.75342,36.44409],[126.75437,36.44346],[126.75586,36.44007],[126.7558,36.43844],[126.75294,36.43564],[126.75241,36.43576],[126.75176,36.43501],[126.7509,36.43381],[126.75125,36.43204],[126.75198,36.43117],[126.75217,36.43033],[126.75232,36.42972],[126.75205,36.42705],[126.74989,36.42453],[126.7493,36.42394],[126.74761,36.42241],[126.74686,36.42198],[126.74383,36.42227],[126.74211,36.42274],[126.74152,36.42291],[126.74097,36.42325],[126.74021,36.42347],[126.7391,36.42291],[126.73901,36.4228],[126.73797,36.42169],[126.73769,36.42043],[126.73725,36.42001],[126.7365,36.41933],[126.73395,36.41867],[126.73225,36.41822],[126.73048,36.41772],[126.72954,36.41599],[126.72968,36.41507],[126.72965,36.41455],[126.72777,36.41302],[126.72508,36.41077],[126.72431,36.41],[126.72372,36.40935],[126.72389,36.40885],[126.72423,36.40852],[126.72437,36.40798],[126.72437,36.40731],[126.72415,36.40643],[126.72263,36.40496],[126.72202,36.40456],[126.72155,36.40451],[126.72094,36.40415],[126.72027,36.40375],[126.72002,36.40291],[126.71926,36.39979],[126.71879,36.3975],[126.71868,36.39676],[126.7161,36.39527],[126.71499,36.39486],[126.7146,36.39368],[126.71457,36.39372],[126.71437,36.39387],[126.71427,36.39395],[126.71394,36.39418],[126.71127,36.39579],[126.7111,36.39587],[126.71103,36.3959],[126.71075,36.39601],[126.71061,36.39604],[126.7104,36.39608],[126.71008,36.39612],[126.70985,36.39617],[126.70948,36.39627],[126.70944,36.39629],[126.70934,36.39636],[126.70921,36.39655],[126.70918,36.39664],[126.70916,36.39698],[126.70916,36.39713],[126.70915,36.39731],[126.70915,36.39766],[126.70917,36.39826],[126.70918,36.39839],[126.70921,36.39857],[126.70928,36.39886],[126.70939,36.39923],[126.70946,36.39947],[126.7096,36.39992],[126.70959,36.40008],[126.70952,36.40028],[126.70945,36.40045],[126.70646,36.40409],[126.70621,36.40439],[126.70605,36.40451],[126.70595,36.40457],[126.7059,36.40459],[126.70576,36.40465],[126.70561,36.40467],[126.7042,36.40481],[126.70411,36.40482],[126.70399,36.40481],[126.70395,36.40481],[126.7038,36.40477],[126.7035,36.4047],[126.70336,36.4047],[126.70326,36.40472],[126.70323,36.40473],[126.70312,36.40477],[126.70078,36.4057],[126.69613,36.40832],[126.69167,36.41041],[126.69162,36.41044],[126.6916,36.41048],[126.69121,36.41133],[126.69063,36.41318],[126.69068,36.41598],[126.69068,36.41608],[126.6907,36.41616],[126.69076,36.41633],[126.69082,36.41647],[126.69086,36.41654],[126.69088,36.41657],[126.69097,36.41664],[126.69105,36.41671],[126.6916,36.4178],[126.69204,36.41912],[126.69207,36.42034],[126.69161,36.42178],[126.69155,36.42195],[126.6914,36.42223],[126.69125,36.42243],[126.69115,36.42256],[126.69098,36.42268],[126.69073,36.42281],[126.69057,36.42289],[126.69045,36.423],[126.68936,36.42459],[126.68886,36.42545],[126.68885,36.42553],[126.68885,36.42561],[126.68887,36.4257],[126.68893,36.42589],[126.68895,36.42596],[126.68898,36.42602],[126.68907,36.4262],[126.68915,36.42636],[126.68927,36.42655],[126.68935,36.42661],[126.68944,36.42667],[126.69017,36.4271],[126.69067,36.42728],[126.69086,36.42734],[126.69105,36.4274],[126.69111,36.42751],[126.69156,36.42865],[126.69157,36.4287],[126.69157,36.42873],[126.69153,36.42882],[126.69146,36.42901],[126.69139,36.42914],[126.69086,36.43008],[126.6908,36.43017],[126.6888,36.43276],[126.68877,36.4328],[126.68873,36.43284],[126.68852,36.43305],[126.68826,36.43329],[126.68792,36.43358],[126.68687,36.43449],[126.68663,36.43468],[126.68648,36.4348],[126.68633,36.43491],[126.68629,36.43494],[126.68619,36.435],[126.68606,36.43508],[126.6856,36.43509],[126.6855,36.43508],[126.68543,36.43508],[126.68533,36.43507],[126.68528,36.43509],[126.68522,36.43511],[126.68513,36.43518],[126.68402,36.43603],[126.68397,36.43609],[126.68397,36.43614],[126.68405,36.43812],[126.68407,36.43827],[126.68413,36.43841],[126.68419,36.4385],[126.68424,36.43852],[126.68431,36.43856],[126.68449,36.43862],[126.68502,36.43877],[126.68519,36.43882],[126.68526,36.43885],[126.68532,36.4389],[126.68535,36.43893],[126.68569,36.4394],[126.68571,36.43944],[126.68612,36.44018],[126.68661,36.4411],[126.68715,36.44215],[126.68875,36.44539],[126.68879,36.44558],[126.68879,36.44568],[126.68796,36.44763],[126.68683,36.44795],[126.6867,36.44783],[126.68656,36.44775],[126.68642,36.44773],[126.68632,36.44774],[126.68619,36.44775],[126.68173,36.44828],[126.68163,36.4483],[126.6814,36.44837],[126.6811,36.44848],[126.68096,36.44854],[126.67986,36.44908],[126.6779,36.45017],[126.67769,36.4503],[126.6775,36.45043],[126.67734,36.45057],[126.67728,36.45067],[126.67724,36.45076],[126.67433,36.45682],[126.67424,36.45703],[126.67421,36.45716],[126.67424,36.45724],[126.67453,36.45829],[126.67464,36.45978],[126.6746,36.46003],[126.67446,36.46032],[126.67426,36.4607],[126.67377,36.4616],[126.67365,36.4618],[126.67361,36.46186],[126.67351,36.46196],[126.67335,36.46207],[126.67318,36.46216],[126.67312,36.46219],[126.67582,36.46266],[126.67598,36.46273],[126.67652,36.463],[126.67986,36.46525],[126.6808,36.46663],[126.6825,36.46759],[126.68295,36.46781],[126.68335,36.468],[126.68441,36.46849],[126.68715,36.46949],[126.69142,36.47107],[126.69201,36.47167],[126.69261,36.47258],[126.69294,36.47307],[126.69542,36.4742],[126.69817,36.47547],[126.699,36.47641],[126.70084,36.47844],[126.70107,36.47868],[126.70225,36.47918],[126.70249,36.47921],[126.70337,36.47932],[126.70594,36.47853],[126.70636,36.4784],[126.70751,36.47829],[126.70782,36.47826],[126.70873,36.47833],[126.71123,36.479],[126.714,36.48121],[126.71405,36.48124],[126.71462,36.48154],[126.71476,36.48162],[126.71843,36.48198],[126.71915,36.48192],[126.71994,36.48133],[126.72259,36.47986],[126.72325,36.48],[126.72456,36.48077],[126.72655,36.47998],[126.72883,36.47887],[126.72949,36.47844],[126.73544,36.47325],[126.73618,36.47177]]]]}},{"type":"Feature","properties":{"code":"44790390","name":"비봉면","parent":"44790"},"geometry":{"type":"MultiPolygon","coordinates":[[[[126.82486,36.52849],[126.82513,36.52775],[126.8252,36.52426],[126.82519,36.52376],[126.82507,36.52323],[126.82414,36.52168],[126.8235,36.52118],[126.82249,36.52033],[126.82224,36.51944],[126.82207,36.51828],[126.82207,36.51761],[126.82222,36.51715],[126.82246,36.51563],[126.8223,36.51488],[126.82206,36.51398],[126.82159,36.51222],[126.82118,36.51177],[126.82047,36.51141],[126.81959,36.51107],[126.81867,36.51079],[126.81811,36.51049],[126.81701,36.50954],[126.81691,36.50888],[126.81678,36.508],[126.81634,36.50692],[126.81592,36.50636],[126.81537,36.50583],[126.81459,36.50526],[126.81355,36.50431],[126.81352,36.50395],[126.81357,36.50373],[126.81366,36.50325],[126.81391,36.50291],[126.81473,36.50258],[126.81535,36.50255],[126.8167,36.50171],[126.81712,36.50135],[126.81733,36.50086],[126.8173,36.50023],[126.81696,36.49842],[126.81648,36.49484],[126.81672,36.49438],[126.81727,36.49397],[126.81742,36.49335],[126.81503,36.48852],[126.81462,36.48769],[126.81435,36.48742],[126.81391,36.48702],[126.81337,36.48667],[126.813,36.48635],[126.813,36.48631],[126.813,36.48594],[126.8133,36.48434],[126.81383,36.4835],[126.81232,36.48225],[126.81288,36.48135],[126.81131,36.4786],[126.8101,36.47772],[126.80262,36.47603],[126.79956,36.47563],[126.79841,36.47555],[126.79825,36.4764],[126.79825,36.47703],[126.79788,36.47758],[126.79561,36.47801],[126.79491,36.47814],[126.79333,36.47844],[126.79058,36.47881],[126.78364,36.47932],[126.7825,36.47845],[126.78111,36.47687],[126.78062,36.47549],[126.78061,36.47545],[126.78059,36.4754],[126.78055,36.4754],[126.77731,36.47539],[126.77406,36.47586],[126.77202,36.47585],[126.76998,36.47553],[126.76868,36.47515],[126.76667,36.47442],[126.76497,36.47349],[126.7642,36.47297],[126.76186,36.47001],[126.76048,36.46771],[126.76048,36.46589],[126.76107,36.46567],[126.76243,36.46517],[126.76132,36.46394],[126.76012,36.46254],[126.76,36.46229],[126.76021,36.46194],[126.76068,36.46127],[126.76078,36.46034],[126.75973,36.45969],[126.75787,36.45896],[126.75735,36.45829],[126.7559,36.45676],[126.75464,36.45588],[126.7542,36.45586],[126.75365,36.45644],[126.75315,36.45693],[126.75086,36.45794],[126.74743,36.46056],[126.74548,36.46208],[126.74512,36.46231],[126.74454,36.46227],[126.74437,36.46226],[126.74276,36.46199],[126.74172,36.4634],[126.73896,36.46622],[126.73848,36.46669],[126.73787,36.46649],[126.73704,36.46649],[126.73602,36.47058],[126.7361,36.47115],[126.73618,36.47177],[126.73813,36.47504],[126.74144,36.48075],[126.74348,36.48381],[126.7445,36.48504],[126.74498,36.48828],[126.74376,36.48966],[126.74372,36.48994],[126.74364,36.49054],[126.74384,36.49094],[126.74519,36.4919],[126.74608,36.49254],[126.74683,36.49367],[126.74751,36.49513],[126.74923,36.49997],[126.74948,36.50194],[126.74963,36.50319],[126.7504,36.50369],[126.75087,36.50367],[126.75128,36.50366],[126.75224,36.5036],[126.75293,36.50354],[126.75355,36.50349],[126.75359,36.50349],[126.75394,36.50346],[126.75536,36.50334],[126.75581,36.50331],[126.7563,36.50355],[126.75657,36.50387],[126.75795,36.50587],[126.76066,36.50919],[126.76121,36.50977],[126.76139,36.50991],[126.76173,36.51016],[126.76288,36.51085],[126.76318,36.51104],[126.76413,36.51158],[126.76461,36.51189],[126.76506,36.51232],[126.76543,36.51271],[126.76576,36.51315],[126.76954,36.51833],[126.76962,36.5185],[126.76973,36.51881],[126.76974,36.51899],[126.76975,36.51927],[126.76969,36.51961],[126.7696,36.51991],[126.76929,36.5209],[126.76917,36.5213],[126.76898,36.52198],[126.76885,36.52248],[126.76879,36.52281],[126.76869,36.52341],[126.76868,36.52354],[126.7687,36.52454],[126.76872,36.52501],[126.76875,36.5254],[126.76877,36.52576],[126.7688,36.52606],[126.76922,36.52763],[126.76967,36.52918],[126.76982,36.52956],[126.76997,36.5299],[126.77065,36.53099],[126.77101,36.53154],[126.77313,36.53431],[126.77688,36.53257],[126.78038,36.53219],[126.78071,36.53219],[126.78127,36.53246],[126.78172,36.53273],[126.782,36.53349],[126.78294,36.53465],[126.78352,36.53482],[126.78462,36.53485],[126.7853,36.53474],[126.78739,36.53394],[126.78912,36.53324],[126.79103,36.53269],[126.79176,36.53226],[126.79351,36.53177],[126.79496,36.53144],[126.79805,36.53059],[126.79996,36.52933],[126.80148,36.52838],[126.8046,36.52684],[126.80504,36.52666],[126.8052,36.52666],[126.80593,36.52815],[126.8064,36.52979],[126.81201,36.53122],[126.81259,36.53121],[126.81264,36.53121],[126.81376,36.53091],[126.81411,36.53077],[126.81523,36.52982],[126.81584,36.5291],[126.81724,36.52928],[126.81875,36.52953],[126.82059,36.52929],[126.82162,36.52915],[126.82448,36.52858],[126.82486,36.52849]]]]}}]}