{"type":"FeatureCollection","features":[{"type":"Feature","properties":{"code":"11260520","name":"면목2동","parent":"11260"},"geometry":{"type":"MultiPolygon","coordinates":[[[[127.08677,37.59277],[127.08409,37.58761],[127.07368,37.58535],[127.07163,37.58795],[127.07072,37.59091],[127.07865,37.59297],[127.07903,37.59216],[127.08012,37.59156],[127.0843,37.59224],[127.08677,37.59277]]]]}},{"type":"Feature","properties":{"code":"11260540","name":"면목4동","parent":"11260"},"geometry":{"type":"MultiPolygon","coordinates":[[[[127.09575,37.5711],[127.09565,37.5711],[127.09551,37.57105],[127.09544,37.57103],[127.09531,37.57097],[127.09515,37.5709],[127.0951,37.57088],[127.09496,37.57082],[127.09477,37.57073],[127.09457,37.5706],[127.09443,37.57055],[127.09432,37.57052],[127.09428,37.5705],[127.09419,37.57047],[127.09409,37.57045],[127.09398,37.57043],[127.09393,37.57042],[127.0938,37.57041],[127.09365,37.57039],[127.09345,37.57033],[127.09331,37.57031],[127.09323,37.57032],[127.09309,37.57033],[127.09292,37.57036],[127.09278,37.57038],[127.09269,37.5704],[127.09263,37.57041],[127.09253,37.57025],[127.09249,37.5701],[127.0924,37.56996],[127.09231,37.56987],[127.09223,37.56983],[127.09208,37.56976],[127.09195,37.56971],[127.0918,37.56965],[127.09146,37.56959],[127.09121,37.56956],[127.09117,37.56956],[127.09077,37.56958],[127.09072,37.56958],[127.09046,37.56961],[127.09035,37.56962],[127.09023,37.56965],[127.0901,37.56968],[127.09,37.5697],[127.0899,37.56976],[127.08986,37.5698],[127.08977,37.56988],[127.08958,37.56997],[127.08931,37.57012],[127.08919,37.57016],[127.08909,37.57018],[127.08898,37.57018],[127.08892,37.57017],[127.08876,37.57014],[127.08871,37.57013],[127.0884,37.57008],[127.08833,37.5703],[127.0883,37.57039],[127.08816,37.57082],[127.08805,37.57083],[127.08801,37.57083],[127.0879,37.57083],[127.08759,37.57084],[127.08755,37.57084],[127.08723,37.57084],[127.08718,37.57084],[127.08713,37.57084],[127.08704,37.57084],[127.087,37.57084],[127.08696,37.57084],[127.08688,37.57084],[127.08683,37.57084],[127.08672,37.57084],[127.08617,37.57082],[127.08098,37.57161],[127.07858,37.57186],[127.07864,37.57263],[127.07832,37.57678],[127.07866,37.57693],[127.07961,37.57738],[127.07966,37.57679],[127.08068,37.57637],[127.08591,37.57678],[127.08871,37.57701],[127.08876,37.57699],[127.09214,37.57462],[127.09258,37.57429],[127.0949,37.57245],[127.09545,37.57196],[127.09563,37.57154],[127.09575,37.5711]]]]}},{"type":"Feature","properties":{"code":"11260550","name":"면목5동","parent":"11260"},"geometry":{"type":"MultiPolygon","coordinates":[[[[127.08353,37.58444],[127.08339,37.58115],[127.07961,37.57738],[127.07866,37.57693],[127.07832,37.57678],[127.07723,37.58098],[127.07368,37.58535],[127.08409,37.58761],[127.08353,37.58444]]]]}},{"type":"Feature","properties":{"code":"11260570","name":"면목7동","parent":"11260"},"geometry":{"type":"MultiPolygon","coordinates":[[[[127.10268,37.57891],[127.10267,37.5783],[127.10126,37.57498],[127.10093,37.57356],[127.09575,37.5711],[127.09563,37.57154],[127.09545,37.57196],[127.0949,37.57245],[127.09258,37.57429],[127.09214,37.57462],[127.08876,37.57699],[127.08871,37.57701],[127.08591,37.57678],[127.08068,37.57637],[127.07966,37.57679],[127.07961,37.57738],[127.08339,37.58115],[127.08587,37.58098],[127.08906,37.58065],[127.09164,37.58064],[127.09498,37.58074],[127.09978,37.57955],[127.10268,37.57891]]]]}},{"type":"Feature","properties":{"code":"11260580","name":"상봉1동","parent":"11260"},"geometry":{"type":"MultiPolygon","coordinates":[[[[127.0958,37.60061],[127.09552,37.59946],[127.09279,37.59816],[127.08936,37.59734],[127.0864,37.59662],[127.08554,37.59638],[127.08491,37.5962],[127.08253,37.59554],[127.08129,37.59524],[127.08052,37.59506],[127.08028,37.595],[127.08033,37.59587],[127.08082,37.59596],[127.08306,37.59642],[127.0831,37.59643],[127.08625,37.60023],[127.08653,37.60066],[127.08699,37.60197],[127.08709,37.60421],[127.08696,37.60628],[127.08672,37.60689],[127.08637,37.60756],[127.0861,37.60873],[127.0865,37.60938],[127.08716,37.60962],[127.08796,37.6099],[127.09075,37.60744],[127.09127,37.60726],[127.09363,37.60495],[127.09429,37.60243],[127.0951,37.60088],[127.09544,37.60056],[127.09547,37.60053],[127.09574,37.6006],[127.0958,37.60061]]]]}},{"type":"Feature","properties":{"code":"11260590","name":"상봉2동","parent":"11260"},"geometry":{"type":"MultiPolygon","coordinates":[[[[127.0932,37.59415],[127.08787,37.59301],[127.08677,37.59277],[127.0843,37.59224],[127.08012,37.59156],[127.07903,37.59216],[127.07865,37.59297],[127.07072,37.59091],[127.07036,37.59248],[127.08028,37.595],[127.08052,37.59506],[127.08129,37.59524],[127.08253,37.59554],[127.08491,37.5962],[127.08554,37.59638],[127.0864,37.59662],[127.08936,37.59734],[127.09279,37.59816],[127.0932,37.59415]]]]}},{"type":"Feature","properties":{"code":"11260600","name":"중화1동","parent":"11260"},"geometry":{"type":"MultiPolygon","coordinates":[[[[127.08033,37.59587],[127.08033,37.59707],[127.08028,37.59737],[127.08023,37.59768],[127.08015,37.59808],[127.07944,37.60193],[127.07938,37.60225],[127.07906,37.60389],[127.07874,37.60537],[127.07913,37.60542],[127.07942,37.60545],[127.08048,37.60557],[127.08325,37.60661],[127.08345,37.60673],[127.08515,37.60801],[127.08543,37.60833],[127.08565,37.60862],[127.08567,37.60866],[127.08581,37.6089],[127.08595,37.60924],[127.08598,37.60936],[127.0865,37.60938],[127.0861,37.60873],[127.08637,37.60756],[127.08672,37.60689],[127.08696,37.60628],[127.08709,37.60421],[127.08699,37.60197],[127.08653,37.60066],[127.08625,37.60023],[127.0831,37.59643],[127.08306,37.59642],[127.08082,37.59596],[127.08033,37.59587]]]]}},{"type":"Feature","properties":{"code":"11260610","name":"중화2동","parent":"11260"},"geometry":{"type":"MultiPolygon","coordinates":[[[[127.08033,37.59587],[127.08028,37.595],[127.07036,37.59248],[127.06963,37.59488],[127.06983,37.59775],[127.07162,37.59982],[127.0718,37.60007],[127.07199,37.60032],[127.07246,37.60111],[127.07261,37.60155],[127.07263,37.6016],[127.07265,37.60168],[127.07271,37.60227],[127.07272,37.60244],[127.0727,37.60279],[127.07244,37.60406],[127.07232,37.60466],[127.07874,37.60537],[127.07906,37.60389],[127.07938,37.60225],[127.07944,37.60193],[127.08015,37.59808],[127.08023,37.59768],[127.08028,37.59737],[127.08033,37.59707],[127.08033,37.59587]]]]}},{"type":"Feature","properties":{"code":"11260620","name":"묵1동","parent":"11260"},"geometry":{"type":"MultiPolygon","coordinates":[[[[127.08954,37.61964],[127.09049,37.61749],[127.09034,37.61726],[127.09017,37.61703],[127.08876,37.61501],[127.08867,37.61497],[127.08588,37.61489],[127.08476,37.61168],[127.08477,37.61153],[127.08516,37.61036],[127.08531,37.60999],[127.0854,37.60983],[127.08598,37.60936],[127.08595,37.60924],[127.08581,37.6089],[127.08567,37.60866],[127.08565,37.60862],[127.08543,37.60833],[127.08515,37.60801],[127.08345,37.60673],[127.08325,37.60661],[127.08048,37.60557],[127.07942,37.60545],[127.07913,37.60542],[127.07874,37.60537],[127.07746,37.61209],[127.07713,37.61312],[127.07636,37.61551],[127.07585,37.61708],[127.08164,37.61925],[127.08245,37.6193],[127.08415,37.61963],[127.08573,37.62017],[127.08797,37.61989],[127.08954,37.61964]]]]}},{"type":"Feature","properties":{"code":"11260630","name":"묵2동","parent":"11260"},"geometry":{"type":"MultiPolygon","coordinates":[[[[127.07874,37.60537],[127.07232,37.60466],[127.07172,37.60681],[127.07146,37.61428],[127.0714,37.61563],[127.07585,37.61708],[127.07636,37.61551],[127.07713,37.61312],[127.07746,37.61209],[127.07874,37.60537]]]]}},{"type":"Feature","properties":{"code":"11260660","name":"망우3동","parent":"11260"},"geometry":{"type":"MultiPolygon","coordinates":[[[[127.1124,37.59186],[127.11014,37.58742],[127.10978,37.5877],[127.10833,37.58823],[127.10818,37.58827],[127.10726,37.58805],[127.10613,37.588],[127.10492,37.5881],[127.10211,37.58899],[127.09739,37.59057],[127.09363,37.58975],[127.0932,37.59415],[127.10009,37.59564],[127.10087,37.59471],[127.10306,37.59494],[127.10377,37.59492],[127.10643,37.59475],[127.10808,37.59455],[127.1124,37.59186]]]]}},{"type":"Feature","properties":{"code":"11260680","name":"신내1동","parent":"11260"},"geometry":{"type":"MultiPolygon","coordinates":[[[[127.11567,37.61929],[127.11697,37.61743],[127.11667,37.61577],[127.11693,37.61436],[127.11731,37.61293],[127.11759,37.61171],[127.1168,37.60991],[127.11662,37.60882],[127.11525,37.60907],[127.11312,37.60948],[127.11261,37.60985],[127.11238,37.61007],[127.11224,37.61019],[127.1094,37.61207],[127.10508,37.61305],[127.10429,37.61318],[127.10368,37.61328],[127.10134,37.6132],[127.10113,37.60998],[127.1011,37.6093],[127.10208,37.60906],[127.10229,37.60915],[127.10245,37.60927],[127.10264,37.60943],[127.10268,37.60946],[127.1028,37.60954],[127.10298,37.60966],[127.10312,37.6097],[127.10328,37.60974],[127.10358,37.60955],[127.1038,37.60879],[127.10379,37.6085],[127.10375,37.60803],[127.10359,37.60732],[127.10319,37.60593],[127.10047,37.60055],[127.09819,37.60005],[127.09709,37.59981],[127.09668,37.59972],[127.09552,37.59946],[127.0958,37.60061],[127.09661,37.60098],[127.09615,37.60238],[127.0956,37.60394],[127.09553,37.60415],[127.09551,37.60421],[127.0955,37.60427],[127.09543,37.60458],[127.09541,37.60465],[127.09536,37.60509],[127.09515,37.60746],[127.09514,37.60755],[127.09515,37.60778],[127.09518,37.60804],[127.0952,37.60808],[127.09528,37.60834],[127.09542,37.60864],[127.09565,37.60905],[127.09575,37.60924],[127.09588,37.60947],[127.0959,37.6095],[127.096,37.6098],[127.09601,37.60983],[127.09622,37.61094],[127.09625,37.61116],[127.0964,37.612],[127.09644,37.61243],[127.09643,37.61275],[127.09642,37.61279],[127.09588,37.61509],[127.09049,37.61749],[127.08954,37.61964],[127.09244,37.61828],[127.09261,37.61821],[127.09305,37.61804],[127.09615,37.6171],[127.09682,37.61705],[127.09695,37.61705],[127.09704,37.61705],[127.1005,37.61888],[127.10145,37.61976],[127.10151,37.6198],[127.10155,37.61981],[127.10183,37.61989],[127.10502,37.62068],[127.10571,37.62083],[127.10582,37.62078],[127.10604,37.62064],[127.10614,37.6206],[127.10735,37.6205],[127.10875,37.62046],[127.10908,37.62052],[127.10951,37.62064],[127.10983,37.62071],[127.11001,37.62074],[127.11012,37.62076],[127.11024,37.62077],[127.11039,37.62079],[127.11064,37.62079],[127.11085,37.62078],[127.11098,37.62076],[127.11134,37.62065],[127.11148,37.62061],[127.11274,37.62007],[127.11383,37.61949],[127.11395,37.61943],[127.11399,37.61942],[127.11567,37.61929]]]]}},{"type":"Feature","properties":{"code":"11260690","name":"신내2동","parent":"11260"},"geometry":{"type":"MultiPolygon","coordinates":[[[[127.0958,37.60061],[127.09574,37.6006],[127.09547,37.60053],[127.09544,37.60056],[127.0951,37.60088],[127.09429,37.60243],[127.09363,37.60495],[127.09127,37.60726],[127.09075,37.60744],[127.08796,37.6099],[127.08716,37.60962],[127.0865,37.60938],[127.08598,37.60936],[127.0854,37.60983],[127.08531,37.60999],[127.08516,37.61036],[127.08477,37.61153],[127.08476,37.61168],[127.08588,37.61489],[127.08867,37.61497],[127.08876,37.61501],[127.09017,37.61703],[127.09034,37.61726],[127.09049,37.61749],[127.09588,37.61509],[127.09642,37.61279],[127.09643,37.61275],[127.09644,37.61243],[127.0964,37.612],[127.09625,37.61116],[127.09622,37.61094],[127.09601,37.60983],[127.096,37.6098],[127.0959,37.6095],[127.09588,37.60947],[127.09575,37.60924],[127.09565,37.60905],[127.09542,37.60864],[127.09528,37.60834],[127.0952,37.60808],[127.09518,37.60804],[127.09515,37.60778],[127.09514,37.60755],[127.09515,37.60746],[127.09536,37.60509],[127.09541,37.60465],[127.09543,37.60458],[127.0955,37.60427],[127.09551,37.60421],[127.09553,37.60415],[127.0956,37.60394],[127.09615,37.60238],[127.09661,37.60098],[127.0958,37.60061]]]]}},{"type":"Feature","properties":{"code":"11260565","name":"면목본동","parent":"11260"},"geometry":{"type":"MultiPolygon","coordinates":[[[[127.09363,37.58975],[127.09377,37.5893],[127.09461,37.58674],[127.09488,37.58591],[127.09461,37.58539],[127.09456,37.5853],[127.09423,37.5847],[127.0937,37.58369],[127.0931,37.58375],[127.0924,37.58381],[127.09012,37.58401],[127.08567,37.58439],[127.08433,37.5845],[127.08406,37.58452],[127.08353,37.58444],[127.08409,37.58761],[127.08677,37.59277],[127.08787,37.59301],[127.0932,37.59415],[127.09363,37.58975]]]]}},{"type":"Feature","properties":{"code":"11260575","name":"면목3·8동","parent":"11260"},"geometry":{"type":"MultiPolygon","coordinates":[[[[127.11014,37.58742],[127.10984,37.58597],[127.10953,37.58507],[127.10933,37.58466],[127.10603,37.58456],[127.10267,37.5841],[127.09975,37.58305],[127.10047,37.58257],[127.10277,37.58176],[127.10276,37.58106],[127.10275,37.5796],[127.10273,37.5794],[127.10268,37.57891],[127.09978,37.57955],[127.09498,37.58074],[127.09164,37.58064],[127.08906,37.58065],[127.08587,37.58098],[127.08339,37.58115],[127.08353,37.58444],[127.08406,37.58452],[127.08433,37.5845],[127.08567,37.58439],[127.09012,37.58401],[127.0924,37.58381],[127.0931,37.58375],[127.0937,37.58369],[127.09423,37.5847],[127.09456,37.5853],[127.09461,37.58539],[127.09488,37.58591],[127.09461,37.58674],[127.09377,37.5893],[127.09363,37.58975],[127.09739,37.59057],[127.10211,37.58899],[127.10492,37.5881],[127.10613,37.588],[127.10726,37.58805],[127.10818,37.58827],[127.10833,37.58823],[127.10978,37.5877],[127.11014,37.58742]]]]}},{"type":"Feature","properties":{"code":"11260655","name":"망우본동","parent":"11260"},"geometry":{"type":"MultiPolygon","coordinates":[[[[127.11662,37.60882],[127.11714,37.60861],[127.1179,37.60814],[127.11818,37.60779],[127.11821,37.60775],[127.11832,37.60761],[127.11838,37.60738],[127.11828,37.60628],[127.11801,37.60458],[127.11689,37.60315],[127.11522,37.60126],[127.11428,37.60035],[127.11383,37.59996],[127.11385,37.59982],[127.11389,37.59952],[127.11396,37.59942],[127.11596,37.59728],[127.116,37.59724],[127.1165,37.59678],[127.11802,37.59534],[127.11837,37.59502],[127.11782,37.59401],[127.11535,37.5935],[127.11391,37.59334],[127.1124,37.59186],[127.10808,37.59455],[127.10643,37.59475],[127.10377,37.59492],[127.10306,37.59494],[127.10087,37.59471],[127.10009,37.59564],[127.0932,37.59415],[127.09279,37.59816],[127.09552,37.59946],[127.09668,37.59972],[127.09709,37.59981],[127.09819,37.60005],[127.10047,37.60055],[127.10319,37.60593],[127.10359,37.60732],[127.10375,37.60803],[127.10379,37.6085],[127.1038,37.60879],[127.10358,37.60955],[127.10328,37.60974],[127.10312,37.6097],[127.10298,37.60966],[127.1028,37.60954],[127.10268,37.60946],[127.10264,37.60943],[127.10245,37.60927],[127.10229,37.60915],[127.10208,37.60906],[127.1011,37.6093],[127.10113,37.60998],[127.10134,37.6132],[127.10368,37.61328],[127.10429,37.61318],[127.10508,37.61305],[127.1094,37.61207],[127.11224,37.61019],[127.11238,37.61007],[127.11261,37.60985],[127.11312,37.60948],[127.11525,37.60907],[127.11662,37.60882]]]]}}]}