{"type":"FeatureCollection","features":[{"type":"Feature","properties":{"code":"26380510","name":"괴정1동","parent":"26380"},"geometry":{"type":"MultiPolygon","coordinates":[[[[128.99308,35.09324],[128.99059,35.09119],[128.98878,35.09183],[128.98356,35.09188],[128.9824,35.09431],[128.9845,35.0946],[128.98455,35.09461],[128.98469,35.09469],[128.98492,35.09486],[128.98511,35.09509],[128.98595,35.09652],[128.98616,35.0971],[128.98632,35.09752],[128.98668,35.0986],[128.98677,35.09895],[128.98769,35.10395],[128.98778,35.10483],[128.9876,35.10518],[128.9874,35.10548],[128.98748,35.10574],[128.98776,35.10639],[128.98842,35.10701],[128.98993,35.1083],[128.99113,35.10927],[128.9916,35.10965],[128.99182,35.10959],[128.99204,35.10942],[128.99297,35.1077],[128.99354,35.10547],[128.99276,35.10281],[128.99253,35.1027],[128.99247,35.10241],[128.99248,35.10237],[128.99284,35.10115],[128.99299,35.10067],[128.99314,35.10018],[128.99326,35.09986],[128.99337,35.09959],[128.99345,35.09523],[128.99308,35.09324]]]]}},{"type":"Feature","properties":{"code":"26380520","name":"괴정2동","parent":"26380"},"geometry":{"type":"MultiPolygon","coordinates":[[[[129.00371,35.11067],[129.00615,35.10955],[129.00628,35.10947],[129.00663,35.10917],[129.00682,35.10901],[129.01016,35.1061],[129.01051,35.10559],[129.00969,35.10477],[129.00966,35.10473],[129.00743,35.10183],[129.00732,35.10159],[129.00726,35.10134],[129.00675,35.09909],[129.00346,35.09697],[129.00024,35.09738],[129.00048,35.09967],[128.99956,35.10078],[128.99894,35.10325],[128.99859,35.10469],[128.99817,35.10748],[128.99875,35.11215],[128.99892,35.11345],[128.99969,35.11612],[129.00015,35.11838],[129.00116,35.11423],[129.00167,35.1143],[129.00178,35.1143],[129.00227,35.11426],[129.00269,35.11421],[129.00283,35.11418],[129.00309,35.11409],[129.00317,35.11403],[129.0038,35.11325],[129.00383,35.11316],[129.00384,35.11306],[129.00382,35.11298],[129.0038,35.11292],[129.00374,35.11271],[129.00327,35.11181],[129.00371,35.11067]]]]}},{"type":"Feature","properties":{"code":"26380530","name":"괴정3동","parent":"26380"},"geometry":{"type":"MultiPolygon","coordinates":[[[[129.00015,35.11838],[128.99969,35.11612],[128.99892,35.11345],[128.99875,35.11215],[128.99817,35.10748],[128.99859,35.10469],[128.99894,35.10325],[128.99956,35.10078],[129.00048,35.09967],[129.00024,35.09738],[128.99823,35.09575],[128.99568,35.09464],[128.99379,35.09389],[128.99308,35.09324],[128.99345,35.09523],[128.99337,35.09959],[128.99326,35.09986],[128.99314,35.10018],[128.99299,35.10067],[128.99284,35.10115],[128.99248,35.10237],[128.99247,35.10241],[128.99253,35.1027],[128.99276,35.10281],[128.99354,35.10547],[128.99297,35.1077],[128.99204,35.10942],[128.99182,35.10959],[128.9916,35.10965],[128.99219,35.11077],[128.99265,35.11099],[128.99297,35.1112],[128.99307,35.11131],[128.99395,35.11254],[128.99447,35.1137],[128.99475,35.11437],[128.99512,35.11485],[128.99533,35.11507],[128.99557,35.11529],[128.99808,35.1176],[128.99814,35.11764],[128.99885,35.11815],[128.99923,35.11839],[128.99938,35.11848],[128.9996,35.11852],[128.9997,35.11853],[129.00015,35.11838]]]]}},{"type":"Feature","properties":{"code":"26380540","name":"괴정4동","parent":"26380"},"geometry":{"type":"MultiPolygon","coordinates":[[[[128.99219,35.11077],[128.9916,35.10965],[128.99113,35.10927],[128.98993,35.1083],[128.98842,35.10701],[128.98776,35.10639],[128.98748,35.10574],[128.9874,35.10548],[128.9876,35.10518],[128.98778,35.10483],[128.98769,35.10395],[128.98677,35.09895],[128.98668,35.0986],[128.98632,35.09752],[128.98616,35.0971],[128.98595,35.09652],[128.98511,35.09509],[128.98492,35.09486],[128.98469,35.09469],[128.98455,35.09461],[128.9845,35.0946],[128.9824,35.09431],[128.982,35.0942],[128.98175,35.09417],[128.98156,35.09418],[128.98097,35.09422],[128.98092,35.09422],[128.98079,35.09425],[128.98049,35.09434],[128.97896,35.09543],[128.97784,35.09604],[128.97642,35.09657],[128.97628,35.0966],[128.97609,35.0966],[128.975,35.09653],[128.97666,35.09745],[128.97804,35.09937],[128.98155,35.10213],[128.98275,35.10282],[128.98303,35.10293],[128.98355,35.10364],[128.9855,35.10717],[128.98811,35.10777],[128.98845,35.10796],[128.98858,35.10807],[128.98966,35.10937],[128.99014,35.10996],[128.99069,35.11066],[128.99076,35.11071],[128.99082,35.11074],[128.99157,35.11078],[128.99219,35.11077]]]]}},{"type":"Feature","properties":{"code":"26380550","name":"당리동","parent":"26380"},"geometry":{"type":"MultiPolygon","coordinates":[[[[128.99797,35.12255],[129.00032,35.12038],[129.00051,35.1202],[129.00015,35.11838],[128.9997,35.11853],[128.9996,35.11852],[128.99938,35.11848],[128.99923,35.11839],[128.99885,35.11815],[128.99814,35.11764],[128.99808,35.1176],[128.99557,35.11529],[128.99533,35.11507],[128.99512,35.11485],[128.99475,35.11437],[128.99447,35.1137],[128.99395,35.11254],[128.99307,35.11131],[128.99297,35.1112],[128.99265,35.11099],[128.99219,35.11077],[128.99157,35.11078],[128.99082,35.11074],[128.99076,35.11071],[128.99069,35.11066],[128.99014,35.10996],[128.98966,35.10937],[128.98858,35.10807],[128.98845,35.10796],[128.98811,35.10777],[128.9855,35.10717],[128.98355,35.10364],[128.98303,35.10293],[128.98275,35.10282],[128.98155,35.10213],[128.97804,35.09937],[128.97666,35.09745],[128.975,35.09653],[128.97134,35.09773],[128.97337,35.10198],[128.97355,35.10351],[128.97296,35.10381],[128.97097,35.10447],[128.97072,35.10455],[128.97056,35.1046],[128.97034,35.10468],[128.9702,35.10474],[128.97012,35.10477],[128.96992,35.10486],[128.96972,35.10497],[128.96949,35.10512],[128.96944,35.10515],[128.96908,35.10541],[128.969,35.1055],[128.96896,35.10554],[128.96831,35.10623],[128.9692,35.1064],[128.97173,35.10924],[128.97188,35.10944],[128.97324,35.11154],[128.97564,35.11634],[128.97568,35.11646],[128.97579,35.11693],[128.97612,35.11683],[128.97618,35.11682],[128.9763,35.1168],[128.97982,35.11675],[128.98039,35.11719],[128.98153,35.11811],[128.98159,35.11824],[128.9817,35.11871],[128.98178,35.11906],[128.98189,35.11936],[128.98215,35.1196],[128.98227,35.11971],[128.98234,35.11978],[128.98422,35.12113],[128.98553,35.12201],[128.98674,35.12313],[128.98715,35.12363],[128.98727,35.12379],[128.98736,35.1239],[128.98751,35.12419],[128.98758,35.12444],[128.98769,35.12493],[128.98978,35.1237],[128.99024,35.12359],[128.99282,35.12321],[128.99306,35.12318],[128.99495,35.12315],[128.99797,35.12255]]]]}},{"type":"Feature","properties":{"code":"26380561","name":"하단1동","parent":"26380"},"geometry":{"type":"MultiPolygon","coordinates":[[[[128.93686,35.10988],[128.93939,35.10918],[128.94164,35.10872],[128.94548,35.10807],[128.95046,35.10741],[128.95998,35.1062],[128.96831,35.10623],[128.96896,35.10554],[128.969,35.1055],[128.96908,35.10541],[128.96944,35.10515],[128.96949,35.10512],[128.96972,35.10497],[128.96992,35.10486],[128.97012,35.10477],[128.9702,35.10474],[128.97034,35.10468],[128.97056,35.1046],[128.97072,35.10455],[128.97097,35.10447],[128.97296,35.10381],[128.97355,35.10351],[128.97337,35.10198],[128.97134,35.09773],[128.971,35.09819],[128.97085,35.09833],[128.97034,35.09871],[128.96971,35.0991],[128.96965,35.09913],[128.96775,35.10009],[128.967,35.10042],[128.96645,35.10062],[128.96633,35.10065],[128.96619,35.10067],[128.96441,35.10083],[128.96335,35.09996],[128.96319,35.09986],[128.96275,35.09966],[128.96199,35.09935],[128.96138,35.09915],[128.96038,35.09887],[128.95827,35.09902],[128.95596,35.09918],[128.95562,35.09921],[128.95546,35.09782],[128.95531,35.0965],[128.95515,35.09514],[128.95488,35.09396],[128.95437,35.0924],[128.95344,35.08956],[128.95245,35.08766],[128.95128,35.08595],[128.95121,35.08585],[128.95118,35.08579],[128.95053,35.08373],[128.95133,35.08016],[128.95103,35.07963],[128.9509,35.07802],[128.93852,35.0781],[128.93298,35.08412],[128.92952,35.08847],[128.92535,35.09341],[128.92678,35.09536],[128.92866,35.09913],[128.92904,35.1],[128.93035,35.10312],[128.93178,35.10666],[128.93247,35.10888],[128.9329,35.11028],[128.93686,35.10988]]]]}},{"type":"Feature","properties":{"code":"26380562","name":"하단2동","parent":"26380"},"geometry":{"type":"MultiPolygon","coordinates":[[[[128.97579,35.11693],[128.97568,35.11646],[128.97564,35.11634],[128.97324,35.11154],[128.97188,35.10944],[128.97173,35.10924],[128.9692,35.1064],[128.96831,35.10623],[128.95998,35.1062],[128.95046,35.10741],[128.94548,35.10807],[128.94164,35.10872],[128.93939,35.10918],[128.93686,35.10988],[128.93904,35.1129],[128.95688,35.12731],[128.95826,35.12309],[128.95991,35.12028],[128.96096,35.12003],[128.9615,35.11991],[128.96315,35.12016],[128.9633,35.12065],[128.96362,35.12157],[128.96368,35.12167],[128.96371,35.12172],[128.96633,35.12142],[128.96741,35.12121],[128.96781,35.12113],[128.9689,35.12092],[128.97495,35.11761],[128.97579,35.11693]]]]}},{"type":"Feature","properties":{"code":"26380571","name":"신평1동","parent":"26380"},"geometry":{"type":"MultiPolygon","coordinates":[[[[128.975,35.09653],[128.97609,35.0966],[128.97628,35.0966],[128.97642,35.09657],[128.97784,35.09604],[128.97896,35.09543],[128.98049,35.09434],[128.98079,35.09425],[128.98092,35.09422],[128.98097,35.09422],[128.98156,35.09418],[128.98175,35.09417],[128.982,35.0942],[128.9824,35.09431],[128.98356,35.09188],[128.98368,35.09028],[128.9843,35.08754],[128.98435,35.08739],[128.98437,35.08727],[128.98436,35.08706],[128.98426,35.08665],[128.98309,35.08493],[128.97744,35.08512],[128.97507,35.08517],[128.96775,35.08539],[128.96603,35.09003],[128.96774,35.09119],[128.96894,35.0919],[128.96849,35.09396],[128.96811,35.09542],[128.96779,35.09561],[128.96777,35.09564],[128.96892,35.09642],[128.97134,35.09773],[128.975,35.09653]]]]}},{"type":"Feature","properties":{"code":"26380572","name":"신평2동","parent":"26380"},"geometry":{"type":"MultiPolygon","coordinates":[[[[128.97134,35.09773],[128.96892,35.09642],[128.96777,35.09564],[128.96779,35.09561],[128.96811,35.09542],[128.96849,35.09396],[128.96894,35.0919],[128.96774,35.09119],[128.96603,35.09003],[128.96775,35.08539],[128.96802,35.08459],[128.96492,35.08354],[128.95773,35.08143],[128.95702,35.08124],[128.95103,35.07963],[128.95133,35.08016],[128.95053,35.08373],[128.95118,35.08579],[128.95121,35.08585],[128.95128,35.08595],[128.95245,35.08766],[128.95344,35.08956],[128.95437,35.0924],[128.95488,35.09396],[128.95515,35.09514],[128.95531,35.0965],[128.95546,35.09782],[128.95562,35.09921],[128.95596,35.09918],[128.95827,35.09902],[128.96038,35.09887],[128.96138,35.09915],[128.96199,35.09935],[128.96275,35.09966],[128.96319,35.09986],[128.96335,35.09996],[128.96441,35.10083],[128.96619,35.10067],[128.96633,35.10065],[128.96645,35.10062],[128.967,35.10042],[128.96775,35.10009],[128.96965,35.09913],[128.96971,35.0991],[128.97034,35.09871],[128.97085,35.09833],[128.971,35.09819],[128.97134,35.09773]]]]}},{"type":"Feature","properties":{"code":"26380580","name":"장림1동","parent":"26380"},"geometry":{"type":"MultiPolygon","coordinates":[[[[128.97744,35.08512],[128.97733,35.08231],[128.97657,35.08064],[128.97494,35.08063],[128.97304,35.08065],[128.97048,35.08067],[128.96935,35.08068],[128.96882,35.08069],[128.96857,35.08071],[128.96826,35.08074],[128.96822,35.08075],[128.96801,35.08032],[128.96794,35.08016],[128.96785,35.07995],[128.96764,35.07942],[128.96762,35.07936],[128.96743,35.07878],[128.96719,35.07749],[128.96658,35.07337],[128.9666,35.07311],[128.96662,35.07293],[128.96665,35.07286],[128.96676,35.07275],[128.96721,35.07242],[128.96739,35.07232],[128.96745,35.07228],[128.96762,35.07192],[128.96801,35.07071],[128.96916,35.06644],[128.96912,35.0659],[128.96795,35.06504],[128.96739,35.06504],[128.96685,35.06507],[128.96661,35.06528],[128.96411,35.0675],[128.96342,35.06825],[128.96284,35.06866],[128.95852,35.07088],[128.95717,35.07146],[128.95521,35.07268],[128.95254,35.07204],[128.9509,35.07802],[128.95103,35.07963],[128.95702,35.08124],[128.95773,35.08143],[128.96492,35.08354],[128.96802,35.08459],[128.96775,35.08539],[128.97507,35.08517],[128.97744,35.08512]]]]}},{"type":"Feature","properties":{"code":"26380590","name":"장림2동","parent":"26380"},"geometry":{"type":"MultiPolygon","coordinates":[[[[128.98309,35.08493],[128.98357,35.08491],[128.98366,35.08474],[128.98304,35.08147],[128.98367,35.07993],[128.98403,35.07966],[128.98463,35.0792],[128.98479,35.07907],[128.98481,35.07903],[128.98542,35.07597],[128.98538,35.07489],[128.9841,35.07414],[128.98272,35.07336],[128.98059,35.07204],[128.97968,35.07035],[128.97876,35.06934],[128.97383,35.06566],[128.97372,35.0656],[128.97343,35.06562],[128.97137,35.06614],[128.97063,35.06638],[128.96912,35.0659],[128.96916,35.06644],[128.96801,35.07071],[128.96762,35.07192],[128.96745,35.07228],[128.96739,35.07232],[128.96721,35.07242],[128.96676,35.07275],[128.96665,35.07286],[128.96662,35.07293],[128.9666,35.07311],[128.96658,35.07337],[128.96719,35.07749],[128.96743,35.07878],[128.96762,35.07936],[128.96764,35.07942],[128.96785,35.07995],[128.96794,35.08016],[128.96801,35.08032],[128.96822,35.08075],[128.96826,35.08074],[128.96857,35.08071],[128.96882,35.08069],[128.96935,35.08068],[128.97048,35.08067],[128.97304,35.08065],[128.97494,35.08063],[128.97657,35.08064],[128.97733,35.08231],[128.97744,35.08512],[128.98309,35.08493]]]]}},{"type":"Feature","properties":{"code":"26380601","name":"다대1동","parent":"26380"},"geometry":{"type":"MultiPolygon","coordinates":[[[[128.97266,35.02966],[128.97109,35.02933],[128.96872,35.02985],[128.96853,35.03023],[128.9686,35.03058],[128.96871,35.03082],[128.97106,35.03419],[128.97141,35.03449],[128.97182,35.03469],[128.97226,35.03481],[128.97276,35.03469],[128.9731,35.03453],[128.97357,35.03398],[128.97376,35.03359],[128.97384,35.03295],[128.97373,35.03265],[128.9736,35.03232],[128.97344,35.03199],[128.97315,35.0315],[128.97299,35.03126],[128.97284,35.03108],[128.97266,35.02966]]],[[[128.97598,35.04327],[128.97565,35.04321],[128.97528,35.04329],[128.97482,35.04345],[128.97441,35.04364],[128.97409,35.04381],[128.97361,35.04411],[128.9735,35.04418],[128.97256,35.04492],[128.97215,35.04528],[128.97203,35.04575],[128.97214,35.04609],[128.97246,35.0462],[128.97332,35.04623],[128.97372,35.0461],[128.97403,35.04603],[128.97449,35.04589],[128.97502,35.04569],[128.97527,35.04554],[128.97567,35.04521],[128.97626,35.04468],[128.97643,35.04443],[128.97656,35.04416],[128.97649,35.04378],[128.9763,35.04353],[128.97616,35.04335],[128.97598,35.04327]]],[[[128.96912,35.0659],[128.97063,35.06638],[128.97172,35.06341],[128.97195,35.06305],[128.97236,35.06252],[128.97399,35.06175],[128.97446,35.06158],[128.97532,35.06127],[128.97652,35.0607],[128.97808,35.05944],[128.97832,35.05924],[128.97852,35.05895],[128.97855,35.05838],[128.97855,35.05835],[128.97818,35.05779],[128.97756,35.05692],[128.97734,35.05541],[128.97679,35.05525],[128.97594,35.05552],[128.97585,35.05558],[128.97571,35.05568],[128.97533,35.05595],[128.97531,35.05656],[128.9728,35.05663],[128.97245,35.05526],[128.97241,35.05464],[128.97239,35.05441],[128.97349,35.05335],[128.97389,35.05324],[128.97394,35.05323],[128.97458,35.05319],[128.97588,35.05311],[128.97803,35.05311],[128.98005,35.05313],[128.98265,35.05194],[128.98285,35.05162],[128.98214,35.04776],[128.97995,35.04774],[128.97588,35.04796],[128.97467,35.04865],[128.97311,35.0491],[128.97225,35.04884],[128.97051,35.0481],[128.97004,35.04778],[128.96958,35.04747],[128.96949,35.04722],[128.96911,35.04622],[128.96915,35.04577],[128.96961,35.04498],[128.97007,35.04475],[128.97116,35.04431],[128.97291,35.04347],[128.97287,35.04306],[128.96993,35.04042],[128.97261,35.0404],[128.9711,35.03826],[128.96854,35.03708],[128.96823,35.03697],[128.96784,35.03675],[128.96754,35.03645],[128.96735,35.03614],[128.96716,35.03553],[128.96713,35.03447],[128.96719,35.03411],[128.96697,35.03328],[128.96614,35.03262],[128.96568,35.03264],[128.96462,35.03393],[128.96301,35.03707],[128.96265,35.03853],[128.9627,35.03921],[128.96339,35.04007],[128.96447,35.04229],[128.9645,35.04621],[128.96437,35.04646],[128.96207,35.04737],[128.96112,35.04735],[128.95922,35.04732],[128.95835,35.04796],[128.9559,35.05243],[128.95569,35.0531],[128.95689,35.05448],[128.9564,35.05633],[128.95545,35.05998],[128.95361,35.06696],[128.95293,35.06954],[128.95254,35.07204],[128.95521,35.07268],[128.95717,35.07146],[128.95852,35.07088],[128.96284,35.06866],[128.96342,35.06825],[128.96411,35.0675],[128.96661,35.06528],[128.96685,35.06507],[128.96739,35.06504],[128.96795,35.06504],[128.96912,35.0659]]]]}},{"type":"Feature","properties":{"code":"26380602","name":"다대2동","parent":"26380"},"geometry":{"type":"MultiPolygon","coordinates":[[[[128.99686,35.04845],[128.99442,35.04812],[128.99061,35.04892],[128.99028,35.04908],[128.98981,35.05052],[128.99006,35.05257],[128.99051,35.05292],[128.98816,35.05797],[128.98456,35.05969],[128.98011,35.05787],[128.97756,35.05692],[128.97818,35.05779],[128.97855,35.05835],[128.97855,35.05838],[128.97852,35.05895],[128.97832,35.05924],[128.97808,35.05944],[128.97652,35.0607],[128.97532,35.06127],[128.97446,35.06158],[128.97399,35.06175],[128.97236,35.06252],[128.97195,35.06305],[128.97172,35.06341],[128.97063,35.06638],[128.97137,35.06614],[128.97343,35.06562],[128.97372,35.0656],[128.97383,35.06566],[128.97876,35.06934],[128.97968,35.07035],[128.9812,35.06873],[128.98297,35.06845],[128.98375,35.06804],[128.98734,35.06608],[128.98756,35.06586],[128.98786,35.0653],[128.98839,35.06343],[128.98893,35.06124],[128.99166,35.0604],[128.99337,35.06003],[128.99386,35.06001],[128.9947,35.05773],[128.99488,35.05722],[128.99498,35.05691],[128.995,35.05673],[128.99501,35.05656],[128.99501,35.05644],[128.99494,35.05607],[128.99469,35.05441],[128.99469,35.05417],[128.99471,35.05404],[128.99475,35.05387],[128.99541,35.05213],[128.99686,35.04845]]]]}},{"type":"Feature","properties":{"code":"26380610","name":"구평동","parent":"26380"},"geometry":{"type":"MultiPolygon","coordinates":[[[[128.99059,35.09119],[128.99097,35.09002],[128.99177,35.08897],[128.99254,35.08832],[128.99338,35.0879],[128.99426,35.08838],[128.99669,35.0861],[128.99665,35.08545],[128.99694,35.08337],[128.99718,35.08303],[128.99312,35.08387],[128.99273,35.08014],[128.9932,35.07907],[128.99508,35.07572],[128.9951,35.07569],[128.99503,35.07454],[128.99469,35.07436],[128.99373,35.07379],[128.99378,35.07267],[128.99439,35.07139],[128.99537,35.07135],[128.99538,35.06679],[128.99533,35.06349],[128.99641,35.06026],[128.99896,35.05441],[128.99952,35.05312],[128.9996,35.05293],[129.0013,35.04822],[129.00016,35.04794],[128.99976,35.04787],[128.99902,35.04881],[128.99686,35.04845],[128.99541,35.05213],[128.99475,35.05387],[128.99471,35.05404],[128.99469,35.05417],[128.99469,35.05441],[128.99494,35.05607],[128.99501,35.05644],[128.99501,35.05656],[128.995,35.05673],[128.99498,35.05691],[128.99488,35.05722],[128.9947,35.05773],[128.99386,35.06001],[128.99337,35.06003],[128.99166,35.0604],[128.98893,35.06124],[128.98839,35.06343],[128.98786,35.0653],[128.98756,35.06586],[128.98734,35.06608],[128.98375,35.06804],[128.98297,35.06845],[128.9812,35.06873],[128.97968,35.07035],[128.98059,35.07204],[128.98272,35.07336],[128.9841,35.07414],[128.98538,35.07489],[128.98542,35.07597],[128.98481,35.07903],[128.98479,35.07907],[128.98463,35.0792],[128.98403,35.07966],[128.98367,35.07993],[128.98304,35.08147],[128.98366,35.08474],[128.98357,35.08491],[128.98309,35.08493],[128.98426,35.08665],[128.98436,35.08706],[128.98437,35.08727],[128.98435,35.08739],[128.9843,35.08754],[128.98368,35.09028],[128.98356,35.09188],[128.98878,35.09183],[128.99059,35.09119]]]]}},{"type":"Feature","properties":{"code":"26380620","name":"감천1동","parent":"26380"},"geometry":{"type":"MultiPolygon","coordinates":[[[[129.00346,35.09697],[129.00312,35.09473],[129.00247,35.09387],[129.00265,35.09339],[129.00452,35.09099],[129.00666,35.08974],[129.01317,35.08809],[129.01265,35.08626],[129.01163,35.08156],[129.0116,35.08066],[129.01136,35.07693],[129.01132,35.07686],[129.01119,35.07686],[129.01103,35.07688],[129.01088,35.0769],[129.01066,35.07695],[129.01039,35.07702],[129.01012,35.07714],[129.00935,35.07751],[129.00864,35.07796],[129.0085,35.07809],[129.00835,35.07824],[129.00625,35.07863],[129.00444,35.07844],[129.00393,35.08129],[129.00432,35.08228],[129.00515,35.0844],[129.00271,35.08468],[128.99916,35.08332],[128.99977,35.08172],[129.00179,35.08123],[129.00153,35.08041],[128.99863,35.08055],[128.99798,35.08083],[128.99718,35.08303],[128.99694,35.08337],[128.99665,35.08545],[128.99669,35.0861],[128.99426,35.08838],[128.99338,35.0879],[128.99254,35.08832],[128.99177,35.08897],[128.99097,35.09002],[128.99059,35.09119],[128.99308,35.09324],[128.99379,35.09389],[128.99568,35.09464],[128.99823,35.09575],[129.00024,35.09738],[129.00346,35.09697]]]]}},{"type":"Feature","properties":{"code":"26380630","name":"감천2동","parent":"26380"},"geometry":{"type":"MultiPolygon","coordinates":[[[[129.01284,35.09541],[129.01384,35.09417],[129.01415,35.09366],[129.0143,35.09319],[129.01442,35.09149],[129.0144,35.09138],[129.01425,35.0907],[129.01402,35.08919],[129.01317,35.08809],[129.00666,35.08974],[129.00452,35.09099],[129.00265,35.09339],[129.00247,35.09387],[129.00312,35.09473],[129.00346,35.09697],[129.00675,35.09909],[129.00919,35.09936],[129.01003,35.09938],[129.0101,35.09938],[129.01014,35.09937],[129.01017,35.09935],[129.01026,35.09928],[129.0103,35.09923],[129.0105,35.09899],[129.01173,35.0972],[129.01284,35.09541]]]]}}]}