{"type":"FeatureCollection","features":[{"type":"Feature","properties":{"code":"41463520","name":"구갈동","parent":"41463"},"geometry":{"type":"MultiPolygon","coordinates":[[[[127.13209,37.28126],[127.13453,37.27667],[127.13415,37.27465],[127.13415,37.27457],[127.1343,37.27104],[127.13432,37.27064],[127.13432,37.27058],[127.13433,37.27045],[127.13435,37.27027],[127.13438,37.27016],[127.13459,37.26997],[127.13489,37.26975],[127.13518,37.26958],[127.13536,37.26923],[127.13409,37.26757],[127.13399,37.26751],[127.13392,37.26747],[127.13384,37.26742],[127.13316,37.26728],[127.13214,37.26704],[127.13107,37.26553],[127.13057,37.2648],[127.13054,37.26472],[127.13054,37.26468],[127.12889,37.26541],[127.12784,37.26578],[127.12676,37.26603],[127.12563,37.2664],[127.12451,37.2668],[127.12175,37.2678],[127.11782,37.26925],[127.11736,37.26947],[127.11721,37.26958],[127.11708,37.26973],[127.11702,37.26983],[127.11698,37.26991],[127.11694,37.27002],[127.11691,37.27011],[127.1169,37.27014],[127.11689,37.2702],[127.11693,37.27034],[127.11698,37.27046],[127.11704,37.27064],[127.11718,37.27094],[127.11723,37.2712],[127.11723,37.27124],[127.11721,37.27127],[127.1166,37.27157],[127.11656,37.27158],[127.1142,37.27161],[127.11408,37.27159],[127.11357,37.27149],[127.11297,37.27187],[127.11087,37.27109],[127.10915,37.27088],[127.11026,37.27181],[127.11327,37.27477],[127.11335,37.27495],[127.11337,37.27502],[127.11339,37.27512],[127.11333,37.27512],[127.11323,37.27511],[127.11313,37.27511],[127.11266,37.27481],[127.11227,37.27456],[127.11166,37.27414],[127.11117,37.27379],[127.11071,37.27356],[127.10953,37.27308],[127.10952,37.27356],[127.10951,37.27458],[127.10957,37.27774],[127.10958,37.27812],[127.10959,37.27883],[127.1096,37.27906],[127.10963,37.27962],[127.11137,37.2829],[127.11341,37.28435],[127.11787,37.28671],[127.11872,37.28705],[127.12015,37.28699],[127.12185,37.2866],[127.12333,37.28664],[127.1241,37.28666],[127.12593,37.28722],[127.12693,37.28897],[127.12775,37.28911],[127.12847,37.28903],[127.12874,37.28893],[127.12879,37.28891],[127.12888,37.28885],[127.13138,37.28738],[127.13157,37.28724],[127.13182,37.28687],[127.1318,37.28676],[127.13209,37.28126]]]]}},{"type":"Feature","properties":{"code":"41463535","name":"보라동","parent":"41463"},"geometry":{"type":"MultiPolygon","coordinates":[[[[127.09982,37.25886],[127.1015,37.26034],[127.10197,37.26098],[127.10332,37.26128],[127.10416,37.26119],[127.10436,37.25996],[127.10553,37.26042],[127.1057,37.26082],[127.10684,37.261],[127.1104,37.261],[127.11208,37.26111],[127.11322,37.26062],[127.11416,37.26129],[127.11513,37.26084],[127.11678,37.2618],[127.11779,37.26263],[127.11775,37.26346],[127.11906,37.26427],[127.12165,37.26418],[127.12346,37.26367],[127.12538,37.26464],[127.12676,37.26603],[127.12784,37.26578],[127.12889,37.26541],[127.13054,37.26468],[127.13107,37.26392],[127.13194,37.26253],[127.13217,37.2608],[127.13189,37.25926],[127.13291,37.25629],[127.13649,37.25493],[127.13659,37.25488],[127.13663,37.25486],[127.1375,37.25438],[127.13849,37.25319],[127.13884,37.25227],[127.13913,37.25143],[127.13923,37.25122],[127.13929,37.25109],[127.13934,37.251],[127.1394,37.25092],[127.1406,37.25038],[127.1416,37.24993],[127.14368,37.24899],[127.14574,37.24798],[127.14647,37.24759],[127.14664,37.24747],[127.15058,37.24411],[127.15064,37.24401],[127.15068,37.24389],[127.15072,37.2437],[127.15072,37.24355],[127.15069,37.24323],[127.15066,37.24307],[127.15059,37.24296],[127.15037,37.2428],[127.15017,37.24256],[127.14964,37.24188],[127.14948,37.24161],[127.14926,37.24081],[127.14923,37.24067],[127.1493,37.24035],[127.15012,37.23668],[127.15014,37.23662],[127.15025,37.23634],[127.1504,37.23617],[127.15302,37.23328],[127.1533,37.23306],[127.15336,37.23303],[127.15558,37.22999],[127.15621,37.22789],[127.15492,37.22637],[127.15337,37.22384],[127.15303,37.22337],[127.15161,37.223],[127.14983,37.22169],[127.1403,37.22273],[127.13916,37.22263],[127.139,37.22265],[127.13862,37.2228],[127.13852,37.22286],[127.13847,37.22288],[127.13826,37.223],[127.13744,37.22351],[127.13691,37.22415],[127.13614,37.22518],[127.13406,37.22802],[127.13397,37.22842],[127.13391,37.22898],[127.13395,37.22946],[127.13396,37.22989],[127.13393,37.23072],[127.13386,37.23174],[127.13178,37.23637],[127.13068,37.23823],[127.12997,37.23931],[127.12953,37.23987],[127.12597,37.24417],[127.12361,37.24655],[127.11951,37.24781],[127.11917,37.24788],[127.1164,37.24756],[127.11454,37.24722],[127.11444,37.24719],[127.11436,37.24715],[127.11406,37.24703],[127.114,37.24701],[127.11303,37.24668],[127.11275,37.24664],[127.11224,37.24656],[127.11147,37.24644],[127.10851,37.24617],[127.10708,37.24611],[127.10631,37.24618],[127.10542,37.24667],[127.10457,37.24728],[127.10444,37.24734],[127.10439,37.24736],[127.10436,37.24737],[127.10401,37.24746],[127.10206,37.24761],[127.1022,37.24903],[127.10251,37.25001],[127.10293,37.25026],[127.10387,37.25103],[127.10525,37.25293],[127.10517,37.25344],[127.10491,37.25511],[127.09982,37.25886]]]]}},{"type":"Feature","properties":{"code":"41463540","name":"기흥동","parent":"41463"},"geometry":{"type":"MultiPolygon","coordinates":[[[[127.14983,37.22169],[127.15018,37.2213],[127.1503,37.22117],[127.15122,37.21894],[127.1516,37.21854],[127.15125,37.21872],[127.14956,37.21896],[127.14847,37.21907],[127.14791,37.21905],[127.14449,37.21868],[127.1443,37.21864],[127.14329,37.21838],[127.14002,37.2175],[127.13966,37.21733],[127.13814,37.21649],[127.13739,37.21605],[127.13714,37.21591],[127.13709,37.21588],[127.13676,37.21568],[127.13618,37.21564],[127.13421,37.21603],[127.12966,37.21746],[127.12672,37.21751],[127.11909,37.2194],[127.11738,37.21996],[127.11553,37.21925],[127.11525,37.21917],[127.11518,37.21915],[127.11318,37.21919],[127.1101,37.21931],[127.10883,37.21944],[127.10852,37.21952],[127.10826,37.21957],[127.10811,37.2196],[127.10779,37.21963],[127.10717,37.21971],[127.10666,37.21975],[127.10588,37.2198],[127.10465,37.21986],[127.10433,37.21982],[127.09558,37.21829],[127.09253,37.21753],[127.09106,37.21697],[127.09088,37.2169],[127.09052,37.21676],[127.08896,37.21636],[127.08878,37.21644],[127.08891,37.21841],[127.08897,37.21869],[127.08898,37.21874],[127.08909,37.21914],[127.08924,37.21958],[127.0893,37.21974],[127.08936,37.21983],[127.08943,37.21992],[127.08976,37.22031],[127.09013,37.22061],[127.09047,37.22082],[127.0912,37.22121],[127.09134,37.22129],[127.09194,37.22164],[127.09213,37.22178],[127.09251,37.22208],[127.09307,37.22253],[127.09358,37.22308],[127.09474,37.22443],[127.0947,37.2258],[127.09468,37.22593],[127.0946,37.22602],[127.0945,37.22609],[127.09441,37.22612],[127.09381,37.22625],[127.09371,37.22625],[127.09344,37.22625],[127.09337,37.22622],[127.0933,37.22617],[127.09096,37.22678],[127.09071,37.22838],[127.0907,37.22855],[127.09069,37.22867],[127.09069,37.22878],[127.09072,37.22891],[127.09139,37.23075],[127.09219,37.23224],[127.09224,37.23229],[127.09287,37.23299],[127.09291,37.23304],[127.09297,37.23312],[127.09311,37.23356],[127.09329,37.23435],[127.09333,37.23461],[127.09333,37.23467],[127.0933,37.23496],[127.09329,37.23509],[127.09323,37.23562],[127.09321,37.23571],[127.09318,37.23578],[127.09315,37.23586],[127.0927,37.23673],[127.09267,37.23678],[127.09265,37.23681],[127.0925,37.23693],[127.09236,37.23703],[127.09233,37.23707],[127.09226,37.23725],[127.09224,37.23733],[127.09199,37.23977],[127.09327,37.24258],[127.09362,37.24329],[127.09379,37.24362],[127.09494,37.24371],[127.09658,37.24422],[127.09817,37.24485],[127.09887,37.24518],[127.10199,37.24716],[127.10202,37.24737],[127.10206,37.24761],[127.10401,37.24746],[127.10436,37.24737],[127.10439,37.24736],[127.10444,37.24734],[127.10457,37.24728],[127.10542,37.24667],[127.10631,37.24618],[127.10708,37.24611],[127.10851,37.24617],[127.11147,37.24644],[127.11224,37.24656],[127.11275,37.24664],[127.11303,37.24668],[127.114,37.24701],[127.11406,37.24703],[127.11436,37.24715],[127.11444,37.24719],[127.11454,37.24722],[127.1164,37.24756],[127.11917,37.24788],[127.11951,37.24781],[127.12361,37.24655],[127.12597,37.24417],[127.12953,37.23987],[127.12997,37.23931],[127.13068,37.23823],[127.13178,37.23637],[127.13386,37.23174],[127.13393,37.23072],[127.13396,37.22989],[127.13395,37.22946],[127.13391,37.22898],[127.13397,37.22842],[127.13406,37.22802],[127.13614,37.22518],[127.13691,37.22415],[127.13744,37.22351],[127.13826,37.223],[127.13847,37.22288],[127.13852,37.22286],[127.13862,37.2228],[127.139,37.22265],[127.13916,37.22263],[127.1403,37.22273],[127.14983,37.22169]]]]}},{"type":"Feature","properties":{"code":"41463550","name":"서농동","parent":"41463"},"geometry":{"type":"MultiPolygon","coordinates":[[[[127.09379,37.24362],[127.09362,37.24329],[127.09327,37.24258],[127.09199,37.23977],[127.09224,37.23733],[127.09226,37.23725],[127.09233,37.23707],[127.09236,37.23703],[127.0925,37.23693],[127.09265,37.23681],[127.09267,37.23678],[127.0927,37.23673],[127.09315,37.23586],[127.09318,37.23578],[127.09321,37.23571],[127.09323,37.23562],[127.09329,37.23509],[127.0933,37.23496],[127.09333,37.23467],[127.09333,37.23461],[127.09329,37.23435],[127.09311,37.23356],[127.09297,37.23312],[127.09291,37.23304],[127.09287,37.23299],[127.09224,37.23229],[127.09219,37.23224],[127.09139,37.23075],[127.09072,37.22891],[127.09069,37.22878],[127.09069,37.22867],[127.0907,37.22855],[127.09071,37.22838],[127.09096,37.22678],[127.0933,37.22617],[127.09337,37.22622],[127.09344,37.22625],[127.09371,37.22625],[127.09381,37.22625],[127.09441,37.22612],[127.0945,37.22609],[127.0946,37.22602],[127.09468,37.22593],[127.0947,37.2258],[127.09474,37.22443],[127.09358,37.22308],[127.09307,37.22253],[127.09251,37.22208],[127.09213,37.22178],[127.09194,37.22164],[127.09134,37.22129],[127.0912,37.22121],[127.09047,37.22082],[127.09013,37.22061],[127.08976,37.22031],[127.08943,37.21992],[127.08936,37.21983],[127.0893,37.21974],[127.08924,37.21958],[127.08909,37.21914],[127.08898,37.21874],[127.08897,37.21869],[127.08891,37.21841],[127.08878,37.21644],[127.08874,37.21646],[127.0877,37.21695],[127.08659,37.21749],[127.08283,37.21952],[127.08243,37.21977],[127.08232,37.21983],[127.08192,37.22015],[127.07878,37.22285],[127.07558,37.2259],[127.07482,37.22674],[127.07458,37.22801],[127.07456,37.22813],[127.07329,37.22882],[127.0727,37.22914],[127.0726,37.22916],[127.0718,37.22909],[127.07155,37.22906],[127.07124,37.22901],[127.07071,37.22891],[127.06963,37.22929],[127.06892,37.22993],[127.06884,37.23002],[127.06881,37.23005],[127.06879,37.23009],[127.06877,37.23011],[127.06876,37.23015],[127.068,37.23468],[127.06802,37.23669],[127.06802,37.23672],[127.06822,37.2371],[127.06829,37.23711],[127.06836,37.23713],[127.06842,37.23713],[127.0685,37.23715],[127.0685,37.23719],[127.06849,37.23732],[127.06843,37.23765],[127.06818,37.23851],[127.06805,37.23876],[127.06798,37.23884],[127.06778,37.23905],[127.06668,37.24015],[127.06709,37.24037],[127.06712,37.24082],[127.06694,37.24099],[127.06688,37.24122],[127.06663,37.24124],[127.06631,37.24101],[127.06598,37.24105],[127.06609,37.24202],[127.06633,37.24293],[127.06621,37.24388],[127.06687,37.24416],[127.06758,37.2445],[127.06828,37.24489],[127.069,37.24554],[127.06933,37.24588],[127.06945,37.246],[127.06948,37.24603],[127.06954,37.2461],[127.06962,37.24619],[127.07073,37.24649],[127.07078,37.24651],[127.07098,37.24656],[127.07233,37.24686],[127.07261,37.24692],[127.07421,37.24718],[127.07543,37.24741],[127.07549,37.24742],[127.07651,37.24753],[127.07779,37.24751],[127.07784,37.2475],[127.07841,37.24751],[127.0786,37.24751],[127.07928,37.24753],[127.0796,37.24753],[127.08004,37.24754],[127.08127,37.2485],[127.08211,37.2494],[127.08205,37.24762],[127.083,37.2449],[127.08353,37.24445],[127.08567,37.24437],[127.09132,37.24409],[127.09379,37.24362]]]]}},{"type":"Feature","properties":{"code":"41463560","name":"구성동","parent":"41463"},"geometry":{"type":"MultiPolygon","coordinates":[[[[127.16724,37.30169],[127.16707,37.30104],[127.16694,37.30071],[127.16339,37.29502],[127.1615,37.29283],[127.16128,37.2926],[127.1612,37.29255],[127.16097,37.2924],[127.16077,37.29232],[127.16049,37.29226],[127.15922,37.29222],[127.15677,37.29201],[127.15655,37.29199],[127.15645,37.29197],[127.15637,37.29195],[127.1562,37.29188],[127.15602,37.29178],[127.15559,37.29149],[127.15518,37.29131],[127.1547,37.29111],[127.15442,37.29111],[127.15415,37.29116],[127.1537,37.29123],[127.15362,37.29123],[127.15344,37.29124],[127.1533,37.29124],[127.15288,37.29118],[127.15282,37.29116],[127.15263,37.2911],[127.15254,37.29106],[127.15225,37.29095],[127.15177,37.29077],[127.15155,37.29075],[127.15144,37.29076],[127.1512,37.29078],[127.15059,37.29081],[127.15033,37.29077],[127.14961,37.29032],[127.14833,37.28992],[127.14727,37.28837],[127.14007,37.28639],[127.13818,37.28537],[127.13678,37.28424],[127.13676,37.2823],[127.13609,37.28122],[127.13411,37.28096],[127.13209,37.28126],[127.1318,37.28676],[127.13182,37.28687],[127.13157,37.28724],[127.13138,37.28738],[127.12888,37.28885],[127.12879,37.28891],[127.12874,37.28893],[127.12847,37.28903],[127.12775,37.28911],[127.12693,37.28897],[127.12603,37.28879],[127.12146,37.28828],[127.11996,37.28846],[127.11978,37.28849],[127.11962,37.28858],[127.11932,37.28887],[127.11931,37.28896],[127.11934,37.2891],[127.11931,37.28946],[127.11904,37.29006],[127.11902,37.29009],[127.11898,37.29016],[127.11896,37.29018],[127.11886,37.29026],[127.11794,37.29067],[127.11787,37.29069],[127.11568,37.29087],[127.11328,37.29096],[127.11317,37.29204],[127.11356,37.2928],[127.11395,37.29266],[127.11576,37.29404],[127.11743,37.29558],[127.11767,37.29592],[127.11794,37.29632],[127.11797,37.29638],[127.11807,37.29656],[127.11833,37.29706],[127.11847,37.29735],[127.11855,37.29786],[127.11854,37.298],[127.11853,37.29816],[127.11863,37.29849],[127.11864,37.29853],[127.12056,37.29969],[127.12145,37.29957],[127.12274,37.29937],[127.12343,37.29919],[127.12367,37.299],[127.12688,37.30016],[127.1295,37.30123],[127.1321,37.30253],[127.13515,37.30258],[127.1352,37.30255],[127.13525,37.30252],[127.1353,37.30251],[127.13536,37.3025],[127.14377,37.30267],[127.14422,37.3028],[127.14472,37.30309],[127.14475,37.30311],[127.14518,37.30339],[127.14839,37.30555],[127.14848,37.30567],[127.14875,37.3061],[127.15076,37.30602],[127.1522,37.30552],[127.15625,37.30461],[127.15854,37.30453],[127.16284,37.3042],[127.16299,37.30419],[127.16312,37.30415],[127.16544,37.30304],[127.16543,37.30282],[127.1654,37.30248],[127.16555,37.30226],[127.16595,37.30207],[127.16621,37.30197],[127.16724,37.30169]]]]}},{"type":"Feature","properties":{"code":"41463570","name":"마북동","parent":"41463"},"geometry":{"type":"MultiPolygon","coordinates":[[[[127.13725,37.32439],[127.13706,37.32342],[127.13724,37.32064],[127.13903,37.31959],[127.14048,37.31875],[127.14273,37.3174],[127.14283,37.31733],[127.14287,37.31726],[127.14314,37.31664],[127.14322,37.31644],[127.14322,37.31635],[127.14319,37.31622],[127.14306,37.31596],[127.14298,37.31585],[127.14296,37.3158],[127.14294,37.31575],[127.14283,37.31548],[127.14281,37.31539],[127.14281,37.31534],[127.14279,37.31514],[127.1428,37.31495],[127.14318,37.31339],[127.14321,37.31329],[127.14329,37.31307],[127.14334,37.31298],[127.14336,37.31294],[127.14339,37.31289],[127.14346,37.31279],[127.14354,37.3127],[127.14365,37.3126],[127.14392,37.31242],[127.14399,37.31238],[127.14413,37.31234],[127.14429,37.3123],[127.14445,37.31229],[127.14471,37.31226],[127.14483,37.31221],[127.14496,37.31212],[127.14502,37.31206],[127.14562,37.31135],[127.14572,37.31123],[127.14701,37.30945],[127.14792,37.3079],[127.1486,37.30658],[127.14875,37.3061],[127.14848,37.30567],[127.14839,37.30555],[127.14518,37.30339],[127.14475,37.30311],[127.14472,37.30309],[127.14422,37.3028],[127.14377,37.30267],[127.13536,37.3025],[127.1353,37.30251],[127.13525,37.30252],[127.1352,37.30255],[127.13515,37.30258],[127.1321,37.30253],[127.1295,37.30123],[127.12688,37.30016],[127.12367,37.299],[127.12343,37.29919],[127.12274,37.29937],[127.12145,37.29957],[127.12056,37.29969],[127.11864,37.29853],[127.11863,37.29849],[127.11853,37.29816],[127.11854,37.298],[127.11855,37.29786],[127.11847,37.29735],[127.11833,37.29706],[127.11807,37.29656],[127.11797,37.29638],[127.11794,37.29632],[127.11767,37.29592],[127.11743,37.29558],[127.11576,37.29404],[127.11395,37.29266],[127.11356,37.2928],[127.11317,37.29204],[127.11328,37.29096],[127.11321,37.29097],[127.11305,37.291],[127.11281,37.29098],[127.11056,37.29055],[127.10949,37.29025],[127.10932,37.29022],[127.10913,37.29019],[127.10851,37.29019],[127.10829,37.29037],[127.10815,37.2907],[127.10812,37.29108],[127.10812,37.29158],[127.10796,37.29189],[127.10767,37.2924],[127.10744,37.29259],[127.10703,37.29284],[127.10386,37.29309],[127.10384,37.29358],[127.10382,37.29411],[127.10378,37.29551],[127.1041,37.29548],[127.10446,37.29534],[127.10505,37.29535],[127.10505,37.29835],[127.105,37.30145],[127.10327,37.30219],[127.10327,37.30407],[127.10362,37.30407],[127.10585,37.30407],[127.10657,37.30368],[127.10904,37.303],[127.11505,37.30247],[127.1164,37.30242],[127.11662,37.30243],[127.11686,37.30256],[127.11696,37.30269],[127.11713,37.30294],[127.11723,37.30307],[127.11725,37.3031],[127.11795,37.30373],[127.12196,37.3058],[127.12362,37.30606],[127.1262,37.30779],[127.12551,37.30949],[127.12532,37.30975],[127.12462,37.31071],[127.12427,37.31352],[127.12443,37.31374],[127.12459,37.31395],[127.12585,37.31523],[127.12709,37.31539],[127.1304,37.31792],[127.13463,37.31984],[127.13395,37.32157],[127.13373,37.32173],[127.13259,37.32237],[127.13265,37.32241],[127.1327,37.32244],[127.13278,37.32248],[127.13282,37.32249],[127.13296,37.32253],[127.13307,37.32256],[127.1332,37.32262],[127.13328,37.32266],[127.13334,37.32271],[127.13349,37.32286],[127.13372,37.32316],[127.13393,37.3234],[127.13395,37.32343],[127.13401,37.32346],[127.13411,37.32351],[127.13424,37.32355],[127.13445,37.32365],[127.13461,37.32374],[127.1348,37.32389],[127.13488,37.32396],[127.13495,37.324],[127.13511,37.3241],[127.1354,37.32431],[127.13552,37.32441],[127.13557,37.32445],[127.13561,37.32448],[127.13566,37.32451],[127.13574,37.32454],[127.13654,37.3247],[127.1366,37.3247],[127.13668,37.32468],[127.13678,37.32465],[127.13688,37.3246],[127.13725,37.32439]]]]}},{"type":"Feature","properties":{"code":"41463577","name":"동백3동","parent":"41463"},"geometry":{"type":"MultiPolygon","coordinates":[[[[127.14961,37.29032],[127.1521,37.28081],[127.15226,37.27984],[127.15189,37.27909],[127.15091,37.27818],[127.14809,37.27596],[127.14802,37.2755],[127.14829,37.2748],[127.14979,37.27156],[127.1521,37.26809],[127.15146,37.26718],[127.15059,37.26603],[127.14865,37.26466],[127.14791,37.26611],[127.14783,37.26638],[127.1477,37.26678],[127.1476,37.26799],[127.14771,37.26943],[127.1479,37.26999],[127.14792,37.27005],[127.14808,37.27118],[127.14663,37.27122],[127.14452,37.27115],[127.14455,37.27141],[127.14466,37.27171],[127.14472,37.27292],[127.14471,37.2751],[127.14273,37.28108],[127.14248,37.28165],[127.14038,37.28506],[127.14033,37.28512],[127.14009,37.28524],[127.13987,37.28531],[127.13959,37.28533],[127.13847,37.28531],[127.13818,37.28537],[127.14007,37.28639],[127.14727,37.28837],[127.14833,37.28992],[127.14961,37.29032]]]]}},{"type":"Feature","properties":{"code":"41463590","name":"보정동","parent":"41463"},"geometry":{"type":"MultiPolygon","coordinates":[[[[127.12585,37.31523],[127.12459,37.31395],[127.12443,37.31374],[127.12427,37.31352],[127.12462,37.31071],[127.12532,37.30975],[127.12551,37.30949],[127.1262,37.30779],[127.12362,37.30606],[127.12196,37.3058],[127.11795,37.30373],[127.11725,37.3031],[127.11723,37.30307],[127.11713,37.30294],[127.11696,37.30269],[127.11686,37.30256],[127.11662,37.30243],[127.1164,37.30242],[127.11505,37.30247],[127.10904,37.303],[127.10657,37.30368],[127.10585,37.30407],[127.10362,37.30407],[127.10327,37.30407],[127.10327,37.30219],[127.105,37.30145],[127.10505,37.29835],[127.10505,37.29535],[127.10446,37.29534],[127.1041,37.29548],[127.10378,37.29551],[127.10382,37.29411],[127.10384,37.29358],[127.10386,37.29309],[127.10179,37.29319],[127.10146,37.29313],[127.10121,37.29303],[127.10109,37.29298],[127.10079,37.29284],[127.10055,37.29263],[127.10042,37.29239],[127.10018,37.29215],[127.09952,37.29179],[127.0991,37.29161],[127.0989,37.2916],[127.09866,37.29159],[127.09749,37.29192],[127.09486,37.29275],[127.09475,37.29279],[127.09452,37.29294],[127.09444,37.293],[127.09429,37.29318],[127.09413,37.2934],[127.08831,37.29317],[127.09058,37.29714],[127.08988,37.29841],[127.09255,37.30113],[127.09303,37.30141],[127.09325,37.30446],[127.09329,37.30719],[127.09296,37.30796],[127.0928,37.30803],[127.09167,37.30891],[127.09149,37.30912],[127.09148,37.30919],[127.09148,37.30922],[127.09147,37.30928],[127.09154,37.30947],[127.09229,37.30994],[127.09288,37.31153],[127.0944,37.31238],[127.09393,37.31314],[127.09625,37.3133],[127.09884,37.313],[127.09983,37.31314],[127.09993,37.31364],[127.10035,37.31896],[127.09728,37.3202],[127.09763,37.32095],[127.0982,37.32148],[127.09847,37.32168],[127.09874,37.32186],[127.0992,37.32201],[127.09936,37.32205],[127.09979,37.3221],[127.10032,37.32213],[127.10076,37.32216],[127.10157,37.32226],[127.10182,37.32229],[127.1022,37.3224],[127.1025,37.32251],[127.10281,37.32267],[127.10457,37.32364],[127.1108,37.32423],[127.11135,37.32421],[127.11151,37.32412],[127.11171,37.32397],[127.11304,37.32229],[127.1131,37.32207],[127.1131,37.32117],[127.1131,37.32104],[127.1131,37.3209],[127.1169,37.32091],[127.11765,37.32092],[127.12221,37.32126],[127.12328,37.3214],[127.12331,37.3214],[127.12337,37.3214],[127.12453,37.32128],[127.12456,37.32127],[127.1266,37.31933],[127.12669,37.3192],[127.12708,37.31842],[127.12626,37.31626],[127.12585,37.31523]]]]}},{"type":"Feature","properties":{"code":"41463586","name":"상하동","parent":"41463"},"geometry":{"type":"MultiPolygon","coordinates":[[[[127.15913,37.25343],[127.15905,37.25265],[127.1589,37.25132],[127.15864,37.24951],[127.15812,37.24781],[127.15803,37.24772],[127.15378,37.24393],[127.15312,37.24336],[127.15278,37.24312],[127.15251,37.24297],[127.15241,37.24292],[127.15225,37.24288],[127.15075,37.24294],[127.15065,37.24295],[127.15059,37.24296],[127.15066,37.24307],[127.15069,37.24323],[127.15072,37.24355],[127.15072,37.2437],[127.15068,37.24389],[127.15064,37.24401],[127.15058,37.24411],[127.14664,37.24747],[127.14647,37.24759],[127.14574,37.24798],[127.14368,37.24899],[127.1416,37.24993],[127.1406,37.25038],[127.1394,37.25092],[127.13934,37.251],[127.13929,37.25109],[127.13923,37.25122],[127.13913,37.25143],[127.13884,37.25227],[127.13849,37.25319],[127.1375,37.25438],[127.13663,37.25486],[127.13659,37.25488],[127.13649,37.25493],[127.13291,37.25629],[127.13189,37.25926],[127.13217,37.2608],[127.13194,37.26253],[127.13107,37.26392],[127.13054,37.26468],[127.13054,37.26472],[127.13057,37.2648],[127.13107,37.26553],[127.13214,37.26704],[127.13316,37.26728],[127.13384,37.26742],[127.13392,37.26747],[127.13399,37.26751],[127.13409,37.26757],[127.13536,37.26923],[127.13518,37.26958],[127.13489,37.26975],[127.13459,37.26997],[127.13438,37.27016],[127.13435,37.27027],[127.13433,37.27045],[127.13432,37.27058],[127.13432,37.27064],[127.1343,37.27104],[127.13415,37.27457],[127.13415,37.27465],[127.13453,37.27667],[127.13209,37.28126],[127.13411,37.28096],[127.13609,37.28122],[127.13676,37.2823],[127.13678,37.28424],[127.13818,37.28537],[127.13847,37.28531],[127.13959,37.28533],[127.13987,37.28531],[127.14009,37.28524],[127.14033,37.28512],[127.14038,37.28506],[127.14248,37.28165],[127.14273,37.28108],[127.14471,37.2751],[127.14472,37.27292],[127.14466,37.27171],[127.14455,37.27141],[127.14452,37.27115],[127.14663,37.27122],[127.14808,37.27118],[127.14792,37.27005],[127.1479,37.26999],[127.14771,37.26943],[127.1476,37.26799],[127.1477,37.26678],[127.14783,37.26638],[127.14791,37.26611],[127.14865,37.26466],[127.14974,37.26343],[127.1501,37.26304],[127.15029,37.26283],[127.15155,37.26146],[127.15258,37.2605],[127.15402,37.25917],[127.15636,37.25695],[127.15668,37.25629],[127.15668,37.25604],[127.15659,37.25554],[127.15659,37.25501],[127.15693,37.25394],[127.15697,37.25388],[127.15707,37.2537],[127.158,37.25355],[127.15842,37.25348],[127.15897,37.25342],[127.15913,37.25343]]]]}},{"type":"Feature","properties":{"code":"41463510","name":"신갈동","parent":"41463"},"geometry":{"type":"MultiPolygon","coordinates":[[[[127.10386,37.29309],[127.10703,37.29284],[127.10744,37.29259],[127.10767,37.2924],[127.10796,37.29189],[127.10812,37.29158],[127.10812,37.29108],[127.10815,37.2907],[127.10829,37.29037],[127.10851,37.29019],[127.10913,37.29019],[127.10932,37.29022],[127.10949,37.29025],[127.11056,37.29055],[127.11281,37.29098],[127.11305,37.291],[127.11321,37.29097],[127.11328,37.29096],[127.11568,37.29087],[127.11787,37.29069],[127.11794,37.29067],[127.11886,37.29026],[127.11896,37.29018],[127.11898,37.29016],[127.11902,37.29009],[127.11904,37.29006],[127.11931,37.28946],[127.11934,37.2891],[127.11931,37.28896],[127.11932,37.28887],[127.11962,37.28858],[127.11978,37.28849],[127.11996,37.28846],[127.12146,37.28828],[127.12603,37.28879],[127.12693,37.28897],[127.12593,37.28722],[127.1241,37.28666],[127.12333,37.28664],[127.12185,37.2866],[127.12015,37.28699],[127.11872,37.28705],[127.11787,37.28671],[127.11341,37.28435],[127.11137,37.2829],[127.10963,37.27962],[127.1096,37.27906],[127.10959,37.27883],[127.10958,37.27812],[127.10957,37.27774],[127.10951,37.27458],[127.10952,37.27356],[127.10953,37.27308],[127.11071,37.27356],[127.11117,37.27379],[127.11166,37.27414],[127.11227,37.27456],[127.11266,37.27481],[127.11313,37.27511],[127.11323,37.27511],[127.11333,37.27512],[127.11339,37.27512],[127.11337,37.27502],[127.11335,37.27495],[127.11327,37.27477],[127.11026,37.27181],[127.10915,37.27088],[127.10379,37.26955],[127.10376,37.26954],[127.10248,37.269],[127.102,37.26873],[127.10153,37.26836],[127.09981,37.27007],[127.09912,37.2725],[127.0976,37.27321],[127.09651,37.27372],[127.09572,37.2741],[127.09568,37.27414],[127.09491,37.2753],[127.09417,37.27642],[127.0938,37.27697],[127.09146,37.27788],[127.09081,37.27834],[127.09026,37.27894],[127.0902,37.27901],[127.0901,37.27914],[127.08778,37.28304],[127.09124,37.28443],[127.09134,37.28444],[127.09137,37.28445],[127.09346,37.28413],[127.09473,37.28356],[127.09478,37.28349],[127.09495,37.28327],[127.09497,37.28323],[127.09498,37.28319],[127.09495,37.28312],[127.09491,37.28308],[127.09485,37.28302],[127.09479,37.28295],[127.0948,37.28293],[127.09481,37.28289],[127.09489,37.28285],[127.09498,37.28284],[127.09511,37.28287],[127.09593,37.28322],[127.09598,37.28328],[127.09602,37.28343],[127.09603,37.2836],[127.09595,37.28404],[127.09453,37.28547],[127.09355,37.28644],[127.08863,37.28687],[127.08883,37.28697],[127.08894,37.28714],[127.08877,37.28811],[127.08816,37.2894],[127.08797,37.28988],[127.08791,37.29018],[127.08789,37.29028],[127.08792,37.2907],[127.08831,37.29317],[127.09413,37.2934],[127.09429,37.29318],[127.09444,37.293],[127.09452,37.29294],[127.09475,37.29279],[127.09486,37.29275],[127.09749,37.29192],[127.09866,37.29159],[127.0989,37.2916],[127.0991,37.29161],[127.09952,37.29179],[127.10018,37.29215],[127.10042,37.29239],[127.10055,37.29263],[127.10079,37.29284],[127.10109,37.29298],[127.10121,37.29303],[127.10146,37.29313],[127.10179,37.29319],[127.10386,37.29309]]]]}},{"type":"Feature","properties":{"code":"41463517","name":"영덕2동","parent":"41463"},"geometry":{"type":"MultiPolygon","coordinates":[[[[127.08553,37.27051],[127.08718,37.27124],[127.0899,37.27138],[127.09212,37.271],[127.09588,37.2703],[127.09933,37.26973],[127.09981,37.27007],[127.10153,37.26836],[127.10123,37.26726],[127.1004,37.26481],[127.09924,37.26194],[127.09857,37.26075],[127.09823,37.26003],[127.09982,37.25886],[127.10491,37.25511],[127.10517,37.25344],[127.10525,37.25293],[127.10387,37.25103],[127.10293,37.25026],[127.10251,37.25001],[127.1022,37.24903],[127.10206,37.24761],[127.10202,37.24737],[127.10199,37.24716],[127.09887,37.24518],[127.09817,37.24485],[127.09658,37.24422],[127.09494,37.24371],[127.09379,37.24362],[127.09132,37.24409],[127.08567,37.24437],[127.08353,37.24445],[127.083,37.2449],[127.08205,37.24762],[127.08211,37.2494],[127.08249,37.25009],[127.08193,37.25086],[127.08258,37.25161],[127.08182,37.25268],[127.08244,37.25445],[127.08336,37.25474],[127.08463,37.25633],[127.0847,37.25661],[127.08378,37.25847],[127.08105,37.2585],[127.08104,37.25925],[127.08105,37.25997],[127.08122,37.26059],[127.08284,37.26215],[127.08352,37.26231],[127.08415,37.26245],[127.08451,37.26282],[127.0862,37.26477],[127.08605,37.26603],[127.0857,37.26744],[127.08553,37.27051]]]]}},{"type":"Feature","properties":{"code":"41463516","name":"영덕1동","parent":"41463"},"geometry":{"type":"MultiPolygon","coordinates":[[[[127.09981,37.27007],[127.09933,37.26973],[127.09588,37.2703],[127.09212,37.271],[127.0899,37.27138],[127.08718,37.27124],[127.08553,37.27051],[127.07905,37.26731],[127.07751,37.26698],[127.07761,37.2657],[127.07599,37.26573],[127.07668,37.26489],[127.07763,37.26353],[127.07765,37.2633],[127.07768,37.26295],[127.07768,37.26287],[127.07768,37.26278],[127.07759,37.26244],[127.0769,37.26139],[127.07647,37.26144],[127.0759,37.26151],[127.07521,37.26235],[127.07492,37.26308],[127.07487,37.2635],[127.07489,37.26451],[127.0736,37.26611],[127.07089,37.26655],[127.07015,37.26662],[127.06995,37.26673],[127.06989,37.26678],[127.06983,37.26684],[127.06848,37.26868],[127.06504,37.27025],[127.06478,37.27044],[127.06475,37.27052],[127.06472,37.27059],[127.06467,37.27101],[127.06466,37.27111],[127.06621,37.27309],[127.06693,37.27394],[127.06793,37.27447],[127.06799,37.2748],[127.06806,37.27561],[127.06928,37.2773],[127.06954,37.27874],[127.07042,37.2793],[127.07541,37.28224],[127.07722,37.28299],[127.0788,37.28349],[127.08168,37.28463],[127.08413,37.28632],[127.08467,37.28632],[127.08533,37.28612],[127.0856,37.28604],[127.08652,37.28608],[127.08673,37.28612],[127.08709,37.2862],[127.08755,37.28638],[127.08817,37.28662],[127.08863,37.28687],[127.09355,37.28644],[127.09453,37.28547],[127.09595,37.28404],[127.09603,37.2836],[127.09602,37.28343],[127.09598,37.28328],[127.09593,37.28322],[127.09511,37.28287],[127.09498,37.28284],[127.09489,37.28285],[127.09481,37.28289],[127.0948,37.28293],[127.09479,37.28295],[127.09485,37.28302],[127.09491,37.28308],[127.09495,37.28312],[127.09498,37.28319],[127.09497,37.28323],[127.09495,37.28327],[127.09478,37.28349],[127.09473,37.28356],[127.09346,37.28413],[127.09137,37.28445],[127.09134,37.28444],[127.09124,37.28443],[127.08778,37.28304],[127.0901,37.27914],[127.0902,37.27901],[127.09026,37.27894],[127.09081,37.27834],[127.09146,37.27788],[127.0938,37.27697],[127.09417,37.27642],[127.09491,37.2753],[127.09568,37.27414],[127.09572,37.2741],[127.09651,37.27372],[127.0976,37.27321],[127.09912,37.2725],[127.09981,37.27007]]]]}},{"type":"Feature","properties":{"code":"41463530","name":"상갈동","parent":"41463"},"geometry":{"type":"MultiPolygon","coordinates":[[[[127.12676,37.26603],[127.12538,37.26464],[127.12346,37.26367],[127.12165,37.26418],[127.11906,37.26427],[127.11775,37.26346],[127.11779,37.26263],[127.11678,37.2618],[127.11513,37.26084],[127.11416,37.26129],[127.11322,37.26062],[127.11208,37.26111],[127.1104,37.261],[127.10684,37.261],[127.1057,37.26082],[127.10553,37.26042],[127.10436,37.25996],[127.10416,37.26119],[127.10332,37.26128],[127.10197,37.26098],[127.1015,37.26034],[127.09982,37.25886],[127.09823,37.26003],[127.09857,37.26075],[127.09924,37.26194],[127.1004,37.26481],[127.10123,37.26726],[127.10153,37.26836],[127.102,37.26873],[127.10248,37.269],[127.10376,37.26954],[127.10379,37.26955],[127.10915,37.27088],[127.11087,37.27109],[127.11297,37.27187],[127.11357,37.27149],[127.11408,37.27159],[127.1142,37.27161],[127.11656,37.27158],[127.1166,37.27157],[127.11721,37.27127],[127.11723,37.27124],[127.11723,37.2712],[127.11718,37.27094],[127.11704,37.27064],[127.11698,37.27046],[127.11693,37.27034],[127.11689,37.2702],[127.1169,37.27014],[127.11691,37.27011],[127.11694,37.27002],[127.11698,37.26991],[127.11702,37.26983],[127.11708,37.26973],[127.11721,37.26958],[127.11736,37.26947],[127.11782,37.26925],[127.12175,37.2678],[127.12451,37.2668],[127.12563,37.2664],[127.12676,37.26603]]]]}},{"type":"Feature","properties":{"code":"41463575","name":"동백2동","parent":"41463"},"geometry":{"type":"MultiPolygon","coordinates":[[[[127.15189,37.27909],[127.15327,37.27863],[127.15471,37.27759],[127.1575,37.28037],[127.15951,37.27916],[127.16012,37.2794],[127.16082,37.27889],[127.16115,37.27795],[127.16253,37.2772],[127.1632,37.27639],[127.16491,37.27572],[127.1678,37.27553],[127.16921,37.27526],[127.17038,37.27539],[127.17166,37.27558],[127.1737,37.27413],[127.17239,37.27066],[127.17216,37.26989],[127.17215,37.26974],[127.17218,37.26949],[127.17289,37.26533],[127.17415,37.26015],[127.17512,37.25834],[127.1732,37.25745],[127.17042,37.25537],[127.17022,37.25514],[127.17008,37.25503],[127.16994,37.25498],[127.16605,37.25423],[127.16337,37.25464],[127.16315,37.25465],[127.163,37.25465],[127.16273,37.25463],[127.16256,37.2546],[127.16246,37.25459],[127.15978,37.25415],[127.15968,37.25413],[127.15954,37.25411],[127.15949,37.25408],[127.15941,37.25401],[127.15928,37.25378],[127.15916,37.25352],[127.15915,37.25349],[127.15913,37.25343],[127.15897,37.25342],[127.15842,37.25348],[127.158,37.25355],[127.15707,37.2537],[127.15697,37.25388],[127.15693,37.25394],[127.15659,37.25501],[127.15659,37.25554],[127.15668,37.25604],[127.15668,37.25629],[127.15636,37.25695],[127.15402,37.25917],[127.15258,37.2605],[127.15155,37.26146],[127.15029,37.26283],[127.1501,37.26304],[127.14974,37.26343],[127.14865,37.26466],[127.15059,37.26603],[127.15146,37.26718],[127.1521,37.26809],[127.14979,37.27156],[127.14829,37.2748],[127.14802,37.2755],[127.14809,37.27596],[127.15091,37.27818],[127.15189,37.27909]]]]}},{"type":"Feature","properties":{"code":"41463572","name":"동백1동","parent":"41463"},"geometry":{"type":"MultiPolygon","coordinates":[[[[127.1737,37.27413],[127.17166,37.27558],[127.17038,37.27539],[127.16921,37.27526],[127.1678,37.27553],[127.16491,37.27572],[127.1632,37.27639],[127.16253,37.2772],[127.16115,37.27795],[127.16082,37.27889],[127.16012,37.2794],[127.15951,37.27916],[127.1575,37.28037],[127.15471,37.27759],[127.15327,37.27863],[127.15189,37.27909],[127.15226,37.27984],[127.1521,37.28081],[127.14961,37.29032],[127.15033,37.29077],[127.15059,37.29081],[127.1512,37.29078],[127.15144,37.29076],[127.15155,37.29075],[127.15177,37.29077],[127.15225,37.29095],[127.15254,37.29106],[127.15263,37.2911],[127.15282,37.29116],[127.15288,37.29118],[127.1533,37.29124],[127.15344,37.29124],[127.15362,37.29123],[127.1537,37.29123],[127.15415,37.29116],[127.15442,37.29111],[127.1547,37.29111],[127.15518,37.29131],[127.15559,37.29149],[127.15602,37.29178],[127.1562,37.29188],[127.15637,37.29195],[127.15645,37.29197],[127.15655,37.29199],[127.15677,37.29201],[127.15922,37.29222],[127.16049,37.29226],[127.16077,37.29232],[127.16097,37.2924],[127.1612,37.29255],[127.16128,37.2926],[127.1615,37.29283],[127.16339,37.29502],[127.16694,37.30071],[127.16707,37.30104],[127.16724,37.30169],[127.17015,37.2997],[127.17149,37.29661],[127.17159,37.29636],[127.17163,37.2962],[127.1719,37.29482],[127.17191,37.29465],[127.17179,37.29397],[127.17176,37.29389],[127.17168,37.29375],[127.17154,37.29358],[127.17129,37.29339],[127.17098,37.29318],[127.17086,37.29309],[127.17068,37.29296],[127.17059,37.29285],[127.17054,37.29272],[127.17046,37.29227],[127.17044,37.29206],[127.17043,37.29202],[127.17045,37.29196],[127.17046,37.29194],[127.17054,37.29186],[127.17165,37.29086],[127.17177,37.29076],[127.1719,37.29068],[127.17271,37.29041],[127.17328,37.29021],[127.17375,37.29],[127.17398,37.28986],[127.17418,37.28974],[127.17442,37.28956],[127.17469,37.28921],[127.17489,37.28887],[127.1771,37.28498],[127.17711,37.28481],[127.17711,37.28457],[127.17709,37.2843],[127.17693,37.2822],[127.1769,37.28195],[127.17498,37.27728],[127.1737,37.27413]]]]}}]}