{"type":"FeatureCollection","features":[{"type":"Feature","properties":{"code":"44250310","name":"두마면","parent":"44250"},"geometry":{"type":"MultiPolygon","coordinates":[[[[127.29177,36.26419],[127.29176,36.26403],[127.29088,36.26295],[127.28947,36.26233],[127.28806,36.26171],[127.28701,36.26123],[127.28596,36.26075],[127.28416,36.25975],[127.28342,36.25923],[127.28243,36.25826],[127.28206,36.25779],[127.28198,36.25765],[127.28191,36.25751],[127.28188,36.25723],[127.2822,36.2568],[127.28255,36.2563],[127.28252,36.25611],[127.28188,36.25395],[127.28174,36.25382],[127.28147,36.25373],[127.28094,36.25368],[127.28003,36.25234],[127.28045,36.25013],[127.28096,36.2482],[127.28124,36.24757],[127.28108,36.24625],[127.28102,36.24583],[127.28011,36.24511],[127.27962,36.24473],[127.27873,36.24424],[127.27808,36.24407],[127.27564,36.24404],[127.27511,36.24403],[127.27429,36.24398],[127.27418,36.24396],[127.2716,36.24364],[127.26963,36.2433],[127.26679,36.24261],[127.26674,36.2426],[127.26668,36.24257],[127.2666,36.24252],[127.26521,36.24135],[127.26417,36.24023],[127.26412,36.24016],[127.26405,36.24006],[127.26396,36.23991],[127.26385,36.23961],[127.26381,36.23947],[127.2638,36.23942],[127.26379,36.23937],[127.26379,36.23931],[127.26382,36.23894],[127.26384,36.23879],[127.26392,36.23817],[127.26392,36.23811],[127.26391,36.23807],[127.26386,36.23797],[127.26382,36.23791],[127.26358,36.23764],[127.26339,36.23744],[127.2632,36.23725],[127.26311,36.23718],[127.26224,36.23661],[127.2621,36.23653],[127.25812,36.23445],[127.25803,36.23441],[127.25772,36.23433],[127.25755,36.23431],[127.25741,36.2343],[127.25725,36.2343],[127.25713,36.23432],[127.2569,36.23439],[127.25663,36.23451],[127.25649,36.23456],[127.25617,36.23467],[127.25606,36.23469],[127.25597,36.23469],[127.25581,36.23469],[127.25569,36.23469],[127.25523,36.23467],[127.25337,36.23449],[127.25287,36.23442],[127.24964,36.23384],[127.24959,36.23383],[127.24949,36.23375],[127.24871,36.23299],[127.2482,36.23249],[127.24789,36.23221],[127.24784,36.23219],[127.2478,36.23217],[127.24776,36.23215],[127.24769,36.23211],[127.24758,36.23206],[127.24737,36.23198],[127.24725,36.23195],[127.24721,36.23194],[127.24714,36.23192],[127.24692,36.23189],[127.24674,36.23187],[127.2465,36.23186],[127.24635,36.23187],[127.24624,36.23188],[127.24614,36.2319],[127.24589,36.23198],[127.24581,36.23202],[127.2457,36.23208],[127.24545,36.2322],[127.24531,36.23227],[127.24316,36.23347],[127.24311,36.23355],[127.24305,36.2337],[127.243,36.23383],[127.24286,36.23408],[127.24266,36.23442],[127.24247,36.23472],[127.24227,36.23502],[127.24223,36.23507],[127.24216,36.23517],[127.24201,36.23538],[127.24195,36.23544],[127.24193,36.23547],[127.24174,36.23567],[127.24171,36.23571],[127.24167,36.23573],[127.24163,36.23575],[127.2416,36.23576],[127.24151,36.23579],[127.24145,36.23581],[127.24089,36.23598],[127.24072,36.23601],[127.24065,36.23603],[127.23959,36.23615],[127.23938,36.23616],[127.23903,36.237],[127.23904,36.23711],[127.23906,36.23719],[127.2399,36.23996],[127.24032,36.2421],[127.24032,36.24215],[127.24032,36.24229],[127.24031,36.24253],[127.2403,36.2426],[127.24029,36.24273],[127.24026,36.24296],[127.24018,36.24359],[127.24017,36.24369],[127.24015,36.24373],[127.24011,36.24376],[127.2394,36.24425],[127.23901,36.24444],[127.23888,36.2445],[127.23875,36.24454],[127.23859,36.2446],[127.23851,36.24462],[127.23836,36.24466],[127.23819,36.24474],[127.23798,36.24485],[127.23783,36.24494],[127.23763,36.24507],[127.2376,36.2451],[127.23759,36.24512],[127.23758,36.24516],[127.23757,36.2453],[127.23754,36.24567],[127.23753,36.24595],[127.23738,36.24933],[127.23746,36.24996],[127.23746,36.25001],[127.23748,36.25015],[127.23749,36.2502],[127.23751,36.25025],[127.2387,36.25178],[127.23965,36.25295],[127.24039,36.25351],[127.24051,36.25364],[127.24055,36.25372],[127.24069,36.25398],[127.24078,36.25414],[127.24083,36.25431],[127.24083,36.25439],[127.24068,36.25538],[127.24065,36.25555],[127.24059,36.25575],[127.24051,36.25589],[127.24045,36.25592],[127.2383,36.25569],[127.23739,36.25502],[127.23619,36.25529],[127.23675,36.25584],[127.2395,36.25865],[127.23973,36.25893],[127.24052,36.25948],[127.2423,36.26044],[127.25742,36.26572],[127.2598,36.26624],[127.26271,36.26724],[127.26313,36.26789],[127.2633,36.26833],[127.26332,36.26841],[127.26336,36.26862],[127.26333,36.26881],[127.26314,36.26955],[127.26311,36.26957],[127.26281,36.26978],[127.26278,36.2698],[127.26269,36.26983],[127.26208,36.27022],[127.2611,36.27119],[127.261,36.27219],[127.26086,36.27357],[127.26074,36.27512],[127.26089,36.27562],[127.26107,36.27585],[127.26199,36.27578],[127.26343,36.27527],[127.26487,36.27476],[127.26645,36.27413],[127.26667,36.27392],[127.26669,36.2739],[127.2677,36.27295],[127.26977,36.27102],[127.27008,36.27086],[127.27143,36.27016],[127.27441,36.26856],[127.28101,36.26541],[127.2829,36.26494],[127.283,36.26491],[127.28422,36.26487],[127.28536,36.26519],[127.2865,36.2655],[127.28731,36.26573],[127.28882,36.26584],[127.29057,36.26575],[127.29147,36.26534],[127.29177,36.26419]]]]}},{"type":"Feature","properties":{"code":"44250315","name":"엄사면","parent":"44250"},"geometry":{"type":"MultiPolygon","coordinates":[[[[127.24683,36.29044],[127.24762,36.28966],[127.2481,36.2884],[127.24846,36.28701],[127.24852,36.28669],[127.24868,36.2859],[127.24891,36.28471],[127.24946,36.28343],[127.24971,36.2833],[127.25099,36.28263],[127.25205,36.28222],[127.25315,36.28114],[127.25205,36.28108],[127.24775,36.28233],[127.24772,36.28231],[127.24642,36.28147],[127.24518,36.28057],[127.24407,36.27939],[127.24245,36.27744],[127.24218,36.27693],[127.24159,36.27579],[127.24151,36.27559],[127.24146,36.27548],[127.2413,36.27483],[127.24138,36.27448],[127.24146,36.27425],[127.24212,36.27283],[127.24281,36.27141],[127.24287,36.27097],[127.24372,36.26341],[127.2437,36.26205],[127.2423,36.26044],[127.24052,36.25948],[127.23973,36.25893],[127.2395,36.25865],[127.23675,36.25584],[127.23619,36.25529],[127.23613,36.25532],[127.23607,36.25532],[127.23604,36.25533],[127.23587,36.25531],[127.23494,36.25521],[127.23386,36.25503],[127.23292,36.25478],[127.23226,36.25459],[127.23136,36.25448],[127.23121,36.25448],[127.23089,36.25453],[127.22817,36.25501],[127.2281,36.25504],[127.22805,36.25507],[127.22802,36.25513],[127.22802,36.2552],[127.22802,36.25524],[127.22814,36.25579],[127.22817,36.25713],[127.22816,36.25747],[127.22811,36.25755],[127.22795,36.25766],[127.22631,36.25852],[127.22129,36.26227],[127.22125,36.26228],[127.22121,36.2623],[127.22109,36.26233],[127.22084,36.26235],[127.22067,36.26235],[127.22043,36.26234],[127.2202,36.26232],[127.22015,36.26229],[127.21676,36.26042],[127.21182,36.25769],[127.21064,36.25661],[127.2105,36.25647],[127.21048,36.25645],[127.21038,36.25631],[127.20979,36.25514],[127.20923,36.25363],[127.20928,36.25332],[127.20928,36.25295],[127.20926,36.2529],[127.20921,36.25287],[127.20912,36.25284],[127.20653,36.25206],[127.20628,36.25201],[127.20293,36.25137],[127.20279,36.25137],[127.20276,36.25137],[127.20259,36.25141],[127.20234,36.2515],[127.20193,36.25171],[127.20179,36.2518],[127.2017,36.25187],[127.20166,36.25189],[127.20154,36.25201],[127.20148,36.25209],[127.20146,36.25213],[127.20146,36.25229],[127.20147,36.25258],[127.20151,36.25295],[127.20147,36.25398],[127.20093,36.25613],[127.20045,36.25747],[127.20032,36.25773],[127.20026,36.25781],[127.20003,36.25801],[127.19796,36.25976],[127.1978,36.25988],[127.19785,36.26534],[127.19823,36.2678],[127.1985,36.26797],[127.19855,36.2681],[127.19858,36.26818],[127.19893,36.26916],[127.19909,36.26966],[127.1991,36.26992],[127.19911,36.27002],[127.19905,36.27024],[127.19894,36.27039],[127.19787,36.2718],[127.19654,36.27381],[127.19628,36.27422],[127.19584,36.27496],[127.19578,36.27513],[127.19575,36.27522],[127.19575,36.27538],[127.19575,36.27566],[127.19577,36.27586],[127.19582,36.27607],[127.19593,36.27632],[127.19605,36.27649],[127.19645,36.27688],[127.19748,36.27795],[127.19832,36.28007],[127.20007,36.28313],[127.20052,36.28387],[127.20055,36.28392],[127.20058,36.28395],[127.20068,36.28404],[127.20075,36.28409],[127.20079,36.28411],[127.20084,36.28413],[127.2009,36.28415],[127.20099,36.28417],[127.20106,36.28418],[127.2011,36.28419],[127.20115,36.28421],[127.20117,36.28423],[127.2012,36.28425],[127.20124,36.28429],[127.20127,36.28432],[127.2013,36.28436],[127.20138,36.28451],[127.20153,36.28484],[127.20179,36.28544],[127.20291,36.28896],[127.20311,36.28994],[127.20313,36.29004],[127.20313,36.29007],[127.20313,36.2901],[127.2031,36.29018],[127.20213,36.2923],[127.2019,36.29275],[127.20204,36.29462],[127.20431,36.30034],[127.20433,36.30036],[127.20434,36.3004],[127.20472,36.30097],[127.20476,36.30103],[127.20528,36.30159],[127.20714,36.30127],[127.20965,36.30136],[127.21021,36.30143],[127.21064,36.30148],[127.21203,36.30101],[127.21236,36.30082],[127.21248,36.3007],[127.21276,36.30044],[127.21297,36.30017],[127.21319,36.29972],[127.21319,36.29958],[127.21328,36.29922],[127.21437,36.2981],[127.21474,36.2978],[127.21509,36.29758],[127.21518,36.29754],[127.21533,36.29748],[127.21777,36.29667],[127.22016,36.29592],[127.22291,36.29516],[127.22324,36.2951],[127.22347,36.29509],[127.22378,36.29514],[127.22403,36.29523],[127.22434,36.29537],[127.22456,36.29552],[127.22476,36.29587],[127.22956,36.29564],[127.2306,36.29552],[127.23332,36.29515],[127.23622,36.29477],[127.23659,36.29472],[127.23787,36.29496],[127.23886,36.2952],[127.24124,36.29544],[127.24382,36.29367],[127.24515,36.29253],[127.24521,36.29245],[127.2453,36.29235],[127.24683,36.29044]]]]}},{"type":"Feature","properties":{"code":"44250330","name":"신도안면","parent":"44250"},"geometry":{"type":"MultiPolygon","coordinates":[[[[127.25975,36.32721],[127.2603,36.32389],[127.26031,36.32381],[127.26032,36.32374],[127.26034,36.32358],[127.26035,36.32352],[127.26036,36.32344],[127.26037,36.3233],[127.26038,36.32318],[127.26039,36.32313],[127.26039,36.32306],[127.2604,36.32294],[127.26041,36.32284],[127.26041,36.3228],[127.26041,36.32274],[127.26042,36.32265],[127.26042,36.32256],[127.26042,36.32248],[127.26042,36.32241],[127.26042,36.32232],[127.26042,36.32224],[127.26041,36.32215],[127.26039,36.32206],[127.26038,36.32194],[127.26035,36.32182],[127.26032,36.32167],[127.26027,36.3215],[127.26025,36.3214],[127.26023,36.32131],[127.26017,36.32111],[127.26011,36.3209],[127.26004,36.3207],[127.26002,36.32065],[127.25997,36.32051],[127.25989,36.32033],[127.25981,36.32017],[127.25973,36.32004],[127.25965,36.31993],[127.25957,36.31984],[127.25949,36.31977],[127.2594,36.31971],[127.25931,36.31965],[127.25923,36.3196],[127.2592,36.31958],[127.25914,36.31954],[127.25905,36.31948],[127.25897,36.31942],[127.25888,36.31935],[127.25884,36.31931],[127.25879,36.31927],[127.25871,36.31919],[127.25861,36.3191],[127.25854,36.31902],[127.25846,36.31893],[127.25842,36.31889],[127.25837,36.31883],[127.25829,36.31874],[127.25821,36.31865],[127.25814,36.31855],[127.25806,36.31845],[127.258,36.31835],[127.25793,36.31826],[127.25788,36.31816],[127.25783,36.31806],[127.25778,36.31796],[127.25774,36.31785],[127.25771,36.31774],[127.25768,36.31761],[127.25765,36.31747],[127.25762,36.31732],[127.2576,36.31715],[127.25758,36.31696],[127.25756,36.31674],[127.25754,36.31651],[127.25752,36.31626],[127.25751,36.31599],[127.2575,36.3157],[127.2575,36.31559],[127.2575,36.31539],[127.2575,36.31535],[127.2575,36.31507],[127.25751,36.31481],[127.25751,36.31474],[127.25752,36.3144],[127.25754,36.31405],[127.25756,36.31371],[127.25758,36.31338],[127.25761,36.31307],[127.25832,36.30602],[127.25834,36.30591],[127.25838,36.30553],[127.25845,36.30505],[127.25855,36.30459],[127.25869,36.30417],[127.25885,36.3038],[127.25904,36.30348],[127.25913,36.30335],[127.25924,36.3032],[127.25944,36.30295],[127.25964,36.30274],[127.25978,36.30259],[127.25982,36.30254],[127.25998,36.30236],[127.26009,36.30219],[127.26017,36.302],[127.2602,36.30184],[127.2602,36.30164],[127.26017,36.30143],[127.2595,36.29719],[127.25943,36.29685],[127.25936,36.29659],[127.25931,36.29644],[127.25929,36.29638],[127.25926,36.29633],[127.25921,36.29623],[127.25913,36.29613],[127.25905,36.29606],[127.25896,36.29601],[127.25887,36.29598],[127.2586,36.29591],[127.25851,36.29589],[127.2584,36.29586],[127.25828,36.29584],[127.25816,36.29582],[127.25802,36.29581],[127.25787,36.29581],[127.2577,36.29582],[127.25752,36.29583],[127.25732,36.29586],[127.25713,36.29588],[127.25571,36.29606],[127.25557,36.29608],[127.25543,36.2961],[127.25528,36.29613],[127.25513,36.29617],[127.25498,36.29621],[127.25483,36.29626],[127.25467,36.29632],[127.25451,36.29637],[127.25435,36.29642],[127.25418,36.29647],[127.25402,36.2965],[127.25387,36.29653],[127.25382,36.29653],[127.25371,36.29654],[127.25356,36.29654],[127.25348,36.29653],[127.25341,36.29653],[127.25326,36.2965],[127.2531,36.29647],[127.25297,36.29643],[127.25287,36.2964],[127.25282,36.29639],[127.25266,36.29634],[127.2525,36.29628],[127.25243,36.29626],[127.25234,36.29623],[127.25218,36.29616],[127.25202,36.29609],[127.25185,36.29601],[127.25169,36.29592],[127.25152,36.29582],[127.25136,36.2957],[127.2512,36.29557],[127.25105,36.29543],[127.2509,36.29528],[127.25076,36.29513],[127.24763,36.29165],[127.24683,36.29044],[127.2453,36.29235],[127.24521,36.29245],[127.24515,36.29253],[127.24382,36.29367],[127.24124,36.29544],[127.23886,36.2952],[127.23787,36.29496],[127.23659,36.29472],[127.23622,36.29477],[127.23332,36.29515],[127.2306,36.29552],[127.22956,36.29564],[127.22476,36.29587],[127.22456,36.29552],[127.22434,36.29537],[127.22403,36.29523],[127.22378,36.29514],[127.22347,36.29509],[127.22324,36.2951],[127.22291,36.29516],[127.22016,36.29592],[127.21777,36.29667],[127.21533,36.29748],[127.21518,36.29754],[127.21509,36.29758],[127.21474,36.2978],[127.21437,36.2981],[127.21328,36.29922],[127.21319,36.29958],[127.21319,36.29972],[127.21297,36.30017],[127.21276,36.30044],[127.21248,36.3007],[127.21236,36.30082],[127.21203,36.30101],[127.21064,36.30148],[127.21021,36.30143],[127.20965,36.30136],[127.20714,36.30127],[127.20528,36.30159],[127.20534,36.30367],[127.20533,36.30375],[127.20511,36.30476],[127.20506,36.30497],[127.20461,36.30626],[127.20437,36.3067],[127.20418,36.30695],[127.20404,36.30727],[127.20388,36.3081],[127.20367,36.3097],[127.20367,36.30979],[127.20325,36.31478],[127.20259,36.32257],[127.20257,36.32284],[127.20235,36.3233],[127.20224,36.32351],[127.20218,36.32357],[127.20207,36.32367],[127.20191,36.32379],[127.20149,36.32406],[127.20139,36.32411],[127.20136,36.32413],[127.20096,36.32427],[127.2008,36.3243],[127.19853,36.32634],[127.19844,36.32643],[127.19833,36.32656],[127.19811,36.32707],[127.1981,36.32713],[127.19815,36.32724],[127.19825,36.32734],[127.19834,36.3274],[127.19838,36.32743],[127.19863,36.32754],[127.19869,36.3276],[127.1987,36.32765],[127.19874,36.32814],[127.19874,36.32841],[127.19872,36.3286],[127.19869,36.32896],[127.19861,36.3294],[127.19858,36.32949],[127.19844,36.32977],[127.19809,36.33044],[127.19578,36.334],[127.19605,36.33422],[127.19748,36.33564],[127.19755,36.33574],[127.19759,36.33582],[127.1976,36.33589],[127.19758,36.33599],[127.19751,36.33616],[127.1975,36.33621],[127.1975,36.33625],[127.19753,36.33631],[127.19789,36.33685],[127.19803,36.33705],[127.19831,36.33746],[127.19854,36.33773],[127.19886,36.33806],[127.19921,36.33836],[127.2017,36.34038],[127.20188,36.3405],[127.202,36.34056],[127.20215,36.34062],[127.20231,36.34065],[127.20324,36.341],[127.20391,36.34126],[127.20594,36.34224],[127.20599,36.34231],[127.20599,36.34234],[127.20598,36.34238],[127.20569,36.34325],[127.20565,36.34331],[127.20454,36.34473],[127.20393,36.34601],[127.20448,36.3463],[127.20936,36.34793],[127.2095,36.34796],[127.20968,36.34798],[127.21432,36.34841],[127.21497,36.34844],[127.21629,36.34847],[127.21847,36.34847],[127.21929,36.34846],[127.22176,36.34835],[127.22744,36.34889],[127.22779,36.34899],[127.22888,36.34917],[127.22893,36.34917],[127.22904,36.34917],[127.22909,36.34917],[127.22913,36.34916],[127.23048,36.34873],[127.23137,36.34838],[127.23197,36.34858],[127.23202,36.34858],[127.23213,36.34859],[127.23284,36.34857],[127.23333,36.34853],[127.23693,36.34825],[127.23699,36.34824],[127.23707,36.34823],[127.23716,36.3482],[127.23729,36.34816],[127.24046,36.3466],[127.24056,36.34648],[127.24118,36.34459],[127.24103,36.34402],[127.24099,36.34396],[127.24088,36.3438],[127.24087,36.34377],[127.24085,36.34373],[127.24064,36.34295],[127.24064,36.3429],[127.24065,36.34286],[127.24083,36.34226],[127.24179,36.33919],[127.24187,36.33902],[127.24193,36.33886],[127.24196,36.33881],[127.2423,36.33853],[127.24264,36.33827],[127.24292,36.33807],[127.24303,36.33799],[127.24404,36.33735],[127.24429,36.33722],[127.24445,36.33713],[127.24463,36.33708],[127.24654,36.33667],[127.24659,36.33666],[127.24708,36.33659],[127.24838,36.33701],[127.24896,36.33719],[127.24988,36.33744],[127.25029,36.33748],[127.25041,36.33748],[127.25051,36.33746],[127.25342,36.33699],[127.25342,36.3369],[127.25341,36.3367],[127.25336,36.33598],[127.25331,36.33563],[127.25324,36.3352],[127.25318,36.33479],[127.25319,36.3347],[127.25362,36.33293],[127.25368,36.33279],[127.25425,36.33124],[127.25489,36.32988],[127.25497,36.32977],[127.255,36.32971],[127.25506,36.32962],[127.25516,36.3295],[127.25528,36.32937],[127.25537,36.32929],[127.2555,36.32921],[127.25575,36.32906],[127.25644,36.32865],[127.2587,36.32749],[127.25879,36.32745],[127.25896,36.32741],[127.25975,36.32721]]]]}},{"type":"Feature","properties":{"code":"44250510","name":"금암동","parent":"44250"},"geometry":{"type":"MultiPolygon","coordinates":[[[[127.25315,36.28114],[127.25369,36.28061],[127.25481,36.27951],[127.2552,36.27912],[127.25558,36.27875],[127.25591,36.27838],[127.25625,36.27801],[127.25869,36.2767],[127.26026,36.27591],[127.26107,36.27585],[127.26089,36.27562],[127.26074,36.27512],[127.26086,36.27357],[127.261,36.27219],[127.2611,36.27119],[127.26208,36.27022],[127.26269,36.26983],[127.26278,36.2698],[127.26281,36.26978],[127.26311,36.26957],[127.26314,36.26955],[127.26333,36.26881],[127.26336,36.26862],[127.26332,36.26841],[127.2633,36.26833],[127.26313,36.26789],[127.26271,36.26724],[127.2598,36.26624],[127.25742,36.26572],[127.2423,36.26044],[127.2437,36.26205],[127.24372,36.26341],[127.24287,36.27097],[127.24281,36.27141],[127.24212,36.27283],[127.24146,36.27425],[127.24138,36.27448],[127.2413,36.27483],[127.24146,36.27548],[127.24151,36.27559],[127.24159,36.27579],[127.24218,36.27693],[127.24245,36.27744],[127.24407,36.27939],[127.24518,36.28057],[127.24642,36.28147],[127.24772,36.28231],[127.24775,36.28233],[127.25205,36.28108],[127.25315,36.28114]]]]}}]}