{"type":"FeatureCollection","features":[{"type":"Feature","properties":{"code":"11545510","name":"가산동","parent":"11545"},"geometry":{"type":"MultiPolygon","coordinates":[[[[126.88066,37.48597],[126.88227,37.48503],[126.88547,37.48284],[126.88718,37.48111],[126.88737,37.48087],[126.8875,37.48073],[126.88757,37.48065],[126.88763,37.48059],[126.88775,37.48048],[126.88784,37.4804],[126.8879,37.48035],[126.88816,37.48014],[126.88822,37.4801],[126.88834,37.48002],[126.88845,37.47995],[126.88853,37.4799],[126.88872,37.4798],[126.88908,37.47962],[126.8893,37.47954],[126.88952,37.47946],[126.88975,37.4794],[126.88993,37.47935],[126.89013,37.47931],[126.8902,37.4793],[126.89041,37.47926],[126.89441,37.47858],[126.89481,37.47851],[126.89521,37.47847],[126.89537,37.47847],[126.89556,37.47846],[126.8956,37.47846],[126.89586,37.47846],[126.89653,37.47575],[126.89591,37.47546],[126.89568,37.47535],[126.89499,37.475],[126.8947,37.47485],[126.89406,37.47452],[126.894,37.47351],[126.89388,37.47223],[126.89279,37.47226],[126.89227,37.47228],[126.89187,37.4723],[126.89017,37.47225],[126.88712,37.47203],[126.88829,37.46933],[126.8891,37.46756],[126.8894,37.46576],[126.88677,37.46468],[126.88607,37.46548],[126.88578,37.46582],[126.88065,37.47185],[126.8799,37.47278],[126.87986,37.47283],[126.87976,37.47296],[126.8795,37.4733],[126.87917,37.47374],[126.87901,37.47396],[126.87846,37.4747],[126.87815,37.47518],[126.87798,37.47543],[126.87782,37.47567],[126.87758,37.47605],[126.87666,37.47756],[126.87664,37.47759],[126.8763,37.47821],[126.87613,37.47852],[126.87572,37.47929],[126.87562,37.47948],[126.87516,37.48045],[126.87472,37.48141],[126.87391,37.48333],[126.87398,37.48505],[126.87474,37.48538],[126.87532,37.48545],[126.87552,37.48548],[126.87634,37.48561],[126.87708,37.48584],[126.87737,37.48596],[126.8781,37.48629],[126.88066,37.48597]]]]}},{"type":"Feature","properties":{"code":"11545610","name":"독산1동","parent":"11545"},"geometry":{"type":"MultiPolygon","coordinates":[[[[126.89801,37.47142],[126.89763,37.46651],[126.89732,37.46357],[126.89733,37.4635],[126.89738,37.46303],[126.89742,37.46264],[126.8977,37.46172],[126.89781,37.46145],[126.89806,37.46081],[126.89874,37.45939],[126.8974,37.45901],[126.8973,37.45898],[126.89682,37.45883],[126.8931,37.45736],[126.89354,37.45598],[126.8938,37.45541],[126.89403,37.45491],[126.89466,37.45392],[126.89486,37.45361],[126.89523,37.45278],[126.89446,37.45254],[126.89407,37.45264],[126.89263,37.45192],[126.89246,37.45194],[126.88971,37.45232],[126.88962,37.45235],[126.88953,37.45253],[126.88948,37.45275],[126.88717,37.45557],[126.88638,37.4562],[126.8862,37.45657],[126.88527,37.46006],[126.88606,37.46064],[126.88667,37.46098],[126.88762,37.46113],[126.88798,37.46101],[126.88822,37.4609],[126.88839,37.46083],[126.8886,37.46083],[126.88865,37.46083],[126.88868,37.46085],[126.88886,37.46092],[126.88896,37.46106],[126.88907,37.46125],[126.8891,37.4614],[126.88908,37.46153],[126.88865,37.46247],[126.88677,37.46468],[126.8894,37.46576],[126.8891,37.46756],[126.88829,37.46933],[126.88712,37.47203],[126.89017,37.47225],[126.89187,37.4723],[126.89227,37.47228],[126.89279,37.47226],[126.89388,37.47223],[126.894,37.47351],[126.89406,37.47452],[126.8947,37.47485],[126.89499,37.475],[126.89568,37.47535],[126.89591,37.47546],[126.89653,37.47575],[126.89586,37.47846],[126.89617,37.47855],[126.89895,37.47895],[126.89801,37.47142]]]]}},{"type":"Feature","properties":{"code":"11545620","name":"독산2동","parent":"11545"},"geometry":{"type":"MultiPolygon","coordinates":[[[[126.9124,37.46601],[126.91244,37.46568],[126.91096,37.46526],[126.91072,37.4654],[126.91025,37.4656],[126.90993,37.46572],[126.90967,37.46566],[126.90728,37.46445],[126.90492,37.4627],[126.90436,37.46229],[126.9029,37.4622],[126.90256,37.46164],[126.90254,37.46135],[126.90248,37.46059],[126.90181,37.45944],[126.90014,37.45816],[126.9001,37.45815],[126.89937,37.45797],[126.89912,37.45846],[126.89887,37.45908],[126.89874,37.45939],[126.89806,37.46081],[126.89781,37.46145],[126.8977,37.46172],[126.89742,37.46264],[126.89738,37.46303],[126.89733,37.4635],[126.89732,37.46357],[126.89763,37.46651],[126.89994,37.46648],[126.90088,37.46647],[126.90171,37.46646],[126.90174,37.46647],[126.90243,37.46655],[126.90281,37.4666],[126.90364,37.46672],[126.90432,37.46681],[126.90532,37.46699],[126.90597,37.46723],[126.9063,37.46733],[126.90637,37.46735],[126.90644,37.46737],[126.90664,37.4674],[126.90678,37.46742],[126.90743,37.46736],[126.90773,37.46732],[126.90784,37.46729],[126.90808,37.46723],[126.90812,37.46716],[126.9124,37.46601]]]]}},{"type":"Feature","properties":{"code":"11545630","name":"독산3동","parent":"11545"},"geometry":{"type":"MultiPolygon","coordinates":[[[[126.90823,37.47263],[126.90736,37.47228],[126.9066,37.47206],[126.90632,37.47199],[126.90491,37.47215],[126.90445,37.47221],[126.90363,37.47231],[126.90319,37.47236],[126.90045,37.47129],[126.89801,37.47142],[126.89895,37.47895],[126.89947,37.48034],[126.90067,37.47933],[126.90212,37.47954],[126.90247,37.47961],[126.90386,37.47986],[126.90531,37.48013],[126.90655,37.48036],[126.9075,37.48053],[126.90855,37.48073],[126.90972,37.48095],[126.90882,37.47944],[126.90882,37.47886],[126.90924,37.4784],[126.90949,37.4782],[126.91065,37.4781],[126.91126,37.47814],[126.91129,37.47815],[126.91162,37.47817],[126.91186,37.47726],[126.91194,37.47691],[126.91164,37.47552],[126.91135,37.47474],[126.91096,37.47386],[126.91093,37.47382],[126.91091,37.47379],[126.91087,37.47375],[126.91085,37.47373],[126.91081,37.4737],[126.91072,37.47364],[126.90988,37.47326],[126.90984,37.47325],[126.90823,37.47263]]]]}},{"type":"Feature","properties":{"code":"11545640","name":"독산4동","parent":"11545"},"geometry":{"type":"MultiPolygon","coordinates":[[[[126.9124,37.46601],[126.90812,37.46716],[126.90808,37.46723],[126.90784,37.46729],[126.90773,37.46732],[126.90743,37.46736],[126.90678,37.46742],[126.90664,37.4674],[126.90644,37.46737],[126.90637,37.46735],[126.9063,37.46733],[126.90597,37.46723],[126.90532,37.46699],[126.90432,37.46681],[126.90364,37.46672],[126.90281,37.4666],[126.90243,37.46655],[126.90174,37.46647],[126.90171,37.46646],[126.90088,37.46647],[126.89994,37.46648],[126.89763,37.46651],[126.89801,37.47142],[126.90045,37.47129],[126.90319,37.47236],[126.90363,37.47231],[126.90445,37.47221],[126.90491,37.47215],[126.90632,37.47199],[126.9066,37.47206],[126.90736,37.47228],[126.90823,37.47263],[126.90864,37.47208],[126.90901,37.47121],[126.91013,37.46907],[126.91162,37.46663],[126.91186,37.46642],[126.9124,37.46601]]]]}},{"type":"Feature","properties":{"code":"11545670","name":"시흥1동","parent":"11545"},"geometry":{"type":"MultiPolygon","coordinates":[[[[126.90613,37.45371],[126.90593,37.4509],[126.90576,37.4501],[126.9057,37.44984],[126.90569,37.44981],[126.90538,37.4494],[126.90489,37.44907],[126.90475,37.44898],[126.90411,37.4488],[126.90381,37.44873],[126.90292,37.44852],[126.90332,37.44744],[126.90339,37.44725],[126.90344,37.44714],[126.90357,37.44649],[126.90349,37.44634],[126.90066,37.44448],[126.90027,37.44434],[126.89977,37.44435],[126.89949,37.44439],[126.89935,37.44441],[126.89823,37.44465],[126.89612,37.44585],[126.89509,37.44843],[126.89483,37.45085],[126.89407,37.45264],[126.89446,37.45254],[126.89523,37.45278],[126.89486,37.45361],[126.89466,37.45392],[126.89403,37.45491],[126.8938,37.45541],[126.89354,37.45598],[126.8931,37.45736],[126.89682,37.45883],[126.8973,37.45898],[126.8974,37.45901],[126.89874,37.45939],[126.89887,37.45908],[126.89912,37.45846],[126.89937,37.45797],[126.9001,37.45815],[126.90014,37.45816],[126.90181,37.45944],[126.90248,37.46059],[126.90254,37.46135],[126.90256,37.46164],[126.9029,37.4622],[126.90436,37.46229],[126.90461,37.46154],[126.90603,37.45455],[126.90613,37.45371]]]]}},{"type":"Feature","properties":{"code":"11545680","name":"시흥2동","parent":"11545"},"geometry":{"type":"MultiPolygon","coordinates":[[[[126.92875,37.45019],[126.92834,37.44969],[126.92535,37.44752],[126.92373,37.44665],[126.92212,37.44517],[126.92109,37.44413],[126.91645,37.44646],[126.91263,37.44843],[126.91246,37.44854],[126.91232,37.44894],[126.91223,37.44936],[126.91223,37.4494],[126.91221,37.44952],[126.91221,37.44968],[126.91262,37.45088],[126.91263,37.4509],[126.91373,37.45292],[126.91394,37.45314],[126.91414,37.45322],[126.91424,37.4532],[126.91456,37.45312],[126.9146,37.45311],[126.91469,37.45307],[126.91484,37.45309],[126.91494,37.4531],[126.915,37.45312],[126.91537,37.4533],[126.91645,37.45384],[126.91819,37.45552],[126.9183,37.456],[126.91845,37.45681],[126.91845,37.45694],[126.91841,37.45716],[126.92247,37.45725],[126.92251,37.45695],[126.92243,37.45673],[126.92264,37.45554],[126.92306,37.45463],[126.92318,37.45443],[126.9253,37.45288],[126.92707,37.45169],[126.92875,37.45019]]]]}},{"type":"Feature","properties":{"code":"11545690","name":"시흥3동","parent":"11545"},"geometry":{"type":"MultiPolygon","coordinates":[[[[126.91522,37.44006],[126.91487,37.44009],[126.9148,37.4401],[126.91433,37.44004],[126.91412,37.43989],[126.91403,37.43982],[126.91236,37.43859],[126.91135,37.43754],[126.91132,37.43749],[126.91125,37.43738],[126.91082,37.4366],[126.91047,37.43565],[126.91038,37.43541],[126.90934,37.43416],[126.90911,37.43399],[126.90893,37.43391],[126.90873,37.43382],[126.90829,37.43371],[126.9082,37.43368],[126.90739,37.4336],[126.90724,37.43359],[126.90447,37.43406],[126.90279,37.43551],[126.90192,37.43637],[126.90049,37.43736],[126.89938,37.43814],[126.89934,37.43819],[126.89911,37.43847],[126.89908,37.43852],[126.89906,37.43855],[126.89894,37.43871],[126.89888,37.4388],[126.89878,37.43911],[126.89872,37.43931],[126.8988,37.43937],[126.8991,37.4396],[126.89912,37.44104],[126.89893,37.44238],[126.89851,37.44387],[126.89823,37.44465],[126.89935,37.44441],[126.89949,37.44439],[126.89977,37.44435],[126.90027,37.44434],[126.90066,37.44448],[126.90349,37.44634],[126.90357,37.44649],[126.90344,37.44714],[126.90339,37.44725],[126.90332,37.44744],[126.90586,37.44639],[126.90721,37.44584],[126.91351,37.44189],[126.91522,37.44006]]]]}},{"type":"Feature","properties":{"code":"11545700","name":"시흥4동","parent":"11545"},"geometry":{"type":"MultiPolygon","coordinates":[[[[126.91244,37.46568],[126.91375,37.46528],[126.91348,37.46496],[126.91303,37.4644],[126.91286,37.46397],[126.91396,37.45864],[126.91415,37.45809],[126.91323,37.45806],[126.91045,37.4567],[126.90987,37.45611],[126.90969,37.45566],[126.90968,37.4556],[126.90964,37.4554],[126.90912,37.45394],[126.90883,37.45324],[126.90613,37.45371],[126.90603,37.45455],[126.90461,37.46154],[126.90436,37.46229],[126.90492,37.4627],[126.90728,37.46445],[126.90967,37.46566],[126.90993,37.46572],[126.91025,37.4656],[126.91072,37.4654],[126.91096,37.46526],[126.91244,37.46568]]]]}},{"type":"Feature","properties":{"code":"11545710","name":"시흥5동","parent":"11545"},"geometry":{"type":"MultiPolygon","coordinates":[[[[126.91841,37.45716],[126.91845,37.45694],[126.91845,37.45681],[126.9183,37.456],[126.91819,37.45552],[126.91645,37.45384],[126.91537,37.4533],[126.915,37.45312],[126.91494,37.4531],[126.91484,37.45309],[126.91469,37.45307],[126.9146,37.45311],[126.91456,37.45312],[126.91424,37.4532],[126.91414,37.45322],[126.91394,37.45314],[126.91373,37.45292],[126.91263,37.4509],[126.91262,37.45088],[126.91221,37.44968],[126.91221,37.44952],[126.91223,37.4494],[126.91223,37.44936],[126.91232,37.44894],[126.91246,37.44854],[126.91263,37.44843],[126.91645,37.44646],[126.92109,37.44413],[126.92096,37.44362],[126.91993,37.44134],[126.9199,37.44129],[126.91951,37.44085],[126.91943,37.44078],[126.91811,37.43992],[126.91805,37.43989],[126.91795,37.4399],[126.91522,37.44006],[126.91351,37.44189],[126.90721,37.44584],[126.90586,37.44639],[126.90332,37.44744],[126.90292,37.44852],[126.90381,37.44873],[126.90411,37.4488],[126.90475,37.44898],[126.90489,37.44907],[126.90538,37.4494],[126.90569,37.44981],[126.9057,37.44984],[126.90576,37.4501],[126.90593,37.4509],[126.90613,37.45371],[126.90883,37.45324],[126.90912,37.45394],[126.90964,37.4554],[126.90968,37.4556],[126.90969,37.45566],[126.90987,37.45611],[126.91045,37.4567],[126.91323,37.45806],[126.91415,37.45809],[126.91483,37.45767],[126.91841,37.45716]]]]}}]}