{"type":"FeatureCollection","features":[{"type":"Feature","properties":{"code":"41135510","name":"분당동","parent":"41135"},"geometry":{"type":"MultiPolygon","coordinates":[[[[127.16077,37.37416],[127.16088,37.3741],[127.16087,37.37386],[127.16052,37.37279],[127.16035,37.37259],[127.16032,37.37256],[127.15807,37.37008],[127.15758,37.36966],[127.15726,37.36941],[127.15672,37.369],[127.15619,37.36861],[127.15379,37.36536],[127.15285,37.36354],[127.15019,37.36135],[127.14984,37.36121],[127.14981,37.36119],[127.14511,37.35959],[127.14443,37.35939],[127.14192,37.35941],[127.13948,37.35996],[127.13835,37.36065],[127.13633,37.3625],[127.13319,37.3654],[127.13177,37.36716],[127.13174,37.3672],[127.13174,37.36724],[127.13176,37.36733],[127.13243,37.36811],[127.13212,37.36896],[127.13012,37.36946],[127.12884,37.36915],[127.12562,37.37196],[127.13039,37.37534],[127.13313,37.37293],[127.13391,37.37225],[127.13703,37.36953],[127.13708,37.36957],[127.13946,37.37127],[127.13997,37.37163],[127.14009,37.37172],[127.14038,37.37193],[127.14057,37.37207],[127.14068,37.37215],[127.14149,37.37276],[127.14168,37.37306],[127.14304,37.37536],[127.14335,37.37672],[127.14289,37.37713],[127.14289,37.37727],[127.14287,37.37761],[127.14281,37.37886],[127.1455,37.3789],[127.14591,37.37855],[127.14621,37.37787],[127.14618,37.37773],[127.14617,37.37765],[127.14613,37.37744],[127.14744,37.37493],[127.14815,37.37421],[127.14822,37.37414],[127.1486,37.37388],[127.14933,37.3738],[127.14983,37.37404],[127.15074,37.37429],[127.15679,37.37427],[127.15837,37.3741],[127.15864,37.37389],[127.15881,37.37377],[127.15915,37.37377],[127.1595,37.37384],[127.16077,37.37416]]]]}},{"type":"Feature","properties":{"code":"41135540","name":"수내3동","parent":"41135"},"geometry":{"type":"MultiPolygon","coordinates":[[[[127.13948,37.35996],[127.13394,37.35848],[127.13382,37.35869],[127.13374,37.35884],[127.13369,37.35893],[127.13356,37.35916],[127.13333,37.35927],[127.13195,37.35947],[127.1314,37.3595],[127.13102,37.35956],[127.12795,37.36126],[127.12555,37.36283],[127.12547,37.36289],[127.12543,37.36292],[127.12538,37.36295],[127.12519,37.36317],[127.12416,37.36489],[127.12083,37.3685],[127.12562,37.37196],[127.12884,37.36915],[127.13012,37.36946],[127.13212,37.36896],[127.13243,37.36811],[127.13176,37.36733],[127.13174,37.36724],[127.13174,37.3672],[127.13177,37.36716],[127.13319,37.3654],[127.13633,37.3625],[127.13835,37.36065],[127.13948,37.35996]]]]}},{"type":"Feature","properties":{"code":"41135520","name":"수내1동","parent":"41135"},"geometry":{"type":"MultiPolygon","coordinates":[[[[127.12176,37.38224],[127.11874,37.38005],[127.11866,37.37999],[127.12026,37.37759],[127.12167,37.37554],[127.12183,37.37538],[127.12171,37.37529],[127.12097,37.37476],[127.1166,37.37164],[127.11234,37.37549],[127.10901,37.37851],[127.11176,37.38165],[127.11655,37.38671],[127.12176,37.38224]]]]}},{"type":"Feature","properties":{"code":"41135530","name":"수내2동","parent":"41135"},"geometry":{"type":"MultiPolygon","coordinates":[[[[127.13039,37.37534],[127.12562,37.37196],[127.12083,37.3685],[127.11942,37.36968],[127.11834,37.37022],[127.1166,37.37164],[127.12097,37.37476],[127.12171,37.37529],[127.12183,37.37538],[127.12167,37.37554],[127.12026,37.37759],[127.11866,37.37999],[127.11874,37.38005],[127.12176,37.38224],[127.12367,37.38059],[127.1286,37.37694],[127.13039,37.37534]]]]}},{"type":"Feature","properties":{"code":"41135560","name":"정자2동","parent":"41135"},"geometry":{"type":"MultiPolygon","coordinates":[[[[127.12083,37.3685],[127.12416,37.36489],[127.12319,37.36349],[127.1231,37.36349],[127.11479,37.36344],[127.11476,37.36667],[127.11475,37.36708],[127.11475,37.36749],[127.11474,37.36834],[127.11475,37.36856],[127.11478,37.36957],[127.11478,37.36971],[127.1148,37.36976],[127.1149,37.37005],[127.11502,37.37027],[127.11506,37.37035],[127.11513,37.37048],[127.11523,37.37061],[127.11532,37.37072],[127.11594,37.37118],[127.1166,37.37164],[127.11834,37.37022],[127.11942,37.36968],[127.12083,37.3685]]]]}},{"type":"Feature","properties":{"code":"41135570","name":"정자3동","parent":"41135"},"geometry":{"type":"MultiPolygon","coordinates":[[[[127.13394,37.35848],[127.13174,37.3512],[127.12803,37.35298],[127.12792,37.35306],[127.12786,37.3531],[127.12774,37.35317],[127.12748,37.35329],[127.12575,37.35317],[127.12552,37.35314],[127.1248,37.35303],[127.12435,37.35296],[127.12404,37.35291],[127.12321,37.35278],[127.12131,37.3525],[127.11968,37.35234],[127.11751,37.3537],[127.11167,37.35732],[127.1109,37.35767],[127.1098,37.35817],[127.10929,37.35848],[127.1091,37.35867],[127.10896,37.35901],[127.10893,37.35991],[127.10893,37.35995],[127.10985,37.35996],[127.11074,37.35997],[127.1133,37.35999],[127.11441,37.35997],[127.11489,37.35996],[127.11479,37.36344],[127.1231,37.36349],[127.12319,37.36349],[127.12416,37.36489],[127.12519,37.36317],[127.12538,37.36295],[127.12543,37.36292],[127.12547,37.36289],[127.12555,37.36283],[127.12795,37.36126],[127.13102,37.35956],[127.1314,37.3595],[127.13195,37.35947],[127.13333,37.35927],[127.13356,37.35916],[127.13369,37.35893],[127.13374,37.35884],[127.13382,37.35869],[127.13394,37.35848]]]]}},{"type":"Feature","properties":{"code":"41135580","name":"서현1동","parent":"41135"},"geometry":{"type":"MultiPolygon","coordinates":[[[[127.16866,37.39545],[127.16836,37.39491],[127.16829,37.39268],[127.16839,37.39249],[127.17441,37.38857],[127.17681,37.38725],[127.17715,37.38679],[127.17716,37.38676],[127.17719,37.38655],[127.17665,37.38508],[127.17651,37.38487],[127.17608,37.38452],[127.17345,37.38267],[127.16873,37.38064],[127.16837,37.38051],[127.16815,37.38043],[127.16794,37.38035],[127.16759,37.38029],[127.16484,37.37985],[127.16478,37.37985],[127.1644,37.37982],[127.16429,37.37984],[127.16417,37.37985],[127.16394,37.37988],[127.16387,37.3799],[127.1637,37.37993],[127.1634,37.37998],[127.16293,37.38],[127.16232,37.37986],[127.16169,37.37971],[127.16113,37.37855],[127.16098,37.37795],[127.16115,37.37724],[127.16117,37.37719],[127.16113,37.37576],[127.16095,37.37487],[127.16077,37.37416],[127.1595,37.37384],[127.15915,37.37377],[127.15881,37.37377],[127.15864,37.37389],[127.15837,37.3741],[127.15679,37.37427],[127.15074,37.37429],[127.14983,37.37404],[127.14933,37.3738],[127.1486,37.37388],[127.14822,37.37414],[127.14815,37.37421],[127.14744,37.37493],[127.14613,37.37744],[127.14617,37.37765],[127.14618,37.37773],[127.14621,37.37787],[127.14591,37.37855],[127.1455,37.3789],[127.14281,37.37886],[127.13957,37.37874],[127.13709,37.38023],[127.136,37.37948],[127.13039,37.37534],[127.1286,37.37694],[127.12367,37.38059],[127.12176,37.38224],[127.11655,37.38671],[127.12031,37.39113],[127.12163,37.39049],[127.12309,37.38961],[127.12467,37.38816],[127.12623,37.38672],[127.1264,37.38658],[127.12687,37.38618],[127.12745,37.38571],[127.13245,37.38758],[127.13391,37.38822],[127.13607,37.38918],[127.13625,37.38926],[127.13631,37.38929],[127.13813,37.38922],[127.14117,37.38913],[127.14339,37.39079],[127.14333,37.39185],[127.14326,37.39312],[127.14432,37.39418],[127.14572,37.39468],[127.14654,37.39519],[127.14787,37.39595],[127.14972,37.39651],[127.15013,37.39645],[127.15118,37.39631],[127.15127,37.39589],[127.15134,37.39557],[127.15419,37.39564],[127.15457,37.39575],[127.15473,37.3958],[127.15525,37.39619],[127.15644,37.3964],[127.15663,37.39643],[127.15672,37.39644],[127.15679,37.39644],[127.16113,37.39615],[127.16165,37.39611],[127.16377,37.39576],[127.16866,37.39545]]]]}},{"type":"Feature","properties":{"code":"41135590","name":"서현2동","parent":"41135"},"geometry":{"type":"MultiPolygon","coordinates":[[[[127.14281,37.37886],[127.14287,37.37761],[127.14289,37.37727],[127.14289,37.37713],[127.14335,37.37672],[127.14304,37.37536],[127.14168,37.37306],[127.14149,37.37276],[127.14068,37.37215],[127.14057,37.37207],[127.14038,37.37193],[127.14009,37.37172],[127.13997,37.37163],[127.13946,37.37127],[127.13708,37.36957],[127.13703,37.36953],[127.13391,37.37225],[127.13313,37.37293],[127.13039,37.37534],[127.136,37.37948],[127.13709,37.38023],[127.13957,37.37874],[127.14281,37.37886]]]]}},{"type":"Feature","properties":{"code":"41135600","name":"이매1동","parent":"41135"},"geometry":{"type":"MultiPolygon","coordinates":[[[[127.14572,37.39468],[127.14432,37.39418],[127.14326,37.39312],[127.14333,37.39185],[127.14339,37.39079],[127.14117,37.38913],[127.13813,37.38922],[127.13631,37.38929],[127.13625,37.38926],[127.13607,37.38918],[127.13391,37.38822],[127.13245,37.38758],[127.12745,37.38571],[127.12687,37.38618],[127.1264,37.38658],[127.12623,37.38672],[127.12467,37.38816],[127.12309,37.38961],[127.12163,37.39049],[127.12387,37.39286],[127.12415,37.39316],[127.12417,37.39324],[127.1244,37.39438],[127.12444,37.39472],[127.12453,37.39548],[127.12453,37.39576],[127.12452,37.40072],[127.1245,37.40531],[127.12863,37.40533],[127.12823,37.40294],[127.12828,37.40255],[127.12874,37.39898],[127.13081,37.40033],[127.13162,37.40086],[127.13269,37.40117],[127.13365,37.40144],[127.1369,37.40081],[127.138,37.40051],[127.14106,37.39953],[127.14527,37.39583],[127.14572,37.39468]]]]}},{"type":"Feature","properties":{"code":"41135610","name":"이매2동","parent":"41135"},"geometry":{"type":"MultiPolygon","coordinates":[[[[127.1245,37.40531],[127.12452,37.40072],[127.12453,37.39576],[127.12453,37.39548],[127.12444,37.39472],[127.1244,37.39438],[127.12417,37.39324],[127.12415,37.39316],[127.12387,37.39286],[127.12163,37.39049],[127.12031,37.39113],[127.12076,37.39469],[127.12075,37.39474],[127.12051,37.39585],[127.12042,37.39647],[127.12019,37.39825],[127.12006,37.39926],[127.11989,37.40052],[127.11976,37.40158],[127.11963,37.40255],[127.11951,37.40324],[127.11914,37.40545],[127.12153,37.40539],[127.1245,37.40531]]]]}},{"type":"Feature","properties":{"code":"41135620","name":"야탑1동","parent":"41135"},"geometry":{"type":"MultiPolygon","coordinates":[[[[127.13388,37.41696],[127.13388,37.40943],[127.12709,37.40985],[127.12629,37.40986],[127.12561,37.40974],[127.12534,37.40969],[127.12481,37.40957],[127.12302,37.40914],[127.12296,37.40912],[127.12288,37.4091],[127.12109,37.40872],[127.12096,37.40869],[127.12012,37.40851],[127.11927,37.40839],[127.11882,37.40836],[127.11873,37.40836],[127.11834,37.41123],[127.11796,37.41521],[127.119,37.41573],[127.12051,37.41645],[127.12212,37.41695],[127.12278,37.41686],[127.12584,37.41681],[127.13038,37.41691],[127.13119,37.41711],[127.13285,37.41703],[127.13388,37.41696]]]]}},{"type":"Feature","properties":{"code":"41135640","name":"야탑3동","parent":"41135"},"geometry":{"type":"MultiPolygon","coordinates":[[[[127.17426,37.40543],[127.17189,37.40154],[127.17176,37.40128],[127.17162,37.40101],[127.17144,37.3998],[127.17083,37.39791],[127.16938,37.39609],[127.16907,37.39574],[127.16866,37.39545],[127.16377,37.39576],[127.16165,37.39611],[127.16113,37.39615],[127.15679,37.39644],[127.15672,37.39644],[127.15663,37.39643],[127.15644,37.3964],[127.15525,37.39619],[127.15473,37.3958],[127.15457,37.39575],[127.15419,37.39564],[127.15134,37.39557],[127.15127,37.39589],[127.15118,37.39631],[127.15013,37.39645],[127.14972,37.39651],[127.14787,37.39595],[127.14654,37.39519],[127.14572,37.39468],[127.14527,37.39583],[127.14106,37.39953],[127.138,37.40051],[127.1369,37.40081],[127.13365,37.40144],[127.13269,37.40117],[127.13162,37.40086],[127.13081,37.40033],[127.12874,37.39898],[127.12828,37.40255],[127.12823,37.40294],[127.12863,37.40533],[127.12906,37.40537],[127.12985,37.40546],[127.13039,37.40568],[127.13117,37.40615],[127.13141,37.4063],[127.13206,37.40669],[127.13215,37.40675],[127.13218,37.40676],[127.13224,37.40678],[127.13249,37.40688],[127.13385,37.40738],[127.1341,37.40747],[127.13562,37.40772],[127.13688,37.40781],[127.13789,37.40777],[127.13795,37.40834],[127.138,37.40931],[127.13798,37.40954],[127.13792,37.40955],[127.13752,37.40959],[127.13719,37.40963],[127.13708,37.40964],[127.13663,37.40968],[127.13596,37.40968],[127.1359,37.40967],[127.13569,37.40965],[127.13506,37.40959],[127.13413,37.40947],[127.13388,37.40943],[127.13388,37.41696],[127.13522,37.41689],[127.13836,37.41599],[127.14132,37.41558],[127.14185,37.41558],[127.14265,37.41542],[127.1436,37.41504],[127.14687,37.4125],[127.14674,37.41228],[127.14657,37.41196],[127.14635,37.41156],[127.14655,37.41098],[127.15166,37.41049],[127.15479,37.41047],[127.15513,37.41047],[127.15516,37.41052],[127.15528,37.41077],[127.16015,37.4088],[127.16331,37.4073],[127.16467,37.40669],[127.16772,37.40598],[127.16949,37.40589],[127.17123,37.40582],[127.1727,37.40587],[127.17324,37.40583],[127.17426,37.40543]]]]}},{"type":"Feature","properties":{"code":"41135630","name":"야탑2동","parent":"41135"},"geometry":{"type":"MultiPolygon","coordinates":[[[[127.13388,37.40943],[127.13413,37.40947],[127.13506,37.40959],[127.13569,37.40965],[127.1359,37.40967],[127.13596,37.40968],[127.13663,37.40968],[127.13708,37.40964],[127.13719,37.40963],[127.13752,37.40959],[127.13792,37.40955],[127.13798,37.40954],[127.138,37.40931],[127.13795,37.40834],[127.13789,37.40777],[127.13688,37.40781],[127.13562,37.40772],[127.1341,37.40747],[127.13385,37.40738],[127.13249,37.40688],[127.13224,37.40678],[127.13218,37.40676],[127.13215,37.40675],[127.13206,37.40669],[127.13141,37.4063],[127.13117,37.40615],[127.13039,37.40568],[127.12985,37.40546],[127.12906,37.40537],[127.12863,37.40533],[127.1245,37.40531],[127.12153,37.40539],[127.11914,37.40545],[127.11882,37.40771],[127.11873,37.40836],[127.11882,37.40836],[127.11927,37.40839],[127.12012,37.40851],[127.12096,37.40869],[127.12109,37.40872],[127.12288,37.4091],[127.12296,37.40912],[127.12302,37.40914],[127.12481,37.40957],[127.12534,37.40969],[127.12561,37.40974],[127.12629,37.40986],[127.12709,37.40985],[127.13388,37.40943]]]]}},{"type":"Feature","properties":{"code":"41135670","name":"구미동","parent":"41135"},"geometry":{"type":"MultiPolygon","coordinates":[[[[127.13174,37.3512],[127.13286,37.35054],[127.13264,37.34931],[127.13258,37.34926],[127.13251,37.34919],[127.13249,37.34912],[127.13248,37.3491],[127.13251,37.34902],[127.13254,37.34897],[127.13285,37.3486],[127.13303,37.3484],[127.13414,37.34721],[127.13533,37.34629],[127.13786,37.34439],[127.13802,37.34408],[127.13807,37.34372],[127.13806,37.34223],[127.13796,37.34117],[127.13787,37.34036],[127.13775,37.34009],[127.13754,37.33988],[127.13727,37.33973],[127.13683,37.33966],[127.13634,37.33964],[127.13339,37.33861],[127.13053,37.33764],[127.13047,37.33762],[127.1296,37.33748],[127.12652,37.33739],[127.12329,37.33701],[127.1214,37.33498],[127.1214,37.33495],[127.12136,37.33486],[127.12134,37.33482],[127.12128,37.33477],[127.12072,37.33441],[127.12041,37.33429],[127.1197,37.33408],[127.11721,37.33343],[127.11707,37.3334],[127.11702,37.3334],[127.11699,37.33341],[127.11688,37.33341],[127.1168,37.33346],[127.11677,37.33348],[127.11673,37.33351],[127.11565,37.33428],[127.11524,37.33465],[127.11515,37.33477],[127.11509,37.3349],[127.11498,37.33505],[127.11467,37.33528],[127.11398,37.33551],[127.1134,37.33566],[127.1133,37.33567],[127.11308,37.3357],[127.11297,37.3357],[127.11291,37.3357],[127.11286,37.33569],[127.11275,37.33569],[127.11031,37.33464],[127.10896,37.33601],[127.10694,37.33715],[127.1064,37.3374],[127.10562,37.33778],[127.10544,37.33783],[127.10518,37.33791],[127.10515,37.33793],[127.105,37.33799],[127.1048,37.33809],[127.10397,37.33861],[127.10307,37.33957],[127.1027,37.33996],[127.10225,37.34241],[127.1024,37.34241],[127.10327,37.34243],[127.10892,37.34271],[127.10892,37.3432],[127.10892,37.34353],[127.10892,37.34361],[127.10893,37.34435],[127.10893,37.34469],[127.10893,37.34583],[127.11452,37.3463],[127.11922,37.3465],[127.12003,37.34651],[127.12073,37.34651],[127.12073,37.3469],[127.12073,37.35039],[127.12025,37.35129],[127.11968,37.35234],[127.12131,37.3525],[127.12321,37.35278],[127.12404,37.35291],[127.12435,37.35296],[127.1248,37.35303],[127.12552,37.35314],[127.12575,37.35317],[127.12748,37.35329],[127.12774,37.35317],[127.12786,37.3531],[127.12792,37.35306],[127.12803,37.35298],[127.13174,37.3512]]]]}},{"type":"Feature","properties":{"code":"41135680","name":"운중동","parent":"41135"},"geometry":{"type":"MultiPolygon","coordinates":[[[[127.08899,37.40097],[127.08933,37.39974],[127.08913,37.39868],[127.08885,37.398],[127.08863,37.39744],[127.08769,37.39534],[127.08741,37.39479],[127.08734,37.3947],[127.08732,37.39467],[127.08729,37.39462],[127.08675,37.39369],[127.0864,37.39311],[127.08391,37.38633],[127.08388,37.38606],[127.08382,37.38547],[127.08383,37.38527],[127.08385,37.38505],[127.08411,37.38454],[127.08446,37.38409],[127.08474,37.38374],[127.0849,37.38353],[127.08542,37.38288],[127.08241,37.38101],[127.08049,37.37983],[127.08042,37.37978],[127.07946,37.37873],[127.07903,37.37778],[127.07871,37.37676],[127.07803,37.37372],[127.07848,37.37276],[127.07707,37.37117],[127.07707,37.37112],[127.07752,37.36879],[127.07853,37.36552],[127.07685,37.36347],[127.07545,37.35973],[127.07538,37.35894],[127.07564,37.35612],[127.07661,37.35406],[127.07454,37.35317],[127.07447,37.35345],[127.07435,37.35383],[127.07404,37.35448],[127.07365,37.35513],[127.07351,37.35534],[127.07348,37.3554],[127.0732,37.3557],[127.07312,37.3558],[127.0725,37.3564],[127.07181,37.35697],[127.07117,37.35746],[127.07088,37.35768],[127.07052,37.35789],[127.07023,37.35803],[127.07013,37.35808],[127.07004,37.35812],[127.06937,37.35842],[127.06918,37.3585],[127.06867,37.3587],[127.06745,37.35913],[127.06661,37.35938],[127.06421,37.36007],[127.06307,37.36039],[127.06116,37.36072],[127.06075,37.36077],[127.06064,37.36078],[127.06055,37.36079],[127.05911,37.36083],[127.05875,37.36082],[127.0583,37.36081],[127.05799,37.36079],[127.05771,37.36075],[127.05766,37.36074],[127.05679,37.36044],[127.05666,37.36039],[127.05653,37.36034],[127.05616,37.36017],[127.05595,37.36011],[127.05574,37.36004],[127.05547,37.35998],[127.05541,37.35998],[127.05526,37.35997],[127.05424,37.36013],[127.05414,37.36015],[127.05403,37.36021],[127.05307,37.36094],[127.053,37.36103],[127.05295,37.36113],[127.0529,37.36128],[127.05284,37.36167],[127.05282,37.36196],[127.05282,37.36202],[127.05283,37.36211],[127.05292,37.36224],[127.05309,37.36251],[127.05313,37.36264],[127.05317,37.3628],[127.05315,37.36303],[127.05311,37.36326],[127.05305,37.36336],[127.05301,37.36344],[127.05288,37.3636],[127.0527,37.36377],[127.05251,37.36391],[127.05207,37.36419],[127.05186,37.3643],[127.05162,37.36443],[127.05098,37.36472],[127.04965,37.36523],[127.0474,37.36649],[127.04714,37.36666],[127.04699,37.3668],[127.04689,37.36695],[127.04687,37.36698],[127.04683,37.36706],[127.04681,37.3671],[127.04679,37.36715],[127.04659,37.36767],[127.04637,37.36817],[127.04634,37.36823],[127.04625,37.36831],[127.04609,37.36841],[127.04594,37.36847],[127.04585,37.36851],[127.04581,37.36852],[127.04534,37.3687],[127.04523,37.36873],[127.04485,37.36879],[127.04274,37.36904],[127.03568,37.37058],[127.0306,37.37197],[127.03016,37.37204],[127.0296,37.37206],[127.02956,37.37204],[127.02953,37.37203],[127.02934,37.37196],[127.02794,37.37214],[127.02772,37.37266],[127.02717,37.37503],[127.0271,37.37538],[127.02709,37.37548],[127.02709,37.37552],[127.02708,37.37557],[127.0274,37.37673],[127.02741,37.37678],[127.02805,37.37787],[127.02889,37.37925],[127.02894,37.37929],[127.02899,37.37931],[127.02906,37.37933],[127.02913,37.37934],[127.02937,37.37936],[127.02942,37.37936],[127.02962,37.37935],[127.02969,37.37934],[127.03146,37.38124],[127.0327,37.38409],[127.03536,37.38879],[127.03695,37.38935],[127.03704,37.38938],[127.03711,37.38944],[127.03714,37.38947],[127.03839,37.39046],[127.03847,37.39056],[127.03854,37.39069],[127.03871,37.39107],[127.03872,37.39115],[127.03872,37.39121],[127.03872,37.39133],[127.03828,37.39817],[127.03824,37.39852],[127.0382,37.39866],[127.03809,37.39886],[127.03803,37.39892],[127.03771,37.39974],[127.0374,37.40084],[127.03739,37.40093],[127.03738,37.40099],[127.03741,37.40107],[127.03746,37.40115],[127.03764,37.40139],[127.03775,37.40149],[127.03783,37.40155],[127.03834,37.40191],[127.03839,37.40193],[127.03846,37.40197],[127.03854,37.40199],[127.03904,37.40213],[127.03918,37.40216],[127.03923,37.40216],[127.03928,37.40217],[127.03945,37.40217],[127.03952,37.40217],[127.03955,37.40217],[127.0396,37.40216],[127.03982,37.40215],[127.04004,37.40214],[127.04031,37.40219],[127.04043,37.40221],[127.04047,37.40221],[127.04057,37.40223],[127.04075,37.40227],[127.04083,37.4023],[127.04347,37.40358],[127.04353,37.40363],[127.04367,37.40393],[127.04371,37.40409],[127.0437,37.40421],[127.04494,37.40375],[127.0464,37.40376],[127.04797,37.40376],[127.04975,37.40365],[127.05587,37.40243],[127.05625,37.4023],[127.05654,37.40218],[127.05672,37.4021],[127.05877,37.40119],[127.05963,37.4007],[127.06021,37.40017],[127.06042,37.40002],[127.0607,37.39981],[127.06237,37.39893],[127.06305,37.39866],[127.06323,37.39863],[127.06347,37.39859],[127.06764,37.39795],[127.07451,37.39787],[127.07483,37.39799],[127.07496,37.39804],[127.07571,37.39841],[127.07643,37.39877],[127.07653,37.39883],[127.07693,37.39893],[127.07851,37.39911],[127.07867,37.39908],[127.07888,37.39903],[127.08001,37.39866],[127.08114,37.39813],[127.08401,37.39697],[127.08426,37.39707],[127.08464,37.39758],[127.08567,37.39877],[127.08606,37.39922],[127.08761,37.40037],[127.08899,37.40097]]]]}},{"type":"Feature","properties":{"code":"41135662","name":"금곡동","parent":"41135"},"geometry":{"type":"MultiPolygon","coordinates":[[[[127.10345,37.37611],[127.10347,37.37261],[127.10357,37.37111],[127.10357,37.37106],[127.10379,37.3685],[127.10403,37.36754],[127.10409,37.36729],[127.1041,37.36726],[127.10428,37.36668],[127.10452,37.36588],[127.10452,37.3656],[127.10453,37.36413],[127.10454,37.36409],[127.10439,37.36342],[127.10421,37.36258],[127.10368,37.36199],[127.10355,37.36184],[127.10358,37.36052],[127.10364,37.35663],[127.10417,37.35663],[127.10711,37.35663],[127.10792,37.35663],[127.10837,37.35663],[127.10848,37.35664],[127.10854,37.35664],[127.11167,37.35732],[127.11751,37.3537],[127.11709,37.3532],[127.11656,37.35256],[127.11626,37.3522],[127.11615,37.35207],[127.11566,37.35151],[127.11525,37.35104],[127.11471,37.3505],[127.11447,37.35034],[127.11433,37.35028],[127.11417,37.35022],[127.11406,37.35017],[127.11379,37.35009],[127.11372,37.35007],[127.11365,37.35006],[127.11344,37.35002],[127.10903,37.35002],[127.10675,37.35002],[127.10635,37.35003],[127.10538,37.35006],[127.10457,37.35006],[127.10337,37.35007],[127.10337,37.34878],[127.10337,37.34816],[127.10337,37.34743],[127.10183,37.3465],[127.10178,37.34648],[127.10173,37.34649],[127.09625,37.34785],[127.09604,37.3479],[127.09572,37.34799],[127.09556,37.34814],[127.09522,37.34867],[127.09511,37.34897],[127.0951,37.34939],[127.0943,37.35323],[127.09263,37.35762],[127.09241,37.35804],[127.09211,37.35835],[127.08855,37.35977],[127.08484,37.3619],[127.08464,37.36203],[127.08285,37.36343],[127.07853,37.36552],[127.07752,37.36879],[127.07707,37.37112],[127.07707,37.37117],[127.07848,37.37276],[127.07892,37.37182],[127.07971,37.37148],[127.08109,37.37171],[127.0816,37.37216],[127.08195,37.37248],[127.08231,37.3728],[127.08297,37.3734],[127.08615,37.37421],[127.08986,37.37516],[127.09384,37.376],[127.09595,37.3759],[127.10182,37.37665],[127.10345,37.37611]]]]}},{"type":"Feature","properties":{"code":"41135665","name":"구미1동","parent":"41135"},"geometry":{"type":"MultiPolygon","coordinates":[[[[127.11751,37.3537],[127.11968,37.35234],[127.12025,37.35129],[127.12073,37.35039],[127.12073,37.3469],[127.12073,37.34651],[127.12003,37.34651],[127.11922,37.3465],[127.11452,37.3463],[127.10893,37.34583],[127.10893,37.34469],[127.10893,37.34435],[127.10892,37.34361],[127.10892,37.34353],[127.10892,37.3432],[127.10892,37.34271],[127.10327,37.34243],[127.1024,37.34241],[127.10225,37.34241],[127.10116,37.34311],[127.09814,37.34299],[127.09789,37.34301],[127.09705,37.3432],[127.09699,37.34322],[127.0969,37.3433],[127.09679,37.3434],[127.09246,37.34713],[127.09048,37.34778],[127.08887,37.3484],[127.08837,37.34869],[127.08817,37.34882],[127.08795,37.34899],[127.0878,37.34911],[127.08776,37.34915],[127.0875,37.34939],[127.08731,37.34961],[127.08728,37.34967],[127.08722,37.3498],[127.08719,37.34991],[127.08715,37.35005],[127.08714,37.35044],[127.0871,37.35069],[127.08701,37.35093],[127.08699,37.35096],[127.0864,37.35142],[127.08633,37.35147],[127.0862,37.35153],[127.08572,37.35172],[127.08549,37.35179],[127.08464,37.35202],[127.08459,37.35203],[127.08443,37.35206],[127.08378,37.35206],[127.08373,37.35206],[127.08368,37.35206],[127.08356,37.35203],[127.08283,37.3518],[127.08273,37.35176],[127.08267,37.35174],[127.08244,37.3516],[127.08175,37.35114],[127.0815,37.35096],[127.0813,37.35081],[127.08123,37.35073],[127.08084,37.35039],[127.08004,37.34993],[127.07987,37.34985],[127.07866,37.34934],[127.0781,37.3491],[127.078,37.34907],[127.07774,37.34905],[127.07762,37.34908],[127.07748,37.34916],[127.07713,37.3494],[127.07651,37.34992],[127.07618,37.35026],[127.07552,37.35105],[127.07521,37.35143],[127.07506,37.3517],[127.07483,37.35219],[127.07463,37.35272],[127.07459,37.35282],[127.07454,37.35317],[127.07661,37.35406],[127.07564,37.35612],[127.07538,37.35894],[127.07545,37.35973],[127.07685,37.36347],[127.07853,37.36552],[127.08285,37.36343],[127.08464,37.36203],[127.08484,37.3619],[127.08855,37.35977],[127.09211,37.35835],[127.09241,37.35804],[127.09263,37.35762],[127.0943,37.35323],[127.0951,37.34939],[127.09511,37.34897],[127.09522,37.34867],[127.09556,37.34814],[127.09572,37.34799],[127.09604,37.3479],[127.09625,37.34785],[127.10173,37.34649],[127.10178,37.34648],[127.10183,37.3465],[127.10337,37.34743],[127.10337,37.34816],[127.10337,37.34878],[127.10337,37.35007],[127.10457,37.35006],[127.10538,37.35006],[127.10635,37.35003],[127.10675,37.35002],[127.10903,37.35002],[127.11344,37.35002],[127.11365,37.35006],[127.11372,37.35007],[127.11379,37.35009],[127.11406,37.35017],[127.11417,37.35022],[127.11433,37.35028],[127.11447,37.35034],[127.11471,37.3505],[127.11525,37.35104],[127.11566,37.35151],[127.11615,37.35207],[127.11626,37.3522],[127.11656,37.35256],[127.11709,37.3532],[127.11751,37.3537]]]]}},{"type":"Feature","properties":{"code":"41135655","name":"삼평동","parent":"41135"},"geometry":{"type":"MultiPolygon","coordinates":[[[[127.11873,37.40836],[127.11882,37.40771],[127.11914,37.40545],[127.11951,37.40324],[127.11963,37.40255],[127.11976,37.40158],[127.11989,37.40052],[127.12006,37.39926],[127.12019,37.39825],[127.12042,37.39647],[127.12051,37.39585],[127.12075,37.39474],[127.12076,37.39469],[127.11563,37.39469],[127.11416,37.39469],[127.11287,37.39469],[127.11277,37.39469],[127.11185,37.39453],[127.11185,37.39403],[127.11077,37.39403],[127.10977,37.39441],[127.10977,37.3947],[127.10627,37.39473],[127.1058,37.3944],[127.10285,37.39224],[127.10189,37.39114],[127.10128,37.39449],[127.10016,37.39987],[127.09996,37.40034],[127.09985,37.4006],[127.09865,37.40199],[127.09474,37.40573],[127.09478,37.40575],[127.09482,37.40576],[127.0949,37.40578],[127.09525,37.4059],[127.09613,37.4062],[127.09796,37.40682],[127.09955,37.40723],[127.10027,37.40878],[127.10256,37.40971],[127.10423,37.40865],[127.10657,37.40765],[127.10869,37.40765],[127.10882,37.40765],[127.10985,37.40767],[127.11009,37.40767],[127.11121,37.40769],[127.11246,37.40783],[127.11306,37.40797],[127.11359,37.40809],[127.11362,37.4081],[127.11374,37.40814],[127.11434,37.40836],[127.11474,37.4085],[127.11533,37.4088],[127.11575,37.40901],[127.11665,37.40962],[127.1172,37.41006],[127.11772,37.41057],[127.11834,37.41123],[127.11873,37.40836]]]]}},{"type":"Feature","properties":{"code":"41135650","name":"판교동","parent":"41135"},"geometry":{"type":"MultiPolygon","coordinates":[[[[127.10189,37.39114],[127.10224,37.38926],[127.10233,37.38877],[127.10289,37.38561],[127.10302,37.38491],[127.10342,37.38241],[127.10343,37.38141],[127.10345,37.37611],[127.10182,37.37665],[127.09595,37.3759],[127.09384,37.376],[127.08986,37.37516],[127.08615,37.37421],[127.08297,37.3734],[127.08231,37.3728],[127.08195,37.37248],[127.0816,37.37216],[127.08109,37.37171],[127.07971,37.37148],[127.07892,37.37182],[127.07848,37.37276],[127.07803,37.37372],[127.07871,37.37676],[127.07903,37.37778],[127.07946,37.37873],[127.08042,37.37978],[127.08049,37.37983],[127.08241,37.38101],[127.08542,37.38288],[127.0849,37.38353],[127.08474,37.38374],[127.08446,37.38409],[127.08411,37.38454],[127.08385,37.38505],[127.08383,37.38527],[127.08382,37.38547],[127.08388,37.38606],[127.08391,37.38633],[127.0864,37.39311],[127.08675,37.39369],[127.08729,37.39462],[127.08732,37.39467],[127.08734,37.3947],[127.08741,37.39479],[127.08769,37.39534],[127.08863,37.39744],[127.08885,37.398],[127.08913,37.39868],[127.08933,37.39974],[127.08899,37.40097],[127.08898,37.40107],[127.08882,37.40215],[127.08884,37.40233],[127.08889,37.4029],[127.08937,37.40326],[127.09001,37.40366],[127.09008,37.4037],[127.09291,37.40509],[127.09469,37.40573],[127.09474,37.40573],[127.09865,37.40199],[127.09985,37.4006],[127.09996,37.40034],[127.10016,37.39987],[127.10128,37.39449],[127.10189,37.39114]]]]}},{"type":"Feature","properties":{"code":"41135657","name":"백현동","parent":"41135"},"geometry":{"type":"MultiPolygon","coordinates":[[[[127.12076,37.39469],[127.12031,37.39113],[127.11655,37.38671],[127.11176,37.38165],[127.10901,37.37851],[127.10343,37.38141],[127.10342,37.38241],[127.10302,37.38491],[127.10289,37.38561],[127.10233,37.38877],[127.10224,37.38926],[127.10189,37.39114],[127.10285,37.39224],[127.1058,37.3944],[127.10627,37.39473],[127.10977,37.3947],[127.10977,37.39441],[127.11077,37.39403],[127.11185,37.39403],[127.11185,37.39453],[127.11277,37.39469],[127.11287,37.39469],[127.11416,37.39469],[127.11563,37.39469],[127.12076,37.39469]]]]}},{"type":"Feature","properties":{"code":"41135550","name":"정자1동","parent":"41135"},"geometry":{"type":"MultiPolygon","coordinates":[[[[127.10901,37.37851],[127.11234,37.37549],[127.11155,37.37498],[127.11091,37.37453],[127.11086,37.3745],[127.1105,37.37424],[127.10991,37.3738],[127.10981,37.37373],[127.10806,37.37244],[127.10807,37.37011],[127.10811,37.36544],[127.10826,37.35807],[127.10854,37.35664],[127.10848,37.35664],[127.10837,37.35663],[127.10792,37.35663],[127.10711,37.35663],[127.10417,37.35663],[127.10364,37.35663],[127.10358,37.36052],[127.10355,37.36184],[127.10368,37.36199],[127.10421,37.36258],[127.10439,37.36342],[127.10454,37.36409],[127.10453,37.36413],[127.10452,37.3656],[127.10452,37.36588],[127.10428,37.36668],[127.1041,37.36726],[127.10409,37.36729],[127.10403,37.36754],[127.10379,37.3685],[127.10357,37.37106],[127.10357,37.37111],[127.10347,37.37261],[127.10345,37.37611],[127.10343,37.38141],[127.10901,37.37851]]]]}},{"type":"Feature","properties":{"code":"41135545","name":"정자동","parent":"41135"},"geometry":{"type":"MultiPolygon","coordinates":[[[[127.1166,37.37164],[127.11594,37.37118],[127.11532,37.37072],[127.11523,37.37061],[127.11513,37.37048],[127.11506,37.37035],[127.11502,37.37027],[127.1149,37.37005],[127.1148,37.36976],[127.11478,37.36971],[127.11478,37.36957],[127.11475,37.36856],[127.11474,37.36834],[127.11475,37.36749],[127.11475,37.36708],[127.11476,37.36667],[127.11479,37.36344],[127.11489,37.35996],[127.11441,37.35997],[127.1133,37.35999],[127.11074,37.35997],[127.10985,37.35996],[127.10893,37.35995],[127.10893,37.35991],[127.10896,37.35901],[127.1091,37.35867],[127.10929,37.35848],[127.1098,37.35817],[127.1109,37.35767],[127.11167,37.35732],[127.10854,37.35664],[127.10826,37.35807],[127.10811,37.36544],[127.10807,37.37011],[127.10806,37.37244],[127.10981,37.37373],[127.10991,37.3738],[127.1105,37.37424],[127.11086,37.3745],[127.11091,37.37453],[127.11155,37.37498],[127.11234,37.37549],[127.1166,37.37164]]]]}}]}