{"type":"FeatureCollection","features":[{"type":"Feature","properties":{"code":"41287510","name":"일산1동","parent":"41287"},"geometry":{"type":"MultiPolygon","coordinates":[[[[126.77512,37.69208],[126.77395,37.68936],[126.76825,37.68279],[126.76251,37.68582],[126.76141,37.68748],[126.76105,37.68931],[126.76163,37.68922],[126.76181,37.68919],[126.76348,37.68945],[126.76369,37.68948],[126.76459,37.68964],[126.7663,37.68996],[126.76723,37.69014],[126.7673,37.69017],[126.76747,37.69024],[126.76866,37.69075],[126.7733,37.69254],[126.77349,37.69251],[126.77512,37.69208]]]]}},{"type":"Feature","properties":{"code":"41287520","name":"일산2동","parent":"41287"},"geometry":{"type":"MultiPolygon","coordinates":[[[[126.77729,37.67887],[126.76825,37.68279],[126.77395,37.68936],[126.77512,37.69208],[126.77625,37.69403],[126.77814,37.69579],[126.77808,37.69531],[126.77801,37.69511],[126.77778,37.69433],[126.77762,37.6938],[126.77761,37.69378],[126.77758,37.69369],[126.77693,37.69085],[126.77691,37.69072],[126.77691,37.69068],[126.77691,37.69061],[126.77691,37.6905],[126.77691,37.69044],[126.7773,37.68766],[126.77735,37.68729],[126.77739,37.687],[126.77742,37.6868],[126.77748,37.68643],[126.77795,37.68322],[126.77788,37.68277],[126.77729,37.67887]]]]}},{"type":"Feature","properties":{"code":"41287530","name":"일산3동","parent":"41287"},"geometry":{"type":"MultiPolygon","coordinates":[[[[126.76825,37.68279],[126.77729,37.67887],[126.77756,37.67876],[126.77325,37.67298],[126.76547,37.67634],[126.75814,37.67952],[126.76251,37.68582],[126.76825,37.68279]]]]}},{"type":"Feature","properties":{"code":"41287545","name":"탄현1동","parent":"41287"},"geometry":{"type":"MultiPolygon","coordinates":[[[[126.76106,37.69907],[126.76451,37.69911],[126.76593,37.69923],[126.76825,37.69969],[126.7689,37.69799],[126.76926,37.69754],[126.77001,37.69653],[126.77187,37.69507],[126.77225,37.69461],[126.77275,37.69357],[126.77532,37.69402],[126.77598,37.69406],[126.77625,37.69403],[126.77512,37.69208],[126.77349,37.69251],[126.7733,37.69254],[126.76866,37.69075],[126.76747,37.69024],[126.7673,37.69017],[126.76723,37.69014],[126.7663,37.68996],[126.76459,37.68964],[126.76369,37.68948],[126.76348,37.68945],[126.76181,37.68919],[126.76163,37.68922],[126.76105,37.68931],[126.76101,37.68992],[126.761,37.69013],[126.761,37.69217],[126.761,37.69231],[126.76106,37.69907]]]]}},{"type":"Feature","properties":{"code":"41287550","name":"주엽1동","parent":"41287"},"geometry":{"type":"MultiPolygon","coordinates":[[[[126.77325,37.67298],[126.76998,37.66825],[126.76986,37.66808],[126.76974,37.66793],[126.76967,37.66783],[126.76956,37.66771],[126.76948,37.66763],[126.76938,37.66755],[126.76911,37.66732],[126.76908,37.66729],[126.76901,37.66723],[126.76881,37.66711],[126.76865,37.667],[126.76836,37.66682],[126.76813,37.66667],[126.76748,37.66627],[126.76742,37.66623],[126.76664,37.66575],[126.76613,37.66543],[126.76584,37.66525],[126.76268,37.66329],[126.76255,37.66342],[126.76243,37.66355],[126.76206,37.66389],[126.7616,37.66424],[126.76117,37.66458],[126.76045,37.66501],[126.76032,37.66508],[126.75994,37.66527],[126.75965,37.6654],[126.75833,37.66598],[126.76547,37.67634],[126.77325,37.67298]]]]}},{"type":"Feature","properties":{"code":"41287560","name":"주엽2동","parent":"41287"},"geometry":{"type":"MultiPolygon","coordinates":[[[[126.76547,37.67634],[126.75833,37.66598],[126.75804,37.6661],[126.75532,37.66726],[126.75529,37.66727],[126.75247,37.66854],[126.75199,37.66875],[126.75101,37.66919],[126.75814,37.67952],[126.76547,37.67634]]]]}},{"type":"Feature","properties":{"code":"41287570","name":"대화동","parent":"41287"},"geometry":{"type":"MultiPolygon","coordinates":[[[[126.76141,37.68748],[126.76251,37.68582],[126.75814,37.67952],[126.75101,37.66919],[126.75199,37.66875],[126.75247,37.66854],[126.75529,37.66727],[126.75532,37.66726],[126.75804,37.6661],[126.75633,37.66356],[126.75519,37.66222],[126.75256,37.66336],[126.75097,37.66411],[126.75101,37.66433],[126.75133,37.66545],[126.7521,37.66658],[126.74956,37.6669],[126.74459,37.65973],[126.74456,37.65969],[126.74454,37.65966],[126.74426,37.65984],[126.74406,37.65997],[126.73475,37.66592],[126.73469,37.66605],[126.7346,37.66625],[126.73456,37.66633],[126.73452,37.66641],[126.73498,37.6666],[126.7355,37.66681],[126.73652,37.66748],[126.73676,37.66781],[126.73681,37.66793],[126.73683,37.66886],[126.73682,37.66906],[126.73707,37.67119],[126.73749,37.67393],[126.73884,37.67461],[126.73891,37.67471],[126.73974,37.67635],[126.73919,37.67671],[126.73886,37.67682],[126.73854,37.67689],[126.73825,37.67697],[126.73806,37.67707],[126.73789,37.6773],[126.73763,37.67764],[126.7376,37.67773],[126.73758,37.67777],[126.73756,37.67789],[126.73756,37.67793],[126.73758,37.67803],[126.7381,37.67998],[126.7386,37.68169],[126.73958,37.68321],[126.73982,37.68357],[126.74111,37.68481],[126.74285,37.68602],[126.74433,37.68687],[126.7444,37.68689],[126.74456,37.68694],[126.7447,37.68695],[126.74474,37.68695],[126.74483,37.68694],[126.7449,37.68691],[126.74501,37.68685],[126.7453,37.68656],[126.7455,37.68636],[126.74583,37.68603],[126.74598,37.68591],[126.74608,37.68588],[126.74622,37.68587],[126.75275,37.6864],[126.75455,37.68671],[126.75628,37.68736],[126.75678,37.68754],[126.757,37.6876],[126.75717,37.68765],[126.75766,37.68774],[126.75946,37.68796],[126.76104,37.68739],[126.76141,37.68748]]]]}},{"type":"Feature","properties":{"code":"41287580","name":"송포동","parent":"41287"},"geometry":{"type":"MultiPolygon","coordinates":[[[[126.75946,37.68796],[126.75766,37.68774],[126.75717,37.68765],[126.757,37.6876],[126.75678,37.68754],[126.75628,37.68736],[126.75455,37.68671],[126.75275,37.6864],[126.74622,37.68587],[126.74608,37.68588],[126.74598,37.68591],[126.74583,37.68603],[126.7455,37.68636],[126.7453,37.68656],[126.74501,37.68685],[126.7449,37.68691],[126.74483,37.68694],[126.74474,37.68695],[126.7447,37.68695],[126.74456,37.68694],[126.7444,37.68689],[126.74433,37.68687],[126.74285,37.68602],[126.74111,37.68481],[126.73982,37.68357],[126.73958,37.68321],[126.7386,37.68169],[126.7381,37.67998],[126.73758,37.67803],[126.73756,37.67793],[126.73756,37.67789],[126.73758,37.67777],[126.7376,37.67773],[126.73763,37.67764],[126.73789,37.6773],[126.73806,37.67707],[126.73825,37.67697],[126.73854,37.67689],[126.73886,37.67682],[126.73919,37.67671],[126.73974,37.67635],[126.73891,37.67471],[126.73884,37.67461],[126.73749,37.67393],[126.73707,37.67119],[126.73682,37.66906],[126.73683,37.66886],[126.73681,37.66793],[126.73676,37.66781],[126.73652,37.66748],[126.7355,37.66681],[126.73498,37.6666],[126.73452,37.66641],[126.73456,37.66633],[126.7346,37.66625],[126.73469,37.66605],[126.73475,37.66592],[126.74406,37.65997],[126.74426,37.65984],[126.74454,37.65966],[126.74456,37.65969],[126.74459,37.65973],[126.74956,37.6669],[126.7521,37.66658],[126.75133,37.66545],[126.75101,37.66433],[126.75097,37.66411],[126.75076,37.6629],[126.75022,37.65872],[126.74795,37.65894],[126.74755,37.65898],[126.74665,37.6591],[126.74633,37.65914],[126.74509,37.6595],[126.74479,37.65752],[126.74405,37.65413],[126.74369,37.65419],[126.74178,37.65455],[126.74086,37.6539],[126.74089,37.64771],[126.7409,37.64248],[126.74092,37.63893],[126.7358,37.64155],[126.73499,37.64196],[126.73415,37.64228],[126.72839,37.64451],[126.71826,37.64929],[126.70933,37.65466],[126.70791,37.65552],[126.70159,37.65932],[126.69447,37.6633],[126.68932,37.66618],[126.69353,37.67075],[126.69411,37.67138],[126.69424,37.67152],[126.6958,37.67209],[126.69652,37.67094],[126.69817,37.67338],[126.70059,37.67691],[126.70139,37.67634],[126.7019,37.67598],[126.70246,37.67558],[126.70254,37.67552],[126.70267,37.67546],[126.7035,37.67504],[126.70468,37.67448],[126.70702,37.67336],[126.70718,37.67436],[126.70624,37.67436],[126.70607,37.67739],[126.70602,37.67821],[126.7084,37.68017],[126.71033,37.68117],[126.71513,37.68109],[126.71668,37.68113],[126.7218,37.68135],[126.72499,37.67973],[126.72899,37.68186],[126.72908,37.68191],[126.73892,37.68733],[126.74277,37.68946],[126.74373,37.68998],[126.74394,37.69004],[126.74408,37.69009],[126.74431,37.69014],[126.74448,37.69016],[126.74484,37.69016],[126.74511,37.69012],[126.74526,37.69008],[126.74635,37.68976],[126.75121,37.68822],[126.75189,37.68798],[126.75193,37.68799],[126.75198,37.68799],[126.75232,37.68809],[126.75365,37.68846],[126.7542,37.68863],[126.75439,37.68868],[126.75447,37.68871],[126.75455,37.68875],[126.75739,37.68855],[126.75946,37.68796]]]]}},{"type":"Feature","properties":{"code":"41287610","name":"가좌동","parent":"41287"},"geometry":{"type":"MultiPolygon","coordinates":[[[[126.72838,37.70394],[126.72795,37.69096],[126.72906,37.68724],[126.72908,37.68191],[126.72899,37.68186],[126.72499,37.67973],[126.7218,37.68135],[126.71668,37.68113],[126.71513,37.68109],[126.71033,37.68117],[126.7084,37.68017],[126.70602,37.67821],[126.70607,37.67739],[126.70624,37.67436],[126.70718,37.67436],[126.70702,37.67336],[126.70468,37.67448],[126.7035,37.67504],[126.70267,37.67546],[126.70254,37.67552],[126.70246,37.67558],[126.7019,37.67598],[126.70139,37.67634],[126.70059,37.67691],[126.69817,37.67338],[126.69652,37.67094],[126.6958,37.67209],[126.69424,37.67152],[126.69411,37.67138],[126.69353,37.67075],[126.68932,37.66618],[126.68155,37.67053],[126.67774,37.67266],[126.67346,37.67491],[126.67128,37.67649],[126.67022,37.67763],[126.66995,37.67792],[126.66909,37.67921],[126.66846,37.68018],[126.66832,37.6805],[126.66679,37.68416],[126.66637,37.68606],[126.66633,37.68776],[126.66705,37.68914],[126.67655,37.70008],[126.67875,37.69855],[126.68348,37.69513],[126.68537,37.69357],[126.68562,37.69337],[126.68739,37.69158],[126.6914,37.68911],[126.6953,37.69315],[126.69604,37.69414],[126.69616,37.69429],[126.69662,37.6949],[126.69801,37.69613],[126.69821,37.69629],[126.69898,37.69688],[126.69929,37.69703],[126.7002,37.69691],[126.70056,37.69678],[126.70174,37.69633],[126.70184,37.6963],[126.70251,37.69622],[126.70372,37.69613],[126.70458,37.69621],[126.7071,37.69717],[126.70722,37.69722],[126.7085,37.69786],[126.71191,37.69974],[126.71295,37.69967],[126.71572,37.69995],[126.71616,37.70002],[126.71707,37.70024],[126.72265,37.70233],[126.72296,37.7025],[126.72352,37.70303],[126.72745,37.70409],[126.72838,37.70394]]]]}},{"type":"Feature","properties":{"code":"41287546","name":"탄현2동","parent":"41287"},"geometry":{"type":"MultiPolygon","coordinates":[[[[126.77625,37.69403],[126.77598,37.69406],[126.77532,37.69402],[126.77275,37.69357],[126.77225,37.69461],[126.77187,37.69507],[126.77001,37.69653],[126.76926,37.69754],[126.7689,37.69799],[126.76825,37.69969],[126.76593,37.69923],[126.76451,37.69911],[126.76106,37.69907],[126.76107,37.7008],[126.76113,37.70399],[126.76129,37.70405],[126.76149,37.70411],[126.76291,37.70427],[126.76398,37.7047],[126.76495,37.70405],[126.76601,37.70535],[126.76637,37.70604],[126.76608,37.70697],[126.76766,37.70664],[126.76915,37.70617],[126.77062,37.70567],[126.77214,37.70481],[126.77335,37.70425],[126.77373,37.70262],[126.77522,37.70215],[126.77603,37.70127],[126.77661,37.7009],[126.77709,37.70061],[126.77781,37.70032],[126.7787,37.7002],[126.77979,37.69996],[126.78118,37.69926],[126.78127,37.6992],[126.77972,37.69842],[126.77903,37.69745],[126.77814,37.69579],[126.77625,37.69403]]]]}},{"type":"Feature","properties":{"code":"41287600","name":"덕이동","parent":"41287"},"geometry":{"type":"MultiPolygon","coordinates":[[[[126.72908,37.68191],[126.72906,37.68724],[126.72795,37.69096],[126.72838,37.70394],[126.72864,37.70389],[126.72946,37.70392],[126.73065,37.70404],[126.72989,37.70494],[126.73473,37.70488],[126.73613,37.70463],[126.73925,37.70503],[126.74017,37.70505],[126.74388,37.70443],[126.74616,37.70383],[126.74663,37.70369],[126.74695,37.70359],[126.74775,37.70327],[126.74802,37.70314],[126.74818,37.70315],[126.74832,37.70316],[126.74923,37.70324],[126.75001,37.70337],[126.75059,37.70348],[126.7521,37.70385],[126.75345,37.70429],[126.75404,37.70473],[126.75553,37.70489],[126.7579,37.70418],[126.75883,37.70364],[126.76008,37.70333],[126.76113,37.70399],[126.76107,37.7008],[126.76106,37.69907],[126.761,37.69231],[126.761,37.69217],[126.761,37.69013],[126.76101,37.68992],[126.76105,37.68931],[126.76141,37.68748],[126.76104,37.68739],[126.75946,37.68796],[126.75739,37.68855],[126.75455,37.68875],[126.75447,37.68871],[126.75439,37.68868],[126.7542,37.68863],[126.75365,37.68846],[126.75232,37.68809],[126.75198,37.68799],[126.75193,37.68799],[126.75189,37.68798],[126.75121,37.68822],[126.74635,37.68976],[126.74526,37.69008],[126.74511,37.69012],[126.74484,37.69016],[126.74448,37.69016],[126.74431,37.69014],[126.74408,37.69009],[126.74394,37.69004],[126.74373,37.68998],[126.74277,37.68946],[126.73892,37.68733],[126.72908,37.68191]]]]}}]}