{"type":"FeatureCollection","features":[{"type":"Feature","properties":{"code":"26530580","name":"삼락동","parent":"26530"},"geometry":{"type":"MultiPolygon","coordinates":[[[[128.98795,35.1959],[128.98766,35.19429],[128.98761,35.19401],[128.98755,35.19374],[128.98712,35.19353],[128.98677,35.19335],[128.98608,35.19302],[128.98605,35.19299],[128.98357,35.19051],[128.98343,35.18998],[128.98171,35.18279],[128.98154,35.18206],[128.98165,35.18204],[128.98097,35.17913],[128.98012,35.17554],[128.98027,35.17345],[128.9814,35.17252],[128.98038,35.1686],[128.98033,35.16863],[128.98017,35.16871],[128.97876,35.16942],[128.97859,35.16947],[128.97856,35.16948],[128.97819,35.16952],[128.978,35.16954],[128.97668,35.16962],[128.97664,35.16912],[128.97664,35.16901],[128.97661,35.16857],[128.97658,35.16808],[128.97641,35.16698],[128.97625,35.16586],[128.97604,35.16472],[128.97576,35.16352],[128.97564,35.16308],[128.97552,35.16264],[128.97528,35.16184],[128.9752,35.16158],[128.97511,35.1613],[128.97487,35.16053],[128.97461,35.16041],[128.97402,35.16007],[128.97342,35.15972],[128.97325,35.15961],[128.97217,35.15824],[128.9694,35.15308],[128.96936,35.15292],[128.96929,35.15264],[128.96891,35.15001],[128.96842,35.14844],[128.96752,35.14557],[128.96651,35.14421],[128.96476,35.14415],[128.96246,35.14333],[128.96082,35.14254],[128.96004,35.14657],[128.95953,35.14924],[128.96059,35.15447],[128.96242,35.16349],[128.96265,35.1729],[128.96256,35.1741],[128.96249,35.17516],[128.96216,35.17986],[128.96201,35.18198],[128.96552,35.18646],[128.96602,35.18676],[128.97248,35.19068],[128.9784,35.19428],[128.98132,35.19605],[128.98207,35.1965],[128.98315,35.19639],[128.98485,35.19622],[128.98668,35.19603],[128.98819,35.19724],[128.98804,35.19641],[128.98795,35.1959]]]]}},{"type":"Feature","properties":{"code":"26530591","name":"모라1동","parent":"26530"},"geometry":{"type":"MultiPolygon","coordinates":[[[[129.00061,35.19166],[128.99947,35.19073],[128.99434,35.185],[128.99315,35.18322],[128.99297,35.18269],[128.99293,35.18265],[128.99192,35.18177],[128.9913,35.18136],[128.98799,35.18077],[128.98165,35.18204],[128.98154,35.18206],[128.98171,35.18279],[128.98343,35.18998],[128.98357,35.19051],[128.98605,35.19299],[128.98608,35.19302],[128.98677,35.19335],[128.98712,35.19353],[128.98755,35.19374],[128.98761,35.19401],[128.98766,35.19429],[128.98795,35.1959],[128.99112,35.19382],[128.99142,35.19401],[128.99159,35.1941],[128.99392,35.19526],[128.99397,35.19524],[128.99424,35.19513],[128.99496,35.19479],[128.99548,35.19386],[128.99821,35.1923],[129.00061,35.19166]]]]}},{"type":"Feature","properties":{"code":"26530593","name":"모라3동","parent":"26530"},"geometry":{"type":"MultiPolygon","coordinates":[[[[129.02114,35.18775],[129.0217,35.18419],[129.02173,35.18356],[129.02175,35.18352],[129.02189,35.18329],[129.02221,35.18316],[129.02231,35.18315],[129.02256,35.18311],[129.02357,35.183],[129.0238,35.18304],[129.02369,35.18159],[129.02364,35.18092],[129.02356,35.18074],[129.0235,35.18064],[129.02252,35.17911],[129.0215,35.17832],[129.01996,35.17931],[129.01972,35.17971],[129.01952,35.17986],[129.01786,35.17933],[129.01668,35.17859],[129.01618,35.17798],[129.01594,35.1777],[129.01138,35.17411],[129.01017,35.17361],[129.00996,35.17406],[129.00945,35.17461],[129.00914,35.17476],[129.0083,35.1749],[129.00224,35.17564],[128.99904,35.17577],[128.99858,35.17597],[128.99885,35.17736],[128.99886,35.17746],[128.9968,35.17937],[128.99614,35.17982],[128.99576,35.17998],[128.99557,35.18005],[128.99501,35.18017],[128.99452,35.18023],[128.99283,35.18032],[128.9913,35.18136],[128.99192,35.18177],[128.99293,35.18265],[128.99297,35.18269],[128.99315,35.18322],[128.99434,35.185],[128.99947,35.19073],[129.00061,35.19166],[129.00171,35.19281],[129.00332,35.19272],[129.00551,35.19261],[129.00729,35.19252],[129.0077,35.1925],[129.00759,35.19224],[129.00735,35.19168],[129.00721,35.19045],[129.00786,35.1895],[129.00826,35.18901],[129.00911,35.18881],[129.01158,35.18892],[129.01599,35.18931],[129.01682,35.1889],[129.01708,35.1886],[129.01793,35.18827],[129.01938,35.18778],[129.02052,35.18759],[129.02068,35.1876],[129.02114,35.18775]]]]}},{"type":"Feature","properties":{"code":"26530600","name":"덕포1동","parent":"26530"},"geometry":{"type":"MultiPolygon","coordinates":[[[[128.99521,35.17185],[128.99524,35.1706],[128.99521,35.17043],[128.99515,35.17027],[128.99351,35.16858],[128.99333,35.16848],[128.99237,35.16795],[128.9898,35.16713],[128.9891,35.16711],[128.98349,35.1673],[128.98332,35.16734],[128.98265,35.16751],[128.98248,35.16758],[128.98202,35.16779],[128.98154,35.16801],[128.98093,35.16831],[128.98088,35.16834],[128.98038,35.1686],[128.9814,35.17252],[128.98308,35.17232],[128.98352,35.17232],[128.98424,35.17228],[128.98494,35.17223],[128.98562,35.17218],[128.9859,35.17215],[128.98796,35.17194],[128.98865,35.17153],[128.9897,35.17092],[128.99297,35.17111],[128.99365,35.17116],[128.99439,35.17126],[128.99521,35.17185]]]]}},{"type":"Feature","properties":{"code":"26530610","name":"덕포2동","parent":"26530"},"geometry":{"type":"MultiPolygon","coordinates":[[[[128.9913,35.18136],[128.99283,35.18032],[128.99452,35.18023],[128.99501,35.18017],[128.99557,35.18005],[128.99576,35.17998],[128.99614,35.17982],[128.9968,35.17937],[128.99886,35.17746],[128.99885,35.17736],[128.99858,35.17597],[128.99521,35.17185],[128.99439,35.17126],[128.99365,35.17116],[128.99297,35.17111],[128.9897,35.17092],[128.98865,35.17153],[128.98796,35.17194],[128.9859,35.17215],[128.98562,35.17218],[128.98494,35.17223],[128.98424,35.17228],[128.98352,35.17232],[128.98308,35.17232],[128.9814,35.17252],[128.98027,35.17345],[128.98012,35.17554],[128.98097,35.17913],[128.98165,35.18204],[128.98799,35.18077],[128.9913,35.18136]]]]}},{"type":"Feature","properties":{"code":"26530620","name":"괘법동","parent":"26530"},"geometry":{"type":"MultiPolygon","coordinates":[[[[129.01017,35.17361],[129.01009,35.17036],[129.0094,35.16909],[129.00795,35.16666],[129.00778,35.16641],[129.00739,35.1662],[129.00683,35.16596],[129.00608,35.16525],[129.00603,35.16515],[129.00586,35.16447],[129.00552,35.16393],[129.00492,35.16309],[129.00435,35.16253],[129.00332,35.16157],[129.00304,35.16133],[129.00289,35.16129],[129.00275,35.1613],[129.00248,35.16142],[129.00244,35.16143],[129.00163,35.16177],[129.00027,35.16211],[129.0001,35.16207],[128.9997,35.16187],[128.99644,35.16213],[128.99607,35.16253],[128.99576,35.16288],[128.99527,35.16324],[128.99408,35.16319],[128.99404,35.16277],[128.99382,35.16217],[128.99345,35.16141],[128.99059,35.15893],[128.99043,35.15889],[128.99012,35.15883],[128.98991,35.15894],[128.9897,35.15933],[128.98912,35.15942],[128.98834,35.15954],[128.98826,35.15955],[128.98658,35.15867],[128.98606,35.15808],[128.9859,35.15756],[128.98575,35.15708],[128.97569,35.15917],[128.97578,35.15945],[128.97589,35.15987],[128.976,35.16034],[128.97504,35.1605],[128.97487,35.16053],[128.97511,35.1613],[128.9752,35.16158],[128.97528,35.16184],[128.97552,35.16264],[128.97564,35.16308],[128.97576,35.16352],[128.97604,35.16472],[128.97625,35.16586],[128.97641,35.16698],[128.97658,35.16808],[128.97661,35.16857],[128.97664,35.16901],[128.97664,35.16912],[128.97668,35.16962],[128.978,35.16954],[128.97819,35.16952],[128.97856,35.16948],[128.97859,35.16947],[128.97876,35.16942],[128.98017,35.16871],[128.98033,35.16863],[128.98038,35.1686],[128.98088,35.16834],[128.98093,35.16831],[128.98154,35.16801],[128.98202,35.16779],[128.98248,35.16758],[128.98265,35.16751],[128.98332,35.16734],[128.98349,35.1673],[128.9891,35.16711],[128.9898,35.16713],[128.99237,35.16795],[128.99333,35.16848],[128.99351,35.16858],[128.99515,35.17027],[128.99521,35.17043],[128.99524,35.1706],[128.99521,35.17185],[128.99858,35.17597],[128.99904,35.17577],[129.00224,35.17564],[129.0083,35.1749],[129.00914,35.17476],[129.00945,35.17461],[129.00996,35.17406],[129.01017,35.17361]]]]}},{"type":"Feature","properties":{"code":"26530650","name":"주례1동","parent":"26530"},"geometry":{"type":"MultiPolygon","coordinates":[[[[129.00604,35.1508],[128.99767,35.15002],[128.99174,35.14965],[128.99206,35.15096],[128.9929,35.15428],[128.99415,35.15603],[128.99503,35.15709],[128.99611,35.15742],[128.99694,35.158],[128.9977,35.15857],[128.99907,35.16044],[128.9997,35.16187],[129.0001,35.16207],[129.00027,35.16211],[129.00163,35.16177],[129.00244,35.16143],[129.00248,35.16142],[129.00275,35.1613],[129.00289,35.16129],[129.00304,35.16133],[129.00332,35.16157],[129.00435,35.16253],[129.00492,35.16309],[129.00552,35.16393],[129.00586,35.16447],[129.0078,35.16376],[129.00793,35.16366],[129.00797,35.16351],[129.00677,35.16126],[129.00581,35.15837],[129.00512,35.15566],[129.00544,35.15178],[129.00553,35.15152],[129.0056,35.15135],[129.00586,35.15091],[129.00588,35.15088],[129.00604,35.1508]]]]}},{"type":"Feature","properties":{"code":"26530660","name":"주례2동","parent":"26530"},"geometry":{"type":"MultiPolygon","coordinates":[[[[129.01284,35.16567],[129.01163,35.16384],[129.01103,35.16272],[129.01064,35.16015],[129.01302,35.15835],[129.01377,35.15788],[129.01408,35.15768],[129.01413,35.15765],[129.01436,35.15749],[129.01458,35.15732],[129.01482,35.15711],[129.01488,35.15704],[129.015,35.1569],[129.01522,35.15666],[129.01594,35.15571],[129.01631,35.15464],[129.01649,35.15406],[129.01663,35.1531],[129.01667,35.15281],[129.01619,35.14825],[129.01568,35.14693],[129.01578,35.14382],[129.01623,35.14337],[129.01625,35.14314],[129.01621,35.14252],[129.01615,35.14224],[129.01602,35.14207],[129.01456,35.14023],[129.01425,35.13987],[129.0131,35.13872],[129.01279,35.13847],[129.01229,35.1383],[129.01132,35.13819],[129.00658,35.13939],[129.00625,35.14279],[129.00635,35.14448],[129.00677,35.1457],[129.00791,35.14588],[129.00787,35.14657],[129.00782,35.14705],[129.0078,35.1472],[129.00774,35.14775],[129.00756,35.14896],[129.00732,35.14961],[129.00682,35.15017],[129.00661,35.15037],[129.00634,35.15058],[129.00613,35.15074],[129.00604,35.1508],[129.00588,35.15088],[129.00586,35.15091],[129.0056,35.15135],[129.00553,35.15152],[129.00544,35.15178],[129.00512,35.15566],[129.00581,35.15837],[129.00677,35.16126],[129.00797,35.16351],[129.00793,35.16366],[129.0078,35.16376],[129.00586,35.16447],[129.00603,35.16515],[129.00608,35.16525],[129.00683,35.16596],[129.00739,35.1662],[129.00778,35.16641],[129.00795,35.16666],[129.0094,35.16909],[129.01009,35.17036],[129.01123,35.16937],[129.0115,35.1691],[129.0117,35.16881],[129.01181,35.16844],[129.01184,35.168],[129.01176,35.16782],[129.01165,35.16762],[129.0117,35.16738],[129.01249,35.16605],[129.01284,35.16567]]]]}},{"type":"Feature","properties":{"code":"26530661","name":"주례3동","parent":"26530"},"geometry":{"type":"MultiPolygon","coordinates":[[[[129.00658,35.13939],[129.00474,35.13944],[129.00452,35.13951],[129.00431,35.13973],[129.00421,35.1398],[129.00328,35.14041],[129.00311,35.14051],[129.00269,35.1406],[128.99837,35.14077],[128.99638,35.14049],[128.9953,35.14059],[128.99404,35.14472],[128.99408,35.14615],[128.9944,35.14631],[128.99474,35.14648],[128.99603,35.14717],[128.99625,35.14729],[128.99732,35.14789],[128.99746,35.14798],[128.99767,35.15002],[129.00604,35.1508],[129.00613,35.15074],[129.00634,35.15058],[129.00661,35.15037],[129.00682,35.15017],[129.00732,35.14961],[129.00756,35.14896],[129.00774,35.14775],[129.0078,35.1472],[129.00782,35.14705],[129.00787,35.14657],[129.00791,35.14588],[129.00677,35.1457],[129.00635,35.14448],[129.00625,35.14279],[129.00658,35.13939]]]]}},{"type":"Feature","properties":{"code":"26530670","name":"학장동","parent":"26530"},"geometry":{"type":"MultiPolygon","coordinates":[[[[128.99174,35.14965],[128.99767,35.15002],[128.99746,35.14798],[128.99732,35.14789],[128.99625,35.14729],[128.99603,35.14717],[128.99474,35.14648],[128.9944,35.14631],[128.99408,35.14615],[128.99404,35.14472],[128.9953,35.14059],[128.99638,35.14049],[128.99837,35.14077],[129.00269,35.1406],[129.00311,35.14051],[129.00328,35.14041],[129.00421,35.1398],[129.00431,35.13973],[129.00452,35.13951],[129.00295,35.13493],[129.00239,35.12901],[129.00225,35.12743],[129.0016,35.1265],[129.00104,35.12632],[128.99961,35.12585],[128.99844,35.12467],[128.99797,35.12255],[128.99495,35.12315],[128.99306,35.12318],[128.99282,35.12321],[128.99024,35.12359],[128.98978,35.1237],[128.98769,35.12493],[128.98798,35.12647],[128.98798,35.12655],[128.98795,35.12687],[128.98792,35.12716],[128.98788,35.12743],[128.98728,35.12903],[128.98716,35.12925],[128.9851,35.13149],[128.98503,35.13156],[128.98434,35.13218],[128.98417,35.13231],[128.98396,35.13238],[128.98208,35.1328],[128.98152,35.1328],[128.97844,35.1345],[128.97742,35.13547],[128.97707,35.13577],[128.97589,35.13634],[128.97518,35.13626],[128.9742,35.13538],[128.97381,35.135],[128.97373,35.13492],[128.97364,35.1348],[128.97291,35.13347],[128.97217,35.13385],[128.97253,35.1378],[128.97275,35.13835],[128.9732,35.13947],[128.97327,35.1396],[128.97335,35.13974],[128.97392,35.1405],[128.97428,35.14097],[128.97462,35.14143],[128.97478,35.14174],[128.97524,35.14275],[128.97525,35.14278],[128.97526,35.14281],[128.97536,35.14308],[128.97591,35.14848],[128.97605,35.15017],[128.97608,35.15042],[128.97621,35.15152],[128.97623,35.15155],[128.97628,35.15156],[128.97646,35.1516],[128.97654,35.15159],[128.977,35.15157],[128.97775,35.15148],[128.98198,35.15077],[128.98314,35.15057],[128.98404,35.15041],[128.9873,35.14984],[128.98941,35.14947],[128.99174,35.14965]]]]}},{"type":"Feature","properties":{"code":"26530680","name":"엄궁동","parent":"26530"},"geometry":{"type":"MultiPolygon","coordinates":[[[[128.97291,35.13347],[128.97364,35.1348],[128.97373,35.13492],[128.97381,35.135],[128.9742,35.13538],[128.97518,35.13626],[128.97589,35.13634],[128.97707,35.13577],[128.97742,35.13547],[128.97844,35.1345],[128.98152,35.1328],[128.98208,35.1328],[128.98396,35.13238],[128.98417,35.13231],[128.98434,35.13218],[128.98503,35.13156],[128.9851,35.13149],[128.98716,35.12925],[128.98728,35.12903],[128.98788,35.12743],[128.98792,35.12716],[128.98795,35.12687],[128.98798,35.12655],[128.98798,35.12647],[128.98769,35.12493],[128.98758,35.12444],[128.98751,35.12419],[128.98736,35.1239],[128.98727,35.12379],[128.98715,35.12363],[128.98674,35.12313],[128.98553,35.12201],[128.98422,35.12113],[128.98234,35.11978],[128.98227,35.11971],[128.98215,35.1196],[128.98189,35.11936],[128.98178,35.11906],[128.9817,35.11871],[128.98159,35.11824],[128.98153,35.11811],[128.98039,35.11719],[128.97982,35.11675],[128.9763,35.1168],[128.97618,35.11682],[128.97612,35.11683],[128.97579,35.11693],[128.97495,35.11761],[128.9689,35.12092],[128.96781,35.12113],[128.96741,35.12121],[128.96633,35.12142],[128.96371,35.12172],[128.96368,35.12167],[128.96362,35.12157],[128.9633,35.12065],[128.96315,35.12016],[128.9615,35.11991],[128.96096,35.12003],[128.95991,35.12028],[128.95826,35.12309],[128.95688,35.12731],[128.96057,35.13718],[128.96453,35.13725],[128.96696,35.13511],[128.96704,35.13474],[128.96712,35.13442],[128.96719,35.13412],[128.9672,35.13408],[128.96728,35.13377],[128.96738,35.1334],[128.96749,35.13309],[128.96757,35.13286],[128.96758,35.13283],[128.96769,35.13263],[128.96775,35.1325],[128.96789,35.13223],[128.96815,35.13189],[128.9689,35.13108],[128.96945,35.13073],[128.9702,35.13033],[128.97196,35.13183],[128.97199,35.13187],[128.97225,35.13228],[128.97291,35.13347]]]]}},{"type":"Feature","properties":{"code":"26530645","name":"감전동","parent":"26530"},"geometry":{"type":"MultiPolygon","coordinates":[[[[128.9997,35.16187],[128.99907,35.16044],[128.9977,35.15857],[128.99694,35.158],[128.99611,35.15742],[128.99503,35.15709],[128.99415,35.15603],[128.9929,35.15428],[128.99206,35.15096],[128.99174,35.14965],[128.98941,35.14947],[128.9873,35.14984],[128.98404,35.15041],[128.98314,35.15057],[128.98198,35.15077],[128.97775,35.15148],[128.977,35.15157],[128.97654,35.15159],[128.97646,35.1516],[128.97628,35.15156],[128.97623,35.15155],[128.97621,35.15152],[128.97608,35.15042],[128.97605,35.15017],[128.97591,35.14848],[128.97536,35.14308],[128.97526,35.14281],[128.97525,35.14278],[128.97524,35.14275],[128.97478,35.14174],[128.97462,35.14143],[128.97428,35.14097],[128.97392,35.1405],[128.97335,35.13974],[128.97327,35.1396],[128.9732,35.13947],[128.97275,35.13835],[128.97253,35.1378],[128.97217,35.13385],[128.97291,35.13347],[128.97225,35.13228],[128.97199,35.13187],[128.97196,35.13183],[128.9702,35.13033],[128.96945,35.13073],[128.9689,35.13108],[128.96815,35.13189],[128.96789,35.13223],[128.96775,35.1325],[128.96769,35.13263],[128.96758,35.13283],[128.96757,35.13286],[128.96749,35.13309],[128.96738,35.1334],[128.96728,35.13377],[128.9672,35.13408],[128.96719,35.13412],[128.96712,35.13442],[128.96704,35.13474],[128.96696,35.13511],[128.96453,35.13725],[128.96057,35.13718],[128.96142,35.13944],[128.96121,35.14051],[128.96082,35.14254],[128.96246,35.14333],[128.96476,35.14415],[128.96651,35.14421],[128.96752,35.14557],[128.96842,35.14844],[128.96891,35.15001],[128.96929,35.15264],[128.96936,35.15292],[128.9694,35.15308],[128.97217,35.15824],[128.97325,35.15961],[128.97342,35.15972],[128.97402,35.16007],[128.97461,35.16041],[128.97487,35.16053],[128.97504,35.1605],[128.976,35.16034],[128.97589,35.15987],[128.97578,35.15945],[128.97569,35.15917],[128.98575,35.15708],[128.9859,35.15756],[128.98606,35.15808],[128.98658,35.15867],[128.98826,35.15955],[128.98834,35.15954],[128.98912,35.15942],[128.9897,35.15933],[128.98991,35.15894],[128.99012,35.15883],[128.99043,35.15889],[128.99059,35.15893],[128.99345,35.16141],[128.99382,35.16217],[128.99404,35.16277],[128.99408,35.16319],[128.99527,35.16324],[128.99576,35.16288],[128.99607,35.16253],[128.99644,35.16213],[128.9997,35.16187]]]]}}]}