{"type":"FeatureCollection","features":[{"type":"Feature","properties":{"code":"30200520","name":"진잠동","parent":"30200"},"geometry":{"type":"MultiPolygon","coordinates":[[[[127.26801,36.33159],[127.26966,36.33099],[127.27185,36.33084],[127.27426,36.33078],[127.27591,36.33147],[127.27787,36.33029],[127.27852,36.32949],[127.28124,36.32875],[127.28174,36.33024],[127.28526,36.33096],[127.28779,36.33171],[127.29062,36.33255],[127.29232,36.32951],[127.29324,36.32765],[127.29448,36.32443],[127.29605,36.32397],[127.29677,36.32481],[127.29793,36.32422],[127.30168,36.32274],[127.30417,36.32318],[127.30521,36.3229],[127.30874,36.32179],[127.31046,36.32244],[127.31191,36.32412],[127.31137,36.32685],[127.31182,36.32927],[127.31159,36.33199],[127.31204,36.33348],[127.31366,36.33206],[127.31565,36.33101],[127.31734,36.3294],[127.31773,36.32834],[127.32026,36.32816],[127.32225,36.32755],[127.32279,36.32779],[127.32509,36.32693],[127.32616,36.32799],[127.32638,36.33022],[127.32745,36.33171],[127.32823,36.33214],[127.33033,36.33207],[127.33302,36.33205],[127.3352,36.33215],[127.33791,36.33219],[127.33821,36.33219],[127.33818,36.33092],[127.33817,36.33019],[127.33601,36.33018],[127.33601,36.3283],[127.33676,36.32291],[127.33762,36.31853],[127.33786,36.31786],[127.33982,36.31783],[127.33918,36.31423],[127.33888,36.31321],[127.3375,36.31278],[127.33445,36.31038],[127.3334,36.30946],[127.33252,36.30792],[127.33253,36.30462],[127.33281,36.30461],[127.33279,36.30156],[127.33245,36.30157],[127.33225,36.30157],[127.33079,36.30158],[127.32968,36.30145],[127.32882,36.30118],[127.32812,36.30096],[127.32692,36.30056],[127.32475,36.29984],[127.32292,36.29813],[127.32249,36.29762],[127.32211,36.29716],[127.32075,36.29388],[127.32008,36.29224],[127.31998,36.29175],[127.32,36.28974],[127.32002,36.28911],[127.31995,36.28834],[127.31983,36.28793],[127.31967,36.28759],[127.3192,36.28703],[127.31861,36.28655],[127.31787,36.28612],[127.31711,36.28585],[127.31683,36.28576],[127.31565,36.28571],[127.3142,36.28487],[127.31129,36.28236],[127.31093,36.282],[127.31043,36.2792],[127.31048,36.27812],[127.3095,36.27676],[127.30852,36.27619],[127.30753,36.27562],[127.30735,36.27507],[127.30711,36.27436],[127.30734,36.27293],[127.30726,36.27255],[127.30714,36.27247],[127.3069,36.27232],[127.30442,36.27123],[127.30317,36.27069],[127.30282,36.27054],[127.30165,36.27027],[127.30048,36.27],[127.29571,36.26745],[127.29487,36.26655],[127.29403,36.26566],[127.29324,36.26437],[127.2927,36.2641],[127.29245,36.26397],[127.29177,36.26419],[127.29147,36.26534],[127.29057,36.26575],[127.28882,36.26584],[127.28731,36.26573],[127.2865,36.2655],[127.28536,36.26519],[127.28422,36.26487],[127.283,36.26491],[127.2829,36.26494],[127.28101,36.26541],[127.27441,36.26856],[127.27143,36.27016],[127.27008,36.27086],[127.26977,36.27102],[127.2677,36.27295],[127.26669,36.2739],[127.26667,36.27392],[127.26645,36.27413],[127.26487,36.27476],[127.26343,36.27527],[127.26199,36.27578],[127.26107,36.27585],[127.26026,36.27591],[127.25869,36.2767],[127.25625,36.27801],[127.25591,36.27838],[127.25558,36.27875],[127.2552,36.27912],[127.25481,36.27951],[127.25369,36.28061],[127.25315,36.28114],[127.25205,36.28222],[127.25099,36.28263],[127.24971,36.2833],[127.24946,36.28343],[127.24891,36.28471],[127.24868,36.2859],[127.24852,36.28669],[127.24846,36.28701],[127.2481,36.2884],[127.24762,36.28966],[127.24683,36.29044],[127.24763,36.29165],[127.25076,36.29513],[127.2509,36.29528],[127.25105,36.29543],[127.2512,36.29557],[127.25136,36.2957],[127.25152,36.29582],[127.25169,36.29592],[127.25185,36.29601],[127.25202,36.29609],[127.25218,36.29616],[127.25234,36.29623],[127.25243,36.29626],[127.2525,36.29628],[127.25266,36.29634],[127.25282,36.29639],[127.25287,36.2964],[127.25297,36.29643],[127.2531,36.29647],[127.25326,36.2965],[127.25341,36.29653],[127.25348,36.29653],[127.25356,36.29654],[127.25371,36.29654],[127.25382,36.29653],[127.25387,36.29653],[127.25402,36.2965],[127.25418,36.29647],[127.25435,36.29642],[127.25451,36.29637],[127.25467,36.29632],[127.25483,36.29626],[127.25498,36.29621],[127.25513,36.29617],[127.25528,36.29613],[127.25543,36.2961],[127.25557,36.29608],[127.25571,36.29606],[127.25713,36.29588],[127.25732,36.29586],[127.25752,36.29583],[127.2577,36.29582],[127.25787,36.29581],[127.25802,36.29581],[127.25816,36.29582],[127.25828,36.29584],[127.2584,36.29586],[127.25851,36.29589],[127.2586,36.29591],[127.25887,36.29598],[127.25896,36.29601],[127.25905,36.29606],[127.25913,36.29613],[127.25921,36.29623],[127.25926,36.29633],[127.25929,36.29638],[127.25931,36.29644],[127.25936,36.29659],[127.25943,36.29685],[127.2595,36.29719],[127.26017,36.30143],[127.2602,36.30164],[127.2602,36.30184],[127.26017,36.302],[127.26009,36.30219],[127.25998,36.30236],[127.25982,36.30254],[127.25978,36.30259],[127.25964,36.30274],[127.25944,36.30295],[127.25924,36.3032],[127.25913,36.30335],[127.25904,36.30348],[127.25885,36.3038],[127.25869,36.30417],[127.25855,36.30459],[127.25845,36.30505],[127.25838,36.30553],[127.25834,36.30591],[127.25832,36.30602],[127.25761,36.31307],[127.25758,36.31338],[127.25756,36.31371],[127.25754,36.31405],[127.25752,36.3144],[127.25751,36.31474],[127.25751,36.31481],[127.2575,36.31507],[127.2575,36.31535],[127.2575,36.31539],[127.2575,36.31559],[127.2575,36.3157],[127.25751,36.31599],[127.25752,36.31626],[127.25754,36.31651],[127.25756,36.31674],[127.25758,36.31696],[127.2576,36.31715],[127.25762,36.31732],[127.25765,36.31747],[127.25768,36.31761],[127.25771,36.31774],[127.25774,36.31785],[127.25778,36.31796],[127.25783,36.31806],[127.25788,36.31816],[127.25793,36.31826],[127.258,36.31835],[127.25806,36.31845],[127.25814,36.31855],[127.25821,36.31865],[127.25829,36.31874],[127.25837,36.31883],[127.25842,36.31889],[127.25846,36.31893],[127.25854,36.31902],[127.25861,36.3191],[127.25871,36.31919],[127.25879,36.31927],[127.25884,36.31931],[127.25888,36.31935],[127.25897,36.31942],[127.25905,36.31948],[127.25914,36.31954],[127.2592,36.31958],[127.25923,36.3196],[127.25931,36.31965],[127.2594,36.31971],[127.25949,36.31977],[127.25957,36.31984],[127.25965,36.31993],[127.25973,36.32004],[127.25981,36.32017],[127.25989,36.32033],[127.25997,36.32051],[127.26002,36.32065],[127.26004,36.3207],[127.26011,36.3209],[127.26017,36.32111],[127.26023,36.32131],[127.26025,36.3214],[127.26027,36.3215],[127.26032,36.32167],[127.26035,36.32182],[127.26038,36.32194],[127.26039,36.32206],[127.26041,36.32215],[127.26042,36.32224],[127.26042,36.32232],[127.26042,36.32241],[127.26042,36.32248],[127.26042,36.32256],[127.26042,36.32265],[127.26041,36.32274],[127.26041,36.3228],[127.26041,36.32284],[127.2604,36.32294],[127.26039,36.32306],[127.26039,36.32313],[127.26038,36.32318],[127.26037,36.3233],[127.26036,36.32344],[127.26035,36.32352],[127.26034,36.32358],[127.26032,36.32374],[127.26031,36.32381],[127.2603,36.32389],[127.25975,36.32721],[127.26017,36.32717],[127.26049,36.32716],[127.26102,36.32715],[127.26109,36.32715],[127.2629,36.32727],[127.26321,36.32732],[127.26333,36.32734],[127.26358,36.32741],[127.26377,36.32748],[127.2657,36.32828],[127.2659,36.32839],[127.266,36.32845],[127.26603,36.32848],[127.26605,36.3285],[127.26788,36.33119],[127.26792,36.33126],[127.26797,36.33142],[127.268,36.33152],[127.26801,36.33159]]]]}},{"type":"Feature","properties":{"code":"30200540","name":"온천2동","parent":"30200"},"geometry":{"type":"MultiPolygon","coordinates":[[[[127.38042,36.37287],[127.37648,36.37132],[127.37475,36.37054],[127.37335,36.36985],[127.37241,36.36938],[127.37142,36.3686],[127.37036,36.36777],[127.37019,36.36764],[127.36854,36.3665],[127.36578,36.36521],[127.36364,36.36397],[127.36158,36.36316],[127.36056,36.36263],[127.35841,36.36154],[127.3582,36.3614],[127.35816,36.36138],[127.35625,36.36058],[127.35139,36.35925],[127.35132,36.35925],[127.35002,36.35922],[127.34955,36.35921],[127.34906,36.35919],[127.34851,36.35926],[127.34679,36.35948],[127.34456,36.35975],[127.34398,36.35982],[127.34379,36.35981],[127.34354,36.35979],[127.34279,36.35955],[127.34248,36.35945],[127.34206,36.35902],[127.34187,36.35883],[127.34174,36.35869],[127.34164,36.35859],[127.34145,36.35841],[127.34136,36.35831],[127.34113,36.35809],[127.34062,36.35759],[127.33976,36.35733],[127.33869,36.35701],[127.33808,36.35686],[127.33767,36.35676],[127.33656,36.35663],[127.33633,36.3566],[127.33613,36.35661],[127.33564,36.35662],[127.33544,36.35662],[127.33491,36.35671],[127.33449,36.35679],[127.33381,36.35691],[127.33305,36.35704],[127.33004,36.35821],[127.32418,36.35955],[127.32153,36.36058],[127.31991,36.36121],[127.32088,36.36166],[127.32417,36.36286],[127.32686,36.36412],[127.3312,36.36676],[127.33149,36.37128],[127.33156,36.37177],[127.33179,36.37251],[127.33199,36.37301],[127.33284,36.37484],[127.33412,36.37777],[127.33454,36.37874],[127.33512,36.38008],[127.33594,36.38199],[127.33616,36.38194],[127.34063,36.37975],[127.34304,36.37842],[127.3436,36.37755],[127.34639,36.37674],[127.34838,36.37538],[127.34851,36.37305],[127.34971,36.37183],[127.35017,36.3713],[127.35111,36.37144],[127.35103,36.37288],[127.3513,36.37506],[127.35309,36.37665],[127.35318,36.37688],[127.35279,36.3778],[127.35304,36.37837],[127.35564,36.38083],[127.35643,36.37991],[127.35722,36.37899],[127.35729,36.37896],[127.35791,36.37867],[127.36264,36.37642],[127.36414,36.37612],[127.3663,36.37568],[127.3699,36.37586],[127.37212,36.37697],[127.37324,36.37753],[127.37442,36.37743],[127.3756,36.37734],[127.3767,36.37669],[127.37782,36.37531],[127.3787,36.37432],[127.37936,36.37359],[127.38042,36.37287]]]]}},{"type":"Feature","properties":{"code":"30200550","name":"신성동","parent":"30200"},"geometry":{"type":"MultiPolygon","coordinates":[[[[127.38163,36.42134],[127.38128,36.42104],[127.37853,36.41807],[127.37879,36.41713],[127.37975,36.41653],[127.38243,36.41457],[127.38263,36.4144],[127.38304,36.41408],[127.38475,36.41231],[127.38708,36.41229],[127.38746,36.41189],[127.38918,36.40888],[127.38921,36.40875],[127.38918,36.4085],[127.38907,36.40821],[127.38865,36.40718],[127.38545,36.40374],[127.38385,36.4037],[127.38224,36.40366],[127.38146,36.40357],[127.381,36.40287],[127.38017,36.40123],[127.38007,36.40086],[127.38005,36.40009],[127.38032,36.39893],[127.3807,36.39746],[127.38036,36.39423],[127.38004,36.39369],[127.38002,36.39339],[127.38051,36.39277],[127.38428,36.38805],[127.38465,36.3869],[127.38699,36.38261],[127.38773,36.38186],[127.38808,36.38163],[127.38864,36.38161],[127.3913,36.38108],[127.39232,36.38081],[127.39327,36.38052],[127.39376,36.38012],[127.39387,36.37989],[127.39525,36.37857],[127.39744,36.37681],[127.39914,36.376],[127.40073,36.37496],[127.39499,36.37267],[127.39305,36.3728],[127.39156,36.37329],[127.38982,36.37354],[127.38863,36.37349],[127.38731,36.37335],[127.38552,36.37307],[127.38418,36.37293],[127.38284,36.37279],[127.38195,36.37281],[127.38042,36.37287],[127.37936,36.37359],[127.3787,36.37432],[127.37782,36.37531],[127.3767,36.37669],[127.3756,36.37734],[127.37442,36.37743],[127.37324,36.37753],[127.37212,36.37697],[127.3699,36.37586],[127.3663,36.37568],[127.36414,36.37612],[127.36264,36.37642],[127.35791,36.37867],[127.35729,36.37896],[127.35722,36.37899],[127.35643,36.37991],[127.35564,36.38083],[127.35304,36.37837],[127.35279,36.3778],[127.35318,36.37688],[127.35309,36.37665],[127.3513,36.37506],[127.35103,36.37288],[127.35111,36.37144],[127.35017,36.3713],[127.34971,36.37183],[127.34851,36.37305],[127.34838,36.37538],[127.34639,36.37674],[127.3436,36.37755],[127.34304,36.37842],[127.34063,36.37975],[127.33616,36.38194],[127.33594,36.38199],[127.33033,36.38381],[127.33126,36.38527],[127.33282,36.38745],[127.3337,36.39134],[127.33326,36.39192],[127.33246,36.39232],[127.329,36.39305],[127.32881,36.39309],[127.3288,36.39332],[127.32885,36.39399],[127.32888,36.39405],[127.32892,36.39411],[127.32917,36.39442],[127.32967,36.39463],[127.33078,36.39524],[127.33121,36.39679],[127.3313,36.3975],[127.33099,36.39831],[127.32977,36.39919],[127.32864,36.39954],[127.32735,36.40005],[127.32647,36.40184],[127.32438,36.40704],[127.32434,36.40872],[127.32456,36.40991],[127.32576,36.41047],[127.32679,36.4102],[127.32721,36.41085],[127.32782,36.41352],[127.32783,36.41482],[127.32728,36.41527],[127.32677,36.41627],[127.32626,36.41727],[127.32646,36.42112],[127.32698,36.42203],[127.32742,36.42226],[127.3279,36.4225],[127.32902,36.42313],[127.33457,36.42705],[127.33895,36.42977],[127.34072,36.43098],[127.34221,36.43072],[127.3433,36.43008],[127.34604,36.42921],[127.34928,36.42849],[127.351,36.42849],[127.35128,36.42872],[127.35192,36.42938],[127.352,36.43143],[127.35208,36.43348],[127.35255,36.43453],[127.35472,36.43599],[127.35604,36.43514],[127.35649,36.43422],[127.35806,36.43252],[127.36084,36.43028],[127.36151,36.42948],[127.36185,36.42935],[127.3621,36.42951],[127.36278,36.43053],[127.36355,36.43208],[127.36341,36.43306],[127.36521,36.43507],[127.36632,36.43587],[127.36748,36.43497],[127.36865,36.43406],[127.36997,36.43329],[127.37236,36.43349],[127.37379,36.4317],[127.3737,36.43113],[127.37429,36.43033],[127.37634,36.42788],[127.37746,36.42707],[127.37851,36.42686],[127.37976,36.42629],[127.37995,36.42484],[127.37988,36.4239],[127.37995,36.42322],[127.38071,36.42233],[127.38163,36.42134]]]]}},{"type":"Feature","properties":{"code":"30200570","name":"전민동","parent":"30200"},"geometry":{"type":"MultiPolygon","coordinates":[[[[127.41499,36.41039],[127.41488,36.40908],[127.41408,36.40485],[127.41387,36.40137],[127.41338,36.39942],[127.413,36.39819],[127.41227,36.39727],[127.41217,36.39715],[127.41137,36.39509],[127.41071,36.38987],[127.41071,36.38852],[127.41096,36.38602],[127.41109,36.38493],[127.41122,36.38384],[127.41118,36.3824],[127.4111,36.38167],[127.41086,36.38113],[127.41047,36.3803],[127.40983,36.37939],[127.4094,36.37879],[127.40936,36.37873],[127.40918,36.37849],[127.40817,36.3778],[127.40596,36.37653],[127.40584,36.37647],[127.40527,36.37618],[127.40457,36.37594],[127.4031,36.37571],[127.40073,36.37496],[127.39914,36.376],[127.39744,36.37681],[127.39525,36.37857],[127.39387,36.37989],[127.39376,36.38012],[127.39327,36.38052],[127.39232,36.38081],[127.3913,36.38108],[127.38864,36.38161],[127.38808,36.38163],[127.38773,36.38186],[127.38699,36.38261],[127.38465,36.3869],[127.38428,36.38805],[127.38051,36.39277],[127.38002,36.39339],[127.38004,36.39369],[127.38036,36.39423],[127.3807,36.39746],[127.38032,36.39893],[127.38005,36.40009],[127.38007,36.40086],[127.38017,36.40123],[127.381,36.40287],[127.38146,36.40357],[127.38224,36.40366],[127.38385,36.4037],[127.38545,36.40374],[127.38865,36.40718],[127.38907,36.40821],[127.38918,36.4085],[127.38921,36.40875],[127.38918,36.40888],[127.38746,36.41189],[127.38708,36.41229],[127.3941,36.41058],[127.39307,36.41042],[127.39299,36.4104],[127.39296,36.41038],[127.39294,36.41036],[127.39292,36.41033],[127.39293,36.41029],[127.39296,36.41024],[127.39332,36.4097],[127.39362,36.40939],[127.3938,36.40924],[127.39493,36.40835],[127.39704,36.40808],[127.39799,36.40807],[127.40117,36.40813],[127.40226,36.40841],[127.40335,36.40868],[127.40742,36.40905],[127.41129,36.40927],[127.41163,36.40963],[127.41186,36.4102],[127.4119,36.41075],[127.41346,36.41102],[127.41499,36.41039]]]]}},{"type":"Feature","properties":{"code":"30200546","name":"노은1동","parent":"30200"},"geometry":{"type":"MultiPolygon","coordinates":[[[[127.33594,36.38199],[127.33512,36.38008],[127.33454,36.37874],[127.33412,36.37777],[127.33284,36.37484],[127.33199,36.37301],[127.33179,36.37251],[127.33156,36.37177],[127.33149,36.37128],[127.3312,36.36676],[127.32686,36.36412],[127.32417,36.36286],[127.32088,36.36166],[127.31991,36.36121],[127.31759,36.36171],[127.3151,36.36242],[127.31068,36.3624],[127.30903,36.36228],[127.30739,36.36217],[127.30725,36.36339],[127.30712,36.36462],[127.30604,36.36589],[127.30468,36.36592],[127.30355,36.36483],[127.30346,36.36414],[127.30384,36.36308],[127.30402,36.3613],[127.30359,36.36156],[127.30132,36.36188],[127.30073,36.36166],[127.29958,36.36088],[127.29919,36.36071],[127.29839,36.36036],[127.2975,36.35997],[127.29647,36.35953],[127.29602,36.35819],[127.2933,36.35694],[127.29073,36.35582],[127.28472,36.35407],[127.28353,36.35389],[127.28131,36.35242],[127.28005,36.35047],[127.27789,36.34893],[127.27698,36.35005],[127.27609,36.35102],[127.27368,36.35309],[127.27323,36.35332],[127.27225,36.35423],[127.27115,36.3573],[127.27091,36.35871],[127.27087,36.36063],[127.27084,36.36083],[127.27084,36.36097],[127.27087,36.36108],[127.271,36.36127],[127.27177,36.36201],[127.27205,36.36226],[127.27207,36.36228],[127.27223,36.36242],[127.27294,36.36298],[127.27325,36.36304],[127.27342,36.36308],[127.27387,36.36322],[127.27426,36.36336],[127.27442,36.36342],[127.27475,36.36356],[127.27555,36.3639],[127.27585,36.36405],[127.27612,36.3642],[127.27632,36.36431],[127.27687,36.36469],[127.27731,36.36503],[127.27741,36.36512],[127.27752,36.36521],[127.27755,36.36526],[127.27754,36.36535],[127.27758,36.36872],[127.27925,36.37064],[127.28097,36.37474],[127.28099,36.37482],[127.28033,36.37847],[127.2803,36.37853],[127.28025,36.37862],[127.28014,36.37878],[127.28004,36.37887],[127.27983,36.37897],[127.27956,36.37911],[127.2794,36.37918],[127.27926,36.37924],[127.27913,36.37933],[127.2791,36.37935],[127.27905,36.37938],[127.27897,36.37946],[127.27894,36.37949],[127.27889,36.37967],[127.27884,36.37989],[127.27882,36.3802],[127.27885,36.38049],[127.27897,36.38157],[127.27994,36.38166],[127.28064,36.38177],[127.28079,36.38182],[127.28223,36.38236],[127.28311,36.38277],[127.28384,36.38274],[127.28657,36.38234],[127.29066,36.38141],[127.29462,36.38102],[127.29864,36.38098],[127.29934,36.38143],[127.29989,36.38154],[127.30029,36.38148],[127.30055,36.38115],[127.30097,36.38007],[127.30119,36.379],[127.3014,36.37757],[127.30151,36.37669],[127.30177,36.37568],[127.30198,36.37531],[127.30613,36.37192],[127.3068,36.37152],[127.3071,36.37148],[127.31109,36.37157],[127.31539,36.37235],[127.3155,36.37238],[127.31563,36.37251],[127.31518,36.37597],[127.31787,36.37596],[127.31936,36.37597],[127.3196,36.37597],[127.32195,36.37598],[127.32266,36.37598],[127.32449,36.37668],[127.32505,36.377],[127.32807,36.3807],[127.32921,36.38227],[127.33033,36.38381],[127.33594,36.38199]]]]}},{"type":"Feature","properties":{"code":"30200580","name":"구즉동","parent":"30200"},"geometry":{"type":"MultiPolygon","coordinates":[[[[127.39567,36.49161],[127.39815,36.48952],[127.40095,36.48744],[127.40181,36.48651],[127.40268,36.48558],[127.40421,36.48332],[127.40431,36.48147],[127.40381,36.47816],[127.40346,36.47615],[127.40292,36.47481],[127.40252,36.47382],[127.40192,36.47282],[127.40132,36.47183],[127.4006,36.47017],[127.40045,36.46451],[127.40044,36.46238],[127.40044,36.46132],[127.40059,36.46035],[127.40075,36.45939],[127.4009,36.45843],[127.40126,36.45738],[127.40182,36.45665],[127.40251,36.45582],[127.40262,36.45569],[127.40282,36.45454],[127.40268,36.45365],[127.40254,36.45275],[127.39843,36.45114],[127.39735,36.45102],[127.397,36.45103],[127.39549,36.45094],[127.39349,36.45057],[127.39245,36.44981],[127.3919,36.44928],[127.39088,36.44708],[127.39071,36.44661],[127.3911,36.44244],[127.39118,36.44189],[127.39152,36.44123],[127.39175,36.44096],[127.39237,36.44023],[127.3927,36.4399],[127.39357,36.43903],[127.39446,36.43824],[127.39158,36.43619],[127.38888,36.43428],[127.38876,36.43414],[127.38869,36.43407],[127.38858,36.43394],[127.38851,36.4338],[127.38658,36.42978],[127.38597,36.42852],[127.38588,36.42832],[127.38584,36.42823],[127.38457,36.42553],[127.38438,36.4251],[127.384,36.42424],[127.38395,36.42413],[127.38338,36.4232],[127.38308,36.42287],[127.3825,36.42225],[127.38163,36.42134],[127.38071,36.42233],[127.37995,36.42322],[127.37988,36.4239],[127.37995,36.42484],[127.37976,36.42629],[127.37851,36.42686],[127.37746,36.42707],[127.37634,36.42788],[127.37429,36.43033],[127.3737,36.43113],[127.37379,36.4317],[127.37236,36.43349],[127.36997,36.43329],[127.36865,36.43406],[127.36748,36.43497],[127.36632,36.43587],[127.36521,36.43507],[127.36341,36.43306],[127.36355,36.43208],[127.36278,36.43053],[127.3621,36.42951],[127.36185,36.42935],[127.36151,36.42948],[127.36084,36.43028],[127.35806,36.43252],[127.35649,36.43422],[127.35604,36.43514],[127.35472,36.43599],[127.35255,36.43453],[127.35208,36.43348],[127.352,36.43143],[127.35192,36.42938],[127.35128,36.42872],[127.351,36.42849],[127.34928,36.42849],[127.34604,36.42921],[127.3433,36.43008],[127.34221,36.43072],[127.34072,36.43098],[127.34037,36.43183],[127.3399,36.43598],[127.34156,36.43798],[127.34206,36.43805],[127.34255,36.43812],[127.3427,36.43861],[127.34273,36.43872],[127.34276,36.43884],[127.3429,36.43992],[127.34396,36.44273],[127.3447,36.44446],[127.34893,36.44722],[127.35252,36.4478],[127.35309,36.44791],[127.35363,36.44844],[127.35554,36.45055],[127.35588,36.45093],[127.35871,36.45603],[127.35861,36.45637],[127.35785,36.45795],[127.35695,36.46068],[127.35595,36.46402],[127.35671,36.4647],[127.35849,36.46519],[127.36082,36.46803],[127.36362,36.47033],[127.36441,36.4717],[127.3645,36.47243],[127.3645,36.47442],[127.36413,36.4751],[127.36389,36.47521],[127.36309,36.47556],[127.36233,36.47595],[127.362,36.47644],[127.36129,36.47757],[127.36004,36.4816],[127.35915,36.48539],[127.3592,36.48608],[127.35928,36.48723],[127.36035,36.49022],[127.36133,36.49107],[127.36312,36.49078],[127.36344,36.49073],[127.36452,36.49043],[127.3656,36.49014],[127.36668,36.48984],[127.36939,36.48959],[127.37133,36.49032],[127.37231,36.49107],[127.37411,36.49244],[127.37485,36.49314],[127.37558,36.49385],[127.37583,36.49422],[127.37687,36.49576],[127.37866,36.49791],[127.38021,36.4993],[127.38117,36.50002],[127.38277,36.50045],[127.38444,36.50018],[127.38469,36.50014],[127.38649,36.49943],[127.38797,36.49851],[127.38858,36.4977],[127.38946,36.49653],[127.39139,36.494],[127.39262,36.49356],[127.39386,36.49313],[127.39567,36.49161]]]]}},{"type":"Feature","properties":{"code":"30200600","name":"관평동","parent":"30200"},"geometry":{"type":"MultiPolygon","coordinates":[[[[127.41345,36.42228],[127.41375,36.42224],[127.41452,36.42196],[127.41518,36.42147],[127.41527,36.42141],[127.41685,36.41992],[127.41718,36.41936],[127.41747,36.41877],[127.41791,36.41789],[127.41834,36.41701],[127.41852,36.41657],[127.41863,36.41501],[127.4184,36.414],[127.41751,36.41309],[127.41606,36.41189],[127.41499,36.41039],[127.41346,36.41102],[127.4119,36.41075],[127.41186,36.4102],[127.41163,36.40963],[127.41129,36.40927],[127.40742,36.40905],[127.40335,36.40868],[127.40226,36.40841],[127.40117,36.40813],[127.39799,36.40807],[127.39704,36.40808],[127.39493,36.40835],[127.3938,36.40924],[127.39362,36.40939],[127.39332,36.4097],[127.39296,36.41024],[127.39293,36.41029],[127.39292,36.41033],[127.39294,36.41036],[127.39296,36.41038],[127.39299,36.4104],[127.39307,36.41042],[127.3941,36.41058],[127.38708,36.41229],[127.38475,36.41231],[127.38304,36.41408],[127.38263,36.4144],[127.38243,36.41457],[127.37975,36.41653],[127.37879,36.41713],[127.37853,36.41807],[127.38128,36.42104],[127.38163,36.42134],[127.3825,36.42225],[127.38308,36.42287],[127.38338,36.4232],[127.38395,36.42413],[127.384,36.42424],[127.38438,36.4251],[127.38457,36.42553],[127.38584,36.42823],[127.38588,36.42832],[127.38597,36.42852],[127.38658,36.42978],[127.38851,36.4338],[127.38858,36.43394],[127.38869,36.43407],[127.38876,36.43414],[127.38888,36.43428],[127.39158,36.43619],[127.39446,36.43824],[127.3962,36.43629],[127.3977,36.43492],[127.4027,36.43079],[127.40358,36.43016],[127.40447,36.42954],[127.40478,36.42932],[127.40983,36.42502],[127.41054,36.42408],[127.411,36.42358],[127.41132,36.42325],[127.41228,36.42242],[127.41345,36.42228]]]]}},{"type":"Feature","properties":{"code":"30200547","name":"노은2동","parent":"30200"},"geometry":{"type":"MultiPolygon","coordinates":[[[[127.32698,36.42203],[127.32646,36.42112],[127.32626,36.41727],[127.32677,36.41627],[127.32728,36.41527],[127.32783,36.41482],[127.32782,36.41352],[127.32721,36.41085],[127.32679,36.4102],[127.32576,36.41047],[127.32456,36.40991],[127.32434,36.40872],[127.32438,36.40704],[127.32647,36.40184],[127.32735,36.40005],[127.32864,36.39954],[127.32977,36.39919],[127.33099,36.39831],[127.3313,36.3975],[127.33121,36.39679],[127.33078,36.39524],[127.32967,36.39463],[127.32917,36.39442],[127.32892,36.39411],[127.32888,36.39405],[127.32885,36.39399],[127.3288,36.39332],[127.32881,36.39309],[127.329,36.39305],[127.33246,36.39232],[127.33326,36.39192],[127.3337,36.39134],[127.33282,36.38745],[127.33126,36.38527],[127.33033,36.38381],[127.32921,36.38227],[127.32807,36.3807],[127.32505,36.377],[127.32449,36.37668],[127.32266,36.37598],[127.32195,36.37598],[127.3196,36.37597],[127.31936,36.37597],[127.31787,36.37596],[127.31518,36.37597],[127.31488,36.37619],[127.31475,36.37717],[127.31473,36.37835],[127.31477,36.3792],[127.31555,36.37907],[127.31561,36.37906],[127.31644,36.38017],[127.31657,36.38035],[127.31842,36.38425],[127.31823,36.38721],[127.31819,36.38726],[127.31694,36.38897],[127.31528,36.39129],[127.31129,36.39699],[127.31049,36.39865],[127.31019,36.39887],[127.30795,36.39924],[127.30145,36.40025],[127.3005,36.4004],[127.29951,36.40044],[127.28903,36.39921],[127.28596,36.39858],[127.28095,36.39706],[127.27884,36.39624],[127.27862,36.39669],[127.27859,36.39681],[127.27859,36.39702],[127.27861,36.39729],[127.27887,36.39877],[127.2789,36.3989],[127.27901,36.39915],[127.27983,36.40086],[127.28067,36.40279],[127.28077,36.4033],[127.28186,36.4092],[127.28231,36.41454],[127.28237,36.41457],[127.28261,36.41467],[127.28323,36.41489],[127.2834,36.41495],[127.28356,36.41498],[127.28468,36.41514],[127.28483,36.41516],[127.28502,36.41516],[127.28523,36.41515],[127.28559,36.41514],[127.28582,36.41513],[127.28604,36.41515],[127.28616,36.41517],[127.28699,36.41532],[127.28852,36.41571],[127.28869,36.41576],[127.289,36.41588],[127.28912,36.41594],[127.2892,36.41602],[127.28925,36.41609],[127.28927,36.41625],[127.28926,36.41672],[127.28923,36.41696],[127.28921,36.41703],[127.28915,36.41733],[127.28911,36.41756],[127.28909,36.41775],[127.28907,36.41805],[127.28907,36.41808],[127.28908,36.41813],[127.2891,36.41828],[127.28926,36.41936],[127.29321,36.41947],[127.29423,36.4222],[127.29489,36.42241],[127.29538,36.42256],[127.296,36.42275],[127.29628,36.42281],[127.29757,36.42307],[127.29829,36.42314],[127.29932,36.42293],[127.29973,36.4224],[127.3007,36.42196],[127.30146,36.42198],[127.30184,36.423],[127.30275,36.42467],[127.30404,36.42509],[127.30526,36.42437],[127.30614,36.42433],[127.30822,36.42447],[127.30892,36.42456],[127.31033,36.42475],[127.31056,36.42479],[127.31061,36.42479],[127.31411,36.42283],[127.31449,36.42257],[127.31496,36.42225],[127.31559,36.42151],[127.31622,36.42077],[127.31667,36.42012],[127.31705,36.42002],[127.31874,36.42073],[127.31933,36.42098],[127.31963,36.42161],[127.31992,36.4222],[127.32112,36.42351],[127.3215,36.42362],[127.32161,36.42362],[127.32224,36.42359],[127.32231,36.42353],[127.32323,36.4225],[127.32439,36.4221],[127.32611,36.42196],[127.32633,36.42194],[127.32674,36.42191],[127.32698,36.42203]]]]}},{"type":"Feature","properties":{"code":"30200548","name":"노은3동","parent":"30200"},"geometry":{"type":"MultiPolygon","coordinates":[[[[127.31518,36.37597],[127.31563,36.37251],[127.3155,36.37238],[127.31539,36.37235],[127.31109,36.37157],[127.3071,36.37148],[127.3068,36.37152],[127.30613,36.37192],[127.30198,36.37531],[127.30177,36.37568],[127.30151,36.37669],[127.3014,36.37757],[127.30119,36.379],[127.30097,36.38007],[127.30055,36.38115],[127.30029,36.38148],[127.29989,36.38154],[127.29934,36.38143],[127.29864,36.38098],[127.29462,36.38102],[127.29066,36.38141],[127.28657,36.38234],[127.28384,36.38274],[127.28311,36.38277],[127.28223,36.38236],[127.28079,36.38182],[127.28064,36.38177],[127.27994,36.38166],[127.27897,36.38157],[127.27903,36.3833],[127.27918,36.39164],[127.27916,36.39169],[127.27913,36.39176],[127.27911,36.39189],[127.27899,36.39281],[127.27871,36.39512],[127.27869,36.39531],[127.2787,36.39554],[127.27884,36.39624],[127.28095,36.39706],[127.28596,36.39858],[127.28903,36.39921],[127.29951,36.40044],[127.3005,36.4004],[127.30145,36.40025],[127.30795,36.39924],[127.31019,36.39887],[127.31049,36.39865],[127.31129,36.39699],[127.31528,36.39129],[127.31694,36.38897],[127.31819,36.38726],[127.31823,36.38721],[127.31842,36.38425],[127.31657,36.38035],[127.31644,36.38017],[127.31561,36.37906],[127.31555,36.37907],[127.31477,36.3792],[127.31473,36.37835],[127.31475,36.37717],[127.31488,36.37619],[127.31518,36.37597]]]]}},{"type":"Feature","properties":{"code":"30200526","name":"학하동","parent":"30200"},"geometry":{"type":"MultiPolygon","coordinates":[[[[127.30402,36.3613],[127.30468,36.36025],[127.30556,36.35926],[127.30736,36.35836],[127.31078,36.35756],[127.31078,36.35719],[127.31032,36.35561],[127.30925,36.3556],[127.30898,36.35498],[127.30841,36.35318],[127.30895,36.35241],[127.31133,36.35192],[127.31386,36.35099],[127.31517,36.34966],[127.31624,36.3492],[127.31735,36.34867],[127.31935,36.34861],[127.32042,36.3483],[127.3218,36.34778],[127.32299,36.34759],[127.32476,36.34676],[127.32032,36.34164],[127.31801,36.33788],[127.32027,36.33719],[127.32488,36.33479],[127.32763,36.33251],[127.32823,36.33214],[127.32745,36.33171],[127.32638,36.33022],[127.32616,36.32799],[127.32509,36.32693],[127.32279,36.32779],[127.32225,36.32755],[127.32026,36.32816],[127.31773,36.32834],[127.31734,36.3294],[127.31565,36.33101],[127.31366,36.33206],[127.31204,36.33348],[127.31159,36.33199],[127.31182,36.32927],[127.31137,36.32685],[127.31191,36.32412],[127.31046,36.32244],[127.30874,36.32179],[127.30521,36.3229],[127.30417,36.32318],[127.30168,36.32274],[127.29793,36.32422],[127.29677,36.32481],[127.29605,36.32397],[127.29448,36.32443],[127.29324,36.32765],[127.29232,36.32951],[127.29062,36.33255],[127.28779,36.33171],[127.28526,36.33096],[127.28174,36.33024],[127.28124,36.32875],[127.27852,36.32949],[127.27787,36.33029],[127.27591,36.33147],[127.27426,36.33078],[127.27185,36.33084],[127.26966,36.33099],[127.26801,36.33159],[127.268,36.33183],[127.26796,36.33207],[127.26792,36.3323],[127.26789,36.33243],[127.26749,36.33351],[127.26748,36.33354],[127.2674,36.33386],[127.26729,36.33444],[127.26727,36.33456],[127.26727,36.33459],[127.26708,36.33814],[127.26708,36.33832],[127.26709,36.33848],[127.26713,36.33862],[127.26716,36.33874],[127.26721,36.33881],[127.26725,36.33886],[127.26734,36.33889],[127.26822,36.33918],[127.269,36.33942],[127.2692,36.33949],[127.26929,36.33953],[127.26938,36.33957],[127.26962,36.3397],[127.26992,36.33993],[127.27,36.34002],[127.2712,36.34146],[127.27124,36.34156],[127.27127,36.34164],[127.27127,36.34171],[127.27141,36.34226],[127.27162,36.34306],[127.27166,36.34313],[127.2717,36.34321],[127.2718,36.34337],[127.2719,36.34348],[127.27259,36.34407],[127.27264,36.34411],[127.27266,36.34413],[127.27273,36.34415],[127.27277,36.34416],[127.27288,36.34419],[127.27313,36.34422],[127.27329,36.34423],[127.27344,36.34424],[127.27439,36.34436],[127.27539,36.34467],[127.27553,36.34472],[127.27724,36.34697],[127.27729,36.34705],[127.27787,36.34861],[127.2779,36.34876],[127.2779,36.34888],[127.27789,36.34893],[127.28005,36.35047],[127.28131,36.35242],[127.28353,36.35389],[127.28472,36.35407],[127.29073,36.35582],[127.2933,36.35694],[127.29602,36.35819],[127.29647,36.35953],[127.2975,36.35997],[127.29839,36.36036],[127.29919,36.36071],[127.29958,36.36088],[127.30073,36.36166],[127.30132,36.36188],[127.30359,36.36156],[127.30402,36.3613]]]]}},{"type":"Feature","properties":{"code":"30200530","name":"온천1동","parent":"30200"},"geometry":{"type":"MultiPolygon","coordinates":[[[[127.33439,36.34853],[127.32635,36.34846],[127.32476,36.34676],[127.32299,36.34759],[127.3218,36.34778],[127.32042,36.3483],[127.31935,36.34861],[127.31735,36.34867],[127.31624,36.3492],[127.31517,36.34966],[127.31386,36.35099],[127.31133,36.35192],[127.30895,36.35241],[127.30841,36.35318],[127.30898,36.35498],[127.30925,36.3556],[127.31032,36.35561],[127.31078,36.35719],[127.31078,36.35756],[127.30736,36.35836],[127.30556,36.35926],[127.30468,36.36025],[127.30402,36.3613],[127.30384,36.36308],[127.30346,36.36414],[127.30355,36.36483],[127.30468,36.36592],[127.30604,36.36589],[127.30712,36.36462],[127.30725,36.36339],[127.30739,36.36217],[127.30903,36.36228],[127.31068,36.3624],[127.3151,36.36242],[127.31759,36.36171],[127.31991,36.36121],[127.32153,36.36058],[127.32418,36.35955],[127.33004,36.35821],[127.33305,36.35704],[127.33381,36.35691],[127.33449,36.35679],[127.33491,36.35671],[127.33544,36.35662],[127.33564,36.35662],[127.33613,36.35661],[127.33633,36.3566],[127.33656,36.35663],[127.33767,36.35676],[127.33808,36.35686],[127.33869,36.35701],[127.33976,36.35733],[127.34062,36.35759],[127.34113,36.35809],[127.34136,36.35831],[127.34145,36.35841],[127.34164,36.35859],[127.34174,36.35869],[127.34187,36.35883],[127.34206,36.35902],[127.34248,36.35945],[127.34279,36.35955],[127.34354,36.35979],[127.34379,36.35981],[127.34398,36.35982],[127.34456,36.35975],[127.34679,36.35948],[127.34851,36.35926],[127.34906,36.35919],[127.34955,36.35921],[127.35002,36.35922],[127.35132,36.35925],[127.35139,36.35925],[127.35625,36.36058],[127.35816,36.36138],[127.3582,36.3614],[127.35841,36.36154],[127.36056,36.36263],[127.36158,36.36316],[127.36364,36.36397],[127.35682,36.35895],[127.35667,36.3588],[127.35448,36.35669],[127.35406,36.35632],[127.35346,36.35579],[127.35315,36.35551],[127.35297,36.35536],[127.3526,36.35503],[127.35194,36.35437],[127.34949,36.3519],[127.34942,36.35159],[127.34942,36.35155],[127.34246,36.3534],[127.34217,36.35348],[127.34129,36.35347],[127.34078,36.352],[127.34037,36.35081],[127.34021,36.35035],[127.34022,36.35001],[127.34023,36.3493],[127.34025,36.34858],[127.33564,36.34853],[127.33439,36.34853]]]]}},{"type":"Feature","properties":{"code":"30200610","name":"원신흥동","parent":"30200"},"geometry":{"type":"MultiPolygon","coordinates":[[[[127.33033,36.33207],[127.33378,36.33408],[127.33569,36.33564],[127.33676,36.33843],[127.33852,36.34088],[127.34146,36.34228],[127.33939,36.34296],[127.34023,36.34557],[127.34025,36.34858],[127.34023,36.3493],[127.34022,36.35001],[127.34021,36.35035],[127.34037,36.35081],[127.34078,36.352],[127.34129,36.35347],[127.34217,36.35348],[127.34246,36.3534],[127.34942,36.35155],[127.34939,36.35141],[127.34907,36.34985],[127.34939,36.34861],[127.35107,36.34327],[127.35302,36.33719],[127.35385,36.33295],[127.35375,36.33254],[127.35364,36.33214],[127.33821,36.33219],[127.33791,36.33219],[127.3352,36.33215],[127.33302,36.33205],[127.33033,36.33207]]]]}},{"type":"Feature","properties":{"code":"30200527","name":"상대동","parent":"30200"},"geometry":{"type":"MultiPolygon","coordinates":[[[[127.32476,36.34676],[127.32635,36.34846],[127.33439,36.34853],[127.33564,36.34853],[127.34025,36.34858],[127.34023,36.34557],[127.33939,36.34296],[127.34146,36.34228],[127.33852,36.34088],[127.33676,36.33843],[127.33569,36.33564],[127.33378,36.33408],[127.33033,36.33207],[127.32823,36.33214],[127.32763,36.33251],[127.32488,36.33479],[127.32027,36.33719],[127.31801,36.33788],[127.32032,36.34164],[127.32476,36.34676]]]]}}]}