{"type":"FeatureCollection","features":[{"type":"Feature","properties":{"code":"48123515","name":"용지동","parent":"48123"},"geometry":{"type":"MultiPolygon","coordinates":[[[[128.69388,35.23274],[128.69391,35.23271],[128.69418,35.23236],[128.6947,35.23168],[128.69494,35.23135],[128.69504,35.23122],[128.69519,35.23102],[128.69539,35.23072],[128.69763,35.2268],[128.693,35.22174],[128.69173,35.2203],[128.69101,35.2209],[128.68974,35.22197],[128.68953,35.22214],[128.6893,35.22234],[128.68896,35.22255],[128.68848,35.22284],[128.68782,35.2232],[128.68753,35.22336],[128.6848,35.22488],[128.68424,35.2252],[128.67728,35.22923],[128.67316,35.23185],[128.67959,35.23922],[128.68187,35.24183],[128.68215,35.24184],[128.68551,35.23946],[128.69166,35.23553],[128.69189,35.23532],[128.69197,35.23522],[128.69208,35.2351],[128.69296,35.23395],[128.69388,35.23274]]]]}},{"type":"Feature","properties":{"code":"48123510","name":"반송동","parent":"48123"},"geometry":{"type":"MultiPolygon","coordinates":[[[[128.67959,35.23922],[128.67316,35.23185],[128.67289,35.23182],[128.67156,35.2325],[128.65974,35.23841],[128.65947,35.23853],[128.65867,35.23886],[128.65424,35.24067],[128.65218,35.2415],[128.65252,35.24172],[128.65286,35.2419],[128.65308,35.24202],[128.65332,35.24214],[128.65425,35.24258],[128.65427,35.24259],[128.65517,35.243],[128.65532,35.24307],[128.65569,35.24323],[128.65608,35.24337],[128.65636,35.24346],[128.6584,35.24399],[128.65847,35.24401],[128.66013,35.24444],[128.66388,35.2454],[128.66507,35.24571],[128.66552,35.24578],[128.66575,35.24581],[128.66598,35.24582],[128.66603,35.24582],[128.6664,35.24582],[128.66939,35.2458],[128.66963,35.24575],[128.67005,35.24563],[128.67148,35.24517],[128.67196,35.24501],[128.67257,35.24481],[128.67293,35.24468],[128.67293,35.24407],[128.67229,35.24363],[128.67204,35.24374],[128.672,35.24374],[128.67193,35.24365],[128.67183,35.24347],[128.67169,35.24304],[128.67161,35.24274],[128.67147,35.24201],[128.67141,35.24147],[128.67147,35.2414],[128.67158,35.24132],[128.67224,35.24105],[128.67234,35.24102],[128.67338,35.24089],[128.67347,35.24088],[128.67529,35.24079],[128.67537,35.24078],[128.67686,35.24077],[128.67726,35.24077],[128.67733,35.24077],[128.67741,35.24079],[128.67831,35.24035],[128.67959,35.23922]]]]}},{"type":"Feature","properties":{"code":"48123520","name":"중앙동","parent":"48123"},"geometry":{"type":"MultiPolygon","coordinates":[[[[128.68424,35.2252],[128.68386,35.22476],[128.68363,35.2245],[128.68347,35.22431],[128.68258,35.22326],[128.68246,35.22313],[128.68175,35.2223],[128.68173,35.22227],[128.68132,35.22179],[128.68055,35.22088],[128.68017,35.22042],[128.67918,35.21925],[128.67954,35.21904],[128.68099,35.21821],[128.68205,35.21761],[128.68219,35.21753],[128.68223,35.2175],[128.68225,35.21738],[128.68225,35.21725],[128.68225,35.21717],[128.68224,35.2166],[128.68223,35.21629],[128.68219,35.21603],[128.68211,35.21571],[128.68204,35.21548],[128.68199,35.21534],[128.68138,35.21379],[128.6812,35.21333],[128.68113,35.21307],[128.68113,35.21295],[128.68113,35.21281],[128.68114,35.21261],[128.68118,35.21221],[128.68126,35.21149],[128.68175,35.21121],[128.68203,35.21104],[128.68336,35.2103],[128.68377,35.21007],[128.68329,35.2095],[128.68319,35.20939],[128.68296,35.20912],[128.6814,35.2073],[128.68071,35.2065],[128.67974,35.20537],[128.66699,35.21283],[128.66296,35.21513],[128.65749,35.21827],[128.65721,35.21839],[128.6569,35.21853],[128.6562,35.2188],[128.65548,35.21903],[128.65499,35.21915],[128.65438,35.21923],[128.6513,35.21964],[128.65287,35.22145],[128.65791,35.22738],[128.6586,35.22842],[128.65917,35.22925],[128.65925,35.22936],[128.65943,35.22927],[128.66249,35.22782],[128.66279,35.22789],[128.66504,35.22897],[128.66577,35.22932],[128.66926,35.22974],[128.66988,35.22939],[128.67088,35.22922],[128.67112,35.22945],[128.67296,35.23163],[128.67293,35.23172],[128.67289,35.23182],[128.67316,35.23185],[128.67728,35.22923],[128.68424,35.2252]]]]}},{"type":"Feature","properties":{"code":"48123530","name":"상남동","parent":"48123"},"geometry":{"type":"MultiPolygon","coordinates":[[[[128.69173,35.2203],[128.69567,35.21497],[128.69458,35.21419],[128.69439,35.2141],[128.6942,35.21401],[128.69386,35.21392],[128.69097,35.21336],[128.69074,35.21334],[128.69052,35.21333],[128.68553,35.21327],[128.68439,35.21332],[128.68251,35.2136],[128.68138,35.21379],[128.68199,35.21534],[128.68204,35.21548],[128.68211,35.21571],[128.68219,35.21603],[128.68223,35.21629],[128.68224,35.2166],[128.68225,35.21717],[128.68225,35.21725],[128.68225,35.21738],[128.68223,35.2175],[128.68219,35.21753],[128.68205,35.21761],[128.68099,35.21821],[128.67954,35.21904],[128.67918,35.21925],[128.68017,35.22042],[128.68055,35.22088],[128.68132,35.22179],[128.68173,35.22227],[128.68175,35.2223],[128.68246,35.22313],[128.68258,35.22326],[128.68347,35.22431],[128.68363,35.2245],[128.68386,35.22476],[128.68424,35.2252],[128.6848,35.22488],[128.68753,35.22336],[128.68782,35.2232],[128.68848,35.22284],[128.68896,35.22255],[128.6893,35.22234],[128.68953,35.22214],[128.68974,35.22197],[128.69101,35.2209],[128.69173,35.2203]]]]}},{"type":"Feature","properties":{"code":"48123540","name":"사파동","parent":"48123"},"geometry":{"type":"MultiPolygon","coordinates":[[[[128.72353,35.23356],[128.72365,35.233],[128.72356,35.23133],[128.72336,35.22967],[128.72257,35.2282],[128.72222,35.22761],[128.72183,35.22707],[128.72048,35.22608],[128.7211,35.22309],[128.72237,35.22047],[128.72218,35.21955],[128.72211,35.2189],[128.72267,35.21766],[128.72286,35.21738],[128.72184,35.2167],[128.72098,35.21465],[128.72008,35.21253],[128.72099,35.21174],[128.71838,35.20748],[128.71485,35.20587],[128.71442,35.20568],[128.71421,35.20519],[128.71437,35.20438],[128.71408,35.20322],[128.7127,35.20284],[128.7115,35.2043],[128.70605,35.20314],[128.70533,35.20299],[128.70536,35.20303],[128.70618,35.20402],[128.70634,35.20422],[128.70643,35.20435],[128.70655,35.20456],[128.70664,35.20473],[128.70673,35.20494],[128.70678,35.2051],[128.70683,35.20525],[128.70689,35.2055],[128.70692,35.20568],[128.70694,35.20598],[128.70662,35.20749],[128.70648,35.20815],[128.70485,35.21405],[128.70474,35.21443],[128.7047,35.21458],[128.70464,35.2148],[128.70449,35.21525],[128.70448,35.21528],[128.70416,35.21571],[128.70351,35.21653],[128.70244,35.21622],[128.70096,35.21664],[128.70037,35.21681],[128.69951,35.2169],[128.69871,35.21647],[128.69875,35.21621],[128.69888,35.21605],[128.69902,35.21407],[128.69876,35.21405],[128.69634,35.21383],[128.69567,35.21497],[128.69173,35.2203],[128.693,35.22174],[128.69763,35.2268],[128.69539,35.23072],[128.69519,35.23102],[128.69504,35.23122],[128.69494,35.23135],[128.6947,35.23168],[128.69418,35.23236],[128.69391,35.23271],[128.69388,35.23274],[128.69649,35.23425],[128.69717,35.23426],[128.69914,35.23369],[128.7031,35.23333],[128.70363,35.23332],[128.70437,35.2335],[128.70479,35.23376],[128.70536,35.23411],[128.70546,35.23417],[128.70618,35.23485],[128.70888,35.2345],[128.71185,35.23385],[128.7139,35.23273],[128.71488,35.23245],[128.71886,35.23235],[128.7194,35.23235],[128.7211,35.23251],[128.72149,35.23256],[128.72175,35.2326],[128.72215,35.23269],[128.7224,35.23276],[128.72282,35.23289],[128.72297,35.23295],[128.72309,35.23301],[128.72322,35.23313],[128.72331,35.23323],[128.72343,35.23341],[128.72353,35.23356]]]]}},{"type":"Feature","properties":{"code":"48123550","name":"가음정동","parent":"48123"},"geometry":{"type":"MultiPolygon","coordinates":[[[[128.70533,35.20299],[128.70233,35.19945],[128.70159,35.19986],[128.69735,35.20229],[128.69549,35.20335],[128.69503,35.20362],[128.69453,35.2039],[128.69345,35.20452],[128.69186,35.20544],[128.69119,35.20466],[128.68786,35.20071],[128.68498,35.20233],[128.68,35.20514],[128.67974,35.20537],[128.68071,35.2065],[128.6814,35.2073],[128.68296,35.20912],[128.68319,35.20939],[128.68329,35.2095],[128.68377,35.21007],[128.68336,35.2103],[128.68203,35.21104],[128.68175,35.21121],[128.68126,35.21149],[128.68118,35.21221],[128.68114,35.21261],[128.68113,35.21281],[128.68113,35.21295],[128.68113,35.21307],[128.6812,35.21333],[128.68138,35.21379],[128.68251,35.2136],[128.68439,35.21332],[128.68553,35.21327],[128.69052,35.21333],[128.69074,35.21334],[128.69097,35.21336],[128.69386,35.21392],[128.6942,35.21401],[128.69439,35.2141],[128.69458,35.21419],[128.69567,35.21497],[128.69634,35.21383],[128.69876,35.21405],[128.69902,35.21407],[128.69888,35.21605],[128.69875,35.21621],[128.69871,35.21647],[128.69951,35.2169],[128.70037,35.21681],[128.70096,35.21664],[128.70244,35.21622],[128.70351,35.21653],[128.70416,35.21571],[128.70448,35.21528],[128.70449,35.21525],[128.70464,35.2148],[128.7047,35.21458],[128.70474,35.21443],[128.70485,35.21405],[128.70648,35.20815],[128.70662,35.20749],[128.70694,35.20598],[128.70692,35.20568],[128.70689,35.2055],[128.70683,35.20525],[128.70678,35.2051],[128.70673,35.20494],[128.70664,35.20473],[128.70655,35.20456],[128.70643,35.20435],[128.70634,35.20422],[128.70618,35.20402],[128.70536,35.20303],[128.70533,35.20299]]]]}},{"type":"Feature","properties":{"code":"48123560","name":"성주동","parent":"48123"},"geometry":{"type":"MultiPolygon","coordinates":[[[[128.75145,35.20123],[128.75131,35.2002],[128.75235,35.19767],[128.75203,35.19468],[128.75018,35.19415],[128.74756,35.19211],[128.74745,35.19106],[128.74679,35.18862],[128.74625,35.18734],[128.74504,35.18552],[128.74453,35.18451],[128.74406,35.1804],[128.74322,35.17475],[128.74246,35.1736],[128.74191,35.17304],[128.74172,35.17222],[128.7414,35.1705],[128.74136,35.16811],[128.74119,35.16701],[128.74136,35.1664],[128.74138,35.16633],[128.74138,35.16616],[128.74135,35.16439],[128.74124,35.16328],[128.74119,35.16299],[128.73973,35.15911],[128.73841,35.15669],[128.73809,35.15689],[128.73777,35.15709],[128.73739,35.15728],[128.73721,35.15735],[128.73697,35.15741],[128.73674,35.15744],[128.73633,35.15743],[128.7361,35.15741],[128.73583,35.1574],[128.73529,35.15747],[128.73286,35.15792],[128.73007,35.15879],[128.72993,35.15884],[128.72563,35.16076],[128.72165,35.16263],[128.71955,35.16311],[128.71769,35.16349],[128.71755,35.16354],[128.71683,35.16385],[128.71666,35.16393],[128.71442,35.16536],[128.71341,35.16616],[128.71327,35.16632],[128.71304,35.16647],[128.71297,35.16651],[128.71219,35.16686],[128.71209,35.1669],[128.70748,35.16775],[128.70653,35.16746],[128.70638,35.16744],[128.70618,35.16744],[128.70328,35.16776],[128.70307,35.1678],[128.70298,35.16784],[128.70289,35.16788],[128.70218,35.16826],[128.70115,35.1687],[128.70105,35.16873],[128.7009,35.16875],[128.7005,35.16878],[128.69856,35.16874],[128.69466,35.16883],[128.68985,35.16979],[128.68604,35.17168],[128.68536,35.17195],[128.68524,35.17198],[128.68068,35.173],[128.68054,35.17301],[128.68031,35.17301],[128.68018,35.17299],[128.67964,35.17294],[128.67618,35.17494],[128.67485,35.17553],[128.67675,35.17799],[128.67832,35.18184],[128.67988,35.18481],[128.68242,35.1874],[128.68555,35.1905],[128.68607,35.19122],[128.68172,35.19343],[128.68164,35.19347],[128.68408,35.19631],[128.68786,35.20071],[128.69119,35.20466],[128.69186,35.20544],[128.69345,35.20452],[128.69453,35.2039],[128.69503,35.20362],[128.69549,35.20335],[128.69735,35.20229],[128.70159,35.19986],[128.70233,35.19945],[128.70533,35.20299],[128.70605,35.20314],[128.7115,35.2043],[128.7127,35.20284],[128.71408,35.20322],[128.71437,35.20438],[128.71421,35.20519],[128.71442,35.20568],[128.71485,35.20587],[128.71838,35.20748],[128.72099,35.21174],[128.72008,35.21253],[128.72098,35.21465],[128.72184,35.2167],[128.72286,35.21738],[128.7231,35.217],[128.72366,35.2156],[128.72442,35.21331],[128.72467,35.21204],[128.7248,35.21147],[128.72539,35.21065],[128.72912,35.20655],[128.7295,35.20622],[128.72975,35.206],[128.7303,35.2058],[128.73165,35.20543],[128.73205,35.20529],[128.73653,35.20452],[128.73677,35.20455],[128.73863,35.20493],[128.74058,35.20528],[128.74427,35.20589],[128.74522,35.20574],[128.74553,35.20564],[128.74551,35.20545],[128.74535,35.20498],[128.74531,35.20479],[128.74538,35.20469],[128.74561,35.20447],[128.74667,35.20346],[128.74799,35.20235],[128.74972,35.20171],[128.75145,35.20123]]]]}},{"type":"Feature","properties":{"code":"48123570","name":"웅남동","parent":"48123"},"geometry":{"type":"MultiPolygon","coordinates":[[[[128.6513,35.21964],[128.65438,35.21923],[128.65499,35.21915],[128.65548,35.21903],[128.6562,35.2188],[128.6569,35.21853],[128.65721,35.21839],[128.65749,35.21827],[128.66296,35.21513],[128.66699,35.21283],[128.67974,35.20537],[128.68,35.20514],[128.68498,35.20233],[128.68786,35.20071],[128.68408,35.19631],[128.68164,35.19347],[128.68172,35.19343],[128.68607,35.19122],[128.68555,35.1905],[128.68242,35.1874],[128.67988,35.18481],[128.67832,35.18184],[128.67675,35.17799],[128.67485,35.17553],[128.67399,35.176],[128.67144,35.17594],[128.67007,35.17667],[128.66696,35.17825],[128.66607,35.17868],[128.66309,35.18005],[128.66298,35.18007],[128.6629,35.18007],[128.66281,35.18007],[128.66039,35.17975],[128.65849,35.18025],[128.65823,35.18032],[128.65801,35.18034],[128.65787,35.18033],[128.6577,35.18029],[128.6575,35.18024],[128.65668,35.17997],[128.65662,35.17994],[128.65373,35.1787],[128.65139,35.17733],[128.64892,35.17585],[128.64799,35.17566],[128.64745,35.17555],[128.64013,35.17509],[128.63966,35.17557],[128.63931,35.17589],[128.63865,35.17643],[128.63839,35.17662],[128.63811,35.17678],[128.638,35.17677],[128.63764,35.1765],[128.63694,35.17592],[128.63669,35.17566],[128.63541,35.17415],[128.63421,35.17227],[128.63184,35.17065],[128.63164,35.17058],[128.6295,35.16941],[128.62943,35.16936],[128.62931,35.16928],[128.62924,35.1692],[128.6291,35.16905],[128.62898,35.16884],[128.62751,35.16619],[128.6274,35.1659],[128.62726,35.16547],[128.6272,35.16523],[128.62719,35.16487],[128.62521,35.16204],[128.62406,35.16151],[128.62215,35.16039],[128.62191,35.16023],[128.62073,35.15931],[128.62037,35.159],[128.62011,35.15877],[128.62003,35.15869],[128.61995,35.15857],[128.61987,35.15835],[128.61982,35.15814],[128.61976,35.15752],[128.61969,35.15685],[128.61718,35.15414],[128.61509,35.15184],[128.6151,35.15159],[128.61503,35.15051],[128.61493,35.14991],[128.61487,35.14966],[128.61477,35.14956],[128.61461,35.14944],[128.61383,35.14901],[128.61329,35.14875],[128.61279,35.14858],[128.61163,35.14823],[128.61101,35.14865],[128.60982,35.15078],[128.60979,35.15085],[128.60917,35.15237],[128.60913,35.15247],[128.60912,35.1526],[128.60853,35.15802],[128.60943,35.15989],[128.61093,35.16275],[128.61095,35.16279],[128.61095,35.16282],[128.61094,35.16327],[128.61083,35.16337],[128.61068,35.16346],[128.61032,35.16357],[128.6089,35.16395],[128.60859,35.16397],[128.60854,35.16396],[128.60837,35.16393],[128.60812,35.16382],[128.60808,35.16379],[128.60797,35.16363],[128.60792,35.16357],[128.60791,35.16353],[128.60792,35.16339],[128.60794,35.16325],[128.60798,35.16306],[128.60785,35.16222],[128.60668,35.16108],[128.60664,35.16104],[128.60631,35.16079],[128.60588,35.16049],[128.60584,35.16046],[128.60573,35.1604],[128.60569,35.16038],[128.60564,35.16037],[128.60561,35.16037],[128.60557,35.16037],[128.60537,35.16037],[128.60528,35.16038],[128.6052,35.1604],[128.6051,35.16043],[128.6049,35.16049],[128.60484,35.16051],[128.6014,35.16286],[128.60128,35.16295],[128.59884,35.16493],[128.59913,35.16578],[128.59917,35.16578],[128.59925,35.1658],[128.59939,35.16588],[128.60042,35.1666],[128.60048,35.16665],[128.60055,35.16673],[128.60059,35.16677],[128.60061,35.16683],[128.60064,35.1669],[128.60065,35.16697],[128.60076,35.16758],[128.60076,35.16762],[128.60075,35.16773],[128.60067,35.16799],[128.60062,35.1681],[128.60059,35.16816],[128.60052,35.16824],[128.60045,35.16833],[128.59999,35.16871],[128.59949,35.16911],[128.59935,35.16922],[128.59924,35.1693],[128.59911,35.16937],[128.59894,35.16944],[128.59882,35.16948],[128.59867,35.16951],[128.59852,35.16952],[128.59839,35.16951],[128.59831,35.1695],[128.59818,35.16946],[128.59812,35.16944],[128.59815,35.1694],[128.59831,35.16922],[128.59815,35.1691],[128.59737,35.16952],[128.59407,35.1719],[128.59303,35.17334],[128.59242,35.17471],[128.59119,35.17826],[128.59119,35.17848],[128.59127,35.17866],[128.59137,35.17889],[128.59165,35.17906],[128.59181,35.17916],[128.59234,35.17915],[128.59257,35.18385],[128.59264,35.18747],[128.59221,35.19129],[128.59131,35.19328],[128.5908,35.19424],[128.59061,35.1946],[128.58991,35.19525],[128.58923,35.19963],[128.59353,35.20232],[128.60054,35.20669],[128.60739,35.21141],[128.60787,35.21174],[128.60862,35.21217],[128.61146,35.21235],[128.6124,35.21231],[128.6143,35.21193],[128.61593,35.21147],[128.61693,35.21151],[128.6178,35.21164],[128.62012,35.21199],[128.62012,35.21215],[128.61951,35.21251],[128.62226,35.2131],[128.6244,35.21364],[128.62565,35.2146],[128.6262,35.21502],[128.62662,35.21533],[128.6294,35.21744],[128.63065,35.21781],[128.63415,35.21883],[128.63873,35.21891],[128.64326,35.2199],[128.64427,35.22013],[128.64513,35.22011],[128.6513,35.21964]]]]}}]}