{"type":"FeatureCollection","features":[{"type":"Feature","properties":{"code":"27200515","name":"이천동","parent":"27200"},"geometry":{"type":"MultiPolygon","coordinates":[[[[128.60245,35.85527],[128.60847,35.85495],[128.60852,35.85435],[128.60734,35.84937],[128.60717,35.84893],[128.60698,35.84844],[128.6071,35.84659],[128.6072,35.84626],[128.60728,35.84598],[128.60735,35.84575],[128.60747,35.84505],[128.60647,35.84503],[128.60491,35.84588],[128.60067,35.84717],[128.60062,35.8472],[128.60021,35.84785],[128.59961,35.84882],[128.59578,35.84987],[128.59387,35.85461],[128.59472,35.85657],[128.59589,35.85646],[128.59596,35.85645],[128.59663,35.85635],[128.5969,35.85629],[128.59693,35.85628],[128.59707,35.85624],[128.5975,35.85605],[128.59764,35.85596],[128.59787,35.85582],[128.59791,35.8558],[128.5982,35.85565],[128.5984,35.85556],[128.59854,35.8555],[128.59875,35.85549],[128.60004,35.85541],[128.60245,35.85527]]]]}},{"type":"Feature","properties":{"code":"27200530","name":"봉덕1동","parent":"27200"},"geometry":{"type":"MultiPolygon","coordinates":[[[[128.60647,35.84503],[128.60667,35.84381],[128.60446,35.8434],[128.60095,35.84467],[128.59832,35.84485],[128.59053,35.84532],[128.59056,35.8478],[128.59245,35.84776],[128.59327,35.84781],[128.59486,35.84791],[128.59497,35.84797],[128.59517,35.84825],[128.59582,35.84954],[128.59582,35.8496],[128.59578,35.84987],[128.59961,35.84882],[128.60021,35.84785],[128.60062,35.8472],[128.60067,35.84717],[128.60491,35.84588],[128.60647,35.84503]]]]}},{"type":"Feature","properties":{"code":"27200540","name":"봉덕2동","parent":"27200"},"geometry":{"type":"MultiPolygon","coordinates":[[[[128.60667,35.84381],[128.60769,35.84389],[128.6077,35.84327],[128.60773,35.84245],[128.60773,35.84224],[128.60727,35.83983],[128.60718,35.83961],[128.60684,35.8391],[128.60678,35.83882],[128.60676,35.83872],[128.60635,35.83678],[128.60623,35.83622],[128.60605,35.83537],[128.60643,35.83268],[128.60652,35.8323],[128.60663,35.83178],[128.60686,35.83127],[128.60697,35.83102],[128.60741,35.83011],[128.60775,35.82883],[128.60798,35.82772],[128.60765,35.82759],[128.60746,35.82751],[128.60643,35.82855],[128.60561,35.8295],[128.60516,35.82723],[128.60519,35.82613],[128.60516,35.8256],[128.60515,35.82541],[128.60511,35.82459],[128.6046,35.82318],[128.60352,35.82035],[128.60312,35.81933],[128.60109,35.81527],[128.60062,35.81489],[128.59883,35.8144],[128.59856,35.81437],[128.59804,35.81432],[128.59717,35.81419],[128.59477,35.81343],[128.59383,35.81306],[128.5921,35.81157],[128.59089,35.81006],[128.59079,35.80993],[128.59071,35.80977],[128.59065,35.80964],[128.59008,35.80917],[128.58841,35.80817],[128.58801,35.80801],[128.58757,35.80789],[128.58623,35.80762],[128.58562,35.80771],[128.58404,35.81086],[128.58398,35.81111],[128.58399,35.81141],[128.58404,35.81155],[128.58723,35.8154],[128.59014,35.81905],[128.5929,35.82274],[128.59337,35.82329],[128.59519,35.82483],[128.59701,35.82597],[128.59741,35.82628],[128.5979,35.82704],[128.59922,35.82925],[128.60188,35.83399],[128.60012,35.84067],[128.60018,35.84074],[128.60031,35.84094],[128.60065,35.8418],[128.60072,35.84233],[128.60083,35.84344],[128.60095,35.84467],[128.60446,35.8434],[128.60667,35.84381]]]]}},{"type":"Feature","properties":{"code":"27200550","name":"봉덕3동","parent":"27200"},"geometry":{"type":"MultiPolygon","coordinates":[[[[128.60095,35.84467],[128.60083,35.84344],[128.60072,35.84233],[128.60065,35.8418],[128.60031,35.84094],[128.60018,35.84074],[128.60012,35.84067],[128.60188,35.83399],[128.59922,35.82925],[128.5979,35.82704],[128.59741,35.82628],[128.59701,35.82597],[128.59519,35.82483],[128.59337,35.82329],[128.5929,35.82274],[128.59014,35.81905],[128.58723,35.8154],[128.58404,35.81155],[128.58399,35.81141],[128.58398,35.81111],[128.58404,35.81086],[128.58291,35.81248],[128.58323,35.81387],[128.58403,35.81588],[128.58536,35.8188],[128.58618,35.82177],[128.58632,35.82277],[128.58638,35.82288],[128.58669,35.82338],[128.58675,35.82347],[128.58738,35.82405],[128.58817,35.82469],[128.58834,35.82491],[128.58844,35.82507],[128.58985,35.82775],[128.58986,35.82782],[128.58987,35.82792],[128.58929,35.83011],[128.58897,35.83121],[128.58884,35.83163],[128.58862,35.83198],[128.58812,35.83275],[128.58767,35.83342],[128.58725,35.83363],[128.58686,35.83377],[128.58614,35.83461],[128.58602,35.83476],[128.58527,35.83671],[128.58499,35.83803],[128.58498,35.83859],[128.58496,35.83963],[128.58494,35.83966],[128.5845,35.84009],[128.5839,35.84065],[128.58342,35.84109],[128.58281,35.84162],[128.58379,35.84152],[128.58824,35.84134],[128.58877,35.84133],[128.59094,35.84131],[128.59104,35.84138],[128.59109,35.84141],[128.59107,35.84243],[128.59085,35.84241],[128.59051,35.84249],[128.5905,35.84261],[128.5905,35.84289],[128.59053,35.84532],[128.59832,35.84485],[128.60095,35.84467]]]]}},{"type":"Feature","properties":{"code":"27200560","name":"대명1동","parent":"27200"},"geometry":{"type":"MultiPolygon","coordinates":[[[[128.58009,35.84675],[128.58007,35.8459],[128.58006,35.84532],[128.58003,35.84397],[128.57997,35.84073],[128.58039,35.8405],[128.57676,35.83908],[128.57051,35.84331],[128.56981,35.84405],[128.57234,35.84547],[128.57268,35.84517],[128.57605,35.84505],[128.57828,35.84592],[128.57851,35.84678],[128.58009,35.84675]]]]}},{"type":"Feature","properties":{"code":"27200571","name":"대명2동","parent":"27200"},"geometry":{"type":"MultiPolygon","coordinates":[[[[128.59467,35.85658],[128.59472,35.85657],[128.59387,35.85461],[128.59578,35.84987],[128.59582,35.8496],[128.59582,35.84954],[128.59517,35.84825],[128.59497,35.84797],[128.59486,35.84791],[128.59327,35.84781],[128.59245,35.84776],[128.59056,35.8478],[128.59056,35.84796],[128.59056,35.84813],[128.59056,35.84877],[128.59056,35.84885],[128.59055,35.84897],[128.58972,35.84962],[128.58901,35.8495],[128.58745,35.8492],[128.58349,35.84759],[128.58344,35.84771],[128.58313,35.84865],[128.58297,35.84932],[128.58292,35.84979],[128.58315,35.84974],[128.58333,35.84971],[128.58344,35.84969],[128.58348,35.84973],[128.5836,35.84991],[128.58393,35.85042],[128.5847,35.85166],[128.58483,35.85189],[128.58473,35.85271],[128.58456,35.85407],[128.58423,35.85643],[128.58779,35.85675],[128.59467,35.85658]]]]}},{"type":"Feature","properties":{"code":"27200586","name":"대명3동","parent":"27200"},"geometry":{"type":"MultiPolygon","coordinates":[[[[128.58286,35.85633],[128.58423,35.85643],[128.58456,35.85407],[128.58473,35.85271],[128.58483,35.85189],[128.5847,35.85166],[128.58393,35.85042],[128.5836,35.84991],[128.58348,35.84973],[128.58344,35.84969],[128.58333,35.84971],[128.58315,35.84974],[128.58292,35.84979],[128.58297,35.84932],[128.58313,35.84865],[128.58344,35.84771],[128.58349,35.84759],[128.58009,35.84675],[128.57851,35.84678],[128.57916,35.8476],[128.57802,35.84978],[128.578,35.84981],[128.57795,35.84989],[128.57726,35.85096],[128.57462,35.85111],[128.57362,35.85116],[128.57458,35.86006],[128.58286,35.85633]]]]}},{"type":"Feature","properties":{"code":"27200590","name":"대명4동","parent":"27200"},"geometry":{"type":"MultiPolygon","coordinates":[[[[128.57851,35.84678],[128.57828,35.84592],[128.57605,35.84505],[128.57268,35.84517],[128.57234,35.84547],[128.56981,35.84405],[128.5689,35.84306],[128.56826,35.84272],[128.5669,35.84267],[128.56455,35.84241],[128.56091,35.84199],[128.5619,35.84325],[128.56203,35.84341],[128.56212,35.84353],[128.56472,35.84558],[128.56529,35.84601],[128.56552,35.84616],[128.56585,35.84637],[128.5669,35.84702],[128.57136,35.84976],[128.57212,35.85023],[128.5734,35.85099],[128.57362,35.85116],[128.57462,35.85111],[128.57726,35.85096],[128.57795,35.84989],[128.578,35.84981],[128.57802,35.84978],[128.57916,35.8476],[128.57851,35.84678]]]]}},{"type":"Feature","properties":{"code":"27200600","name":"대명5동","parent":"27200"},"geometry":{"type":"MultiPolygon","coordinates":[[[[128.59056,35.8478],[128.59053,35.84532],[128.5905,35.84289],[128.5905,35.84261],[128.59051,35.84249],[128.59085,35.84241],[128.59107,35.84243],[128.59109,35.84141],[128.59104,35.84138],[128.59094,35.84131],[128.58877,35.84133],[128.58824,35.84134],[128.58379,35.84152],[128.58281,35.84162],[128.58039,35.8405],[128.57997,35.84073],[128.58003,35.84397],[128.58006,35.84532],[128.58007,35.8459],[128.58009,35.84675],[128.58349,35.84759],[128.58745,35.8492],[128.58901,35.8495],[128.58972,35.84962],[128.59055,35.84897],[128.59056,35.84885],[128.59056,35.84877],[128.59056,35.84813],[128.59056,35.84796],[128.59056,35.8478]]]]}},{"type":"Feature","properties":{"code":"27200610","name":"대명6동","parent":"27200"},"geometry":{"type":"MultiPolygon","coordinates":[[[[128.57141,35.8394],[128.5714,35.83859],[128.5714,35.83715],[128.57138,35.83241],[128.57138,35.83206],[128.57138,35.83143],[128.57205,35.83104],[128.57274,35.83064],[128.5732,35.83057],[128.57359,35.83036],[128.57461,35.82863],[128.57569,35.82638],[128.57782,35.82055],[128.57805,35.81976],[128.57811,35.81916],[128.57798,35.81862],[128.5774,35.81813],[128.57651,35.81729],[128.57553,35.81739],[128.57196,35.8189],[128.57114,35.81947],[128.57123,35.82052],[128.57106,35.82159],[128.5705,35.82249],[128.56824,35.82435],[128.56836,35.82635],[128.56837,35.82682],[128.56802,35.82787],[128.56573,35.83163],[128.56494,35.83359],[128.56489,35.83426],[128.56485,35.8349],[128.56282,35.8349],[128.56081,35.83837],[128.56138,35.83851],[128.56474,35.83923],[128.5693,35.83949],[128.56955,35.83951],[128.57014,35.8395],[128.57141,35.8394]]]]}},{"type":"Feature","properties":{"code":"27200640","name":"대명9동","parent":"27200"},"geometry":{"type":"MultiPolygon","coordinates":[[[[128.58323,35.81387],[128.58191,35.81275],[128.58146,35.81172],[128.5809,35.81149],[128.58078,35.81178],[128.58004,35.813],[128.57995,35.81311],[128.5797,35.81331],[128.57947,35.81349],[128.57925,35.81365],[128.57905,35.81383],[128.57886,35.81407],[128.57775,35.81559],[128.57746,35.81616],[128.57741,35.8163],[128.57739,35.81639],[128.57738,35.81643],[128.57737,35.8167],[128.5774,35.81813],[128.57798,35.81862],[128.57811,35.81916],[128.57805,35.81976],[128.57782,35.82055],[128.57569,35.82638],[128.57461,35.82863],[128.57359,35.83036],[128.5732,35.83057],[128.57274,35.83064],[128.57205,35.83104],[128.57138,35.83143],[128.57138,35.83206],[128.57138,35.83241],[128.5714,35.83715],[128.5714,35.83859],[128.57141,35.8394],[128.57676,35.83908],[128.58039,35.8405],[128.58281,35.84162],[128.58342,35.84109],[128.5839,35.84065],[128.5845,35.84009],[128.58494,35.83966],[128.58496,35.83963],[128.58498,35.83859],[128.58499,35.83803],[128.58527,35.83671],[128.58602,35.83476],[128.58614,35.83461],[128.58686,35.83377],[128.58725,35.83363],[128.58767,35.83342],[128.58812,35.83275],[128.58862,35.83198],[128.58884,35.83163],[128.58897,35.83121],[128.58929,35.83011],[128.58987,35.82792],[128.58986,35.82782],[128.58985,35.82775],[128.58844,35.82507],[128.58834,35.82491],[128.58817,35.82469],[128.58738,35.82405],[128.58675,35.82347],[128.58669,35.82338],[128.58638,35.82288],[128.58632,35.82277],[128.58618,35.82177],[128.58536,35.8188],[128.58403,35.81588],[128.58323,35.81387]]]]}},{"type":"Feature","properties":{"code":"27200650","name":"대명10동","parent":"27200"},"geometry":{"type":"MultiPolygon","coordinates":[[[[128.57676,35.83908],[128.57141,35.8394],[128.57014,35.8395],[128.56955,35.83951],[128.5693,35.83949],[128.56474,35.83923],[128.56138,35.83851],[128.56081,35.83837],[128.55746,35.83759],[128.56091,35.84199],[128.56455,35.84241],[128.5669,35.84267],[128.56826,35.84272],[128.5689,35.84306],[128.56981,35.84405],[128.57051,35.84331],[128.57676,35.83908]]]]}},{"type":"Feature","properties":{"code":"27200660","name":"대명11동","parent":"27200"},"geometry":{"type":"MultiPolygon","coordinates":[[[[128.56824,35.82435],[128.56787,35.82426],[128.56732,35.8242],[128.56603,35.82446],[128.56285,35.82616],[128.56169,35.8272],[128.56111,35.82813],[128.56051,35.82933],[128.55798,35.83299],[128.55787,35.8331],[128.55756,35.83338],[128.55749,35.83343],[128.55731,35.83355],[128.55714,35.83365],[128.55691,35.83378],[128.55659,35.83393],[128.55637,35.83402],[128.55614,35.83406],[128.55542,35.83446],[128.55746,35.83759],[128.56081,35.83837],[128.56282,35.8349],[128.56485,35.8349],[128.56489,35.83426],[128.56494,35.83359],[128.56573,35.83163],[128.56802,35.82787],[128.56837,35.82682],[128.56836,35.82635],[128.56824,35.82435]]]]}}]}