{"type":"FeatureCollection","features":[{"type":"Feature","properties":{"code":"11470510","name":"목1동","parent":"11470"},"geometry":{"type":"MultiPolygon","coordinates":[[[[126.88848,37.53072],[126.88761,37.52948],[126.88705,37.52878],[126.88696,37.52866],[126.88659,37.52831],[126.88631,37.52806],[126.88603,37.52793],[126.88535,37.52761],[126.88476,37.5274],[126.88173,37.52632],[126.88137,37.526],[126.88051,37.52523],[126.88049,37.52515],[126.88028,37.52436],[126.87982,37.5222],[126.87445,37.52267],[126.87116,37.52313],[126.86859,37.52396],[126.8654,37.52257],[126.86442,37.52583],[126.86432,37.52621],[126.86421,37.52716],[126.86417,37.52751],[126.86405,37.52924],[126.86401,37.5298],[126.86719,37.53022],[126.87037,37.53063],[126.87393,37.53111],[126.87505,37.53126],[126.87961,37.53176],[126.8806,37.53184],[126.88083,37.53186],[126.88148,37.53189],[126.88253,37.53187],[126.88259,37.53187],[126.88295,37.53184],[126.88374,37.53178],[126.88507,37.53156],[126.88643,37.53132],[126.88651,37.53129],[126.88848,37.53072]]]]}},{"type":"Feature","properties":{"code":"11470520","name":"목2동","parent":"11470"},"geometry":{"type":"MultiPolygon","coordinates":[[[[126.88516,37.54359],[126.88349,37.54401],[126.88189,37.54358],[126.87749,37.5415],[126.87437,37.53914],[126.87267,37.53757],[126.86945,37.53933],[126.86847,37.53979],[126.86793,37.54025],[126.86616,37.54411],[126.86627,37.54449],[126.86633,37.54469],[126.86686,37.54557],[126.86853,37.54722],[126.87005,37.54699],[126.8707,37.54765],[126.87116,37.54749],[126.87177,37.54729],[126.87206,37.54721],[126.87242,37.54711],[126.873,37.54702],[126.87347,37.54697],[126.87402,37.54693],[126.87462,37.54694],[126.87489,37.54695],[126.87495,37.54695],[126.87501,37.54696],[126.87685,37.54706],[126.87737,37.54711],[126.87772,37.54715],[126.87781,37.54717],[126.87789,37.54718],[126.87814,37.54721],[126.87849,37.54731],[126.8794,37.54755],[126.87988,37.54767],[126.88071,37.54787],[126.88325,37.54556],[126.88516,37.54359]]]]}},{"type":"Feature","properties":{"code":"11470530","name":"목3동","parent":"11470"},"geometry":{"type":"MultiPolygon","coordinates":[[[[126.86498,37.55093],[126.8707,37.54765],[126.87005,37.54699],[126.86853,37.54722],[126.86686,37.54557],[126.86633,37.54469],[126.86627,37.54449],[126.86616,37.54411],[126.86793,37.54025],[126.86847,37.53979],[126.86367,37.53928],[126.86294,37.54247],[126.86234,37.5436],[126.86233,37.54364],[126.86229,37.54374],[126.86216,37.54414],[126.86217,37.54448],[126.86219,37.54456],[126.86243,37.54543],[126.86254,37.54585],[126.86293,37.54702],[126.86428,37.55139],[126.86498,37.55093]]]]}},{"type":"Feature","properties":{"code":"11470540","name":"목4동","parent":"11470"},"geometry":{"type":"MultiPolygon","coordinates":[[[[126.87267,37.53757],[126.87254,37.53747],[126.87137,37.5365],[126.87112,37.53628],[126.87097,37.53615],[126.8709,37.53609],[126.87057,37.5358],[126.87024,37.53548],[126.87015,37.53539],[126.87002,37.53518],[126.86991,37.535],[126.86987,37.53494],[126.8679,37.53162],[126.86719,37.53022],[126.86401,37.5298],[126.86349,37.5356],[126.86367,37.53928],[126.86847,37.53979],[126.86945,37.53933],[126.87267,37.53757]]]]}},{"type":"Feature","properties":{"code":"11470560","name":"신월1동","parent":"11470"},"geometry":{"type":"MultiPolygon","coordinates":[[[[126.84049,37.52654],[126.83489,37.52555],[126.83328,37.52837],[126.83304,37.52879],[126.83251,37.52972],[126.83197,37.53051],[126.83156,37.53111],[126.82965,37.5339],[126.82832,37.53575],[126.83517,37.53691],[126.83473,37.53603],[126.84049,37.52654]]]]}},{"type":"Feature","properties":{"code":"11470570","name":"신월2동","parent":"11470"},"geometry":{"type":"MultiPolygon","coordinates":[[[[126.85161,37.52172],[126.84853,37.52252],[126.848,37.52253],[126.8476,37.52248],[126.84729,37.52239],[126.84702,37.52225],[126.84691,37.52215],[126.84681,37.52207],[126.84692,37.52194],[126.8475,37.52156],[126.84866,37.52071],[126.84864,37.51991],[126.84863,37.51977],[126.84855,37.51786],[126.84855,37.51783],[126.84852,37.51725],[126.84851,37.51703],[126.84848,37.51698],[126.84698,37.51752],[126.84658,37.51766],[126.84577,37.51795],[126.84568,37.51799],[126.84444,37.52004],[126.84049,37.52654],[126.8489,37.5279],[126.85168,37.52263],[126.85161,37.52172]]]]}},{"type":"Feature","properties":{"code":"11470580","name":"신월3동","parent":"11470"},"geometry":{"type":"MultiPolygon","coordinates":[[[[126.82832,37.53575],[126.82965,37.5339],[126.83156,37.53111],[126.83197,37.53051],[126.83251,37.52972],[126.83304,37.52879],[126.83328,37.52837],[126.83489,37.52555],[126.82592,37.52408],[126.82645,37.52496],[126.82815,37.5258],[126.82823,37.52621],[126.82881,37.52651],[126.82846,37.5267],[126.82786,37.52818],[126.82814,37.52903],[126.82709,37.5298],[126.82549,37.52982],[126.82474,37.53063],[126.82398,37.53179],[126.82345,37.53254],[126.82351,37.53377],[126.82274,37.53377],[126.82265,37.53419],[126.82182,37.53487],[126.8224,37.53649],[126.82231,37.53792],[126.82196,37.53887],[126.82183,37.53916],[126.82159,37.53972],[126.82215,37.54068],[126.82443,37.54138],[126.8257,37.53984],[126.82707,37.53775],[126.82832,37.53575]]]]}},{"type":"Feature","properties":{"code":"11470590","name":"신월4동","parent":"11470"},"geometry":{"type":"MultiPolygon","coordinates":[[[[126.84444,37.52004],[126.83945,37.51709],[126.83906,37.51797],[126.83847,37.51933],[126.83801,37.52037],[126.83792,37.52056],[126.8379,37.5206],[126.83783,37.52072],[126.83734,37.5216],[126.8372,37.52185],[126.83489,37.52555],[126.84049,37.52654],[126.84444,37.52004]]]]}},{"type":"Feature","properties":{"code":"11470600","name":"신월5동","parent":"11470"},"geometry":{"type":"MultiPolygon","coordinates":[[[[126.82974,37.54767],[126.83035,37.54577],[126.82974,37.54407],[126.83022,37.54268],[126.83005,37.54243],[126.83008,37.54172],[126.83045,37.54175],[126.83069,37.54176],[126.83143,37.54178],[126.83314,37.54184],[126.83328,37.54143],[126.83333,37.54129],[126.83349,37.5408],[126.83378,37.53987],[126.83517,37.53691],[126.82832,37.53575],[126.82707,37.53775],[126.8257,37.53984],[126.82443,37.54138],[126.82541,37.54165],[126.82525,37.54215],[126.82613,37.54281],[126.826,37.54322],[126.82573,37.54394],[126.82593,37.5447],[126.8268,37.54578],[126.82713,37.54639],[126.82755,37.54706],[126.8276,37.54768],[126.82974,37.54767]]]]}},{"type":"Feature","properties":{"code":"11470610","name":"신월6동","parent":"11470"},"geometry":{"type":"MultiPolygon","coordinates":[[[[126.84848,37.51698],[126.84857,37.51599],[126.84622,37.51493],[126.84254,37.51314],[126.84225,37.51307],[126.84145,37.51311],[126.83767,37.51368],[126.83615,37.51445],[126.83556,37.51477],[126.8354,37.51485],[126.83527,37.51497],[126.83493,37.51565],[126.83945,37.51709],[126.84444,37.52004],[126.84568,37.51799],[126.84577,37.51795],[126.84658,37.51766],[126.84698,37.51752],[126.84848,37.51698]]]]}},{"type":"Feature","properties":{"code":"11470611","name":"신월7동","parent":"11470"},"geometry":{"type":"MultiPolygon","coordinates":[[[[126.83945,37.51709],[126.83493,37.51565],[126.83438,37.51544],[126.83378,37.51527],[126.83328,37.51601],[126.83227,37.51631],[126.83153,37.5171],[126.83058,37.51747],[126.82942,37.51759],[126.82727,37.51634],[126.82683,37.5154],[126.82534,37.51484],[126.82605,37.51293],[126.82782,37.51215],[126.82714,37.51135],[126.82667,37.50954],[126.82697,37.50859],[126.82653,37.50875],[126.82627,37.50875],[126.82468,37.50833],[126.82397,37.50906],[126.82385,37.51096],[126.82447,37.51304],[126.82421,37.51435],[126.82332,37.51489],[126.82324,37.51618],[126.82449,37.51772],[126.82556,37.51985],[126.82558,37.52049],[126.82559,37.52197],[126.82522,37.52298],[126.82521,37.52303],[126.82523,37.5231],[126.82525,37.52315],[126.82592,37.52408],[126.83489,37.52555],[126.8372,37.52185],[126.83734,37.5216],[126.83783,37.52072],[126.8379,37.5206],[126.83792,37.52056],[126.83801,37.52037],[126.83847,37.51933],[126.83906,37.51797],[126.83945,37.51709]]]]}},{"type":"Feature","properties":{"code":"11470620","name":"신정1동","parent":"11470"},"geometry":{"type":"MultiPolygon","coordinates":[[[[126.8626,37.51687],[126.85921,37.5157],[126.85916,37.51568],[126.85888,37.51555],[126.85877,37.5154],[126.85877,37.51507],[126.85895,37.51472],[126.85845,37.51454],[126.85749,37.51421],[126.85679,37.51397],[126.85629,37.5138],[126.85594,37.51368],[126.85246,37.52125],[126.85275,37.52116],[126.85292,37.52112],[126.85321,37.52115],[126.85412,37.52125],[126.85548,37.52141],[126.85616,37.52149],[126.85687,37.52158],[126.85826,37.52174],[126.85939,37.52188],[126.86156,37.52213],[126.86195,37.52217],[126.86324,37.52232],[126.8654,37.52257],[126.86603,37.52124],[126.86733,37.51853],[126.86606,37.51808],[126.86521,37.51778],[126.8626,37.51687]]]]}},{"type":"Feature","properties":{"code":"11470630","name":"신정2동","parent":"11470"},"geometry":{"type":"MultiPolygon","coordinates":[[[[126.87982,37.5222],[126.87981,37.52138],[126.87947,37.51677],[126.87846,37.51428],[126.8784,37.5143],[126.87696,37.5146],[126.87176,37.5159],[126.87,37.51849],[126.87004,37.51861],[126.87023,37.51916],[126.87067,37.52101],[126.87105,37.52264],[126.87116,37.52313],[126.87445,37.52267],[126.87982,37.5222]]]]}},{"type":"Feature","properties":{"code":"11470640","name":"신정3동","parent":"11470"},"geometry":{"type":"MultiPolygon","coordinates":[[[[126.85161,37.52172],[126.85246,37.52125],[126.85594,37.51368],[126.85816,37.50995],[126.85609,37.50947],[126.85507,37.50992],[126.85402,37.5103],[126.8529,37.51058],[126.85124,37.51003],[126.84718,37.50879],[126.84529,37.50787],[126.84454,37.50644],[126.84233,37.50489],[126.84062,37.50399],[126.83898,37.5029],[126.83838,37.50147],[126.83836,37.50014],[126.83689,37.50063],[126.83641,37.50065],[126.83646,37.50077],[126.83653,37.50097],[126.83642,37.50246],[126.83617,37.50304],[126.8357,37.50339],[126.83535,37.50348],[126.83434,37.50377],[126.83424,37.50383],[126.83388,37.50408],[126.83264,37.50503],[126.83064,37.50683],[126.83068,37.50757],[126.82697,37.50859],[126.82667,37.50954],[126.82714,37.51135],[126.82782,37.51215],[126.82605,37.51293],[126.82534,37.51484],[126.82683,37.5154],[126.82727,37.51634],[126.82942,37.51759],[126.83058,37.51747],[126.83153,37.5171],[126.83227,37.51631],[126.83328,37.51601],[126.83378,37.51527],[126.83438,37.51544],[126.83493,37.51565],[126.83527,37.51497],[126.8354,37.51485],[126.83556,37.51477],[126.83615,37.51445],[126.83767,37.51368],[126.84145,37.51311],[126.84225,37.51307],[126.84254,37.51314],[126.84622,37.51493],[126.84857,37.51599],[126.84848,37.51698],[126.84851,37.51703],[126.84852,37.51725],[126.84855,37.51783],[126.84855,37.51786],[126.84863,37.51977],[126.84864,37.51991],[126.84866,37.52071],[126.8475,37.52156],[126.84692,37.52194],[126.84681,37.52207],[126.84691,37.52215],[126.84702,37.52225],[126.84729,37.52239],[126.8476,37.52248],[126.848,37.52253],[126.84853,37.52252],[126.85161,37.52172]]]]}},{"type":"Feature","properties":{"code":"11470670","name":"신정6동","parent":"11470"},"geometry":{"type":"MultiPolygon","coordinates":[[[[126.87116,37.52313],[126.87105,37.52264],[126.87067,37.52101],[126.87023,37.51916],[126.87004,37.51861],[126.87,37.51849],[126.87176,37.5159],[126.87696,37.5146],[126.8784,37.5143],[126.87846,37.51428],[126.87348,37.50852],[126.87245,37.50967],[126.87143,37.51081],[126.8714,37.51084],[126.87074,37.51201],[126.87068,37.51212],[126.87034,37.51284],[126.87009,37.51334],[126.86997,37.51359],[126.86992,37.51371],[126.86975,37.51406],[126.86402,37.51207],[126.86401,37.51209],[126.86374,37.51258],[126.86237,37.51506],[126.86318,37.51536],[126.8626,37.51687],[126.86521,37.51778],[126.86606,37.51808],[126.86733,37.51853],[126.86603,37.52124],[126.8654,37.52257],[126.86859,37.52396],[126.87116,37.52313]]]]}},{"type":"Feature","properties":{"code":"11470680","name":"신정7동","parent":"11470"},"geometry":{"type":"MultiPolygon","coordinates":[[[[126.87348,37.50852],[126.87126,37.50563],[126.86964,37.5054],[126.86457,37.50501],[126.86353,37.50497],[126.86339,37.50508],[126.86317,37.50525],[126.86275,37.506],[126.86246,37.50669],[126.86011,37.50669],[126.85968,37.50739],[126.8596,37.50754],[126.85816,37.50995],[126.85594,37.51368],[126.85629,37.5138],[126.85679,37.51397],[126.85749,37.51421],[126.85845,37.51454],[126.85895,37.51472],[126.85877,37.51507],[126.85877,37.5154],[126.85888,37.51555],[126.85916,37.51568],[126.85921,37.5157],[126.8626,37.51687],[126.86318,37.51536],[126.86237,37.51506],[126.86374,37.51258],[126.86401,37.51209],[126.86402,37.51207],[126.86975,37.51406],[126.86992,37.51371],[126.86997,37.51359],[126.87009,37.51334],[126.87034,37.51284],[126.87068,37.51212],[126.87074,37.51201],[126.8714,37.51084],[126.87143,37.51081],[126.87245,37.50967],[126.87348,37.50852]]]]}},{"type":"Feature","properties":{"code":"11470550","name":"목5동","parent":"11470"},"geometry":{"type":"MultiPolygon","coordinates":[[[[126.88516,37.54359],[126.88552,37.54184],[126.88832,37.5368],[126.89025,37.53467],[126.89003,37.53329],[126.8888,37.53283],[126.8888,37.53206],[126.89054,37.5315],[126.89004,37.53038],[126.88848,37.53072],[126.88651,37.53129],[126.88643,37.53132],[126.88507,37.53156],[126.88374,37.53178],[126.88295,37.53184],[126.88259,37.53187],[126.88253,37.53187],[126.88148,37.53189],[126.88083,37.53186],[126.8806,37.53184],[126.87961,37.53176],[126.87505,37.53126],[126.87393,37.53111],[126.87037,37.53063],[126.86719,37.53022],[126.8679,37.53162],[126.86987,37.53494],[126.86991,37.535],[126.87002,37.53518],[126.87015,37.53539],[126.87024,37.53548],[126.87057,37.5358],[126.8709,37.53609],[126.87097,37.53615],[126.87112,37.53628],[126.87137,37.5365],[126.87254,37.53747],[126.87267,37.53757],[126.87437,37.53914],[126.87749,37.5415],[126.88189,37.54358],[126.88349,37.54401],[126.88516,37.54359]]]]}},{"type":"Feature","properties":{"code":"11470650","name":"신정4동","parent":"11470"},"geometry":{"type":"MultiPolygon","coordinates":[[[[126.8654,37.52257],[126.86324,37.52232],[126.86195,37.52217],[126.86156,37.52213],[126.85939,37.52188],[126.85826,37.52174],[126.85687,37.52158],[126.85616,37.52149],[126.85548,37.52141],[126.85412,37.52125],[126.85321,37.52115],[126.85292,37.52112],[126.85275,37.52116],[126.85246,37.52125],[126.85161,37.52172],[126.85168,37.52263],[126.8489,37.5279],[126.85196,37.52828],[126.85849,37.52911],[126.86401,37.5298],[126.86405,37.52924],[126.86417,37.52751],[126.86421,37.52716],[126.86432,37.52621],[126.86442,37.52583],[126.8654,37.52257]]]]}}]}