{"type":"FeatureCollection","features":[{"type":"Feature","properties":{"code":"12840250","name":"장성읍","parent":"12840"},"geometry":{"type":"MultiPolygon","coordinates":[[[[126.86138,35.32123],[126.86158,35.32096],[126.86168,35.32081],[126.86183,35.32057],[126.86196,35.32034],[126.86211,35.32],[126.86215,35.31991],[126.86233,35.31945],[126.86235,35.31938],[126.86226,35.30984],[126.86233,35.30975],[126.86241,35.30965],[126.86248,35.30954],[126.86269,35.30919],[126.86277,35.30905],[126.86294,35.30869],[126.86295,35.30863],[126.86314,35.3077],[126.86336,35.30539],[126.86337,35.30333],[126.86336,35.30267],[126.86335,35.30247],[126.86317,35.30162],[126.86295,35.30097],[126.86273,35.30041],[126.86248,35.30003],[126.86221,35.29967],[126.85678,35.29563],[126.85467,35.29421],[126.85442,35.29404],[126.85431,35.29398],[126.85333,35.29369],[126.84817,35.2922],[126.84793,35.29218],[126.84789,35.29219],[126.84784,35.29221],[126.84348,35.29464],[126.84132,35.29622],[126.84047,35.29718],[126.83756,35.2992],[126.83685,35.29962],[126.83626,35.29982],[126.83343,35.29951],[126.83337,35.29949],[126.83334,35.29946],[126.83332,35.29943],[126.83327,35.29933],[126.83323,35.29922],[126.8332,35.29911],[126.83318,35.29901],[126.83318,35.29892],[126.83319,35.29882],[126.83318,35.29879],[126.83313,35.29873],[126.83302,35.29861],[126.83281,35.29842],[126.83262,35.29827],[126.83252,35.29819],[126.83234,35.29808],[126.83139,35.29754],[126.83132,35.29751],[126.83113,35.29749],[126.83108,35.2975],[126.83098,35.29752],[126.83081,35.2976],[126.8299,35.29807],[126.82983,35.29811],[126.82975,35.29817],[126.82924,35.2986],[126.82775,35.29952],[126.8277,35.29954],[126.82767,35.29955],[126.82733,35.29959],[126.82726,35.2996],[126.82717,35.2996],[126.82532,35.29958],[126.82527,35.29958],[126.82521,35.29956],[126.82511,35.29952],[126.82506,35.29949],[126.82361,35.29847],[126.82351,35.29839],[126.82342,35.29828],[126.82334,35.29816],[126.82332,35.29811],[126.82332,35.29807],[126.8234,35.29798],[126.82347,35.2979],[126.82354,35.29778],[126.82357,35.29773],[126.8236,35.29761],[126.82362,35.29744],[126.82361,35.29728],[126.8236,35.29714],[126.82334,35.29609],[126.82323,35.29563],[126.82297,35.29469],[126.82295,35.29464],[126.82279,35.29434],[126.82229,35.29342],[126.82224,35.29335],[126.81968,35.28988],[126.81792,35.28863],[126.81776,35.2886],[126.81762,35.28855],[126.81657,35.28818],[126.81645,35.28814],[126.81636,35.28809],[126.81626,35.28803],[126.81613,35.28793],[126.81602,35.28784],[126.81593,35.28776],[126.81585,35.28767],[126.8158,35.28759],[126.81575,35.28748],[126.81566,35.28725],[126.81563,35.28716],[126.8142,35.28277],[126.81411,35.28245],[126.81409,35.28236],[126.81409,35.28231],[126.81409,35.28228],[126.81411,35.28221],[126.81414,35.28215],[126.81331,35.27858],[126.81097,35.27624],[126.80554,35.2725],[126.80541,35.27241],[126.80535,35.27239],[126.80283,35.27213],[126.7989,35.27198],[126.7982,35.27198],[126.79773,35.27203],[126.79693,35.27216],[126.7944,35.27264],[126.79289,35.27255],[126.79261,35.27251],[126.79245,35.27248],[126.79231,35.27242],[126.79212,35.27225],[126.79181,35.27189],[126.79169,35.2717],[126.79159,35.27151],[126.79074,35.26969],[126.79071,35.26954],[126.78971,35.26886],[126.787,35.26827],[126.78499,35.26763],[126.78335,35.26865],[126.78156,35.2703],[126.78144,35.27045],[126.78137,35.2706],[126.78128,35.27225],[126.78181,35.27332],[126.78303,35.27479],[126.78317,35.27494],[126.78332,35.27509],[126.78404,35.27575],[126.78423,35.27586],[126.78443,35.27597],[126.78461,35.27609],[126.78467,35.27614],[126.78508,35.27712],[126.78544,35.2782],[126.78547,35.27879],[126.7836,35.28163],[126.78355,35.28169],[126.78351,35.28173],[126.78346,35.28176],[126.78337,35.28179],[126.78332,35.2818],[126.78325,35.2818],[126.7831,35.28179],[126.78298,35.28178],[126.78285,35.28178],[126.78267,35.28178],[126.78263,35.28178],[126.78257,35.28179],[126.78251,35.2818],[126.78245,35.28181],[126.78177,35.28203],[126.78171,35.28205],[126.78167,35.28207],[126.78164,35.28208],[126.78162,35.2821],[126.78052,35.28348],[126.78144,35.28577],[126.78206,35.28641],[126.78209,35.28644],[126.78212,35.28647],[126.78215,35.28649],[126.7822,35.28651],[126.78224,35.28652],[126.78229,35.28653],[126.78233,35.28654],[126.78239,35.28654],[126.78251,35.28654],[126.7826,35.28653],[126.78269,35.2865],[126.78276,35.28648],[126.78282,35.28646],[126.78286,35.28646],[126.78291,35.28646],[126.78299,35.28647],[126.78308,35.28648],[126.78313,35.28649],[126.7842,35.28682],[126.78423,35.28683],[126.78429,35.28687],[126.78434,35.28692],[126.78441,35.28699],[126.78445,35.28706],[126.7845,35.28715],[126.78456,35.28729],[126.78467,35.28759],[126.78493,35.28836],[126.78367,35.28914],[126.78338,35.28928],[126.78311,35.28942],[126.78232,35.28907],[126.77691,35.29093],[126.77675,35.29096],[126.77658,35.29099],[126.77644,35.29101],[126.77635,35.29102],[126.77626,35.29102],[126.77615,35.29101],[126.77585,35.29097],[126.77559,35.29093],[126.77281,35.2923],[126.77324,35.29311],[126.77337,35.29348],[126.77336,35.29363],[126.77334,35.29432],[126.77311,35.29486],[126.7724,35.29638],[126.77229,35.29659],[126.77218,35.29678],[126.77168,35.29757],[126.77074,35.29867],[126.77066,35.29875],[126.77057,35.29881],[126.76995,35.29914],[126.76988,35.29916],[126.7698,35.29917],[126.76975,35.29916],[126.76967,35.29911],[126.76958,35.29905],[126.76953,35.299],[126.76943,35.29887],[126.76933,35.29872],[126.76925,35.29854],[126.76924,35.29848],[126.76922,35.2984],[126.76918,35.29833],[126.7691,35.29827],[126.76901,35.29825],[126.76896,35.29825],[126.76885,35.29824],[126.76865,35.29826],[126.76835,35.29831],[126.76781,35.29841],[126.76734,35.29855],[126.76697,35.29874],[126.76654,35.29906],[126.76647,35.29912],[126.76642,35.2992],[126.76634,35.29931],[126.76623,35.29953],[126.7656,35.30086],[126.7656,35.30092],[126.7656,35.30101],[126.76565,35.30112],[126.76569,35.3012],[126.76571,35.30123],[126.76608,35.30237],[126.76642,35.30339],[126.76662,35.30407],[126.76685,35.30598],[126.76683,35.30612],[126.76681,35.30618],[126.76582,35.30807],[126.76582,35.30826],[126.76585,35.30853],[126.76588,35.30876],[126.76597,35.30914],[126.76601,35.30923],[126.76604,35.30926],[126.76617,35.30935],[126.76625,35.30938],[126.76643,35.30942],[126.76979,35.30959],[126.76984,35.30957],[126.77155,35.30859],[126.77357,35.30733],[126.77487,35.30837],[126.77366,35.31152],[126.77361,35.31167],[126.77351,35.31197],[126.77347,35.31217],[126.77346,35.31229],[126.77347,35.31254],[126.7735,35.31269],[126.77351,35.31273],[126.77552,35.31937],[126.77569,35.31967],[126.7759,35.31995],[126.77615,35.32017],[126.77795,35.32166],[126.77835,35.32198],[126.77909,35.32259],[126.7797,35.32299],[126.78009,35.32318],[126.78016,35.32322],[126.78032,35.32336],[126.78038,35.32345],[126.78043,35.32356],[126.78045,35.32362],[126.78047,35.32372],[126.78047,35.3239],[126.78045,35.32401],[126.7804,35.32422],[126.78029,35.32453],[126.77989,35.32553],[126.77976,35.32584],[126.77952,35.32632],[126.77944,35.32645],[126.77928,35.32663],[126.77913,35.3268],[126.77885,35.32707],[126.77872,35.32718],[126.77844,35.32739],[126.77814,35.32761],[126.77746,35.32805],[126.77681,35.3285],[126.77627,35.32896],[126.77596,35.3293],[126.77476,35.33081],[126.77453,35.33121],[126.77435,35.33153],[126.77398,35.33258],[126.77371,35.33324],[126.7734,35.33381],[126.77305,35.33425],[126.77294,35.33438],[126.77275,35.33454],[126.77241,35.3348],[126.77214,35.33499],[126.77189,35.33514],[126.77176,35.33522],[126.77135,35.33555],[126.77096,35.33591],[126.7708,35.33608],[126.77061,35.33632],[126.77047,35.33652],[126.77032,35.33679],[126.76839,35.3403],[126.76828,35.34061],[126.76825,35.34089],[126.76825,35.3411],[126.76856,35.34655],[126.76859,35.3468],[126.76863,35.34703],[126.76872,35.34728],[126.76881,35.34746],[126.76895,35.34764],[126.769,35.34768],[126.76914,35.34776],[126.76928,35.34782],[126.76944,35.34788],[126.76974,35.34798],[126.77233,35.3487],[126.77245,35.34872],[126.77251,35.34872],[126.77258,35.34869],[126.77436,35.3484],[126.77551,35.34823],[126.77737,35.34845],[126.77757,35.3485],[126.77777,35.34856],[126.77799,35.34871],[126.77813,35.34885],[126.77829,35.34904],[126.77844,35.34931],[126.78132,35.3496],[126.78596,35.34955],[126.78607,35.34955],[126.78617,35.34952],[126.78629,35.34947],[126.78648,35.34936],[126.78705,35.34903],[126.78732,35.34885],[126.78791,35.34841],[126.788,35.34832],[126.78812,35.34815],[126.78827,35.34778],[126.78836,35.34754],[126.78839,35.3475],[126.78845,35.34746],[126.78862,35.34742],[126.78981,35.34722],[126.78991,35.34722],[126.7901,35.34723],[126.79018,35.34725],[126.79028,35.34734],[126.79147,35.34873],[126.79151,35.3488],[126.79192,35.34965],[126.79196,35.34975],[126.79196,35.34987],[126.79168,35.35236],[126.79221,35.35209],[126.7966,35.35028],[126.79669,35.35027],[126.79694,35.35028],[126.79982,35.35065],[126.79991,35.35067],[126.80011,35.35071],[126.80024,35.35076],[126.80044,35.35085],[126.80124,35.35119],[126.80143,35.35128],[126.80153,35.35135],[126.8016,35.35143],[126.80166,35.3515],[126.8017,35.35163],[126.80172,35.35175],[126.80173,35.352],[126.80173,35.3522],[126.80201,35.35336],[126.80273,35.3552],[126.80281,35.35529],[126.80421,35.3562],[126.80537,35.35728],[126.80541,35.35734],[126.80686,35.36393],[126.80685,35.36404],[126.80714,35.36477],[126.80724,35.36495],[126.80864,35.36663],[126.80869,35.36669],[126.80965,35.36733],[126.80976,35.36739],[126.81066,35.36778],[126.8128,35.36867],[126.81301,35.36872],[126.81383,35.36987],[126.81381,35.37003],[126.81391,35.37116],[126.81396,35.37138],[126.81405,35.37181],[126.81421,35.3725],[126.81454,35.37361],[126.81462,35.37379],[126.81465,35.37386],[126.81573,35.37572],[126.81591,35.3794],[126.81616,35.38082],[126.81726,35.38482],[126.81932,35.38714],[126.81942,35.38724],[126.81954,35.38733],[126.82015,35.38762],[126.82032,35.38766],[126.82045,35.38767],[126.8225,35.38784],[126.82293,35.38787],[126.82303,35.38787],[126.82345,35.3878],[126.82355,35.38778],[126.82365,35.38774],[126.82382,35.38766],[126.82486,35.38713],[126.82861,35.38503],[126.82885,35.38487],[126.82895,35.38479],[126.82984,35.38386],[126.82995,35.38372],[126.83011,35.38344],[126.83042,35.38292],[126.83051,35.38273],[126.83077,35.38218],[126.83085,35.38208],[126.83099,35.38197],[126.8322,35.38142],[126.8324,35.38135],[126.83252,35.38133],[126.83267,35.38139],[126.83286,35.38151],[126.83335,35.38186],[126.83642,35.38427],[126.83685,35.38462],[126.83712,35.38487],[126.83774,35.38554],[126.83869,35.38691],[126.83912,35.38755],[126.83939,35.38796],[126.83965,35.38834],[126.83997,35.38879],[126.84052,35.38926],[126.84067,35.38935],[126.84086,35.38944],[126.84096,35.38948],[126.84116,35.38955],[126.84143,35.38961],[126.84162,35.38964],[126.84187,35.38966],[126.84213,35.38967],[126.84292,35.38969],[126.84311,35.38967],[126.8432,35.38963],[126.84338,35.38954],[126.84347,35.38947],[126.84353,35.38941],[126.84361,35.38924],[126.84376,35.38881],[126.84384,35.38855],[126.84385,35.38848],[126.84386,35.38823],[126.84385,35.38813],[126.84381,35.38789],[126.84377,35.3877],[126.84356,35.38669],[126.84334,35.38553],[126.84321,35.38478],[126.84293,35.38314],[126.84281,35.38236],[126.84287,35.38226],[126.84297,35.38221],[126.84485,35.38144],[126.84663,35.38109],[126.84679,35.38104],[126.84693,35.38097],[126.84729,35.38076],[126.84741,35.38068],[126.84747,35.38062],[126.84756,35.38049],[126.84758,35.38041],[126.84758,35.37938],[126.84652,35.37346],[126.84649,35.37341],[126.84623,35.37314],[126.84613,35.37305],[126.84532,35.37234],[126.84513,35.37221],[126.84504,35.37216],[126.84488,35.37209],[126.84473,35.37203],[126.84449,35.37197],[126.84436,35.37193],[126.84424,35.37188],[126.8441,35.37179],[126.84394,35.37165],[126.84278,35.37049],[126.84267,35.37037],[126.84262,35.37025],[126.8426,35.37011],[126.84259,35.36997],[126.84261,35.36986],[126.84385,35.36591],[126.84389,35.36583],[126.84391,35.3658],[126.84394,35.36572],[126.84403,35.36563],[126.84417,35.36551],[126.84579,35.36425],[126.84592,35.36415],[126.84847,35.36244],[126.85014,35.36192],[126.85047,35.36183],[126.85071,35.36179],[126.85097,35.36183],[126.85123,35.36192],[126.85145,35.36205],[126.85163,35.36225],[126.8519,35.36269],[126.85195,35.36274],[126.85217,35.36267],[126.85263,35.36249],[126.85303,35.36225],[126.85491,35.36114],[126.85541,35.36082],[126.85572,35.36055],[126.85678,35.35962],[126.85695,35.35941],[126.85891,35.35558],[126.85891,35.35545],[126.85877,35.35512],[126.85709,35.35122],[126.85722,35.35003],[126.85723,35.34987],[126.85716,35.34922],[126.85714,35.34909],[126.85707,35.34891],[126.85478,35.34398],[126.85471,35.34385],[126.85457,35.34372],[126.85428,35.34355],[126.85409,35.34335],[126.85393,35.34299],[126.85386,35.34269],[126.85381,35.34241],[126.85379,35.3421],[126.85381,35.34184],[126.85383,35.3416],[126.85406,35.33981],[126.85429,35.33649],[126.85434,35.33521],[126.85437,35.33419],[126.85434,35.334],[126.85428,35.33378],[126.85396,35.333],[126.85385,35.33275],[126.8537,35.33254],[126.85269,35.33145],[126.85252,35.33136],[126.85236,35.33131],[126.85055,35.33071],[126.84879,35.33003],[126.84856,35.32992],[126.84846,35.32985],[126.8484,35.32974],[126.84712,35.32686],[126.84703,35.32653],[126.84701,35.32643],[126.84699,35.32625],[126.847,35.32615],[126.84702,35.32595],[126.84708,35.32555],[126.84725,35.32472],[126.84727,35.32467],[126.84735,35.32459],[126.8474,35.32457],[126.84874,35.32401],[126.84892,35.32394],[126.84913,35.32386],[126.84921,35.32383],[126.8535,35.32249],[126.85398,35.32239],[126.85489,35.3222],[126.85599,35.32207],[126.8599,35.32184],[126.86138,35.32123]]]]}},{"type":"Feature","properties":{"code":"12840310","name":"진원면","parent":"12840"},"geometry":{"type":"MultiPolygon","coordinates":[[[[126.85467,35.29421],[126.85479,35.29382],[126.85483,35.29373],[126.85494,35.29356],[126.85516,35.29327],[126.85541,35.29301],[126.85571,35.29275],[126.85688,35.29172],[126.85696,35.29165],[126.85878,35.29056],[126.85934,35.29024],[126.8594,35.29022],[126.85944,35.29021],[126.85962,35.2901],[126.8597,35.29005],[126.85982,35.28997],[126.85984,35.28995],[126.85989,35.28986],[126.85992,35.28981],[126.86031,35.28907],[126.86037,35.28894],[126.86156,35.286],[126.86368,35.28127],[126.8643,35.27999],[126.86431,35.27993],[126.86432,35.27986],[126.86429,35.27976],[126.8642,35.27958],[126.8641,35.27934],[126.86399,35.27892],[126.8639,35.27856],[126.86385,35.2782],[126.86384,35.27811],[126.86385,35.27807],[126.86506,35.27398],[126.86516,35.27377],[126.86526,35.27357],[126.86626,35.27209],[126.86636,35.27194],[126.8668,35.27164],[126.86765,35.27142],[126.86866,35.27101],[126.86897,35.27083],[126.86907,35.27076],[126.86915,35.27067],[126.87339,35.26455],[126.87418,35.26329],[126.87509,35.26162],[126.87659,35.25909],[126.87791,35.25715],[126.87795,35.25712],[126.87803,35.25707],[126.87906,35.25661],[126.87918,35.25657],[126.88002,35.25653],[126.88191,35.25605],[126.88201,35.25601],[126.88209,35.25596],[126.88213,35.25594],[126.88227,35.25585],[126.88235,35.25575],[126.88243,35.25566],[126.88244,35.2554],[126.8817,35.25341],[126.88163,35.25322],[126.88155,35.25306],[126.88084,35.25234],[126.88066,35.2522],[126.87974,35.25161],[126.87955,35.25149],[126.87822,35.25131],[126.87346,35.24936],[126.8721,35.24833],[126.87086,35.24718],[126.87002,35.24626],[126.86998,35.24625],[126.86861,35.24615],[126.86717,35.24621],[126.86637,35.24626],[126.86397,35.24574],[126.86385,35.24571],[126.86327,35.24553],[126.86242,35.24515],[126.8615,35.24411],[126.86107,35.24277],[126.86119,35.24261],[126.86125,35.24254],[126.86114,35.24158],[126.85996,35.24033],[126.85905,35.23984],[126.85883,35.23974],[126.85781,35.23934],[126.85663,35.2389],[126.85403,35.23798],[126.85043,35.23731],[126.84835,35.23567],[126.84661,35.2374],[126.84614,35.23729],[126.84572,35.23719],[126.84541,35.23711],[126.84453,35.2368],[126.84431,35.23672],[126.84488,35.23516],[126.84495,35.2347],[126.84435,35.23439],[126.84396,35.23533],[126.84353,35.23612],[126.84287,35.23701],[126.84222,35.23783],[126.84175,35.2384],[126.84029,35.24002],[126.83702,35.24133],[126.8349,35.24196],[126.83473,35.24195],[126.83466,35.24195],[126.83432,35.24198],[126.83408,35.24204],[126.83383,35.24217],[126.83358,35.24235],[126.83341,35.24256],[126.83312,35.24338],[126.83305,35.24367],[126.83311,35.24398],[126.83322,35.2442],[126.83347,35.24461],[126.83368,35.2449],[126.83447,35.24583],[126.83531,35.24663],[126.83579,35.24699],[126.83636,35.2477],[126.83654,35.24793],[126.8371,35.24889],[126.83728,35.24925],[126.83732,35.24941],[126.83712,35.25089],[126.8358,35.25426],[126.83425,35.25591],[126.83155,35.25705],[126.83034,35.25746],[126.82946,35.25765],[126.82827,35.25804],[126.82218,35.26164],[126.8214,35.26177],[126.82119,35.26174],[126.82105,35.2617],[126.82089,35.26156],[126.81906,35.25636],[126.81675,35.24997],[126.8167,35.24994],[126.81454,35.24916],[126.81433,35.2491],[126.81417,35.24908],[126.81387,35.24909],[126.81374,35.2491],[126.8135,35.24912],[126.81339,35.24913],[126.81224,35.2497],[126.8121,35.24992],[126.81211,35.25021],[126.81201,35.25108],[126.81166,35.25236],[126.81146,35.25306],[126.81129,35.25364],[126.81111,35.25399],[126.80838,35.259],[126.80831,35.25911],[126.80377,35.26608],[126.80334,35.26596],[126.80254,35.2655],[126.80161,35.26503],[126.79995,35.26664],[126.79963,35.268],[126.79825,35.26837],[126.79745,35.26853],[126.79654,35.26861],[126.79579,35.26868],[126.7953,35.26863],[126.79504,35.26865],[126.7949,35.26882],[126.79486,35.26889],[126.7948,35.26907],[126.79444,35.27028],[126.79439,35.27135],[126.7944,35.27194],[126.7944,35.27264],[126.79693,35.27216],[126.79773,35.27203],[126.7982,35.27198],[126.7989,35.27198],[126.80283,35.27213],[126.80535,35.27239],[126.80541,35.27241],[126.80554,35.2725],[126.81097,35.27624],[126.81331,35.27858],[126.81414,35.28215],[126.81411,35.28221],[126.81409,35.28228],[126.81409,35.28231],[126.81409,35.28236],[126.81411,35.28245],[126.8142,35.28277],[126.81563,35.28716],[126.81566,35.28725],[126.81575,35.28748],[126.8158,35.28759],[126.81585,35.28767],[126.81593,35.28776],[126.81602,35.28784],[126.81613,35.28793],[126.81626,35.28803],[126.81636,35.28809],[126.81645,35.28814],[126.81657,35.28818],[126.81762,35.28855],[126.81776,35.2886],[126.81792,35.28863],[126.81968,35.28988],[126.82224,35.29335],[126.82229,35.29342],[126.82279,35.29434],[126.82295,35.29464],[126.82297,35.29469],[126.82323,35.29563],[126.82334,35.29609],[126.8236,35.29714],[126.82361,35.29728],[126.82362,35.29744],[126.8236,35.29761],[126.82357,35.29773],[126.82354,35.29778],[126.82347,35.2979],[126.8234,35.29798],[126.82332,35.29807],[126.82332,35.29811],[126.82334,35.29816],[126.82342,35.29828],[126.82351,35.29839],[126.82361,35.29847],[126.82506,35.29949],[126.82511,35.29952],[126.82521,35.29956],[126.82527,35.29958],[126.82532,35.29958],[126.82717,35.2996],[126.82726,35.2996],[126.82733,35.29959],[126.82767,35.29955],[126.8277,35.29954],[126.82775,35.29952],[126.82924,35.2986],[126.82975,35.29817],[126.82983,35.29811],[126.8299,35.29807],[126.83081,35.2976],[126.83098,35.29752],[126.83108,35.2975],[126.83113,35.29749],[126.83132,35.29751],[126.83139,35.29754],[126.83234,35.29808],[126.83252,35.29819],[126.83262,35.29827],[126.83281,35.29842],[126.83302,35.29861],[126.83313,35.29873],[126.83318,35.29879],[126.83319,35.29882],[126.83318,35.29892],[126.83318,35.29901],[126.8332,35.29911],[126.83323,35.29922],[126.83327,35.29933],[126.83332,35.29943],[126.83334,35.29946],[126.83337,35.29949],[126.83343,35.29951],[126.83626,35.29982],[126.83685,35.29962],[126.83756,35.2992],[126.84047,35.29718],[126.84132,35.29622],[126.84348,35.29464],[126.84784,35.29221],[126.84789,35.29219],[126.84793,35.29218],[126.84817,35.2922],[126.85333,35.29369],[126.85431,35.29398],[126.85442,35.29404],[126.85467,35.29421]]]]}},{"type":"Feature","properties":{"code":"12840320","name":"남면","parent":"12840"},"geometry":{"type":"MultiPolygon","coordinates":[[[[126.84435,35.23439],[126.84381,35.23475],[126.84323,35.23497],[126.84097,35.23434],[126.83978,35.2328],[126.84032,35.23127],[126.8387,35.22993],[126.83536,35.22999],[126.83516,35.22875],[126.83339,35.22835],[126.83167,35.22955],[126.83002,35.23046],[126.82905,35.23058],[126.8282,35.23089],[126.8269,35.23137],[126.82664,35.23144],[126.82526,35.23178],[126.82429,35.23073],[126.8245,35.23034],[126.82453,35.22992],[126.82475,35.22917],[126.82507,35.22757],[126.82495,35.22701],[126.82392,35.22565],[126.82177,35.22613],[126.82109,35.2258],[126.81986,35.22616],[126.81939,35.22518],[126.81863,35.2247],[126.81778,35.2238],[126.81571,35.22468],[126.81524,35.2242],[126.81355,35.22345],[126.81322,35.22268],[126.8118,35.22266],[126.81037,35.22121],[126.81002,35.22122],[126.80995,35.22123],[126.80877,35.22102],[126.80814,35.21999],[126.80601,35.21932],[126.80604,35.21896],[126.80539,35.21828],[126.80476,35.21956],[126.80437,35.22137],[126.80211,35.22099],[126.80111,35.21974],[126.79742,35.22029],[126.79706,35.22021],[126.79635,35.21974],[126.79527,35.21987],[126.79433,35.22027],[126.79273,35.22184],[126.79145,35.22239],[126.79083,35.22316],[126.78987,35.22386],[126.78862,35.22417],[126.78767,35.22322],[126.7865,35.22386],[126.78399,35.22429],[126.78138,35.22483],[126.7794,35.22624],[126.77703,35.22825],[126.77546,35.23068],[126.77359,35.23056],[126.77184,35.23092],[126.77114,35.23208],[126.77042,35.23277],[126.76667,35.23246],[126.7619,35.23366],[126.76053,35.23399],[126.75958,35.23375],[126.75759,35.23356],[126.75552,35.23439],[126.75458,35.23533],[126.75396,35.23652],[126.75396,35.23693],[126.75517,35.24122],[126.75477,35.24216],[126.75562,35.2433],[126.75671,35.244],[126.75962,35.24607],[126.76101,35.24793],[126.76153,35.24984],[126.76167,35.2514],[126.76257,35.25237],[126.76323,35.25285],[126.76327,35.25288],[126.76337,35.25295],[126.76373,35.25361],[126.76387,35.25431],[126.76347,35.25536],[126.76333,35.25642],[126.7642,35.25687],[126.76428,35.25691],[126.76435,35.25693],[126.7644,35.25693],[126.76631,35.25664],[126.76812,35.25625],[126.7691,35.25713],[126.77119,35.25982],[126.77413,35.26277],[126.77439,35.26301],[126.77456,35.26312],[126.77574,35.26385],[126.77586,35.26392],[126.77596,35.26394],[126.77611,35.26394],[126.77625,35.26391],[126.77655,35.2638],[126.77668,35.26374],[126.77696,35.26355],[126.77714,35.26342],[126.77743,35.26325],[126.77765,35.26333],[126.7829,35.26598],[126.78315,35.26612],[126.78372,35.26646],[126.78403,35.26666],[126.78427,35.26686],[126.78473,35.26731],[126.78499,35.26763],[126.787,35.26827],[126.78971,35.26886],[126.79071,35.26954],[126.79074,35.26969],[126.79159,35.27151],[126.79169,35.2717],[126.79181,35.27189],[126.79212,35.27225],[126.79231,35.27242],[126.79245,35.27248],[126.79261,35.27251],[126.79289,35.27255],[126.7944,35.27264],[126.7944,35.27194],[126.79439,35.27135],[126.79444,35.27028],[126.7948,35.26907],[126.79486,35.26889],[126.7949,35.26882],[126.79504,35.26865],[126.7953,35.26863],[126.79579,35.26868],[126.79654,35.26861],[126.79745,35.26853],[126.79825,35.26837],[126.79963,35.268],[126.79995,35.26664],[126.80161,35.26503],[126.80254,35.2655],[126.80334,35.26596],[126.80377,35.26608],[126.80831,35.25911],[126.80838,35.259],[126.81111,35.25399],[126.81129,35.25364],[126.81146,35.25306],[126.81166,35.25236],[126.81201,35.25108],[126.81211,35.25021],[126.8121,35.24992],[126.81224,35.2497],[126.81339,35.24913],[126.8135,35.24912],[126.81374,35.2491],[126.81387,35.24909],[126.81417,35.24908],[126.81433,35.2491],[126.81454,35.24916],[126.8167,35.24994],[126.81675,35.24997],[126.81906,35.25636],[126.82089,35.26156],[126.82105,35.2617],[126.82119,35.26174],[126.8214,35.26177],[126.82218,35.26164],[126.82827,35.25804],[126.82946,35.25765],[126.83034,35.25746],[126.83155,35.25705],[126.83425,35.25591],[126.8358,35.25426],[126.83712,35.25089],[126.83732,35.24941],[126.83728,35.24925],[126.8371,35.24889],[126.83654,35.24793],[126.83636,35.2477],[126.83579,35.24699],[126.83531,35.24663],[126.83447,35.24583],[126.83368,35.2449],[126.83347,35.24461],[126.83322,35.2442],[126.83311,35.24398],[126.83305,35.24367],[126.83312,35.24338],[126.83341,35.24256],[126.83358,35.24235],[126.83383,35.24217],[126.83408,35.24204],[126.83432,35.24198],[126.83466,35.24195],[126.83473,35.24195],[126.8349,35.24196],[126.83702,35.24133],[126.84029,35.24002],[126.84175,35.2384],[126.84222,35.23783],[126.84287,35.23701],[126.84353,35.23612],[126.84396,35.23533],[126.84435,35.23439]]]]}},{"type":"Feature","properties":{"code":"12840330","name":"동화면","parent":"12840"},"geometry":{"type":"MultiPolygon","coordinates":[[[[126.7398,35.25159],[126.7383,35.25218],[126.73719,35.25206],[126.73535,35.24969],[126.73242,35.24625],[126.73042,35.24399],[126.73021,35.24234],[126.73026,35.24073],[126.73005,35.23931],[126.72937,35.23765],[126.72806,35.23642],[126.72777,35.23646],[126.72711,35.23655],[126.72635,35.23579],[126.7256,35.23479],[126.72498,35.23381],[126.7249,35.23367],[126.7242,35.2323],[126.72352,35.23063],[126.72385,35.23032],[126.72315,35.22902],[126.72301,35.22885],[126.72235,35.2281],[126.7219,35.22764],[126.72037,35.22719],[126.72025,35.22713],[126.71981,35.2269],[126.71857,35.22189],[126.71889,35.22174],[126.71925,35.22156],[126.72089,35.2188],[126.72034,35.21604],[126.71876,35.21567],[126.71816,35.2147],[126.71872,35.2132],[126.71775,35.21189],[126.71773,35.21201],[126.71771,35.21211],[126.71664,35.21224],[126.71074,35.21239],[126.70694,35.21012],[126.70448,35.2085],[126.70263,35.2078],[126.69744,35.20956],[126.69517,35.21058],[126.6924,35.21268],[126.6918,35.21318],[126.69086,35.21479],[126.69055,35.21533],[126.69249,35.21786],[126.69253,35.21961],[126.69272,35.22036],[126.69292,35.22093],[126.69339,35.22154],[126.69443,35.22285],[126.69661,35.22436],[126.69789,35.22508],[126.69814,35.22502],[126.69891,35.22474],[126.69983,35.22479],[126.70248,35.22589],[126.70343,35.22682],[126.70322,35.23013],[126.70303,35.23069],[126.70297,35.23087],[126.7027,35.2322],[126.70396,35.23373],[126.70447,35.2339],[126.70513,35.23395],[126.70505,35.23474],[126.70497,35.23544],[126.70468,35.23579],[126.70408,35.2364],[126.70769,35.23878],[126.7078,35.23885],[126.70836,35.23924],[126.70844,35.23933],[126.70991,35.24108],[126.70995,35.24116],[126.71061,35.24321],[126.71116,35.24751],[126.71117,35.24762],[126.71119,35.24929],[126.71119,35.24935],[126.71116,35.24944],[126.7111,35.24952],[126.70817,35.2522],[126.70872,35.2539],[126.71,35.25756],[126.71009,35.25776],[126.71014,35.25785],[126.71024,35.25794],[126.71032,35.258],[126.71048,35.25807],[126.7106,35.25808],[126.71068,35.25808],[126.7108,35.25807],[126.71091,35.25804],[126.71111,35.25798],[126.71127,35.25794],[126.71138,35.25791],[126.71157,35.25791],[126.71169,35.25792],[126.71181,35.25795],[126.71194,35.25802],[126.71216,35.25824],[126.71241,35.25849],[126.71369,35.26026],[126.71407,35.26191],[126.71437,35.26466],[126.71436,35.26485],[126.71434,35.26504],[126.71424,35.26529],[126.71415,35.26553],[126.71403,35.26577],[126.71392,35.26594],[126.71383,35.26603],[126.71357,35.26625],[126.71322,35.26649],[126.71295,35.26663],[126.71268,35.26674],[126.7124,35.26683],[126.71225,35.26688],[126.71211,35.26695],[126.71196,35.26704],[126.71082,35.26788],[126.71064,35.26803],[126.71038,35.26833],[126.71016,35.26861],[126.71011,35.2687],[126.71009,35.26883],[126.71009,35.27116],[126.7102,35.27287],[126.71023,35.27786],[126.70977,35.28242],[126.70975,35.28249],[126.70964,35.28263],[126.70907,35.28327],[126.70893,35.28339],[126.70879,35.28346],[126.70285,35.28548],[126.7017,35.28536],[126.70141,35.28529],[126.70106,35.28526],[126.70091,35.28526],[126.70058,35.28532],[126.70036,35.28539],[126.70026,35.28545],[126.69885,35.28672],[126.69885,35.28676],[126.69886,35.28684],[126.69918,35.28838],[126.69925,35.28875],[126.69878,35.29034],[126.69381,35.29502],[126.69359,35.29523],[126.69354,35.29531],[126.69353,35.29538],[126.69354,35.29543],[126.69359,35.29547],[126.69387,35.29562],[126.69411,35.29576],[126.6942,35.29583],[126.69423,35.29591],[126.69426,35.29597],[126.69428,35.29613],[126.69429,35.29625],[126.69391,35.2984],[126.69383,35.29855],[126.69347,35.29911],[126.69338,35.29923],[126.6933,35.29931],[126.6931,35.29943],[126.69296,35.29954],[126.69285,35.29971],[126.69277,35.29989],[126.69272,35.30006],[126.69271,35.30019],[126.69216,35.3044],[126.69196,35.30627],[126.69258,35.30868],[126.69468,35.30896],[126.69537,35.30843],[126.69559,35.30828],[126.69576,35.30818],[126.6959,35.30811],[126.69609,35.30804],[126.69625,35.308],[126.69761,35.30779],[126.6997,35.30746],[126.69996,35.30743],[126.70015,35.30744],[126.70025,35.30746],[126.70041,35.3075],[126.70069,35.30762],[126.70093,35.30769],[126.70124,35.30772],[126.70134,35.30771],[126.7087,35.3065],[126.71181,35.3058],[126.71201,35.30574],[126.71221,35.30565],[126.71247,35.30551],[126.71321,35.30508],[126.71335,35.30498],[126.71469,35.30439],[126.71806,35.30364],[126.71891,35.30348],[126.71926,35.30345],[126.71945,35.30342],[126.71958,35.30339],[126.72051,35.30301],[126.72113,35.30272],[126.72131,35.30263],[126.72141,35.30254],[126.7226,35.3013],[126.72409,35.29937],[126.72421,35.29919],[126.72477,35.2982],[126.72479,35.29808],[126.72481,35.29789],[126.72481,35.29779],[126.72482,35.29777],[126.72498,35.29772],[126.72513,35.29768],[126.72932,35.29719],[126.72956,35.29719],[126.72975,35.29721],[126.73,35.29727],[126.73025,35.29739],[126.7306,35.29755],[126.73081,35.2977],[126.7309,35.29781],[126.73094,35.29796],[126.73094,35.29818],[126.73092,35.29838],[126.7308,35.29873],[126.73069,35.29894],[126.73065,35.29901],[126.73064,35.29913],[126.73065,35.29919],[126.73078,35.2993],[126.7316,35.29981],[126.73174,35.29987],[126.73384,35.30076],[126.73405,35.30082],[126.73546,35.30105],[126.73801,35.30135],[126.73838,35.30135],[126.73844,35.30134],[126.73864,35.30131],[126.74121,35.30081],[126.74133,35.30076],[126.74499,35.29752],[126.74614,35.29645],[126.7476,35.29464],[126.74775,35.2944],[126.7487,35.29209],[126.74877,35.29191],[126.74881,35.29167],[126.74881,35.29153],[126.7488,35.29012],[126.74859,35.28978],[126.74851,35.28966],[126.7484,35.2895],[126.74822,35.28934],[126.74809,35.28925],[126.74796,35.28921],[126.74782,35.28919],[126.74741,35.28913],[126.74664,35.28901],[126.74614,35.28886],[126.74567,35.28868],[126.74454,35.28817],[126.74408,35.28785],[126.74392,35.2877],[126.74379,35.28751],[126.74372,35.2874],[126.74361,35.28722],[126.74354,35.28707],[126.74381,35.28675],[126.74396,35.28659],[126.74403,35.28655],[126.7441,35.28652],[126.74419,35.2865],[126.74432,35.28649],[126.74447,35.2865],[126.7446,35.28649],[126.74516,35.28622],[126.74532,35.2861],[126.74537,35.286],[126.74542,35.2857],[126.74635,35.27972],[126.74628,35.27953],[126.74603,35.2793],[126.74589,35.27922],[126.74551,35.27942],[126.74542,35.27945],[126.74523,35.27932],[126.745,35.27915],[126.7449,35.27903],[126.74418,35.27702],[126.74386,35.27515],[126.74291,35.27483],[126.7413,35.27393],[126.74102,35.27362],[126.74015,35.27269],[126.7399,35.27243],[126.74004,35.27093],[126.74022,35.2708],[126.74037,35.27069],[126.74091,35.2694],[126.74131,35.26799],[126.74131,35.26794],[126.7413,35.26789],[126.74111,35.26758],[126.74008,35.26689],[126.73957,35.26668],[126.73915,35.26648],[126.7381,35.26598],[126.73797,35.26592],[126.73792,35.26587],[126.73685,35.26466],[126.7368,35.2646],[126.73676,35.26453],[126.7364,35.26316],[126.73868,35.26085],[126.74091,35.2588],[126.74003,35.2564],[126.74022,35.25451],[126.74051,35.25399],[126.74095,35.25302],[126.7398,35.25159]]]]}},{"type":"Feature","properties":{"code":"12840340","name":"삼서면","parent":"12840"},"geometry":{"type":"MultiPolygon","coordinates":[[[[126.70408,35.2364],[126.70468,35.23579],[126.70497,35.23544],[126.70505,35.23474],[126.70513,35.23395],[126.70447,35.2339],[126.70396,35.23373],[126.7027,35.2322],[126.70297,35.23087],[126.70303,35.23069],[126.70322,35.23013],[126.70343,35.22682],[126.70248,35.22589],[126.69983,35.22479],[126.69891,35.22474],[126.69814,35.22502],[126.69789,35.22508],[126.69661,35.22436],[126.69443,35.22285],[126.69339,35.22154],[126.69292,35.22093],[126.69272,35.22036],[126.69253,35.21961],[126.69249,35.21786],[126.69055,35.21533],[126.6898,35.21553],[126.68726,35.21541],[126.68689,35.21518],[126.68601,35.21415],[126.68555,35.21347],[126.68567,35.21326],[126.68573,35.21315],[126.68486,35.21131],[126.6838,35.20997],[126.68337,35.20975],[126.68056,35.20757],[126.68097,35.20623],[126.68001,35.20402],[126.67851,35.20357],[126.67736,35.20136],[126.67808,35.19846],[126.67648,35.19599],[126.67683,35.19481],[126.67718,35.1943],[126.67787,35.19365],[126.67794,35.19272],[126.67786,35.19176],[126.67749,35.19109],[126.67655,35.19078],[126.67602,35.19082],[126.67569,35.19084],[126.67455,35.1914],[126.67418,35.19175],[126.67389,35.19288],[126.67211,35.19416],[126.66966,35.19445],[126.66911,35.19358],[126.66908,35.19353],[126.66817,35.19265],[126.66678,35.19331],[126.66358,35.19248],[126.66178,35.19381],[126.65972,35.19263],[126.65843,35.19278],[126.65616,35.19406],[126.65452,35.19337],[126.65312,35.1924],[126.65099,35.19316],[126.65098,35.1933],[126.65105,35.19362],[126.65113,35.19376],[126.65128,35.19393],[126.65141,35.19408],[126.65157,35.19425],[126.65164,35.19438],[126.65194,35.19596],[126.6517,35.19651],[126.65163,35.19661],[126.64991,35.19822],[126.64976,35.19834],[126.64953,35.19849],[126.6489,35.1988],[126.64714,35.20043],[126.64624,35.20186],[126.64534,35.20358],[126.64263,35.20728],[126.64255,35.20735],[126.6422,35.20746],[126.64198,35.20752],[126.64169,35.20758],[126.6398,35.20787],[126.63971,35.20787],[126.63961,35.20783],[126.63953,35.2078],[126.63926,35.20764],[126.6392,35.20765],[126.63471,35.21033],[126.63397,35.21081],[126.63381,35.21092],[126.63341,35.21124],[126.63038,35.21364],[126.62996,35.21401],[126.62901,35.21503],[126.62895,35.21518],[126.62891,35.21535],[126.62891,35.2155],[126.6288,35.21578],[126.62841,35.21655],[126.62819,35.21698],[126.6262,35.21928],[126.62605,35.21943],[126.62597,35.21945],[126.62581,35.21949],[126.62445,35.21974],[126.62319,35.21995],[126.62246,35.22009],[126.61929,35.22088],[126.61925,35.22089],[126.61884,35.22102],[126.6184,35.22127],[126.61823,35.22142],[126.61779,35.22179],[126.61752,35.2221],[126.61748,35.22214],[126.61714,35.22255],[126.61686,35.223],[126.61681,35.22324],[126.61685,35.22357],[126.61692,35.2238],[126.61696,35.22421],[126.61693,35.22435],[126.61384,35.22869],[126.61323,35.22946],[126.61249,35.22995],[126.61231,35.22985],[126.61212,35.22976],[126.61188,35.22969],[126.61172,35.22969],[126.61163,35.22971],[126.60504,35.23323],[126.6041,35.23374],[126.60381,35.2339],[126.60298,35.23452],[126.6015,35.23561],[126.60126,35.23566],[126.60103,35.23566],[126.60083,35.23566],[126.59973,35.23556],[126.59705,35.23491],[126.59681,35.23481],[126.59656,35.23469],[126.59585,35.23435],[126.59263,35.23242],[126.59188,35.23194],[126.5916,35.23249],[126.59067,35.23383],[126.58987,35.23493],[126.5879,35.23647],[126.58561,35.23765],[126.58436,35.23814],[126.58331,35.23944],[126.58384,35.24256],[126.58431,35.24348],[126.5853,35.24408],[126.58647,35.24441],[126.58679,35.24457],[126.58706,35.24521],[126.58748,35.24637],[126.58689,35.24967],[126.58638,35.25082],[126.58468,35.25244],[126.58401,35.25385],[126.58473,35.25816],[126.585,35.25857],[126.58937,35.26097],[126.59141,35.26149],[126.5926,35.26141],[126.59297,35.26169],[126.59513,35.26338],[126.5959,35.26426],[126.59619,35.26573],[126.59631,35.26691],[126.59784,35.268],[126.59839,35.26796],[126.60051,35.26848],[126.60254,35.26882],[126.60489,35.26944],[126.60878,35.27068],[126.60983,35.27126],[126.61187,35.27098],[126.61275,35.26868],[126.615,35.26604],[126.6154,35.26571],[126.62014,35.26338],[126.623,35.26237],[126.62385,35.26276],[126.62557,35.26304],[126.62721,35.26327],[126.62823,35.26249],[126.62833,35.26105],[126.62967,35.25996],[126.62971,35.25993],[126.6321,35.25823],[126.63469,35.25707],[126.63533,35.25682],[126.63539,35.25682],[126.63712,35.25661],[126.63925,35.25682],[126.64028,35.25699],[126.64191,35.25764],[126.64376,35.25829],[126.64564,35.25818],[126.64795,35.25801],[126.64926,35.25698],[126.65057,35.25565],[126.65065,35.25347],[126.6505,35.25185],[126.65033,35.24815],[126.65269,35.24665],[126.6537,35.24648],[126.65387,35.24644],[126.65647,35.24519],[126.65711,35.24481],[126.65721,35.24465],[126.65705,35.24403],[126.65683,35.24339],[126.6564,35.24244],[126.65605,35.24158],[126.65591,35.24029],[126.65634,35.23992],[126.65911,35.23936],[126.66073,35.2394],[126.66046,35.24045],[126.66074,35.24195],[126.66125,35.24326],[126.66147,35.24383],[126.66188,35.24423],[126.66209,35.24436],[126.66253,35.24459],[126.66304,35.24471],[126.66443,35.24473],[126.66743,35.24447],[126.67014,35.24305],[126.67058,35.24281],[126.67151,35.24232],[126.67311,35.24173],[126.67454,35.24155],[126.67631,35.24167],[126.67844,35.24223],[126.68251,35.24217],[126.6828,35.2421],[126.68382,35.24201],[126.6885,35.24249],[126.68916,35.24299],[126.68926,35.24344],[126.68979,35.24341],[126.69055,35.24337],[126.69202,35.24309],[126.69333,35.24227],[126.69391,35.24097],[126.69391,35.24018],[126.694,35.23984],[126.69474,35.23913],[126.6959,35.23892],[126.69939,35.24083],[126.70116,35.24224],[126.7016,35.24226],[126.70222,35.24211],[126.70427,35.2397],[126.70467,35.23876],[126.70424,35.23817],[126.70412,35.23755],[126.70412,35.23751],[126.70408,35.2364]]]]}},{"type":"Feature","properties":{"code":"12840350","name":"삼계면","parent":"12840"},"geometry":{"type":"MultiPolygon","coordinates":[[[[126.68548,35.34459],[126.68551,35.34392],[126.68548,35.34362],[126.68545,35.34343],[126.68538,35.34319],[126.68523,35.34296],[126.68358,35.34123],[126.68341,35.34109],[126.6833,35.34106],[126.68314,35.34109],[126.68278,35.3412],[126.68237,35.34127],[126.68203,35.34131],[126.68185,35.3413],[126.68179,35.34128],[126.68172,35.34123],[126.68078,35.34031],[126.67879,35.3375],[126.67871,35.33736],[126.67818,35.33578],[126.67782,35.33436],[126.67781,35.33418],[126.67782,35.3339],[126.67796,35.33281],[126.678,35.33261],[126.67818,35.33174],[126.6782,35.33059],[126.67825,35.32784],[126.6781,35.32767],[126.67797,35.3275],[126.67784,35.32734],[126.6776,35.32696],[126.67746,35.3267],[126.6772,35.32614],[126.6771,35.32588],[126.6771,35.32584],[126.67827,35.32243],[126.681,35.32148],[126.68121,35.32152],[126.68141,35.32152],[126.68163,35.3215],[126.68212,35.32142],[126.68225,35.32138],[126.68255,35.32128],[126.68276,35.32117],[126.68483,35.32011],[126.68511,35.31996],[126.68539,35.3198],[126.68708,35.31868],[126.68711,35.31865],[126.68734,35.31782],[126.68737,35.31773],[126.68737,35.31764],[126.68734,35.31749],[126.68699,35.3163],[126.68799,35.31349],[126.68805,35.31335],[126.68813,35.31322],[126.6882,35.3131],[126.69113,35.30938],[126.69117,35.30933],[126.69141,35.30917],[126.69164,35.30903],[126.69177,35.30896],[126.69194,35.30889],[126.69247,35.30871],[126.69258,35.30868],[126.69196,35.30627],[126.69216,35.3044],[126.69271,35.30019],[126.69272,35.30006],[126.69277,35.29989],[126.69285,35.29971],[126.69296,35.29954],[126.6931,35.29943],[126.6933,35.29931],[126.69338,35.29923],[126.69347,35.29911],[126.69383,35.29855],[126.69391,35.2984],[126.69429,35.29625],[126.69428,35.29613],[126.69426,35.29597],[126.69423,35.29591],[126.6942,35.29583],[126.69411,35.29576],[126.69387,35.29562],[126.69359,35.29547],[126.69354,35.29543],[126.69353,35.29538],[126.69354,35.29531],[126.69359,35.29523],[126.69381,35.29502],[126.69878,35.29034],[126.69925,35.28875],[126.69918,35.28838],[126.69886,35.28684],[126.69885,35.28676],[126.69885,35.28672],[126.70026,35.28545],[126.70036,35.28539],[126.70058,35.28532],[126.70091,35.28526],[126.70106,35.28526],[126.70141,35.28529],[126.7017,35.28536],[126.70285,35.28548],[126.70879,35.28346],[126.70893,35.28339],[126.70907,35.28327],[126.70964,35.28263],[126.70975,35.28249],[126.70977,35.28242],[126.71023,35.27786],[126.7102,35.27287],[126.71009,35.27116],[126.71009,35.26883],[126.71011,35.2687],[126.71016,35.26861],[126.71038,35.26833],[126.71064,35.26803],[126.71082,35.26788],[126.71196,35.26704],[126.71211,35.26695],[126.71225,35.26688],[126.7124,35.26683],[126.71268,35.26674],[126.71295,35.26663],[126.71322,35.26649],[126.71357,35.26625],[126.71383,35.26603],[126.71392,35.26594],[126.71403,35.26577],[126.71415,35.26553],[126.71424,35.26529],[126.71434,35.26504],[126.71436,35.26485],[126.71437,35.26466],[126.71407,35.26191],[126.71369,35.26026],[126.71241,35.25849],[126.71216,35.25824],[126.71194,35.25802],[126.71181,35.25795],[126.71169,35.25792],[126.71157,35.25791],[126.71138,35.25791],[126.71127,35.25794],[126.71111,35.25798],[126.71091,35.25804],[126.7108,35.25807],[126.71068,35.25808],[126.7106,35.25808],[126.71048,35.25807],[126.71032,35.258],[126.71024,35.25794],[126.71014,35.25785],[126.71009,35.25776],[126.71,35.25756],[126.70872,35.2539],[126.70817,35.2522],[126.7111,35.24952],[126.71116,35.24944],[126.71119,35.24935],[126.71119,35.24929],[126.71117,35.24762],[126.71116,35.24751],[126.71061,35.24321],[126.70995,35.24116],[126.70991,35.24108],[126.70844,35.23933],[126.70836,35.23924],[126.7078,35.23885],[126.70769,35.23878],[126.70408,35.2364],[126.70412,35.23751],[126.70412,35.23755],[126.70424,35.23817],[126.70467,35.23876],[126.70427,35.2397],[126.70222,35.24211],[126.7016,35.24226],[126.70116,35.24224],[126.69939,35.24083],[126.6959,35.23892],[126.69474,35.23913],[126.694,35.23984],[126.69391,35.24018],[126.69391,35.24097],[126.69333,35.24227],[126.69202,35.24309],[126.69055,35.24337],[126.68979,35.24341],[126.68926,35.24344],[126.68916,35.24299],[126.6885,35.24249],[126.68382,35.24201],[126.6828,35.2421],[126.68251,35.24217],[126.67844,35.24223],[126.67631,35.24167],[126.67454,35.24155],[126.67311,35.24173],[126.67151,35.24232],[126.67058,35.24281],[126.67014,35.24305],[126.66743,35.24447],[126.66443,35.24473],[126.66304,35.24471],[126.66253,35.24459],[126.66209,35.24436],[126.66188,35.24423],[126.66147,35.24383],[126.66125,35.24326],[126.66074,35.24195],[126.66046,35.24045],[126.66073,35.2394],[126.65911,35.23936],[126.65634,35.23992],[126.65591,35.24029],[126.65605,35.24158],[126.6564,35.24244],[126.65683,35.24339],[126.65705,35.24403],[126.65721,35.24465],[126.65711,35.24481],[126.65647,35.24519],[126.65387,35.24644],[126.6537,35.24648],[126.65269,35.24665],[126.65033,35.24815],[126.6505,35.25185],[126.65065,35.25347],[126.65057,35.25565],[126.64926,35.25698],[126.64795,35.25801],[126.64564,35.25818],[126.64376,35.25829],[126.64191,35.25764],[126.64028,35.25699],[126.63925,35.25682],[126.63712,35.25661],[126.63539,35.25682],[126.63533,35.25682],[126.63469,35.25707],[126.6321,35.25823],[126.62971,35.25993],[126.62967,35.25996],[126.62833,35.26105],[126.62823,35.26249],[126.62721,35.26327],[126.62557,35.26304],[126.62385,35.26276],[126.623,35.26237],[126.62014,35.26338],[126.6154,35.26571],[126.615,35.26604],[126.61275,35.26868],[126.61187,35.27098],[126.60983,35.27126],[126.61011,35.27241],[126.61017,35.27257],[126.61164,35.27509],[126.61413,35.27741],[126.61578,35.27878],[126.61536,35.2806],[126.61513,35.28069],[126.61475,35.28091],[126.61455,35.28109],[126.61435,35.2813],[126.61421,35.28155],[126.61419,35.28167],[126.61401,35.28338],[126.61427,35.28513],[126.61473,35.28825],[126.61476,35.28835],[126.61484,35.28849],[126.61546,35.28936],[126.61559,35.28949],[126.61578,35.28964],[126.61614,35.28992],[126.61631,35.29003],[126.61716,35.29152],[126.61822,35.29354],[126.61818,35.29363],[126.61559,35.29639],[126.61554,35.29645],[126.61542,35.29654],[126.61526,35.2966],[126.61487,35.29671],[126.6128,35.29732],[126.61262,35.29732],[126.61227,35.29729],[126.61184,35.29733],[126.61167,35.29736],[126.61158,35.29741],[126.61155,35.29747],[126.61067,35.29968],[126.61066,35.29972],[126.61068,35.29982],[126.61081,35.30008],[126.61094,35.30024],[126.61102,35.30032],[126.61223,35.30106],[126.6185,35.30464],[126.61863,35.3047],[126.61879,35.30474],[126.61893,35.30475],[126.62049,35.30474],[126.62066,35.30472],[126.6208,35.30468],[126.62099,35.30459],[126.62125,35.30445],[126.62136,35.30438],[126.6215,35.30427],[126.62157,35.30419],[126.62169,35.304],[126.62192,35.30362],[126.62932,35.30248],[126.62944,35.30247],[126.63156,35.3025],[126.63173,35.30251],[126.63186,35.30256],[126.63392,35.30372],[126.63967,35.30861],[126.6397,35.30864],[126.64,35.30891],[126.64014,35.30904],[126.64017,35.30927],[126.64011,35.30954],[126.63969,35.31059],[126.64007,35.31282],[126.64144,35.31573],[126.64337,35.3186],[126.64473,35.31987],[126.64542,35.32142],[126.64546,35.32148],[126.64575,35.32198],[126.64605,35.32231],[126.64651,35.32263],[126.6467,35.32283],[126.64683,35.32313],[126.64699,35.32362],[126.64708,35.32395],[126.64708,35.32424],[126.64705,35.32432],[126.64696,35.32458],[126.64671,35.32488],[126.64657,35.32506],[126.64609,35.32562],[126.64589,35.32586],[126.64564,35.32612],[126.64422,35.32727],[126.64454,35.32758],[126.64462,35.32765],[126.64482,35.32783],[126.64658,35.3287],[126.64661,35.32871],[126.64666,35.3287],[126.64673,35.32869],[126.64685,35.32866],[126.64704,35.32858],[126.64724,35.3285],[126.64755,35.32832],[126.64799,35.32805],[126.64804,35.32799],[126.64828,35.32775],[126.64843,35.32759],[126.64855,35.32747],[126.6486,35.32744],[126.64866,35.3274],[126.64873,35.32736],[126.64877,35.32734],[126.64885,35.32731],[126.64896,35.3273],[126.65091,35.32713],[126.65099,35.32713],[126.65109,35.32713],[126.65115,35.32714],[126.65132,35.32716],[126.65143,35.32718],[126.65153,35.32722],[126.65235,35.32757],[126.65261,35.32769],[126.65276,35.32779],[126.65293,35.32794],[126.65347,35.32842],[126.6537,35.32865],[126.65387,35.32885],[126.654,35.32902],[126.65417,35.32929],[126.65543,35.33145],[126.65637,35.33306],[126.65645,35.33314],[126.65653,35.33323],[126.65663,35.3333],[126.65676,35.33337],[126.65694,35.33341],[126.65765,35.33364],[126.65912,35.33415],[126.65925,35.33423],[126.65934,35.3343],[126.65939,35.33436],[126.65947,35.33446],[126.6595,35.3345],[126.65953,35.33456],[126.65956,35.33471],[126.65959,35.33482],[126.65959,35.33486],[126.65957,35.33506],[126.65966,35.33774],[126.65968,35.33809],[126.66019,35.34389],[126.66023,35.3442],[126.66025,35.34422],[126.6603,35.34431],[126.66039,35.34442],[126.66074,35.34469],[126.66169,35.34541],[126.66178,35.34546],[126.66185,35.34551],[126.66189,35.34553],[126.66205,35.34561],[126.66252,35.34578],[126.66276,35.34586],[126.6628,35.34588],[126.66301,35.34593],[126.66321,35.34595],[126.66607,35.35012],[126.66673,35.35155],[126.66707,35.35162],[126.66747,35.35162],[126.66992,35.35105],[126.6727,35.35006],[126.67478,35.3486],[126.67564,35.34863],[126.67592,35.34862],[126.67605,35.3486],[126.67823,35.34826],[126.68198,35.34715],[126.68209,35.3471],[126.6823,35.34689],[126.68244,35.34668],[126.68252,35.34651],[126.68499,35.34487],[126.68548,35.34459]]]]}},{"type":"Feature","properties":{"code":"12840360","name":"황룡면","parent":"12840"},"geometry":{"type":"MultiPolygon","coordinates":[[[[126.71943,35.36492],[126.71949,35.36433],[126.71922,35.36246],[126.71919,35.36235],[126.71826,35.35978],[126.71819,35.35965],[126.71807,35.35955],[126.71796,35.3595],[126.71664,35.35914],[126.7155,35.35891],[126.71531,35.35892],[126.71503,35.35891],[126.71415,35.35876],[126.71402,35.35873],[126.71389,35.35866],[126.71358,35.35846],[126.71348,35.35837],[126.71347,35.35832],[126.71327,35.35758],[126.71323,35.35731],[126.71317,35.35239],[126.71322,35.35217],[126.71327,35.35207],[126.71335,35.35197],[126.71346,35.35189],[126.71386,35.35169],[126.71441,35.35142],[126.71512,35.35106],[126.71523,35.35097],[126.71561,35.3505],[126.71586,35.35016],[126.71716,35.34838],[126.71722,35.34825],[126.71727,35.34796],[126.7175,35.34591],[126.71752,35.34556],[126.71749,35.34523],[126.71739,35.3447],[126.71734,35.34457],[126.71988,35.34329],[126.722,35.34328],[126.72211,35.34328],[126.72524,35.34309],[126.72541,35.34305],[126.7261,35.34281],[126.72622,35.34272],[126.72625,35.34264],[126.72637,35.33971],[126.72602,35.33776],[126.72704,35.33661],[126.72722,35.3367],[126.72743,35.33671],[126.7278,35.33674],[126.72805,35.33675],[126.72828,35.33672],[126.72883,35.33649],[126.72903,35.33637],[126.7317,35.33223],[126.73181,35.33201],[126.73241,35.3307],[126.7324,35.33052],[126.73232,35.33003],[126.73225,35.32972],[126.73228,35.32951],[126.73256,35.32874],[126.7327,35.32854],[126.73297,35.32822],[126.73338,35.32781],[126.73358,35.32764],[126.73373,35.32754],[126.7339,35.32745],[126.73405,35.32739],[126.73418,35.32735],[126.7344,35.32731],[126.73453,35.3273],[126.7347,35.32731],[126.73495,35.32736],[126.7352,35.32744],[126.73714,35.32805],[126.73821,35.32855],[126.73844,35.32874],[126.73857,35.32892],[126.73867,35.32917],[126.73873,35.32923],[126.73882,35.32932],[126.73901,35.32941],[126.74042,35.32999],[126.74167,35.33027],[126.74174,35.33027],[126.7418,35.33025],[126.74187,35.33023],[126.74195,35.3301],[126.7426,35.32867],[126.74446,35.32351],[126.74608,35.31723],[126.7461,35.31718],[126.7462,35.31702],[126.74888,35.31347],[126.75031,35.31324],[126.75039,35.31336],[126.75046,35.31342],[126.7505,35.31345],[126.7506,35.31349],[126.75139,35.31367],[126.75156,35.3137],[126.75174,35.31372],[126.75193,35.31369],[126.75607,35.31269],[126.75632,35.31262],[126.76129,35.31045],[126.76134,35.31042],[126.76138,35.3104],[126.76144,35.31032],[126.76151,35.31021],[126.76163,35.30979],[126.76167,35.30969],[126.76176,35.30948],[126.76185,35.30936],[126.76192,35.3093],[126.76201,35.30924],[126.76456,35.30815],[126.76471,35.30813],[126.76511,35.30807],[126.76552,35.30805],[126.76582,35.30807],[126.76681,35.30618],[126.76683,35.30612],[126.76685,35.30598],[126.76662,35.30407],[126.76642,35.30339],[126.76608,35.30237],[126.76571,35.30123],[126.76569,35.3012],[126.76565,35.30112],[126.7656,35.30101],[126.7656,35.30092],[126.7656,35.30086],[126.76623,35.29953],[126.76634,35.29931],[126.76642,35.2992],[126.76647,35.29912],[126.76654,35.29906],[126.76697,35.29874],[126.76734,35.29855],[126.76781,35.29841],[126.76835,35.29831],[126.76865,35.29826],[126.76885,35.29824],[126.76896,35.29825],[126.76901,35.29825],[126.7691,35.29827],[126.76918,35.29833],[126.76922,35.2984],[126.76924,35.29848],[126.76925,35.29854],[126.76933,35.29872],[126.76943,35.29887],[126.76953,35.299],[126.76958,35.29905],[126.76967,35.29911],[126.76975,35.29916],[126.7698,35.29917],[126.76988,35.29916],[126.76995,35.29914],[126.77057,35.29881],[126.77066,35.29875],[126.77074,35.29867],[126.77168,35.29757],[126.77218,35.29678],[126.77229,35.29659],[126.7724,35.29638],[126.77311,35.29486],[126.77334,35.29432],[126.77336,35.29363],[126.77337,35.29348],[126.77324,35.29311],[126.77281,35.2923],[126.77559,35.29093],[126.77585,35.29097],[126.77615,35.29101],[126.77626,35.29102],[126.77635,35.29102],[126.77644,35.29101],[126.77658,35.29099],[126.77675,35.29096],[126.77691,35.29093],[126.78232,35.28907],[126.78311,35.28942],[126.78338,35.28928],[126.78367,35.28914],[126.78493,35.28836],[126.78467,35.28759],[126.78456,35.28729],[126.7845,35.28715],[126.78445,35.28706],[126.78441,35.28699],[126.78434,35.28692],[126.78429,35.28687],[126.78423,35.28683],[126.7842,35.28682],[126.78313,35.28649],[126.78308,35.28648],[126.78299,35.28647],[126.78291,35.28646],[126.78286,35.28646],[126.78282,35.28646],[126.78276,35.28648],[126.78269,35.2865],[126.7826,35.28653],[126.78251,35.28654],[126.78239,35.28654],[126.78233,35.28654],[126.78229,35.28653],[126.78224,35.28652],[126.7822,35.28651],[126.78215,35.28649],[126.78212,35.28647],[126.78209,35.28644],[126.78206,35.28641],[126.78144,35.28577],[126.78052,35.28348],[126.78162,35.2821],[126.78164,35.28208],[126.78167,35.28207],[126.78171,35.28205],[126.78177,35.28203],[126.78245,35.28181],[126.78251,35.2818],[126.78257,35.28179],[126.78263,35.28178],[126.78267,35.28178],[126.78285,35.28178],[126.78298,35.28178],[126.7831,35.28179],[126.78325,35.2818],[126.78332,35.2818],[126.78337,35.28179],[126.78346,35.28176],[126.78351,35.28173],[126.78355,35.28169],[126.7836,35.28163],[126.78547,35.27879],[126.78544,35.2782],[126.78508,35.27712],[126.78467,35.27614],[126.78461,35.27609],[126.78443,35.27597],[126.78423,35.27586],[126.78404,35.27575],[126.78332,35.27509],[126.78317,35.27494],[126.78303,35.27479],[126.78181,35.27332],[126.78128,35.27225],[126.78137,35.2706],[126.78144,35.27045],[126.78156,35.2703],[126.78335,35.26865],[126.78499,35.26763],[126.78473,35.26731],[126.78427,35.26686],[126.78403,35.26666],[126.78372,35.26646],[126.78315,35.26612],[126.7829,35.26598],[126.77765,35.26333],[126.77743,35.26325],[126.77714,35.26342],[126.77696,35.26355],[126.77668,35.26374],[126.77655,35.2638],[126.77625,35.26391],[126.77611,35.26394],[126.77596,35.26394],[126.77586,35.26392],[126.77574,35.26385],[126.77456,35.26312],[126.77439,35.26301],[126.77413,35.26277],[126.77119,35.25982],[126.7691,35.25713],[126.76812,35.25625],[126.76631,35.25664],[126.7644,35.25693],[126.76435,35.25693],[126.76428,35.25691],[126.7642,35.25687],[126.76333,35.25642],[126.76331,35.25657],[126.76307,35.25692],[126.76278,35.25732],[126.76116,35.25841],[126.76028,35.2586],[126.76023,35.25861],[126.75783,35.25836],[126.75634,35.25762],[126.75545,35.25676],[126.75499,35.25648],[126.75272,35.2569],[126.75064,35.25631],[126.74934,35.25598],[126.74826,35.25316],[126.74603,35.25242],[126.74516,35.2525],[126.74423,35.25183],[126.74396,35.25164],[126.74156,35.25087],[126.7398,35.25159],[126.74095,35.25302],[126.74051,35.25399],[126.74022,35.25451],[126.74003,35.2564],[126.74091,35.2588],[126.73868,35.26085],[126.7364,35.26316],[126.73676,35.26453],[126.7368,35.2646],[126.73685,35.26466],[126.73792,35.26587],[126.73797,35.26592],[126.7381,35.26598],[126.73915,35.26648],[126.73957,35.26668],[126.74008,35.26689],[126.74111,35.26758],[126.7413,35.26789],[126.74131,35.26794],[126.74131,35.26799],[126.74091,35.2694],[126.74037,35.27069],[126.74022,35.2708],[126.74004,35.27093],[126.7399,35.27243],[126.74015,35.27269],[126.74102,35.27362],[126.7413,35.27393],[126.74291,35.27483],[126.74386,35.27515],[126.74418,35.27702],[126.7449,35.27903],[126.745,35.27915],[126.74523,35.27932],[126.74542,35.27945],[126.74551,35.27942],[126.74589,35.27922],[126.74603,35.2793],[126.74628,35.27953],[126.74635,35.27972],[126.74542,35.2857],[126.74537,35.286],[126.74532,35.2861],[126.74516,35.28622],[126.7446,35.28649],[126.74447,35.2865],[126.74432,35.28649],[126.74419,35.2865],[126.7441,35.28652],[126.74403,35.28655],[126.74396,35.28659],[126.74381,35.28675],[126.74354,35.28707],[126.74361,35.28722],[126.74372,35.2874],[126.74379,35.28751],[126.74392,35.2877],[126.74408,35.28785],[126.74454,35.28817],[126.74567,35.28868],[126.74614,35.28886],[126.74664,35.28901],[126.74741,35.28913],[126.74782,35.28919],[126.74796,35.28921],[126.74809,35.28925],[126.74822,35.28934],[126.7484,35.2895],[126.74851,35.28966],[126.74859,35.28978],[126.7488,35.29012],[126.74881,35.29153],[126.74881,35.29167],[126.74877,35.29191],[126.7487,35.29209],[126.74775,35.2944],[126.7476,35.29464],[126.74614,35.29645],[126.74499,35.29752],[126.74133,35.30076],[126.74121,35.30081],[126.73864,35.30131],[126.73844,35.30134],[126.73838,35.30135],[126.73801,35.30135],[126.73546,35.30105],[126.73405,35.30082],[126.73384,35.30076],[126.73174,35.29987],[126.7316,35.29981],[126.73078,35.2993],[126.73065,35.29919],[126.73064,35.29913],[126.73065,35.29901],[126.73069,35.29894],[126.7308,35.29873],[126.73092,35.29838],[126.73094,35.29818],[126.73094,35.29796],[126.7309,35.29781],[126.73081,35.2977],[126.7306,35.29755],[126.73025,35.29739],[126.73,35.29727],[126.72975,35.29721],[126.72956,35.29719],[126.72932,35.29719],[126.72513,35.29768],[126.72498,35.29772],[126.72482,35.29777],[126.72481,35.29779],[126.72481,35.29789],[126.72479,35.29808],[126.72477,35.2982],[126.72421,35.29919],[126.72409,35.29937],[126.7226,35.3013],[126.72141,35.30254],[126.72131,35.30263],[126.72113,35.30272],[126.72051,35.30301],[126.71958,35.30339],[126.71945,35.30342],[126.71926,35.30345],[126.71891,35.30348],[126.71806,35.30364],[126.71469,35.30439],[126.71335,35.30498],[126.71321,35.30508],[126.71247,35.30551],[126.71221,35.30565],[126.71201,35.30574],[126.71181,35.3058],[126.7087,35.3065],[126.70134,35.30771],[126.70124,35.30772],[126.70093,35.30769],[126.70069,35.30762],[126.70041,35.3075],[126.70025,35.30746],[126.70015,35.30744],[126.69996,35.30743],[126.6997,35.30746],[126.69761,35.30779],[126.69625,35.308],[126.69609,35.30804],[126.6959,35.30811],[126.69576,35.30818],[126.69559,35.30828],[126.69537,35.30843],[126.69468,35.30896],[126.69258,35.30868],[126.69247,35.30871],[126.69194,35.30889],[126.69177,35.30896],[126.69164,35.30903],[126.69141,35.30917],[126.69117,35.30933],[126.69113,35.30938],[126.6882,35.3131],[126.68813,35.31322],[126.68805,35.31335],[126.68799,35.31349],[126.68699,35.3163],[126.68734,35.31749],[126.68737,35.31764],[126.68737,35.31773],[126.68734,35.31782],[126.68711,35.31865],[126.68708,35.31868],[126.68539,35.3198],[126.68511,35.31996],[126.68483,35.32011],[126.68276,35.32117],[126.68255,35.32128],[126.68225,35.32138],[126.68212,35.32142],[126.68163,35.3215],[126.68141,35.32152],[126.68121,35.32152],[126.681,35.32148],[126.67827,35.32243],[126.6771,35.32584],[126.6771,35.32588],[126.6772,35.32614],[126.67746,35.3267],[126.6776,35.32696],[126.67784,35.32734],[126.67797,35.3275],[126.6781,35.32767],[126.67825,35.32784],[126.6782,35.33059],[126.67818,35.33174],[126.678,35.33261],[126.67796,35.33281],[126.67782,35.3339],[126.67781,35.33418],[126.67782,35.33436],[126.67818,35.33578],[126.67871,35.33736],[126.67879,35.3375],[126.68078,35.34031],[126.68172,35.34123],[126.68179,35.34128],[126.68185,35.3413],[126.68203,35.34131],[126.68237,35.34127],[126.68278,35.3412],[126.68314,35.34109],[126.6833,35.34106],[126.68341,35.34109],[126.68358,35.34123],[126.68523,35.34296],[126.68538,35.34319],[126.68545,35.34343],[126.68548,35.34362],[126.68551,35.34392],[126.68548,35.34459],[126.68683,35.34577],[126.68847,35.34803],[126.69067,35.35086],[126.6907,35.35089],[126.6909,35.35108],[126.69127,35.35142],[126.69135,35.35149],[126.69139,35.35152],[126.69147,35.35158],[126.69157,35.35161],[126.69177,35.35164],[126.69215,35.35163],[126.69278,35.35152],[126.69304,35.35142],[126.69334,35.35126],[126.69475,35.35045],[126.69532,35.35011],[126.69566,35.34991],[126.69588,35.3498],[126.69605,35.34976],[126.69612,35.34975],[126.69898,35.34963],[126.69913,35.34963],[126.69921,35.34965],[126.69924,35.34968],[126.70077,35.35261],[126.70105,35.3532],[126.70113,35.35346],[126.7027,35.35843],[126.70334,35.36111],[126.70335,35.36129],[126.70335,35.36133],[126.70339,35.36151],[126.70366,35.36292],[126.70373,35.36318],[126.7043,35.36462],[126.70452,35.36504],[126.70458,35.36511],[126.70914,35.36518],[126.70946,35.36498],[126.70944,35.36457],[126.70944,35.36441],[126.70947,35.36434],[126.70955,35.36427],[126.71022,35.36402],[126.71026,35.36402],[126.7151,35.36468],[126.71829,35.36514],[126.71943,35.36492]]]]}},{"type":"Feature","properties":{"code":"12840370","name":"서삼면","parent":"12840"},"geometry":{"type":"MultiPolygon","coordinates":[[[[126.79168,35.35236],[126.79196,35.34987],[126.79196,35.34975],[126.79192,35.34965],[126.79151,35.3488],[126.79147,35.34873],[126.79028,35.34734],[126.79018,35.34725],[126.7901,35.34723],[126.78991,35.34722],[126.78981,35.34722],[126.78862,35.34742],[126.78845,35.34746],[126.78839,35.3475],[126.78836,35.34754],[126.78827,35.34778],[126.78812,35.34815],[126.788,35.34832],[126.78791,35.34841],[126.78732,35.34885],[126.78705,35.34903],[126.78648,35.34936],[126.78629,35.34947],[126.78617,35.34952],[126.78607,35.34955],[126.78596,35.34955],[126.78132,35.3496],[126.77844,35.34931],[126.77829,35.34904],[126.77813,35.34885],[126.77799,35.34871],[126.77777,35.34856],[126.77757,35.3485],[126.77737,35.34845],[126.77551,35.34823],[126.77436,35.3484],[126.77258,35.34869],[126.77251,35.34872],[126.77245,35.34872],[126.77233,35.3487],[126.76974,35.34798],[126.76944,35.34788],[126.76928,35.34782],[126.76914,35.34776],[126.769,35.34768],[126.76895,35.34764],[126.76881,35.34746],[126.76872,35.34728],[126.76863,35.34703],[126.76859,35.3468],[126.76856,35.34655],[126.76825,35.3411],[126.76825,35.34089],[126.76828,35.34061],[126.76839,35.3403],[126.77032,35.33679],[126.77047,35.33652],[126.77061,35.33632],[126.7708,35.33608],[126.77096,35.33591],[126.77135,35.33555],[126.77176,35.33522],[126.77189,35.33514],[126.77214,35.33499],[126.77241,35.3348],[126.77275,35.33454],[126.77294,35.33438],[126.77305,35.33425],[126.7734,35.33381],[126.77371,35.33324],[126.77398,35.33258],[126.77435,35.33153],[126.77453,35.33121],[126.77476,35.33081],[126.77596,35.3293],[126.77627,35.32896],[126.77681,35.3285],[126.77746,35.32805],[126.77814,35.32761],[126.77844,35.32739],[126.77872,35.32718],[126.77885,35.32707],[126.77913,35.3268],[126.77928,35.32663],[126.77944,35.32645],[126.77952,35.32632],[126.77976,35.32584],[126.77989,35.32553],[126.78029,35.32453],[126.7804,35.32422],[126.78045,35.32401],[126.78047,35.3239],[126.78047,35.32372],[126.78045,35.32362],[126.78043,35.32356],[126.78038,35.32345],[126.78032,35.32336],[126.78016,35.32322],[126.78009,35.32318],[126.7797,35.32299],[126.77909,35.32259],[126.77835,35.32198],[126.77795,35.32166],[126.77615,35.32017],[126.7759,35.31995],[126.77569,35.31967],[126.77552,35.31937],[126.77351,35.31273],[126.7735,35.31269],[126.77347,35.31254],[126.77346,35.31229],[126.77347,35.31217],[126.77351,35.31197],[126.77361,35.31167],[126.77366,35.31152],[126.77487,35.30837],[126.77357,35.30733],[126.77155,35.30859],[126.76984,35.30957],[126.76979,35.30959],[126.76643,35.30942],[126.76625,35.30938],[126.76617,35.30935],[126.76604,35.30926],[126.76601,35.30923],[126.76597,35.30914],[126.76588,35.30876],[126.76585,35.30853],[126.76582,35.30826],[126.76582,35.30807],[126.76552,35.30805],[126.76511,35.30807],[126.76471,35.30813],[126.76456,35.30815],[126.76201,35.30924],[126.76192,35.3093],[126.76185,35.30936],[126.76176,35.30948],[126.76167,35.30969],[126.76163,35.30979],[126.76151,35.31021],[126.76144,35.31032],[126.76138,35.3104],[126.76134,35.31042],[126.76129,35.31045],[126.75632,35.31262],[126.75607,35.31269],[126.75193,35.31369],[126.75174,35.31372],[126.75156,35.3137],[126.75139,35.31367],[126.7506,35.31349],[126.7505,35.31345],[126.75046,35.31342],[126.75039,35.31336],[126.75031,35.31324],[126.74888,35.31347],[126.7462,35.31702],[126.7461,35.31718],[126.74608,35.31723],[126.74446,35.32351],[126.7426,35.32867],[126.74195,35.3301],[126.74187,35.33023],[126.7418,35.33025],[126.74174,35.33027],[126.74167,35.33027],[126.74042,35.32999],[126.73901,35.32941],[126.73882,35.32932],[126.73873,35.32923],[126.73867,35.32917],[126.73857,35.32892],[126.73844,35.32874],[126.73821,35.32855],[126.73714,35.32805],[126.7352,35.32744],[126.73495,35.32736],[126.7347,35.32731],[126.73453,35.3273],[126.7344,35.32731],[126.73418,35.32735],[126.73405,35.32739],[126.7339,35.32745],[126.73373,35.32754],[126.73358,35.32764],[126.73338,35.32781],[126.73297,35.32822],[126.7327,35.32854],[126.73256,35.32874],[126.73228,35.32951],[126.73225,35.32972],[126.73232,35.33003],[126.7324,35.33052],[126.73241,35.3307],[126.73181,35.33201],[126.7317,35.33223],[126.72903,35.33637],[126.72883,35.33649],[126.72828,35.33672],[126.72805,35.33675],[126.7278,35.33674],[126.72743,35.33671],[126.72722,35.3367],[126.72704,35.33661],[126.72602,35.33776],[126.72637,35.33971],[126.72625,35.34264],[126.72622,35.34272],[126.7261,35.34281],[126.72541,35.34305],[126.72524,35.34309],[126.72211,35.34328],[126.722,35.34328],[126.71988,35.34329],[126.71734,35.34457],[126.71739,35.3447],[126.71749,35.34523],[126.71752,35.34556],[126.7175,35.34591],[126.71727,35.34796],[126.71722,35.34825],[126.71716,35.34838],[126.71586,35.35016],[126.71561,35.3505],[126.71523,35.35097],[126.71512,35.35106],[126.71441,35.35142],[126.71386,35.35169],[126.71346,35.35189],[126.71335,35.35197],[126.71327,35.35207],[126.71322,35.35217],[126.71317,35.35239],[126.71323,35.35731],[126.71327,35.35758],[126.71347,35.35832],[126.71348,35.35837],[126.71358,35.35846],[126.71389,35.35866],[126.71402,35.35873],[126.71415,35.35876],[126.71503,35.35891],[126.71531,35.35892],[126.7155,35.35891],[126.71664,35.35914],[126.71796,35.3595],[126.71807,35.35955],[126.71819,35.35965],[126.71826,35.35978],[126.71919,35.36235],[126.71922,35.36246],[126.71949,35.36433],[126.71943,35.36492],[126.71954,35.36497],[126.71972,35.36509],[126.72145,35.36624],[126.72268,35.36724],[126.73007,35.37548],[126.73095,35.37632],[126.73107,35.37646],[126.73113,35.37658],[126.7312,35.37678],[126.73122,35.37693],[126.73135,35.37825],[126.73136,35.37834],[126.73134,35.37869],[126.73132,35.37892],[126.73114,35.37972],[126.73106,35.37986],[126.73098,35.37996],[126.73071,35.38019],[126.73473,35.38035],[126.73502,35.38039],[126.7367,35.38072],[126.73692,35.38079],[126.73798,35.38116],[126.73834,35.38132],[126.73849,35.3814],[126.73865,35.3815],[126.73936,35.38217],[126.73948,35.38231],[126.74233,35.38353],[126.74643,35.38392],[126.75002,35.38535],[126.75308,35.38627],[126.75334,35.38634],[126.75354,35.38638],[126.75506,35.38657],[126.75517,35.38658],[126.75625,35.3866],[126.75629,35.38659],[126.75635,35.38658],[126.75641,35.38655],[126.75656,35.38609],[126.75665,35.3859],[126.75672,35.38576],[126.75764,35.38492],[126.75788,35.38479],[126.75806,35.38474],[126.75837,35.38472],[126.75874,35.38471],[126.75895,35.38467],[126.75909,35.38462],[126.76268,35.38297],[126.76279,35.38262],[126.76254,35.38238],[126.76237,35.38211],[126.7623,35.38191],[126.7623,35.38178],[126.76236,35.38154],[126.76261,35.381],[126.76268,35.38093],[126.76535,35.37931],[126.76547,35.37923],[126.76573,35.37909],[126.76601,35.37901],[126.76612,35.379],[126.7663,35.37901],[126.76782,35.37926],[126.7679,35.37927],[126.76883,35.37953],[126.76895,35.37958],[126.76909,35.37967],[126.76928,35.37983],[126.76943,35.37992],[126.76952,35.37998],[126.76963,35.37999],[126.76982,35.37998],[126.76993,35.37996],[126.77117,35.37974],[126.77138,35.3797],[126.77146,35.37966],[126.77195,35.37928],[126.77216,35.37911],[126.77221,35.37906],[126.77221,35.37901],[126.77085,35.37605],[126.76997,35.37303],[126.76979,35.37241],[126.76949,35.37087],[126.76945,35.37069],[126.76932,35.36804],[126.76932,35.36792],[126.76936,35.36785],[126.77081,35.36695],[126.7709,35.3669],[126.77106,35.36684],[126.77114,35.36683],[126.7712,35.36683],[126.77131,35.36685],[126.77235,35.36705],[126.77307,35.3672],[126.7732,35.36721],[126.77598,35.36715],[126.77608,35.36712],[126.7762,35.36707],[126.77657,35.36688],[126.77667,35.36682],[126.77686,35.36665],[126.78137,35.36269],[126.78267,35.361],[126.78274,35.36091],[126.78463,35.35811],[126.78539,35.35638],[126.78549,35.35625],[126.786,35.35575],[126.78612,35.35564],[126.78687,35.35501],[126.78702,35.3549],[126.79071,35.35277],[126.79099,35.35262],[126.79132,35.35249],[126.79168,35.35236]]]]}},{"type":"Feature","properties":{"code":"12840380","name":"북일면","parent":"12840"},"geometry":{"type":"MultiPolygon","coordinates":[[[[126.75396,35.41624],[126.75366,35.41579],[126.75359,35.41566],[126.75357,35.41555],[126.75359,35.41539],[126.75368,35.41512],[126.75388,35.41469],[126.75403,35.4144],[126.75499,35.4131],[126.75509,35.41299],[126.75533,35.41278],[126.75623,35.41205],[126.75734,35.41152],[126.75932,35.41078],[126.76034,35.41045],[126.7613,35.40919],[126.76142,35.40876],[126.76191,35.40737],[126.76206,35.40706],[126.76223,35.40681],[126.76243,35.40655],[126.76274,35.40623],[126.76279,35.40619],[126.76285,35.40618],[126.76294,35.4062],[126.76613,35.40763],[126.76874,35.40921],[126.76881,35.40928],[126.76896,35.40935],[126.7692,35.40942],[126.76942,35.40946],[126.76956,35.40946],[126.77202,35.40911],[126.77244,35.40903],[126.77277,35.40893],[126.77294,35.40887],[126.77315,35.40876],[126.77326,35.4085],[126.77338,35.40837],[126.77359,35.40825],[126.77499,35.4074],[126.77513,35.40733],[126.7753,35.40732],[126.77548,35.40732],[126.77631,35.40738],[126.77641,35.40739],[126.77789,35.40784],[126.77804,35.4079],[126.77827,35.40803],[126.7784,35.40812],[126.77874,35.40828],[126.77898,35.40835],[126.77971,35.40856],[126.77985,35.40856],[126.78326,35.40797],[126.78339,35.40794],[126.78357,35.40787],[126.78368,35.40777],[126.78723,35.40442],[126.78735,35.40426],[126.78828,35.40287],[126.78869,35.402],[126.79076,35.4008],[126.7909,35.40084],[126.79191,35.40097],[126.79206,35.40096],[126.79222,35.40095],[126.79282,35.40089],[126.79313,35.40084],[126.79391,35.4007],[126.79484,35.40044],[126.79748,35.39971],[126.7989,35.39895],[126.80166,35.3967],[126.80179,35.39658],[126.80185,35.39651],[126.80189,35.39641],[126.80191,35.39623],[126.80181,35.39578],[126.80179,35.39565],[126.80182,35.39555],[126.80186,35.3955],[126.80398,35.3936],[126.80404,35.39354],[126.80427,35.3934],[126.80456,35.39333],[126.80466,35.39331],[126.80496,35.39334],[126.80516,35.39341],[126.80553,35.39353],[126.80582,35.39376],[126.80613,35.39433],[126.80644,35.39521],[126.80731,35.39782],[126.80816,35.40078],[126.80844,35.40243],[126.80852,35.40292],[126.81419,35.4001],[126.81479,35.39732],[126.81455,35.39665],[126.81437,35.39628],[126.81477,35.39367],[126.81478,35.39362],[126.81482,35.39355],[126.81489,35.39346],[126.8156,35.39268],[126.81567,35.39261],[126.81578,35.39252],[126.81929,35.39013],[126.81967,35.3899],[126.81979,35.38985],[126.82011,35.38976],[126.8204,35.38969],[126.82061,35.38965],[126.82085,35.38961],[126.82105,35.38958],[126.82156,35.38946],[126.82244,35.38919],[126.82248,35.38917],[126.82261,35.38906],[126.82263,35.38899],[126.82263,35.38879],[126.82253,35.388],[126.8225,35.38784],[126.82045,35.38767],[126.82032,35.38766],[126.82015,35.38762],[126.81954,35.38733],[126.81942,35.38724],[126.81932,35.38714],[126.81726,35.38482],[126.81616,35.38082],[126.81591,35.3794],[126.81573,35.37572],[126.81465,35.37386],[126.81462,35.37379],[126.81454,35.37361],[126.81421,35.3725],[126.81405,35.37181],[126.81396,35.37138],[126.81391,35.37116],[126.81381,35.37003],[126.81383,35.36987],[126.81301,35.36872],[126.8128,35.36867],[126.81066,35.36778],[126.80976,35.36739],[126.80965,35.36733],[126.80869,35.36669],[126.80864,35.36663],[126.80724,35.36495],[126.80714,35.36477],[126.80685,35.36404],[126.80686,35.36393],[126.80541,35.35734],[126.80537,35.35728],[126.80421,35.3562],[126.80281,35.35529],[126.80273,35.3552],[126.80201,35.35336],[126.80173,35.3522],[126.80173,35.352],[126.80172,35.35175],[126.8017,35.35163],[126.80166,35.3515],[126.8016,35.35143],[126.80153,35.35135],[126.80143,35.35128],[126.80124,35.35119],[126.80044,35.35085],[126.80024,35.35076],[126.80011,35.35071],[126.79991,35.35067],[126.79982,35.35065],[126.79694,35.35028],[126.79669,35.35027],[126.7966,35.35028],[126.79221,35.35209],[126.79168,35.35236],[126.79132,35.35249],[126.79099,35.35262],[126.79071,35.35277],[126.78702,35.3549],[126.78687,35.35501],[126.78612,35.35564],[126.786,35.35575],[126.78549,35.35625],[126.78539,35.35638],[126.78463,35.35811],[126.78274,35.36091],[126.78267,35.361],[126.78137,35.36269],[126.77686,35.36665],[126.77667,35.36682],[126.77657,35.36688],[126.7762,35.36707],[126.77608,35.36712],[126.77598,35.36715],[126.7732,35.36721],[126.77307,35.3672],[126.77235,35.36705],[126.77131,35.36685],[126.7712,35.36683],[126.77114,35.36683],[126.77106,35.36684],[126.7709,35.3669],[126.77081,35.36695],[126.76936,35.36785],[126.76932,35.36792],[126.76932,35.36804],[126.76945,35.37069],[126.76949,35.37087],[126.76979,35.37241],[126.76997,35.37303],[126.77085,35.37605],[126.77221,35.37901],[126.77221,35.37906],[126.77216,35.37911],[126.77195,35.37928],[126.77146,35.37966],[126.77138,35.3797],[126.77117,35.37974],[126.76993,35.37996],[126.76982,35.37998],[126.76963,35.37999],[126.76952,35.37998],[126.76943,35.37992],[126.76928,35.37983],[126.76909,35.37967],[126.76895,35.37958],[126.76883,35.37953],[126.7679,35.37927],[126.76782,35.37926],[126.7663,35.37901],[126.76612,35.379],[126.76601,35.37901],[126.76573,35.37909],[126.76547,35.37923],[126.76535,35.37931],[126.76268,35.38093],[126.76261,35.381],[126.76236,35.38154],[126.7623,35.38178],[126.7623,35.38191],[126.76237,35.38211],[126.76254,35.38238],[126.76279,35.38262],[126.76268,35.38297],[126.75909,35.38462],[126.75895,35.38467],[126.75874,35.38471],[126.75837,35.38472],[126.75806,35.38474],[126.75788,35.38479],[126.75764,35.38492],[126.75672,35.38576],[126.75665,35.3859],[126.75656,35.38609],[126.75641,35.38655],[126.75635,35.38658],[126.75629,35.38659],[126.75625,35.3866],[126.75517,35.38658],[126.75506,35.38657],[126.75354,35.38638],[126.75334,35.38634],[126.75308,35.38627],[126.75002,35.38535],[126.74643,35.38392],[126.74233,35.38353],[126.73948,35.38231],[126.73936,35.38217],[126.73865,35.3815],[126.73849,35.3814],[126.73834,35.38132],[126.73798,35.38116],[126.73692,35.38079],[126.7367,35.38072],[126.73502,35.38039],[126.73473,35.38035],[126.73071,35.38019],[126.73103,35.38061],[126.73105,35.38067],[126.73108,35.38074],[126.73204,35.38317],[126.73207,35.3833],[126.73209,35.38344],[126.73208,35.38414],[126.73178,35.38574],[126.73113,35.38845],[126.73105,35.38857],[126.73096,35.38869],[126.73093,35.38871],[126.73089,35.38875],[126.73016,35.39031],[126.7299,35.39236],[126.72961,35.39449],[126.72957,35.39459],[126.72952,35.39463],[126.72706,35.39635],[126.72405,35.39704],[126.72204,35.39835],[126.72195,35.39892],[126.72195,35.39917],[126.722,35.39949],[126.72214,35.4],[126.72228,35.40012],[126.72236,35.40017],[126.72433,35.40073],[126.72465,35.40079],[126.72493,35.40084],[126.72498,35.40085],[126.72502,35.40086],[126.72521,35.40087],[126.72548,35.40084],[126.72553,35.40083],[126.72573,35.4008],[126.72603,35.40072],[126.72644,35.40061],[126.72678,35.40056],[126.72701,35.40055],[126.72735,35.40058],[126.7278,35.40068],[126.73062,35.40138],[126.73098,35.40147],[126.73608,35.40325],[126.73699,35.40464],[126.73698,35.40467],[126.73695,35.40477],[126.73694,35.40517],[126.73696,35.40524],[126.73702,35.40532],[126.73717,35.40547],[126.73744,35.40572],[126.73767,35.40588],[126.73771,35.40591],[126.73778,35.40595],[126.73794,35.40604],[126.73832,35.40624],[126.73865,35.40636],[126.74134,35.40773],[126.74443,35.40929],[126.74576,35.41106],[126.74694,35.41282],[126.74745,35.41389],[126.74747,35.41394],[126.74765,35.41424],[126.74767,35.41427],[126.74794,35.41464],[126.74798,35.4147],[126.74801,35.41474],[126.74818,35.41492],[126.74841,35.41516],[126.74852,35.41524],[126.74856,35.41527],[126.74909,35.41564],[126.74955,35.41592],[126.74982,35.41603],[126.74988,35.41606],[126.74999,35.41609],[126.75176,35.41637],[126.75207,35.41639],[126.75219,35.4164],[126.75248,35.41638],[126.75308,35.41635],[126.75355,35.41631],[126.75396,35.41624]]]]}},{"type":"Feature","properties":{"code":"12840390","name":"북이면","parent":"12840"},"geometry":{"type":"MultiPolygon","coordinates":[[[[126.81357,35.46885],[126.81369,35.4688],[126.81468,35.46749],[126.81487,35.46721],[126.81637,35.46502],[126.81782,35.46248],[126.81785,35.46241],[126.81808,35.46218],[126.81837,35.46194],[126.81865,35.46179],[126.81999,35.46128],[126.82058,35.4611],[126.82109,35.46096],[126.82128,35.46087],[126.82141,35.46077],[126.82377,35.45884],[126.82393,35.4587],[126.82581,35.45685],[126.83045,35.45222],[126.83236,35.44995],[126.83308,35.44801],[126.83341,35.44703],[126.83346,35.44672],[126.83357,35.4448],[126.83357,35.44458],[126.83325,35.44388],[126.83313,35.44361],[126.83273,35.44277],[126.83272,35.4412],[126.83276,35.44093],[126.83285,35.44067],[126.83299,35.44045],[126.83385,35.43937],[126.83416,35.43901],[126.83438,35.43888],[126.83485,35.43873],[126.83508,35.43854],[126.83524,35.43834],[126.83566,35.4375],[126.83646,35.4359],[126.8365,35.43576],[126.83651,35.43567],[126.83641,35.43031],[126.83627,35.42981],[126.83614,35.42966],[126.83584,35.42942],[126.83522,35.42896],[126.83514,35.42886],[126.83513,35.42869],[126.83529,35.42844],[126.83642,35.42688],[126.83659,35.42665],[126.83686,35.42657],[126.83733,35.42642],[126.83793,35.42623],[126.83864,35.42593],[126.83889,35.4258],[126.83915,35.42561],[126.83932,35.42542],[126.83943,35.42522],[126.83951,35.42496],[126.83959,35.42453],[126.83959,35.42438],[126.83954,35.4243],[126.8394,35.42415],[126.83917,35.424],[126.8387,35.42386],[126.83844,35.42373],[126.83821,35.42356],[126.83802,35.42338],[126.8379,35.42318],[126.83781,35.42294],[126.83592,35.41682],[126.83502,35.41529],[126.83477,35.41475],[126.83463,35.41441],[126.83458,35.41406],[126.83453,35.41362],[126.83454,35.41347],[126.83463,35.41336],[126.8348,35.4133],[126.83529,35.41328],[126.83561,35.4132],[126.83575,35.41312],[126.83592,35.41299],[126.83763,35.4109],[126.83778,35.41071],[126.83788,35.41051],[126.83845,35.40652],[126.83863,35.40515],[126.83833,35.4023],[126.8383,35.4022],[126.83825,35.40211],[126.83818,35.402],[126.83802,35.40186],[126.83787,35.40171],[126.83662,35.39962],[126.83656,35.39952],[126.83641,35.3991],[126.83541,35.39534],[126.83539,35.39522],[126.83536,35.39494],[126.83536,35.39487],[126.83538,35.3948],[126.83541,35.39474],[126.83595,35.39406],[126.836,35.394],[126.83606,35.39398],[126.83642,35.39397],[126.83705,35.39399],[126.83749,35.39401],[126.83764,35.39401],[126.8377,35.394],[126.83777,35.39397],[126.8401,35.39165],[126.8412,35.39044],[126.84178,35.38976],[126.84187,35.38966],[126.84162,35.38964],[126.84143,35.38961],[126.84116,35.38955],[126.84096,35.38948],[126.84086,35.38944],[126.84067,35.38935],[126.84052,35.38926],[126.83997,35.38879],[126.83965,35.38834],[126.83939,35.38796],[126.83912,35.38755],[126.83869,35.38691],[126.83774,35.38554],[126.83712,35.38487],[126.83685,35.38462],[126.83642,35.38427],[126.83335,35.38186],[126.83286,35.38151],[126.83267,35.38139],[126.83252,35.38133],[126.8324,35.38135],[126.8322,35.38142],[126.83099,35.38197],[126.83085,35.38208],[126.83077,35.38218],[126.83051,35.38273],[126.83042,35.38292],[126.83011,35.38344],[126.82995,35.38372],[126.82984,35.38386],[126.82895,35.38479],[126.82885,35.38487],[126.82861,35.38503],[126.82486,35.38713],[126.82382,35.38766],[126.82365,35.38774],[126.82355,35.38778],[126.82345,35.3878],[126.82303,35.38787],[126.82293,35.38787],[126.8225,35.38784],[126.82253,35.388],[126.82263,35.38879],[126.82263,35.38899],[126.82261,35.38906],[126.82248,35.38917],[126.82244,35.38919],[126.82156,35.38946],[126.82105,35.38958],[126.82085,35.38961],[126.82061,35.38965],[126.8204,35.38969],[126.82011,35.38976],[126.81979,35.38985],[126.81967,35.3899],[126.81929,35.39013],[126.81578,35.39252],[126.81567,35.39261],[126.8156,35.39268],[126.81489,35.39346],[126.81482,35.39355],[126.81478,35.39362],[126.81477,35.39367],[126.81437,35.39628],[126.81455,35.39665],[126.81479,35.39732],[126.81419,35.4001],[126.80852,35.40292],[126.80844,35.40243],[126.80816,35.40078],[126.80731,35.39782],[126.80644,35.39521],[126.80613,35.39433],[126.80582,35.39376],[126.80553,35.39353],[126.80516,35.39341],[126.80496,35.39334],[126.80466,35.39331],[126.80456,35.39333],[126.80427,35.3934],[126.80404,35.39354],[126.80398,35.3936],[126.80186,35.3955],[126.80182,35.39555],[126.80179,35.39565],[126.80181,35.39578],[126.80191,35.39623],[126.80189,35.39641],[126.80185,35.39651],[126.80179,35.39658],[126.80166,35.3967],[126.7989,35.39895],[126.79748,35.39971],[126.79484,35.40044],[126.79391,35.4007],[126.79313,35.40084],[126.79282,35.40089],[126.79222,35.40095],[126.79206,35.40096],[126.79191,35.40097],[126.7909,35.40084],[126.79076,35.4008],[126.78869,35.402],[126.78828,35.40287],[126.78735,35.40426],[126.78723,35.40442],[126.78368,35.40777],[126.78357,35.40787],[126.78339,35.40794],[126.78326,35.40797],[126.77985,35.40856],[126.77971,35.40856],[126.77898,35.40835],[126.77874,35.40828],[126.7784,35.40812],[126.77827,35.40803],[126.77804,35.4079],[126.77789,35.40784],[126.77641,35.40739],[126.77631,35.40738],[126.77548,35.40732],[126.7753,35.40732],[126.77513,35.40733],[126.77499,35.4074],[126.77359,35.40825],[126.77338,35.40837],[126.77326,35.4085],[126.77315,35.40876],[126.77294,35.40887],[126.77277,35.40893],[126.77244,35.40903],[126.77202,35.40911],[126.76956,35.40946],[126.76942,35.40946],[126.7692,35.40942],[126.76896,35.40935],[126.76881,35.40928],[126.76874,35.40921],[126.76613,35.40763],[126.76294,35.4062],[126.76285,35.40618],[126.76279,35.40619],[126.76274,35.40623],[126.76243,35.40655],[126.76223,35.40681],[126.76206,35.40706],[126.76191,35.40737],[126.76142,35.40876],[126.7613,35.40919],[126.76034,35.41045],[126.75932,35.41078],[126.75734,35.41152],[126.75623,35.41205],[126.75533,35.41278],[126.75509,35.41299],[126.75499,35.4131],[126.75403,35.4144],[126.75388,35.41469],[126.75368,35.41512],[126.75359,35.41539],[126.75357,35.41555],[126.75359,35.41566],[126.75366,35.41579],[126.75396,35.41624],[126.7543,35.41794],[126.75401,35.42005],[126.75378,35.42029],[126.75344,35.42071],[126.75212,35.42253],[126.75195,35.42278],[126.75183,35.42298],[126.75177,35.42316],[126.75177,35.4232],[126.75177,35.4233],[126.75177,35.42339],[126.75178,35.4235],[126.75203,35.4261],[126.75135,35.43195],[126.75134,35.432],[126.75126,35.43236],[126.7512,35.43277],[126.7512,35.43286],[126.75119,35.43306],[126.75129,35.43467],[126.75131,35.43475],[126.75134,35.43478],[126.75144,35.43488],[126.7516,35.43502],[126.75169,35.43518],[126.75173,35.43532],[126.75173,35.43562],[126.75172,35.43581],[126.75171,35.43599],[126.75168,35.43612],[126.75152,35.43647],[126.7513,35.43689],[126.75122,35.43702],[126.75118,35.43708],[126.74864,35.43979],[126.74843,35.43996],[126.74745,35.44041],[126.74737,35.44043],[126.74652,35.44053],[126.74634,35.44054],[126.7461,35.44054],[126.74593,35.44052],[126.74587,35.44051],[126.74575,35.44051],[126.74565,35.44052],[126.74451,35.44068],[126.74442,35.4407],[126.74438,35.44075],[126.74276,35.44258],[126.74257,35.443],[126.73961,35.44741],[126.73812,35.44903],[126.73813,35.44912],[126.73913,35.45041],[126.73933,35.45063],[126.74091,35.45232],[126.74114,35.45249],[126.74126,35.45251],[126.74137,35.45251],[126.74149,35.45249],[126.74211,35.45233],[126.74232,35.45228],[126.74269,35.45218],[126.74288,35.45211],[126.74303,35.45204],[126.74312,35.452],[126.74322,35.45193],[126.74347,35.45175],[126.74396,35.4514],[126.74458,35.451],[126.74466,35.45097],[126.74472,35.45095],[126.74759,35.45036],[126.74768,35.45034],[126.74778,35.45033],[126.74787,35.45033],[126.7495,35.45115],[126.74968,35.45125],[126.74981,35.45136],[126.75418,35.45519],[126.75427,35.45527],[126.75429,35.45532],[126.75432,35.45538],[126.75437,35.45553],[126.75484,35.45674],[126.75534,35.45795],[126.75676,35.46078],[126.75683,35.46085],[126.757,35.46101],[126.76153,35.46475],[126.76168,35.46487],[126.76179,35.46495],[126.76184,35.46498],[126.76197,35.46505],[126.76395,35.46602],[126.76405,35.46604],[126.7672,35.46634],[126.76743,35.46635],[126.76831,35.46641],[126.76842,35.46642],[126.7686,35.46642],[126.76893,35.46643],[126.76918,35.46641],[126.76929,35.46638],[126.76948,35.46633],[126.76957,35.46633],[126.76968,35.46633],[126.76976,35.46635],[126.77026,35.46655],[126.77156,35.46734],[126.77178,35.46751],[126.77199,35.46772],[126.77203,35.46776],[126.77241,35.46818],[126.77252,35.46838],[126.77297,35.46814],[126.77419,35.46821],[126.77555,35.46829],[126.77773,35.46876],[126.77864,35.46912],[126.78007,35.46971],[126.78067,35.46993],[126.78216,35.47034],[126.78354,35.47001],[126.78531,35.46895],[126.78565,35.46874],[126.78641,35.46827],[126.78791,35.46761],[126.79285,35.46718],[126.79679,35.46797],[126.80203,35.46825],[126.80281,35.46813],[126.80357,35.46759],[126.80408,35.46756],[126.80659,35.46787],[126.80931,35.4684],[126.81076,35.46872],[126.81305,35.46883],[126.81357,35.46885]]]]}},{"type":"Feature","properties":{"code":"12840400","name":"북하면","parent":"12840"},"geometry":{"type":"MultiPolygon","coordinates":[[[[126.86869,35.46139],[126.87051,35.46025],[126.87513,35.45697],[126.8753,35.45681],[126.87597,35.4564],[126.87626,35.45624],[126.87653,35.45611],[126.8769,35.45596],[126.87743,35.45577],[126.87778,35.45566],[126.87807,35.4556],[126.87846,35.45557],[126.8786,35.45556],[126.87864,35.45556],[126.87875,35.45557],[126.87897,35.45562],[126.87917,35.45569],[126.87938,35.45572],[126.87952,35.45572],[126.87968,35.45569],[126.88016,35.45558],[126.88037,35.45553],[126.88048,35.45548],[126.8805,35.45547],[126.88187,35.4541],[126.88195,35.45394],[126.88203,35.45374],[126.88203,35.45367],[126.88204,35.45357],[126.88204,35.45341],[126.88204,35.45333],[126.88202,35.4532],[126.88201,35.45309],[126.882,35.45304],[126.88204,35.45283],[126.88221,35.45257],[126.88243,35.45227],[126.88264,35.45201],[126.88297,35.45167],[126.88369,35.45116],[126.884,35.45099],[126.88437,35.45089],[126.88452,35.45085],[126.88487,35.45079],[126.88666,35.4505],[126.88716,35.45047],[126.88764,35.45049],[126.88802,35.45048],[126.88969,35.45021],[126.89011,35.45013],[126.89183,35.44962],[126.89484,35.44848],[126.8965,35.44701],[126.89869,35.44506],[126.8988,35.44496],[126.89885,35.44488],[126.89889,35.44481],[126.89892,35.4446],[126.89914,35.44383],[126.89972,35.44263],[126.89985,35.44246],[126.90003,35.4423],[126.90029,35.44213],[126.90063,35.44197],[126.90112,35.4418],[126.90194,35.44164],[126.9022,35.44158],[126.9024,35.44155],[126.90285,35.44143],[126.90375,35.44121],[126.90451,35.44099],[126.90461,35.44094],[126.90466,35.4409],[126.90473,35.44079],[126.90474,35.44072],[126.9047,35.44064],[126.9046,35.44053],[126.90451,35.44043],[126.90078,35.43726],[126.89773,35.43594],[126.89768,35.43593],[126.89758,35.43587],[126.89752,35.43578],[126.89749,35.43561],[126.89749,35.43539],[126.89761,35.43355],[126.89765,35.43319],[126.8977,35.433],[126.89781,35.4328],[126.89793,35.43268],[126.89841,35.43229],[126.89868,35.43209],[126.89892,35.43199],[126.89912,35.43191],[126.89943,35.43185],[126.89995,35.43173],[126.90026,35.43165],[126.90046,35.4316],[126.90084,35.4315],[126.90097,35.43147],[126.90148,35.43129],[126.90198,35.43107],[126.90249,35.43085],[126.903,35.43063],[126.90314,35.43055],[126.90327,35.43049],[126.9035,35.43032],[126.90364,35.43015],[126.90368,35.43007],[126.90372,35.42995],[126.90373,35.42899],[126.90371,35.42886],[126.90371,35.42878],[126.90359,35.42859],[126.90304,35.42773],[126.90249,35.4256],[126.90198,35.4229],[126.90196,35.42277],[126.90199,35.42271],[126.90214,35.42239],[126.90296,35.42109],[126.90314,35.42083],[126.90328,35.42071],[126.90368,35.42058],[126.90383,35.42055],[126.90429,35.42047],[126.90449,35.42044],[126.90505,35.42037],[126.90527,35.42036],[126.90558,35.42035],[126.90579,35.42035],[126.90623,35.42037],[126.90633,35.42037],[126.90657,35.4204],[126.90677,35.42041],[126.90699,35.42038],[126.90716,35.42035],[126.90737,35.42028],[126.90751,35.42018],[126.9077,35.42],[126.90876,35.41903],[126.90888,35.41882],[126.90895,35.41841],[126.90894,35.41825],[126.9089,35.41806],[126.9088,35.41786],[126.90864,35.41758],[126.90852,35.41716],[126.90849,35.41698],[126.9085,35.41679],[126.90852,35.41672],[126.90853,35.41667],[126.90863,35.4166],[126.91099,35.41556],[126.91154,35.41536],[126.91178,35.41529],[126.91195,35.41527],[126.91213,35.41526],[126.91227,35.41526],[126.91248,35.4153],[126.91259,35.41534],[126.91276,35.41542],[126.9132,35.41565],[126.91338,35.41574],[126.91383,35.41588],[126.91417,35.41596],[126.91445,35.416],[126.91466,35.41603],[126.9151,35.41604],[126.91545,35.416],[126.9157,35.41594],[126.91587,35.41586],[126.91598,35.41578],[126.91603,35.41574],[126.91628,35.41549],[126.92067,35.41089],[126.92069,35.41083],[126.92068,35.41074],[126.92059,35.41063],[126.91862,35.40827],[126.91696,35.40519],[126.91692,35.40506],[126.91691,35.40499],[126.9169,35.40487],[126.9172,35.40255],[126.91724,35.40242],[126.91727,35.40234],[126.91733,35.40224],[126.91736,35.4022],[126.91746,35.40212],[126.91812,35.40199],[126.91856,35.4019],[126.91885,35.40188],[126.91925,35.4019],[126.91947,35.40192],[126.9196,35.40197],[126.92095,35.40113],[126.9216,35.40073],[126.9217,35.40068],[126.92185,35.40064],[126.92211,35.40062],[126.92246,35.40059],[126.9227,35.40055],[126.92275,35.40054],[126.92474,35.39934],[126.92491,35.39922],[126.925,35.39912],[126.92513,35.39895],[126.92523,35.39875],[126.92575,35.39687],[126.92577,35.3966],[126.92575,35.39643],[126.9255,35.39481],[126.92546,35.39473],[126.9254,35.39463],[126.92482,35.3938],[126.92414,35.3928],[126.92406,35.39265],[126.92406,35.39255],[126.92405,35.39075],[126.92405,35.39051],[126.92407,35.39023],[126.92411,35.39004],[126.92416,35.38983],[126.92487,35.38744],[126.92534,35.38631],[126.92514,35.38426],[126.92457,35.37944],[126.92453,35.37936],[126.92443,35.37917],[126.92431,35.37908],[126.92423,35.37905],[126.9241,35.37905],[126.92404,35.37906],[126.92394,35.37908],[126.92382,35.37912],[126.92376,35.37915],[126.92364,35.37921],[126.92342,35.37936],[126.92258,35.38004],[126.92205,35.38046],[126.9215,35.38092],[126.92113,35.38126],[126.92082,35.38155],[126.92027,35.38211],[126.92015,35.38231],[126.91999,35.38268],[126.91984,35.38315],[126.91971,35.3836],[126.91964,35.38372],[126.91763,35.38599],[126.91747,35.38608],[126.91738,35.38611],[126.91715,35.38609],[126.91704,35.38607],[126.91695,35.38604],[126.91675,35.38593],[126.91664,35.38585],[126.91653,35.38576],[126.91645,35.38566],[126.91636,35.38555],[126.91626,35.38538],[126.91607,35.38505],[126.91589,35.38477],[126.91566,35.38451],[126.91296,35.3822],[126.91222,35.38171],[126.91136,35.38155],[126.91076,35.38153],[126.91052,35.3815],[126.91026,35.38146],[126.91007,35.38143],[126.90991,35.38141],[126.90978,35.38135],[126.90967,35.3813],[126.90731,35.38002],[126.90407,35.37756],[126.90242,35.37504],[126.90062,35.37285],[126.90038,35.3728],[126.89834,35.37215],[126.8983,35.37213],[126.89806,35.37198],[126.89799,35.37191],[126.89793,35.37185],[126.89581,35.3686],[126.89559,35.36818],[126.89533,35.3676],[126.89533,35.36755],[126.89534,35.3675],[126.89548,35.36731],[126.89567,35.36698],[126.89578,35.36662],[126.8958,35.36625],[126.89577,35.36613],[126.89573,35.36608],[126.89541,35.36593],[126.8946,35.36563],[126.89273,35.36502],[126.89174,35.3647],[126.89153,35.36465],[126.88987,35.36449],[126.88974,35.36452],[126.88883,35.36478],[126.88845,35.36495],[126.88823,35.36497],[126.88701,35.36497],[126.88696,35.36495],[126.88644,35.36441],[126.88429,35.36157],[126.88425,35.36149],[126.88333,35.35728],[126.88276,35.35465],[126.88275,35.35449],[126.88277,35.35351],[126.88279,35.35315],[126.88284,35.35286],[126.88123,35.35049],[126.87852,35.3475],[126.8776,35.34646],[126.87665,35.3451],[126.87592,35.34264],[126.87589,35.3425],[126.87602,35.34182],[126.87613,35.34164],[126.87625,35.34151],[126.8764,35.34147],[126.8768,35.3414],[126.877,35.34133],[126.87785,35.34087],[126.87822,35.34066],[126.87906,35.34012],[126.87924,35.34],[126.87929,35.3399],[126.87937,35.33877],[126.87935,35.33857],[126.87934,35.33837],[126.88347,35.33193],[126.88361,35.33173],[126.88408,35.3311],[126.88421,35.33107],[126.8844,35.33106],[126.88451,35.33104],[126.88457,35.33102],[126.88529,35.33066],[126.88542,35.33059],[126.88554,35.33046],[126.88571,35.3302],[126.88591,35.32982],[126.8875,35.32649],[126.88773,35.32594],[126.88773,35.32591],[126.88772,35.32587],[126.88728,35.32569],[126.88612,35.32498],[126.88496,35.32426],[126.88427,35.32374],[126.88287,35.32264],[126.88236,35.32215],[126.8823,35.3221],[126.88039,35.32117],[126.88013,35.32105],[126.87759,35.32267],[126.8775,35.32272],[126.87742,35.32274],[126.87737,35.32275],[126.87728,35.32274],[126.87709,35.32268],[126.87686,35.32263],[126.87627,35.32258],[126.87588,35.32256],[126.8757,35.32257],[126.87538,35.32259],[126.87193,35.3229],[126.87128,35.32309],[126.87104,35.32309],[126.86972,35.32305],[126.86422,35.32268],[126.86409,35.32266],[126.86317,35.32247],[126.86314,35.32245],[126.86138,35.32123],[126.8599,35.32184],[126.85599,35.32207],[126.85489,35.3222],[126.85398,35.32239],[126.8535,35.32249],[126.84921,35.32383],[126.84913,35.32386],[126.84892,35.32394],[126.84874,35.32401],[126.8474,35.32457],[126.84735,35.32459],[126.84727,35.32467],[126.84725,35.32472],[126.84708,35.32555],[126.84702,35.32595],[126.847,35.32615],[126.84699,35.32625],[126.84701,35.32643],[126.84703,35.32653],[126.84712,35.32686],[126.8484,35.32974],[126.84846,35.32985],[126.84856,35.32992],[126.84879,35.33003],[126.85055,35.33071],[126.85236,35.33131],[126.85252,35.33136],[126.85269,35.33145],[126.8537,35.33254],[126.85385,35.33275],[126.85396,35.333],[126.85428,35.33378],[126.85434,35.334],[126.85437,35.33419],[126.85434,35.33521],[126.85429,35.33649],[126.85406,35.33981],[126.85383,35.3416],[126.85381,35.34184],[126.85379,35.3421],[126.85381,35.34241],[126.85386,35.34269],[126.85393,35.34299],[126.85409,35.34335],[126.85428,35.34355],[126.85457,35.34372],[126.85471,35.34385],[126.85478,35.34398],[126.85707,35.34891],[126.85714,35.34909],[126.85716,35.34922],[126.85723,35.34987],[126.85722,35.35003],[126.85709,35.35122],[126.85877,35.35512],[126.85891,35.35545],[126.85891,35.35558],[126.85695,35.35941],[126.85678,35.35962],[126.85572,35.36055],[126.85541,35.36082],[126.85491,35.36114],[126.85303,35.36225],[126.85263,35.36249],[126.85217,35.36267],[126.85195,35.36274],[126.8519,35.36269],[126.85163,35.36225],[126.85145,35.36205],[126.85123,35.36192],[126.85097,35.36183],[126.85071,35.36179],[126.85047,35.36183],[126.85014,35.36192],[126.84847,35.36244],[126.84592,35.36415],[126.84579,35.36425],[126.84417,35.36551],[126.84403,35.36563],[126.84394,35.36572],[126.84391,35.3658],[126.84389,35.36583],[126.84385,35.36591],[126.84261,35.36986],[126.84259,35.36997],[126.8426,35.37011],[126.84262,35.37025],[126.84267,35.37037],[126.84278,35.37049],[126.84394,35.37165],[126.8441,35.37179],[126.84424,35.37188],[126.84436,35.37193],[126.84449,35.37197],[126.84473,35.37203],[126.84488,35.37209],[126.84504,35.37216],[126.84513,35.37221],[126.84532,35.37234],[126.84613,35.37305],[126.84623,35.37314],[126.84649,35.37341],[126.84652,35.37346],[126.84758,35.37938],[126.84758,35.38041],[126.84756,35.38049],[126.84747,35.38062],[126.84741,35.38068],[126.84729,35.38076],[126.84693,35.38097],[126.84679,35.38104],[126.84663,35.38109],[126.84485,35.38144],[126.84297,35.38221],[126.84287,35.38226],[126.84281,35.38236],[126.84293,35.38314],[126.84321,35.38478],[126.84334,35.38553],[126.84356,35.38669],[126.84377,35.3877],[126.84381,35.38789],[126.84385,35.38813],[126.84386,35.38823],[126.84385,35.38848],[126.84384,35.38855],[126.84376,35.38881],[126.84361,35.38924],[126.84353,35.38941],[126.84347,35.38947],[126.84338,35.38954],[126.8432,35.38963],[126.84311,35.38967],[126.84292,35.38969],[126.84213,35.38967],[126.84187,35.38966],[126.84178,35.38976],[126.8412,35.39044],[126.8401,35.39165],[126.83777,35.39397],[126.8377,35.394],[126.83764,35.39401],[126.83749,35.39401],[126.83705,35.39399],[126.83642,35.39397],[126.83606,35.39398],[126.836,35.394],[126.83595,35.39406],[126.83541,35.39474],[126.83538,35.3948],[126.83536,35.39487],[126.83536,35.39494],[126.83539,35.39522],[126.83541,35.39534],[126.83641,35.3991],[126.83656,35.39952],[126.83662,35.39962],[126.83787,35.40171],[126.83802,35.40186],[126.83818,35.402],[126.83825,35.40211],[126.8383,35.4022],[126.83833,35.4023],[126.83863,35.40515],[126.83845,35.40652],[126.83788,35.41051],[126.83778,35.41071],[126.83763,35.4109],[126.83592,35.41299],[126.83575,35.41312],[126.83561,35.4132],[126.83529,35.41328],[126.8348,35.4133],[126.83463,35.41336],[126.83454,35.41347],[126.83453,35.41362],[126.83458,35.41406],[126.83463,35.41441],[126.83477,35.41475],[126.83502,35.41529],[126.83592,35.41682],[126.83781,35.42294],[126.8379,35.42318],[126.83802,35.42338],[126.83821,35.42356],[126.83844,35.42373],[126.8387,35.42386],[126.83917,35.424],[126.8394,35.42415],[126.83954,35.4243],[126.83959,35.42438],[126.83959,35.42453],[126.83951,35.42496],[126.83943,35.42522],[126.83932,35.42542],[126.83915,35.42561],[126.83889,35.4258],[126.83864,35.42593],[126.83793,35.42623],[126.83733,35.42642],[126.83686,35.42657],[126.83659,35.42665],[126.83642,35.42688],[126.83529,35.42844],[126.83513,35.42869],[126.83514,35.42886],[126.83522,35.42896],[126.83584,35.42942],[126.83614,35.42966],[126.83627,35.42981],[126.83641,35.43031],[126.83651,35.43567],[126.8365,35.43576],[126.83646,35.4359],[126.83566,35.4375],[126.83524,35.43834],[126.83508,35.43854],[126.83485,35.43873],[126.83438,35.43888],[126.83416,35.43901],[126.83385,35.43937],[126.83299,35.44045],[126.83285,35.44067],[126.83276,35.44093],[126.83272,35.4412],[126.83273,35.44277],[126.83313,35.44361],[126.83325,35.44388],[126.83357,35.44458],[126.83357,35.4448],[126.83346,35.44672],[126.83341,35.44703],[126.83308,35.44801],[126.83236,35.44995],[126.83045,35.45222],[126.82581,35.45685],[126.82393,35.4587],[126.82377,35.45884],[126.82141,35.46077],[126.82128,35.46087],[126.82109,35.46096],[126.82058,35.4611],[126.81999,35.46128],[126.81865,35.46179],[126.81837,35.46194],[126.81808,35.46218],[126.81785,35.46241],[126.81782,35.46248],[126.81637,35.46502],[126.81487,35.46721],[126.81468,35.46749],[126.81369,35.4688],[126.81357,35.46885],[126.8139,35.46919],[126.81427,35.4699],[126.81503,35.47364],[126.81495,35.47393],[126.81404,35.47475],[126.81398,35.4748],[126.81303,35.47614],[126.81293,35.47663],[126.81375,35.48211],[126.81385,35.48265],[126.81396,35.48294],[126.8154,35.48438],[126.81819,35.4856],[126.81858,35.48576],[126.81927,35.48588],[126.82001,35.48529],[126.82176,35.48511],[126.82613,35.4863],[126.82642,35.48611],[126.82761,35.48473],[126.83057,35.48093],[126.83104,35.48021],[126.8311,35.48014],[126.83124,35.48007],[126.8315,35.48004],[126.83376,35.48058],[126.83495,35.48101],[126.83626,35.48151],[126.83857,35.4827],[126.83927,35.48306],[126.83989,35.4831],[126.84004,35.48302],[126.84027,35.4829],[126.84228,35.48009],[126.84304,35.4779],[126.84314,35.47599],[126.8426,35.47496],[126.84233,35.47452],[126.84179,35.47407],[126.84126,35.47216],[126.84045,35.46915],[126.84058,35.46639],[126.83919,35.4655],[126.83894,35.46532],[126.83846,35.46496],[126.83832,35.46478],[126.83814,35.46457],[126.83814,35.46412],[126.83821,35.46374],[126.83858,35.46311],[126.83902,35.46252],[126.83964,35.46213],[126.84157,35.46273],[126.84164,35.46289],[126.84182,35.46332],[126.84209,35.46364],[126.84229,35.46389],[126.84878,35.46584],[126.85062,35.46598],[126.85308,35.46547],[126.85732,35.46425],[126.85828,35.46343],[126.85884,35.46235],[126.86156,35.46165],[126.86706,35.46138],[126.86869,35.46139]]]]}}]}