{"type":"FeatureCollection","features":[{"type":"Feature","properties":{"code":"48860250","name":"산청읍","parent":"48860"},"geometry":{"type":"MultiPolygon","coordinates":[[[[127.90455,35.46112],[127.90659,35.45969],[127.90807,35.45983],[127.90849,35.45984],[127.90889,35.45981],[127.90905,35.45979],[127.90932,35.45971],[127.91441,35.45674],[127.91658,35.45531],[127.91663,35.45526],[127.91668,35.45508],[127.91668,35.45501],[127.91617,35.45251],[127.91611,35.45234],[127.91589,35.45048],[127.9159,35.45036],[127.9162,35.44975],[127.91628,35.44966],[127.91636,35.4496],[127.91656,35.44954],[127.91675,35.44944],[127.91688,35.44935],[127.91697,35.44919],[127.91702,35.44903],[127.91823,35.44521],[127.91828,35.44484],[127.91831,35.44439],[127.91836,35.44357],[127.91832,35.44299],[127.91835,35.44294],[127.91844,35.4429],[127.92195,35.44152],[127.92345,35.44151],[127.92539,35.44162],[127.92687,35.44171],[127.92864,35.44175],[127.92875,35.44174],[127.92881,35.44172],[127.92927,35.44106],[127.9293,35.44096],[127.92928,35.44083],[127.92924,35.44067],[127.92925,35.44046],[127.92947,35.43949],[127.93092,35.4354],[127.93099,35.43529],[127.93382,35.43324],[127.93593,35.43242],[127.93616,35.43236],[127.9385,35.43152],[127.93863,35.43146],[127.93886,35.43123],[127.93904,35.43092],[127.93907,35.43083],[127.93911,35.42996],[127.93911,35.42926],[127.93914,35.42871],[127.93919,35.42836],[127.93927,35.42805],[127.93933,35.42789],[127.93946,35.42776],[127.93987,35.42745],[127.94042,35.42715],[127.94153,35.42658],[127.94131,35.42521],[127.94119,35.42432],[127.94107,35.42325],[127.94107,35.42313],[127.94126,35.41803],[127.94129,35.41788],[127.94134,35.41771],[127.94145,35.41747],[127.94157,35.41727],[127.9417,35.41715],[127.94183,35.41708],[127.94553,35.41552],[127.94622,35.41526],[127.94671,35.4151],[127.94765,35.41484],[127.94783,35.41479],[127.94802,35.4148],[127.94884,35.41485],[127.94922,35.41486],[127.9498,35.41486],[127.95042,35.4148],[127.95107,35.41468],[127.95158,35.41455],[127.95183,35.41446],[127.95557,35.41299],[127.95579,35.4129],[127.95603,35.41273],[127.95689,35.41198],[127.95698,35.41186],[127.95701,35.41179],[127.95699,35.41174],[127.95601,35.41082],[127.9555,35.41036],[127.95345,35.40859],[127.95163,35.40709],[127.95152,35.40702],[127.95124,35.40682],[127.95096,35.40656],[127.95079,35.40638],[127.95067,35.4062],[127.94936,35.40319],[127.94986,35.4028],[127.94991,35.40275],[127.95015,35.40219],[127.95018,35.40194],[127.95032,35.39979],[127.95031,35.39965],[127.95026,35.39951],[127.94985,35.39869],[127.94955,35.39819],[127.94937,35.39799],[127.94924,35.39788],[127.94895,35.39771],[127.94783,35.39681],[127.94628,35.39534],[127.94612,35.39515],[127.94537,35.39334],[127.94534,35.39317],[127.94536,35.39282],[127.94549,35.39216],[127.94589,35.39092],[127.9461,35.38986],[127.94596,35.38932],[127.94577,35.38912],[127.94527,35.38868],[127.94476,35.38777],[127.94175,35.38409],[127.94163,35.38401],[127.94076,35.38379],[127.94063,35.38375],[127.94048,35.38375],[127.94001,35.38383],[127.93976,35.38383],[127.9396,35.38379],[127.93827,35.38333],[127.93812,35.38325],[127.9372,35.38183],[127.9371,35.38162],[127.9371,35.3814],[127.93718,35.38121],[127.93733,35.38104],[127.93767,35.38079],[127.93824,35.38035],[127.93863,35.37998],[127.93886,35.37953],[127.93887,35.37936],[127.93882,35.37892],[127.93872,35.37868],[127.93847,35.37839],[127.93796,35.37805],[127.93786,35.378],[127.93775,35.37796],[127.93763,35.37794],[127.93408,35.37592],[127.9332,35.37502],[127.93121,35.37352],[127.93098,35.37336],[127.9308,35.37323],[127.93067,35.37315],[127.93048,35.37304],[127.92558,35.37087],[127.92349,35.36943],[127.92062,35.36869],[127.91817,35.36831],[127.91742,35.36835],[127.91635,35.36841],[127.91617,35.3684],[127.91593,35.36836],[127.91558,35.36819],[127.91541,35.36806],[127.91505,35.36765],[127.91493,35.36747],[127.91482,35.36725],[127.91482,35.36712],[127.91489,35.36659],[127.91594,35.36321],[127.91566,35.36301],[127.91542,35.36286],[127.9152,35.36277],[127.91259,35.36245],[127.90999,35.3624],[127.90951,35.36242],[127.90927,35.36246],[127.90762,35.36291],[127.90635,35.36339],[127.90609,35.36358],[127.90592,35.36368],[127.90574,35.36374],[127.90411,35.36429],[127.90394,35.36432],[127.90116,35.36464],[127.90006,35.36452],[127.89975,35.36443],[127.89958,35.36417],[127.89942,35.36399],[127.89903,35.3637],[127.89808,35.36319],[127.89757,35.36299],[127.89718,35.36296],[127.8968,35.36294],[127.89514,35.36316],[127.89502,35.36319],[127.89479,35.36326],[127.89412,35.3635],[127.89345,35.36381],[127.89302,35.36413],[127.89291,35.36423],[127.89271,35.36442],[127.89202,35.36515],[127.89192,35.36539],[127.89183,35.36559],[127.8916,35.36582],[127.89061,35.36618],[127.89045,35.36623],[127.88972,35.36628],[127.8887,35.36626],[127.8874,35.36592],[127.8866,35.36616],[127.88627,35.36626],[127.88612,35.36629],[127.88582,35.36637],[127.8857,35.36637],[127.88461,35.36621],[127.8841,35.3661],[127.8839,35.36593],[127.8834,35.3655],[127.88302,35.3653],[127.87745,35.36343],[127.8771,35.36327],[127.87687,35.36312],[127.87669,35.36297],[127.87482,35.36134],[127.87217,35.36248],[127.87158,35.36277],[127.87039,35.36354],[127.87012,35.36375],[127.86989,35.36393],[127.86967,35.36429],[127.86937,35.36509],[127.86893,35.36612],[127.86837,35.36671],[127.86804,35.36693],[127.86771,35.36715],[127.86626,35.36756],[127.86596,35.36759],[127.8656,35.36763],[127.86527,35.36778],[127.86519,35.36782],[127.86512,35.36789],[127.86502,35.36799],[127.86486,35.36828],[127.86118,35.37741],[127.86016,35.3818],[127.85961,35.38316],[127.85929,35.38371],[127.85903,35.38394],[127.858,35.3844],[127.85741,35.38493],[127.85665,35.3857],[127.85588,35.38648],[127.85586,35.38653],[127.85552,35.38711],[127.85546,35.38785],[127.85554,35.39395],[127.85603,35.39456],[127.85641,35.39504],[127.85692,35.39561],[127.85752,35.39627],[127.85817,35.39749],[127.85935,35.39997],[127.85948,35.40064],[127.85935,35.40113],[127.85898,35.40159],[127.85848,35.4022],[127.8583,35.40286],[127.85832,35.40387],[127.85851,35.40493],[127.86041,35.41055],[127.8608,35.41148],[127.86168,35.41242],[127.86218,35.41287],[127.86268,35.41332],[127.86473,35.41505],[127.86612,35.41543],[127.86673,35.41554],[127.86737,35.41565],[127.86804,35.41579],[127.86893,35.41597],[127.87268,35.41681],[127.8735,35.4173],[127.8738,35.41749],[127.87412,35.41769],[127.87459,35.41804],[127.87466,35.41809],[127.87539,35.41882],[127.87566,35.41909],[127.87596,35.41941],[127.87626,35.4198],[127.87642,35.42004],[127.87663,35.42049],[127.87676,35.42079],[127.8768,35.42105],[127.87681,35.4213],[127.87681,35.42147],[127.87674,35.42169],[127.8766,35.4219],[127.8765,35.42198],[127.87641,35.42205],[127.87586,35.42238],[127.87284,35.42404],[127.87042,35.42494],[127.86954,35.42528],[127.86853,35.42566],[127.8676,35.42619],[127.86633,35.42698],[127.86563,35.42757],[127.86529,35.42791],[127.8649,35.42831],[127.86479,35.42851],[127.86423,35.42944],[127.86187,35.43463],[127.8615,35.43561],[127.86122,35.43617],[127.86083,35.43663],[127.86042,35.43701],[127.86001,35.4374],[127.85966,35.43766],[127.85931,35.43793],[127.85825,35.43853],[127.85693,35.43956],[127.85606,35.44038],[127.85275,35.44407],[127.85219,35.44475],[127.85186,35.44548],[127.85196,35.44704],[127.85223,35.44791],[127.85247,35.44828],[127.85302,35.4486],[127.85371,35.44875],[127.85417,35.44883],[127.85475,35.44894],[127.85528,35.44903],[127.85631,35.44908],[127.85794,35.44912],[127.85971,35.4492],[127.86098,35.44941],[127.86233,35.44974],[127.86351,35.4501],[127.86422,35.44973],[127.86513,35.44955],[127.86565,35.44976],[127.86778,35.45117],[127.86846,35.4518],[127.86881,35.45203],[127.86899,35.45207],[127.86914,35.45198],[127.86953,35.45146],[127.87107,35.44939],[127.87284,35.4472],[127.87296,35.44711],[127.8739,35.4465],[127.87425,35.44632],[127.87462,35.44619],[127.87489,35.44616],[127.87805,35.44612],[127.87848,35.44617],[127.88112,35.44687],[127.88125,35.44692],[127.88134,35.447],[127.88161,35.44761],[127.88162,35.44774],[127.88157,35.44847],[127.88151,35.44863],[127.88131,35.44894],[127.88126,35.44907],[127.88126,35.44932],[127.88133,35.44964],[127.88198,35.45068],[127.88204,35.45077],[127.88227,35.45093],[127.88363,35.45141],[127.88478,35.45172],[127.88527,35.45177],[127.887,35.45168],[127.88727,35.45167],[127.88742,35.45161],[127.88767,35.45141],[127.88801,35.45097],[127.88849,35.45047],[127.88874,35.45032],[127.88907,35.45018],[127.88927,35.45013],[127.89028,35.44989],[127.89042,35.44988],[127.89066,35.44995],[127.8912,35.45017],[127.89137,35.45028],[127.89189,35.45081],[127.89215,35.45105],[127.89283,35.45152],[127.89295,35.45158],[127.89342,35.45175],[127.89481,35.45208],[127.89611,35.45201],[127.89619,35.45198],[127.89784,35.45162],[127.89794,35.45167],[127.90148,35.45529],[127.90152,35.45537],[127.90168,35.45598],[127.90172,35.45617],[127.9017,35.45625],[127.90129,35.45729],[127.90124,35.4574],[127.9009,35.45782],[127.90082,35.45796],[127.9008,35.45805],[127.90083,35.45815],[127.90161,35.4595],[127.90165,35.45955],[127.90185,35.45969],[127.90277,35.4603],[127.90415,35.46118],[127.90431,35.46123],[127.90445,35.46124],[127.90455,35.46112]]]]}},{"type":"Feature","properties":{"code":"48860310","name":"차황면","parent":"48860"},"geometry":{"type":"MultiPolygon","coordinates":[[[[127.95982,35.51858],[127.96089,35.51746],[127.96103,35.51731],[127.96106,35.51725],[127.96108,35.51721],[127.96123,35.51631],[127.96125,35.51615],[127.96124,35.51603],[127.96121,35.51592],[127.96115,35.51579],[127.96058,35.51415],[127.96016,35.51262],[127.96014,35.51255],[127.96014,35.5124],[127.96032,35.51111],[127.96036,35.51083],[127.96039,35.51067],[127.96044,35.51049],[127.96071,35.50978],[127.96079,35.50965],[127.96087,35.50955],[127.96096,35.50947],[127.9611,35.50931],[127.96113,35.50925],[127.9612,35.50908],[127.96161,35.50772],[127.96172,35.50729],[127.96222,35.50428],[127.96212,35.50256],[127.96211,35.50242],[127.96213,35.50062],[127.96215,35.50052],[127.96221,35.50031],[127.96228,35.50012],[127.96233,35.50008],[127.96247,35.50003],[127.96557,35.49891],[127.97218,35.49602],[127.97434,35.49504],[127.97449,35.49443],[127.97567,35.48809],[127.97584,35.48657],[127.97562,35.48389],[127.97603,35.47996],[127.97603,35.47991],[127.97558,35.47919],[127.97542,35.47897],[127.97478,35.47804],[127.9742,35.47699],[127.97416,35.47687],[127.97413,35.47674],[127.97416,35.47665],[127.97536,35.47336],[127.97621,35.47162],[127.97635,35.47134],[127.97652,35.47106],[127.97678,35.47077],[127.97714,35.47046],[127.97743,35.47019],[127.97761,35.47001],[127.97796,35.46957],[127.97914,35.46796],[127.97924,35.46779],[127.97933,35.46755],[127.97943,35.4671],[127.97993,35.46461],[127.97993,35.46452],[127.97963,35.46368],[127.97904,35.46232],[127.97899,35.46223],[127.97892,35.46217],[127.97866,35.46205],[127.97856,35.46196],[127.97852,35.46187],[127.97853,35.46178],[127.97883,35.46104],[127.97892,35.46097],[127.98189,35.45921],[127.98342,35.4584],[127.98353,35.45832],[127.9846,35.45693],[127.98473,35.45675],[127.9848,35.45657],[127.98479,35.45619],[127.98475,35.45588],[127.98416,35.45381],[127.9841,35.45362],[127.98382,35.45313],[127.98264,35.45282],[127.98251,35.45276],[127.98092,35.45168],[127.97875,35.45089],[127.97837,35.45078],[127.97805,35.4507],[127.97779,35.45064],[127.97746,35.45061],[127.97716,35.45059],[127.97536,35.45064],[127.97489,35.45066],[127.97198,35.44869],[127.97186,35.44861],[127.97173,35.44853],[127.97085,35.44813],[127.97065,35.44805],[127.97054,35.44802],[127.97044,35.448],[127.9695,35.44789],[127.96918,35.44799],[127.96894,35.44804],[127.96865,35.44805],[127.96713,35.44811],[127.96673,35.44811],[127.96634,35.44808],[127.96601,35.44804],[127.96572,35.448],[127.96335,35.44763],[127.96331,35.44759],[127.96324,35.44747],[127.96308,35.44703],[127.96304,35.44685],[127.96299,35.44663],[127.963,35.44648],[127.96302,35.44633],[127.96326,35.44538],[127.96423,35.44274],[127.96435,35.44253],[127.96471,35.44198],[127.96492,35.44173],[127.96508,35.44156],[127.96529,35.44145],[127.96558,35.44132],[127.96572,35.44117],[127.96634,35.44045],[127.96676,35.43984],[127.96739,35.43857],[127.96745,35.43845],[127.96807,35.43629],[127.96813,35.43606],[127.96812,35.43596],[127.96808,35.43592],[127.96792,35.43585],[127.96772,35.43579],[127.96751,35.43576],[127.9673,35.43574],[127.96699,35.43576],[127.96664,35.43577],[127.96639,35.43575],[127.96618,35.4357],[127.96599,35.43563],[127.96439,35.43493],[127.96415,35.43482],[127.96391,35.43466],[127.96106,35.43244],[127.96087,35.43228],[127.96085,35.43222],[127.96085,35.43219],[127.96109,35.43134],[127.96136,35.43022],[127.96139,35.43005],[127.96142,35.42982],[127.9614,35.42975],[127.96135,35.42973],[127.95787,35.42887],[127.95726,35.42872],[127.95677,35.42863],[127.95546,35.42841],[127.95485,35.42836],[127.95363,35.42836],[127.95172,35.42856],[127.94981,35.42892],[127.94834,35.42911],[127.94783,35.42912],[127.94468,35.4284],[127.9444,35.42832],[127.94416,35.42819],[127.944,35.42805],[127.9439,35.42793],[127.94345,35.42751],[127.94299,35.42719],[127.94274,35.42706],[127.94207,35.42678],[127.94153,35.42658],[127.94042,35.42715],[127.93987,35.42745],[127.93946,35.42776],[127.93933,35.42789],[127.93927,35.42805],[127.93919,35.42836],[127.93914,35.42871],[127.93911,35.42926],[127.93911,35.42996],[127.93907,35.43083],[127.93904,35.43092],[127.93886,35.43123],[127.93863,35.43146],[127.9385,35.43152],[127.93616,35.43236],[127.93593,35.43242],[127.93382,35.43324],[127.93099,35.43529],[127.93092,35.4354],[127.92947,35.43949],[127.92925,35.44046],[127.92924,35.44067],[127.92928,35.44083],[127.9293,35.44096],[127.92927,35.44106],[127.92881,35.44172],[127.92875,35.44174],[127.92864,35.44175],[127.92687,35.44171],[127.92539,35.44162],[127.92345,35.44151],[127.92195,35.44152],[127.91844,35.4429],[127.91835,35.44294],[127.91832,35.44299],[127.91836,35.44357],[127.91831,35.44439],[127.91828,35.44484],[127.91823,35.44521],[127.91702,35.44903],[127.91697,35.44919],[127.91688,35.44935],[127.91675,35.44944],[127.91656,35.44954],[127.91636,35.4496],[127.91628,35.44966],[127.9162,35.44975],[127.9159,35.45036],[127.91589,35.45048],[127.91611,35.45234],[127.91617,35.45251],[127.91668,35.45501],[127.91668,35.45508],[127.91663,35.45526],[127.91658,35.45531],[127.91441,35.45674],[127.90932,35.45971],[127.90905,35.45979],[127.90889,35.45981],[127.90849,35.45984],[127.90807,35.45983],[127.90659,35.45969],[127.90455,35.46112],[127.90461,35.46112],[127.9047,35.46245],[127.90418,35.46392],[127.90406,35.46426],[127.90386,35.46532],[127.90458,35.46828],[127.90495,35.46946],[127.90561,35.46984],[127.90623,35.47019],[127.90806,35.47124],[127.90811,35.47195],[127.90753,35.47273],[127.9073,35.4732],[127.90745,35.47353],[127.90852,35.47588],[127.90939,35.47709],[127.90803,35.47856],[127.90663,35.48092],[127.90606,35.48191],[127.90601,35.48341],[127.90674,35.48479],[127.90863,35.48683],[127.9116,35.48933],[127.9154,35.49001],[127.91691,35.48976],[127.91759,35.48947],[127.91898,35.49031],[127.92033,35.49124],[127.92158,35.49299],[127.92335,35.49656],[127.92384,35.49821],[127.92373,35.50042],[127.92371,35.50076],[127.92353,35.5058],[127.92418,35.50694],[127.92483,35.50947],[127.92518,35.51142],[127.92542,35.51459],[127.92543,35.51496],[127.92512,35.51533],[127.92591,35.51578],[127.926,35.51583],[127.92619,35.5159],[127.92628,35.5159],[127.92911,35.516],[127.92951,35.51598],[127.93038,35.51593],[127.93065,35.51589],[127.93597,35.51507],[127.93712,35.51481],[127.93797,35.51461],[127.93971,35.51447],[127.9401,35.51446],[127.94043,35.51445],[127.94068,35.51445],[127.94083,35.51446],[127.94097,35.5145],[127.94112,35.51458],[127.94134,35.51469],[127.94174,35.51497],[127.94205,35.5152],[127.9428,35.51575],[127.94405,35.51664],[127.94959,35.5187],[127.95215,35.51872],[127.95317,35.51859],[127.9579,35.51802],[127.95821,35.51799],[127.95847,35.51798],[127.95868,35.51799],[127.95886,35.518],[127.95918,35.51803],[127.95945,35.51806],[127.95948,35.51808],[127.95952,35.51811],[127.95955,35.51815],[127.95973,35.51844],[127.95982,35.51858]]]]}},{"type":"Feature","properties":{"code":"48860320","name":"오부면","parent":"48860"},"geometry":{"type":"MultiPolygon","coordinates":[[[[127.92512,35.51533],[127.92543,35.51496],[127.92542,35.51459],[127.92518,35.51142],[127.92483,35.50947],[127.92418,35.50694],[127.92353,35.5058],[127.92371,35.50076],[127.92373,35.50042],[127.92384,35.49821],[127.92335,35.49656],[127.92158,35.49299],[127.92033,35.49124],[127.91898,35.49031],[127.91759,35.48947],[127.91691,35.48976],[127.9154,35.49001],[127.9116,35.48933],[127.90863,35.48683],[127.90674,35.48479],[127.90601,35.48341],[127.90606,35.48191],[127.90663,35.48092],[127.90803,35.47856],[127.90939,35.47709],[127.90852,35.47588],[127.90745,35.47353],[127.9073,35.4732],[127.90753,35.47273],[127.90811,35.47195],[127.90806,35.47124],[127.90623,35.47019],[127.90561,35.46984],[127.90495,35.46946],[127.90458,35.46828],[127.90386,35.46532],[127.90406,35.46426],[127.90418,35.46392],[127.9047,35.46245],[127.90461,35.46112],[127.90455,35.46112],[127.90445,35.46124],[127.90431,35.46123],[127.90415,35.46118],[127.90277,35.4603],[127.90185,35.45969],[127.90165,35.45955],[127.90161,35.4595],[127.90083,35.45815],[127.9008,35.45805],[127.90082,35.45796],[127.9009,35.45782],[127.90124,35.4574],[127.90129,35.45729],[127.9017,35.45625],[127.90172,35.45617],[127.90168,35.45598],[127.90152,35.45537],[127.90148,35.45529],[127.89794,35.45167],[127.89784,35.45162],[127.89619,35.45198],[127.89611,35.45201],[127.89481,35.45208],[127.89342,35.45175],[127.89295,35.45158],[127.89283,35.45152],[127.89215,35.45105],[127.89189,35.45081],[127.89137,35.45028],[127.8912,35.45017],[127.89066,35.44995],[127.89042,35.44988],[127.89028,35.44989],[127.88927,35.45013],[127.88907,35.45018],[127.88874,35.45032],[127.88849,35.45047],[127.88801,35.45097],[127.88767,35.45141],[127.88742,35.45161],[127.88727,35.45167],[127.887,35.45168],[127.88527,35.45177],[127.88478,35.45172],[127.88363,35.45141],[127.88227,35.45093],[127.88204,35.45077],[127.88198,35.45068],[127.88133,35.44964],[127.88126,35.44932],[127.88126,35.44907],[127.88131,35.44894],[127.88151,35.44863],[127.88157,35.44847],[127.88162,35.44774],[127.88161,35.44761],[127.88134,35.447],[127.88125,35.44692],[127.88112,35.44687],[127.87848,35.44617],[127.87805,35.44612],[127.87489,35.44616],[127.87462,35.44619],[127.87425,35.44632],[127.8739,35.4465],[127.87296,35.44711],[127.87284,35.4472],[127.87107,35.44939],[127.86953,35.45146],[127.86914,35.45198],[127.86899,35.45207],[127.86881,35.45203],[127.86846,35.4518],[127.86778,35.45117],[127.86565,35.44976],[127.86513,35.44955],[127.86422,35.44973],[127.86351,35.4501],[127.86495,35.45075],[127.86553,35.45125],[127.86562,35.45138],[127.86571,35.45151],[127.86591,35.45209],[127.86586,35.45237],[127.86564,35.45309],[127.86527,35.45358],[127.86475,35.45396],[127.86419,35.45421],[127.86329,35.45436],[127.86284,35.45439],[127.86224,35.45444],[127.85912,35.45449],[127.85568,35.45467],[127.85473,35.45481],[127.85334,35.45519],[127.85297,35.45538],[127.85264,35.45554],[127.85232,35.45578],[127.852,35.45633],[127.85215,35.45658],[127.85263,35.45699],[127.85276,35.45711],[127.85292,35.45724],[127.85442,35.45839],[127.85992,35.46257],[127.86449,35.46453],[127.86499,35.46476],[127.86549,35.46499],[127.86618,35.46553],[127.86702,35.46651],[127.86746,35.46723],[127.86789,35.46837],[127.86807,35.46915],[127.86848,35.47301],[127.86854,35.47377],[127.86806,35.47464],[127.86749,35.47561],[127.86677,35.47638],[127.86573,35.47715],[127.86547,35.47751],[127.86523,35.47783],[127.86508,35.47832],[127.86535,35.47924],[127.86582,35.48025],[127.86633,35.4811],[127.86834,35.48396],[127.86859,35.48421],[127.8688,35.48443],[127.86964,35.48497],[127.87053,35.48514],[127.87126,35.48516],[127.8716,35.48508],[127.872,35.48499],[127.87245,35.48494],[127.87266,35.48496],[127.87284,35.48498],[127.87302,35.48511],[127.87313,35.48524],[127.87326,35.48539],[127.87345,35.48571],[127.87364,35.48635],[127.87394,35.48797],[127.87392,35.48801],[127.87384,35.48805],[127.87357,35.48818],[127.87328,35.48834],[127.8732,35.48841],[127.87314,35.48848],[127.87309,35.48854],[127.87284,35.48906],[127.87272,35.48942],[127.8726,35.48983],[127.87258,35.4903],[127.87268,35.49076],[127.87284,35.4911],[127.87308,35.49124],[127.87325,35.49133],[127.87339,35.4914],[127.87356,35.49144],[127.87369,35.49146],[127.87639,35.49396],[127.87654,35.50281],[127.87607,35.50676],[127.87563,35.50824],[127.87562,35.50858],[127.87563,35.50873],[127.87566,35.50878],[127.87573,35.5089],[127.87585,35.50906],[127.87712,35.5106],[127.87775,35.51121],[127.87787,35.51136],[127.87798,35.51155],[127.87832,35.51399],[127.87832,35.51407],[127.87792,35.51499],[127.87788,35.51507],[127.87783,35.51512],[127.87777,35.51516],[127.87712,35.5155],[127.87659,35.51571],[127.87621,35.51581],[127.87601,35.51588],[127.87586,35.51595],[127.87572,35.51602],[127.87562,35.5161],[127.8755,35.51626],[127.87547,35.51629],[127.8754,35.51645],[127.87491,35.52188],[127.87493,35.5222],[127.87503,35.52255],[127.87531,35.5233],[127.87663,35.5265],[127.87736,35.52727],[127.87752,35.52743],[127.8783,35.52801],[127.87927,35.52735],[127.8795,35.52724],[127.87971,35.52716],[127.88013,35.52708],[127.88045,35.52709],[127.88082,35.52723],[127.88145,35.52752],[127.88181,35.52773],[127.88208,35.52796],[127.88217,35.52804],[127.88245,35.52831],[127.88251,35.52843],[127.88279,35.5289],[127.88295,35.52911],[127.88325,35.52949],[127.88343,35.52968],[127.88356,35.52978],[127.88397,35.53],[127.88426,35.53015],[127.88511,35.53052],[127.88753,35.53137],[127.88772,35.53142],[127.88783,35.5314],[127.89114,35.53068],[127.89367,35.53019],[127.89376,35.53018],[127.8949,35.53051],[127.89502,35.53056],[127.8951,35.53063],[127.89657,35.53215],[127.89784,35.5335],[127.89944,35.53411],[127.89962,35.53416],[127.89995,35.53423],[127.90122,35.53449],[127.90154,35.53455],[127.90171,35.53455],[127.90195,35.53455],[127.9042,35.53427],[127.90427,35.53424],[127.90815,35.53115],[127.90824,35.53108],[127.90848,35.53083],[127.90861,35.53069],[127.90866,35.53058],[127.90868,35.53049],[127.90868,35.53032],[127.90856,35.52969],[127.90853,35.52951],[127.90853,35.52941],[127.90854,35.52932],[127.9086,35.52909],[127.90867,35.52888],[127.90873,35.5288],[127.9088,35.52873],[127.91324,35.52577],[127.91331,35.52574],[127.91339,35.52571],[127.91354,35.52569],[127.91551,35.52552],[127.9166,35.52548],[127.91678,35.52549],[127.91706,35.52548],[127.91728,35.52546],[127.91758,35.52542],[127.91895,35.52519],[127.91911,35.52516],[127.91918,35.52513],[127.92137,35.52374],[127.92145,35.52367],[127.92149,35.52362],[127.92152,35.52355],[127.92157,35.52336],[127.92156,35.52322],[127.92137,35.52141],[127.92132,35.52124],[127.92129,35.52113],[127.92124,35.52106],[127.92116,35.521],[127.921,35.52095],[127.92076,35.52085],[127.92061,35.52077],[127.92041,35.52062],[127.92033,35.52054],[127.92027,35.52045],[127.92019,35.52028],[127.92017,35.52018],[127.92019,35.52007],[127.92075,35.51885],[127.92081,35.51873],[127.92093,35.51856],[127.92101,35.51843],[127.92123,35.51822],[127.92138,35.5181],[127.92183,35.5178],[127.92196,35.51772],[127.92222,35.51761],[127.92247,35.51754],[127.92283,35.51743],[127.92377,35.51699],[127.92388,35.51694],[127.92393,35.5169],[127.924,35.51682],[127.92512,35.51533]]]]}},{"type":"Feature","properties":{"code":"48860330","name":"생초면","parent":"48860"},"geometry":{"type":"MultiPolygon","coordinates":[[[[127.86988,35.57501],[127.86993,35.575],[127.86999,35.57493],[127.87033,35.5745],[127.8704,35.57435],[127.87076,35.57353],[127.87117,35.57257],[127.87165,35.57151],[127.87225,35.57035],[127.87231,35.57027],[127.87353,35.56897],[127.87396,35.56859],[127.87413,35.56849],[127.87419,35.56845],[127.87437,35.56832],[127.87453,35.56816],[127.87473,35.56791],[127.87481,35.5678],[127.87488,35.56761],[127.87486,35.56747],[127.87466,35.56533],[127.87464,35.56526],[127.87264,35.56309],[127.86942,35.55963],[127.86938,35.55957],[127.86938,35.55953],[127.86937,35.55949],[127.86938,35.55944],[127.8701,35.55663],[127.87046,35.5555],[127.87215,35.55264],[127.87403,35.55185],[127.87432,35.55176],[127.87638,35.55107],[127.87674,35.55093],[127.87711,35.55078],[127.87742,35.55064],[127.87753,35.55055],[127.87756,35.55051],[127.87754,35.55032],[127.87747,35.54982],[127.87731,35.54852],[127.87729,35.54835],[127.87624,35.54267],[127.87574,35.54018],[127.87568,35.54002],[127.87557,35.53982],[127.8755,35.53968],[127.87538,35.53948],[127.87464,35.53863],[127.87379,35.53736],[127.87297,35.53603],[127.87296,35.53597],[127.87298,35.5359],[127.8732,35.53563],[127.87349,35.53534],[127.87392,35.53493],[127.87407,35.53482],[127.87419,35.53472],[127.87437,35.5346],[127.87459,35.53449],[127.87577,35.53398],[127.8759,35.53394],[127.87601,35.5339],[127.87648,35.53374],[127.87671,35.5337],[127.87767,35.53334],[127.8787,35.53292],[127.87884,35.53285],[127.8802,35.53204],[127.88034,35.53194],[127.88053,35.53172],[127.88059,35.53159],[127.88058,35.53152],[127.88051,35.53142],[127.87898,35.5293],[127.8783,35.52801],[127.87752,35.52743],[127.87736,35.52727],[127.87663,35.5265],[127.87531,35.5233],[127.87503,35.52255],[127.87493,35.5222],[127.87491,35.52188],[127.8754,35.51645],[127.87547,35.51629],[127.8755,35.51626],[127.87562,35.5161],[127.87572,35.51602],[127.87586,35.51595],[127.87601,35.51588],[127.87621,35.51581],[127.87659,35.51571],[127.87712,35.5155],[127.87777,35.51516],[127.87783,35.51512],[127.87788,35.51507],[127.87792,35.51499],[127.87832,35.51407],[127.87832,35.51399],[127.87798,35.51155],[127.87787,35.51136],[127.87775,35.51121],[127.87712,35.5106],[127.87585,35.50906],[127.87573,35.5089],[127.87566,35.50878],[127.87563,35.50873],[127.87562,35.50858],[127.87563,35.50824],[127.87607,35.50676],[127.87654,35.50281],[127.87639,35.49396],[127.87369,35.49146],[127.87356,35.49144],[127.87339,35.4914],[127.87325,35.49133],[127.87308,35.49124],[127.87284,35.4911],[127.87268,35.49076],[127.87258,35.4903],[127.8726,35.48983],[127.87272,35.48942],[127.87284,35.48906],[127.87309,35.48854],[127.87314,35.48848],[127.8732,35.48841],[127.87328,35.48834],[127.87357,35.48818],[127.87384,35.48805],[127.87392,35.48801],[127.87394,35.48797],[127.87364,35.48635],[127.87345,35.48571],[127.87326,35.48539],[127.87313,35.48524],[127.87302,35.48511],[127.87284,35.48498],[127.87266,35.48496],[127.87245,35.48494],[127.872,35.48499],[127.8716,35.48508],[127.87126,35.48516],[127.87053,35.48514],[127.86964,35.48497],[127.8688,35.48443],[127.86859,35.48421],[127.86834,35.48396],[127.86633,35.4811],[127.86582,35.48025],[127.86535,35.47924],[127.86508,35.47832],[127.86523,35.47783],[127.86547,35.47751],[127.86573,35.47715],[127.86677,35.47638],[127.86749,35.47561],[127.86806,35.47464],[127.86854,35.47377],[127.86848,35.47301],[127.86807,35.46915],[127.86789,35.46837],[127.86746,35.46723],[127.86702,35.46651],[127.86618,35.46553],[127.86549,35.46499],[127.86499,35.46476],[127.86449,35.46453],[127.85992,35.46257],[127.85442,35.45839],[127.85292,35.45724],[127.85276,35.45711],[127.85263,35.45699],[127.85165,35.45675],[127.85083,35.45659],[127.84979,35.4564],[127.84862,35.45643],[127.84753,35.45655],[127.84608,35.45698],[127.84558,35.45721],[127.84547,35.45726],[127.84483,35.45766],[127.84429,35.45791],[127.84355,35.4582],[127.84244,35.45861],[127.84213,35.45858],[127.83746,35.45721],[127.83667,35.45696],[127.83629,35.45671],[127.83309,35.45671],[127.82992,35.46025],[127.82771,35.46209],[127.82719,35.46267],[127.82693,35.46305],[127.82638,35.46479],[127.82625,35.46562],[127.82613,35.46642],[127.8259,35.46749],[127.82547,35.46808],[127.82507,35.4682],[127.82456,35.46821],[127.82366,35.46818],[127.82313,35.46817],[127.82267,35.4682],[127.82244,35.46829],[127.82111,35.46887],[127.81833,35.46994],[127.81735,35.47031],[127.81649,35.4706],[127.81557,35.4708],[127.81454,35.47083],[127.81454,35.47217],[127.81427,35.4727],[127.814,35.47312],[127.81312,35.47405],[127.8124,35.4747],[127.81144,35.47536],[127.80981,35.4766],[127.80915,35.47739],[127.8079,35.47942],[127.8077,35.47993],[127.80769,35.4804],[127.80774,35.48082],[127.807,35.48393],[127.80641,35.48456],[127.80576,35.48534],[127.80553,35.48588],[127.80545,35.48623],[127.80534,35.48675],[127.80529,35.487],[127.80528,35.48869],[127.80541,35.48978],[127.80545,35.48985],[127.80735,35.49016],[127.81275,35.49021],[127.8133,35.49019],[127.81389,35.49028],[127.8154,35.49063],[127.81619,35.49087],[127.81691,35.49128],[127.81742,35.49174],[127.81784,35.49221],[127.81947,35.49476],[127.82301,35.49948],[127.82327,35.49967],[127.82331,35.49971],[127.82337,35.5],[127.82287,35.50682],[127.8225,35.50776],[127.82236,35.50807],[127.82232,35.50815],[127.82221,35.50826],[127.8221,35.50832],[127.82191,35.50837],[127.82167,35.50841],[127.82139,35.50844],[127.82113,35.50846],[127.82103,35.50849],[127.82096,35.50853],[127.82083,35.50864],[127.82063,35.50889],[127.82048,35.50911],[127.82036,35.50933],[127.82027,35.5095],[127.82025,35.50958],[127.82024,35.50966],[127.82025,35.50975],[127.8207,35.51232],[127.82095,35.51282],[127.8214,35.51365],[127.82153,35.51381],[127.82162,35.51391],[127.82174,35.51398],[127.82195,35.51412],[127.8222,35.51431],[127.82229,35.51437],[127.82303,35.51553],[127.82309,35.51566],[127.8231,35.51569],[127.82318,35.51663],[127.82317,35.51665],[127.82315,35.51669],[127.82309,35.51677],[127.82307,35.5168],[127.82301,35.51688],[127.82294,35.51697],[127.82284,35.51708],[127.82255,35.51739],[127.82154,35.51842],[127.82119,35.51875],[127.82116,35.51878],[127.82111,35.5188],[127.82104,35.51882],[127.82096,35.51883],[127.82091,35.51883],[127.82081,35.51881],[127.82066,35.51878],[127.8205,35.51876],[127.82041,35.51875],[127.82028,35.51876],[127.81961,35.51889],[127.81955,35.51891],[127.81946,35.51896],[127.81729,35.52059],[127.81717,35.52069],[127.81588,35.52181],[127.81581,35.52189],[127.8158,35.52192],[127.81666,35.5253],[127.81674,35.52554],[127.81679,35.52566],[127.81686,35.52576],[127.81691,35.52583],[127.81705,35.52593],[127.81821,35.52671],[127.81856,35.5266],[127.81884,35.52646],[127.81897,35.52639],[127.8191,35.52635],[127.8193,35.52632],[127.81943,35.52631],[127.81951,35.52631],[127.81985,35.52634],[127.82006,35.52637],[127.82014,35.52638],[127.82271,35.52803],[127.82422,35.52923],[127.82436,35.52941],[127.82913,35.53535],[127.8319,35.53924],[127.83563,35.54252],[127.83914,35.54506],[127.83922,35.54512],[127.84033,35.54596],[127.84047,35.54609],[127.84067,35.54629],[127.84097,35.54665],[127.84105,35.54675],[127.84109,35.54683],[127.8427,35.54988],[127.84393,35.55206],[127.84661,35.55643],[127.84792,35.55814],[127.84852,35.55844],[127.84878,35.55856],[127.84895,35.55863],[127.84909,35.55868],[127.84916,35.55869],[127.84937,35.5587],[127.85234,35.56169],[127.85276,35.56316],[127.85387,35.56577],[127.85396,35.56592],[127.85409,35.5661],[127.85413,35.56616],[127.85438,35.56644],[127.85465,35.56667],[127.8548,35.56677],[127.85498,35.56689],[127.85507,35.567],[127.85535,35.56742],[127.8554,35.56751],[127.85619,35.5691],[127.85632,35.56942],[127.85641,35.56944],[127.85654,35.56946],[127.85665,35.56949],[127.85678,35.56954],[127.85812,35.57007],[127.85845,35.57025],[127.85861,35.57035],[127.85869,35.57042],[127.85882,35.57053],[127.85895,35.5707],[127.8605,35.57295],[127.86065,35.57322],[127.86068,35.5733],[127.86068,35.57337],[127.86066,35.57347],[127.86066,35.57354],[127.86069,35.57361],[127.8617,35.57488],[127.86289,35.57616],[127.86293,35.57617],[127.86301,35.57618],[127.86308,35.57617],[127.86315,35.57616],[127.86369,35.57608],[127.86375,35.57607],[127.8638,35.57605],[127.86573,35.57522],[127.86988,35.57501]]]]}},{"type":"Feature","properties":{"code":"48860340","name":"금서면","parent":"48860"},"geometry":{"type":"MultiPolygon","coordinates":[[[[127.85263,35.45699],[127.85215,35.45658],[127.852,35.45633],[127.85232,35.45578],[127.85264,35.45554],[127.85297,35.45538],[127.85334,35.45519],[127.85473,35.45481],[127.85568,35.45467],[127.85912,35.45449],[127.86224,35.45444],[127.86284,35.45439],[127.86329,35.45436],[127.86419,35.45421],[127.86475,35.45396],[127.86527,35.45358],[127.86564,35.45309],[127.86586,35.45237],[127.86591,35.45209],[127.86571,35.45151],[127.86562,35.45138],[127.86553,35.45125],[127.86495,35.45075],[127.86351,35.4501],[127.86233,35.44974],[127.86098,35.44941],[127.85971,35.4492],[127.85794,35.44912],[127.85631,35.44908],[127.85528,35.44903],[127.85475,35.44894],[127.85417,35.44883],[127.85371,35.44875],[127.85302,35.4486],[127.85247,35.44828],[127.85223,35.44791],[127.85196,35.44704],[127.85186,35.44548],[127.85219,35.44475],[127.85275,35.44407],[127.85606,35.44038],[127.85693,35.43956],[127.85825,35.43853],[127.85931,35.43793],[127.85966,35.43766],[127.86001,35.4374],[127.86042,35.43701],[127.86083,35.43663],[127.86122,35.43617],[127.8615,35.43561],[127.86187,35.43463],[127.86423,35.42944],[127.86479,35.42851],[127.8649,35.42831],[127.86529,35.42791],[127.86563,35.42757],[127.86633,35.42698],[127.8676,35.42619],[127.86853,35.42566],[127.86954,35.42528],[127.87042,35.42494],[127.87284,35.42404],[127.87586,35.42238],[127.87641,35.42205],[127.8765,35.42198],[127.8766,35.4219],[127.87674,35.42169],[127.87681,35.42147],[127.87681,35.4213],[127.8768,35.42105],[127.87676,35.42079],[127.87663,35.42049],[127.87642,35.42004],[127.87626,35.4198],[127.87596,35.41941],[127.87566,35.41909],[127.87539,35.41882],[127.87466,35.41809],[127.87459,35.41804],[127.87412,35.41769],[127.8738,35.41749],[127.8735,35.4173],[127.87268,35.41681],[127.86893,35.41597],[127.86804,35.41579],[127.86737,35.41565],[127.86673,35.41554],[127.86612,35.41543],[127.86473,35.41505],[127.86268,35.41332],[127.86218,35.41287],[127.86168,35.41242],[127.8608,35.41148],[127.86041,35.41055],[127.85851,35.40493],[127.85832,35.40387],[127.8583,35.40286],[127.85848,35.4022],[127.85898,35.40159],[127.85935,35.40113],[127.85948,35.40064],[127.85935,35.39997],[127.85817,35.39749],[127.85752,35.39627],[127.85692,35.39561],[127.85641,35.39504],[127.85603,35.39456],[127.85554,35.39395],[127.85546,35.38785],[127.85552,35.38711],[127.85586,35.38653],[127.8532,35.38463],[127.85277,35.38445],[127.85113,35.38392],[127.85095,35.38391],[127.84939,35.38397],[127.84867,35.38414],[127.84769,35.38421],[127.84674,35.38424],[127.84627,35.38415],[127.84555,35.38398],[127.84382,35.38323],[127.84251,35.38259],[127.84139,35.38212],[127.84077,35.38191],[127.83987,35.38168],[127.83908,35.38178],[127.83847,35.3822],[127.83756,35.3828],[127.83666,35.38323],[127.83619,35.38344],[127.83357,35.38386],[127.83321,35.38384],[127.83315,35.38383],[127.83297,35.38382],[127.83226,35.38354],[127.82735,35.38061],[127.8268,35.38023],[127.82641,35.37985],[127.82594,35.37869],[127.82594,35.37776],[127.82604,35.37736],[127.8237,35.37497],[127.82121,35.3733],[127.82071,35.37276],[127.82064,35.37236],[127.82036,35.37154],[127.8198,35.37091],[127.81929,35.37067],[127.81895,35.3705],[127.81826,35.37038],[127.81765,35.37041],[127.8172,35.37057],[127.81642,35.37105],[127.81567,35.37142],[127.81473,35.37167],[127.81365,35.37186],[127.81256,35.37185],[127.81181,35.37196],[127.81127,35.37217],[127.80843,35.3736],[127.80781,35.37397],[127.80718,35.37465],[127.80579,35.37564],[127.80344,35.37686],[127.80199,35.37748],[127.80086,35.37783],[127.80046,35.37807],[127.79981,35.37906],[127.79917,35.38083],[127.79898,35.38133],[127.79855,35.38222],[127.79681,35.38586],[127.79658,35.38614],[127.79439,35.38745],[127.7907,35.38953],[127.78702,35.3903],[127.78651,35.38981],[127.78495,35.38911],[127.78364,35.38864],[127.78091,35.38836],[127.77987,35.38829],[127.77902,35.38805],[127.77793,35.38734],[127.77646,35.38592],[127.7763,35.38554],[127.77629,35.38509],[127.77639,35.38451],[127.77632,35.38418],[127.77587,35.38377],[127.77516,35.38326],[127.77159,35.38097],[127.7708,35.38086],[127.76983,35.38086],[127.7643,35.38114],[127.7634,35.38133],[127.76185,35.38199],[127.76086,35.38255],[127.75976,35.38299],[127.75884,35.3833],[127.75815,35.38329],[127.75734,35.38319],[127.75602,35.38299],[127.75423,35.38292],[127.75264,35.38299],[127.75264,35.38315],[127.75261,35.38378],[127.75245,35.3845],[127.75188,35.38548],[127.75152,35.38592],[127.7511,35.38644],[127.75075,35.38704],[127.75014,35.38836],[127.74924,35.39032],[127.74912,35.39092],[127.74908,35.39142],[127.74862,35.39398],[127.74832,35.39522],[127.74829,35.39549],[127.74825,35.3958],[127.74828,35.39615],[127.74836,35.39649],[127.74854,35.397],[127.74876,35.39729],[127.7491,35.39758],[127.74946,35.39775],[127.75111,35.39826],[127.75616,35.4008],[127.75671,35.40112],[127.75763,35.40174],[127.75818,35.40229],[127.75859,35.40274],[127.75934,35.40375],[127.75963,35.4043],[127.7597,35.40447],[127.75986,35.40511],[127.75991,35.40617],[127.75989,35.40706],[127.75967,35.40795],[127.75954,35.40896],[127.75922,35.41168],[127.75911,35.4129],[127.75909,35.41345],[127.75915,35.41451],[127.75927,35.415],[127.75949,35.41517],[127.75963,35.41527],[127.76407,35.41813],[127.76466,35.41847],[127.76703,35.41932],[127.76837,35.41965],[127.76968,35.42015],[127.77056,35.42055],[127.77066,35.42081],[127.77047,35.42156],[127.77038,35.42186],[127.76994,35.42267],[127.7697,35.42317],[127.7696,35.42358],[127.7697,35.42427],[127.77042,35.42645],[127.77085,35.42706],[127.77223,35.42853],[127.77781,35.43308],[127.7787,35.43375],[127.77903,35.43395],[127.77944,35.43415],[127.77946,35.43444],[127.77912,35.43495],[127.77867,35.43555],[127.77617,35.4389],[127.77567,35.43942],[127.77517,35.43966],[127.77442,35.43974],[127.77357,35.43933],[127.77277,35.43838],[127.77258,35.43998],[127.77218,35.44328],[127.7724,35.44396],[127.77267,35.44431],[127.77345,35.44505],[127.77403,35.44542],[127.7746,35.44578],[127.77584,35.44631],[127.77649,35.44655],[127.77735,35.44683],[127.77838,35.44693],[127.77951,35.44677],[127.78026,35.44663],[127.78118,35.44629],[127.78242,35.44565],[127.78268,35.44503],[127.78298,35.44428],[127.78323,35.44396],[127.78391,35.44364],[127.78416,35.44361],[127.78468,35.4437],[127.7861,35.44405],[127.78715,35.44434],[127.78836,35.44474],[127.78913,35.44521],[127.78948,35.44554],[127.78973,35.44619],[127.78973,35.44624],[127.78978,35.44713],[127.78979,35.44822],[127.78949,35.45059],[127.78883,35.4523],[127.78828,35.45299],[127.78726,35.45397],[127.78458,35.45602],[127.78335,35.45654],[127.78281,35.45681],[127.78203,35.45754],[127.78195,35.45818],[127.7821,35.4586],[127.78247,35.45915],[127.78333,35.45992],[127.7863,35.46132],[127.80013,35.46736],[127.80078,35.46761],[127.80084,35.46763],[127.80155,35.46782],[127.80395,35.46831],[127.80763,35.46863],[127.81056,35.46882],[127.81068,35.46882],[127.81185,35.46882],[127.81279,35.46893],[127.8133,35.46921],[127.81391,35.46964],[127.81428,35.47006],[127.81454,35.47068],[127.81454,35.47083],[127.81557,35.4708],[127.81649,35.4706],[127.81735,35.47031],[127.81833,35.46994],[127.82111,35.46887],[127.82244,35.46829],[127.82267,35.4682],[127.82313,35.46817],[127.82366,35.46818],[127.82456,35.46821],[127.82507,35.4682],[127.82547,35.46808],[127.8259,35.46749],[127.82613,35.46642],[127.82625,35.46562],[127.82638,35.46479],[127.82693,35.46305],[127.82719,35.46267],[127.82771,35.46209],[127.82992,35.46025],[127.83309,35.45671],[127.83629,35.45671],[127.83667,35.45696],[127.83746,35.45721],[127.84213,35.45858],[127.84244,35.45861],[127.84355,35.4582],[127.84429,35.45791],[127.84483,35.45766],[127.84547,35.45726],[127.84558,35.45721],[127.84608,35.45698],[127.84753,35.45655],[127.84862,35.45643],[127.84979,35.4564],[127.85083,35.45659],[127.85165,35.45675],[127.85263,35.45699]]]]}},{"type":"Feature","properties":{"code":"48860350","name":"삼장면","parent":"48860"},"geometry":{"type":"MultiPolygon","coordinates":[[[[127.85586,35.38653],[127.85588,35.38648],[127.85665,35.3857],[127.85741,35.38493],[127.858,35.3844],[127.85903,35.38394],[127.85929,35.38371],[127.85961,35.38316],[127.86016,35.3818],[127.86118,35.37741],[127.86486,35.36828],[127.86502,35.36799],[127.86512,35.36789],[127.86519,35.36782],[127.86527,35.36778],[127.8656,35.36763],[127.86596,35.36759],[127.86626,35.36756],[127.86771,35.36715],[127.86804,35.36693],[127.86837,35.36671],[127.86893,35.36612],[127.86937,35.36509],[127.86967,35.36429],[127.86989,35.36393],[127.87012,35.36375],[127.87039,35.36354],[127.87158,35.36277],[127.87217,35.36248],[127.87482,35.36134],[127.87493,35.36112],[127.87499,35.36099],[127.87502,35.36071],[127.87513,35.35925],[127.87513,35.35898],[127.8751,35.35876],[127.87501,35.35863],[127.87499,35.35858],[127.87496,35.35843],[127.87492,35.35809],[127.87492,35.35801],[127.87492,35.35787],[127.87501,35.35513],[127.87503,35.35443],[127.87574,35.34884],[127.87621,35.34656],[127.87655,35.3459],[127.87656,35.34586],[127.87656,35.3458],[127.87655,35.34573],[127.87654,35.34567],[127.87619,35.34437],[127.87612,35.34422],[127.87541,35.34312],[127.87494,35.34243],[127.87484,35.34209],[127.87338,35.33527],[127.87335,35.335],[127.87334,35.33462],[127.87338,35.3343],[127.87345,35.33415],[127.87447,35.33285],[127.8755,35.33039],[127.8755,35.33033],[127.87547,35.33024],[127.8754,35.33013],[127.87473,35.32954],[127.87243,35.32778],[127.87127,35.3276],[127.87066,35.32736],[127.86919,35.3268],[127.8677,35.32448],[127.8668,35.32459],[127.86552,35.32482],[127.86458,35.32533],[127.86295,35.32671],[127.86154,35.32763],[127.85605,35.33034],[127.85536,35.33042],[127.85527,35.33043],[127.85486,35.33025],[127.85225,35.32645],[127.85201,35.32404],[127.85259,35.32249],[127.8528,35.32102],[127.85276,35.31826],[127.85278,35.31713],[127.853,35.31551],[127.85326,35.31464],[127.85363,35.31349],[127.85351,35.31278],[127.85199,35.30987],[127.85131,35.30859],[127.85022,35.30812],[127.84941,35.30736],[127.84927,35.30663],[127.84943,35.30576],[127.84954,35.30549],[127.85013,35.30412],[127.85097,35.30191],[127.85108,35.30083],[127.8511,35.29977],[127.85081,35.29894],[127.85077,35.2989],[127.85016,35.29823],[127.8497,35.29803],[127.84928,35.29803],[127.84837,35.29803],[127.84833,35.29803],[127.84767,35.29786],[127.84731,35.29753],[127.84698,35.29693],[127.84596,35.29346],[127.8459,35.29302],[127.84562,35.28917],[127.84573,35.28845],[127.84572,35.28784],[127.84523,35.28693],[127.84439,35.28612],[127.84294,35.28527],[127.84196,35.28486],[127.84085,35.28486],[127.83992,35.28481],[127.83947,35.28466],[127.83876,35.28419],[127.83823,35.28347],[127.83821,35.28334],[127.83793,35.28228],[127.83668,35.28115],[127.8366,35.28115],[127.83562,35.28114],[127.83145,35.28114],[127.82804,35.28178],[127.82355,35.2825],[127.81876,35.28289],[127.81725,35.28282],[127.81417,35.28254],[127.81302,35.28243],[127.80329,35.28101],[127.80292,35.28089],[127.80232,35.28026],[127.79998,35.27768],[127.79757,35.27788],[127.79695,35.27885],[127.79486,35.28242],[127.79465,35.28324],[127.79437,35.28512],[127.79356,35.28783],[127.79294,35.28873],[127.79212,35.28963],[127.79151,35.2906],[127.7914,35.29106],[127.79158,35.29172],[127.79181,35.2928],[127.79174,35.2931],[127.79168,35.29324],[127.79145,35.29371],[127.79118,35.29399],[127.79041,35.29448],[127.78933,35.29516],[127.78868,35.29582],[127.78809,35.29646],[127.78804,35.29674],[127.78818,35.29797],[127.78819,35.29864],[127.78762,35.30068],[127.78688,35.3023],[127.78611,35.30376],[127.78526,35.30458],[127.78435,35.30537],[127.78403,35.30548],[127.78354,35.30548],[127.78289,35.30531],[127.78174,35.30472],[127.78083,35.3045],[127.77986,35.30451],[127.77893,35.30472],[127.77704,35.30549],[127.77597,35.30582],[127.77526,35.30577],[127.77103,35.305],[127.76987,35.30475],[127.76866,35.3043],[127.76771,35.30408],[127.76725,35.30425],[127.76663,35.30473],[127.76586,35.30573],[127.76504,35.30718],[127.76432,35.30879],[127.76435,35.30978],[127.76596,35.31672],[127.76633,35.3191],[127.76651,35.32019],[127.76689,35.32093],[127.7672,35.32125],[127.76758,35.32177],[127.76745,35.32212],[127.76619,35.32429],[127.76478,35.32638],[127.76383,35.32879],[127.7638,35.32909],[127.76395,35.32989],[127.76361,35.3307],[127.76315,35.3313],[127.76251,35.33178],[127.76002,35.33344],[127.75905,35.33377],[127.75863,35.33377],[127.75817,35.33376],[127.75726,35.33374],[127.75668,35.33377],[127.75574,35.33437],[127.75285,35.33628],[127.75241,35.33663],[127.75165,35.33851],[127.75135,35.33962],[127.75128,35.34023],[127.7512,35.34093],[127.74993,35.34168],[127.74856,35.342],[127.74811,35.34199],[127.74785,35.34187],[127.74734,35.34163],[127.74679,35.3416],[127.74575,35.34161],[127.74537,35.34176],[127.74477,35.34199],[127.7438,35.34253],[127.74275,35.343],[127.74153,35.34322],[127.74045,35.34327],[127.73924,35.34323],[127.73674,35.34311],[127.73404,35.34337],[127.73479,35.34566],[127.735,35.34646],[127.73514,35.34726],[127.73502,35.35061],[127.73496,35.35103],[127.73445,35.3521],[127.73377,35.3532],[127.73297,35.35474],[127.73295,35.35538],[127.73407,35.36099],[127.73439,35.36136],[127.73662,35.36297],[127.73773,35.36375],[127.73808,35.36397],[127.73877,35.36465],[127.73899,35.36498],[127.73916,35.36571],[127.73916,35.36634],[127.73912,35.36726],[127.73898,35.36801],[127.7387,35.36879],[127.73845,35.36981],[127.73833,35.37082],[127.73855,35.37186],[127.73874,35.3723],[127.73885,35.37252],[127.73936,35.37311],[127.74081,35.37399],[127.74287,35.37521],[127.74405,35.37559],[127.74537,35.37596],[127.74602,35.37625],[127.74785,35.37785],[127.74862,35.37867],[127.74908,35.37966],[127.74969,35.38078],[127.7502,35.38141],[127.75054,35.38183],[127.75108,35.38215],[127.7517,35.38254],[127.75264,35.38299],[127.75423,35.38292],[127.75602,35.38299],[127.75734,35.38319],[127.75815,35.38329],[127.75884,35.3833],[127.75976,35.38299],[127.76086,35.38255],[127.76185,35.38199],[127.7634,35.38133],[127.7643,35.38114],[127.76983,35.38086],[127.7708,35.38086],[127.77159,35.38097],[127.77516,35.38326],[127.77587,35.38377],[127.77632,35.38418],[127.77639,35.38451],[127.77629,35.38509],[127.7763,35.38554],[127.77646,35.38592],[127.77793,35.38734],[127.77902,35.38805],[127.77987,35.38829],[127.78091,35.38836],[127.78364,35.38864],[127.78495,35.38911],[127.78651,35.38981],[127.78702,35.3903],[127.7907,35.38953],[127.79439,35.38745],[127.79658,35.38614],[127.79681,35.38586],[127.79855,35.38222],[127.79898,35.38133],[127.79917,35.38083],[127.79981,35.37906],[127.80046,35.37807],[127.80086,35.37783],[127.80199,35.37748],[127.80344,35.37686],[127.80579,35.37564],[127.80718,35.37465],[127.80781,35.37397],[127.80843,35.3736],[127.81127,35.37217],[127.81181,35.37196],[127.81256,35.37185],[127.81365,35.37186],[127.81473,35.37167],[127.81567,35.37142],[127.81642,35.37105],[127.8172,35.37057],[127.81765,35.37041],[127.81826,35.37038],[127.81895,35.3705],[127.81929,35.37067],[127.8198,35.37091],[127.82036,35.37154],[127.82064,35.37236],[127.82071,35.37276],[127.82121,35.3733],[127.8237,35.37497],[127.82604,35.37736],[127.82594,35.37776],[127.82594,35.37869],[127.82641,35.37985],[127.8268,35.38023],[127.82735,35.38061],[127.83226,35.38354],[127.83297,35.38382],[127.83315,35.38383],[127.83321,35.38384],[127.83357,35.38386],[127.83619,35.38344],[127.83666,35.38323],[127.83756,35.3828],[127.83847,35.3822],[127.83908,35.38178],[127.83987,35.38168],[127.84077,35.38191],[127.84139,35.38212],[127.84251,35.38259],[127.84382,35.38323],[127.84555,35.38398],[127.84627,35.38415],[127.84674,35.38424],[127.84769,35.38421],[127.84867,35.38414],[127.84939,35.38397],[127.85095,35.38391],[127.85113,35.38392],[127.85277,35.38445],[127.8532,35.38463],[127.85586,35.38653]]]]}},{"type":"Feature","properties":{"code":"48860360","name":"시천면","parent":"48860"},"geometry":{"type":"MultiPolygon","coordinates":[[[[127.8677,35.32448],[127.86801,35.32419],[127.86894,35.32331],[127.86957,35.32243],[127.86976,35.32193],[127.86967,35.32091],[127.86886,35.31954],[127.86821,35.31896],[127.86691,35.31781],[127.86645,35.31742],[127.86625,35.31725],[127.86613,35.31703],[127.86639,35.31466],[127.86645,35.31443],[127.86655,35.314],[127.86749,35.31229],[127.8678,35.31178],[127.86857,35.31047],[127.86874,35.30973],[127.86856,35.30915],[127.86817,35.30506],[127.86785,35.30155],[127.86786,35.30101],[127.86787,35.29974],[127.86804,35.29838],[127.86889,35.29484],[127.86958,35.29302],[127.86916,35.29225],[127.8678,35.29203],[127.8677,35.292],[127.866,35.29144],[127.86591,35.29138],[127.8653,35.29099],[127.86479,35.29066],[127.86295,35.28905],[127.86252,35.28814],[127.86165,35.28591],[127.86154,35.28553],[127.86198,35.28313],[127.8625,35.28064],[127.86269,35.28002],[127.86279,35.27972],[127.8629,35.27904],[127.86142,35.27585],[127.8601,35.27421],[127.86007,35.27396],[127.86006,35.27382],[127.86046,35.27317],[127.86145,35.27238],[127.86202,35.27193],[127.86258,35.27108],[127.8632,35.26755],[127.86299,35.26703],[127.86197,35.26638],[127.8614,35.26587],[127.86218,35.26324],[127.86311,35.2614],[127.86421,35.25965],[127.86394,35.25891],[127.86431,35.25632],[127.86434,35.25393],[127.86272,35.25379],[127.86136,35.25368],[127.85686,35.24924],[127.85745,35.24504],[127.85759,35.24479],[127.85807,35.24397],[127.85818,35.24271],[127.85765,35.24116],[127.85725,35.24028],[127.85227,35.23651],[127.85067,35.23556],[127.8498,35.23539],[127.84778,35.23506],[127.84584,35.2336],[127.8454,35.23207],[127.84593,35.23073],[127.84613,35.23009],[127.84579,35.22913],[127.84548,35.22832],[127.84384,35.22714],[127.84287,35.22724],[127.84214,35.22768],[127.84114,35.22822],[127.8406,35.22841],[127.83763,35.22914],[127.83728,35.22923],[127.83552,35.22939],[127.83496,35.22855],[127.83443,35.22773],[127.83353,35.22626],[127.83308,35.2259],[127.83268,35.22562],[127.83018,35.22473],[127.82922,35.2245],[127.82813,35.22355],[127.82765,35.22304],[127.82731,35.22281],[127.82696,35.22257],[127.82647,35.22226],[127.8263,35.22218],[127.826,35.22203],[127.82569,35.22194],[127.82328,35.22182],[127.82303,35.22182],[127.82269,35.22186],[127.82219,35.22197],[127.82134,35.22217],[127.82072,35.2222],[127.82007,35.22215],[127.81947,35.22202],[127.81614,35.22117],[127.81516,35.2209],[127.81492,35.22075],[127.81465,35.22058],[127.81422,35.22037],[127.81403,35.22032],[127.81378,35.22026],[127.8136,35.22021],[127.81346,35.22018],[127.81288,35.22009],[127.81256,35.22004],[127.81212,35.22],[127.81089,35.22005],[127.80973,35.22035],[127.8091,35.2206],[127.80856,35.22073],[127.80828,35.22077],[127.80691,35.2208],[127.80251,35.22085],[127.80205,35.22076],[127.80182,35.22065],[127.80139,35.22044],[127.80098,35.22005],[127.7975,35.21966],[127.79703,35.21982],[127.79455,35.22048],[127.79415,35.22052],[127.79372,35.22051],[127.79302,35.22032],[127.79086,35.22022],[127.78691,35.22044],[127.7862,35.22054],[127.78586,35.22059],[127.78547,35.22066],[127.78425,35.22095],[127.78337,35.22119],[127.78302,35.22122],[127.7826,35.22117],[127.7823,35.22105],[127.78202,35.22072],[127.78176,35.22011],[127.78158,35.2199],[127.78138,35.2198],[127.78091,35.21965],[127.77692,35.21953],[127.7767,35.21953],[127.7761,35.21954],[127.77568,35.21969],[127.77399,35.22101],[127.77347,35.22147],[127.77316,35.22202],[127.77285,35.22281],[127.7724,35.22309],[127.77226,35.22316],[127.77025,35.22344],[127.76973,35.22345],[127.76899,35.22336],[127.76861,35.22337],[127.7684,35.22343],[127.76813,35.22355],[127.7676,35.22406],[127.76717,35.22473],[127.76625,35.22648],[127.76569,35.2274],[127.76542,35.22763],[127.76496,35.2278],[127.76045,35.22915],[127.75663,35.23207],[127.75437,35.23484],[127.75328,35.23636],[127.75303,35.23687],[127.75121,35.24249],[127.7508,35.24395],[127.7504,35.24543],[127.7504,35.24601],[127.75045,35.24629],[127.75067,35.24663],[127.75074,35.24693],[127.75062,35.24724],[127.74916,35.24946],[127.74847,35.25002],[127.74315,35.25307],[127.73962,35.25454],[127.73883,35.25485],[127.73762,35.25529],[127.73684,35.2554],[127.73624,35.2554],[127.73313,35.25469],[127.7309,35.25618],[127.72954,35.25672],[127.7254,35.2582],[127.72447,35.25843],[127.72362,35.25859],[127.72128,35.25901],[127.71983,35.25918],[127.71876,35.25924],[127.71777,35.25935],[127.71693,35.25958],[127.71631,35.2599],[127.71594,35.26023],[127.71563,35.26075],[127.71529,35.26103],[127.71448,35.26139],[127.7114,35.26243],[127.7099,35.26287],[127.70939,35.263],[127.70664,35.26396],[127.70579,35.26432],[127.70504,35.26471],[127.70484,35.26498],[127.70465,35.26524],[127.70418,35.26666],[127.70273,35.27063],[127.70227,35.27187],[127.70056,35.27442],[127.70021,35.27482],[127.69924,35.2753],[127.69867,35.27555],[127.69746,35.27617],[127.69584,35.27702],[127.69528,35.2776],[127.69039,35.28322],[127.69018,35.28372],[127.69026,35.28406],[127.69051,35.2847],[127.69088,35.28512],[127.69133,35.28561],[127.69185,35.28629],[127.69254,35.28737],[127.69262,35.28762],[127.69262,35.28773],[127.69213,35.28826],[127.69164,35.28879],[127.69078,35.29002],[127.68972,35.29158],[127.68884,35.29328],[127.68857,35.29405],[127.68868,35.29452],[127.68894,35.29511],[127.6892,35.29545],[127.6893,35.29556],[127.68939,35.29566],[127.68949,35.29589],[127.68949,35.29608],[127.68882,35.30398],[127.68829,35.30874],[127.68793,35.31006],[127.68857,35.31764],[127.68879,35.31916],[127.69007,35.31852],[127.69072,35.31835],[127.69154,35.31836],[127.6924,35.31853],[127.693,35.31876],[127.69355,35.3189],[127.69406,35.31894],[127.69467,35.31889],[127.69503,35.31876],[127.69535,35.31864],[127.69591,35.31835],[127.69681,35.31777],[127.69764,35.3172],[127.69854,35.31645],[127.69871,35.3163],[127.69892,35.31612],[127.69926,35.31597],[127.69953,35.31593],[127.69983,35.31588],[127.70066,35.31623],[127.70125,35.31664],[127.70164,35.31692],[127.70355,35.31827],[127.70604,35.32006],[127.70638,35.32042],[127.70651,35.32091],[127.70663,35.32169],[127.70696,35.32358],[127.70715,35.32429],[127.70759,35.32561],[127.70781,35.32591],[127.7081,35.32621],[127.70838,35.3264],[127.70859,35.32655],[127.70941,35.32712],[127.71003,35.32754],[127.71171,35.32863],[127.71193,35.32866],[127.71217,35.32869],[127.71276,35.3289],[127.71343,35.32939],[127.71491,35.33082],[127.71618,35.33231],[127.71851,35.33438],[127.71923,35.33479],[127.71979,35.33504],[127.72031,35.33527],[127.7205,35.33529],[127.72073,35.33531],[127.7213,35.33538],[127.72211,35.33539],[127.72292,35.3354],[127.72343,35.33547],[127.724,35.33554],[127.72518,35.3357],[127.72562,35.33577],[127.72607,35.33584],[127.72829,35.33632],[127.72947,35.33663],[127.73008,35.33679],[127.73086,35.33713],[127.731,35.33722],[127.7312,35.33756],[127.73297,35.3416],[127.73404,35.34337],[127.73674,35.34311],[127.73924,35.34323],[127.74045,35.34327],[127.74153,35.34322],[127.74275,35.343],[127.7438,35.34253],[127.74477,35.34199],[127.74537,35.34176],[127.74575,35.34161],[127.74679,35.3416],[127.74734,35.34163],[127.74785,35.34187],[127.74811,35.34199],[127.74856,35.342],[127.74993,35.34168],[127.7512,35.34093],[127.75128,35.34023],[127.75135,35.33962],[127.75165,35.33851],[127.75241,35.33663],[127.75285,35.33628],[127.75574,35.33437],[127.75668,35.33377],[127.75726,35.33374],[127.75817,35.33376],[127.75863,35.33377],[127.75905,35.33377],[127.76002,35.33344],[127.76251,35.33178],[127.76315,35.3313],[127.76361,35.3307],[127.76395,35.32989],[127.7638,35.32909],[127.76383,35.32879],[127.76478,35.32638],[127.76619,35.32429],[127.76745,35.32212],[127.76758,35.32177],[127.7672,35.32125],[127.76689,35.32093],[127.76651,35.32019],[127.76633,35.3191],[127.76596,35.31672],[127.76435,35.30978],[127.76432,35.30879],[127.76504,35.30718],[127.76586,35.30573],[127.76663,35.30473],[127.76725,35.30425],[127.76771,35.30408],[127.76866,35.3043],[127.76987,35.30475],[127.77103,35.305],[127.77526,35.30577],[127.77597,35.30582],[127.77704,35.30549],[127.77893,35.30472],[127.77986,35.30451],[127.78083,35.3045],[127.78174,35.30472],[127.78289,35.30531],[127.78354,35.30548],[127.78403,35.30548],[127.78435,35.30537],[127.78526,35.30458],[127.78611,35.30376],[127.78688,35.3023],[127.78762,35.30068],[127.78819,35.29864],[127.78818,35.29797],[127.78804,35.29674],[127.78809,35.29646],[127.78868,35.29582],[127.78933,35.29516],[127.79041,35.29448],[127.79118,35.29399],[127.79145,35.29371],[127.79168,35.29324],[127.79174,35.2931],[127.79181,35.2928],[127.79158,35.29172],[127.7914,35.29106],[127.79151,35.2906],[127.79212,35.28963],[127.79294,35.28873],[127.79356,35.28783],[127.79437,35.28512],[127.79465,35.28324],[127.79486,35.28242],[127.79695,35.27885],[127.79757,35.27788],[127.79998,35.27768],[127.80232,35.28026],[127.80292,35.28089],[127.80329,35.28101],[127.81302,35.28243],[127.81417,35.28254],[127.81725,35.28282],[127.81876,35.28289],[127.82355,35.2825],[127.82804,35.28178],[127.83145,35.28114],[127.83562,35.28114],[127.8366,35.28115],[127.83668,35.28115],[127.83793,35.28228],[127.83821,35.28334],[127.83823,35.28347],[127.83876,35.28419],[127.83947,35.28466],[127.83992,35.28481],[127.84085,35.28486],[127.84196,35.28486],[127.84294,35.28527],[127.84439,35.28612],[127.84523,35.28693],[127.84572,35.28784],[127.84573,35.28845],[127.84562,35.28917],[127.8459,35.29302],[127.84596,35.29346],[127.84698,35.29693],[127.84731,35.29753],[127.84767,35.29786],[127.84833,35.29803],[127.84837,35.29803],[127.84928,35.29803],[127.8497,35.29803],[127.85016,35.29823],[127.85077,35.2989],[127.85081,35.29894],[127.8511,35.29977],[127.85108,35.30083],[127.85097,35.30191],[127.85013,35.30412],[127.84954,35.30549],[127.84943,35.30576],[127.84927,35.30663],[127.84941,35.30736],[127.85022,35.30812],[127.85131,35.30859],[127.85199,35.30987],[127.85351,35.31278],[127.85363,35.31349],[127.85326,35.31464],[127.853,35.31551],[127.85278,35.31713],[127.85276,35.31826],[127.8528,35.32102],[127.85259,35.32249],[127.85201,35.32404],[127.85225,35.32645],[127.85486,35.33025],[127.85527,35.33043],[127.85536,35.33042],[127.85605,35.33034],[127.86154,35.32763],[127.86295,35.32671],[127.86458,35.32533],[127.86552,35.32482],[127.8668,35.32459],[127.8677,35.32448]]]]}},{"type":"Feature","properties":{"code":"48860370","name":"단성면","parent":"48860"},"geometry":{"type":"MultiPolygon","coordinates":[[[[127.91594,35.36321],[127.91672,35.3617],[127.91694,35.36122],[127.91726,35.36022],[127.91737,35.3597],[127.91749,35.35801],[127.91748,35.3571],[127.91771,35.35662],[127.91789,35.3562],[127.91815,35.3557],[127.91833,35.35541],[127.91858,35.35512],[127.9191,35.35465],[127.9195,35.3544],[127.92016,35.35417],[127.92243,35.35348],[127.92284,35.35336],[127.92359,35.35319],[127.92451,35.35298],[127.92466,35.35297],[127.92471,35.35296],[127.92489,35.35294],[127.92513,35.35286],[127.92586,35.35258],[127.92833,35.35148],[127.92912,35.35109],[127.92991,35.35068],[127.93025,35.35043],[127.93237,35.34859],[127.93458,35.34665],[127.93497,35.34627],[127.93565,35.34557],[127.93599,35.3451],[127.93648,35.34435],[127.9369,35.34366],[127.9374,35.34283],[127.938,35.3417],[127.93842,35.3409],[127.9392,35.33933],[127.94005,35.33742],[127.94045,35.33649],[127.94126,35.33384],[127.94138,35.3333],[127.94144,35.3327],[127.94147,35.3321],[127.94146,35.33093],[127.9412,35.32974],[127.94104,35.32903],[127.941,35.32861],[127.94095,35.32753],[127.94095,35.32732],[127.94098,35.32713],[127.94103,35.32695],[127.94111,35.32678],[127.94118,35.32666],[127.94128,35.3265],[127.94134,35.32642],[127.94144,35.3263],[127.9417,35.32602],[127.94783,35.32],[127.94955,35.31857],[127.95117,35.31729],[127.9517,35.31709],[127.95214,35.31693],[127.95297,35.31665],[127.95489,35.31608],[127.95575,35.3159],[127.9561,35.31584],[127.95664,35.31576],[127.95693,35.31572],[127.95902,35.31557],[127.96117,35.31563],[127.96333,35.31566],[127.96388,35.31559],[127.9642,35.31549],[127.96458,35.31538],[127.96515,35.31513],[127.96771,35.31394],[127.96884,35.31335],[127.96951,35.31287],[127.97034,35.31225],[127.97062,35.31202],[127.97079,35.31174],[127.9708,35.31163],[127.97086,35.31124],[127.97086,35.31071],[127.97079,35.31042],[127.9704,35.30887],[127.97003,35.30771],[127.96977,35.30711],[127.96885,35.30533],[127.96859,35.30489],[127.96854,35.3048],[127.9685,35.30475],[127.9679,35.30394],[127.96776,35.30375],[127.96717,35.30306],[127.96635,35.30152],[127.96617,35.30119],[127.96577,35.30013],[127.96551,35.29863],[127.96541,35.29783],[127.96542,35.29779],[127.96544,35.29774],[127.96559,35.29763],[127.97336,35.29362],[127.97752,35.29135],[127.97758,35.29132],[127.97783,35.29126],[127.97802,35.29123],[127.97811,35.29121],[127.97816,35.2912],[127.9797,35.29101],[127.98089,35.29092],[127.98371,35.28949],[127.98375,35.28947],[127.98381,35.28944],[127.98391,35.28935],[127.98399,35.28927],[127.98617,35.28688],[127.98509,35.28446],[127.98447,35.28279],[127.98416,35.28174],[127.98416,35.28165],[127.98476,35.27952],[127.98486,35.27932],[127.98493,35.27922],[127.98498,35.27915],[127.98502,35.27911],[127.98511,35.27901],[127.98522,35.27894],[127.98527,35.27889],[127.98537,35.27878],[127.98562,35.2784],[127.98622,35.27742],[127.98628,35.27731],[127.98633,35.27714],[127.98633,35.27692],[127.98629,35.27665],[127.98626,35.27648],[127.98621,35.27626],[127.98613,35.27585],[127.98605,35.2756],[127.98545,35.27391],[127.98539,35.27378],[127.98345,35.27107],[127.98325,35.27081],[127.98309,35.27068],[127.98297,35.27065],[127.9811,35.27064],[127.97958,35.27077],[127.97946,35.27083],[127.97927,35.27085],[127.97481,35.27029],[127.97388,35.27011],[127.97365,35.27003],[127.97359,35.26998],[127.97347,35.26975],[127.97279,35.26779],[127.97278,35.26768],[127.97259,35.26595],[127.9726,35.26587],[127.97282,35.26445],[127.97296,35.26386],[127.97284,35.26024],[127.97207,35.25445],[127.97011,35.25312],[127.96997,35.25135],[127.96921,35.24922],[127.96869,35.24807],[127.96853,35.24782],[127.9683,35.24753],[127.96802,35.24726],[127.96773,35.247],[127.96738,35.24674],[127.96712,35.24657],[127.96667,35.24637],[127.96628,35.24623],[127.95631,35.24338],[127.95458,35.24289],[127.95399,35.24275],[127.94739,35.24145],[127.94707,35.24279],[127.94695,35.24326],[127.94693,35.24334],[127.94683,35.24349],[127.94679,35.24354],[127.94534,35.24494],[127.9452,35.24505],[127.94497,35.2452],[127.94483,35.24529],[127.94464,35.24536],[127.94448,35.24541],[127.94429,35.24544],[127.94414,35.24545],[127.94393,35.24544],[127.9423,35.24585],[127.94034,35.24688],[127.9398,35.24718],[127.93958,35.24734],[127.93935,35.2475],[127.93928,35.24759],[127.93925,35.24765],[127.93919,35.2478],[127.93913,35.24802],[127.939,35.24848],[127.93839,35.24937],[127.93834,35.24944],[127.93823,35.24954],[127.93809,35.24963],[127.93805,35.24965],[127.9345,35.25036],[127.93272,35.25067],[127.93251,35.25071],[127.93239,35.25072],[127.93219,35.25071],[127.92858,35.25022],[127.92839,35.25019],[127.92754,35.25005],[127.92728,35.24999],[127.92712,35.24995],[127.92674,35.24983],[127.92475,35.24922],[127.92306,35.25157],[127.92292,35.25173],[127.92284,35.25182],[127.92278,35.25188],[127.92265,35.25197],[127.92244,35.25209],[127.92239,35.25211],[127.9222,35.25216],[127.92155,35.25233],[127.9215,35.25234],[127.9212,35.25223],[127.92033,35.25187],[127.92018,35.2518],[127.91993,35.25165],[127.91956,35.2514],[127.91953,35.25137],[127.91568,35.24713],[127.91306,35.24365],[127.91189,35.24123],[127.91178,35.24099],[127.91097,35.23885],[127.91096,35.23881],[127.9111,35.23851],[127.9113,35.2381],[127.9115,35.2378],[127.91175,35.23736],[127.91178,35.23731],[127.91178,35.23727],[127.91178,35.23724],[127.91102,35.23281],[127.91065,35.23114],[127.91032,35.23037],[127.91027,35.23017],[127.91026,35.23007],[127.91026,35.23001],[127.91027,35.22996],[127.91063,35.22893],[127.91097,35.22759],[127.91098,35.22752],[127.91098,35.22746],[127.9107,35.22661],[127.91055,35.22619],[127.91041,35.22593],[127.91018,35.22556],[127.90943,35.22459],[127.90912,35.2242],[127.90899,35.22406],[127.90885,35.22393],[127.90863,35.22376],[127.90845,35.22365],[127.90644,35.2228],[127.90619,35.22271],[127.90588,35.22262],[127.90568,35.22258],[127.90555,35.22257],[127.90546,35.22258],[127.90537,35.2226],[127.90521,35.22264],[127.90509,35.2227],[127.90332,35.22371],[127.90288,35.22397],[127.9026,35.22417],[127.90246,35.22433],[127.90226,35.2247],[127.90216,35.22487],[127.90189,35.2252],[127.90178,35.22533],[127.90166,35.22546],[127.90155,35.22555],[127.89982,35.22666],[127.89973,35.2267],[127.89947,35.22683],[127.89804,35.22748],[127.89767,35.22746],[127.89708,35.22717],[127.89595,35.2265],[127.8951,35.22626],[127.89503,35.22625],[127.89419,35.22626],[127.89032,35.22649],[127.89031,35.22681],[127.89031,35.22707],[127.89055,35.23047],[127.89074,35.23167],[127.89083,35.23207],[127.89084,35.23216],[127.89085,35.23224],[127.89079,35.23243],[127.89055,35.23319],[127.89049,35.2333],[127.89046,35.23334],[127.8904,35.23342],[127.88931,35.23443],[127.88873,35.23495],[127.88869,35.23499],[127.8886,35.23508],[127.88829,35.23548],[127.88802,35.23585],[127.8878,35.23623],[127.8876,35.23659],[127.88752,35.23677],[127.88749,35.23687],[127.88746,35.23712],[127.88743,35.23735],[127.88743,35.2375],[127.88754,35.23793],[127.88757,35.23804],[127.88764,35.23825],[127.88785,35.2388],[127.88797,35.23906],[127.8882,35.23951],[127.88849,35.24],[127.88858,35.24015],[127.88899,35.24079],[127.89027,35.2432],[127.89195,35.24665],[127.89221,35.24718],[127.89225,35.24731],[127.89236,35.24778],[127.89236,35.24789],[127.89237,35.24814],[127.89236,35.24901],[127.89235,35.24945],[127.89229,35.25011],[127.89226,35.25017],[127.89223,35.25021],[127.89194,35.25034],[127.89188,35.25035],[127.89085,35.25039],[127.88915,35.25043],[127.8888,35.25044],[127.88818,35.25045],[127.88813,35.25044],[127.8842,35.25065],[127.87689,35.25131],[127.8767,35.25134],[127.87638,35.25142],[127.87605,35.25149],[127.87574,35.25159],[127.87538,35.25169],[127.8753,35.25321],[127.87533,35.25348],[127.87536,35.25378],[127.87539,35.25388],[127.87541,35.25392],[127.87547,35.25399],[127.87558,35.25409],[127.87591,35.25446],[127.87599,35.25456],[127.8761,35.2547],[127.87614,35.2548],[127.8764,35.25593],[127.87656,35.25667],[127.87668,35.25732],[127.87667,35.25735],[127.87665,35.25738],[127.87659,35.25741],[127.87409,35.2589],[127.87384,35.25898],[127.87321,35.25913],[127.87284,35.25933],[127.87195,35.25966],[127.87041,35.25978],[127.86924,35.25974],[127.86783,35.25948],[127.86586,35.25915],[127.86474,35.25929],[127.86421,35.25965],[127.86311,35.2614],[127.86218,35.26324],[127.8614,35.26587],[127.86197,35.26638],[127.86299,35.26703],[127.8632,35.26755],[127.86258,35.27108],[127.86202,35.27193],[127.86145,35.27238],[127.86046,35.27317],[127.86006,35.27382],[127.86007,35.27396],[127.8601,35.27421],[127.86142,35.27585],[127.8629,35.27904],[127.86279,35.27972],[127.86269,35.28002],[127.8625,35.28064],[127.86198,35.28313],[127.86154,35.28553],[127.86165,35.28591],[127.86252,35.28814],[127.86295,35.28905],[127.86479,35.29066],[127.8653,35.29099],[127.86591,35.29138],[127.866,35.29144],[127.8677,35.292],[127.8678,35.29203],[127.86916,35.29225],[127.86958,35.29302],[127.86889,35.29484],[127.86804,35.29838],[127.86787,35.29974],[127.86786,35.30101],[127.86785,35.30155],[127.86817,35.30506],[127.86856,35.30915],[127.86874,35.30973],[127.86857,35.31047],[127.8678,35.31178],[127.86749,35.31229],[127.86655,35.314],[127.86645,35.31443],[127.86639,35.31466],[127.86613,35.31703],[127.86625,35.31725],[127.86645,35.31742],[127.86691,35.31781],[127.86821,35.31896],[127.86886,35.31954],[127.86967,35.32091],[127.86976,35.32193],[127.86957,35.32243],[127.86894,35.32331],[127.86801,35.32419],[127.8677,35.32448],[127.86919,35.3268],[127.87066,35.32736],[127.87127,35.3276],[127.87243,35.32778],[127.87473,35.32954],[127.8754,35.33013],[127.87547,35.33024],[127.8755,35.33033],[127.8755,35.33039],[127.87447,35.33285],[127.87345,35.33415],[127.87338,35.3343],[127.87334,35.33462],[127.87335,35.335],[127.87338,35.33527],[127.87484,35.34209],[127.87494,35.34243],[127.87541,35.34312],[127.87612,35.34422],[127.87619,35.34437],[127.87654,35.34567],[127.87655,35.34573],[127.87656,35.3458],[127.87656,35.34586],[127.87655,35.3459],[127.87621,35.34656],[127.87574,35.34884],[127.87503,35.35443],[127.87501,35.35513],[127.87492,35.35787],[127.87492,35.35801],[127.87492,35.35809],[127.87496,35.35843],[127.87499,35.35858],[127.87501,35.35863],[127.8751,35.35876],[127.87513,35.35898],[127.87513,35.35925],[127.87502,35.36071],[127.87499,35.36099],[127.87493,35.36112],[127.87482,35.36134],[127.87669,35.36297],[127.87687,35.36312],[127.8771,35.36327],[127.87745,35.36343],[127.88302,35.3653],[127.8834,35.3655],[127.8839,35.36593],[127.8841,35.3661],[127.88461,35.36621],[127.8857,35.36637],[127.88582,35.36637],[127.88612,35.36629],[127.88627,35.36626],[127.8866,35.36616],[127.8874,35.36592],[127.8887,35.36626],[127.88972,35.36628],[127.89045,35.36623],[127.89061,35.36618],[127.8916,35.36582],[127.89183,35.36559],[127.89192,35.36539],[127.89202,35.36515],[127.89271,35.36442],[127.89291,35.36423],[127.89302,35.36413],[127.89345,35.36381],[127.89412,35.3635],[127.89479,35.36326],[127.89502,35.36319],[127.89514,35.36316],[127.8968,35.36294],[127.89718,35.36296],[127.89757,35.36299],[127.89808,35.36319],[127.89903,35.3637],[127.89942,35.36399],[127.89958,35.36417],[127.89975,35.36443],[127.90006,35.36452],[127.90116,35.36464],[127.90394,35.36432],[127.90411,35.36429],[127.90574,35.36374],[127.90592,35.36368],[127.90609,35.36358],[127.90635,35.36339],[127.90762,35.36291],[127.90927,35.36246],[127.90951,35.36242],[127.90999,35.3624],[127.91259,35.36245],[127.9152,35.36277],[127.91542,35.36286],[127.91566,35.36301],[127.91594,35.36321]]]]}},{"type":"Feature","properties":{"code":"48860380","name":"신안면","parent":"48860"},"geometry":{"type":"MultiPolygon","coordinates":[[[[128.02988,35.37136],[128.02931,35.36949],[128.02839,35.36542],[128.02838,35.3653],[128.02828,35.36502],[128.02732,35.36301],[128.02688,35.36258],[128.02646,35.36221],[128.02368,35.35979],[128.02296,35.35967],[128.02217,35.35964],[128.02209,35.35962],[128.0211,35.35909],[128.02092,35.35897],[128.01731,35.3558],[128.01722,35.35571],[128.01626,35.35424],[128.0162,35.35413],[128.01617,35.35401],[128.01543,35.34896],[128.01432,35.34512],[128.01354,35.34297],[128.01269,35.33923],[128.01309,35.33652],[128.0132,35.33633],[128.01331,35.33605],[128.01334,35.33595],[128.01338,35.33576],[128.01342,35.33559],[128.01345,35.33527],[128.01346,35.33518],[128.01345,35.33482],[128.01341,35.33454],[128.01332,35.33403],[128.01324,35.3337],[128.01309,35.33309],[128.01296,35.33261],[128.01284,35.33218],[128.01256,35.33146],[128.01229,35.33092],[128.01218,35.33072],[128.01213,35.33065],[128.0121,35.3306],[128.0119,35.33037],[128.01181,35.33026],[128.01112,35.32955],[128.01077,35.3292],[128.01041,35.3289],[128.00911,35.32789],[128.00897,35.32778],[128.0086,35.32755],[128.00816,35.32726],[128.00804,35.32718],[128.00799,35.32714],[128.00792,35.32707],[128.00785,35.32695],[128.00783,35.32673],[128.00785,35.32658],[128.00792,35.32622],[128.00794,35.32612],[128.008,35.32596],[128.00806,35.32586],[128.00816,35.32574],[128.00826,35.32571],[128.00894,35.32564],[128.00918,35.32563],[128.00983,35.32564],[128.0102,35.32567],[128.0104,35.3257],[128.01105,35.32584],[128.01158,35.32597],[128.01191,35.32603],[128.01211,35.326],[128.01223,35.32597],[128.01249,35.32583],[128.01269,35.32566],[128.01282,35.32542],[128.01393,35.32308],[128.01399,35.32282],[128.01405,35.32269],[128.01411,35.32261],[128.01498,35.32178],[128.01507,35.32173],[128.01589,35.32139],[128.01596,35.32137],[128.01607,35.32139],[128.01635,35.32144],[128.01715,35.32164],[128.01738,35.32172],[128.02034,35.32318],[128.0207,35.32353],[128.02081,35.32365],[128.02091,35.32369],[128.02176,35.32383],[128.02194,35.32386],[128.02214,35.32384],[128.02223,35.32382],[128.02242,35.32376],[128.02562,35.32259],[128.02633,35.32232],[128.02659,35.32219],[128.02918,35.32066],[128.02926,35.32059],[128.03285,35.31599],[128.03316,35.31558],[128.03333,35.31529],[128.03341,35.31515],[128.03415,35.31298],[128.03459,35.31129],[128.03474,35.30918],[128.03475,35.30878],[128.03473,35.30864],[128.0347,35.30842],[128.03463,35.3082],[128.03459,35.30809],[128.03451,35.30785],[128.03413,35.30765],[128.03366,35.30742],[128.03314,35.30727],[128.03007,35.30654],[128.02727,35.30591],[128.02628,35.30571],[128.02357,35.3052],[128.01926,35.30345],[128.01702,35.30338],[128.01508,35.30338],[128.01503,35.30336],[128.0149,35.30321],[128.01481,35.30306],[128.01462,35.30268],[128.01459,35.30264],[128.01401,35.30131],[128.01285,35.29931],[128.01279,35.29925],[128.01178,35.29868],[128.01162,35.29861],[128.01139,35.29856],[128.00961,35.29829],[128.00856,35.29814],[128.00808,35.29812],[128.00767,35.29813],[128.00752,35.29812],[128.00713,35.29804],[128.00644,35.29788],[128.00624,35.29777],[128.00572,35.29744],[128.00567,35.29736],[128.00505,35.29632],[128.00495,35.29611],[128.00481,35.29578],[128.00447,35.2942],[128.00441,35.2935],[128.00437,35.29332],[128.00433,35.29325],[128.00198,35.29053],[128.00177,35.29036],[128.00148,35.29024],[128.00123,35.2902],[128.00098,35.29017],[128.00065,35.29019],[127.99928,35.28954],[127.99603,35.287],[127.99597,35.28696],[127.99593,35.28691],[127.99591,35.28685],[127.99588,35.28665],[127.99586,35.28652],[127.99261,35.28611],[127.98782,35.28617],[127.98771,35.28619],[127.98759,35.28622],[127.98731,35.28631],[127.98711,35.2864],[127.98643,35.28675],[127.98617,35.28688],[127.98399,35.28927],[127.98391,35.28935],[127.98381,35.28944],[127.98375,35.28947],[127.98371,35.28949],[127.98089,35.29092],[127.9797,35.29101],[127.97816,35.2912],[127.97811,35.29121],[127.97802,35.29123],[127.97783,35.29126],[127.97758,35.29132],[127.97752,35.29135],[127.97336,35.29362],[127.96559,35.29763],[127.96544,35.29774],[127.96542,35.29779],[127.96541,35.29783],[127.96551,35.29863],[127.96577,35.30013],[127.96617,35.30119],[127.96635,35.30152],[127.96717,35.30306],[127.96776,35.30375],[127.9679,35.30394],[127.9685,35.30475],[127.96854,35.3048],[127.96859,35.30489],[127.96885,35.30533],[127.96977,35.30711],[127.97003,35.30771],[127.9704,35.30887],[127.97079,35.31042],[127.97086,35.31071],[127.97086,35.31124],[127.9708,35.31163],[127.97079,35.31174],[127.97062,35.31202],[127.97034,35.31225],[127.96951,35.31287],[127.96884,35.31335],[127.96771,35.31394],[127.96515,35.31513],[127.96458,35.31538],[127.9642,35.31549],[127.96388,35.31559],[127.96333,35.31566],[127.96117,35.31563],[127.95902,35.31557],[127.95693,35.31572],[127.95664,35.31576],[127.9561,35.31584],[127.95575,35.3159],[127.95489,35.31608],[127.95297,35.31665],[127.95214,35.31693],[127.9517,35.31709],[127.95117,35.31729],[127.94955,35.31857],[127.94783,35.32],[127.9417,35.32602],[127.94144,35.3263],[127.94134,35.32642],[127.94128,35.3265],[127.94118,35.32666],[127.94111,35.32678],[127.94103,35.32695],[127.94098,35.32713],[127.94095,35.32732],[127.94095,35.32753],[127.941,35.32861],[127.94104,35.32903],[127.9412,35.32974],[127.94146,35.33093],[127.94147,35.3321],[127.94144,35.3327],[127.94138,35.3333],[127.94126,35.33384],[127.94045,35.33649],[127.94005,35.33742],[127.9392,35.33933],[127.93842,35.3409],[127.938,35.3417],[127.9374,35.34283],[127.9369,35.34366],[127.93648,35.34435],[127.93599,35.3451],[127.93565,35.34557],[127.93497,35.34627],[127.93458,35.34665],[127.93237,35.34859],[127.93025,35.35043],[127.92991,35.35068],[127.92912,35.35109],[127.92833,35.35148],[127.92586,35.35258],[127.92513,35.35286],[127.92489,35.35294],[127.92471,35.35296],[127.92466,35.35297],[127.92451,35.35298],[127.92359,35.35319],[127.92284,35.35336],[127.92243,35.35348],[127.92016,35.35417],[127.9195,35.3544],[127.9191,35.35465],[127.91858,35.35512],[127.91833,35.35541],[127.91815,35.3557],[127.91789,35.3562],[127.91771,35.35662],[127.91748,35.3571],[127.91749,35.35801],[127.91737,35.3597],[127.91726,35.36022],[127.91694,35.36122],[127.91672,35.3617],[127.91594,35.36321],[127.91489,35.36659],[127.91482,35.36712],[127.91482,35.36725],[127.91493,35.36747],[127.91505,35.36765],[127.91541,35.36806],[127.91558,35.36819],[127.91593,35.36836],[127.91617,35.3684],[127.91635,35.36841],[127.91742,35.36835],[127.91817,35.36831],[127.92062,35.36869],[127.92349,35.36943],[127.92558,35.37087],[127.93048,35.37304],[127.93067,35.37315],[127.9308,35.37323],[127.93098,35.37336],[127.93121,35.37352],[127.9332,35.37502],[127.93408,35.37592],[127.93763,35.37794],[127.93775,35.37796],[127.93786,35.378],[127.93796,35.37805],[127.93847,35.37839],[127.93872,35.37868],[127.93882,35.37892],[127.93887,35.37936],[127.93886,35.37953],[127.93863,35.37998],[127.93824,35.38035],[127.93767,35.38079],[127.93733,35.38104],[127.93718,35.38121],[127.9371,35.3814],[127.9371,35.38162],[127.9372,35.38183],[127.93812,35.38325],[127.93827,35.38333],[127.9396,35.38379],[127.93976,35.38383],[127.94001,35.38383],[127.94048,35.38375],[127.94063,35.38375],[127.94076,35.38379],[127.94163,35.38401],[127.94175,35.38409],[127.94476,35.38777],[127.94527,35.38868],[127.94915,35.38808],[127.94926,35.38807],[127.94946,35.38805],[127.95043,35.38798],[127.95084,35.38797],[127.95291,35.3882],[127.95723,35.3888],[127.95747,35.38903],[127.95779,35.3893],[127.95803,35.38948],[127.95835,35.38969],[127.95853,35.38979],[127.95968,35.39033],[127.96408,35.39129],[127.96414,35.39129],[127.96548,35.39091],[127.96555,35.39089],[127.96566,35.39083],[127.96584,35.39071],[127.96595,35.39058],[127.96605,35.39043],[127.96627,35.39015],[127.96637,35.39005],[127.96649,35.38996],[127.96669,35.38985],[127.96706,35.38969],[127.96866,35.38916],[127.96877,35.38914],[127.96897,35.38913],[127.9691,35.38912],[127.97021,35.38788],[127.97075,35.38622],[127.97249,35.38329],[127.97256,35.38318],[127.97576,35.37955],[127.97599,35.37932],[127.97631,35.37902],[127.97665,35.37876],[127.97692,35.37859],[127.97722,35.37844],[127.97766,35.37832],[127.978,35.37826],[127.97842,35.3782],[127.97881,35.37818],[127.98103,35.37809],[127.98141,35.37808],[127.98173,35.37808],[127.98358,35.3781],[127.98421,35.37812],[127.98442,35.37814],[127.98458,35.37816],[127.98472,35.37818],[127.98491,35.37824],[127.98512,35.37835],[127.98644,35.37944],[127.98793,35.38066],[127.98901,35.38195],[127.98912,35.38209],[127.98926,35.38223],[127.98959,35.38253],[127.99019,35.38303],[127.9904,35.38312],[127.99525,35.38424],[127.99532,35.38424],[127.99546,35.38423],[127.99563,35.38421],[127.99916,35.38376],[128.0,35.38362],[128.00196,35.38306],[128.00209,35.383],[128.00745,35.3788],[128.00742,35.37852],[128.00746,35.37842],[128.00821,35.37735],[128.00832,35.37726],[128.00907,35.37665],[128.00914,35.37661],[128.00952,35.37642],[128.01198,35.37563],[128.01249,35.37567],[128.0136,35.37563],[128.01614,35.37551],[128.01638,35.37545],[128.01969,35.37439],[128.02025,35.3742],[128.02062,35.37407],[128.02117,35.37382],[128.02137,35.37369],[128.02146,35.37363],[128.02228,35.37288],[128.02579,35.37205],[128.02668,35.37229],[128.02693,35.37235],[128.02703,35.37234],[128.02715,35.37231],[128.02923,35.3717],[128.02972,35.37145],[128.02988,35.37136]]]]}},{"type":"Feature","properties":{"code":"48860390","name":"생비량면","parent":"48860"},"geometry":{"type":"MultiPolygon","coordinates":[[[[128.08034,35.37013],[128.08194,35.36966],[128.08214,35.36958],[128.08273,35.3693],[128.08445,35.36846],[128.08802,35.36607],[128.09223,35.36572],[128.09642,35.36673],[128.09649,35.36676],[128.0976,35.36709],[128.09782,35.36712],[128.1024,35.36608],[128.10241,35.36605],[128.10226,35.36556],[128.102,35.36479],[128.10182,35.36436],[128.10165,35.36403],[128.10161,35.36395],[128.10157,35.36387],[128.10108,35.36304],[128.10067,35.36251],[128.10045,35.36225],[128.10024,35.36198],[128.10002,35.36172],[128.09987,35.36162],[128.09974,35.36155],[128.09949,35.36151],[128.09926,35.36146],[128.09859,35.36139],[128.09782,35.36129],[128.09761,35.36125],[128.09733,35.36111],[128.09715,35.361],[128.09679,35.36076],[128.09624,35.36035],[128.09578,35.36001],[128.0957,35.35993],[128.0956,35.35976],[128.09464,35.35779],[128.09463,35.35774],[128.09461,35.35745],[128.09459,35.357],[128.09463,35.35679],[128.09474,35.35645],[128.09481,35.35627],[128.09491,35.35618],[128.09536,35.35591],[128.09548,35.35584],[128.09561,35.35576],[128.09569,35.35574],[128.09575,35.35573],[128.09586,35.35572],[128.09598,35.35571],[128.09617,35.35571],[128.09637,35.35571],[128.09652,35.35571],[128.09662,35.35568],[128.09745,35.35542],[128.09771,35.35534],[128.09775,35.35532],[128.09782,35.35529],[128.0989,35.35476],[128.09902,35.35465],[128.09916,35.3544],[128.09936,35.35393],[128.09936,35.35372],[128.09925,35.35354],[128.09909,35.35332],[128.09895,35.3532],[128.09835,35.35271],[128.09811,35.35251],[128.0966,35.35137],[128.0959,35.35087],[128.09527,35.35052],[128.09514,35.35041],[128.095,35.35029],[128.09479,35.35012],[128.09463,35.34996],[128.09412,35.34928],[128.09387,35.34894],[128.09385,35.34888],[128.09384,35.34881],[128.09383,35.34775],[128.09384,35.34769],[128.09426,35.34473],[128.09428,35.34467],[128.09477,35.34415],[128.09741,35.34171],[128.0993,35.34099],[128.09936,35.34097],[128.09942,35.34096],[128.09954,35.34094],[128.10418,35.33955],[128.10701,35.33801],[128.1071,35.33799],[128.10814,35.33784],[128.10819,35.33784],[128.10825,35.33784],[128.10836,35.33784],[128.1085,35.33787],[128.10885,35.33794],[128.10911,35.33797],[128.1092,35.33796],[128.1093,35.33794],[128.11012,35.33762],[128.11017,35.3376],[128.11022,35.33757],[128.11037,35.33748],[128.11353,35.33538],[128.11371,35.33525],[128.11385,35.33513],[128.11415,35.33483],[128.11417,35.33481],[128.1143,35.33465],[128.11509,35.33334],[128.1152,35.33304],[128.11521,35.33285],[128.11469,35.33086],[128.11465,35.33088],[128.11445,35.33099],[128.11413,35.33114],[128.11258,35.33177],[128.10748,35.33184],[128.10252,35.3349],[128.10174,35.33528],[128.1009,35.33508],[128.09965,35.33498],[128.09886,35.33497],[128.09597,35.33501],[128.09441,35.33511],[128.08629,35.3361],[128.0809,35.33672],[128.08012,35.33679],[128.07715,35.33656],[128.07708,35.33655],[128.0757,35.33627],[128.07557,35.33624],[128.07469,35.33601],[128.07454,35.33597],[128.0745,35.33586],[128.07456,35.33557],[128.07463,35.33501],[128.07466,35.33474],[128.0746,35.33451],[128.07444,35.33419],[128.07427,35.33392],[128.07406,35.33367],[128.0739,35.33349],[128.07383,35.33342],[128.07374,35.33337],[128.07367,35.33334],[128.07273,35.33301],[128.0699,35.33248],[128.06891,35.33242],[128.06752,35.33251],[128.06739,35.33255],[128.0671,35.33266],[128.06695,35.33275],[128.06686,35.33283],[128.06669,35.33301],[128.0666,35.3331],[128.06653,35.33316],[128.06628,35.33323],[128.06607,35.33327],[128.06585,35.33328],[128.05878,35.33357],[128.05848,35.33235],[128.05762,35.33012],[128.05756,35.32997],[128.05747,35.3298],[128.05703,35.32899],[128.05677,35.32864],[128.05663,35.32847],[128.05502,35.32671],[128.05402,35.32567],[128.05388,35.32553],[128.05362,35.32533],[128.05311,35.32496],[128.05264,35.32462],[128.05233,35.32441],[128.05221,35.32433],[128.05211,35.32419],[128.05198,35.32401],[128.05173,35.32366],[128.0516,35.32345],[128.05027,35.32092],[128.05036,35.3208],[128.05052,35.32059],[128.05095,35.32016],[128.05112,35.32],[128.05139,35.31969],[128.05216,35.31867],[128.05274,35.31546],[128.05276,35.31536],[128.05281,35.3151],[128.05279,35.31471],[128.05269,35.31374],[128.05263,35.31329],[128.05246,35.31288],[128.04559,35.30612],[128.04431,35.30553],[128.04239,35.30446],[128.04186,35.30397],[128.04167,35.30383],[128.04152,35.30375],[128.04146,35.30374],[128.04128,35.30376],[128.04092,35.30385],[128.04069,35.30392],[128.0357,35.30666],[128.03559,35.30675],[128.03496,35.3074],[128.03451,35.30785],[128.03459,35.30809],[128.03463,35.3082],[128.0347,35.30842],[128.03473,35.30864],[128.03475,35.30878],[128.03474,35.30918],[128.03459,35.31129],[128.03415,35.31298],[128.03341,35.31515],[128.03333,35.31529],[128.03316,35.31558],[128.03285,35.31599],[128.02926,35.32059],[128.02918,35.32066],[128.02659,35.32219],[128.02633,35.32232],[128.02562,35.32259],[128.02242,35.32376],[128.02223,35.32382],[128.02214,35.32384],[128.02194,35.32386],[128.02176,35.32383],[128.02091,35.32369],[128.02081,35.32365],[128.0207,35.32353],[128.02034,35.32318],[128.01738,35.32172],[128.01715,35.32164],[128.01635,35.32144],[128.01607,35.32139],[128.01596,35.32137],[128.01589,35.32139],[128.01507,35.32173],[128.01498,35.32178],[128.01411,35.32261],[128.01405,35.32269],[128.01399,35.32282],[128.01393,35.32308],[128.01282,35.32542],[128.01269,35.32566],[128.01249,35.32583],[128.01223,35.32597],[128.01211,35.326],[128.01191,35.32603],[128.01158,35.32597],[128.01105,35.32584],[128.0104,35.3257],[128.0102,35.32567],[128.00983,35.32564],[128.00918,35.32563],[128.00894,35.32564],[128.00826,35.32571],[128.00816,35.32574],[128.00806,35.32586],[128.008,35.32596],[128.00794,35.32612],[128.00792,35.32622],[128.00785,35.32658],[128.00783,35.32673],[128.00785,35.32695],[128.00792,35.32707],[128.00799,35.32714],[128.00804,35.32718],[128.00816,35.32726],[128.0086,35.32755],[128.00897,35.32778],[128.00911,35.32789],[128.01041,35.3289],[128.01077,35.3292],[128.01112,35.32955],[128.01181,35.33026],[128.0119,35.33037],[128.0121,35.3306],[128.01213,35.33065],[128.01218,35.33072],[128.01229,35.33092],[128.01256,35.33146],[128.01284,35.33218],[128.01296,35.33261],[128.01309,35.33309],[128.01324,35.3337],[128.01332,35.33403],[128.01341,35.33454],[128.01345,35.33482],[128.01346,35.33518],[128.01345,35.33527],[128.01342,35.33559],[128.01338,35.33576],[128.01334,35.33595],[128.01331,35.33605],[128.0132,35.33633],[128.01309,35.33652],[128.01269,35.33923],[128.01354,35.34297],[128.01432,35.34512],[128.01543,35.34896],[128.01617,35.35401],[128.0162,35.35413],[128.01626,35.35424],[128.01722,35.35571],[128.01731,35.3558],[128.02092,35.35897],[128.0211,35.35909],[128.02209,35.35962],[128.02217,35.35964],[128.02296,35.35967],[128.02368,35.35979],[128.02646,35.36221],[128.02688,35.36258],[128.02732,35.36301],[128.02828,35.36502],[128.02838,35.3653],[128.02839,35.36542],[128.02931,35.36949],[128.02988,35.37136],[128.02993,35.37181],[128.02997,35.372],[128.03011,35.37223],[128.03146,35.37439],[128.03263,35.37467],[128.03281,35.37472],[128.03426,35.37478],[128.0352,35.37474],[128.03537,35.37471],[128.03884,35.37342],[128.03901,35.37333],[128.03967,35.37282],[128.04005,35.3725],[128.04015,35.37237],[128.04364,35.37113],[128.04764,35.36987],[128.04848,35.36981],[128.04864,35.36983],[128.04878,35.36991],[128.04893,35.37015],[128.049,35.37044],[128.05008,35.37454],[128.05013,35.37498],[128.05008,35.37543],[128.04975,35.37732],[128.04952,35.37814],[128.04949,35.3782],[128.04922,35.37851],[128.04907,35.3787],[128.04879,35.37929],[128.04863,35.37961],[128.04855,35.37989],[128.04855,35.38017],[128.04859,35.38041],[128.04866,35.38064],[128.04875,35.3808],[128.04888,35.38093],[128.04995,35.38169],[128.05001,35.38172],[128.05047,35.38173],[128.05176,35.38184],[128.05186,35.38188],[128.05336,35.38234],[128.05369,35.38255],[128.0539,35.38273],[128.05449,35.38334],[128.05465,35.38353],[128.05501,35.38398],[128.05549,35.38473],[128.05653,35.38596],[128.05697,35.38637],[128.05723,35.38655],[128.06226,35.389],[128.06296,35.38918],[128.06343,35.38933],[128.06353,35.38939],[128.06425,35.38998],[128.06455,35.3903],[128.06493,35.39086],[128.065,35.39096],[128.06501,35.39117],[128.06501,35.39153],[128.06494,35.39188],[128.06487,35.39215],[128.06473,35.39244],[128.0646,35.39264],[128.0645,35.39272],[128.06437,35.39275],[128.06428,35.39279],[128.06421,35.39286],[128.06393,35.39366],[128.06388,35.39385],[128.06388,35.39406],[128.06427,35.39501],[128.06432,35.39508],[128.06636,35.39661],[128.06636,35.39658],[128.0664,35.39648],[128.06659,35.39621],[128.06705,35.3957],[128.06721,35.39555],[128.06732,35.39548],[128.06859,35.39479],[128.07019,35.39384],[128.0707,35.39352],[128.07078,35.39345],[128.07084,35.3934],[128.07197,35.39232],[128.072,35.39224],[128.07203,35.39217],[128.07293,35.38892],[128.07297,35.38892],[128.07328,35.38892],[128.07359,35.38892],[128.07582,35.38898],[128.07613,35.38903],[128.07662,35.38921],[128.0769,35.38937],[128.07703,35.38944],[128.07719,35.38948],[128.07782,35.38955],[128.07808,35.38955],[128.0789,35.3895],[128.07903,35.3895],[128.07964,35.38939],[128.08062,35.38913],[128.08072,35.38909],[128.08288,35.38732],[128.08293,35.38722],[128.08293,35.38709],[128.08284,35.3863],[128.08281,35.38612],[128.08282,35.38599],[128.08286,35.38588],[128.08342,35.38474],[128.08356,35.38459],[128.08473,35.38348],[128.0848,35.38342],[128.08487,35.38337],[128.0851,35.38328],[128.0853,35.38319],[128.0861,35.38283],[128.08623,35.38273],[128.08757,35.38146],[128.0885,35.38051],[128.08908,35.37925],[128.08908,35.37916],[128.08847,35.37779],[128.08683,35.37481],[128.08674,35.37465],[128.08604,35.37387],[128.08579,35.3737],[128.08546,35.37363],[128.08527,35.37362],[128.08513,35.37367],[128.08502,35.37367],[128.08418,35.37359],[128.0841,35.37356],[128.08122,35.37184],[128.08113,35.37175],[128.08049,35.3705],[128.08037,35.37025],[128.08034,35.37017],[128.08034,35.37013]]]]}},{"type":"Feature","properties":{"code":"48860400","name":"신등면","parent":"48860"},"geometry":{"type":"MultiPolygon","coordinates":[[[[128.05233,35.41809],[128.05265,35.41795],[128.0529,35.41782],[128.05312,35.41769],[128.05321,35.41761],[128.05341,35.41743],[128.05418,35.41668],[128.05427,35.41658],[128.0543,35.41655],[128.05434,35.41648],[128.05438,35.41644],[128.05445,35.41631],[128.05589,35.4137],[128.05597,35.41355],[128.05723,35.41051],[128.05795,35.40818],[128.05803,35.40795],[128.05949,35.40549],[128.06181,35.4048],[128.06192,35.40477],[128.062,35.40477],[128.06209,35.40476],[128.06426,35.40343],[128.0659,35.40224],[128.06599,35.40208],[128.06603,35.40194],[128.06601,35.40181],[128.06589,35.40136],[128.0658,35.40119],[128.06574,35.40113],[128.06567,35.40106],[128.06552,35.40096],[128.06542,35.40089],[128.06536,35.40082],[128.0651,35.39981],[128.0649,35.39869],[128.06492,35.3986],[128.06636,35.39661],[128.06432,35.39508],[128.06427,35.39501],[128.06388,35.39406],[128.06388,35.39385],[128.06393,35.39366],[128.06421,35.39286],[128.06428,35.39279],[128.06437,35.39275],[128.0645,35.39272],[128.0646,35.39264],[128.06473,35.39244],[128.06487,35.39215],[128.06494,35.39188],[128.06501,35.39153],[128.06501,35.39117],[128.065,35.39096],[128.06493,35.39086],[128.06455,35.3903],[128.06425,35.38998],[128.06353,35.38939],[128.06343,35.38933],[128.06296,35.38918],[128.06226,35.389],[128.05723,35.38655],[128.05697,35.38637],[128.05653,35.38596],[128.05549,35.38473],[128.05501,35.38398],[128.05465,35.38353],[128.05449,35.38334],[128.0539,35.38273],[128.05369,35.38255],[128.05336,35.38234],[128.05186,35.38188],[128.05176,35.38184],[128.05047,35.38173],[128.05001,35.38172],[128.04995,35.38169],[128.04888,35.38093],[128.04875,35.3808],[128.04866,35.38064],[128.04859,35.38041],[128.04855,35.38017],[128.04855,35.37989],[128.04863,35.37961],[128.04879,35.37929],[128.04907,35.3787],[128.04922,35.37851],[128.04949,35.3782],[128.04952,35.37814],[128.04975,35.37732],[128.05008,35.37543],[128.05013,35.37498],[128.05008,35.37454],[128.049,35.37044],[128.04893,35.37015],[128.04878,35.36991],[128.04864,35.36983],[128.04848,35.36981],[128.04764,35.36987],[128.04364,35.37113],[128.04015,35.37237],[128.04005,35.3725],[128.03967,35.37282],[128.03901,35.37333],[128.03884,35.37342],[128.03537,35.37471],[128.0352,35.37474],[128.03426,35.37478],[128.03281,35.37472],[128.03263,35.37467],[128.03146,35.37439],[128.03011,35.37223],[128.02997,35.372],[128.02993,35.37181],[128.02988,35.37136],[128.02972,35.37145],[128.02923,35.3717],[128.02715,35.37231],[128.02703,35.37234],[128.02693,35.37235],[128.02668,35.37229],[128.02579,35.37205],[128.02228,35.37288],[128.02146,35.37363],[128.02137,35.37369],[128.02117,35.37382],[128.02062,35.37407],[128.02025,35.3742],[128.01969,35.37439],[128.01638,35.37545],[128.01614,35.37551],[128.0136,35.37563],[128.01249,35.37567],[128.01198,35.37563],[128.00952,35.37642],[128.00914,35.37661],[128.00907,35.37665],[128.00832,35.37726],[128.00821,35.37735],[128.00746,35.37842],[128.00742,35.37852],[128.00745,35.3788],[128.00209,35.383],[128.00196,35.38306],[128.0,35.38362],[127.99916,35.38376],[127.99563,35.38421],[127.99546,35.38423],[127.99532,35.38424],[127.99525,35.38424],[127.9904,35.38312],[127.99019,35.38303],[127.98959,35.38253],[127.98926,35.38223],[127.98912,35.38209],[127.98901,35.38195],[127.98793,35.38066],[127.98644,35.37944],[127.98512,35.37835],[127.98491,35.37824],[127.98472,35.37818],[127.98458,35.37816],[127.98442,35.37814],[127.98421,35.37812],[127.98358,35.3781],[127.98173,35.37808],[127.98141,35.37808],[127.98103,35.37809],[127.97881,35.37818],[127.97842,35.3782],[127.978,35.37826],[127.97766,35.37832],[127.97722,35.37844],[127.97692,35.37859],[127.97665,35.37876],[127.97631,35.37902],[127.97599,35.37932],[127.97576,35.37955],[127.97256,35.38318],[127.97249,35.38329],[127.97075,35.38622],[127.97021,35.38788],[127.9691,35.38912],[127.96897,35.38913],[127.96877,35.38914],[127.96866,35.38916],[127.96706,35.38969],[127.96669,35.38985],[127.96649,35.38996],[127.96637,35.39005],[127.96627,35.39015],[127.96605,35.39043],[127.96595,35.39058],[127.96584,35.39071],[127.96566,35.39083],[127.96555,35.39089],[127.96548,35.39091],[127.96414,35.39129],[127.96408,35.39129],[127.95968,35.39033],[127.95853,35.38979],[127.95835,35.38969],[127.95803,35.38948],[127.95779,35.3893],[127.95747,35.38903],[127.95723,35.3888],[127.95291,35.3882],[127.95084,35.38797],[127.95043,35.38798],[127.94946,35.38805],[127.94926,35.38807],[127.94915,35.38808],[127.94527,35.38868],[127.94577,35.38912],[127.94596,35.38932],[127.9461,35.38986],[127.94589,35.39092],[127.94549,35.39216],[127.94536,35.39282],[127.94534,35.39317],[127.94537,35.39334],[127.94612,35.39515],[127.94628,35.39534],[127.94783,35.39681],[127.94895,35.39771],[127.94924,35.39788],[127.94937,35.39799],[127.94955,35.39819],[127.94985,35.39869],[127.95026,35.39951],[127.95031,35.39965],[127.95032,35.39979],[127.95018,35.40194],[127.95015,35.40219],[127.94991,35.40275],[127.94986,35.4028],[127.94936,35.40319],[127.95067,35.4062],[127.95079,35.40638],[127.95096,35.40656],[127.95124,35.40682],[127.95152,35.40702],[127.95163,35.40709],[127.95345,35.40859],[127.9555,35.41036],[127.95601,35.41082],[127.95699,35.41174],[127.95701,35.41179],[127.95698,35.41186],[127.95689,35.41198],[127.95603,35.41273],[127.95579,35.4129],[127.95557,35.41299],[127.95183,35.41446],[127.95158,35.41455],[127.95107,35.41468],[127.95042,35.4148],[127.9498,35.41486],[127.94922,35.41486],[127.94884,35.41485],[127.94802,35.4148],[127.94783,35.41479],[127.94765,35.41484],[127.94671,35.4151],[127.94622,35.41526],[127.94553,35.41552],[127.94183,35.41708],[127.9417,35.41715],[127.94157,35.41727],[127.94145,35.41747],[127.94134,35.41771],[127.94129,35.41788],[127.94126,35.41803],[127.94107,35.42313],[127.94107,35.42325],[127.94119,35.42432],[127.94131,35.42521],[127.94153,35.42658],[127.94207,35.42678],[127.94274,35.42706],[127.94299,35.42719],[127.94345,35.42751],[127.9439,35.42793],[127.944,35.42805],[127.94416,35.42819],[127.9444,35.42832],[127.94468,35.4284],[127.94783,35.42912],[127.94834,35.42911],[127.94981,35.42892],[127.95172,35.42856],[127.95363,35.42836],[127.95485,35.42836],[127.95546,35.42841],[127.95677,35.42863],[127.95726,35.42872],[127.95787,35.42887],[127.96135,35.42973],[127.9614,35.42975],[127.96142,35.42982],[127.96139,35.43005],[127.96136,35.43022],[127.96109,35.43134],[127.96085,35.43219],[127.96085,35.43222],[127.96087,35.43228],[127.96106,35.43244],[127.96391,35.43466],[127.96415,35.43482],[127.96439,35.43493],[127.96599,35.43563],[127.96618,35.4357],[127.96639,35.43575],[127.96664,35.43577],[127.96699,35.43576],[127.9673,35.43574],[127.96751,35.43576],[127.96772,35.43579],[127.96792,35.43585],[127.96808,35.43592],[127.96812,35.43596],[127.96813,35.43606],[127.96807,35.43629],[127.96745,35.43845],[127.96739,35.43857],[127.96676,35.43984],[127.96634,35.44045],[127.96572,35.44117],[127.96558,35.44132],[127.96529,35.44145],[127.96508,35.44156],[127.96492,35.44173],[127.96471,35.44198],[127.96435,35.44253],[127.96423,35.44274],[127.96326,35.44538],[127.96302,35.44633],[127.963,35.44648],[127.96299,35.44663],[127.96304,35.44685],[127.96308,35.44703],[127.96324,35.44747],[127.96331,35.44759],[127.96335,35.44763],[127.96572,35.448],[127.96601,35.44804],[127.96634,35.44808],[127.96673,35.44811],[127.96713,35.44811],[127.96865,35.44805],[127.96894,35.44804],[127.96918,35.44799],[127.9695,35.44789],[127.97044,35.448],[127.97054,35.44802],[127.97065,35.44805],[127.97085,35.44813],[127.97173,35.44853],[127.97186,35.44861],[127.97198,35.44869],[127.97489,35.45066],[127.97536,35.45064],[127.97716,35.45059],[127.97746,35.45061],[127.97779,35.45064],[127.97805,35.4507],[127.97837,35.45078],[127.97875,35.45089],[127.98092,35.45168],[127.98251,35.45276],[127.98264,35.45282],[127.98382,35.45313],[127.98467,35.45178],[127.98612,35.45143],[127.98625,35.45139],[127.98635,35.45135],[127.98646,35.45122],[127.98746,35.44792],[127.98705,35.44626],[127.98694,35.44603],[127.98689,35.44584],[127.98688,35.4457],[127.98689,35.44556],[127.98692,35.44544],[127.987,35.44536],[127.9871,35.44527],[127.99185,35.44127],[127.99588,35.43828],[127.99798,35.43724],[127.99811,35.43736],[127.99858,35.43781],[127.99876,35.43792],[127.99897,35.43794],[128.00239,35.43782],[128.00256,35.43781],[128.0066,35.43651],[128.00689,35.4364],[128.00792,35.43577],[128.0081,35.43564],[128.00822,35.43548],[128.0083,35.4352],[128.00859,35.43391],[128.0086,35.43366],[128.00853,35.43339],[128.00826,35.43284],[128.00817,35.43253],[128.00812,35.43224],[128.0081,35.43192],[128.00813,35.43169],[128.00949,35.42867],[128.01138,35.42645],[128.01154,35.42628],[128.01162,35.42623],[128.01172,35.42622],[128.01182,35.42626],[128.01214,35.4264],[128.01241,35.42649],[128.01274,35.42649],[128.01319,35.42648],[128.01592,35.42585],[128.01868,35.4252],[128.01877,35.42521],[128.01891,35.42528],[128.01928,35.42553],[128.01944,35.42567],[128.01958,35.42585],[128.01971,35.42596],[128.01982,35.42598],[128.02085,35.42624],[128.02102,35.42627],[128.02283,35.42641],[128.02292,35.42641],[128.02305,35.42639],[128.02311,35.42636],[128.02316,35.42632],[128.024,35.42556],[128.02404,35.42551],[128.02408,35.42533],[128.02411,35.42511],[128.02408,35.42487],[128.02404,35.42468],[128.02499,35.42235],[128.02626,35.42034],[128.03038,35.41659],[128.0305,35.41648],[128.03066,35.41635],[128.03078,35.41632],[128.03472,35.41543],[128.03488,35.4154],[128.03496,35.4154],[128.03658,35.41571],[128.03685,35.41578],[128.0371,35.41587],[128.03934,35.41676],[128.03951,35.41686],[128.03959,35.41693],[128.0397,35.41703],[128.03978,35.41712],[128.03985,35.41728],[128.03998,35.41756],[128.04008,35.41769],[128.04052,35.41811],[128.04065,35.41821],[128.04073,35.41826],[128.04194,35.41888],[128.042,35.41891],[128.04205,35.41891],[128.04212,35.41887],[128.04429,35.41735],[128.04444,35.41724],[128.04455,35.4171],[128.04463,35.41698],[128.04471,35.41683],[128.04475,35.41667],[128.04482,35.41637],[128.04487,35.41619],[128.04496,35.41603],[128.04505,35.4159],[128.04515,35.41578],[128.04522,35.41575],[128.04526,35.41573],[128.04533,35.41574],[128.04714,35.41604],[128.04726,35.41607],[128.0515,35.41744],[128.05159,35.41747],[128.0517,35.41755],[128.05233,35.41809]]]]}}]}