{"type":"FeatureCollection","features":[{"type":"Feature","properties":{"code":"47940250","name":"울릉읍","parent":"47940"},"geometry":{"type":"MultiPolygon","coordinates":[[[[131.87033,37.24125],[131.86995,37.24039],[131.87049,37.24066],[131.87099,37.2408],[131.87129,37.24011],[131.86999,37.23837],[131.86983,37.23833],[131.86963,37.23829],[131.8695,37.23834],[131.86831,37.23925],[131.8681,37.23943],[131.86841,37.24047],[131.86879,37.24102],[131.86884,37.24109],[131.86912,37.2413],[131.86937,37.24146],[131.8703,37.24184],[131.87037,37.24181],[131.87035,37.24145],[131.87033,37.24125]]],[[[131.86527,37.2402],[131.86521,37.24019],[131.86339,37.24058],[131.8632,37.2408],[131.86324,37.24229],[131.86346,37.24282],[131.86528,37.24431],[131.86549,37.24429],[131.86574,37.24413],[131.86619,37.24368],[131.86623,37.24347],[131.86626,37.24277],[131.86615,37.24263],[131.86686,37.24179],[131.86572,37.24056],[131.86564,37.24048],[131.86527,37.2402]]],[[[130.87255,37.45716],[130.87236,37.45732],[130.87176,37.45812],[130.87169,37.45821],[130.87122,37.45943],[130.87121,37.4596],[130.87124,37.45982],[130.87126,37.45991],[130.87126,37.46003],[130.87124,37.46009],[130.87081,37.46081],[130.87072,37.46096],[130.87055,37.46119],[130.86842,37.46372],[130.86805,37.46413],[130.86787,37.46424],[130.86759,37.46435],[130.86659,37.46523],[130.86532,37.46638],[130.86516,37.46653],[130.86497,37.46681],[130.86489,37.46696],[130.86485,37.46711],[130.86484,37.46721],[130.86481,37.46737],[130.86481,37.46746],[130.86574,37.46916],[130.86582,37.46927],[130.86601,37.46945],[130.86623,37.46967],[130.86664,37.47001],[130.86687,37.47018],[130.86695,37.47024],[130.86701,37.47038],[130.86703,37.47056],[130.867,37.47083],[130.86697,37.47096],[130.86684,37.47134],[130.86673,37.4716],[130.86664,37.47181],[130.86645,37.47219],[130.86631,37.47243],[130.86612,37.47268],[130.86601,37.47283],[130.86587,37.47292],[130.86558,37.47309],[130.86538,37.47318],[130.86526,37.47321],[130.86511,37.47322],[130.86479,37.47329],[130.86464,37.47334],[130.8644,37.47349],[130.86414,37.47366],[130.86399,37.47378],[130.86164,37.47594],[130.8616,37.476],[130.86157,37.4761],[130.86157,37.47624],[130.86158,37.47637],[130.8616,37.47651],[130.86163,37.47664],[130.86171,37.47685],[130.86181,37.47704],[130.86192,37.47719],[130.86217,37.47746],[130.86232,37.4776],[130.86423,37.48115],[130.86474,37.48224],[130.86513,37.48447],[130.86521,37.4856],[130.86524,37.48605],[130.86525,37.48657],[130.86525,37.48677],[130.86523,37.48689],[130.86519,37.48697],[130.86512,37.48703],[130.86497,37.4871],[130.86473,37.48721],[130.86467,37.48727],[130.86357,37.48833],[130.86335,37.48857],[130.86305,37.4889],[130.86294,37.48906],[130.86284,37.48924],[130.86282,37.48939],[130.86283,37.49019],[130.86355,37.49403],[130.86362,37.49937],[130.86364,37.49946],[130.86368,37.49956],[130.86462,37.50139],[130.86503,37.50179],[130.86568,37.50215],[130.86596,37.50203],[130.86624,37.50198],[130.86643,37.50197],[130.86708,37.50221],[130.86732,37.50237],[130.86761,37.50264],[130.86789,37.50291],[130.86794,37.50298],[130.86866,37.50466],[130.86871,37.50481],[130.86874,37.50499],[130.86877,37.50557],[130.86875,37.50583],[130.86876,37.50603],[130.86877,37.50623],[130.86884,37.50646],[130.86895,37.50665],[130.86912,37.50689],[130.8705,37.50849],[130.87059,37.50858],[130.87071,37.50866],[130.87096,37.50881],[130.8716,37.50921],[130.87176,37.50929],[130.87435,37.51011],[130.87458,37.51015],[130.87478,37.51015],[130.87529,37.51015],[130.87557,37.51014],[130.87617,37.51009],[130.87645,37.51007],[130.8769,37.51001],[130.87713,37.50996],[130.87718,37.50996],[130.87745,37.51],[130.87757,37.51004],[130.87766,37.5101],[130.8797,37.51147],[130.87982,37.51156],[130.8804,37.51202],[130.88068,37.51224],[130.88118,37.5127],[130.88129,37.51284],[130.88223,37.51425],[130.88229,37.51436],[130.88349,37.51687],[130.8835,37.51693],[130.88308,37.51844],[130.88284,37.51922],[130.88275,37.51946],[130.88264,37.51965],[130.88258,37.52123],[130.88278,37.52355],[130.88279,37.52365],[130.88281,37.5237],[130.88287,37.52373],[130.88295,37.52376],[130.88301,37.52376],[130.88313,37.52375],[130.8843,37.52354],[130.88463,37.52345],[130.88487,37.52337],[130.88515,37.52326],[130.88559,37.52308],[130.88594,37.52297],[130.88672,37.52275],[130.88713,37.52263],[130.88755,37.52254],[130.88772,37.52251],[130.88858,37.52245],[130.88865,37.52245],[130.89493,37.52241],[130.89684,37.52243],[130.89712,37.52245],[130.90188,37.52314],[130.90205,37.52317],[130.90223,37.52322],[130.90242,37.5233],[130.90251,37.52336],[130.90258,37.52345],[130.90267,37.52362],[130.90269,37.52373],[130.90269,37.52389],[130.90257,37.52459],[130.90251,37.52487],[130.90244,37.5251],[130.90234,37.52536],[130.90227,37.52555],[130.90129,37.52802],[130.90065,37.52945],[130.90063,37.52955],[130.90065,37.52965],[130.90072,37.52973],[130.90286,37.53127],[130.90304,37.53134],[130.90491,37.53191],[130.90543,37.53205],[130.90616,37.53219],[130.90639,37.5322],[130.90686,37.53216],[130.90706,37.53214],[130.90715,37.53213],[130.90947,37.52809],[130.90998,37.52708],[130.91024,37.52589],[130.91056,37.52444],[130.91175,37.52405],[130.9157,37.52246],[130.9161,37.52192],[130.91747,37.51724],[130.9174,37.51606],[130.91716,37.51458],[130.91635,37.51232],[130.91605,37.51155],[130.91513,37.51092],[130.91416,37.51061],[130.91383,37.51001],[130.91385,37.50909],[130.91412,37.50808],[130.91458,37.50676],[130.91357,37.50153],[130.91271,37.50052],[130.91236,37.4981],[130.91307,37.49601],[130.91304,37.49532],[130.91233,37.49361],[130.91184,37.49088],[130.91253,37.49027],[130.91431,37.49026],[130.91588,37.49096],[130.91599,37.49103],[130.91626,37.49113],[130.91645,37.49118],[130.91657,37.49119],[130.91679,37.49121],[130.91698,37.49121],[130.9172,37.4912],[130.91737,37.49118],[130.91752,37.49114],[130.91872,37.49079],[130.91884,37.49073],[130.91892,37.49065],[130.91906,37.49035],[130.91911,37.49018],[130.91939,37.48859],[130.91941,37.48845],[130.91916,37.48814],[130.91867,37.48785],[130.915,37.48633],[130.91383,37.4859],[130.91144,37.48549],[130.91132,37.4855],[130.91117,37.48552],[130.91108,37.48555],[130.91094,37.48564],[130.91074,37.48581],[130.91055,37.48596],[130.91008,37.48632],[130.90998,37.48637],[130.90971,37.48647],[130.90957,37.48646],[130.90692,37.48446],[130.9078,37.48317],[130.90608,37.48095],[130.90522,37.48033],[130.9051,37.48025],[130.905,37.48022],[130.90024,37.47853],[130.89775,37.47889],[130.89536,37.47938],[130.89506,37.47943],[130.8948,37.47944],[130.89454,37.4794],[130.89427,37.47934],[130.88834,37.47764],[130.88815,37.47757],[130.88785,37.47744],[130.88762,37.47735],[130.88193,37.47462],[130.88185,37.47457],[130.88178,37.47452],[130.87994,37.47281],[130.87985,37.47272],[130.87836,37.4712],[130.87621,37.469],[130.87606,37.46884],[130.8759,37.46865],[130.87508,37.46742],[130.87783,37.46493],[130.87763,37.46467],[130.87419,37.46604],[130.87414,37.46592],[130.87387,37.46509],[130.87375,37.46463],[130.8737,37.46445],[130.87366,37.46426],[130.87329,37.46062],[130.87345,37.45902],[130.87346,37.45891],[130.87346,37.45883],[130.87345,37.45875],[130.87342,37.45856],[130.8734,37.45848],[130.87337,37.45837],[130.87334,37.45828],[130.87332,37.4582],[130.87325,37.45806],[130.87316,37.45794],[130.87255,37.45716]]],[[[130.93769,37.52837],[130.93735,37.52837],[130.93722,37.5284],[130.93716,37.52844],[130.9371,37.52847],[130.93651,37.52892],[130.93647,37.52895],[130.93644,37.52898],[130.93498,37.53097],[130.93495,37.53102],[130.93487,37.53118],[130.93475,37.53148],[130.93469,37.53164],[130.93466,37.53175],[130.93464,37.53188],[130.93463,37.53193],[130.93463,37.53197],[130.93464,37.53204],[130.93483,37.53353],[130.93489,37.53365],[130.93496,37.53374],[130.93519,37.53401],[130.93531,37.53412],[130.93644,37.53503],[130.93652,37.53509],[130.93656,37.53511],[130.93666,37.53516],[130.93719,37.5352],[130.93735,37.53519],[130.93752,37.53517],[130.93773,37.53514],[130.93781,37.53512],[130.93943,37.53458],[130.93951,37.53454],[130.93955,37.53451],[130.93964,37.53442],[130.93975,37.53425],[130.93982,37.53415],[130.93994,37.53389],[130.93999,37.5337],[130.94,37.53357],[130.93999,37.53346],[130.93998,37.53341],[130.93997,37.53335],[130.93935,37.52961],[130.93932,37.52946],[130.93922,37.52927],[130.93911,37.52911],[130.93893,37.52893],[130.9387,37.52875],[130.93861,37.52869],[130.93845,37.52861],[130.93839,37.52857],[130.93821,37.52851],[130.93804,37.52845],[130.93786,37.5284],[130.93781,37.52838],[130.93777,37.52837],[130.93769,37.52837]]]]}},{"type":"Feature","properties":{"code":"47940310","name":"서면","parent":"47940"},"geometry":{"type":"MultiPolygon","coordinates":[[[[130.80004,37.52428],[130.80093,37.52309],[130.80102,37.52302],[130.80111,37.52298],[130.8013,37.52295],[130.802,37.52287],[130.8048,37.52263],[130.8049,37.52263],[130.80496,37.52266],[130.80506,37.52279],[130.80516,37.52288],[130.8053,37.52292],[130.80545,37.52294],[130.80723,37.5231],[130.80739,37.52309],[130.80749,37.52308],[130.8101,37.52276],[130.81026,37.52271],[130.81176,37.52215],[130.8121,37.52201],[130.81693,37.52074],[130.824,37.52005],[130.82603,37.52007],[130.82615,37.52009],[130.82636,37.52014],[130.82875,37.52023],[130.83563,37.51995],[130.83576,37.51993],[130.8387,37.51937],[130.84105,37.5186],[130.8412,37.51853],[130.84134,37.51842],[130.84155,37.51812],[130.84215,37.51717],[130.84244,37.5167],[130.84267,37.51639],[130.84281,37.51623],[130.84289,37.51617],[130.84389,37.5158],[130.84402,37.51576],[130.84409,37.51575],[130.84581,37.51587],[130.84602,37.51588],[130.84627,37.51593],[130.84648,37.51599],[130.8467,37.51602],[130.84683,37.51602],[130.84697,37.516],[130.84715,37.51595],[130.84727,37.51589],[130.84742,37.51575],[130.84776,37.51535],[130.84858,37.51336],[130.84862,37.51323],[130.84875,37.51256],[130.84881,37.5122],[130.84881,37.51201],[130.84879,37.51183],[130.84872,37.51154],[130.84866,37.51139],[130.84857,37.51127],[130.84825,37.51087],[130.84814,37.51069],[130.84811,37.51061],[130.8481,37.51053],[130.84812,37.51034],[130.84826,37.50948],[130.84935,37.50413],[130.84963,37.50391],[130.85016,37.50384],[130.85458,37.50374],[130.85484,37.50382],[130.85988,37.50301],[130.86271,37.50211],[130.86319,37.50202],[130.86418,37.50204],[130.86475,37.50205],[130.86568,37.50215],[130.86503,37.50179],[130.86462,37.50139],[130.86368,37.49956],[130.86364,37.49946],[130.86362,37.49937],[130.86355,37.49403],[130.86283,37.49019],[130.86282,37.48939],[130.86284,37.48924],[130.86294,37.48906],[130.86305,37.4889],[130.86335,37.48857],[130.86357,37.48833],[130.86467,37.48727],[130.86473,37.48721],[130.86497,37.4871],[130.86512,37.48703],[130.86519,37.48697],[130.86523,37.48689],[130.86525,37.48677],[130.86525,37.48657],[130.86524,37.48605],[130.86521,37.4856],[130.86513,37.48447],[130.86474,37.48224],[130.86423,37.48115],[130.86232,37.4776],[130.86217,37.47746],[130.86192,37.47719],[130.86181,37.47704],[130.86171,37.47685],[130.86163,37.47664],[130.8616,37.47651],[130.86158,37.47637],[130.86157,37.47624],[130.86157,37.4761],[130.8616,37.476],[130.86164,37.47594],[130.86399,37.47378],[130.86414,37.47366],[130.8644,37.47349],[130.86464,37.47334],[130.86479,37.47329],[130.86511,37.47322],[130.86526,37.47321],[130.86538,37.47318],[130.86558,37.47309],[130.86587,37.47292],[130.86601,37.47283],[130.86612,37.47268],[130.86631,37.47243],[130.86645,37.47219],[130.86664,37.47181],[130.86673,37.4716],[130.86684,37.47134],[130.86697,37.47096],[130.867,37.47083],[130.86703,37.47056],[130.86701,37.47038],[130.86695,37.47024],[130.86687,37.47018],[130.86664,37.47001],[130.86623,37.46967],[130.86601,37.46945],[130.86582,37.46927],[130.86574,37.46916],[130.86481,37.46746],[130.86481,37.46737],[130.86484,37.46721],[130.86485,37.46711],[130.86489,37.46696],[130.86497,37.46681],[130.86516,37.46653],[130.86532,37.46638],[130.86659,37.46523],[130.86759,37.46435],[130.86787,37.46424],[130.86805,37.46413],[130.86842,37.46372],[130.87055,37.46119],[130.87072,37.46096],[130.87081,37.46081],[130.87124,37.46009],[130.87126,37.46003],[130.87126,37.45991],[130.87124,37.45982],[130.87121,37.4596],[130.87122,37.45943],[130.87169,37.45821],[130.87176,37.45812],[130.87236,37.45732],[130.87255,37.45716],[130.87211,37.45689],[130.87142,37.45712],[130.87004,37.45798],[130.86954,37.45853],[130.86894,37.45963],[130.86855,37.46073],[130.86777,37.46178],[130.86686,37.46261],[130.86568,37.46313],[130.86403,37.46375],[130.86207,37.46437],[130.86092,37.46467],[130.86034,37.46463],[130.85708,37.46424],[130.85634,37.46394],[130.85609,37.46363],[130.85558,37.46346],[130.85418,37.46363],[130.85287,37.46405],[130.8521,37.46464],[130.85154,37.46568],[130.85116,37.46608],[130.84847,37.46755],[130.848,37.46762],[130.84369,37.46752],[130.83964,37.4668],[130.83831,37.46696],[130.83727,37.46766],[130.83686,37.46875],[130.83631,37.46939],[130.83469,37.46991],[130.83434,37.47002],[130.83156,37.47088],[130.83056,37.47012],[130.82918,37.47034],[130.82721,37.47227],[130.82701,37.47286],[130.82727,37.47352],[130.82687,37.47451],[130.82459,37.47641],[130.82266,37.47709],[130.82044,37.47734],[130.8179,37.47698],[130.81147,37.47799],[130.80847,37.4796],[130.80727,37.48124],[130.80705,37.48235],[130.80708,37.4848],[130.80591,37.48628],[130.80371,37.4871],[130.80162,37.4877],[130.80018,37.48885],[130.80002,37.48907],[130.79942,37.49226],[130.7992,37.49463],[130.79955,37.49658],[130.80068,37.49877],[130.80215,37.50265],[130.80229,37.50372],[130.80138,37.50429],[130.80022,37.50467],[130.79941,37.50557],[130.79982,37.50691],[130.80121,37.50761],[130.80294,37.50816],[130.80282,37.50918],[130.80219,37.51014],[130.79975,37.51049],[130.79818,37.51135],[130.79609,37.51396],[130.7956,37.51458],[130.79589,37.51558],[130.79389,37.51805],[130.79079,37.51924],[130.78928,37.52301],[130.78938,37.5239],[130.79041,37.52466],[130.79158,37.52537],[130.79188,37.52664],[130.79143,37.52718],[130.79024,37.52782],[130.79004,37.52866],[130.79414,37.52916],[130.79466,37.52919],[130.79559,37.52896],[130.79596,37.52864],[130.7987,37.52863],[130.79959,37.52447],[130.80004,37.52428]]]]}},{"type":"Feature","properties":{"code":"47940320","name":"북면","parent":"47940"},"geometry":{"type":"MultiPolygon","coordinates":[[[[130.92164,37.54555],[130.92148,37.54549],[130.92133,37.5455],[130.92078,37.54569],[130.91947,37.54624],[130.91918,37.54637],[130.91874,37.54659],[130.91866,37.54669],[130.91862,37.54678],[130.91862,37.54692],[130.91872,37.54721],[130.91881,37.54736],[130.91906,37.54755],[130.91933,37.54769],[130.92277,37.54928],[130.92288,37.54931],[130.92299,37.54928],[130.9231,37.54918],[130.92366,37.54842],[130.92406,37.5484],[130.9241,37.54839],[130.92413,37.54838],[130.92415,37.54835],[130.92416,37.54831],[130.92415,37.54825],[130.92414,37.5482],[130.92411,37.54814],[130.92368,37.54699],[130.92348,37.54673],[130.92205,37.54579],[130.92184,37.54564],[130.92164,37.54555]]],[[[130.90715,37.53213],[130.90706,37.53214],[130.90686,37.53216],[130.90639,37.5322],[130.90616,37.53219],[130.90543,37.53205],[130.90491,37.53191],[130.90304,37.53134],[130.90286,37.53127],[130.90072,37.52973],[130.90065,37.52965],[130.90063,37.52955],[130.90065,37.52945],[130.90129,37.52802],[130.90227,37.52555],[130.90234,37.52536],[130.90244,37.5251],[130.90251,37.52487],[130.90257,37.52459],[130.90269,37.52389],[130.90269,37.52373],[130.90267,37.52362],[130.90258,37.52345],[130.90251,37.52336],[130.90242,37.5233],[130.90223,37.52322],[130.90205,37.52317],[130.90188,37.52314],[130.89712,37.52245],[130.89684,37.52243],[130.89493,37.52241],[130.88865,37.52245],[130.88858,37.52245],[130.88772,37.52251],[130.88755,37.52254],[130.88713,37.52263],[130.88672,37.52275],[130.88594,37.52297],[130.88559,37.52308],[130.88515,37.52326],[130.88487,37.52337],[130.88463,37.52345],[130.8843,37.52354],[130.88313,37.52375],[130.88301,37.52376],[130.88295,37.52376],[130.88287,37.52373],[130.88281,37.5237],[130.88279,37.52365],[130.88278,37.52355],[130.88258,37.52123],[130.88264,37.51965],[130.88275,37.51946],[130.88284,37.51922],[130.88308,37.51844],[130.8835,37.51693],[130.88349,37.51687],[130.88229,37.51436],[130.88223,37.51425],[130.88129,37.51284],[130.88118,37.5127],[130.88068,37.51224],[130.8804,37.51202],[130.87982,37.51156],[130.8797,37.51147],[130.87766,37.5101],[130.87757,37.51004],[130.87745,37.51],[130.87718,37.50996],[130.87713,37.50996],[130.8769,37.51001],[130.87645,37.51007],[130.87617,37.51009],[130.87557,37.51014],[130.87529,37.51015],[130.87478,37.51015],[130.87458,37.51015],[130.87435,37.51011],[130.87176,37.50929],[130.8716,37.50921],[130.87096,37.50881],[130.87071,37.50866],[130.87059,37.50858],[130.8705,37.50849],[130.86912,37.50689],[130.86895,37.50665],[130.86884,37.50646],[130.86877,37.50623],[130.86876,37.50603],[130.86875,37.50583],[130.86877,37.50557],[130.86874,37.50499],[130.86871,37.50481],[130.86866,37.50466],[130.86794,37.50298],[130.86789,37.50291],[130.86761,37.50264],[130.86732,37.50237],[130.86708,37.50221],[130.86643,37.50197],[130.86624,37.50198],[130.86596,37.50203],[130.86568,37.50215],[130.86475,37.50205],[130.86418,37.50204],[130.86319,37.50202],[130.86271,37.50211],[130.85988,37.50301],[130.85484,37.50382],[130.85458,37.50374],[130.85016,37.50384],[130.84963,37.50391],[130.84935,37.50413],[130.84826,37.50948],[130.84812,37.51034],[130.8481,37.51053],[130.84811,37.51061],[130.84814,37.51069],[130.84825,37.51087],[130.84857,37.51127],[130.84866,37.51139],[130.84872,37.51154],[130.84879,37.51183],[130.84881,37.51201],[130.84881,37.5122],[130.84875,37.51256],[130.84862,37.51323],[130.84858,37.51336],[130.84776,37.51535],[130.84742,37.51575],[130.84727,37.51589],[130.84715,37.51595],[130.84697,37.516],[130.84683,37.51602],[130.8467,37.51602],[130.84648,37.51599],[130.84627,37.51593],[130.84602,37.51588],[130.84581,37.51587],[130.84409,37.51575],[130.84402,37.51576],[130.84389,37.5158],[130.84289,37.51617],[130.84281,37.51623],[130.84267,37.51639],[130.84244,37.5167],[130.84215,37.51717],[130.84155,37.51812],[130.84134,37.51842],[130.8412,37.51853],[130.84105,37.5186],[130.8387,37.51937],[130.83576,37.51993],[130.83563,37.51995],[130.82875,37.52023],[130.82636,37.52014],[130.82615,37.52009],[130.82603,37.52007],[130.824,37.52005],[130.81693,37.52074],[130.8121,37.52201],[130.81176,37.52215],[130.81026,37.52271],[130.8101,37.52276],[130.80749,37.52308],[130.80739,37.52309],[130.80723,37.5231],[130.80545,37.52294],[130.8053,37.52292],[130.80516,37.52288],[130.80506,37.52279],[130.80496,37.52266],[130.8049,37.52263],[130.8048,37.52263],[130.802,37.52287],[130.8013,37.52295],[130.80111,37.52298],[130.80102,37.52302],[130.80093,37.52309],[130.80004,37.52428],[130.80035,37.52408],[130.80044,37.52404],[130.80081,37.52401],[130.80165,37.524],[130.80176,37.524],[130.80193,37.52401],[130.80226,37.52408],[130.8024,37.52413],[130.80254,37.52419],[130.80274,37.52427],[130.80291,37.52436],[130.80299,37.52442],[130.80309,37.52452],[130.80398,37.52597],[130.80406,37.52609],[130.8096,37.52672],[130.80971,37.52673],[130.81078,37.52686],[130.81132,37.52693],[130.81157,37.52697],[130.81172,37.52701],[130.81189,37.52708],[130.81234,37.52726],[130.81264,37.52743],[130.81298,37.52766],[130.8134,37.52797],[130.8136,37.52812],[130.81376,37.52823],[130.81379,37.52827],[130.81424,37.52882],[130.81783,37.53133],[130.82279,37.53467],[130.8229,37.53474],[130.82301,37.5348],[130.82312,37.53484],[130.82327,37.53489],[130.82332,37.53489],[130.82344,37.53489],[130.82369,37.53489],[130.82405,37.53488],[130.82434,37.53487],[130.82457,37.53485],[130.82622,37.53475],[130.82691,37.5347],[130.82698,37.53469],[130.82705,37.53467],[130.82711,37.53466],[130.82719,37.53462],[130.82724,37.53459],[130.82729,37.53453],[130.82732,37.53448],[130.82733,37.53444],[130.82734,37.53438],[130.82735,37.53431],[130.82734,37.53425],[130.82732,37.53419],[130.82729,37.53415],[130.82726,37.53412],[130.82722,37.53409],[130.82717,37.53408],[130.82713,37.53406],[130.82706,37.53406],[130.82699,37.53405],[130.82687,37.53406],[130.82675,37.53407],[130.82671,37.53409],[130.82666,37.53411],[130.82662,37.53414],[130.82659,37.53417],[130.82389,37.53431],[130.82363,37.53428],[130.82334,37.53415],[130.82317,37.53404],[130.82303,37.53389],[130.82215,37.53243],[130.82333,37.53182],[130.82718,37.53137],[130.82731,37.53141],[130.82903,37.5319],[130.82914,37.53193],[130.82921,37.53195],[130.82927,37.53199],[130.82933,37.53204],[130.82983,37.53251],[130.82992,37.53339],[130.83339,37.53515],[130.83383,37.53534],[130.83759,37.53657],[130.84004,37.53836],[130.84015,37.53843],[130.84054,37.53863],[130.84081,37.53874],[130.84107,37.53885],[130.84131,37.53895],[130.84159,37.53904],[130.84473,37.53998],[130.84495,37.54003],[130.84506,37.54004],[130.84562,37.54007],[130.84575,37.54007],[130.84585,37.54007],[130.84652,37.54006],[130.84668,37.54005],[130.8468,37.54004],[130.84695,37.54003],[130.84734,37.53998],[130.8475,37.53995],[130.84762,37.53992],[130.84781,37.53986],[130.84796,37.5398],[130.84809,37.53974],[130.84884,37.53931],[130.84923,37.53905],[130.84986,37.53883],[130.85007,37.53878],[130.85011,37.53877],[130.85022,37.53877],[130.8556,37.53896],[130.8589,37.53912],[130.85903,37.53915],[130.85989,37.53933],[130.86688,37.54084],[130.867,37.54089],[130.86714,37.54098],[130.86861,37.54258],[130.86867,37.54269],[130.86928,37.54323],[130.87397,37.54668],[130.87438,37.54688],[130.87554,37.54717],[130.87565,37.54719],[130.87573,37.5472],[130.87952,37.54732],[130.88478,37.54637],[130.88778,37.54554],[130.88782,37.54549],[130.88811,37.54526],[130.88912,37.54457],[130.88945,37.54441],[130.88966,37.54436],[130.88972,37.54436],[130.89034,37.54435],[130.89087,37.54441],[130.89128,37.54446],[130.89262,37.54484],[130.89288,37.54499],[130.89442,37.54604],[130.89524,37.54802],[130.89703,37.55057],[130.89718,37.55065],[130.90245,37.55242],[130.90516,37.5527],[130.90551,37.55269],[130.9058,37.5526],[130.90721,37.55202],[130.90736,37.55195],[130.90742,37.55192],[130.90751,37.55185],[130.90776,37.55161],[130.90788,37.55148],[130.90798,37.55137],[130.90803,37.55129],[130.90867,37.55032],[130.90871,37.55026],[130.90873,37.55021],[130.90897,37.54961],[130.90898,37.54957],[130.90899,37.54953],[130.90899,37.54945],[130.90897,37.54935],[130.90895,37.54927],[130.90858,37.54808],[130.90843,37.54799],[130.90841,37.54788],[130.9084,37.54779],[130.90841,37.54775],[130.90846,37.54762],[130.90959,37.54595],[130.90971,37.54579],[130.90999,37.54551],[130.91025,37.54526],[130.91031,37.5452],[130.91041,37.54513],[130.91051,37.54509],[130.91067,37.54504],[130.91129,37.54487],[130.91134,37.54487],[130.91138,37.54488],[130.91651,37.54515],[130.91681,37.54522],[130.91688,37.54525],[130.91696,37.54529],[130.9174,37.5455],[130.91762,37.54558],[130.91783,37.54565],[130.91793,37.54567],[130.91807,37.54568],[130.9182,37.54566],[130.91834,37.54562],[130.91855,37.5455],[130.91878,37.54533],[130.91901,37.54514],[130.91914,37.54499],[130.91937,37.54461],[130.91944,37.54444],[130.91946,37.54436],[130.91947,37.54427],[130.91948,37.54411],[130.91941,37.5438],[130.91938,37.54375],[130.91932,37.54369],[130.91924,37.54366],[130.91915,37.54363],[130.91855,37.54349],[130.91829,37.54343],[130.9179,37.54335],[130.91759,37.54333],[130.91732,37.54332],[130.91719,37.54334],[130.91698,37.54339],[130.91682,37.54345],[130.91549,37.54295],[130.91192,37.54148],[130.91186,37.54145],[130.91176,37.54136],[130.91161,37.54118],[130.91155,37.54111],[130.91098,37.54039],[130.91096,37.54033],[130.91095,37.54026],[130.91097,37.5402],[130.91101,37.54018],[130.91114,37.54015],[130.91156,37.54012],[130.91182,37.54005],[130.912,37.53995],[130.91213,37.53984],[130.91215,37.53972],[130.91214,37.53961],[130.912,37.53932],[130.90754,37.53248],[130.90737,37.53232],[130.90715,37.53213]]]]}}]}