{"type":"FeatureCollection","features":[{"type":"Feature","properties":{"code":"41281510","name":"주교동","parent":"41281"},"geometry":{"type":"MultiPolygon","coordinates":[[[[126.84574,37.66707],[126.84449,37.66559],[126.84394,37.6651],[126.84363,37.66483],[126.84325,37.66452],[126.8424,37.66406],[126.84193,37.66381],[126.84157,37.66365],[126.84068,37.66317],[126.83737,37.66072],[126.83254,37.65653],[126.83249,37.65572],[126.83255,37.65548],[126.83256,37.65421],[126.83256,37.65345],[126.83255,37.65336],[126.83244,37.65282],[126.83226,37.65208],[126.83203,37.6511],[126.83199,37.65094],[126.83185,37.6506],[126.83152,37.64981],[126.83059,37.64862],[126.83036,37.64867],[126.82932,37.6489],[126.82749,37.64914],[126.82738,37.64894],[126.82666,37.64718],[126.8266,37.64704],[126.82631,37.64628],[126.82649,37.64623],[126.82615,37.64529],[126.82564,37.64448],[126.82517,37.64439],[126.82502,37.64442],[126.82479,37.64446],[126.82353,37.64474],[126.82346,37.64477],[126.82201,37.64559],[126.82191,37.64566],[126.82172,37.64578],[126.82175,37.64595],[126.8217,37.64616],[126.82047,37.64629],[126.82016,37.64632],[126.81949,37.64632],[126.81608,37.64635],[126.81785,37.64851],[126.81816,37.64917],[126.8178,37.6498],[126.81778,37.64983],[126.81772,37.64989],[126.8172,37.65043],[126.81704,37.65062],[126.8168,37.65091],[126.8166,37.65126],[126.81609,37.65288],[126.81592,37.65488],[126.81601,37.65532],[126.81605,37.65549],[126.81588,37.65561],[126.81434,37.65615],[126.81378,37.6564],[126.81359,37.6565],[126.81229,37.65744],[126.81171,37.65785],[126.81114,37.6583],[126.81095,37.65856],[126.81082,37.65873],[126.81086,37.65906],[126.81109,37.65951],[126.81271,37.65976],[126.81345,37.65994],[126.81432,37.66036],[126.81439,37.66087],[126.81444,37.66117],[126.81464,37.66201],[126.81489,37.66262],[126.81521,37.66287],[126.81543,37.66301],[126.81561,37.66312],[126.8159,37.66325],[126.81824,37.66408],[126.81832,37.6641],[126.81885,37.66426],[126.81888,37.66427],[126.81892,37.66427],[126.81896,37.66428],[126.8194,37.66422],[126.82075,37.66758],[126.82083,37.67098],[126.82088,37.67123],[126.8209,37.67129],[126.82093,37.67136],[126.82101,37.67148],[126.82128,37.67179],[126.82163,37.67205],[126.82244,37.67254],[126.82272,37.6727],[126.82686,37.67476],[126.83238,37.67784],[126.83238,37.67789],[126.83232,37.6784],[126.83218,37.67938],[126.83497,37.67698],[126.83503,37.67487],[126.83507,37.67474],[126.83518,37.6746],[126.8366,37.67305],[126.83702,37.67271],[126.83879,37.67174],[126.83976,37.67126],[126.84016,37.67125],[126.84041,37.67128],[126.84048,37.67129],[126.84083,37.67145],[126.84109,37.67161],[126.84159,37.67191],[126.8421,37.67202],[126.84255,37.6718],[126.84416,37.66969],[126.84491,37.66864],[126.84522,37.66811],[126.84529,37.66798],[126.84574,37.66707]]]]}},{"type":"Feature","properties":{"code":"41281520","name":"원신동","parent":"41281"},"geometry":{"type":"MultiPolygon","coordinates":[[[[126.85255,37.6888],[126.85263,37.68861],[126.85298,37.68812],[126.85324,37.68792],[126.85641,37.68592],[126.85645,37.6859],[126.85653,37.68585],[126.85671,37.68579],[126.85717,37.68566],[126.86188,37.68447],[126.86277,37.68447],[126.86444,37.68447],[126.86595,37.68464],[126.86654,37.68471],[126.86657,37.68472],[126.86662,37.68474],[126.86741,37.68527],[126.86751,37.68539],[126.86788,37.68582],[126.87074,37.6869],[126.87087,37.68695],[126.87165,37.68707],[126.87296,37.68695],[126.87846,37.68571],[126.8817,37.68464],[126.88447,37.68421],[126.88525,37.68321],[126.88527,37.68318],[126.88545,37.68279],[126.8856,37.68225],[126.88508,37.6812],[126.88422,37.6797],[126.88413,37.67953],[126.88281,37.67688],[126.88277,37.67676],[126.88243,37.67597],[126.88207,37.675],[126.88211,37.67459],[126.88214,37.67422],[126.88217,37.67403],[126.88223,37.67359],[126.88239,37.67316],[126.8824,37.67312],[126.88246,37.67297],[126.88319,37.67187],[126.88333,37.67174],[126.88345,37.67162],[126.88402,37.67113],[126.88424,37.67096],[126.88558,37.67018],[126.88631,37.66989],[126.88667,37.66982],[126.88699,37.66976],[126.88744,37.66978],[126.88759,37.66979],[126.88882,37.66991],[126.89198,37.67055],[126.89207,37.66873],[126.89361,37.66488],[126.89385,37.66266],[126.89386,37.66074],[126.89381,37.659],[126.88924,37.65661],[126.88897,37.65663],[126.88878,37.65663],[126.88634,37.65673],[126.88628,37.65683],[126.88591,37.65747],[126.88582,37.65787],[126.88542,37.6581],[126.88475,37.65817],[126.88365,37.65796],[126.88056,37.65984],[126.87841,37.65965],[126.87555,37.6572],[126.87348,37.65705],[126.87254,37.65704],[126.87064,37.65707],[126.87058,37.65707],[126.8705,37.65707],[126.86967,37.65711],[126.86947,37.65712],[126.86926,37.65719],[126.86866,37.65739],[126.86856,37.65744],[126.86848,37.65749],[126.86842,37.65761],[126.86841,37.65764],[126.86839,37.65767],[126.86805,37.65768],[126.86702,37.65759],[126.86609,37.65731],[126.86492,37.65678],[126.86481,37.65659],[126.8647,37.65637],[126.86477,37.65565],[126.86401,37.65477],[126.86343,37.65427],[126.86222,37.65349],[126.86044,37.65235],[126.86039,37.65233],[126.86032,37.65231],[126.8602,37.65229],[126.86006,37.65229],[126.85839,37.65249],[126.85764,37.65269],[126.8575,37.65273],[126.85604,37.65315],[126.85378,37.65316],[126.85259,37.65301],[126.85253,37.65454],[126.85251,37.65513],[126.85306,37.6568],[126.85268,37.65738],[126.85263,37.65742],[126.8526,37.65744],[126.85256,37.65751],[126.85255,37.65759],[126.85254,37.65765],[126.85244,37.65826],[126.85236,37.65907],[126.85236,37.65914],[126.85237,37.65924],[126.85239,37.65932],[126.85294,37.66156],[126.85336,37.66263],[126.85415,37.66362],[126.8542,37.66376],[126.85422,37.66381],[126.85429,37.66399],[126.85414,37.66468],[126.85386,37.66529],[126.85384,37.66534],[126.84912,37.66964],[126.84794,37.66881],[126.84574,37.66707],[126.84529,37.66798],[126.84522,37.66811],[126.84491,37.66864],[126.84416,37.66969],[126.84255,37.6718],[126.8421,37.67202],[126.84159,37.67191],[126.84109,37.67161],[126.84083,37.67145],[126.84048,37.67129],[126.84041,37.67128],[126.84016,37.67125],[126.83976,37.67126],[126.83879,37.67174],[126.83702,37.67271],[126.8366,37.67305],[126.83518,37.6746],[126.83507,37.67474],[126.83503,37.67487],[126.83497,37.67698],[126.83218,37.67938],[126.83352,37.68309],[126.83421,37.68304],[126.83506,37.68303],[126.83527,37.68303],[126.83542,37.68303],[126.83993,37.68431],[126.84146,37.68539],[126.84341,37.68576],[126.84808,37.68633],[126.84889,37.68994],[126.84893,37.69012],[126.84896,37.69023],[126.84899,37.69022],[126.84914,37.69019],[126.85005,37.68988],[126.85255,37.6888]]]]}},{"type":"Feature","properties":{"code":"41281530","name":"흥도동","parent":"41281"},"geometry":{"type":"MultiPolygon","coordinates":[[[[126.86222,37.65349],[126.86354,37.65211],[126.86376,37.65054],[126.86406,37.6492],[126.86485,37.64862],[126.86748,37.6486],[126.86966,37.64828],[126.87213,37.648],[126.87374,37.64768],[126.87535,37.64694],[126.87574,37.64667],[126.87552,37.64644],[126.87536,37.64626],[126.87517,37.64606],[126.87494,37.64575],[126.87478,37.64552],[126.87431,37.64455],[126.87429,37.64451],[126.87424,37.64386],[126.87424,37.64293],[126.87435,37.64265],[126.87462,37.64235],[126.87494,37.64233],[126.87547,37.64234],[126.8757,37.64234],[126.87766,37.64252],[126.87626,37.64015],[126.87528,37.63563],[126.87476,37.63315],[126.87521,37.63188],[126.87586,37.631],[126.87528,37.62617],[126.87476,37.62474],[126.87298,37.61948],[126.87257,37.61804],[126.87092,37.61713],[126.86855,37.61581],[126.86462,37.6136],[126.86363,37.61295],[126.86199,37.61182],[126.85867,37.60932],[126.85826,37.60886],[126.85462,37.61068],[126.85416,37.61112],[126.85348,37.61221],[126.85347,37.61233],[126.85348,37.61244],[126.85355,37.61256],[126.8539,37.61299],[126.85394,37.61306],[126.85421,37.61353],[126.85437,37.61389],[126.85451,37.6142],[126.85484,37.6192],[126.85453,37.62212],[126.85421,37.62227],[126.85383,37.62238],[126.85314,37.62258],[126.85245,37.62271],[126.85224,37.62256],[126.85212,37.62227],[126.85185,37.622],[126.85129,37.6217],[126.85054,37.62154],[126.84836,37.6214],[126.84835,37.62144],[126.84821,37.62219],[126.84817,37.62244],[126.8481,37.6229],[126.84794,37.62426],[126.84793,37.62456],[126.84794,37.62467],[126.84795,37.62482],[126.84804,37.62521],[126.84806,37.62524],[126.84811,37.62533],[126.84823,37.62553],[126.84834,37.62561],[126.84858,37.62803],[126.84855,37.62865],[126.84841,37.62951],[126.84853,37.62985],[126.84864,37.63015],[126.84872,37.63075],[126.84871,37.63141],[126.84865,37.63188],[126.84822,37.63432],[126.8477,37.63725],[126.84556,37.63942],[126.84457,37.6394],[126.84235,37.64014],[126.84154,37.64048],[126.8407,37.64172],[126.84231,37.64492],[126.84245,37.64512],[126.84282,37.64534],[126.84311,37.6455],[126.84324,37.64549],[126.84481,37.64548],[126.84722,37.64651],[126.84841,37.64715],[126.84872,37.64764],[126.84901,37.64825],[126.84903,37.64828],[126.84927,37.64922],[126.84983,37.65028],[126.85198,37.6513],[126.85259,37.65301],[126.85378,37.65316],[126.85604,37.65315],[126.8575,37.65273],[126.85764,37.65269],[126.85839,37.65249],[126.86006,37.65229],[126.8602,37.65229],[126.86032,37.65231],[126.86039,37.65233],[126.86044,37.65235],[126.86222,37.65349]]]]}},{"type":"Feature","properties":{"code":"41281540","name":"성사1동","parent":"41281"},"geometry":{"type":"MultiPolygon","coordinates":[[[[126.85259,37.65301],[126.85198,37.6513],[126.84983,37.65028],[126.84927,37.64922],[126.84761,37.65064],[126.84659,37.65163],[126.8458,37.65213],[126.84471,37.6526],[126.84386,37.65281],[126.8436,37.65288],[126.83773,37.65432],[126.83542,37.65482],[126.83446,37.65509],[126.83249,37.65572],[126.83254,37.65653],[126.83737,37.66072],[126.84068,37.66317],[126.84157,37.66365],[126.84193,37.66381],[126.8424,37.66406],[126.84325,37.66452],[126.84363,37.66483],[126.84394,37.6651],[126.84449,37.66559],[126.84574,37.66707],[126.84794,37.66881],[126.84912,37.66964],[126.85384,37.66534],[126.85386,37.66529],[126.85414,37.66468],[126.85429,37.66399],[126.85422,37.66381],[126.8542,37.66376],[126.85415,37.66362],[126.85336,37.66263],[126.85294,37.66156],[126.85239,37.65932],[126.85237,37.65924],[126.85236,37.65914],[126.85236,37.65907],[126.85244,37.65826],[126.85254,37.65765],[126.85255,37.65759],[126.85256,37.65751],[126.8526,37.65744],[126.85263,37.65742],[126.85268,37.65738],[126.85306,37.6568],[126.85251,37.65513],[126.85253,37.65454],[126.85259,37.65301]]]]}},{"type":"Feature","properties":{"code":"41281550","name":"성사2동","parent":"41281"},"geometry":{"type":"MultiPolygon","coordinates":[[[[126.84927,37.64922],[126.84903,37.64828],[126.84901,37.64825],[126.84872,37.64764],[126.84841,37.64715],[126.84722,37.64651],[126.84481,37.64548],[126.84324,37.64549],[126.84311,37.6455],[126.84218,37.64879],[126.84193,37.64928],[126.84167,37.64942],[126.8403,37.65009],[126.83882,37.65049],[126.83861,37.65041],[126.83856,37.65033],[126.83802,37.64962],[126.83666,37.64891],[126.8363,37.64873],[126.83628,37.64872],[126.83492,37.64838],[126.83456,37.64829],[126.8334,37.64835],[126.83293,37.64838],[126.83059,37.64862],[126.83152,37.64981],[126.83185,37.6506],[126.83199,37.65094],[126.83203,37.6511],[126.83226,37.65208],[126.83244,37.65282],[126.83255,37.65336],[126.83256,37.65345],[126.83256,37.65421],[126.83255,37.65548],[126.83249,37.65572],[126.83446,37.65509],[126.83542,37.65482],[126.83773,37.65432],[126.8436,37.65288],[126.84386,37.65281],[126.84471,37.6526],[126.8458,37.65213],[126.84659,37.65163],[126.84761,37.65064],[126.84927,37.64922]]]]}},{"type":"Feature","properties":{"code":"41281560","name":"효자동","parent":"41281"},"geometry":{"type":"MultiPolygon","coordinates":[[[[126.99174,37.67947],[126.99257,37.67878],[126.99276,37.67841],[126.99296,37.67761],[126.99299,37.67742],[126.99355,37.67324],[126.99426,37.66648],[126.99416,37.66628],[126.99284,37.66502],[126.99243,37.66483],[126.98984,37.6639],[126.98937,37.6638],[126.98802,37.66334],[126.98664,37.66141],[126.98641,37.66098],[126.98618,37.66066],[126.985,37.6593],[126.98485,37.6592],[126.98464,37.65906],[126.98307,37.65811],[126.98169,37.65753],[126.98142,37.65749],[126.98129,37.65742],[126.97995,37.65658],[126.97978,37.65642],[126.97965,37.65622],[126.97957,37.65608],[126.97955,37.65603],[126.97945,37.65583],[126.97945,37.65574],[126.97964,37.65488],[126.9797,37.65479],[126.98099,37.6529],[126.9821,37.65143],[126.98224,37.6513],[126.98351,37.65003],[126.98363,37.64991],[126.9837,37.64978],[126.98462,37.64755],[126.98464,37.64746],[126.98496,37.64599],[126.98496,37.6459],[126.98494,37.64582],[126.98478,37.64551],[126.9842,37.64447],[126.98376,37.64412],[126.98362,37.64404],[126.98345,37.64394],[126.98332,37.6438],[126.98324,37.6437],[126.98325,37.64365],[126.98327,37.6436],[126.98388,37.64217],[126.98392,37.64213],[126.98398,37.64206],[126.98404,37.64199],[126.98411,37.64191],[126.98426,37.64177],[126.98589,37.64057],[126.98637,37.64065],[126.98463,37.63656],[126.98366,37.63646],[126.98359,37.63645],[126.97854,37.63385],[126.97672,37.63263],[126.97507,37.63139],[126.97179,37.63229],[126.97087,37.63299],[126.96876,37.63698],[126.96879,37.63705],[126.96886,37.63842],[126.96882,37.63868],[126.96829,37.63932],[126.96501,37.64276],[126.96476,37.64295],[126.96442,37.64307],[126.96173,37.64516],[126.95975,37.64846],[126.95677,37.65265],[126.95634,37.65307],[126.95462,37.65475],[126.95355,37.65502],[126.95258,37.65472],[126.95236,37.65473],[126.95233,37.65473],[126.95207,37.65476],[126.95125,37.65495],[126.95119,37.65499],[126.95116,37.65501],[126.94879,37.65696],[126.94759,37.65835],[126.94745,37.65868],[126.94743,37.65871],[126.94742,37.65874],[126.94731,37.65893],[126.94708,37.65899],[126.94653,37.65891],[126.94632,37.65887],[126.94362,37.65815],[126.94282,37.65788],[126.94255,37.65779],[126.94119,37.65715],[126.94103,37.65706],[126.94039,37.65663],[126.93938,37.6555],[126.93926,37.65534],[126.93897,37.65495],[126.93859,37.65442],[126.9385,37.65416],[126.93704,37.65193],[126.93519,37.65089],[126.93473,37.65064],[126.93449,37.65056],[126.93127,37.65062],[126.9312,37.65063],[126.93039,37.65056],[126.92974,37.6504],[126.92889,37.64996],[126.9287,37.64983],[126.92861,37.64977],[126.92851,37.6497],[126.92794,37.64929],[126.92691,37.64853],[126.92599,37.64786],[126.92567,37.64762],[126.9255,37.6475],[126.92542,37.64744],[126.92522,37.64734],[126.92514,37.64729],[126.92454,37.64696],[126.92336,37.64634],[126.92243,37.64594],[126.92217,37.64585],[126.92209,37.64582],[126.92153,37.64564],[126.92127,37.64556],[126.91419,37.64468],[126.91389,37.64471],[126.91287,37.64506],[126.91237,37.64525],[126.91118,37.6458],[126.90777,37.64763],[126.90527,37.64891],[126.90022,37.6506],[126.9017,37.6518],[126.90335,37.65347],[126.9092,37.6569],[126.91195,37.65774],[126.91231,37.65784],[126.91273,37.65842],[126.91297,37.65875],[126.91388,37.6597],[126.91477,37.66057],[126.9164,37.66163],[126.91969,37.66235],[126.92394,37.66365],[126.92301,37.66563],[126.92337,37.66598],[126.92367,37.66626],[126.92437,37.66695],[126.92476,37.66696],[126.925,37.66698],[126.92548,37.667],[126.92614,37.66691],[126.92678,37.66696],[126.92836,37.66739],[126.92933,37.66804],[126.92803,37.6707],[126.92934,37.67173],[126.93006,37.67229],[126.93195,37.67236],[126.93495,37.67193],[126.93816,37.67143],[126.93982,37.67076],[126.94163,37.67195],[126.94293,37.67309],[126.94458,37.67645],[126.94471,37.67693],[126.94387,37.67822],[126.94308,37.67943],[126.94323,37.67999],[126.94464,37.68485],[126.94474,37.68504],[126.94479,37.68513],[126.94563,37.68579],[126.94757,37.68673],[126.9479,37.6869],[126.94885,37.68716],[126.94962,37.68728],[126.95101,37.68772],[126.95206,37.68874],[126.95255,37.68921],[126.95275,37.69007],[126.95444,37.69265],[126.95585,37.69256],[126.95643,37.69242],[126.95899,37.69158],[126.95996,37.69149],[126.96234,37.69184],[126.96455,37.69227],[126.96524,37.69247],[126.9656,37.6924],[126.96577,37.69236],[126.96849,37.69004],[126.97299,37.68668],[126.97464,37.68632],[126.97535,37.68617],[126.97621,37.68633],[126.97638,37.68636],[126.97766,37.68631],[126.97929,37.68622],[126.98086,37.68594],[126.98207,37.68542],[126.98758,37.68262],[126.98928,37.68155],[126.98988,37.68057],[126.99116,37.67941],[126.99174,37.67947]]]]}},{"type":"Feature","properties":{"code":"41281580","name":"창릉동","parent":"41281"},"geometry":{"type":"MultiPolygon","coordinates":[[[[126.90022,37.6506],[126.90527,37.64891],[126.90758,37.64649],[126.91223,37.64438],[126.91247,37.6418],[126.91247,37.64169],[126.9123,37.64143],[126.9121,37.64126],[126.91171,37.64102],[126.91082,37.64016],[126.91023,37.63867],[126.90982,37.63511],[126.90917,37.63478],[126.90748,37.63341],[126.90732,37.63327],[126.90726,37.63321],[126.90723,37.63319],[126.90653,37.63252],[126.90655,37.63205],[126.90663,37.63178],[126.90665,37.63173],[126.90717,37.63058],[126.90742,37.63022],[126.90881,37.62905],[126.90794,37.62539],[126.90709,37.62475],[126.9066,37.6242],[126.90644,37.62403],[126.9052,37.62002],[126.90524,37.6195],[126.90339,37.6188],[126.90189,37.61559],[126.90103,37.61246],[126.89602,37.61256],[126.89392,37.61249],[126.89333,37.61234],[126.89289,37.6122],[126.89265,37.61209],[126.89233,37.6115],[126.89201,37.61128],[126.89057,37.61047],[126.88822,37.61096],[126.8868,37.61126],[126.88643,37.61275],[126.88637,37.61361],[126.88624,37.61422],[126.88613,37.61457],[126.88592,37.61491],[126.88586,37.61494],[126.8855,37.61512],[126.88212,37.61607],[126.88129,37.61628],[126.87851,37.61614],[126.87662,37.61604],[126.8761,37.61601],[126.87592,37.61601],[126.87553,37.61601],[126.87551,37.61604],[126.87546,37.61614],[126.87516,37.61665],[126.87448,37.61689],[126.87346,37.61646],[126.87257,37.61804],[126.87298,37.61948],[126.87476,37.62474],[126.87528,37.62617],[126.87586,37.631],[126.87521,37.63188],[126.87476,37.63315],[126.87528,37.63563],[126.87626,37.64015],[126.87766,37.64252],[126.87923,37.64353],[126.88304,37.64596],[126.88366,37.64648],[126.88413,37.64686],[126.88432,37.64701],[126.88437,37.64706],[126.88459,37.64724],[126.88482,37.64733],[126.88506,37.64741],[126.88542,37.64754],[126.88866,37.6487],[126.88977,37.6491],[126.89505,37.651],[126.89545,37.65114],[126.8962,37.65141],[126.89647,37.65142],[126.89678,37.65142],[126.89793,37.65145],[126.89807,37.65146],[126.90022,37.6506]]]]}},{"type":"Feature","properties":{"code":"41281590","name":"고양동","parent":"41281"},"geometry":{"type":"MultiPolygon","coordinates":[[[[126.92971,37.74853],[126.92974,37.74812],[126.93034,37.74762],[126.93299,37.74538],[126.93282,37.74512],[126.93229,37.7445],[126.93125,37.7437],[126.93042,37.74324],[126.93021,37.74317],[126.93011,37.74296],[126.93006,37.74284],[126.93006,37.74201],[126.93008,37.74141],[126.93031,37.74011],[126.93064,37.73901],[126.93101,37.73781],[126.93102,37.73751],[126.93038,37.73614],[126.93006,37.7359],[126.92941,37.73596],[126.92857,37.73603],[126.92643,37.73513],[126.92337,37.73263],[126.92261,37.73194],[126.92235,37.73132],[126.92189,37.73018],[126.92189,37.72997],[126.92189,37.72992],[126.9219,37.72986],[126.92196,37.72945],[126.92204,37.7292],[126.92224,37.7291],[126.92231,37.72908],[126.92329,37.72879],[126.92339,37.72861],[126.92341,37.72857],[126.92354,37.72795],[126.9236,37.72765],[126.92347,37.72649],[126.92332,37.72583],[126.92321,37.72558],[126.92307,37.72501],[126.92426,37.72131],[126.92435,37.72123],[126.92486,37.72077],[126.92508,37.72048],[126.92504,37.71991],[126.92308,37.71624],[126.92282,37.71591],[126.92178,37.71492],[126.92047,37.71368],[126.92093,37.71335],[126.9221,37.71281],[126.9223,37.71278],[126.92267,37.71274],[126.92293,37.71265],[126.9242,37.71197],[126.92454,37.71173],[126.92472,37.71068],[126.92475,37.70961],[126.92467,37.70787],[126.92446,37.70745],[126.92339,37.70598],[126.92241,37.70307],[126.92247,37.70299],[126.92275,37.70259],[126.92174,37.69903],[126.91874,37.69418],[126.91615,37.69119],[126.91579,37.6911],[126.91415,37.68791],[126.9141,37.68766],[126.91401,37.68724],[126.91401,37.6868],[126.91398,37.68446],[126.91399,37.68392],[126.91399,37.68369],[126.91402,37.6822],[126.91453,37.68052],[126.91476,37.67994],[126.91478,37.67961],[126.9145,37.679],[126.91241,37.67562],[126.91138,37.67439],[126.9103,37.6738],[126.90949,37.67372],[126.90827,37.67397],[126.90729,37.67428],[126.90688,37.67542],[126.90676,37.6756],[126.9061,37.67652],[126.90516,37.67767],[126.90506,37.67779],[126.90444,37.67813],[126.90383,37.67832],[126.90327,37.67843],[126.90305,37.67845],[126.90239,37.67849],[126.90211,37.67849],[126.90207,37.67849],[126.90155,37.67832],[126.90124,37.67806],[126.90101,37.67787],[126.90044,37.67705],[126.89998,37.6762],[126.89992,37.67609],[126.89964,37.67552],[126.89923,37.67472],[126.89882,37.67405],[126.89836,37.67343],[126.89791,37.67292],[126.89669,37.67158],[126.89628,37.67131],[126.89578,37.67108],[126.89544,37.67095],[126.89504,37.67081],[126.89501,37.6708],[126.8946,37.6707],[126.89198,37.67055],[126.88882,37.66991],[126.88759,37.66979],[126.88744,37.66978],[126.88699,37.66976],[126.88667,37.66982],[126.88631,37.66989],[126.88558,37.67018],[126.88424,37.67096],[126.88402,37.67113],[126.88345,37.67162],[126.88333,37.67174],[126.88319,37.67187],[126.88246,37.67297],[126.8824,37.67312],[126.88239,37.67316],[126.88223,37.67359],[126.88217,37.67403],[126.88214,37.67422],[126.88211,37.67459],[126.88207,37.675],[126.88243,37.67597],[126.88277,37.67676],[126.88281,37.67688],[126.88413,37.67953],[126.88422,37.6797],[126.88508,37.6812],[126.8856,37.68225],[126.88545,37.68279],[126.88527,37.68318],[126.88525,37.68321],[126.88447,37.68421],[126.8847,37.68461],[126.88462,37.68624],[126.88448,37.68682],[126.88447,37.68721],[126.88451,37.68751],[126.88465,37.68864],[126.88483,37.68881],[126.88626,37.68922],[126.88658,37.68928],[126.88666,37.68929],[126.8871,37.68935],[126.88757,37.68941],[126.88767,37.6896],[126.88771,37.68978],[126.8878,37.69028],[126.88784,37.69051],[126.88788,37.6907],[126.88796,37.69113],[126.88821,37.69166],[126.88854,37.69235],[126.88881,37.69287],[126.889,37.69339],[126.88895,37.69446],[126.88997,37.69667],[126.89021,37.69669],[126.89031,37.6967],[126.89066,37.69679],[126.89098,37.69831],[126.8914,37.70028],[126.88978,37.70335],[126.88969,37.70348],[126.88932,37.70353],[126.88901,37.70354],[126.88755,37.70336],[126.88644,37.70329],[126.88546,37.70323],[126.88385,37.70338],[126.8834,37.70343],[126.88298,37.70348],[126.8802,37.70437],[126.879,37.70504],[126.87872,37.70506],[126.87861,37.70507],[126.87713,37.70489],[126.87704,37.7048],[126.87686,37.70403],[126.87651,37.7037],[126.87631,37.7037],[126.87568,37.70371],[126.87547,37.70371],[126.87453,37.70382],[126.87439,37.70387],[126.8742,37.70393],[126.874,37.70399],[126.87258,37.70556],[126.87258,37.70632],[126.87258,37.70661],[126.87262,37.70768],[126.87263,37.70776],[126.87273,37.7081],[126.87575,37.71323],[126.87837,37.71547],[126.88193,37.71806],[126.8827,37.71931],[126.88353,37.7194],[126.8836,37.71939],[126.88425,37.71884],[126.88437,37.71866],[126.88466,37.7182],[126.88614,37.71845],[126.88692,37.71888],[126.88795,37.72045],[126.88819,37.72082],[126.88873,37.7228],[126.88923,37.72345],[126.89172,37.7253],[126.89469,37.72677],[126.89701,37.72696],[126.89732,37.72685],[126.8978,37.72668],[126.89927,37.72676],[126.89969,37.72689],[126.90147,37.72776],[126.90156,37.72782],[126.9017,37.72793],[126.90216,37.72843],[126.90217,37.73153],[126.90189,37.73429],[126.90161,37.73464],[126.90126,37.73516],[126.90118,37.73527],[126.90081,37.73686],[126.90088,37.73713],[126.90358,37.7416],[126.90387,37.74177],[126.90471,37.74203],[126.90569,37.74256],[126.90838,37.74434],[126.90871,37.74462],[126.90882,37.74475],[126.9089,37.74485],[126.90876,37.7449],[126.90845,37.74499],[126.90831,37.74508],[126.90822,37.74524],[126.90818,37.74542],[126.90818,37.74554],[126.90819,37.74567],[126.90862,37.74674],[126.90867,37.74686],[126.90874,37.74692],[126.90879,37.74696],[126.90956,37.74722],[126.91529,37.74811],[126.91533,37.74811],[126.91558,37.74812],[126.91699,37.7479],[126.9183,37.74766],[126.91885,37.74747],[126.91962,37.7472],[126.92183,37.74703],[126.92416,37.74767],[126.92555,37.74807],[126.92575,37.74818],[126.92593,37.7483],[126.92606,37.74841],[126.92617,37.74852],[126.92622,37.74868],[126.92636,37.74879],[126.92781,37.74928],[126.92839,37.74929],[126.92893,37.74918],[126.92919,37.74905],[126.92926,37.74902],[126.92971,37.74853]]]]}},{"type":"Feature","properties":{"code":"41281600","name":"관산동","parent":"41281"},"geometry":{"type":"MultiPolygon","coordinates":[[[[126.8827,37.71931],[126.88193,37.71806],[126.87837,37.71547],[126.87575,37.71323],[126.87273,37.7081],[126.87263,37.70776],[126.87262,37.70768],[126.87258,37.70661],[126.87258,37.70632],[126.87258,37.70556],[126.874,37.70399],[126.8742,37.70393],[126.87439,37.70387],[126.87453,37.70382],[126.87547,37.70371],[126.87568,37.70371],[126.87631,37.7037],[126.87651,37.7037],[126.87686,37.70403],[126.87704,37.7048],[126.87713,37.70489],[126.87861,37.70507],[126.87872,37.70506],[126.879,37.70504],[126.8802,37.70437],[126.88298,37.70348],[126.8834,37.70343],[126.88385,37.70338],[126.88546,37.70323],[126.88644,37.70329],[126.88755,37.70336],[126.88901,37.70354],[126.88932,37.70353],[126.88969,37.70348],[126.88978,37.70335],[126.8914,37.70028],[126.89098,37.69831],[126.89066,37.69679],[126.89031,37.6967],[126.89021,37.69669],[126.88997,37.69667],[126.88895,37.69446],[126.889,37.69339],[126.88881,37.69287],[126.88854,37.69235],[126.88821,37.69166],[126.88796,37.69113],[126.88788,37.6907],[126.88784,37.69051],[126.8878,37.69028],[126.88771,37.68978],[126.88767,37.6896],[126.88757,37.68941],[126.8871,37.68935],[126.88666,37.68929],[126.88658,37.68928],[126.88626,37.68922],[126.88483,37.68881],[126.88465,37.68864],[126.88451,37.68751],[126.88447,37.68721],[126.88448,37.68682],[126.88462,37.68624],[126.8847,37.68461],[126.88447,37.68421],[126.8817,37.68464],[126.87846,37.68571],[126.87296,37.68695],[126.87165,37.68707],[126.87087,37.68695],[126.87074,37.6869],[126.86788,37.68582],[126.86751,37.68539],[126.86741,37.68527],[126.86662,37.68474],[126.86657,37.68472],[126.86654,37.68471],[126.86595,37.68464],[126.86444,37.68447],[126.86277,37.68447],[126.86188,37.68447],[126.85717,37.68566],[126.85671,37.68579],[126.85653,37.68585],[126.85645,37.6859],[126.85641,37.68592],[126.85324,37.68792],[126.85298,37.68812],[126.85263,37.68861],[126.85255,37.6888],[126.85342,37.68993],[126.85494,37.69213],[126.85497,37.69345],[126.85497,37.69353],[126.85484,37.69373],[126.85383,37.69526],[126.8517,37.69655],[126.85161,37.6966],[126.85145,37.6967],[126.84976,37.69804],[126.8497,37.69824],[126.84942,37.69913],[126.84926,37.69968],[126.84923,37.69975],[126.84842,37.70257],[126.84833,37.70289],[126.84656,37.70716],[126.84391,37.71235],[126.84178,37.71641],[126.84077,37.72134],[126.83992,37.72322],[126.8393,37.72394],[126.83885,37.72445],[126.83872,37.7246],[126.8387,37.72462],[126.83775,37.7255],[126.83728,37.72593],[126.83669,37.72656],[126.83628,37.72699],[126.83594,37.72756],[126.83563,37.72807],[126.83623,37.72748],[126.83708,37.72757],[126.83917,37.72852],[126.83932,37.72859],[126.83939,37.72863],[126.83942,37.72865],[126.83946,37.72867],[126.83993,37.72939],[126.84037,37.73019],[126.84125,37.7315],[126.84804,37.73369],[126.85109,37.73417],[126.85137,37.7341],[126.85258,37.7338],[126.85289,37.73372],[126.85313,37.73366],[126.85324,37.73366],[126.85377,37.73366],[126.8544,37.73366],[126.85582,37.73414],[126.85647,37.73457],[126.85655,37.73556],[126.85656,37.73572],[126.85891,37.73407],[126.85893,37.7334],[126.86094,37.73268],[126.86222,37.7325],[126.86225,37.73252],[126.86253,37.73265],[126.86424,37.7326],[126.86454,37.73259],[126.86495,37.73254],[126.86586,37.73159],[126.86765,37.72959],[126.87149,37.7293],[126.87285,37.72698],[126.87343,37.72614],[126.87511,37.72555],[126.87602,37.7255],[126.87713,37.72622],[126.87871,37.72632],[126.87971,37.72627],[126.88099,37.72616],[126.88327,37.71981],[126.8827,37.71931]]]]}},{"type":"Feature","properties":{"code":"41281610","name":"능곡동","parent":"41281"},"geometry":{"type":"MultiPolygon","coordinates":[[[[126.81608,37.64635],[126.81949,37.64632],[126.82016,37.64632],[126.82047,37.64629],[126.8217,37.64616],[126.82175,37.64595],[126.82172,37.64578],[126.82191,37.64566],[126.82201,37.64559],[126.82346,37.64477],[126.82353,37.64474],[126.82479,37.64446],[126.82502,37.64442],[126.82517,37.64439],[126.82342,37.63982],[126.82317,37.63915],[126.82271,37.63796],[126.82239,37.63713],[126.82202,37.63613],[126.82572,37.63524],[126.8231,37.62907],[126.82291,37.62814],[126.8219,37.62606],[126.82091,37.62479],[126.82238,37.62257],[126.82173,37.62221],[126.82114,37.62188],[126.82023,37.62127],[126.81913,37.61954],[126.81898,37.61925],[126.81862,37.61851],[126.81758,37.61642],[126.81344,37.61778],[126.81328,37.61776],[126.81028,37.61736],[126.80394,37.61525],[126.80366,37.61516],[126.80357,37.61513],[126.80327,37.61491],[126.7995,37.61204],[126.79795,37.61086],[126.79746,37.61102],[126.79322,37.6124],[126.7921,37.61274],[126.7918,37.61283],[126.78875,37.61375],[126.7884,37.6139],[126.78776,37.61418],[126.78764,37.61423],[126.7867,37.61464],[126.78564,37.6151],[126.78251,37.61659],[126.78213,37.61685],[126.78188,37.61702],[126.78016,37.6182],[126.77887,37.61909],[126.77799,37.61968],[126.77489,37.62175],[126.774,37.62219],[126.77269,37.62974],[126.77427,37.63191],[126.77544,37.63188],[126.77759,37.63182],[126.78405,37.63151],[126.78481,37.63126],[126.78523,37.63088],[126.78537,37.63068],[126.78575,37.63013],[126.78595,37.62981],[126.78625,37.62925],[126.78627,37.62922],[126.78639,37.62909],[126.78687,37.62872],[126.78729,37.62844],[126.78738,37.62838],[126.7875,37.62831],[126.78769,37.6282],[126.78848,37.62773],[126.78919,37.62773],[126.78997,37.62773],[126.79121,37.62774],[126.79304,37.62774],[126.79308,37.62774],[126.79377,37.62822],[126.79383,37.62826],[126.79413,37.6285],[126.79434,37.62867],[126.79446,37.62885],[126.79447,37.62894],[126.79448,37.629],[126.79413,37.6319],[126.79455,37.6367],[126.79472,37.63798],[126.79479,37.63856],[126.79483,37.63883],[126.79498,37.6398],[126.79501,37.63999],[126.79502,37.64008],[126.79506,37.64018],[126.79509,37.64027],[126.79515,37.6404],[126.79524,37.64051],[126.79527,37.64054],[126.79669,37.64117],[126.79682,37.64131],[126.79729,37.64241],[126.80115,37.64466],[126.80209,37.645],[126.80298,37.64352],[126.80302,37.64351],[126.80305,37.64351],[126.8039,37.64333],[126.80588,37.64382],[126.80747,37.64533],[126.80943,37.6466],[126.81203,37.64813],[126.81248,37.64819],[126.81297,37.64812],[126.81347,37.64754],[126.81336,37.64604],[126.81325,37.6454],[126.81234,37.64359],[126.81312,37.64357],[126.81342,37.64358],[126.81422,37.6438],[126.81429,37.64383],[126.81437,37.64389],[126.81473,37.64416],[126.81487,37.64432],[126.81581,37.64559],[126.81584,37.64563],[126.81585,37.64567],[126.81608,37.64635]]]]}},{"type":"Feature","properties":{"code":"41281621","name":"화정1동","parent":"41281"},"geometry":{"type":"MultiPolygon","coordinates":[[[[126.84311,37.6455],[126.84282,37.64534],[126.84245,37.64512],[126.84231,37.64492],[126.8407,37.64172],[126.84154,37.64048],[126.84235,37.64014],[126.8419,37.63958],[126.84155,37.63928],[126.84127,37.6392],[126.84051,37.63915],[126.84035,37.63915],[126.84016,37.63915],[126.84001,37.63914],[126.83985,37.63912],[126.83959,37.63907],[126.83935,37.63897],[126.83925,37.63893],[126.83889,37.63877],[126.83882,37.63873],[126.83861,37.63861],[126.83857,37.63833],[126.83854,37.63813],[126.83851,37.63795],[126.83845,37.63758],[126.8383,37.63566],[126.83817,37.6341],[126.83582,37.63421],[126.83561,37.63422],[126.83257,37.63458],[126.83226,37.63462],[126.83198,37.63466],[126.82986,37.63494],[126.82909,37.63505],[126.82718,37.6353],[126.82572,37.63524],[126.82202,37.63613],[126.82239,37.63713],[126.82271,37.63796],[126.82317,37.63915],[126.82342,37.63982],[126.82517,37.64439],[126.82564,37.64448],[126.82615,37.64529],[126.82649,37.64623],[126.82631,37.64628],[126.8266,37.64704],[126.82666,37.64718],[126.82738,37.64894],[126.82749,37.64914],[126.82932,37.6489],[126.83036,37.64867],[126.83059,37.64862],[126.83293,37.64838],[126.8334,37.64835],[126.83456,37.64829],[126.83492,37.64838],[126.83628,37.64872],[126.8363,37.64873],[126.83666,37.64891],[126.83802,37.64962],[126.83856,37.65033],[126.83861,37.65041],[126.83882,37.65049],[126.8403,37.65009],[126.84167,37.64942],[126.84193,37.64928],[126.84218,37.64879],[126.84311,37.6455]]]]}},{"type":"Feature","properties":{"code":"41281622","name":"화정2동","parent":"41281"},"geometry":{"type":"MultiPolygon","coordinates":[[[[126.84841,37.62951],[126.84681,37.6292],[126.84665,37.62918],[126.84569,37.62911],[126.84529,37.6292],[126.84511,37.62924],[126.84373,37.62943],[126.84113,37.62954],[126.84022,37.62958],[126.83949,37.62936],[126.83789,37.63057],[126.83753,37.63055],[126.83676,37.63018],[126.83646,37.62903],[126.83641,37.62884],[126.83637,37.6287],[126.83636,37.62861],[126.83631,37.62838],[126.83629,37.62826],[126.83626,37.6281],[126.83618,37.62766],[126.83612,37.62735],[126.83581,37.62584],[126.83579,37.62572],[126.83427,37.62428],[126.83183,37.62585],[126.83086,37.62649],[126.8231,37.62907],[126.82572,37.63524],[126.82718,37.6353],[126.82909,37.63505],[126.82986,37.63494],[126.83198,37.63466],[126.83226,37.63462],[126.83257,37.63458],[126.83561,37.63422],[126.83582,37.63421],[126.83817,37.6341],[126.8383,37.63566],[126.83845,37.63758],[126.83851,37.63795],[126.83854,37.63813],[126.83857,37.63833],[126.83861,37.63861],[126.83882,37.63873],[126.83889,37.63877],[126.83925,37.63893],[126.83935,37.63897],[126.83959,37.63907],[126.83985,37.63912],[126.84001,37.63914],[126.84016,37.63915],[126.84035,37.63915],[126.84051,37.63915],[126.84127,37.6392],[126.84155,37.63928],[126.8419,37.63958],[126.84235,37.64014],[126.84457,37.6394],[126.84556,37.63942],[126.8477,37.63725],[126.84822,37.63432],[126.84865,37.63188],[126.84871,37.63141],[126.84872,37.63075],[126.84864,37.63015],[126.84853,37.62985],[126.84841,37.62951]]]]}},{"type":"Feature","properties":{"code":"41281630","name":"행주동","parent":"41281"},"geometry":{"type":"MultiPolygon","coordinates":[[[[126.83086,37.62649],[126.83052,37.62571],[126.82815,37.62491],[126.82801,37.62484],[126.82792,37.62478],[126.82782,37.62471],[126.82775,37.62466],[126.8274,37.62438],[126.82732,37.62413],[126.82732,37.62408],[126.82733,37.62402],[126.82742,37.62388],[126.82773,37.62357],[126.82794,37.62337],[126.82805,37.62328],[126.82814,37.6232],[126.82821,37.62314],[126.82846,37.6225],[126.82847,37.62245],[126.82869,37.6204],[126.82787,37.61783],[126.82794,37.61777],[126.82824,37.61727],[126.82826,37.61723],[126.82824,37.6172],[126.82748,37.61632],[126.82681,37.6164],[126.82611,37.61648],[126.82603,37.61647],[126.82585,37.61641],[126.82548,37.61627],[126.8249,37.61598],[126.82734,37.61415],[126.82884,37.61302],[126.82913,37.61024],[126.83029,37.60818],[126.83115,37.60768],[126.83152,37.60746],[126.83189,37.60725],[126.8321,37.60173],[126.83209,37.6016],[126.83206,37.60141],[126.83201,37.60135],[126.83191,37.6013],[126.8317,37.60127],[126.83129,37.60121],[126.83116,37.60115],[126.83108,37.60107],[126.83098,37.60095],[126.83083,37.60068],[126.83077,37.6005],[126.83077,37.60043],[126.83076,37.60026],[126.83086,37.59945],[126.8309,37.59923],[126.83092,37.59914],[126.83159,37.59735],[126.83224,37.5965],[126.83281,37.59575],[126.83207,37.59535],[126.83193,37.59513],[126.83108,37.59373],[126.82682,37.58799],[126.82453,37.5894],[126.82326,37.59033],[126.81858,37.59359],[126.81759,37.59529],[126.81641,37.59564],[126.81408,37.59759],[126.81128,37.59868],[126.811,37.59894],[126.81013,37.59972],[126.81001,37.59982],[126.80987,37.59995],[126.80719,37.60231],[126.80689,37.60258],[126.80664,37.60279],[126.8055,37.60369],[126.80494,37.60402],[126.80484,37.60412],[126.80422,37.60473],[126.80069,37.60857],[126.79853,37.61048],[126.79795,37.61086],[126.7995,37.61204],[126.80327,37.61491],[126.80357,37.61513],[126.80366,37.61516],[126.80394,37.61525],[126.81028,37.61736],[126.81328,37.61776],[126.81344,37.61778],[126.81758,37.61642],[126.81862,37.61851],[126.81898,37.61925],[126.81913,37.61954],[126.82023,37.62127],[126.82114,37.62188],[126.82173,37.62221],[126.82238,37.62257],[126.82091,37.62479],[126.8219,37.62606],[126.82291,37.62814],[126.8231,37.62907],[126.83086,37.62649]]]]}},{"type":"Feature","properties":{"code":"41281640","name":"행신1동","parent":"41281"},"geometry":{"type":"MultiPolygon","coordinates":[[[[126.83427,37.62428],[126.83536,37.6236],[126.83675,37.62275],[126.8385,37.62163],[126.84029,37.62046],[126.84055,37.62027],[126.84084,37.62007],[126.84087,37.62005],[126.84099,37.61998],[126.84146,37.61967],[126.84227,37.61924],[126.84409,37.61857],[126.8445,37.61842],[126.84195,37.61793],[126.83797,37.61807],[126.83791,37.61809],[126.83739,37.61827],[126.83689,37.61844],[126.83612,37.6187],[126.83575,37.61882],[126.83487,37.61912],[126.83411,37.61913],[126.83101,37.61918],[126.83051,37.61919],[126.83023,37.61919],[126.82787,37.61783],[126.82869,37.6204],[126.82847,37.62245],[126.82846,37.6225],[126.82821,37.62314],[126.82814,37.6232],[126.82805,37.62328],[126.82794,37.62337],[126.82773,37.62357],[126.82742,37.62388],[126.82733,37.62402],[126.82732,37.62408],[126.82732,37.62413],[126.8274,37.62438],[126.82775,37.62466],[126.82782,37.62471],[126.82792,37.62478],[126.82801,37.62484],[126.82815,37.62491],[126.83052,37.62571],[126.83086,37.62649],[126.83183,37.62585],[126.83427,37.62428]]]]}},{"type":"Feature","properties":{"code":"41281650","name":"행신2동","parent":"41281"},"geometry":{"type":"MultiPolygon","coordinates":[[[[126.8445,37.61842],[126.8449,37.61835],[126.84529,37.61822],[126.84557,37.61799],[126.84656,37.61711],[126.84661,37.61698],[126.84656,37.61657],[126.84656,37.61654],[126.84628,37.61594],[126.84609,37.61553],[126.846,37.61539],[126.8459,37.61528],[126.84395,37.6141],[126.84611,37.6128],[126.84698,37.61277],[126.84825,37.61273],[126.85064,37.61229],[126.85088,37.61224],[126.85118,37.61216],[126.85171,37.61198],[126.85237,37.61172],[126.85271,37.61157],[126.85462,37.61068],[126.85826,37.60886],[126.85767,37.60797],[126.85358,37.60401],[126.85208,37.60316],[126.84817,37.59992],[126.84792,37.59952],[126.84674,37.59802],[126.84651,37.59795],[126.84528,37.59755],[126.84416,37.59719],[126.83657,37.5974],[126.83624,37.59752],[126.83616,37.59755],[126.83474,37.59746],[126.83429,37.59734],[126.83281,37.59575],[126.83224,37.5965],[126.83159,37.59735],[126.83092,37.59914],[126.8309,37.59923],[126.83086,37.59945],[126.83076,37.60026],[126.83077,37.60043],[126.83077,37.6005],[126.83083,37.60068],[126.83098,37.60095],[126.83108,37.60107],[126.83116,37.60115],[126.83129,37.60121],[126.8317,37.60127],[126.83191,37.6013],[126.83201,37.60135],[126.83206,37.60141],[126.83209,37.6016],[126.8321,37.60173],[126.83189,37.60725],[126.83152,37.60746],[126.83115,37.60768],[126.83029,37.60818],[126.82913,37.61024],[126.82884,37.61302],[126.82734,37.61415],[126.8249,37.61598],[126.82548,37.61627],[126.82585,37.61641],[126.82603,37.61647],[126.82611,37.61648],[126.82681,37.6164],[126.82748,37.61632],[126.82824,37.6172],[126.82826,37.61723],[126.82824,37.61727],[126.82794,37.61777],[126.82787,37.61783],[126.83023,37.61919],[126.83051,37.61919],[126.83101,37.61918],[126.83411,37.61913],[126.83487,37.61912],[126.83575,37.61882],[126.83612,37.6187],[126.83689,37.61844],[126.83739,37.61827],[126.83791,37.61809],[126.83797,37.61807],[126.84195,37.61793],[126.8445,37.61842]]]]}},{"type":"Feature","properties":{"code":"41281660","name":"화전동","parent":"41281"},"geometry":{"type":"MultiPolygon","coordinates":[[[[126.90103,37.61246],[126.90115,37.61237],[126.90121,37.61233],[126.90187,37.61],[126.90198,37.60939],[126.90221,37.60709],[126.90171,37.60573],[126.90208,37.60382],[126.90026,37.60315],[126.90023,37.60203],[126.90048,37.60131],[126.90072,37.601],[126.90087,37.60077],[126.90123,37.60012],[126.90149,37.59937],[126.90142,37.59827],[126.90136,37.59618],[126.90056,37.5943],[126.89995,37.59377],[126.89933,37.59324],[126.89899,37.59266],[126.89901,37.59259],[126.89958,37.59046],[126.89978,37.58997],[126.89984,37.58987],[126.89696,37.58862],[126.8914,37.58846],[126.88741,37.58858],[126.88726,37.58859],[126.88632,37.58943],[126.88581,37.59008],[126.88544,37.59109],[126.88622,37.59233],[126.88658,37.59384],[126.88482,37.59339],[126.88432,37.59267],[126.88412,37.59241],[126.88393,37.59218],[126.88338,37.59172],[126.88224,37.59094],[126.87412,37.59791],[126.86959,37.60184],[126.86738,37.60372],[126.8673,37.60379],[126.86459,37.60592],[126.86174,37.60731],[126.85826,37.60886],[126.85867,37.60932],[126.86199,37.61182],[126.86363,37.61295],[126.86462,37.6136],[126.86855,37.61581],[126.87092,37.61713],[126.87257,37.61804],[126.87346,37.61646],[126.87448,37.61689],[126.87516,37.61665],[126.87546,37.61614],[126.87551,37.61604],[126.87553,37.61601],[126.87592,37.61601],[126.8761,37.61601],[126.87662,37.61604],[126.87851,37.61614],[126.88129,37.61628],[126.88212,37.61607],[126.8855,37.61512],[126.88586,37.61494],[126.88592,37.61491],[126.88613,37.61457],[126.88624,37.61422],[126.88637,37.61361],[126.88643,37.61275],[126.8868,37.61126],[126.88822,37.61096],[126.89057,37.61047],[126.89201,37.61128],[126.89233,37.6115],[126.89265,37.61209],[126.89289,37.6122],[126.89333,37.61234],[126.89392,37.61249],[126.89602,37.61256],[126.90103,37.61246]]]]}},{"type":"Feature","properties":{"code":"41281670","name":"대덕동","parent":"41281"},"geometry":{"type":"MultiPolygon","coordinates":[[[[126.88224,37.59094],[126.88049,37.58981],[126.88037,37.58971],[126.88029,37.58964],[126.87763,37.5862],[126.87667,37.58412],[126.87663,37.58156],[126.87747,37.58031],[126.87763,37.57975],[126.87752,37.57952],[126.87744,37.5794],[126.87708,37.5789],[126.87626,37.57896],[126.87335,37.57885],[126.86799,37.57739],[126.86664,37.57645],[126.86495,37.57584],[126.86172,37.57586],[126.85912,37.57486],[126.85412,37.57386],[126.85356,37.57181],[126.85163,37.57326],[126.83209,37.58577],[126.82682,37.58799],[126.83108,37.59373],[126.83193,37.59513],[126.83207,37.59535],[126.83281,37.59575],[126.83429,37.59734],[126.83474,37.59746],[126.83616,37.59755],[126.83624,37.59752],[126.83657,37.5974],[126.84416,37.59719],[126.84528,37.59755],[126.84651,37.59795],[126.84674,37.59802],[126.84792,37.59952],[126.84817,37.59992],[126.85208,37.60316],[126.85358,37.60401],[126.85767,37.60797],[126.85826,37.60886],[126.86174,37.60731],[126.86459,37.60592],[126.8673,37.60379],[126.86738,37.60372],[126.86959,37.60184],[126.87412,37.59791],[126.88224,37.59094]]]]}},{"type":"Feature","properties":{"code":"41281655","name":"행신3동","parent":"41281"},"geometry":{"type":"MultiPolygon","coordinates":[[[[126.84113,37.62954],[126.84137,37.62911],[126.84251,37.62798],[126.84312,37.62782],[126.84352,37.62748],[126.84387,37.6274],[126.84355,37.62585],[126.8438,37.62582],[126.84374,37.62523],[126.84334,37.62462],[126.84258,37.6243],[126.84277,37.62329],[126.84276,37.62292],[126.84264,37.62197],[126.84218,37.62082],[126.84224,37.62069],[126.84274,37.62056],[126.84227,37.61924],[126.84146,37.61967],[126.84099,37.61998],[126.84087,37.62005],[126.84084,37.62007],[126.84055,37.62027],[126.84029,37.62046],[126.8385,37.62163],[126.83675,37.62275],[126.83536,37.6236],[126.83427,37.62428],[126.83579,37.62572],[126.83581,37.62584],[126.83612,37.62735],[126.83618,37.62766],[126.83626,37.6281],[126.83629,37.62826],[126.83631,37.62838],[126.83636,37.62861],[126.83637,37.6287],[126.83641,37.62884],[126.83646,37.62903],[126.83676,37.63018],[126.83753,37.63055],[126.83789,37.63057],[126.83949,37.62936],[126.84022,37.62958],[126.84113,37.62954]]]]}},{"type":"Feature","properties":{"code":"41281576","name":"삼송1동","parent":"41281"},"geometry":{"type":"MultiPolygon","coordinates":[[[[126.88636,37.64788],[126.88585,37.64899],[126.88474,37.65125],[126.88505,37.65196],[126.88505,37.65213],[126.885,37.6532],[126.88495,37.65322],[126.88481,37.65328],[126.88446,37.6534],[126.88427,37.65355],[126.88399,37.65377],[126.88316,37.65567],[126.88319,37.65608],[126.88321,37.65625],[126.88325,37.6566],[126.88326,37.65663],[126.88365,37.65796],[126.88475,37.65817],[126.88542,37.6581],[126.88582,37.65787],[126.88591,37.65747],[126.88628,37.65683],[126.88634,37.65673],[126.88878,37.65663],[126.88897,37.65663],[126.88924,37.65661],[126.89381,37.659],[126.89386,37.66074],[126.89385,37.66266],[126.89361,37.66488],[126.89207,37.66873],[126.89198,37.67055],[126.8946,37.6707],[126.89501,37.6708],[126.89504,37.67081],[126.89544,37.67095],[126.89578,37.67108],[126.89628,37.67131],[126.89669,37.67158],[126.89791,37.67292],[126.89836,37.67343],[126.89882,37.67405],[126.89923,37.67472],[126.89964,37.67552],[126.89992,37.67609],[126.89998,37.6762],[126.90044,37.67705],[126.90101,37.67787],[126.90124,37.67806],[126.90155,37.67832],[126.90207,37.67849],[126.90211,37.67849],[126.90239,37.67849],[126.90305,37.67845],[126.90327,37.67843],[126.90383,37.67832],[126.90444,37.67813],[126.90506,37.67779],[126.90516,37.67767],[126.9061,37.67652],[126.90676,37.6756],[126.90688,37.67542],[126.90649,37.67496],[126.9064,37.67486],[126.90609,37.67395],[126.90612,37.67364],[126.90614,37.6734],[126.90805,37.67026],[126.909,37.66962],[126.91022,37.6691],[126.91134,37.6687],[126.91297,37.66873],[126.91905,37.66936],[126.91924,37.66939],[126.92036,37.66959],[126.9206,37.67043],[126.92064,37.67104],[126.92056,37.67121],[126.92043,37.67146],[126.92074,37.67178],[126.92081,37.67186],[126.9215,37.67191],[126.92178,37.67193],[126.92432,37.6714],[126.92803,37.6707],[126.92933,37.66804],[126.92836,37.66739],[126.92678,37.66696],[126.92614,37.66691],[126.92548,37.667],[126.925,37.66698],[126.92476,37.66696],[126.92437,37.66695],[126.92367,37.66626],[126.92337,37.66598],[126.92301,37.66563],[126.92394,37.66365],[126.91969,37.66235],[126.9164,37.66163],[126.91477,37.66057],[126.91388,37.6597],[126.91297,37.65875],[126.91273,37.65842],[126.91231,37.65784],[126.91195,37.65774],[126.9092,37.6569],[126.90335,37.65347],[126.9017,37.6518],[126.90022,37.6506],[126.89807,37.65146],[126.89793,37.65145],[126.89678,37.65142],[126.89647,37.65142],[126.8962,37.65141],[126.89545,37.65114],[126.89505,37.651],[126.88977,37.6491],[126.88866,37.6487],[126.88636,37.64788]]]]}},{"type":"Feature","properties":{"code":"41281577","name":"삼송2동","parent":"41281"},"geometry":{"type":"MultiPolygon","coordinates":[[[[126.88585,37.64899],[126.88636,37.64788],[126.88542,37.64754],[126.88506,37.64741],[126.88482,37.64733],[126.88459,37.64724],[126.88437,37.64706],[126.88432,37.64701],[126.88413,37.64686],[126.88366,37.64648],[126.88304,37.64596],[126.87923,37.64353],[126.87766,37.64252],[126.8757,37.64234],[126.87547,37.64234],[126.87494,37.64233],[126.87462,37.64235],[126.87435,37.64265],[126.87424,37.64293],[126.87424,37.64386],[126.87429,37.64451],[126.87431,37.64455],[126.87478,37.64552],[126.87494,37.64575],[126.87517,37.64606],[126.87536,37.64626],[126.87552,37.64644],[126.87574,37.64667],[126.87535,37.64694],[126.87374,37.64768],[126.87213,37.648],[126.86966,37.64828],[126.86748,37.6486],[126.86485,37.64862],[126.86406,37.6492],[126.86376,37.65054],[126.86354,37.65211],[126.86222,37.65349],[126.86343,37.65427],[126.86401,37.65477],[126.86477,37.65565],[126.8647,37.65637],[126.86481,37.65659],[126.86492,37.65678],[126.86609,37.65731],[126.86702,37.65759],[126.86805,37.65768],[126.86839,37.65767],[126.86841,37.65764],[126.86842,37.65761],[126.86848,37.65749],[126.86856,37.65744],[126.86866,37.65739],[126.86926,37.65719],[126.86947,37.65712],[126.86967,37.65711],[126.8705,37.65707],[126.87058,37.65707],[126.87064,37.65707],[126.87254,37.65704],[126.87348,37.65705],[126.87555,37.6572],[126.87841,37.65965],[126.88056,37.65984],[126.88365,37.65796],[126.88326,37.65663],[126.88325,37.6566],[126.88321,37.65625],[126.88319,37.65608],[126.88316,37.65567],[126.88399,37.65377],[126.88427,37.65355],[126.88446,37.6534],[126.88481,37.65328],[126.88495,37.65322],[126.885,37.6532],[126.88505,37.65213],[126.88505,37.65196],[126.88474,37.65125],[126.88585,37.64899]]]]}},{"type":"Feature","properties":{"code":"41281656","name":"행신4동","parent":"41281"},"geometry":{"type":"MultiPolygon","coordinates":[[[[126.84227,37.61924],[126.84274,37.62056],[126.84224,37.62069],[126.84218,37.62082],[126.84264,37.62197],[126.84276,37.62292],[126.84277,37.62329],[126.84258,37.6243],[126.84334,37.62462],[126.84374,37.62523],[126.8438,37.62582],[126.84355,37.62585],[126.84387,37.6274],[126.84352,37.62748],[126.84312,37.62782],[126.84251,37.62798],[126.84137,37.62911],[126.84113,37.62954],[126.84373,37.62943],[126.84511,37.62924],[126.84529,37.6292],[126.84569,37.62911],[126.84665,37.62918],[126.84681,37.6292],[126.84841,37.62951],[126.84855,37.62865],[126.84858,37.62803],[126.84834,37.62561],[126.84823,37.62553],[126.84811,37.62533],[126.84806,37.62524],[126.84804,37.62521],[126.84795,37.62482],[126.84794,37.62467],[126.84793,37.62456],[126.84794,37.62426],[126.8481,37.6229],[126.84817,37.62244],[126.84821,37.62219],[126.84835,37.62144],[126.84836,37.6214],[126.85054,37.62154],[126.85129,37.6217],[126.85185,37.622],[126.85212,37.62227],[126.85224,37.62256],[126.85245,37.62271],[126.85314,37.62258],[126.85383,37.62238],[126.85421,37.62227],[126.85453,37.62212],[126.85484,37.6192],[126.85451,37.6142],[126.85437,37.61389],[126.85421,37.61353],[126.85394,37.61306],[126.8539,37.61299],[126.85355,37.61256],[126.85348,37.61244],[126.85347,37.61233],[126.85348,37.61221],[126.85416,37.61112],[126.85462,37.61068],[126.85271,37.61157],[126.85237,37.61172],[126.85171,37.61198],[126.85118,37.61216],[126.85088,37.61224],[126.85064,37.61229],[126.84825,37.61273],[126.84698,37.61277],[126.84611,37.6128],[126.84395,37.6141],[126.8459,37.61528],[126.846,37.61539],[126.84609,37.61553],[126.84628,37.61594],[126.84656,37.61654],[126.84656,37.61657],[126.84661,37.61698],[126.84656,37.61711],[126.84557,37.61799],[126.84529,37.61822],[126.8449,37.61835],[126.8445,37.61842],[126.84409,37.61857],[126.84227,37.61924]]]]}}]}