{"type":"FeatureCollection","features":[{"type":"Feature","properties":{"code":"47111250","name":"구룡포읍","parent":"47111"},"geometry":{"type":"MultiPolygon","coordinates":[[[[129.53015,35.93495],[129.52901,35.9353],[129.52603,35.93629],[129.52416,35.93697],[129.52399,35.93705],[129.52387,35.9371],[129.5238,35.93711],[129.5236,35.93713],[129.52347,35.93713],[129.52335,35.93711],[129.52176,35.93693],[129.52162,35.9369],[129.51698,35.93542],[129.51666,35.935],[129.5164,35.93468],[129.51629,35.9346],[129.51611,35.93457],[129.51372,35.93435],[129.51348,35.93433],[129.513,35.93433],[129.51297,35.93434],[129.50794,35.93804],[129.50689,35.93954],[129.50378,35.93972],[129.50358,35.93972],[129.50344,35.93974],[129.50332,35.93979],[129.50314,35.93994],[129.5028,35.94024],[129.50239,35.94064],[129.5022,35.94084],[129.50215,35.94096],[129.50214,35.9412],[129.50197,35.94272],[129.50093,35.94914],[129.50089,35.94934],[129.5008,35.94945],[129.50011,35.95014],[129.49994,35.95026],[129.49973,35.95035],[129.4981,35.95083],[129.49467,35.95181],[129.49295,35.95213],[129.49157,35.9523],[129.49145,35.95231],[129.49127,35.95236],[129.4912,35.95239],[129.49111,35.95248],[129.48943,35.95432],[129.48942,35.95437],[129.48941,35.95443],[129.48942,35.95451],[129.48944,35.95457],[129.48947,35.95462],[129.49039,35.9566],[129.49108,35.95641],[129.49194,35.95634],[129.49374,35.95638],[129.49568,35.95644],[129.49615,35.95647],[129.49631,35.95654],[129.50364,35.95663],[129.5048,35.95557],[129.50596,35.95609],[129.5066,35.95908],[129.50669,35.95955],[129.50673,35.95998],[129.50669,35.96022],[129.50659,35.96047],[129.50598,35.96163],[129.50587,35.96175],[129.50534,35.9624],[129.50427,35.96407],[129.50366,35.96598],[129.50337,35.96791],[129.50323,35.96889],[129.50302,35.97237],[129.50391,35.97475],[129.50397,35.97478],[129.50402,35.9748],[129.50423,35.97495],[129.50538,35.97584],[129.50548,35.976],[129.50554,35.97618],[129.50557,35.97645],[129.50591,35.98282],[129.50499,35.9877],[129.50627,35.98963],[129.50491,35.98996],[129.50253,35.9906],[129.5025,35.99063],[129.50242,35.99109],[129.5027,35.99286],[129.50573,35.99841],[129.50592,35.99869],[129.50615,35.99898],[129.50641,35.99929],[129.50895,36.00178],[129.51025,36.00237],[129.5123,36.00585],[129.51487,36.00917],[129.51543,36.00983],[129.51811,36.01016],[129.5196,36.01024],[129.51971,36.01023],[129.51977,36.01027],[129.52086,36.0111],[129.52093,36.01116],[129.5231,36.01365],[129.52412,36.01292],[129.52744,36.0114],[129.52962,36.01079],[129.52982,36.01087],[129.53234,36.01246],[129.53241,36.01252],[129.53248,36.01265],[129.53253,36.01288],[129.53254,36.01306],[129.53222,36.01373],[129.53195,36.01414],[129.53148,36.01547],[129.53112,36.0166],[129.5311,36.01679],[129.53201,36.02313],[129.5336,36.02552],[129.53362,36.02555],[129.53628,36.02692],[129.53669,36.0271],[129.53705,36.02725],[129.53788,36.02753],[129.53796,36.02749],[129.53896,36.02721],[129.53927,36.02716],[129.54194,36.02691],[129.54221,36.0269],[129.54257,36.02691],[129.54285,36.02693],[129.54298,36.02695],[129.54333,36.02715],[129.54346,36.02726],[129.54358,36.0274],[129.54397,36.02809],[129.544,36.02826],[129.54398,36.02845],[129.54399,36.02888],[129.5446,36.02981],[129.54494,36.03028],[129.54509,36.03037],[129.54537,36.03048],[129.54568,36.0306],[129.54613,36.03072],[129.54634,36.03073],[129.55365,36.03083],[129.55408,36.0308],[129.55445,36.03076],[129.55461,36.03071],[129.55496,36.03051],[129.5568,36.02978],[129.56156,36.03061],[129.56464,36.03168],[129.56613,36.03229],[129.56815,36.03308],[129.57007,36.03299],[129.57064,36.03231],[129.5713,36.03128],[129.57136,36.03119],[129.57147,36.03111],[129.57153,36.03108],[129.57332,36.03087],[129.57362,36.03084],[129.57397,36.03082],[129.57408,36.03084],[129.57643,36.03153],[129.57684,36.03169],[129.57792,36.03219],[129.57823,36.03234],[129.5796,36.03233],[129.58171,36.03295],[129.58233,36.03127],[129.58234,36.03115],[129.58228,36.02878],[129.58227,36.02875],[129.58178,36.02813],[129.58174,36.02809],[129.58093,36.02763],[129.58004,36.02752],[129.57893,36.02734],[129.57859,36.0272],[129.57747,36.02651],[129.57738,36.02621],[129.57729,36.02589],[129.57725,36.02467],[129.57735,36.02419],[129.57767,36.02383],[129.57913,36.02277],[129.5801,36.02226],[129.58149,36.02153],[129.58169,36.02134],[129.58262,36.02044],[129.58333,36.01944],[129.58467,36.01707],[129.58486,36.01653],[129.5813,36.0129],[129.57912,36.01197],[129.57862,36.01185],[129.57775,36.01177],[129.57667,36.00778],[129.57539,36.00415],[129.57348,36.00395],[129.57122,36.00179],[129.57157,36.00131],[129.56848,35.9979],[129.56771,35.99815],[129.5668,35.9971],[129.56653,35.99633],[129.56659,35.99559],[129.56736,35.99395],[129.56849,35.99161],[129.5683,35.99097],[129.56743,35.98971],[129.56676,35.98946],[129.56564,35.98928],[129.56219,35.98885],[129.56142,35.98913],[129.56114,35.98919],[129.55806,35.98677],[129.55826,35.98554],[129.55787,35.98542],[129.55754,35.98553],[129.55749,35.98674],[129.5575,35.98705],[129.55833,35.98793],[129.5602,35.98941],[129.56005,35.99033],[129.55837,35.99097],[129.55641,35.9907],[129.55567,35.99013],[129.55278,35.98717],[129.55219,35.98559],[129.55284,35.98444],[129.55381,35.98316],[129.55416,35.98298],[129.55596,35.98261],[129.55688,35.98261],[129.55779,35.9829],[129.55824,35.9842],[129.55893,35.98505],[129.55926,35.98529],[129.55973,35.98496],[129.55826,35.98287],[129.55668,35.98085],[129.55634,35.98057],[129.55561,35.98015],[129.55513,35.97994],[129.55432,35.97974],[129.55379,35.97985],[129.55275,35.9798],[129.55236,35.97969],[129.55214,35.97933],[129.55181,35.97858],[129.55167,35.97776],[129.55221,35.97413],[129.55321,35.97207],[129.55426,35.97062],[129.55462,35.96875],[129.5545,35.96788],[129.55323,35.96718],[129.55,35.96647],[129.54973,35.9666],[129.54926,35.96661],[129.54827,35.96557],[129.5474,35.96433],[129.54735,35.9638],[129.54751,35.96324],[129.5479,35.96311],[129.54899,35.96297],[129.5497,35.96283],[129.54999,35.96243],[129.55032,35.96184],[129.55038,35.96165],[129.55055,35.96046],[129.5505,35.96007],[129.54962,35.95843],[129.54911,35.95824],[129.54821,35.95809],[129.548,35.9581],[129.5473,35.95734],[129.54638,35.95469],[129.54639,35.95408],[129.54524,35.9527],[129.54063,35.94978],[129.53981,35.94916],[129.53924,35.94793],[129.53939,35.94711],[129.53897,35.9453],[129.53695,35.94481],[129.53528,35.94231],[129.53477,35.94108],[129.53511,35.94064],[129.53503,35.93978],[129.53433,35.93836],[129.5326,35.93595],[129.53015,35.93495]]]]}},{"type":"Feature","properties":{"code":"47111253","name":"연일읍","parent":"47111"},"geometry":{"type":"MultiPolygon","coordinates":[[[[129.31528,36.04383],[129.31583,36.04318],[129.3169,36.0409],[129.31682,36.04053],[129.31647,36.03952],[129.31514,36.03923],[129.31468,36.0393],[129.31335,36.03874],[129.31299,36.03812],[129.31234,36.037],[129.31168,36.03545],[129.31207,36.03414],[129.31237,36.03327],[129.31255,36.03216],[129.31264,36.03156],[129.31255,36.02979],[129.3124,36.02952],[129.31203,36.02885],[129.31141,36.02851],[129.31135,36.02848],[129.31049,36.02792],[129.31047,36.02785],[129.31035,36.0265],[129.31031,36.0259],[129.3104,36.02257],[129.31042,36.02249],[129.31047,36.02238],[129.31053,36.02229],[129.3129,36.01975],[129.31302,36.01963],[129.31316,36.01951],[129.31487,36.01835],[129.31512,36.01819],[129.31522,36.01813],[129.31535,36.01807],[129.31552,36.01802],[129.31565,36.01799],[129.31574,36.01799],[129.31584,36.018],[129.31594,36.01799],[129.316,36.01797],[129.3161,36.0179],[129.31645,36.01766],[129.31712,36.01711],[129.31722,36.017],[129.31725,36.01694],[129.31815,36.01479],[129.31763,36.01382],[129.31748,36.01209],[129.31748,36.01205],[129.31753,36.01198],[129.31776,36.01159],[129.31785,36.01151],[129.32143,36.00828],[129.32148,36.00824],[129.32155,36.0082],[129.32162,36.00816],[129.32171,36.00811],[129.32178,36.00809],[129.32184,36.00807],[129.32193,36.00807],[129.32205,36.00806],[129.32343,36.00664],[129.32428,36.00324],[129.32511,36.00353],[129.32658,36.0037],[129.32689,36.00374],[129.32731,36.00376],[129.3276,36.00377],[129.32834,36.00378],[129.33058,36.00381],[129.33078,36.0038],[129.33152,36.00379],[129.33175,36.00378],[129.33712,36.00357],[129.3378,36.0035],[129.33789,36.00349],[129.33799,36.00346],[129.33812,36.00343],[129.33848,36.00334],[129.33869,36.00327],[129.33887,36.0032],[129.33905,36.00312],[129.33913,36.00308],[129.3392,36.00302],[129.33924,36.00299],[129.33931,36.00294],[129.33937,36.00289],[129.33942,36.00286],[129.33961,36.00274],[129.33974,36.00267],[129.33988,36.00259],[129.34001,36.00254],[129.34009,36.00251],[129.3402,36.00247],[129.34023,36.00246],[129.34178,36.00229],[129.34447,36.00202],[129.34771,36.00163],[129.34822,36.0016],[129.34901,36.00161],[129.35136,36.00168],[129.35554,36.00194],[129.35577,36.00197],[129.35584,36.00199],[129.35615,36.00206],[129.35649,36.00218],[129.35869,36.00299],[129.35992,36.00348],[129.36102,36.00399],[129.36165,36.00429],[129.3627,36.00486],[129.36783,36.00701],[129.36733,36.00554],[129.36642,36.00447],[129.36511,36.00295],[129.36422,36.00201],[129.36301,36.0001],[129.36248,35.99918],[129.36229,35.99884],[129.35872,35.99115],[129.35845,35.99025],[129.35841,35.98931],[129.35853,35.98837],[129.35859,35.98803],[129.35957,35.9857],[129.36067,35.98299],[129.36086,35.9825],[129.36117,35.98166],[129.36121,35.98145],[129.36122,35.98135],[129.36125,35.98101],[129.36129,35.98049],[129.36128,35.98044],[129.36116,35.97956],[129.36109,35.97935],[129.36048,35.97937],[129.35982,35.97978],[129.35991,35.9808],[129.35993,35.98101],[129.35996,35.98128],[129.35996,35.98135],[129.35995,35.98139],[129.35764,35.98177],[129.35115,35.98102],[129.351,35.98099],[129.35092,35.98097],[129.35082,35.98093],[129.35071,35.98088],[129.35067,35.98086],[129.35051,35.98076],[129.35035,35.98064],[129.35,35.9803],[129.34991,35.98018],[129.34982,35.98003],[129.34897,35.9792],[129.34894,35.97918],[129.34803,35.97908],[129.34789,35.97908],[129.34326,35.97908],[129.34215,35.97911],[129.34203,35.97911],[129.34195,35.9791],[129.34189,35.97909],[129.34182,35.97907],[129.34175,35.97904],[129.34069,35.97851],[129.34065,35.97847],[129.34064,35.97844],[129.34066,35.97841],[129.34069,35.97837],[129.34363,35.97667],[129.34381,35.97659],[129.3439,35.97654],[129.34638,35.9759],[129.34851,35.97539],[129.34866,35.97537],[129.34875,35.97534],[129.34887,35.97528],[129.35035,35.97431],[129.3545,35.96958],[129.35486,35.96903],[129.35446,35.96834],[129.35429,35.96819],[129.34866,35.96538],[129.34859,35.96537],[129.34849,35.96536],[129.34843,35.96537],[129.34743,35.96552],[129.3472,35.96558],[129.34636,35.96578],[129.34455,35.966],[129.34444,35.966],[129.34431,35.96599],[129.34408,35.96596],[129.34393,35.96592],[129.33774,35.96396],[129.33431,35.96433],[129.33426,35.96432],[129.33113,35.96318],[129.33091,35.96308],[129.3267,35.9611],[129.32654,35.96111],[129.32403,35.96123],[129.32362,35.96117],[129.32332,35.9611],[129.3232,35.96106],[129.32305,35.961],[129.32271,35.96083],[129.3225,35.96071],[129.32247,35.96064],[129.3224,35.96045],[129.32231,35.96022],[129.32225,35.96002],[129.32222,35.95992],[129.32218,35.95973],[129.32213,35.95959],[129.32207,35.95946],[129.32198,35.95932],[129.32186,35.95918],[129.32177,35.95911],[129.32059,35.95829],[129.32049,35.95823],[129.32035,35.95818],[129.32001,35.95807],[129.31902,35.95798],[129.31876,35.95796],[129.31861,35.95795],[129.3185,35.95797],[129.31632,35.95892],[129.31534,35.95935],[129.31218,35.96466],[129.31236,35.96778],[129.31236,35.96799],[129.31235,35.96814],[129.31232,35.96825],[129.31229,35.96835],[129.31226,35.96842],[129.31216,35.96853],[129.31195,35.96875],[129.31179,35.96892],[129.31161,35.96909],[129.31147,35.9692],[129.31133,35.9693],[129.30971,35.96919],[129.30946,35.96917],[129.3093,35.96917],[129.30918,35.96919],[129.30904,35.96922],[129.30877,35.96928],[129.30846,35.96938],[129.30823,35.96947],[129.30808,35.96953],[129.30795,35.9696],[129.30789,35.96966],[129.30568,35.97527],[129.30521,35.97779],[129.30534,35.97785],[129.30551,35.97793],[129.30557,35.97799],[129.30563,35.97806],[129.30576,35.97827],[129.30584,35.9785],[129.30586,35.9787],[129.30587,35.97998],[129.30587,35.98029],[129.30585,35.98051],[129.30536,35.98308],[129.30531,35.98321],[129.30521,35.98341],[129.30507,35.98356],[129.30495,35.98366],[129.30451,35.98399],[129.30395,35.98442],[129.30386,35.9845],[129.30374,35.98463],[129.30356,35.98485],[129.30343,35.98504],[129.30339,35.98513],[129.30287,35.98665],[129.30284,35.98674],[129.30284,35.98685],[129.30287,35.98699],[129.30328,35.98769],[129.30375,35.98851],[129.30465,35.99019],[129.30467,35.99024],[129.30468,35.99033],[129.30467,35.99062],[129.30436,35.9942],[129.30433,35.99431],[129.30425,35.99451],[129.3041,35.9948],[129.30379,35.99533],[129.30357,35.99565],[129.30354,35.99568],[129.30349,35.99574],[129.3034,35.99579],[129.30333,35.9958],[129.30316,35.99578],[129.3027,35.99568],[129.30217,35.99555],[129.3017,35.99543],[129.30142,35.99535],[129.30113,35.99528],[129.30091,35.99522],[129.30054,35.99513],[129.30016,35.99507],[129.29996,35.99505],[129.29889,35.99495],[129.29786,35.99487],[129.29661,35.99478],[129.2963,35.99477],[129.29613,35.9948],[129.29606,35.99486],[129.29599,35.99504],[129.29592,35.99543],[129.29552,35.99812],[129.2955,35.99835],[129.29583,36.00353],[129.29585,36.00357],[129.29668,36.00461],[129.29724,36.00526],[129.29757,36.00579],[129.29737,36.00718],[129.29733,36.0074],[129.29725,36.00755],[129.29716,36.00772],[129.29588,36.00959],[129.29296,36.01345],[129.29151,36.01497],[129.2893,36.01668],[129.28913,36.01679],[129.28904,36.0169],[129.28854,36.01776],[129.28852,36.01782],[129.28704,36.01973],[129.284,36.02227],[129.28209,36.02307],[129.28188,36.02306],[129.28173,36.02306],[129.2816,36.02309],[129.28133,36.02315],[129.2807,36.02331],[129.28024,36.02344],[129.28011,36.02349],[129.27888,36.02436],[129.27882,36.02441],[129.27868,36.02457],[129.27717,36.0269],[129.27708,36.02714],[129.27669,36.02848],[129.27667,36.02856],[129.27668,36.02862],[129.27672,36.02865],[129.27692,36.02875],[129.27813,36.03037],[129.27883,36.03187],[129.27928,36.03465],[129.2808,36.0393],[129.28185,36.04132],[129.28191,36.04139],[129.2823,36.04159],[129.28252,36.04171],[129.28262,36.04177],[129.28271,36.04189],[129.28284,36.04221],[129.28298,36.04254],[129.28399,36.04664],[129.28277,36.05324],[129.28274,36.05338],[129.28271,36.05354],[129.28268,36.05361],[129.28266,36.05367],[129.28264,36.05372],[129.2826,36.05379],[129.28253,36.05389],[129.28247,36.05395],[129.28168,36.05476],[129.28118,36.0552],[129.28107,36.05526],[129.28102,36.05529],[129.28093,36.05537],[129.28089,36.05543],[129.28085,36.05553],[129.28081,36.05564],[129.28059,36.05649],[129.28062,36.05707],[129.28089,36.0577],[129.28315,36.06026],[129.28459,36.06186],[129.28659,36.06244],[129.28737,36.06213],[129.28826,36.06222],[129.28834,36.06223],[129.28843,36.06223],[129.29028,36.06207],[129.29038,36.06204],[129.29053,36.06199],[129.29343,36.06073],[129.2935,36.0607],[129.29367,36.06059],[129.29441,36.06003],[129.2945,36.05997],[129.29685,36.05773],[129.29831,36.05601],[129.29949,36.05465],[129.30333,36.05054],[129.30417,36.05026],[129.30502,36.04987],[129.30556,36.04896],[129.30664,36.04694],[129.3073,36.04531],[129.30688,36.04428],[129.30747,36.04363],[129.30778,36.04349],[129.30919,36.04284],[129.30979,36.04266],[129.31195,36.0434],[129.31292,36.04384],[129.31401,36.04434],[129.31454,36.04416],[129.31528,36.04383]]]]}},{"type":"Feature","properties":{"code":"47111256","name":"오천읍","parent":"47111"},"geometry":{"type":"MultiPolygon","coordinates":[[[[129.4296,35.98062],[129.42891,35.97996],[129.42847,35.97864],[129.43015,35.97646],[129.43509,35.97191],[129.4383,35.97057],[129.43837,35.9706],[129.43849,35.97066],[129.43876,35.97063],[129.43907,35.97035],[129.43937,35.96997],[129.44007,35.96897],[129.44078,35.96778],[129.44078,35.9677],[129.44006,35.96482],[129.44025,35.96162],[129.44247,35.95663],[129.44215,35.95621],[129.44182,35.95545],[129.44176,35.9552],[129.44177,35.95498],[129.44179,35.95493],[129.44186,35.95485],[129.442,35.95477],[129.44324,35.95413],[129.44012,35.95256],[129.43998,35.95248],[129.43983,35.95236],[129.43968,35.9522],[129.43954,35.95205],[129.43946,35.95193],[129.43941,35.95182],[129.4392,35.9513],[129.43908,35.951],[129.439,35.95073],[129.43845,35.94854],[129.4384,35.94828],[129.43835,35.94801],[129.43832,35.94772],[129.43832,35.94745],[129.43855,35.94533],[129.43858,35.94524],[129.43861,35.94515],[129.43867,35.94509],[129.43884,35.94494],[129.43894,35.94485],[129.43904,35.94475],[129.43908,35.94468],[129.43916,35.94454],[129.43925,35.94421],[129.43935,35.9438],[129.43939,35.94361],[129.43942,35.94347],[129.43942,35.94341],[129.4394,35.94329],[129.43868,35.94176],[129.43859,35.94161],[129.43611,35.93827],[129.43447,35.93639],[129.43431,35.93621],[129.43425,35.93609],[129.43419,35.93596],[129.43398,35.93521],[129.43391,35.9349],[129.4339,35.93441],[129.43392,35.93435],[129.43394,35.93429],[129.43401,35.93423],[129.43416,35.93414],[129.43426,35.93409],[129.43436,35.93407],[129.43446,35.93405],[129.43453,35.93403],[129.43457,35.934],[129.4346,35.93394],[129.4346,35.93388],[129.43457,35.93376],[129.43454,35.93367],[129.43429,35.93305],[129.43424,35.93293],[129.4341,35.93277],[129.43141,35.92992],[129.43131,35.92983],[129.43127,35.9298],[129.43121,35.92978],[129.42846,35.9292],[129.42564,35.92735],[129.42547,35.92718],[129.42543,35.92706],[129.42542,35.92675],[129.4249,35.92497],[129.4244,35.92405],[129.42181,35.92362],[129.41677,35.92027],[129.41637,35.91996],[129.41641,35.91993],[129.42059,35.9165],[129.42341,35.91434],[129.42386,35.91408],[129.42409,35.91402],[129.42591,35.91354],[129.42614,35.9135],[129.42629,35.9135],[129.42669,35.9135],[129.42706,35.91349],[129.42745,35.91341],[129.42767,35.91333],[129.42934,35.91257],[129.42946,35.91244],[129.4296,35.91211],[129.42968,35.9119],[129.42966,35.91168],[129.42962,35.91144],[129.42935,35.91058],[129.42919,35.91022],[129.4267,35.90835],[129.425,35.9079],[129.42307,35.9072],[129.42283,35.90709],[129.4227,35.907],[129.42233,35.90671],[129.42209,35.90649],[129.42066,35.90484],[129.42062,35.90479],[129.42006,35.90225],[129.42008,35.90213],[129.42036,35.90054],[129.42077,35.89901],[129.42087,35.89882],[129.4209,35.89873],[129.4209,35.89866],[129.42019,35.89683],[129.41879,35.8928],[129.41983,35.89025],[129.41987,35.89016],[129.42103,35.88758],[129.42107,35.88741],[129.42108,35.88726],[129.42105,35.88716],[129.42098,35.88693],[129.42089,35.88669],[129.42085,35.88649],[129.42081,35.88624],[129.42077,35.88593],[129.42075,35.88559],[129.42074,35.88533],[129.42075,35.88519],[129.4209,35.88485],[129.42111,35.8844],[129.42121,35.88421],[129.42129,35.88411],[129.42137,35.88403],[129.42142,35.88399],[129.42028,35.88292],[129.42016,35.88277],[129.42003,35.88255],[129.41994,35.88233],[129.41992,35.88214],[129.41993,35.88195],[129.41999,35.88176],[129.4203,35.88094],[129.42086,35.88037],[129.42094,35.88033],[129.42102,35.88024],[129.42139,35.87914],[129.42145,35.87896],[129.42146,35.8789],[129.42147,35.87862],[129.42145,35.87801],[129.42133,35.87787],[129.42103,35.87757],[129.42094,35.87753],[129.41986,35.87713],[129.41978,35.87713],[129.41965,35.87716],[129.41937,35.87727],[129.41903,35.87736],[129.41803,35.8776],[129.4178,35.87763],[129.41762,35.87763],[129.41738,35.87758],[129.41653,35.87736],[129.41494,35.87641],[129.41476,35.8763],[129.41463,35.87615],[129.4132,35.87441],[129.41315,35.87434],[129.41021,35.87042],[129.41016,35.8703],[129.40985,35.86895],[129.40983,35.86886],[129.4098,35.86823],[129.4099,35.86572],[129.41,35.86365],[129.41022,35.86225],[129.41022,35.86212],[129.41021,35.86201],[129.41017,35.86176],[129.41011,35.86156],[129.40986,35.86109],[129.40971,35.8609],[129.40957,35.86076],[129.40945,35.86066],[129.40612,35.85797],[129.40582,35.85806],[129.40567,35.85809],[129.40471,35.85828],[129.4042,35.85837],[129.40301,35.85859],[129.39925,35.85853],[129.39884,35.85852],[129.39839,35.85851],[129.39751,35.85847],[129.39745,35.85846],[129.3974,35.85845],[129.39731,35.85843],[129.39713,35.85835],[129.39706,35.85832],[129.397,35.85828],[129.39696,35.85822],[129.39694,35.85817],[129.3969,35.85804],[129.39689,35.858],[129.39368,35.85824],[129.39339,35.86008],[129.39225,35.86305],[129.39223,35.8631],[129.39221,35.86312],[129.39098,35.86384],[129.39091,35.86387],[129.39082,35.86389],[129.39066,35.8639],[129.38713,35.86413],[129.38539,35.86422],[129.38524,35.86422],[129.38512,35.86421],[129.38505,35.8642],[129.38494,35.86417],[129.38484,35.86414],[129.38477,35.8641],[129.38472,35.86406],[129.38461,35.86399],[129.38445,35.86389],[129.38429,35.86382],[129.38417,35.86378],[129.38405,35.86375],[129.38395,35.86373],[129.38382,35.86371],[129.38366,35.8637],[129.38352,35.86369],[129.3834,35.86371],[129.38327,35.86373],[129.38313,35.86375],[129.38283,35.86383],[129.38259,35.86392],[129.38252,35.86396],[129.38109,35.86462],[129.38101,35.86467],[129.38086,35.86476],[129.38033,35.86517],[129.38014,35.86533],[129.38001,35.86543],[129.37993,35.86548],[129.37984,35.86552],[129.37972,35.86554],[129.37941,35.86559],[129.37922,35.86561],[129.37913,35.86562],[129.37902,35.86562],[129.37711,35.86541],[129.37661,35.86516],[129.3753,35.86391],[129.37495,35.86342],[129.37302,35.86179],[129.3718,35.86129],[129.37176,35.86129],[129.37172,35.8613],[129.36857,35.86311],[129.36848,35.86318],[129.36842,35.86325],[129.36649,35.86421],[129.36375,35.86489],[129.36354,35.86493],[129.36337,35.86496],[129.36169,35.86526],[129.36151,35.86528],[129.36128,35.8653],[129.36115,35.8653],[129.36098,35.8653],[129.36079,35.86528],[129.36058,35.86526],[129.35505,35.87278],[129.35502,35.87283],[129.35501,35.87288],[129.35502,35.87298],[129.35508,35.87316],[129.35512,35.87325],[129.35634,35.87527],[129.3564,35.87536],[129.35647,35.87542],[129.35655,35.87547],[129.35688,35.87563],[129.35704,35.8757],[129.35725,35.87578],[129.35746,35.87586],[129.35763,35.87591],[129.35772,35.87593],[129.35779,35.87593],[129.35787,35.87591],[129.35797,35.87586],[129.35806,35.87581],[129.35815,35.87577],[129.35841,35.87567],[129.35847,35.87565],[129.35858,35.87564],[129.35869,35.87563],[129.35884,35.87562],[129.35924,35.87562],[129.35996,35.87565],[129.36039,35.87567],[129.36052,35.87569],[129.36067,35.87571],[129.36082,35.87575],[129.36095,35.87579],[129.36104,35.87583],[129.3623,35.87647],[129.36238,35.87651],[129.36245,35.87656],[129.36248,35.87659],[129.36304,35.87738],[129.36361,35.87834],[129.36364,35.87843],[129.36365,35.87853],[129.36308,35.88149],[129.36248,35.88383],[129.36245,35.88396],[129.36112,35.88819],[129.36107,35.88824],[129.36103,35.88827],[129.36083,35.88831],[129.36061,35.88833],[129.36036,35.88834],[129.35984,35.8883],[129.35974,35.88829],[129.35965,35.88824],[129.35954,35.88813],[129.35862,35.88714],[129.3585,35.88697],[129.35838,35.88676],[129.35828,35.88654],[129.35822,35.88631],[129.35812,35.88613],[129.35805,35.88602],[129.35796,35.88596],[129.35779,35.88589],[129.3576,35.88586],[129.35745,35.88585],[129.35733,35.88585],[129.35717,35.88588],[129.355,35.88651],[129.35478,35.88658],[129.35449,35.88669],[129.35309,35.88746],[129.35306,35.88749],[129.35304,35.88754],[129.35268,35.88891],[129.35268,35.88899],[129.35272,35.88914],[129.35252,35.89046],[129.35164,35.89174],[129.35159,35.89179],[129.35151,35.89183],[129.35015,35.89229],[129.3501,35.8923],[129.35005,35.89229],[129.34998,35.89226],[129.34991,35.89221],[129.34978,35.89205],[129.34962,35.89184],[129.34957,35.89171],[129.34959,35.89153],[129.34958,35.89137],[129.34954,35.89122],[129.34945,35.89103],[129.34901,35.89024],[129.34835,35.88914],[129.34821,35.88896],[129.34812,35.88885],[129.34795,35.88874],[129.34786,35.88868],[129.34775,35.88865],[129.34771,35.88865],[129.34256,35.88921],[129.33988,35.89051],[129.33867,35.89127],[129.33732,35.8928],[129.33728,35.89285],[129.33726,35.8929],[129.33728,35.89318],[129.33735,35.89357],[129.33746,35.89386],[129.33751,35.89393],[129.33831,35.89469],[129.33972,35.89537],[129.33999,35.89554],[129.34321,35.89969],[129.34332,35.89983],[129.34345,35.90006],[129.34355,35.90054],[129.34357,35.90095],[129.34372,35.90167],[129.34379,35.90183],[129.3439,35.90193],[129.34408,35.90208],[129.34453,35.90227],[129.34559,35.9026],[129.34589,35.90268],[129.34609,35.90272],[129.34875,35.90272],[129.34889,35.90272],[129.34903,35.9027],[129.34922,35.90261],[129.34952,35.90244],[129.34969,35.90235],[129.34974,35.90233],[129.3498,35.90233],[129.34984,35.90233],[129.35033,35.90258],[129.3517,35.90337],[129.3524,35.90384],[129.3527,35.90405],[129.35279,35.90413],[129.35282,35.90419],[129.3529,35.9043],[129.35295,35.90439],[129.35434,35.90819],[129.35418,35.91015],[129.35419,35.9102],[129.35421,35.91028],[129.35425,35.91034],[129.35515,35.91145],[129.35528,35.91162],[129.35877,35.91565],[129.36107,35.91825],[129.3612,35.91828],[129.36184,35.91851],[129.36269,35.9188],[129.36305,35.91896],[129.3639,35.91937],[129.36392,35.9194],[129.36393,35.91943],[129.36392,35.91948],[129.36383,35.91965],[129.36369,35.91988],[129.36356,35.92008],[129.36339,35.92033],[129.36295,35.92092],[129.3629,35.921],[129.36333,35.9243],[129.3639,35.92839],[129.36685,35.92989],[129.36702,35.92984],[129.36716,35.92985],[129.36977,35.93019],[129.36986,35.93025],[129.37334,35.93287],[129.37346,35.93297],[129.37363,35.93312],[129.3737,35.93318],[129.37385,35.93337],[129.37409,35.93371],[129.37428,35.93399],[129.37494,35.93511],[129.37683,35.9392],[129.37702,35.93974],[129.37705,35.93989],[129.37706,35.94004],[129.37704,35.94087],[129.37868,35.9431],[129.38023,35.94415],[129.38096,35.9462],[129.38229,35.94863],[129.38482,35.9501],[129.38763,35.95357],[129.38969,35.95696],[129.3923,35.95995],[129.39321,35.96022],[129.39344,35.96075],[129.39348,35.96097],[129.39362,35.96244],[129.39362,35.96257],[129.3931,35.96358],[129.39306,35.96364],[129.39266,35.96394],[129.39076,35.96543],[129.39014,35.96991],[129.39046,35.97228],[129.39127,35.97505],[129.39387,35.97709],[129.39606,35.97937],[129.3961,35.98115],[129.39785,35.98339],[129.39874,35.98268],[129.39932,35.98227],[129.39951,35.98222],[129.40184,35.98172],[129.40214,35.98175],[129.40842,35.98295],[129.40902,35.98352],[129.409,35.98363],[129.40898,35.98373],[129.40838,35.98428],[129.40819,35.98441],[129.40478,35.98655],[129.40566,35.98725],[129.40581,35.98724],[129.40638,35.98716],[129.40732,35.98669],[129.40819,35.98623],[129.4086,35.98619],[129.40972,35.98653],[129.41028,35.98724],[129.41068,35.98772],[129.41128,35.98812],[129.4117,35.98794],[129.41216,35.98769],[129.41276,35.98706],[129.41353,35.98484],[129.41445,35.98242],[129.41605,35.98066],[129.41628,35.98045],[129.41896,35.97935],[129.42069,35.97882],[129.42187,35.97867],[129.42333,35.9791],[129.42874,35.98044],[129.4296,35.98062]]]]}},{"type":"Feature","properties":{"code":"47111310","name":"대송면","parent":"47111"},"geometry":{"type":"MultiPolygon","coordinates":[[[[129.39266,35.96394],[129.39306,35.96364],[129.3931,35.96358],[129.39362,35.96257],[129.39362,35.96244],[129.39348,35.96097],[129.39344,35.96075],[129.39321,35.96022],[129.3923,35.95995],[129.38969,35.95696],[129.38763,35.95357],[129.38482,35.9501],[129.38229,35.94863],[129.38096,35.9462],[129.38023,35.94415],[129.37868,35.9431],[129.37704,35.94087],[129.37706,35.94004],[129.37705,35.93989],[129.37702,35.93974],[129.37683,35.9392],[129.37494,35.93511],[129.37428,35.93399],[129.37409,35.93371],[129.37385,35.93337],[129.3737,35.93318],[129.37363,35.93312],[129.37346,35.93297],[129.37334,35.93287],[129.36986,35.93025],[129.36977,35.93019],[129.36716,35.92985],[129.36702,35.92984],[129.36685,35.92989],[129.3639,35.92839],[129.36333,35.9243],[129.3629,35.921],[129.36295,35.92092],[129.36339,35.92033],[129.36356,35.92008],[129.36369,35.91988],[129.36383,35.91965],[129.36392,35.91948],[129.36393,35.91943],[129.36392,35.9194],[129.3639,35.91937],[129.36305,35.91896],[129.36269,35.9188],[129.36184,35.91851],[129.3612,35.91828],[129.36107,35.91825],[129.35877,35.91565],[129.35528,35.91162],[129.35515,35.91145],[129.35425,35.91034],[129.35421,35.91028],[129.35419,35.9102],[129.35418,35.91015],[129.35434,35.90819],[129.35295,35.90439],[129.3529,35.9043],[129.35282,35.90419],[129.35279,35.90413],[129.3527,35.90405],[129.3524,35.90384],[129.3517,35.90337],[129.35033,35.90258],[129.34984,35.90233],[129.3498,35.90233],[129.34974,35.90233],[129.34969,35.90235],[129.34952,35.90244],[129.34922,35.90261],[129.34903,35.9027],[129.34889,35.90272],[129.34875,35.90272],[129.34609,35.90272],[129.34589,35.90268],[129.34559,35.9026],[129.34453,35.90227],[129.34408,35.90208],[129.3439,35.90193],[129.34379,35.90183],[129.34372,35.90167],[129.34357,35.90095],[129.34355,35.90054],[129.34345,35.90006],[129.34332,35.89983],[129.34321,35.89969],[129.33999,35.89554],[129.33972,35.89537],[129.33831,35.89469],[129.33673,35.89623],[129.33573,35.8973],[129.33562,35.89744],[129.33431,35.89987],[129.33319,35.90223],[129.33366,35.903],[129.33442,35.90533],[129.33448,35.90556],[129.33383,35.90719],[129.33377,35.90755],[129.33376,35.9081],[129.33376,35.90853],[129.33385,35.90945],[129.33407,35.91115],[129.33413,35.91122],[129.33642,35.91511],[129.33658,35.91558],[129.33668,35.91597],[129.3367,35.91663],[129.33667,35.91696],[129.33658,35.91718],[129.33643,35.91745],[129.33305,35.92293],[129.33285,35.92321],[129.33172,35.92423],[129.33067,35.92507],[129.33002,35.92549],[129.32948,35.92585],[129.32945,35.9259],[129.32944,35.9262],[129.32951,35.9264],[129.3296,35.9266],[129.33114,35.92826],[129.33209,35.92862],[129.33218,35.92866],[129.33227,35.92871],[129.33304,35.92917],[129.33307,35.9292],[129.3331,35.92925],[129.33312,35.92932],[129.33315,35.92942],[129.33316,35.9295],[129.33318,35.92974],[129.33319,35.92982],[129.33317,35.92996],[129.33306,35.93051],[129.33305,35.93059],[129.33302,35.93066],[129.32955,35.93678],[129.32951,35.93683],[129.32789,35.93841],[129.32779,35.9385],[129.3276,35.93863],[129.32753,35.93867],[129.32744,35.93871],[129.32731,35.93875],[129.32711,35.93882],[129.32699,35.93886],[129.32685,35.93889],[129.32321,35.94058],[129.32071,35.94233],[129.31878,35.94378],[129.31737,35.94513],[129.31732,35.9452],[129.31669,35.94636],[129.31668,35.94642],[129.3175,35.94952],[129.31934,35.95606],[129.31984,35.95765],[129.32001,35.95807],[129.32035,35.95818],[129.32049,35.95823],[129.32059,35.95829],[129.32177,35.95911],[129.32186,35.95918],[129.32198,35.95932],[129.32207,35.95946],[129.32213,35.95959],[129.32218,35.95973],[129.32222,35.95992],[129.32225,35.96002],[129.32231,35.96022],[129.3224,35.96045],[129.32247,35.96064],[129.3225,35.96071],[129.32271,35.96083],[129.32305,35.961],[129.3232,35.96106],[129.32332,35.9611],[129.32362,35.96117],[129.32403,35.96123],[129.32654,35.96111],[129.3267,35.9611],[129.33091,35.96308],[129.33113,35.96318],[129.33426,35.96432],[129.33431,35.96433],[129.33774,35.96396],[129.34393,35.96592],[129.34408,35.96596],[129.34431,35.96599],[129.34444,35.966],[129.34455,35.966],[129.34636,35.96578],[129.3472,35.96558],[129.34743,35.96552],[129.34843,35.96537],[129.34849,35.96536],[129.34859,35.96537],[129.34866,35.96538],[129.35429,35.96819],[129.35446,35.96834],[129.35486,35.96903],[129.3545,35.96958],[129.35035,35.97431],[129.34887,35.97528],[129.34875,35.97534],[129.34866,35.97537],[129.34851,35.97539],[129.34638,35.9759],[129.3439,35.97654],[129.34381,35.97659],[129.34363,35.97667],[129.34069,35.97837],[129.34066,35.97841],[129.34064,35.97844],[129.34065,35.97847],[129.34069,35.97851],[129.34175,35.97904],[129.34182,35.97907],[129.34189,35.97909],[129.34195,35.9791],[129.34203,35.97911],[129.34215,35.97911],[129.34326,35.97908],[129.34789,35.97908],[129.34803,35.97908],[129.34894,35.97918],[129.34897,35.9792],[129.34982,35.98003],[129.34991,35.98018],[129.35,35.9803],[129.35035,35.98064],[129.35051,35.98076],[129.35067,35.98086],[129.35071,35.98088],[129.35082,35.98093],[129.35092,35.98097],[129.351,35.98099],[129.35115,35.98102],[129.35764,35.98177],[129.35995,35.98139],[129.35996,35.98135],[129.35996,35.98128],[129.35993,35.98101],[129.35991,35.9808],[129.35982,35.97978],[129.36048,35.97937],[129.36109,35.97935],[129.36116,35.97956],[129.36128,35.98044],[129.36129,35.98049],[129.36125,35.98101],[129.36122,35.98135],[129.36121,35.98145],[129.36117,35.98166],[129.36086,35.9825],[129.36067,35.98299],[129.35957,35.9857],[129.35859,35.98803],[129.35945,35.98804],[129.3601,35.98797],[129.36068,35.98786],[129.36126,35.98769],[129.3615,35.98755],[129.36124,35.98728],[129.36211,35.98656],[129.36232,35.98645],[129.36343,35.98609],[129.36381,35.98602],[129.36395,35.98609],[129.3642,35.98599],[129.36971,35.98214],[129.37001,35.98192],[129.37002,35.98186],[129.36999,35.98158],[129.36963,35.98111],[129.36907,35.9803],[129.36901,35.98016],[129.36883,35.9797],[129.36764,35.97654],[129.36777,35.9764],[129.3682,35.97599],[129.36877,35.9755],[129.36928,35.97513],[129.37006,35.97473],[129.37075,35.97456],[129.37161,35.97444],[129.37662,35.97435],[129.37659,35.97354],[129.37655,35.97298],[129.37646,35.97265],[129.37627,35.97228],[129.37581,35.97159],[129.3748,35.97011],[129.3741,35.96903],[129.37501,35.96858],[129.37937,35.96649],[129.38249,35.96514],[129.38589,35.96387],[129.3903,35.96382],[129.39266,35.96394]]]]}},{"type":"Feature","properties":{"code":"47111320","name":"동해면","parent":"47111"},"geometry":{"type":"MultiPolygon","coordinates":[[[[129.53788,36.02753],[129.53705,36.02725],[129.53669,36.0271],[129.53628,36.02692],[129.53362,36.02555],[129.5336,36.02552],[129.53201,36.02313],[129.5311,36.01679],[129.53112,36.0166],[129.53148,36.01547],[129.53195,36.01414],[129.53222,36.01373],[129.53254,36.01306],[129.53253,36.01288],[129.53248,36.01265],[129.53241,36.01252],[129.53234,36.01246],[129.52982,36.01087],[129.52962,36.01079],[129.52744,36.0114],[129.52412,36.01292],[129.5231,36.01365],[129.52093,36.01116],[129.52086,36.0111],[129.51977,36.01027],[129.51971,36.01023],[129.5196,36.01024],[129.51811,36.01016],[129.51543,36.00983],[129.51487,36.00917],[129.5123,36.00585],[129.51025,36.00237],[129.50895,36.00178],[129.50641,35.99929],[129.50615,35.99898],[129.50592,35.99869],[129.50573,35.99841],[129.5027,35.99286],[129.50242,35.99109],[129.5025,35.99063],[129.50253,35.9906],[129.50491,35.98996],[129.50627,35.98963],[129.50499,35.9877],[129.50591,35.98282],[129.50557,35.97645],[129.50554,35.97618],[129.50548,35.976],[129.50538,35.97584],[129.50423,35.97495],[129.50402,35.9748],[129.50397,35.97478],[129.50391,35.97475],[129.50302,35.97237],[129.50323,35.96889],[129.50337,35.96791],[129.50366,35.96598],[129.50427,35.96407],[129.50534,35.9624],[129.50587,35.96175],[129.50598,35.96163],[129.50659,35.96047],[129.50669,35.96022],[129.50673,35.95998],[129.50669,35.95955],[129.5066,35.95908],[129.50596,35.95609],[129.5048,35.95557],[129.50364,35.95663],[129.49631,35.95654],[129.49615,35.95647],[129.49568,35.95644],[129.49374,35.95638],[129.49194,35.95634],[129.49108,35.95641],[129.49039,35.9566],[129.4895,35.95708],[129.4874,35.95823],[129.48445,35.96055],[129.48336,35.96151],[129.48288,35.96242],[129.48193,35.96602],[129.48194,35.96642],[129.48227,35.96714],[129.48258,35.96771],[129.48279,35.96799],[129.48316,35.96974],[129.48246,35.97174],[129.48237,35.9718],[129.4822,35.97177],[129.48141,35.97165],[129.48064,35.97185],[129.47979,35.97227],[129.47843,35.97305],[129.47655,35.97395],[129.47618,35.97395],[129.47554,35.97455],[129.47544,35.97465],[129.47351,35.97576],[129.47331,35.9757],[129.4728,35.97557],[129.47271,35.97554],[129.47205,35.97528],[129.46533,35.97132],[129.46447,35.97025],[129.46382,35.9688],[129.46299,35.96757],[129.4606,35.96525],[129.4594,35.96227],[129.45945,35.96117],[129.4583,35.96052],[129.45478,35.95823],[129.45318,35.95627],[129.45219,35.95561],[129.45182,35.9555],[129.44629,35.9541],[129.44342,35.95394],[129.44324,35.95413],[129.442,35.95477],[129.44186,35.95485],[129.44179,35.95493],[129.44177,35.95498],[129.44176,35.9552],[129.44182,35.95545],[129.44215,35.95621],[129.44247,35.95663],[129.44025,35.96162],[129.44006,35.96482],[129.44078,35.9677],[129.44078,35.96778],[129.44007,35.96897],[129.43937,35.96997],[129.43907,35.97035],[129.43876,35.97063],[129.43849,35.97066],[129.43837,35.9706],[129.4383,35.97057],[129.43509,35.97191],[129.43015,35.97646],[129.42847,35.97864],[129.42891,35.97996],[129.4296,35.98062],[129.42874,35.9818],[129.4278,35.98318],[129.42774,35.98348],[129.42761,35.9844],[129.42763,35.98485],[129.42779,35.9854],[129.42789,35.98563],[129.42805,35.98597],[129.42948,35.98857],[129.42881,35.99046],[129.4303,35.99357],[129.43044,35.99386],[129.43198,35.99615],[129.43393,35.99571],[129.43961,35.99382],[129.44632,35.99184],[129.44794,35.99157],[129.45194,35.99167],[129.45499,35.99286],[129.45636,35.99339],[129.45761,35.996],[129.45756,35.99774],[129.45725,35.9981],[129.45553,36.0001],[129.459,36.00354],[129.46232,36.00426],[129.46501,36.0064],[129.46551,36.00714],[129.47092,36.01099],[129.47395,36.01312],[129.47587,36.01402],[129.47917,36.01557],[129.48164,36.01669],[129.48313,36.0169],[129.48612,36.01657],[129.48667,36.01665],[129.48828,36.01704],[129.49318,36.01895],[129.4953,36.02143],[129.49511,36.02266],[129.49521,36.02342],[129.49526,36.02386],[129.49777,36.02363],[129.50058,36.02462],[129.5029,36.02566],[129.50326,36.02622],[129.50333,36.02862],[129.50309,36.03108],[129.50322,36.03341],[129.50411,36.03672],[129.50682,36.03946],[129.50849,36.04066],[129.5105,36.04107],[129.5108,36.04126],[129.51088,36.04131],[129.51303,36.04267],[129.5156,36.04439],[129.51637,36.04648],[129.51776,36.04843],[129.51978,36.05124],[129.52143,36.05187],[129.5235,36.05452],[129.52667,36.05331],[129.52784,36.05329],[129.52794,36.05324],[129.52796,36.05312],[129.52828,36.05053],[129.53148,36.04816],[129.53201,36.04781],[129.5322,36.04763],[129.53251,36.04722],[129.53336,36.04497],[129.53474,36.04281],[129.53862,36.04085],[129.54059,36.04017],[129.54407,36.03957],[129.54545,36.03962],[129.54591,36.03962],[129.54625,36.03958],[129.54606,36.03902],[129.54461,36.03702],[129.54449,36.03688],[129.5436,36.03582],[129.54342,36.03564],[129.54148,36.03373],[129.53864,36.03131],[129.53847,36.03116],[129.53822,36.03093],[129.5379,36.03059],[129.53787,36.03046],[129.53788,36.02753]]]]}},{"type":"Feature","properties":{"code":"47111330","name":"장기면","parent":"47111"},"geometry":{"type":"MultiPolygon","coordinates":[[[[129.49039,35.9566],[129.48947,35.95462],[129.48944,35.95457],[129.48942,35.95451],[129.48941,35.95443],[129.48942,35.95437],[129.48943,35.95432],[129.49111,35.95248],[129.4912,35.95239],[129.49127,35.95236],[129.49145,35.95231],[129.49157,35.9523],[129.49295,35.95213],[129.49467,35.95181],[129.4981,35.95083],[129.49973,35.95035],[129.49994,35.95026],[129.50011,35.95014],[129.5008,35.94945],[129.50089,35.94934],[129.50093,35.94914],[129.50197,35.94272],[129.50214,35.9412],[129.50215,35.94096],[129.5022,35.94084],[129.50239,35.94064],[129.5028,35.94024],[129.50314,35.93994],[129.50332,35.93979],[129.50344,35.93974],[129.50358,35.93972],[129.50378,35.93972],[129.50689,35.93954],[129.50794,35.93804],[129.51297,35.93434],[129.513,35.93433],[129.51348,35.93433],[129.51372,35.93435],[129.51611,35.93457],[129.51629,35.9346],[129.5164,35.93468],[129.51666,35.935],[129.51698,35.93542],[129.52162,35.9369],[129.52176,35.93693],[129.52335,35.93711],[129.52347,35.93713],[129.5236,35.93713],[129.5238,35.93711],[129.52387,35.9371],[129.52399,35.93705],[129.52416,35.93697],[129.52603,35.93629],[129.52901,35.9353],[129.53015,35.93495],[129.52938,35.93405],[129.52973,35.93329],[129.53029,35.93269],[129.5307,35.93238],[129.53112,35.93187],[129.53032,35.93152],[129.52977,35.93144],[129.52772,35.93158],[129.52772,35.93185],[129.52774,35.93239],[129.52724,35.93317],[129.52645,35.93377],[129.52573,35.93399],[129.52429,35.93371],[129.52419,35.93369],[129.52323,35.93312],[129.52185,35.93207],[129.52115,35.93154],[129.51989,35.92949],[129.5189,35.92716],[129.51871,35.92487],[129.51867,35.9227],[129.51909,35.92011],[129.51985,35.9186],[129.52159,35.91746],[129.52259,35.91685],[129.5227,35.91684],[129.52279,35.91684],[129.52373,35.9168],[129.52438,35.91563],[129.5258,35.91109],[129.52603,35.90786],[129.52635,35.9073],[129.52652,35.90702],[129.52845,35.90511],[129.53267,35.90162],[129.53476,35.90015],[129.5363,35.90003],[129.53759,35.89971],[129.53739,35.89889],[129.53441,35.89857],[129.53293,35.8986],[129.52761,35.89746],[129.52589,35.89585],[129.52543,35.89379],[129.52527,35.89312],[129.5254,35.8906],[129.52558,35.88898],[129.52566,35.88833],[129.52854,35.88771],[129.53143,35.88683],[129.5314,35.88609],[129.52866,35.88206],[129.5282,35.87727],[129.52751,35.87722],[129.52702,35.88098],[129.52587,35.88119],[129.52358,35.88155],[129.52135,35.88166],[129.5205,35.88142],[129.51953,35.8798],[129.51928,35.87939],[129.519,35.87783],[129.51921,35.87458],[129.51999,35.87269],[129.52618,35.87156],[129.53018,35.87179],[129.53174,35.87244],[129.53403,35.87215],[129.53572,35.871],[129.53452,35.86824],[129.53073,35.86507],[129.52769,35.86357],[129.52745,35.86251],[129.52715,35.86115],[129.52723,35.85884],[129.52496,35.85261],[129.52254,35.85148],[129.52151,35.85037],[129.52038,35.84871],[129.5196,35.8445],[129.51866,35.84347],[129.51852,35.84332],[129.51844,35.84287],[129.51826,35.84194],[129.51802,35.84191],[129.51734,35.84182],[129.51677,35.84164],[129.51647,35.84145],[129.51636,35.84138],[129.51511,35.84049],[129.51471,35.84033],[129.51422,35.8402],[129.51277,35.83997],[129.51171,35.83995],[129.51109,35.84018],[129.51072,35.84039],[129.50733,35.84067],[129.50547,35.84056],[129.50479,35.84029],[129.50474,35.84027],[129.50388,35.8401],[129.50114,35.83985],[129.49892,35.84005],[129.49794,35.84068],[129.49483,35.84195],[129.49238,35.84285],[129.49037,35.84321],[129.48962,35.84353],[129.48765,35.84523],[129.48723,35.84565],[129.48459,35.8489],[129.48425,35.84968],[129.48378,35.85022],[129.48319,35.85068],[129.48008,35.85292],[129.47929,35.85295],[129.47656,35.85144],[129.47523,35.85034],[129.47474,35.84974],[129.47414,35.8496],[129.47244,35.84947],[129.46997,35.84971],[129.46972,35.84981],[129.46894,35.85022],[129.46811,35.85095],[129.46743,35.85085],[129.46599,35.84913],[129.46591,35.84904],[129.46416,35.84862],[129.46263,35.84854],[129.46189,35.84859],[129.46062,35.84877],[129.45929,35.8477],[129.45869,35.84713],[129.45819,35.84651],[129.45485,35.84676],[129.4517,35.84835],[129.45057,35.84912],[129.44924,35.85081],[129.44916,35.85091],[129.44909,35.85105],[129.44905,35.85121],[129.44902,35.85134],[129.44902,35.85139],[129.44901,35.85144],[129.44902,35.8516],[129.44902,35.85173],[129.44907,35.85186],[129.44909,35.85191],[129.44914,35.85201],[129.44965,35.85447],[129.44871,35.85665],[129.44742,35.85768],[129.44731,35.85771],[129.44634,35.8587],[129.44616,35.85892],[129.44611,35.85901],[129.44532,35.86355],[129.4453,35.8637],[129.44532,35.86378],[129.44539,35.86389],[129.44546,35.86399],[129.44454,35.86677],[129.44307,35.86729],[129.4429,35.86737],[129.44085,35.86886],[129.44079,35.86895],[129.4407,35.86912],[129.43805,35.87404],[129.43706,35.87512],[129.43702,35.87518],[129.43705,35.87526],[129.4373,35.87563],[129.43755,35.87602],[129.43761,35.87612],[129.43768,35.87634],[129.43767,35.8764],[129.43754,35.8774],[129.43752,35.87748],[129.43723,35.87838],[129.43719,35.87849],[129.43707,35.87868],[129.43687,35.87896],[129.43665,35.87923],[129.43655,35.87934],[129.43648,35.87939],[129.43481,35.88015],[129.4346,35.88025],[129.4345,35.88027],[129.43441,35.88028],[129.43435,35.88028],[129.43425,35.88018],[129.43402,35.87999],[129.43389,35.87991],[129.43376,35.8799],[129.43248,35.87996],[129.43222,35.88],[129.43189,35.88007],[129.4314,35.88021],[129.42987,35.88064],[129.42769,35.88304],[129.42552,35.88395],[129.42142,35.88399],[129.42137,35.88403],[129.42129,35.88411],[129.42121,35.88421],[129.42111,35.8844],[129.4209,35.88485],[129.42075,35.88519],[129.42074,35.88533],[129.42075,35.88559],[129.42077,35.88593],[129.42081,35.88624],[129.42085,35.88649],[129.42089,35.88669],[129.42098,35.88693],[129.42105,35.88716],[129.42108,35.88726],[129.42107,35.88741],[129.42103,35.88758],[129.41987,35.89016],[129.41983,35.89025],[129.41879,35.8928],[129.42019,35.89683],[129.4209,35.89866],[129.4209,35.89873],[129.42087,35.89882],[129.42077,35.89901],[129.42036,35.90054],[129.42008,35.90213],[129.42006,35.90225],[129.42062,35.90479],[129.42066,35.90484],[129.42209,35.90649],[129.42233,35.90671],[129.4227,35.907],[129.42283,35.90709],[129.42307,35.9072],[129.425,35.9079],[129.4267,35.90835],[129.42919,35.91022],[129.42935,35.91058],[129.42962,35.91144],[129.42966,35.91168],[129.42968,35.9119],[129.4296,35.91211],[129.42946,35.91244],[129.42934,35.91257],[129.42767,35.91333],[129.42745,35.91341],[129.42706,35.91349],[129.42669,35.9135],[129.42629,35.9135],[129.42614,35.9135],[129.42591,35.91354],[129.42409,35.91402],[129.42386,35.91408],[129.42341,35.91434],[129.42059,35.9165],[129.41641,35.91993],[129.41637,35.91996],[129.41677,35.92027],[129.42181,35.92362],[129.4244,35.92405],[129.4249,35.92497],[129.42542,35.92675],[129.42543,35.92706],[129.42547,35.92718],[129.42564,35.92735],[129.42846,35.9292],[129.43121,35.92978],[129.43127,35.9298],[129.43131,35.92983],[129.43141,35.92992],[129.4341,35.93277],[129.43424,35.93293],[129.43429,35.93305],[129.43454,35.93367],[129.43457,35.93376],[129.4346,35.93388],[129.4346,35.93394],[129.43457,35.934],[129.43453,35.93403],[129.43446,35.93405],[129.43436,35.93407],[129.43426,35.93409],[129.43416,35.93414],[129.43401,35.93423],[129.43394,35.93429],[129.43392,35.93435],[129.4339,35.93441],[129.43391,35.9349],[129.43398,35.93521],[129.43419,35.93596],[129.43425,35.93609],[129.43431,35.93621],[129.43447,35.93639],[129.43611,35.93827],[129.43859,35.94161],[129.43868,35.94176],[129.4394,35.94329],[129.43942,35.94341],[129.43942,35.94347],[129.43939,35.94361],[129.43935,35.9438],[129.43925,35.94421],[129.43916,35.94454],[129.43908,35.94468],[129.43904,35.94475],[129.43894,35.94485],[129.43884,35.94494],[129.43867,35.94509],[129.43861,35.94515],[129.43858,35.94524],[129.43855,35.94533],[129.43832,35.94745],[129.43832,35.94772],[129.43835,35.94801],[129.4384,35.94828],[129.43845,35.94854],[129.439,35.95073],[129.43908,35.951],[129.4392,35.9513],[129.43941,35.95182],[129.43946,35.95193],[129.43954,35.95205],[129.43968,35.9522],[129.43983,35.95236],[129.43998,35.95248],[129.44012,35.95256],[129.44324,35.95413],[129.44342,35.95394],[129.44629,35.9541],[129.45182,35.9555],[129.45219,35.95561],[129.45318,35.95627],[129.45478,35.95823],[129.4583,35.96052],[129.45945,35.96117],[129.4594,35.96227],[129.4606,35.96525],[129.46299,35.96757],[129.46382,35.9688],[129.46447,35.97025],[129.46533,35.97132],[129.47205,35.97528],[129.47271,35.97554],[129.4728,35.97557],[129.47331,35.9757],[129.47351,35.97576],[129.47544,35.97465],[129.47554,35.97455],[129.47618,35.97395],[129.47655,35.97395],[129.47843,35.97305],[129.47979,35.97227],[129.48064,35.97185],[129.48141,35.97165],[129.4822,35.97177],[129.48237,35.9718],[129.48246,35.97174],[129.48316,35.96974],[129.48279,35.96799],[129.48258,35.96771],[129.48227,35.96714],[129.48194,35.96642],[129.48193,35.96602],[129.48288,35.96242],[129.48336,35.96151],[129.48445,35.96055],[129.4874,35.95823],[129.4895,35.95708],[129.49039,35.9566]]]]}},{"type":"Feature","properties":{"code":"47111350","name":"호미곶면","parent":"47111"},"geometry":{"type":"MultiPolygon","coordinates":[[[[129.57823,36.03234],[129.57792,36.03219],[129.57684,36.03169],[129.57643,36.03153],[129.57408,36.03084],[129.57397,36.03082],[129.57362,36.03084],[129.57332,36.03087],[129.57153,36.03108],[129.57147,36.03111],[129.57136,36.03119],[129.5713,36.03128],[129.57064,36.03231],[129.57007,36.03299],[129.56815,36.03308],[129.56613,36.03229],[129.56464,36.03168],[129.56156,36.03061],[129.5568,36.02978],[129.55496,36.03051],[129.55461,36.03071],[129.55445,36.03076],[129.55408,36.0308],[129.55365,36.03083],[129.54634,36.03073],[129.54613,36.03072],[129.54568,36.0306],[129.54537,36.03048],[129.54509,36.03037],[129.54494,36.03028],[129.5446,36.02981],[129.54399,36.02888],[129.54398,36.02845],[129.544,36.02826],[129.54397,36.02809],[129.54358,36.0274],[129.54346,36.02726],[129.54333,36.02715],[129.54298,36.02695],[129.54285,36.02693],[129.54257,36.02691],[129.54221,36.0269],[129.54194,36.02691],[129.53927,36.02716],[129.53896,36.02721],[129.53796,36.02749],[129.53788,36.02753],[129.53787,36.03046],[129.5379,36.03059],[129.53822,36.03093],[129.53847,36.03116],[129.53864,36.03131],[129.54148,36.03373],[129.54342,36.03564],[129.5436,36.03582],[129.54449,36.03688],[129.54461,36.03702],[129.54606,36.03902],[129.54625,36.03958],[129.54591,36.03962],[129.54545,36.03962],[129.54407,36.03957],[129.54059,36.04017],[129.53862,36.04085],[129.53474,36.04281],[129.53336,36.04497],[129.53251,36.04722],[129.5322,36.04763],[129.53201,36.04781],[129.53148,36.04816],[129.52828,36.05053],[129.52796,36.05312],[129.52794,36.05324],[129.52784,36.05329],[129.52667,36.05331],[129.5235,36.05452],[129.52338,36.0546],[129.52284,36.05511],[129.52281,36.05515],[129.52278,36.05521],[129.52274,36.05538],[129.52273,36.05544],[129.52273,36.05551],[129.52274,36.05554],[129.52277,36.05563],[129.5228,36.05568],[129.52454,36.05744],[129.5251,36.05794],[129.52576,36.05823],[129.52581,36.05825],[129.52622,36.0583],[129.52634,36.05829],[129.5297,36.05727],[129.52976,36.05723],[129.53003,36.05691],[129.53006,36.05686],[129.53007,36.05679],[129.53007,36.05667],[129.53018,36.05662],[129.53047,36.05657],[129.53064,36.05654],[129.53082,36.05656],[129.53101,36.05659],[129.53127,36.05666],[129.53148,36.05674],[129.53169,36.05684],[129.53291,36.05742],[129.53304,36.05749],[129.53312,36.05754],[129.53322,36.05764],[129.5333,36.05773],[129.5334,36.05792],[129.53347,36.05807],[129.53352,36.05821],[129.53354,36.05841],[129.53356,36.05859],[129.53355,36.05863],[129.53343,36.05961],[129.53341,36.0597],[129.53339,36.05977],[129.53336,36.05981],[129.53333,36.05985],[129.53328,36.05988],[129.53373,36.06195],[129.53807,36.06606],[129.53824,36.06606],[129.53839,36.06607],[129.53852,36.06608],[129.53884,36.06614],[129.53898,36.06618],[129.53913,36.06623],[129.53924,36.06627],[129.5393,36.0663],[129.53949,36.06643],[129.53962,36.06653],[129.53973,36.06664],[129.53981,36.06674],[129.54047,36.06769],[129.54052,36.06923],[129.54053,36.07051],[129.54029,36.07173],[129.54027,36.07182],[129.54026,36.07193],[129.54027,36.07199],[129.54029,36.07205],[129.54039,36.07238],[129.54041,36.07245],[129.54047,36.07258],[129.5406,36.07282],[129.54067,36.07295],[129.54074,36.07305],[129.54081,36.07314],[129.54092,36.07325],[129.54097,36.07329],[129.54224,36.07411],[129.5423,36.07414],[129.54273,36.07435],[129.5429,36.07441],[129.54311,36.07447],[129.54324,36.0745],[129.5436,36.07455],[129.54377,36.07457],[129.54386,36.07457],[129.54392,36.07456],[129.54404,36.07449],[129.54409,36.07449],[129.54413,36.07452],[129.54429,36.07463],[129.54435,36.07468],[129.54494,36.07556],[129.54528,36.07608],[129.54531,36.07614],[129.54536,36.07625],[129.54539,36.07636],[129.54581,36.07805],[129.54581,36.07974],[129.54578,36.08177],[129.54573,36.08369],[129.54572,36.08378],[129.54709,36.08518],[129.54726,36.08528],[129.54742,36.08536],[129.54752,36.08539],[129.54944,36.08596],[129.5495,36.08598],[129.54958,36.08598],[129.54963,36.08596],[129.5507,36.08513],[129.55198,36.08442],[129.55544,36.08607],[129.55547,36.08609],[129.55554,36.08609],[129.55557,36.08608],[129.55563,36.08605],[129.55634,36.08561],[129.55728,36.08528],[129.55909,36.0837],[129.55916,36.08364],[129.55922,36.08357],[129.55928,36.08347],[129.5593,36.08343],[129.55931,36.08337],[129.55931,36.08332],[129.55926,36.08322],[129.55915,36.08301],[129.55901,36.08273],[129.55894,36.08256],[129.55892,36.08249],[129.55892,36.08242],[129.55893,36.08231],[129.55895,36.08218],[129.55898,36.0821],[129.55984,36.07991],[129.56117,36.07886],[129.56195,36.0783],[129.56309,36.07866],[129.56482,36.0791],[129.56493,36.07913],[129.56498,36.07914],[129.56503,36.07914],[129.56956,36.07916],[129.56959,36.07916],[129.56965,36.07913],[129.56973,36.07907],[129.56978,36.07901],[129.5699,36.0788],[129.57037,36.07786],[129.57039,36.07781],[129.57042,36.07329],[129.56898,36.06925],[129.56862,36.06864],[129.57091,36.06647],[129.57303,36.06609],[129.57663,36.05775],[129.57728,36.05499],[129.57735,36.05209],[129.57717,36.04942],[129.5772,36.04924],[129.57726,36.04912],[129.57733,36.04903],[129.57745,36.0489],[129.57757,36.04882],[129.57763,36.04881],[129.57867,36.04884],[129.57877,36.04886],[129.57885,36.04891],[129.57902,36.04904],[129.57911,36.04914],[129.57932,36.04931],[129.57943,36.04937],[129.57951,36.04941],[129.57962,36.04942],[129.57972,36.04941],[129.58218,36.0483],[129.58227,36.04825],[129.58241,36.04815],[129.5826,36.04799],[129.58271,36.04781],[129.58364,36.04632],[129.58367,36.04626],[129.58368,36.04617],[129.58365,36.04591],[129.58362,36.04575],[129.58357,36.04565],[129.58353,36.04561],[129.58324,36.04534],[129.58304,36.04518],[129.58265,36.04509],[129.58231,36.045],[129.58226,36.04498],[129.58217,36.04493],[129.58205,36.04483],[129.58177,36.04457],[129.58172,36.04451],[129.58142,36.04413],[129.57903,36.04018],[129.579,36.04013],[129.57884,36.0397],[129.57882,36.0396],[129.57883,36.03933],[129.57894,36.03914],[129.57953,36.03849],[129.57957,36.03846],[129.57963,36.03845],[129.57972,36.03845],[129.57976,36.03849],[129.57979,36.03853],[129.58004,36.03861],[129.58044,36.03873],[129.58054,36.03874],[129.5806,36.03874],[129.58071,36.03869],[129.5808,36.03863],[129.58146,36.03809],[129.58149,36.03803],[129.5815,36.03796],[129.58158,36.03719],[129.58159,36.03708],[129.5812,36.03642],[129.58116,36.03639],[129.58109,36.03636],[129.57971,36.03598],[129.57956,36.03594],[129.57932,36.03588],[129.57917,36.03586],[129.57907,36.03584],[129.57898,36.03584],[129.57879,36.0358],[129.57856,36.03576],[129.57845,36.03573],[129.57835,36.0357],[129.57805,36.03559],[129.57799,36.03557],[129.57767,36.03524],[129.57753,36.03509],[129.57746,36.03498],[129.57744,36.03494],[129.57743,36.03491],[129.57742,36.03487],[129.57724,36.03385],[129.57723,36.03376],[129.57727,36.03354],[129.57731,36.03333],[129.57739,36.03313],[129.57748,36.03295],[129.57764,36.03272],[129.5778,36.03256],[129.5779,36.03246],[129.57799,36.03241],[129.57808,36.03237],[129.57823,36.03234]]]]}},{"type":"Feature","properties":{"code":"47111550","name":"송도동","parent":"47111"},"geometry":{"type":"MultiPolygon","coordinates":[[[[129.38405,36.02982],[129.38248,36.0284],[129.38211,36.02771],[129.37997,36.02368],[129.37755,36.0243],[129.37682,36.02392],[129.37644,36.02386],[129.37556,36.02371],[129.37538,36.02435],[129.37527,36.02476],[129.37512,36.02532],[129.37502,36.02568],[129.37487,36.0262],[129.37563,36.02636],[129.37622,36.02662],[129.37604,36.02689],[129.37572,36.02736],[129.37555,36.02762],[129.37531,36.02799],[129.37514,36.02823],[129.37496,36.0285],[129.37288,36.03156],[129.3727,36.03182],[129.3717,36.03307],[129.37155,36.03314],[129.37025,36.0369],[129.3704,36.03684],[129.37082,36.03686],[129.3709,36.03719],[129.3712,36.03846],[129.37171,36.0406],[129.37211,36.04226],[129.37154,36.04264],[129.37202,36.04449],[129.37234,36.0457],[129.37257,36.04658],[129.37368,36.04956],[129.37622,36.05003],[129.37711,36.0468],[129.37679,36.04672],[129.37777,36.04611],[129.37723,36.04371],[129.37719,36.04256],[129.37735,36.0414],[129.37955,36.03663],[129.38039,36.03528],[129.38116,36.03445],[129.38134,36.03423],[129.38262,36.03245],[129.38324,36.03135],[129.38405,36.02982]]]]}},{"type":"Feature","properties":{"code":"47111560","name":"청림동","parent":"47111"},"geometry":{"type":"MultiPolygon","coordinates":[[[[129.43198,35.99615],[129.43044,35.99386],[129.4303,35.99357],[129.42881,35.99046],[129.42948,35.98857],[129.42805,35.98597],[129.42789,35.98563],[129.42779,35.9854],[129.42763,35.98485],[129.42761,35.9844],[129.42774,35.98348],[129.4278,35.98318],[129.42874,35.9818],[129.4296,35.98062],[129.42874,35.98044],[129.42333,35.9791],[129.42187,35.97867],[129.42069,35.97882],[129.41896,35.97935],[129.41628,35.98045],[129.41605,35.98066],[129.41445,35.98242],[129.41353,35.98484],[129.41276,35.98706],[129.41216,35.98769],[129.4117,35.98794],[129.41128,35.98812],[129.41068,35.98772],[129.41028,35.98724],[129.40972,35.98653],[129.4086,35.98619],[129.40819,35.98623],[129.40732,35.98669],[129.40638,35.98716],[129.40581,35.98724],[129.40566,35.98725],[129.40478,35.98655],[129.40409,35.98703],[129.40215,35.98845],[129.40171,35.98931],[129.40111,35.99049],[129.40111,35.99113],[129.40111,35.99128],[129.40111,35.99145],[129.40111,35.99208],[129.40154,35.99296],[129.40279,35.99556],[129.40315,35.99631],[129.40551,35.99794],[129.40983,36.00067],[129.41026,36.00095],[129.41125,36.0016],[129.41436,36.00361],[129.41634,36.00568],[129.41903,36.00429],[129.42024,36.00366],[129.42136,36.00188],[129.42155,36.00159],[129.42141,36.00122],[129.42341,35.99995],[129.42403,35.99957],[129.42688,35.9982],[129.42827,35.99759],[129.43012,35.99683],[129.43198,35.99615]]]]}},{"type":"Feature","properties":{"code":"47111570","name":"제철동","parent":"47111"},"geometry":{"type":"MultiPolygon","coordinates":[[[[129.41634,36.00568],[129.41436,36.00361],[129.41125,36.0016],[129.41026,36.00095],[129.40983,36.00067],[129.40551,35.99794],[129.40315,35.99631],[129.40279,35.99556],[129.40154,35.99296],[129.40111,35.99208],[129.40111,35.99145],[129.40111,35.99128],[129.40111,35.99113],[129.40111,35.99049],[129.40171,35.98931],[129.40215,35.98845],[129.40409,35.98703],[129.40478,35.98655],[129.40819,35.98441],[129.40838,35.98428],[129.40898,35.98373],[129.409,35.98363],[129.40902,35.98352],[129.40842,35.98295],[129.40214,35.98175],[129.40184,35.98172],[129.39951,35.98222],[129.39932,35.98227],[129.39874,35.98268],[129.39785,35.98339],[129.3961,35.98115],[129.39606,35.97937],[129.39387,35.97709],[129.39127,35.97505],[129.39046,35.97228],[129.39014,35.96991],[129.39076,35.96543],[129.39266,35.96394],[129.3903,35.96382],[129.38589,35.96387],[129.38249,35.96514],[129.37937,35.96649],[129.37501,35.96858],[129.3741,35.96903],[129.3748,35.97011],[129.37581,35.97159],[129.37627,35.97228],[129.37646,35.97265],[129.37655,35.97298],[129.37659,35.97354],[129.37662,35.97435],[129.37161,35.97444],[129.37075,35.97456],[129.37006,35.97473],[129.36928,35.97513],[129.36877,35.9755],[129.3682,35.97599],[129.36777,35.9764],[129.36764,35.97654],[129.36883,35.9797],[129.36901,35.98016],[129.36907,35.9803],[129.36963,35.98111],[129.36999,35.98158],[129.37002,35.98186],[129.37001,35.98192],[129.36971,35.98214],[129.3642,35.98599],[129.36395,35.98609],[129.36381,35.98602],[129.36343,35.98609],[129.36232,35.98645],[129.36211,35.98656],[129.36124,35.98728],[129.3615,35.98755],[129.36126,35.98769],[129.36068,35.98786],[129.3601,35.98797],[129.35945,35.98804],[129.35859,35.98803],[129.35853,35.98837],[129.35841,35.98931],[129.35845,35.99025],[129.35872,35.99115],[129.36229,35.99884],[129.36248,35.99918],[129.36301,36.0001],[129.36422,36.00201],[129.36511,36.00295],[129.36642,36.00447],[129.36733,36.00554],[129.36783,36.00701],[129.36866,36.00771],[129.37356,36.01079],[129.3736,36.01081],[129.37573,36.01306],[129.37676,36.01415],[129.37725,36.01589],[129.3775,36.01675],[129.37759,36.01701],[129.37815,36.01869],[129.37822,36.0189],[129.37846,36.01963],[129.37997,36.02368],[129.38211,36.02771],[129.38248,36.0284],[129.38405,36.02982],[129.38865,36.03175],[129.39027,36.02851],[129.39101,36.02806],[129.39278,36.02656],[129.39409,36.02606],[129.40817,36.02958],[129.40769,36.02887],[129.40075,36.02111],[129.39886,36.02082],[129.39663,36.02043],[129.39594,36.01968],[129.39168,36.01208],[129.39446,36.01078],[129.39846,36.01424],[129.40187,36.01379],[129.40491,36.01443],[129.40683,36.01369],[129.40454,36.01112],[129.40592,36.01011],[129.4075,36.0091],[129.40972,36.01075],[129.40997,36.01499],[129.41168,36.015],[129.41196,36.01233],[129.41688,36.01228],[129.41709,36.01077],[129.41631,36.00571],[129.41634,36.00568]]]]}},{"type":"Feature","properties":{"code":"47111580","name":"효곡동","parent":"47111"},"geometry":{"type":"MultiPolygon","coordinates":[[[[129.34305,36.00722],[129.34482,36.00641],[129.34503,36.00569],[129.34501,36.00555],[129.34479,36.00402],[129.34447,36.00202],[129.34178,36.00229],[129.34023,36.00246],[129.3402,36.00247],[129.34009,36.00251],[129.34001,36.00254],[129.33988,36.00259],[129.33974,36.00267],[129.33961,36.00274],[129.33942,36.00286],[129.33937,36.00289],[129.33931,36.00294],[129.33924,36.00299],[129.3392,36.00302],[129.33913,36.00308],[129.33905,36.00312],[129.33887,36.0032],[129.33869,36.00327],[129.33848,36.00334],[129.33812,36.00343],[129.33799,36.00346],[129.33789,36.00349],[129.3378,36.0035],[129.33712,36.00357],[129.33175,36.00378],[129.33152,36.00379],[129.33078,36.0038],[129.33058,36.00381],[129.32834,36.00378],[129.3276,36.00377],[129.32731,36.00376],[129.32689,36.00374],[129.32658,36.0037],[129.32511,36.00353],[129.32428,36.00324],[129.32343,36.00664],[129.32205,36.00806],[129.32193,36.00807],[129.32184,36.00807],[129.32178,36.00809],[129.32171,36.00811],[129.32162,36.00816],[129.32155,36.0082],[129.32148,36.00824],[129.32143,36.00828],[129.31785,36.01151],[129.31776,36.01159],[129.31753,36.01198],[129.31748,36.01205],[129.31748,36.01209],[129.31763,36.01382],[129.31815,36.01479],[129.31725,36.01694],[129.31722,36.017],[129.31712,36.01711],[129.31645,36.01766],[129.3161,36.0179],[129.316,36.01797],[129.31594,36.01799],[129.31584,36.018],[129.31574,36.01799],[129.31565,36.01799],[129.31552,36.01802],[129.31535,36.01807],[129.31522,36.01813],[129.31512,36.01819],[129.31487,36.01835],[129.31316,36.01951],[129.31302,36.01963],[129.3129,36.01975],[129.31053,36.02229],[129.31047,36.02238],[129.31042,36.02249],[129.3104,36.02257],[129.31031,36.0259],[129.31035,36.0265],[129.31047,36.02785],[129.31049,36.02792],[129.31135,36.02848],[129.31141,36.02851],[129.31203,36.02885],[129.3124,36.02952],[129.31255,36.02979],[129.31264,36.03156],[129.31255,36.03216],[129.31237,36.03327],[129.31207,36.03414],[129.31168,36.03545],[129.31234,36.037],[129.31299,36.03812],[129.3178,36.03807],[129.31758,36.03667],[129.32117,36.03549],[129.32175,36.0353],[129.32282,36.03503],[129.32444,36.03474],[129.32583,36.03459],[129.32707,36.03448],[129.32781,36.03435],[129.32827,36.03427],[129.32917,36.03401],[129.32956,36.03382],[129.32944,36.03283],[129.3303,36.02799],[129.33145,36.02254],[129.33162,36.01715],[129.33161,36.01707],[129.33159,36.01701],[129.33156,36.01694],[129.33152,36.01683],[129.33149,36.01679],[129.3314,36.01675],[129.33082,36.01643],[129.33012,36.01589],[129.3299,36.01571],[129.32909,36.01468],[129.32907,36.0146],[129.32906,36.01449],[129.32905,36.01425],[129.32905,36.01417],[129.32909,36.01413],[129.33053,36.01293],[129.33238,36.01147],[129.33241,36.01146],[129.33368,36.01082],[129.33399,36.01074],[129.33419,36.0107],[129.33614,36.01063],[129.33895,36.01002],[129.34012,36.0085],[129.34106,36.00805],[129.343,36.00714],[129.34305,36.00722]]]]}},{"type":"Feature","properties":{"code":"47111590","name":"대이동","parent":"47111"},"geometry":{"type":"MultiPolygon","coordinates":[[[[129.33156,36.04266],[129.33207,36.04229],[129.33482,36.04101],[129.33612,36.03742],[129.33844,36.03176],[129.339,36.03051],[129.34076,36.03023],[129.34318,36.02833],[129.34404,36.02737],[129.34475,36.02622],[129.34524,36.02536],[129.34626,36.02335],[129.34627,36.02097],[129.3464,36.02019],[129.34653,36.0195],[129.34702,36.01919],[129.34757,36.01885],[129.34773,36.01876],[129.34779,36.01872],[129.35033,36.01705],[129.34898,36.01534],[129.34775,36.01379],[129.34844,36.01341],[129.34636,36.01077],[129.34623,36.01061],[129.34305,36.00722],[129.343,36.00714],[129.34106,36.00805],[129.34012,36.0085],[129.33895,36.01002],[129.33614,36.01063],[129.33419,36.0107],[129.33399,36.01074],[129.33368,36.01082],[129.33241,36.01146],[129.33238,36.01147],[129.33053,36.01293],[129.32909,36.01413],[129.32905,36.01417],[129.32905,36.01425],[129.32906,36.01449],[129.32907,36.0146],[129.32909,36.01468],[129.3299,36.01571],[129.33012,36.01589],[129.33082,36.01643],[129.3314,36.01675],[129.33149,36.01679],[129.33152,36.01683],[129.33156,36.01694],[129.33159,36.01701],[129.33161,36.01707],[129.33162,36.01715],[129.33145,36.02254],[129.3303,36.02799],[129.32944,36.03283],[129.32956,36.03382],[129.32917,36.03401],[129.32827,36.03427],[129.32781,36.03435],[129.32707,36.03448],[129.32583,36.03459],[129.32444,36.03474],[129.32282,36.03503],[129.32175,36.0353],[129.32117,36.03549],[129.31758,36.03667],[129.3178,36.03807],[129.31299,36.03812],[129.31335,36.03874],[129.31468,36.0393],[129.31514,36.03923],[129.31647,36.03952],[129.31682,36.04053],[129.3169,36.0409],[129.31583,36.04318],[129.31528,36.04383],[129.31683,36.04389],[129.31848,36.04383],[129.31991,36.04359],[129.32084,36.04338],[129.32167,36.043],[129.32341,36.04201],[129.33156,36.04266]]]]}},{"type":"Feature","properties":{"code":"47111525","name":"상대동","parent":"47111"},"geometry":{"type":"MultiPolygon","coordinates":[[[[129.36866,36.00771],[129.36783,36.00701],[129.3627,36.00486],[129.36165,36.00429],[129.36102,36.00399],[129.35992,36.00348],[129.35869,36.00299],[129.35649,36.00218],[129.35615,36.00206],[129.35584,36.00199],[129.35577,36.00197],[129.35554,36.00194],[129.35136,36.00168],[129.34901,36.00161],[129.34822,36.0016],[129.34771,36.00163],[129.34447,36.00202],[129.34479,36.00402],[129.34501,36.00555],[129.34503,36.00569],[129.34482,36.00641],[129.34305,36.00722],[129.34623,36.01061],[129.34636,36.01077],[129.34844,36.01341],[129.34775,36.01379],[129.34898,36.01534],[129.34969,36.01498],[129.35122,36.01417],[129.35398,36.01513],[129.35752,36.01805],[129.3585,36.01894],[129.36051,36.02126],[129.3608,36.02163],[129.36123,36.02218],[129.36076,36.02241],[129.36094,36.02559],[129.36121,36.02637],[129.36124,36.02644],[129.36138,36.02658],[129.36171,36.02694],[129.36207,36.02724],[129.36566,36.02795],[129.366,36.02689],[129.36703,36.02539],[129.3683,36.02395],[129.36831,36.02392],[129.36806,36.0217],[129.36681,36.02087],[129.36691,36.02044],[129.36694,36.02033],[129.36699,36.02016],[129.36706,36.01979],[129.36731,36.01768],[129.36726,36.01528],[129.3669,36.01264],[129.36643,36.01174],[129.36625,36.01142],[129.36579,36.01131],[129.36598,36.01088],[129.36719,36.00878],[129.36729,36.00871],[129.36731,36.00869],[129.36866,36.00771]]]]}},{"type":"Feature","properties":{"code":"47111545","name":"해도동","parent":"47111"},"geometry":{"type":"MultiPolygon","coordinates":[[[[129.37997,36.02368],[129.37846,36.01963],[129.37822,36.0189],[129.37815,36.01869],[129.37759,36.01701],[129.3775,36.01675],[129.37725,36.01589],[129.37676,36.01415],[129.37573,36.01306],[129.3736,36.01081],[129.37356,36.01079],[129.36866,36.00771],[129.36731,36.00869],[129.36729,36.00871],[129.36719,36.00878],[129.36598,36.01088],[129.36579,36.01131],[129.36625,36.01142],[129.36643,36.01174],[129.3669,36.01264],[129.36726,36.01528],[129.36731,36.01768],[129.36706,36.01979],[129.36699,36.02016],[129.36694,36.02033],[129.36691,36.02044],[129.36681,36.02087],[129.36806,36.0217],[129.36831,36.02392],[129.3683,36.02395],[129.36703,36.02539],[129.366,36.02689],[129.36566,36.02795],[129.36803,36.02839],[129.36807,36.02841],[129.3682,36.02846],[129.36831,36.02852],[129.36845,36.0286],[129.36858,36.02878],[129.36867,36.02901],[129.36879,36.0293],[129.36904,36.02991],[129.36905,36.02995],[129.36909,36.03004],[129.36919,36.03029],[129.36945,36.03093],[129.36972,36.03158],[129.36979,36.03166],[129.3703,36.0322],[129.37066,36.03259],[129.3709,36.03279],[129.37155,36.03314],[129.3717,36.03307],[129.3727,36.03182],[129.37288,36.03156],[129.37496,36.0285],[129.37514,36.02823],[129.37531,36.02799],[129.37555,36.02762],[129.37572,36.02736],[129.37604,36.02689],[129.37622,36.02662],[129.37563,36.02636],[129.37487,36.0262],[129.37502,36.02568],[129.37512,36.02532],[129.37527,36.02476],[129.37538,36.02435],[129.37556,36.02371],[129.37644,36.02386],[129.37682,36.02392],[129.37755,36.0243],[129.37997,36.02368]]]]}}]}