{"type":"FeatureCollection","features":[{"type":"Feature","properties":{"code":"12820250","name":"함평읍","parent":"12820"},"geometry":{"type":"MultiPolygon","coordinates":[[[[126.49132,35.1146],[126.49165,35.11379],[126.49149,35.11295],[126.49133,35.11243],[126.49098,35.11138],[126.49016,35.11138],[126.49015,35.11115],[126.49003,35.10584],[126.49004,35.1058],[126.49008,35.10578],[126.49256,35.10504],[126.49397,35.10483],[126.49415,35.10488],[126.49426,35.1049],[126.49436,35.10489],[126.49454,35.10483],[126.49561,35.10425],[126.4958,35.10411],[126.49728,35.1029],[126.49761,35.10263],[126.49774,35.10249],[126.49782,35.10234],[126.49785,35.10225],[126.49789,35.10212],[126.49841,35.10049],[126.49855,35.09985],[126.49858,35.09964],[126.49858,35.09952],[126.49857,35.09931],[126.49856,35.09928],[126.49852,35.09906],[126.50071,35.09686],[126.50242,35.09646],[126.50316,35.09627],[126.50508,35.09571],[126.5053,35.09563],[126.50557,35.09553],[126.50579,35.0954],[126.50602,35.09524],[126.50626,35.09505],[126.50631,35.09442],[126.50627,35.09391],[126.5058,35.09322],[126.50551,35.09252],[126.50524,35.0899],[126.50529,35.0891],[126.50686,35.08913],[126.50714,35.08913],[126.50785,35.08734],[126.50918,35.08441],[126.50948,35.08375],[126.50964,35.08344],[126.5099,35.08306],[126.51015,35.08271],[126.51149,35.08096],[126.51186,35.08053],[126.5121,35.08027],[126.51234,35.08006],[126.51262,35.07983],[126.51287,35.07963],[126.51694,35.07672],[126.51719,35.07654],[126.51757,35.07632],[126.51763,35.07629],[126.51771,35.07625],[126.51842,35.07622],[126.51972,35.07618],[126.52288,35.07615],[126.52296,35.07776],[126.52625,35.0793],[126.52649,35.07939],[126.52678,35.07944],[126.52706,35.07946],[126.52718,35.07945],[126.52724,35.0794],[126.52998,35.07461],[126.52991,35.07158],[126.52915,35.06918],[126.52926,35.06795],[126.5294,35.06767],[126.53015,35.06576],[126.53073,35.06338],[126.53138,35.05547],[126.53138,35.05474],[126.53131,35.05393],[126.53125,35.0536],[126.53118,35.05327],[126.53117,35.05321],[126.5308,35.05252],[126.53069,35.05243],[126.53019,35.05289],[126.52956,35.05311],[126.52737,35.05302],[126.52614,35.051],[126.52601,35.05372],[126.52589,35.05366],[126.51999,35.05094],[126.51861,35.05012],[126.51817,35.05017],[126.51744,35.05036],[126.51661,35.05071],[126.51619,35.05115],[126.51592,35.05163],[126.51572,35.0519],[126.51536,35.05227],[126.51519,35.05233],[126.51375,35.0528],[126.51135,35.05077],[126.51079,35.05026],[126.51033,35.04979],[126.51023,35.04954],[126.50947,35.0476],[126.50932,35.04718],[126.50915,35.04627],[126.50902,35.04569],[126.50886,35.04501],[126.50818,35.04313],[126.50809,35.04296],[126.50251,35.03451],[126.50225,35.03415],[126.49991,35.03214],[126.49643,35.03074],[126.49263,35.02945],[126.49234,35.0294],[126.48741,35.02959],[126.48408,35.02682],[126.48375,35.0266],[126.4837,35.0266],[126.48362,35.0266],[126.48283,35.02655],[126.4819,35.02697],[126.48047,35.02666],[126.47935,35.02649],[126.47801,35.02599],[126.47456,35.02361],[126.47163,35.02151],[126.47134,35.02132],[126.47116,35.02123],[126.47093,35.02117],[126.46974,35.02094],[126.46969,35.02094],[126.46966,35.02095],[126.46954,35.02107],[126.46666,35.02446],[126.46659,35.02454],[126.46648,35.02472],[126.46637,35.02501],[126.46635,35.02507],[126.46633,35.02511],[126.46633,35.02515],[126.46645,35.0274],[126.4665,35.02754],[126.46404,35.03131],[126.46403,35.03135],[126.46401,35.0338],[126.46435,35.03672],[126.46436,35.03681],[126.4644,35.03691],[126.46456,35.03737],[126.46472,35.03762],[126.46488,35.03784],[126.46395,35.03953],[126.46317,35.04146],[126.46316,35.04155],[126.46317,35.04171],[126.46321,35.04191],[126.46327,35.04207],[126.46332,35.04219],[126.46416,35.04372],[126.46565,35.04614],[126.46599,35.04661],[126.46695,35.04783],[126.47022,35.05182],[126.47226,35.05272],[126.47234,35.05273],[126.47241,35.05275],[126.47244,35.05278],[126.47297,35.05345],[126.47324,35.05385],[126.47403,35.05518],[126.47538,35.05751],[126.47541,35.05757],[126.47717,35.06303],[126.47743,35.06479],[126.47743,35.06488],[126.47741,35.06491],[126.47413,35.06657],[126.47401,35.06661],[126.47309,35.06681],[126.47303,35.0668],[126.47297,35.06678],[126.47287,35.06673],[126.47276,35.06665],[126.47259,35.06651],[126.47248,35.06645],[126.47232,35.06643],[126.47185,35.06642],[126.47102,35.06643],[126.47083,35.06645],[126.47057,35.06653],[126.47042,35.0666],[126.47001,35.0669],[126.46993,35.06696],[126.46838,35.06835],[126.46832,35.06843],[126.46816,35.06866],[126.46812,35.06885],[126.46811,35.06898],[126.46804,35.0691],[126.46796,35.06917],[126.46778,35.06928],[126.46681,35.0699],[126.4643,35.07144],[126.46168,35.07265],[126.46045,35.07315],[126.45875,35.07383],[126.45846,35.07393],[126.45704,35.07429],[126.45727,35.07438],[126.45703,35.07485],[126.45701,35.07488],[126.45696,35.07494],[126.45613,35.07609],[126.45607,35.07616],[126.45603,35.0762],[126.45601,35.07623],[126.45596,35.07627],[126.45589,35.07631],[126.45445,35.07708],[126.45436,35.07713],[126.45427,35.07717],[126.44933,35.07904],[126.4491,35.07912],[126.44888,35.0792],[126.44839,35.07937],[126.44827,35.0794],[126.44817,35.07941],[126.44722,35.07951],[126.44284,35.08281],[126.44233,35.08316],[126.44204,35.08335],[126.44176,35.08352],[126.44158,35.08363],[126.44154,35.08365],[126.44042,35.08421],[126.44035,35.08424],[126.44027,35.08428],[126.44019,35.08431],[126.4401,35.08433],[126.44,35.08435],[126.43979,35.08436],[126.43838,35.08433],[126.43825,35.08431],[126.43802,35.08428],[126.4379,35.08425],[126.43784,35.08424],[126.43778,35.08421],[126.43773,35.08418],[126.43762,35.08413],[126.4375,35.08408],[126.43729,35.08404],[126.43705,35.084],[126.43679,35.08399],[126.43652,35.08399],[126.43646,35.08399],[126.43639,35.08401],[126.4363,35.08404],[126.43622,35.08409],[126.43616,35.08416],[126.4361,35.08422],[126.43605,35.08429],[126.43601,35.08435],[126.43597,35.08442],[126.43577,35.08514],[126.43574,35.08523],[126.43576,35.08624],[126.43577,35.08634],[126.43578,35.08639],[126.43581,35.08643],[126.43584,35.08648],[126.43589,35.08652],[126.43592,35.08654],[126.43599,35.08658],[126.43607,35.08661],[126.43796,35.0872],[126.43864,35.08722],[126.44048,35.08712],[126.44272,35.08716],[126.44277,35.08716],[126.44297,35.08719],[126.44305,35.0872],[126.44314,35.08722],[126.44335,35.08726],[126.44345,35.08729],[126.44353,35.0873],[126.44361,35.08733],[126.44366,35.08734],[126.44521,35.08782],[126.44584,35.08806],[126.44595,35.0881],[126.44613,35.08816],[126.44647,35.08826],[126.44669,35.0883],[126.44746,35.08842],[126.44765,35.08842],[126.44797,35.0884],[126.44953,35.08819],[126.45016,35.08807],[126.45152,35.0885],[126.4534,35.08952],[126.45423,35.08981],[126.45497,35.08994],[126.45502,35.08995],[126.45532,35.08996],[126.45569,35.08987],[126.45601,35.08973],[126.45759,35.08989],[126.46006,35.09186],[126.46188,35.09527],[126.46186,35.09605],[126.46256,35.09573],[126.46268,35.09568],[126.46279,35.09567],[126.46289,35.09569],[126.46298,35.09571],[126.46499,35.09619],[126.46513,35.09623],[126.46522,35.09628],[126.46567,35.09657],[126.4659,35.09675],[126.46609,35.09696],[126.47015,35.1017],[126.47025,35.10184],[126.47033,35.10195],[126.47038,35.1021],[126.47085,35.10458],[126.47098,35.10549],[126.47095,35.10589],[126.47095,35.10637],[126.47096,35.10648],[126.47099,35.10654],[126.47103,35.10658],[126.47115,35.10667],[126.47132,35.10678],[126.47148,35.10685],[126.47195,35.10702],[126.47223,35.10711],[126.47263,35.10721],[126.47357,35.10733],[126.47395,35.10736],[126.4746,35.10742],[126.47502,35.10746],[126.47535,35.10752],[126.47561,35.10759],[126.4816,35.11054],[126.48185,35.11067],[126.48269,35.11122],[126.48369,35.11189],[126.48426,35.11087],[126.48554,35.11059],[126.48597,35.11049],[126.48679,35.11035],[126.48695,35.11033],[126.48725,35.11036],[126.4876,35.11047],[126.48747,35.1112],[126.4874,35.1114],[126.48725,35.1115],[126.48722,35.11207],[126.4873,35.11275],[126.48778,35.11378],[126.48823,35.11416],[126.48899,35.11454],[126.48946,35.11466],[126.49132,35.1146]]]]}},{"type":"Feature","properties":{"code":"12820310","name":"손불면","parent":"12820"},"geometry":{"type":"MultiPolygon","coordinates":[[[[126.41973,35.18548],[126.42034,35.1852],[126.42041,35.18517],[126.42195,35.1843],[126.42287,35.18359],[126.42369,35.18291],[126.42467,35.18208],[126.42476,35.18188],[126.42715,35.17904],[126.42746,35.1789],[126.42939,35.17809],[126.43017,35.17787],[126.43041,35.17779],[126.43068,35.17758],[126.43383,35.17415],[126.43531,35.17291],[126.43515,35.17275],[126.43498,35.17252],[126.43493,35.17239],[126.43491,35.17224],[126.43493,35.17151],[126.43494,35.17136],[126.43505,35.17049],[126.4351,35.17039],[126.43516,35.17031],[126.4353,35.17022],[126.4357,35.1701],[126.43587,35.17003],[126.43668,35.16952],[126.43699,35.16931],[126.43715,35.16913],[126.4372,35.16902],[126.43722,35.16888],[126.43723,35.1688],[126.4369,35.16677],[126.43657,35.1651],[126.4362,35.16219],[126.43622,35.16187],[126.43625,35.16178],[126.43685,35.1607],[126.43695,35.16062],[126.4371,35.16054],[126.4375,35.16038],[126.43786,35.16027],[126.43811,35.16022],[126.43961,35.16002],[126.44095,35.15691],[126.44251,35.15341],[126.44257,35.15333],[126.44275,35.15323],[126.44655,35.15179],[126.44663,35.15178],[126.44671,35.15178],[126.4501,35.15252],[126.45146,35.15298],[126.45156,35.15302],[126.4516,35.15305],[126.45416,35.15456],[126.45922,35.15682],[126.45925,35.15683],[126.45934,35.15684],[126.45962,35.15675],[126.46096,35.15621],[126.46186,35.1558],[126.46393,35.15482],[126.46404,35.15472],[126.46447,35.15434],[126.46518,35.15387],[126.46548,35.15374],[126.46576,35.15365],[126.46642,35.15351],[126.46655,35.15352],[126.46681,35.15361],[126.46707,35.15373],[126.46765,35.15403],[126.46809,35.15434],[126.46863,35.15471],[126.47042,35.15529],[126.47077,35.15528],[126.47187,35.15401],[126.47194,35.15391],[126.4731,35.15143],[126.47361,35.14956],[126.47333,35.14931],[126.47324,35.14917],[126.47308,35.14888],[126.47307,35.14882],[126.47317,35.14848],[126.47339,35.14782],[126.47344,35.14776],[126.47368,35.1476],[126.4762,35.14506],[126.48062,35.13949],[126.4846,35.13409],[126.48524,35.13313],[126.48551,35.13268],[126.48564,35.13241],[126.48575,35.13208],[126.48583,35.13088],[126.48572,35.13051],[126.48569,35.13042],[126.48563,35.13032],[126.48505,35.12925],[126.485,35.12916],[126.48495,35.12912],[126.48492,35.12911],[126.48479,35.12911],[126.48469,35.12911],[126.48462,35.1291],[126.48452,35.12904],[126.48442,35.1289],[126.48429,35.12872],[126.48368,35.12774],[126.48365,35.12768],[126.48348,35.12716],[126.48219,35.1182],[126.48347,35.11298],[126.48369,35.11189],[126.48269,35.11122],[126.48185,35.11067],[126.4816,35.11054],[126.47561,35.10759],[126.47535,35.10752],[126.47502,35.10746],[126.4746,35.10742],[126.47395,35.10736],[126.47357,35.10733],[126.47263,35.10721],[126.47223,35.10711],[126.47195,35.10702],[126.47148,35.10685],[126.47132,35.10678],[126.47115,35.10667],[126.47103,35.10658],[126.47099,35.10654],[126.47096,35.10648],[126.47095,35.10637],[126.47095,35.10589],[126.47098,35.10549],[126.47085,35.10458],[126.47038,35.1021],[126.47033,35.10195],[126.47025,35.10184],[126.47015,35.1017],[126.46609,35.09696],[126.4659,35.09675],[126.46567,35.09657],[126.46522,35.09628],[126.46513,35.09623],[126.46499,35.09619],[126.46298,35.09571],[126.46289,35.09569],[126.46279,35.09567],[126.46268,35.09568],[126.46256,35.09573],[126.46186,35.09605],[126.46466,35.09973],[126.46308,35.10111],[126.4623,35.10165],[126.4618,35.10183],[126.46109,35.10173],[126.45958,35.10158],[126.45805,35.10143],[126.45704,35.10146],[126.4535,35.10192],[126.45259,35.10247],[126.452,35.10332],[126.45163,35.10434],[126.45119,35.10468],[126.45023,35.10499],[126.44984,35.10493],[126.44873,35.10454],[126.44788,35.1043],[126.44723,35.10427],[126.44655,35.10455],[126.4462,35.10509],[126.44585,35.10577],[126.44563,35.10592],[126.4452,35.10588],[126.44453,35.10571],[126.44162,35.10538],[126.43764,35.10504],[126.43686,35.10506],[126.43536,35.1053],[126.43404,35.10566],[126.43207,35.10637],[126.43125,35.10678],[126.43025,35.10721],[126.4291,35.10725],[126.42711,35.10709],[126.42563,35.10665],[126.42392,35.10593],[126.42321,35.10582],[126.42203,35.10574],[126.42058,35.10645],[126.41963,35.10754],[126.41536,35.11461],[126.41196,35.12046],[126.4072,35.12866],[126.40477,35.13256],[126.40301,35.1354],[126.40227,35.13581],[126.40136,35.13581],[126.3996,35.1353],[126.39758,35.13432],[126.39647,35.13405],[126.39586,35.13442],[126.39501,35.13542],[126.39439,35.13605],[126.39337,35.13685],[126.39261,35.13713],[126.39151,35.1374],[126.39067,35.13805],[126.38697,35.14239],[126.38664,35.14292],[126.38662,35.1438],[126.38662,35.14477],[126.38667,35.14523],[126.38671,35.14561],[126.38646,35.14621],[126.38636,35.14644],[126.38524,35.14746],[126.38432,35.14807],[126.38313,35.14903],[126.38278,35.15005],[126.3828,35.15123],[126.38286,35.15209],[126.38269,35.15259],[126.37669,35.156],[126.37229,35.15849],[126.37207,35.15874],[126.37206,35.1592],[126.37212,35.15972],[126.37196,35.16047],[126.37161,35.16122],[126.36865,35.16503],[126.37297,35.16813],[126.37692,35.17086],[126.37772,35.17141],[126.38439,35.17409],[126.38475,35.1742],[126.38509,35.1743],[126.38521,35.17436],[126.38563,35.17468],[126.38769,35.17703],[126.38772,35.17716],[126.38774,35.17759],[126.38771,35.17791],[126.3877,35.17801],[126.38774,35.17807],[126.38845,35.17847],[126.38894,35.17871],[126.39067,35.17936],[126.39103,35.17949],[126.39145,35.17959],[126.392,35.17966],[126.39221,35.17969],[126.39229,35.17968],[126.39576,35.17941],[126.39582,35.17939],[126.39591,35.17927],[126.39611,35.17868],[126.39623,35.17827],[126.39648,35.17762],[126.39693,35.17682],[126.39701,35.17674],[126.39745,35.17656],[126.39778,35.17646],[126.39936,35.17617],[126.39964,35.17614],[126.39978,35.17613],[126.39983,35.17614],[126.40004,35.17629],[126.40725,35.18137],[126.40775,35.18179],[126.40792,35.18196],[126.40801,35.1821],[126.40827,35.18263],[126.40831,35.18273],[126.40834,35.18285],[126.40837,35.18295],[126.40838,35.18306],[126.40837,35.18317],[126.40835,35.18336],[126.40817,35.18393],[126.40775,35.18606],[126.40778,35.18608],[126.40785,35.18609],[126.41279,35.18666],[126.41286,35.18665],[126.41337,35.18656],[126.41344,35.18653],[126.41384,35.18641],[126.41396,35.18636],[126.41459,35.18567],[126.41479,35.18547],[126.41485,35.18541],[126.41497,35.18532],[126.41503,35.18528],[126.41513,35.18524],[126.41519,35.18522],[126.41528,35.18521],[126.41539,35.18521],[126.41872,35.18526],[126.41932,35.18528],[126.41936,35.18528],[126.41943,35.1853],[126.41973,35.18548]]]]}},{"type":"Feature","properties":{"code":"12820320","name":"신광면","parent":"12820"},"geometry":{"type":"MultiPolygon","coordinates":[[[[126.53077,35.18263],[126.53074,35.1825],[126.53074,35.18244],[126.53073,35.18235],[126.53074,35.18223],[126.53074,35.18209],[126.53093,35.18059],[126.53095,35.18049],[126.53098,35.18043],[126.531,35.18039],[126.53148,35.17989],[126.53156,35.17984],[126.53168,35.17977],[126.53176,35.17971],[126.53187,35.17961],[126.53193,35.17954],[126.53221,35.17916],[126.53226,35.17908],[126.53229,35.17904],[126.53231,35.179],[126.53285,35.17777],[126.5329,35.17766],[126.53297,35.17741],[126.533,35.17733],[126.53336,35.1758],[126.5334,35.17557],[126.53341,35.17552],[126.53342,35.17548],[126.53343,35.17531],[126.53344,35.17524],[126.53344,35.17512],[126.53344,35.175],[126.53344,35.17494],[126.53343,35.17488],[126.53301,35.17328],[126.53294,35.17307],[126.53291,35.17298],[126.53289,35.17294],[126.53281,35.17282],[126.53278,35.17279],[126.53275,35.17276],[126.53272,35.17272],[126.53268,35.17269],[126.53264,35.17266],[126.53259,35.17263],[126.53254,35.17261],[126.53218,35.17247],[126.53182,35.17234],[126.53025,35.1718],[126.52973,35.17205],[126.52968,35.17207],[126.52964,35.17208],[126.5295,35.17211],[126.52946,35.17211],[126.52942,35.17211],[126.52937,35.17211],[126.52929,35.1721],[126.52922,35.17208],[126.52884,35.17198],[126.52878,35.17196],[126.52869,35.17193],[126.52864,35.17189],[126.52778,35.16961],[126.52777,35.16957],[126.52765,35.16884],[126.52764,35.1686],[126.52762,35.16816],[126.52764,35.1637],[126.52778,35.16187],[126.52778,35.16181],[126.52779,35.16176],[126.52779,35.16171],[126.52784,35.16155],[126.52793,35.16128],[126.52799,35.16117],[126.52837,35.15996],[126.52919,35.15701],[126.5292,35.15697],[126.52921,35.15685],[126.52924,35.15655],[126.52924,35.15648],[126.52922,35.15645],[126.52917,35.15643],[126.5291,35.15643],[126.52867,35.1564],[126.52799,35.15637],[126.52773,35.15638],[126.52766,35.15638],[126.5276,35.15638],[126.52756,35.15639],[126.52753,35.1564],[126.52749,35.15641],[126.52737,35.15646],[126.52727,35.15651],[126.52716,35.15657],[126.52708,35.15662],[126.52692,35.15668],[126.52687,35.1567],[126.52669,35.15677],[126.52661,35.15679],[126.52657,35.15679],[126.52649,35.15679],[126.52643,35.15679],[126.52579,35.15676],[126.52563,35.15676],[126.52512,35.15671],[126.52506,35.15671],[126.52498,35.15669],[126.52465,35.15662],[126.52342,35.1563],[126.52194,35.15485],[126.52183,35.15473],[126.52175,35.1546],[126.52161,35.15429],[126.52159,35.15418],[126.52159,35.15411],[126.5216,35.15407],[126.52379,35.15171],[126.52427,35.15123],[126.5244,35.15111],[126.5256,35.15018],[126.52572,35.15008],[126.52583,35.15003],[126.52592,35.15],[126.52599,35.14998],[126.52603,35.14998],[126.52607,35.14998],[126.52614,35.14999],[126.52618,35.15],[126.52874,35.14847],[126.52709,35.14713],[126.52401,35.14364],[126.52397,35.1436],[126.52393,35.14354],[126.5239,35.14348],[126.52388,35.14345],[126.52389,35.14323],[126.52389,35.14317],[126.52393,35.14291],[126.52397,35.14278],[126.52399,35.14275],[126.52399,35.14266],[126.52399,35.14263],[126.52397,35.14255],[126.52362,35.14162],[126.52359,35.14154],[126.52355,35.14148],[126.52349,35.14139],[126.52332,35.14122],[126.52324,35.14114],[126.52314,35.14106],[126.52296,35.14095],[126.52126,35.14028],[126.5196,35.13972],[126.51953,35.13971],[126.51946,35.13972],[126.51938,35.13977],[126.51918,35.13995],[126.51899,35.14012],[126.51883,35.14025],[126.51878,35.14028],[126.51874,35.14029],[126.51868,35.14027],[126.5174,35.13985],[126.51333,35.13841],[126.51296,35.13768],[126.51109,35.13477],[126.51106,35.13473],[126.51101,35.13469],[126.51058,35.13447],[126.51051,35.13444],[126.51042,35.13442],[126.51033,35.13441],[126.50958,35.13435],[126.50947,35.13435],[126.50938,35.13435],[126.5089,35.13439],[126.50859,35.13443],[126.50793,35.13453],[126.5078,35.13457],[126.50767,35.13462],[126.50759,35.13465],[126.50599,35.13569],[126.50518,35.13628],[126.50473,35.13658],[126.50205,35.13826],[126.50196,35.13831],[126.5019,35.13834],[126.4999,35.1391],[126.4998,35.1391],[126.49918,35.13868],[126.49915,35.13864],[126.49915,35.13858],[126.50075,35.13003],[126.50077,35.12996],[126.50079,35.12989],[126.50081,35.12982],[126.50083,35.12977],[126.50153,35.12862],[126.50214,35.12768],[126.50242,35.12736],[126.50255,35.12721],[126.50255,35.12717],[126.50148,35.12708],[126.5012,35.12706],[126.49962,35.12703],[126.49779,35.12704],[126.49653,35.12707],[126.49628,35.12722],[126.49605,35.12735],[126.49557,35.12759],[126.49392,35.12696],[126.49371,35.12686],[126.49345,35.12673],[126.4932,35.12656],[126.49228,35.12586],[126.49211,35.12572],[126.49199,35.12552],[126.49065,35.123],[126.4906,35.12286],[126.49058,35.12269],[126.49095,35.12007],[126.49104,35.11992],[126.4912,35.11969],[126.49153,35.11935],[126.49177,35.11909],[126.49187,35.11898],[126.49177,35.11547],[126.49158,35.11494],[126.49132,35.1146],[126.48946,35.11466],[126.48899,35.11454],[126.48823,35.11416],[126.48778,35.11378],[126.4873,35.11275],[126.48722,35.11207],[126.48725,35.1115],[126.4874,35.1114],[126.48747,35.1112],[126.4876,35.11047],[126.48725,35.11036],[126.48695,35.11033],[126.48679,35.11035],[126.48597,35.11049],[126.48554,35.11059],[126.48426,35.11087],[126.48369,35.11189],[126.48347,35.11298],[126.48219,35.1182],[126.48348,35.12716],[126.48365,35.12768],[126.48368,35.12774],[126.48429,35.12872],[126.48442,35.1289],[126.48452,35.12904],[126.48462,35.1291],[126.48469,35.12911],[126.48479,35.12911],[126.48492,35.12911],[126.48495,35.12912],[126.485,35.12916],[126.48505,35.12925],[126.48563,35.13032],[126.48569,35.13042],[126.48572,35.13051],[126.48583,35.13088],[126.48575,35.13208],[126.48564,35.13241],[126.48551,35.13268],[126.48524,35.13313],[126.4846,35.13409],[126.48062,35.13949],[126.4762,35.14506],[126.47368,35.1476],[126.47344,35.14776],[126.47339,35.14782],[126.47317,35.14848],[126.47307,35.14882],[126.47308,35.14888],[126.47324,35.14917],[126.47333,35.14931],[126.47361,35.14956],[126.4731,35.15143],[126.47194,35.15391],[126.47187,35.15401],[126.47077,35.15528],[126.47042,35.15529],[126.46863,35.15471],[126.46809,35.15434],[126.46765,35.15403],[126.46707,35.15373],[126.46681,35.15361],[126.46655,35.15352],[126.46642,35.15351],[126.46576,35.15365],[126.46548,35.15374],[126.46518,35.15387],[126.46447,35.15434],[126.46404,35.15472],[126.46393,35.15482],[126.46186,35.1558],[126.46096,35.15621],[126.45962,35.15675],[126.45934,35.15684],[126.45925,35.15683],[126.45922,35.15682],[126.45416,35.15456],[126.4516,35.15305],[126.45156,35.15302],[126.45146,35.15298],[126.4501,35.15252],[126.44671,35.15178],[126.44663,35.15178],[126.44655,35.15179],[126.44275,35.15323],[126.44257,35.15333],[126.44251,35.15341],[126.44095,35.15691],[126.43961,35.16002],[126.43811,35.16022],[126.43786,35.16027],[126.4375,35.16038],[126.4371,35.16054],[126.43695,35.16062],[126.43685,35.1607],[126.43625,35.16178],[126.43622,35.16187],[126.4362,35.16219],[126.43657,35.1651],[126.4369,35.16677],[126.43723,35.1688],[126.43722,35.16888],[126.4372,35.16902],[126.43715,35.16913],[126.43699,35.16931],[126.43668,35.16952],[126.43587,35.17003],[126.4357,35.1701],[126.4353,35.17022],[126.43516,35.17031],[126.4351,35.17039],[126.43505,35.17049],[126.43494,35.17136],[126.43493,35.17151],[126.43491,35.17224],[126.43493,35.17239],[126.43498,35.17252],[126.43515,35.17275],[126.43531,35.17291],[126.43719,35.17412],[126.4385,35.17515],[126.43902,35.17592],[126.43924,35.17638],[126.43943,35.17661],[126.44012,35.17719],[126.4422,35.17888],[126.44273,35.17922],[126.44441,35.18011],[126.44761,35.18233],[126.44772,35.18314],[126.44923,35.18485],[126.45015,35.18584],[126.4515,35.18632],[126.45183,35.18622],[126.45216,35.18601],[126.45335,35.18568],[126.45638,35.18526],[126.4571,35.18585],[126.45731,35.18604],[126.45815,35.18684],[126.45983,35.18794],[126.46019,35.1881],[126.46059,35.18821],[126.4607,35.18824],[126.46153,35.18835],[126.46185,35.18833],[126.46263,35.188],[126.46279,35.18784],[126.46325,35.18713],[126.46331,35.18698],[126.46338,35.18676],[126.46348,35.18657],[126.46357,35.18643],[126.4637,35.18638],[126.46498,35.18606],[126.46522,35.1861],[126.46677,35.18661],[126.46822,35.18723],[126.46979,35.18797],[126.47006,35.18821],[126.4718,35.18996],[126.47195,35.19024],[126.472,35.1905],[126.47186,35.19073],[126.47181,35.19085],[126.47188,35.19107],[126.47291,35.19266],[126.47349,35.19289],[126.4771,35.19388],[126.47749,35.19325],[126.4779,35.19284],[126.47926,35.19193],[126.47991,35.19159],[126.48145,35.19095],[126.48198,35.19085],[126.482,35.19129],[126.48406,35.19241],[126.48479,35.19236],[126.48771,35.19211],[126.48798,35.19189],[126.4889,35.19076],[126.48923,35.18902],[126.48918,35.18806],[126.48933,35.18765],[126.48977,35.18733],[126.49026,35.18736],[126.49077,35.18753],[126.49127,35.18782],[126.49177,35.18792],[126.49259,35.18778],[126.49307,35.18756],[126.49322,35.18691],[126.49319,35.18624],[126.4932,35.18566],[126.49379,35.18517],[126.49689,35.18415],[126.49824,35.18382],[126.50051,35.18346],[126.5028,35.18382],[126.50371,35.18435],[126.50383,35.18474],[126.50447,35.18486],[126.50577,35.18487],[126.50695,35.18477],[126.50795,35.18449],[126.50857,35.18398],[126.51007,35.18447],[126.51209,35.18598],[126.51441,35.18751],[126.51547,35.18723],[126.51671,35.18677],[126.5173,35.18646],[126.51789,35.18605],[126.51904,35.18569],[126.52187,35.18541],[126.52263,35.18564],[126.52528,35.18632],[126.52637,35.18633],[126.52737,35.18616],[126.52819,35.18595],[126.52876,35.18532],[126.52858,35.18443],[126.52891,35.18392],[126.53003,35.18298],[126.53077,35.18263]]]]}},{"type":"Feature","properties":{"code":"12820330","name":"학교면","parent":"12820"},"geometry":{"type":"MultiPolygon","coordinates":[[[[126.58813,35.0584],[126.58809,35.05759],[126.58812,35.05638],[126.58817,35.05555],[126.58852,35.05348],[126.58871,35.05316],[126.5897,35.04996],[126.5892,35.04871],[126.58907,35.0486],[126.5888,35.0486],[126.58841,35.04872],[126.58808,35.04884],[126.58718,35.04879],[126.58674,35.04848],[126.58672,35.04821],[126.58742,35.04562],[126.58963,35.04174],[126.59046,35.03671],[126.5905,35.03651],[126.59069,35.03624],[126.59164,35.03547],[126.59289,35.03455],[126.59336,35.03432],[126.59356,35.03391],[126.59359,35.03365],[126.59303,35.03225],[126.5933,35.0312],[126.59405,35.02929],[126.59419,35.02901],[126.59454,35.02792],[126.59404,35.02589],[126.59392,35.02561],[126.59217,35.02258],[126.59025,35.02002],[126.58988,35.01954],[126.58781,35.01843],[126.58645,35.01749],[126.58589,35.0155],[126.58579,35.01479],[126.58637,35.01381],[126.58645,35.01367],[126.58714,35.01314],[126.58932,35.01272],[126.59182,35.013],[126.59301,35.01318],[126.59398,35.01342],[126.59459,35.0135],[126.59742,35.01333],[126.59811,35.01318],[126.59868,35.01277],[126.59911,35.01209],[126.59925,35.01187],[126.59955,35.01127],[126.59958,35.01071],[126.59962,35.00989],[126.59908,35.00771],[126.59896,35.00735],[126.59606,35.0044],[126.59566,35.00411],[126.59484,35.00426],[126.59442,35.00457],[126.59433,35.00512],[126.59456,35.00573],[126.59462,35.00638],[126.59445,35.00666],[126.59416,35.0068],[126.59366,35.00666],[126.59357,35.00645],[126.59347,35.00541],[126.59343,35.0049],[126.59394,35.00381],[126.59454,35.00259],[126.59504,35.0019],[126.59595,35.00113],[126.59664,35.00051],[126.59656,34.99988],[126.59621,34.99895],[126.59554,34.99824],[126.59481,34.99769],[126.5936,34.99723],[126.59228,34.9965],[126.59215,34.99637],[126.59199,34.99619],[126.59222,34.99588],[126.59342,34.99551],[126.59474,34.9953],[126.59621,34.9955],[126.59704,34.99588],[126.59752,34.99675],[126.59798,34.9977],[126.59833,34.99801],[126.59886,34.99805],[126.59915,34.99768],[126.59909,34.99692],[126.59868,34.99599],[126.59755,34.99502],[126.5946,34.9941],[126.59267,34.99326],[126.5911,34.99248],[126.59114,34.99216],[126.59126,34.99125],[126.59103,34.99121],[126.5895,34.9902],[126.58843,34.98948],[126.58661,34.98827],[126.586,34.98726],[126.58485,34.98539],[126.58429,34.98446],[126.58274,34.98193],[126.58121,34.97784],[126.58083,34.97684],[126.58007,34.97635],[126.5781,34.97507],[126.57399,34.97284],[126.57076,34.97379],[126.56986,34.97635],[126.56919,34.97878],[126.56895,34.98011],[126.56886,34.98059],[126.5687,34.98122],[126.56846,34.98198],[126.56822,34.98262],[126.56819,34.98269],[126.56803,34.98309],[126.56783,34.98353],[126.56759,34.98395],[126.56743,34.98422],[126.56724,34.98449],[126.56703,34.98476],[126.56666,34.98519],[126.56629,34.98557],[126.56589,34.98593],[126.56525,34.98642],[126.56483,34.98673],[126.56441,34.98702],[126.56394,34.9873],[126.56345,34.98756],[126.56291,34.98777],[126.56221,34.98798],[126.56158,34.98817],[126.56119,34.98824],[126.56072,34.9883],[126.5602,34.98836],[126.56016,34.98836],[126.55987,34.98838],[126.55925,34.98837],[126.5588,34.98835],[126.55783,34.98827],[126.55695,34.98819],[126.55622,34.98808],[126.55578,34.98801],[126.55524,34.98791],[126.55489,34.98785],[126.55424,34.98771],[126.55361,34.98753],[126.55317,34.98739],[126.55276,34.98724],[126.55239,34.9871],[126.55191,34.9869],[126.5514,34.98667],[126.551,34.98646],[126.55048,34.98615],[126.54994,34.98579],[126.54796,34.98447],[126.54775,34.98432],[126.54749,34.98414],[126.54629,34.98317],[126.54615,34.98304],[126.54602,34.98291],[126.54537,34.98328],[126.54489,34.98355],[126.54464,34.98368],[126.54098,34.98536],[126.53863,34.98537],[126.53858,34.98524],[126.53852,34.98512],[126.53808,34.98457],[126.5379,34.98441],[126.53765,34.9842],[126.53739,34.98409],[126.53715,34.98404],[126.53699,34.98405],[126.5367,34.98406],[126.53638,34.98411],[126.53515,34.98438],[126.53483,34.98446],[126.53463,34.98457],[126.5344,34.98487],[126.53437,34.98506],[126.53442,34.98518],[126.5362,34.98937],[126.53653,34.99009],[126.53695,34.9909],[126.53718,34.99125],[126.53737,34.9915],[126.53754,34.99171],[126.53763,34.9918],[126.5379,34.99205],[126.53803,34.99217],[126.53823,34.99231],[126.5383,34.99235],[126.53844,34.99244],[126.53855,34.99258],[126.53865,34.99283],[126.53869,34.99312],[126.53861,34.99348],[126.53855,34.99375],[126.53843,34.99401],[126.53831,34.99418],[126.53816,34.99434],[126.53793,34.99453],[126.53778,34.9946],[126.53109,34.9973],[126.53095,34.99733],[126.53077,34.99742],[126.52945,34.99946],[126.52938,34.99965],[126.52933,34.99984],[126.52929,35.00013],[126.52932,35.00061],[126.52938,35.0009],[126.52972,35.00351],[126.52987,35.00847],[126.52986,35.01366],[126.53047,35.01746],[126.53071,35.01756],[126.53087,35.01766],[126.53098,35.01776],[126.5311,35.01789],[126.5312,35.01802],[126.53121,35.01805],[126.53124,35.01822],[126.53128,35.01841],[126.53128,35.01859],[126.52982,35.02208],[126.52918,35.02213],[126.52831,35.0222],[126.52834,35.02285],[126.52879,35.02808],[126.52897,35.02959],[126.52901,35.02998],[126.5291,35.03036],[126.52923,35.03068],[126.52943,35.03152],[126.52947,35.0328],[126.52949,35.03388],[126.52947,35.03453],[126.52939,35.03633],[126.52937,35.03648],[126.52915,35.03712],[126.52902,35.03744],[126.528,35.03885],[126.52775,35.0391],[126.52746,35.03937],[126.52724,35.0395],[126.52709,35.03961],[126.52697,35.03981],[126.52684,35.0402],[126.52672,35.04055],[126.52665,35.04078],[126.52575,35.04376],[126.52571,35.04398],[126.52574,35.04421],[126.52584,35.04452],[126.52603,35.0448],[126.52628,35.04508],[126.52648,35.04527],[126.52681,35.04573],[126.52697,35.04597],[126.52722,35.04642],[126.52727,35.04656],[126.52737,35.047],[126.52736,35.04724],[126.52735,35.04731],[126.52728,35.04766],[126.52605,35.05036],[126.52614,35.051],[126.52737,35.05302],[126.52956,35.05311],[126.53019,35.05289],[126.53069,35.05243],[126.53082,35.05205],[126.53086,35.05198],[126.5342,35.05138],[126.53448,35.05136],[126.53493,35.05135],[126.53535,35.05155],[126.5359,35.05192],[126.53647,35.05241],[126.53679,35.05281],[126.53837,35.05489],[126.53891,35.05569],[126.54005,35.05669],[126.54187,35.05815],[126.54227,35.05835],[126.54262,35.05846],[126.54311,35.05859],[126.54344,35.05869],[126.54366,35.0588],[126.5437,35.05883],[126.54378,35.05887],[126.54392,35.05901],[126.544,35.05912],[126.54492,35.06198],[126.54452,35.0623],[126.54477,35.06256],[126.54519,35.06278],[126.54582,35.06289],[126.54603,35.06281],[126.54645,35.0626],[126.5468,35.06242],[126.54728,35.06211],[126.5474,35.06203],[126.54807,35.06145],[126.5485,35.06102],[126.54881,35.06065],[126.5493,35.06005],[126.54975,35.05947],[126.54994,35.05921],[126.55005,35.05904],[126.55021,35.05878],[126.5503,35.0586],[126.55296,35.05776],[126.55379,35.05891],[126.55418,35.05926],[126.55469,35.05955],[126.55509,35.05968],[126.55793,35.06003],[126.5582,35.05997],[126.55873,35.05961],[126.55947,35.05829],[126.56003,35.05656],[126.56025,35.05548],[126.56016,35.05502],[126.56118,35.05329],[126.56633,35.0523],[126.56759,35.0522],[126.56953,35.0538],[126.57094,35.05727],[126.57237,35.05896],[126.57384,35.06098],[126.57391,35.0611],[126.57397,35.06124],[126.57399,35.06132],[126.574,35.06141],[126.57403,35.0631],[126.57387,35.06402],[126.57387,35.06406],[126.57388,35.06409],[126.57512,35.06468],[126.57685,35.06504],[126.5769,35.06504],[126.57749,35.06487],[126.57768,35.06482],[126.5782,35.06347],[126.57873,35.06224],[126.57879,35.06218],[126.58442,35.05729],[126.58451,35.05722],[126.58616,35.05706],[126.58658,35.05705],[126.58706,35.05714],[126.5876,35.05749],[126.58791,35.0578],[126.58813,35.0584]]]]}},{"type":"Feature","properties":{"code":"12820340","name":"엄다면","parent":"12820"},"geometry":{"type":"MultiPolygon","coordinates":[[[[126.52614,35.051],[126.52605,35.05036],[126.52728,35.04766],[126.52735,35.04731],[126.52736,35.04724],[126.52737,35.047],[126.52727,35.04656],[126.52722,35.04642],[126.52697,35.04597],[126.52681,35.04573],[126.52648,35.04527],[126.52628,35.04508],[126.52603,35.0448],[126.52584,35.04452],[126.52574,35.04421],[126.52571,35.04398],[126.52575,35.04376],[126.52665,35.04078],[126.52672,35.04055],[126.52684,35.0402],[126.52697,35.03981],[126.52709,35.03961],[126.52724,35.0395],[126.52746,35.03937],[126.52775,35.0391],[126.528,35.03885],[126.52902,35.03744],[126.52915,35.03712],[126.52937,35.03648],[126.52939,35.03633],[126.52947,35.03453],[126.52949,35.03388],[126.52947,35.0328],[126.52943,35.03152],[126.52923,35.03068],[126.5291,35.03036],[126.52901,35.02998],[126.52897,35.02959],[126.52879,35.02808],[126.52834,35.02285],[126.52831,35.0222],[126.52918,35.02213],[126.52982,35.02208],[126.53128,35.01859],[126.53128,35.01841],[126.53124,35.01822],[126.53121,35.01805],[126.5312,35.01802],[126.5311,35.01789],[126.53098,35.01776],[126.53087,35.01766],[126.53071,35.01756],[126.53047,35.01746],[126.52986,35.01366],[126.52987,35.00847],[126.52972,35.00351],[126.52938,35.0009],[126.52932,35.00061],[126.52929,35.00013],[126.52933,34.99984],[126.52938,34.99965],[126.52945,34.99946],[126.53077,34.99742],[126.53095,34.99733],[126.53109,34.9973],[126.53778,34.9946],[126.53793,34.99453],[126.53816,34.99434],[126.53831,34.99418],[126.53843,34.99401],[126.53855,34.99375],[126.53861,34.99348],[126.53869,34.99312],[126.53865,34.99283],[126.53855,34.99258],[126.53844,34.99244],[126.5383,34.99235],[126.53823,34.99231],[126.53803,34.99217],[126.5379,34.99205],[126.53763,34.9918],[126.53754,34.99171],[126.53737,34.9915],[126.53718,34.99125],[126.53695,34.9909],[126.53653,34.99009],[126.5362,34.98937],[126.53442,34.98518],[126.53437,34.98506],[126.5344,34.98487],[126.53463,34.98457],[126.53483,34.98446],[126.53515,34.98438],[126.53638,34.98411],[126.5367,34.98406],[126.53699,34.98405],[126.53715,34.98404],[126.53739,34.98409],[126.53765,34.9842],[126.5379,34.98441],[126.53808,34.98457],[126.53852,34.98512],[126.53858,34.98524],[126.53863,34.98537],[126.54098,34.98536],[126.54464,34.98368],[126.54489,34.98355],[126.54537,34.98328],[126.54602,34.98291],[126.54427,34.98101],[126.54331,34.97997],[126.54261,34.97916],[126.54256,34.9791],[126.54241,34.97891],[126.54222,34.97864],[126.54196,34.97828],[126.54186,34.97809],[126.54155,34.97736],[126.54075,34.97523],[126.53851,34.97614],[126.53262,34.97799],[126.53143,34.9782],[126.53123,34.97827],[126.53113,34.97832],[126.53096,34.97844],[126.52942,34.9797],[126.52929,34.97984],[126.52918,34.98001],[126.5291,34.98019],[126.52903,34.98035],[126.52899,34.9804],[126.52819,34.9812],[126.52808,34.98128],[126.52619,34.98253],[126.52601,34.98262],[126.52592,34.98264],[126.5258,34.98266],[126.52234,34.98298],[126.52089,34.98298],[126.51687,34.98428],[126.51617,34.98547],[126.51601,34.98568],[126.51224,34.99005],[126.5122,34.99009],[126.51208,34.99014],[126.51197,34.99017],[126.51097,34.99029],[126.51086,34.99029],[126.51075,34.99027],[126.51053,34.99022],[126.51018,34.99012],[126.50985,34.99],[126.50973,34.98995],[126.50956,34.98989],[126.50935,34.98978],[126.50836,34.98922],[126.50826,34.98914],[126.50819,34.98908],[126.50804,34.98883],[126.50794,34.98854],[126.5079,34.98839],[126.50791,34.98825],[126.50791,34.98806],[126.50777,34.98741],[126.50769,34.98708],[126.50763,34.98686],[126.50759,34.98682],[126.50758,34.98679],[126.5075,34.98671],[126.50661,34.98616],[126.50637,34.98604],[126.50625,34.986],[126.50589,34.9859],[126.50563,34.98584],[126.50546,34.9858],[126.50531,34.98578],[126.50506,34.98578],[126.50083,34.9858],[126.49979,34.98607],[126.49923,34.98747],[126.49923,34.98751],[126.49923,34.98759],[126.49931,34.98782],[126.49899,34.98945],[126.49832,34.99151],[126.49827,34.99164],[126.49818,34.99176],[126.49742,34.99251],[126.49728,34.99265],[126.49718,34.9927],[126.49707,34.99273],[126.49694,34.99275],[126.49668,34.99275],[126.49646,34.99277],[126.49624,34.99284],[126.49607,34.99292],[126.49599,34.99299],[126.49449,34.99446],[126.49343,34.99585],[126.49128,34.99913],[126.49025,35.00081],[126.49012,35.00105],[126.4901,35.00128],[126.49556,35.00298],[126.49996,35.00403],[126.50011,35.00411],[126.50055,35.00578],[126.49976,35.01104],[126.4991,35.01413],[126.49886,35.01503],[126.49846,35.0162],[126.49843,35.01625],[126.49841,35.01629],[126.49772,35.01725],[126.49743,35.01756],[126.4973,35.01768],[126.49714,35.0178],[126.49703,35.01788],[126.49691,35.01793],[126.49677,35.01796],[126.49647,35.01797],[126.49562,35.01795],[126.49402,35.01774],[126.49388,35.01772],[126.49369,35.01765],[126.49348,35.01756],[126.49323,35.01743],[126.49291,35.01718],[126.49274,35.01702],[126.49247,35.01676],[126.49228,35.01653],[126.49207,35.01628],[126.49192,35.01614],[126.49185,35.01611],[126.49173,35.01614],[126.49042,35.01647],[126.48984,35.0167],[126.48903,35.01711],[126.48866,35.01731],[126.48823,35.0177],[126.48773,35.0181],[126.48655,35.01857],[126.48601,35.01873],[126.48579,35.01877],[126.48566,35.01877],[126.48558,35.01876],[126.48552,35.01876],[126.48443,35.01801],[126.48219,35.01941],[126.48061,35.02594],[126.48047,35.02666],[126.4819,35.02697],[126.48283,35.02655],[126.48362,35.0266],[126.4837,35.0266],[126.48375,35.0266],[126.48408,35.02682],[126.48741,35.02959],[126.49234,35.0294],[126.49263,35.02945],[126.49643,35.03074],[126.49991,35.03214],[126.50225,35.03415],[126.50251,35.03451],[126.50809,35.04296],[126.50818,35.04313],[126.50886,35.04501],[126.50902,35.04569],[126.50915,35.04627],[126.50932,35.04718],[126.50947,35.0476],[126.51023,35.04954],[126.51033,35.04979],[126.51079,35.05026],[126.51135,35.05077],[126.51375,35.0528],[126.51519,35.05233],[126.51536,35.05227],[126.51572,35.0519],[126.51592,35.05163],[126.51619,35.05115],[126.51661,35.05071],[126.51744,35.05036],[126.51817,35.05017],[126.51861,35.05012],[126.51999,35.05094],[126.52589,35.05366],[126.52601,35.05372],[126.52614,35.051]]]]}},{"type":"Feature","properties":{"code":"12820350","name":"대동면","parent":"12820"},"geometry":{"type":"MultiPolygon","coordinates":[[[[126.53025,35.1718],[126.53022,35.17174],[126.5302,35.17171],[126.53015,35.17157],[126.53013,35.17151],[126.53012,35.17147],[126.53012,35.17143],[126.53012,35.17119],[126.53012,35.17112],[126.53012,35.17106],[126.53012,35.17097],[126.53021,35.1701],[126.53025,35.1698],[126.53026,35.16974],[126.53028,35.16967],[126.53049,35.16895],[126.53051,35.1689],[126.53057,35.16879],[126.53063,35.1687],[126.53075,35.16851],[126.53154,35.16729],[126.53171,35.16704],[126.5318,35.16691],[126.53193,35.16673],[126.53202,35.16662],[126.53239,35.16621],[126.53245,35.16614],[126.53274,35.1659],[126.5332,35.16554],[126.53325,35.16551],[126.53332,35.16547],[126.5334,35.16544],[126.53345,35.16543],[126.53354,35.16542],[126.5343,35.16533],[126.53461,35.16529],[126.53469,35.16528],[126.53476,35.16528],[126.53482,35.16528],[126.53487,35.16528],[126.53494,35.16528],[126.53502,35.1653],[126.5351,35.16531],[126.53514,35.16532],[126.53519,35.16534],[126.53524,35.16536],[126.53532,35.1654],[126.53537,35.16543],[126.53543,35.16548],[126.53551,35.16555],[126.53564,35.16564],[126.5357,35.16569],[126.53573,35.1657],[126.53577,35.16572],[126.53581,35.16573],[126.53586,35.16574],[126.53591,35.16575],[126.53603,35.16575],[126.53611,35.16574],[126.53618,35.16573],[126.53625,35.16572],[126.53635,35.1657],[126.53643,35.16568],[126.5365,35.16566],[126.53655,35.16564],[126.53661,35.16561],[126.53666,35.16559],[126.5367,35.16557],[126.53674,35.16554],[126.53685,35.16545],[126.53692,35.16537],[126.53697,35.1653],[126.53727,35.16483],[126.53733,35.16472],[126.53735,35.16468],[126.53833,35.16266],[126.53836,35.16258],[126.5384,35.16244],[126.53841,35.1624],[126.53842,35.16236],[126.53843,35.1623],[126.53843,35.16224],[126.53847,35.16181],[126.53849,35.16162],[126.53849,35.16156],[126.53848,35.16149],[126.53847,35.16141],[126.53845,35.16131],[126.53839,35.16108],[126.53837,35.16101],[126.53813,35.15983],[126.53783,35.15818],[126.53783,35.15809],[126.53783,35.15781],[126.53784,35.15775],[126.53785,35.1577],[126.53787,35.15763],[126.53804,35.15704],[126.53835,35.15619],[126.53836,35.15616],[126.53841,35.15607],[126.53844,35.15603],[126.53854,35.15589],[126.53858,35.15586],[126.53865,35.15578],[126.53869,35.15573],[126.53875,35.15564],[126.53881,35.15555],[126.53882,35.15551],[126.53884,35.15547],[126.53885,35.15543],[126.53886,35.15538],[126.53935,35.14812],[126.53815,35.14702],[126.53956,35.14497],[126.54101,35.14293],[126.54102,35.14288],[126.54102,35.14283],[126.54098,35.14263],[126.54093,35.14251],[126.54083,35.14231],[126.54053,35.1417],[126.54049,35.14161],[126.54046,35.1415],[126.54041,35.1412],[126.54025,35.13968],[126.54023,35.13929],[126.54051,35.1378],[126.54138,35.13732],[126.54144,35.13733],[126.54209,35.13736],[126.54221,35.13736],[126.54236,35.13734],[126.54383,35.13708],[126.54406,35.13702],[126.54417,35.13699],[126.54529,35.13666],[126.54614,35.13621],[126.54626,35.13585],[126.54636,35.13564],[126.5465,35.13542],[126.54676,35.13503],[126.54682,35.13497],[126.54838,35.13394],[126.54854,35.13386],[126.54862,35.13383],[126.54868,35.13382],[126.54878,35.13381],[126.55059,35.13372],[126.55065,35.13372],[126.55074,35.13371],[126.5508,35.13371],[126.55091,35.13372],[126.551,35.13374],[126.55106,35.13375],[126.55338,35.13468],[126.55469,35.13358],[126.55539,35.13069],[126.55853,35.12449],[126.55868,35.12431],[126.5592,35.12401],[126.55984,35.12375],[126.56012,35.12362],[126.56031,35.12301],[126.5603,35.12168],[126.56028,35.12151],[126.56011,35.12069],[126.55992,35.12025],[126.55964,35.11978],[126.55917,35.11936],[126.55866,35.1191],[126.55776,35.11875],[126.55769,35.11873],[126.55725,35.11889],[126.5568,35.11906],[126.5564,35.1192],[126.55622,35.11923],[126.55346,35.11903],[126.55321,35.11875],[126.5497,35.11465],[126.54887,35.11292],[126.54898,35.1126],[126.54907,35.11233],[126.54907,35.11216],[126.54883,35.10891],[126.54881,35.10888],[126.54852,35.10846],[126.54815,35.10792],[126.54793,35.10762],[126.5479,35.10757],[126.54786,35.10745],[126.54783,35.10728],[126.54783,35.10715],[126.54785,35.10705],[126.54786,35.10695],[126.54789,35.10684],[126.54796,35.10674],[126.54914,35.10538],[126.54954,35.10505],[126.5537,35.10213],[126.55857,35.09783],[126.56048,35.0962],[126.56099,35.09584],[126.56167,35.09556],[126.56301,35.09506],[126.56417,35.09471],[126.56629,35.09436],[126.56779,35.09416],[126.56787,35.09426],[126.56797,35.09434],[126.56823,35.09452],[126.56839,35.09461],[126.56861,35.09473],[126.56895,35.09488],[126.57093,35.09553],[126.57102,35.09555],[126.57833,35.09459],[126.58205,35.09347],[126.58217,35.09341],[126.5822,35.09322],[126.58221,35.09284],[126.58228,35.09269],[126.58271,35.09215],[126.5831,35.09192],[126.58357,35.09172],[126.58821,35.09038],[126.58951,35.09057],[126.5897,35.0906],[126.58999,35.09059],[126.59029,35.09052],[126.5946,35.089],[126.59586,35.0885],[126.59574,35.08827],[126.59555,35.08783],[126.59539,35.08715],[126.59544,35.08664],[126.59576,35.0856],[126.59586,35.08523],[126.59583,35.0847],[126.59573,35.08405],[126.59546,35.0831],[126.59487,35.08177],[126.59425,35.08111],[126.59339,35.08039],[126.59328,35.08029],[126.593,35.07986],[126.59282,35.07944],[126.59274,35.07897],[126.59272,35.07852],[126.59273,35.07824],[126.59211,35.07419],[126.59117,35.07051],[126.59112,35.06993],[126.59119,35.06941],[126.59181,35.06816],[126.59124,35.06567],[126.58872,35.0597],[126.58813,35.0584],[126.58791,35.0578],[126.5876,35.05749],[126.58706,35.05714],[126.58658,35.05705],[126.58616,35.05706],[126.58451,35.05722],[126.58442,35.05729],[126.57879,35.06218],[126.57873,35.06224],[126.5782,35.06347],[126.57768,35.06482],[126.57749,35.06487],[126.5769,35.06504],[126.57685,35.06504],[126.57512,35.06468],[126.57388,35.06409],[126.57387,35.06406],[126.57387,35.06402],[126.57403,35.0631],[126.574,35.06141],[126.57399,35.06132],[126.57397,35.06124],[126.57391,35.0611],[126.57384,35.06098],[126.57237,35.05896],[126.57094,35.05727],[126.56953,35.0538],[126.56759,35.0522],[126.56633,35.0523],[126.56118,35.05329],[126.56016,35.05502],[126.56025,35.05548],[126.56003,35.05656],[126.55947,35.05829],[126.55873,35.05961],[126.5582,35.05997],[126.55793,35.06003],[126.55509,35.05968],[126.55469,35.05955],[126.55418,35.05926],[126.55379,35.05891],[126.55296,35.05776],[126.5503,35.0586],[126.55021,35.05878],[126.55005,35.05904],[126.54994,35.05921],[126.54975,35.05947],[126.5493,35.06005],[126.54881,35.06065],[126.5485,35.06102],[126.54807,35.06145],[126.5474,35.06203],[126.54728,35.06211],[126.5468,35.06242],[126.54645,35.0626],[126.54603,35.06281],[126.54582,35.06289],[126.54519,35.06278],[126.54477,35.06256],[126.54452,35.0623],[126.54492,35.06198],[126.544,35.05912],[126.54392,35.05901],[126.54378,35.05887],[126.5437,35.05883],[126.54366,35.0588],[126.54344,35.05869],[126.54311,35.05859],[126.54262,35.05846],[126.54227,35.05835],[126.54187,35.05815],[126.54005,35.05669],[126.53891,35.05569],[126.53837,35.05489],[126.53679,35.05281],[126.53647,35.05241],[126.5359,35.05192],[126.53535,35.05155],[126.53493,35.05135],[126.53448,35.05136],[126.5342,35.05138],[126.53086,35.05198],[126.53082,35.05205],[126.53069,35.05243],[126.5308,35.05252],[126.53117,35.05321],[126.53118,35.05327],[126.53125,35.0536],[126.53131,35.05393],[126.53138,35.05474],[126.53138,35.05547],[126.53073,35.06338],[126.53015,35.06576],[126.5294,35.06767],[126.52926,35.06795],[126.52915,35.06918],[126.52991,35.07158],[126.52998,35.07461],[126.52724,35.0794],[126.52718,35.07945],[126.52706,35.07946],[126.52678,35.07944],[126.52649,35.07939],[126.52625,35.0793],[126.52296,35.07776],[126.52288,35.07615],[126.51972,35.07618],[126.51842,35.07622],[126.51771,35.07625],[126.51763,35.07629],[126.51757,35.07632],[126.51719,35.07654],[126.51694,35.07672],[126.51287,35.07963],[126.51262,35.07983],[126.51234,35.08006],[126.5121,35.08027],[126.51186,35.08053],[126.51149,35.08096],[126.51015,35.08271],[126.5099,35.08306],[126.50964,35.08344],[126.50948,35.08375],[126.50918,35.08441],[126.50785,35.08734],[126.50714,35.08913],[126.50686,35.08913],[126.50529,35.0891],[126.50524,35.0899],[126.50551,35.09252],[126.5058,35.09322],[126.50627,35.09391],[126.50631,35.09442],[126.50626,35.09505],[126.50602,35.09524],[126.50579,35.0954],[126.50557,35.09553],[126.5053,35.09563],[126.50508,35.09571],[126.50316,35.09627],[126.50242,35.09646],[126.50071,35.09686],[126.49852,35.09906],[126.49856,35.09928],[126.49857,35.09931],[126.49858,35.09952],[126.49858,35.09964],[126.49855,35.09985],[126.49841,35.10049],[126.49789,35.10212],[126.49785,35.10225],[126.49782,35.10234],[126.49774,35.10249],[126.49761,35.10263],[126.49728,35.1029],[126.4958,35.10411],[126.49561,35.10425],[126.49454,35.10483],[126.49436,35.10489],[126.49426,35.1049],[126.49415,35.10488],[126.49397,35.10483],[126.49256,35.10504],[126.49008,35.10578],[126.49004,35.1058],[126.49003,35.10584],[126.49015,35.11115],[126.49016,35.11138],[126.49098,35.11138],[126.49133,35.11243],[126.49149,35.11295],[126.49165,35.11379],[126.49132,35.1146],[126.49158,35.11494],[126.49177,35.11547],[126.49187,35.11898],[126.49177,35.11909],[126.49153,35.11935],[126.4912,35.11969],[126.49104,35.11992],[126.49095,35.12007],[126.49058,35.12269],[126.4906,35.12286],[126.49065,35.123],[126.49199,35.12552],[126.49211,35.12572],[126.49228,35.12586],[126.4932,35.12656],[126.49345,35.12673],[126.49371,35.12686],[126.49392,35.12696],[126.49557,35.12759],[126.49605,35.12735],[126.49628,35.12722],[126.49653,35.12707],[126.49779,35.12704],[126.49962,35.12703],[126.5012,35.12706],[126.50148,35.12708],[126.50255,35.12717],[126.50255,35.12721],[126.50242,35.12736],[126.50214,35.12768],[126.50153,35.12862],[126.50083,35.12977],[126.50081,35.12982],[126.50079,35.12989],[126.50077,35.12996],[126.50075,35.13003],[126.49915,35.13858],[126.49915,35.13864],[126.49918,35.13868],[126.4998,35.1391],[126.4999,35.1391],[126.5019,35.13834],[126.50196,35.13831],[126.50205,35.13826],[126.50473,35.13658],[126.50518,35.13628],[126.50599,35.13569],[126.50759,35.13465],[126.50767,35.13462],[126.5078,35.13457],[126.50793,35.13453],[126.50859,35.13443],[126.5089,35.13439],[126.50938,35.13435],[126.50947,35.13435],[126.50958,35.13435],[126.51033,35.13441],[126.51042,35.13442],[126.51051,35.13444],[126.51058,35.13447],[126.51101,35.13469],[126.51106,35.13473],[126.51109,35.13477],[126.51296,35.13768],[126.51333,35.13841],[126.5174,35.13985],[126.51868,35.14027],[126.51874,35.14029],[126.51878,35.14028],[126.51883,35.14025],[126.51899,35.14012],[126.51918,35.13995],[126.51938,35.13977],[126.51946,35.13972],[126.51953,35.13971],[126.5196,35.13972],[126.52126,35.14028],[126.52296,35.14095],[126.52314,35.14106],[126.52324,35.14114],[126.52332,35.14122],[126.52349,35.14139],[126.52355,35.14148],[126.52359,35.14154],[126.52362,35.14162],[126.52397,35.14255],[126.52399,35.14263],[126.52399,35.14266],[126.52399,35.14275],[126.52397,35.14278],[126.52393,35.14291],[126.52389,35.14317],[126.52389,35.14323],[126.52388,35.14345],[126.5239,35.14348],[126.52393,35.14354],[126.52397,35.1436],[126.52401,35.14364],[126.52709,35.14713],[126.52874,35.14847],[126.52618,35.15],[126.52614,35.14999],[126.52607,35.14998],[126.52603,35.14998],[126.52599,35.14998],[126.52592,35.15],[126.52583,35.15003],[126.52572,35.15008],[126.5256,35.15018],[126.5244,35.15111],[126.52427,35.15123],[126.52379,35.15171],[126.5216,35.15407],[126.52159,35.15411],[126.52159,35.15418],[126.52161,35.15429],[126.52175,35.1546],[126.52183,35.15473],[126.52194,35.15485],[126.52342,35.1563],[126.52465,35.15662],[126.52498,35.15669],[126.52506,35.15671],[126.52512,35.15671],[126.52563,35.15676],[126.52579,35.15676],[126.52643,35.15679],[126.52649,35.15679],[126.52657,35.15679],[126.52661,35.15679],[126.52669,35.15677],[126.52687,35.1567],[126.52692,35.15668],[126.52708,35.15662],[126.52716,35.15657],[126.52727,35.15651],[126.52737,35.15646],[126.52749,35.15641],[126.52753,35.1564],[126.52756,35.15639],[126.5276,35.15638],[126.52766,35.15638],[126.52773,35.15638],[126.52799,35.15637],[126.52867,35.1564],[126.5291,35.15643],[126.52917,35.15643],[126.52922,35.15645],[126.52924,35.15648],[126.52924,35.15655],[126.52921,35.15685],[126.5292,35.15697],[126.52919,35.15701],[126.52837,35.15996],[126.52799,35.16117],[126.52793,35.16128],[126.52784,35.16155],[126.52779,35.16171],[126.52779,35.16176],[126.52778,35.16181],[126.52778,35.16187],[126.52764,35.1637],[126.52762,35.16816],[126.52764,35.1686],[126.52765,35.16884],[126.52777,35.16957],[126.52778,35.16961],[126.52864,35.17189],[126.52869,35.17193],[126.52878,35.17196],[126.52884,35.17198],[126.52922,35.17208],[126.52929,35.1721],[126.52937,35.17211],[126.52942,35.17211],[126.52946,35.17211],[126.5295,35.17211],[126.52964,35.17208],[126.52968,35.17207],[126.52973,35.17205],[126.53025,35.1718]]]]}},{"type":"Feature","properties":{"code":"12820360","name":"나산면","parent":"12820"},"geometry":{"type":"MultiPolygon","coordinates":[[[[126.65118,35.15069],[126.65067,35.15009],[126.65108,35.14895],[126.65078,35.14821],[126.64898,35.1471],[126.64467,35.14659],[126.64787,35.14388],[126.65124,35.1441],[126.65352,35.14365],[126.65315,35.14267],[126.6528,35.14089],[126.65336,35.13918],[126.65367,35.13897],[126.65392,35.13881],[126.65485,35.13672],[126.6546,35.13451],[126.65453,35.13386],[126.6532,35.12712],[126.65206,35.12549],[126.65196,35.12535],[126.65165,35.12492],[126.65234,35.12332],[126.65255,35.12223],[126.65239,35.1218],[126.65151,35.1205],[126.65152,35.12045],[126.65184,35.1196],[126.65273,35.11869],[126.65371,35.11847],[126.65498,35.11787],[126.65534,35.11688],[126.65522,35.11503],[126.65534,35.11257],[126.65572,35.11147],[126.6557,35.1107],[126.65454,35.10834],[126.65398,35.10748],[126.65069,35.10606],[126.6491,35.10543],[126.64892,35.10544],[126.64872,35.10543],[126.6485,35.1054],[126.64821,35.10532],[126.64705,35.10396],[126.64678,35.10352],[126.64675,35.10096],[126.64734,35.10057],[126.6479,35.10015],[126.64846,35.09895],[126.64722,35.09581],[126.64278,35.09441],[126.64024,35.09383],[126.63917,35.09366],[126.63883,35.09361],[126.63843,35.09365],[126.63732,35.09388],[126.6365,35.09408],[126.63545,35.09452],[126.63131,35.09291],[126.62924,35.09209],[126.62641,35.08929],[126.62615,35.0889],[126.62591,35.08871],[126.62451,35.08775],[126.62332,35.08693],[126.62309,35.08693],[126.62305,35.08693],[126.61993,35.088],[126.61966,35.08816],[126.61928,35.08847],[126.6189,35.0889],[126.61873,35.0893],[126.6186,35.08996],[126.6182,35.09035],[126.61757,35.09075],[126.61721,35.09078],[126.61572,35.09089],[126.61499,35.09074],[126.61341,35.09109],[126.6085,35.09291],[126.60744,35.09375],[126.60639,35.09479],[126.60525,35.09654],[126.60513,35.0969],[126.60505,35.09769],[126.60484,35.09922],[126.60389,35.09954],[126.60383,35.09955],[126.59991,35.09988],[126.5996,35.09984],[126.59382,35.09792],[126.59367,35.09781],[126.59364,35.0978],[126.59374,35.09758],[126.59413,35.09715],[126.59443,35.09697],[126.5952,35.09668],[126.59604,35.09631],[126.59668,35.0959],[126.59709,35.09558],[126.59719,35.09543],[126.59773,35.09339],[126.59776,35.09319],[126.59773,35.09304],[126.59713,35.09116],[126.59685,35.09033],[126.59586,35.0885],[126.5946,35.089],[126.59029,35.09052],[126.58999,35.09059],[126.5897,35.0906],[126.58951,35.09057],[126.58821,35.09038],[126.58357,35.09172],[126.5831,35.09192],[126.58271,35.09215],[126.58228,35.09269],[126.58221,35.09284],[126.5822,35.09322],[126.58217,35.09341],[126.58205,35.09347],[126.57833,35.09459],[126.57102,35.09555],[126.57093,35.09553],[126.56895,35.09488],[126.56861,35.09473],[126.56839,35.09461],[126.56823,35.09452],[126.56797,35.09434],[126.56787,35.09426],[126.56779,35.09416],[126.56629,35.09436],[126.56417,35.09471],[126.56301,35.09506],[126.56167,35.09556],[126.56099,35.09584],[126.56048,35.0962],[126.55857,35.09783],[126.5537,35.10213],[126.54954,35.10505],[126.54914,35.10538],[126.54796,35.10674],[126.54789,35.10684],[126.54786,35.10695],[126.54785,35.10705],[126.54783,35.10715],[126.54783,35.10728],[126.54786,35.10745],[126.5479,35.10757],[126.54793,35.10762],[126.54815,35.10792],[126.54852,35.10846],[126.54881,35.10888],[126.54883,35.10891],[126.54907,35.11216],[126.54907,35.11233],[126.54898,35.1126],[126.54887,35.11292],[126.5497,35.11465],[126.55321,35.11875],[126.55346,35.11903],[126.55622,35.11923],[126.5564,35.1192],[126.5568,35.11906],[126.55725,35.11889],[126.55769,35.11873],[126.55776,35.11875],[126.55866,35.1191],[126.55917,35.11936],[126.55964,35.11978],[126.55992,35.12025],[126.56011,35.12069],[126.56028,35.12151],[126.5603,35.12168],[126.56031,35.12301],[126.56012,35.12362],[126.55984,35.12375],[126.5592,35.12401],[126.55868,35.12431],[126.55853,35.12449],[126.55539,35.13069],[126.55469,35.13358],[126.55338,35.13468],[126.55333,35.13557],[126.55352,35.13867],[126.55352,35.13875],[126.55354,35.13881],[126.55412,35.14],[126.55416,35.14005],[126.55422,35.14012],[126.55794,35.14215],[126.55803,35.14219],[126.55812,35.14222],[126.55821,35.14223],[126.55827,35.14223],[126.55842,35.14221],[126.55853,35.14217],[126.5587,35.1421],[126.55881,35.14203],[126.55891,35.14199],[126.55903,35.14196],[126.55919,35.14193],[126.55946,35.14192],[126.55998,35.14191],[126.56014,35.14193],[126.56025,35.14195],[126.56031,35.14196],[126.56034,35.14198],[126.56037,35.14202],[126.561,35.14278],[126.56108,35.14291],[126.5611,35.14298],[126.56116,35.14317],[126.56153,35.14509],[126.56153,35.14512],[126.56153,35.14518],[126.56153,35.14523],[126.56153,35.14531],[126.56147,35.1456],[126.5614,35.1458],[126.56108,35.14648],[126.56103,35.1466],[126.561,35.14667],[126.56099,35.14671],[126.56099,35.14673],[126.56257,35.14758],[126.5655,35.14893],[126.56553,35.14893],[126.56558,35.14893],[126.56615,35.14861],[126.5662,35.14856],[126.56625,35.1485],[126.56628,35.14844],[126.56665,35.14761],[126.56667,35.14757],[126.56668,35.1475],[126.56668,35.14742],[126.56619,35.14501],[126.56599,35.14429],[126.56576,35.1436],[126.56574,35.14348],[126.56574,35.14342],[126.56576,35.14337],[126.56581,35.14333],[126.56586,35.14329],[126.566,35.14323],[126.56619,35.1432],[126.56642,35.14316],[126.57064,35.14247],[126.57071,35.14246],[126.57081,35.14245],[126.57085,35.14246],[126.57093,35.14249],[126.57099,35.14253],[126.5711,35.14261],[126.57118,35.14269],[126.57124,35.14278],[126.57137,35.14303],[126.57149,35.14331],[126.57186,35.14391],[126.57195,35.14405],[126.57203,35.14417],[126.57211,35.14427],[126.57221,35.14436],[126.57227,35.14441],[126.57256,35.14457],[126.57878,35.14782],[126.57882,35.14784],[126.57965,35.14814],[126.57979,35.14819],[126.58115,35.14854],[126.58129,35.14858],[126.58139,35.1486],[126.58146,35.14861],[126.58152,35.14861],[126.58156,35.14861],[126.58162,35.1486],[126.58667,35.15069],[126.58673,35.15072],[126.58679,35.15075],[126.58686,35.15082],[126.58698,35.15092],[126.58703,35.15098],[126.58712,35.1511],[126.58763,35.15177],[126.58787,35.15238],[126.5879,35.1535],[126.59228,35.15436],[126.59411,35.15466],[126.59589,35.1542],[126.59665,35.15361],[126.5988,35.15172],[126.599,35.1515],[126.59908,35.15141],[126.59926,35.15114],[126.59937,35.15092],[126.59969,35.15021],[126.59984,35.15],[126.60002,35.1498],[126.6002,35.14961],[126.60074,35.14943],[126.60275,35.14878],[126.603,35.14874],[126.60786,35.14833],[126.6084,35.14906],[126.60848,35.14923],[126.60916,35.14984],[126.61133,35.15145],[126.61158,35.15152],[126.61325,35.15175],[126.61417,35.15105],[126.61516,35.15096],[126.61634,35.151],[126.61608,35.15455],[126.61597,35.1554],[126.62016,35.15539],[126.62061,35.15538],[126.62208,35.15517],[126.62438,35.15469],[126.62582,35.15307],[126.62586,35.15182],[126.62584,35.15171],[126.62581,35.15082],[126.62794,35.14934],[126.62846,35.1491],[126.6296,35.14869],[126.62981,35.14865],[126.62994,35.14867],[126.63135,35.14918],[126.63554,35.15141],[126.64018,35.15419],[126.64159,35.15537],[126.64163,35.1554],[126.64173,35.15537],[126.64178,35.15536],[126.64722,35.15245],[126.64757,35.15248],[126.64819,35.15252],[126.64857,35.15253],[126.64953,35.15235],[126.64996,35.15225],[126.65012,35.15216],[126.65031,35.15201],[126.65069,35.15161],[126.65087,35.15141],[126.65118,35.15069]]]]}},{"type":"Feature","properties":{"code":"12820370","name":"해보면","parent":"12820"},"geometry":{"type":"MultiPolygon","coordinates":[[[[126.61597,35.1554],[126.61608,35.15455],[126.61634,35.151],[126.61516,35.15096],[126.61417,35.15105],[126.61325,35.15175],[126.61158,35.15152],[126.61133,35.15145],[126.60916,35.14984],[126.60848,35.14923],[126.6084,35.14906],[126.60786,35.14833],[126.603,35.14874],[126.60275,35.14878],[126.60074,35.14943],[126.6002,35.14961],[126.60002,35.1498],[126.59984,35.15],[126.59969,35.15021],[126.59937,35.15092],[126.59926,35.15114],[126.59908,35.15141],[126.599,35.1515],[126.5988,35.15172],[126.59665,35.15361],[126.59589,35.1542],[126.59411,35.15466],[126.59228,35.15436],[126.5879,35.1535],[126.58787,35.15238],[126.58763,35.15177],[126.58712,35.1511],[126.58703,35.15098],[126.58698,35.15092],[126.58686,35.15082],[126.58679,35.15075],[126.58673,35.15072],[126.58667,35.15069],[126.58162,35.1486],[126.58156,35.14861],[126.58152,35.14861],[126.58146,35.14861],[126.58139,35.1486],[126.58129,35.14858],[126.58115,35.14854],[126.57979,35.14819],[126.57965,35.14814],[126.57882,35.14784],[126.57878,35.14782],[126.57256,35.14457],[126.57227,35.14441],[126.57221,35.14436],[126.57211,35.14427],[126.57203,35.14417],[126.57195,35.14405],[126.57186,35.14391],[126.57149,35.14331],[126.57137,35.14303],[126.57124,35.14278],[126.57118,35.14269],[126.5711,35.14261],[126.57099,35.14253],[126.57093,35.14249],[126.57085,35.14246],[126.57081,35.14245],[126.57071,35.14246],[126.57064,35.14247],[126.56642,35.14316],[126.56619,35.1432],[126.566,35.14323],[126.56586,35.14329],[126.56581,35.14333],[126.56576,35.14337],[126.56574,35.14342],[126.56574,35.14348],[126.56576,35.1436],[126.56599,35.14429],[126.56619,35.14501],[126.56668,35.14742],[126.56668,35.1475],[126.56667,35.14757],[126.56665,35.14761],[126.56628,35.14844],[126.56625,35.1485],[126.5662,35.14856],[126.56615,35.14861],[126.56558,35.14893],[126.56553,35.14893],[126.5655,35.14893],[126.56257,35.14758],[126.56099,35.14673],[126.56099,35.14671],[126.561,35.14667],[126.56103,35.1466],[126.56108,35.14648],[126.5614,35.1458],[126.56147,35.1456],[126.56153,35.14531],[126.56153,35.14523],[126.56153,35.14518],[126.56153,35.14512],[126.56153,35.14509],[126.56116,35.14317],[126.5611,35.14298],[126.56108,35.14291],[126.561,35.14278],[126.56037,35.14202],[126.56034,35.14198],[126.56031,35.14196],[126.56025,35.14195],[126.56014,35.14193],[126.55998,35.14191],[126.55946,35.14192],[126.55919,35.14193],[126.55903,35.14196],[126.55891,35.14199],[126.55881,35.14203],[126.5587,35.1421],[126.55853,35.14217],[126.55842,35.14221],[126.55827,35.14223],[126.55821,35.14223],[126.55812,35.14222],[126.55803,35.14219],[126.55794,35.14215],[126.55422,35.14012],[126.55416,35.14005],[126.55412,35.14],[126.55354,35.13881],[126.55352,35.13875],[126.55352,35.13867],[126.55333,35.13557],[126.55338,35.13468],[126.55106,35.13375],[126.551,35.13374],[126.55091,35.13372],[126.5508,35.13371],[126.55074,35.13371],[126.55065,35.13372],[126.55059,35.13372],[126.54878,35.13381],[126.54868,35.13382],[126.54862,35.13383],[126.54854,35.13386],[126.54838,35.13394],[126.54682,35.13497],[126.54676,35.13503],[126.5465,35.13542],[126.54636,35.13564],[126.54626,35.13585],[126.54614,35.13621],[126.54529,35.13666],[126.54417,35.13699],[126.54406,35.13702],[126.54383,35.13708],[126.54236,35.13734],[126.54221,35.13736],[126.54209,35.13736],[126.54144,35.13733],[126.54138,35.13732],[126.54051,35.1378],[126.54023,35.13929],[126.54025,35.13968],[126.54041,35.1412],[126.54046,35.1415],[126.54049,35.14161],[126.54053,35.1417],[126.54083,35.14231],[126.54093,35.14251],[126.54098,35.14263],[126.54102,35.14283],[126.54102,35.14288],[126.54101,35.14293],[126.53956,35.14497],[126.53815,35.14702],[126.53935,35.14812],[126.53886,35.15538],[126.53885,35.15543],[126.53884,35.15547],[126.53882,35.15551],[126.53881,35.15555],[126.53875,35.15564],[126.53869,35.15573],[126.53865,35.15578],[126.53858,35.15586],[126.53854,35.15589],[126.53844,35.15603],[126.53841,35.15607],[126.53836,35.15616],[126.53835,35.15619],[126.53804,35.15704],[126.53787,35.15763],[126.53785,35.1577],[126.53784,35.15775],[126.53783,35.15781],[126.53783,35.15809],[126.53783,35.15818],[126.53813,35.15983],[126.53837,35.16101],[126.53839,35.16108],[126.53845,35.16131],[126.53847,35.16141],[126.53848,35.16149],[126.53849,35.16156],[126.53849,35.16162],[126.53847,35.16181],[126.53843,35.16224],[126.53843,35.1623],[126.53842,35.16236],[126.53841,35.1624],[126.5384,35.16244],[126.53836,35.16258],[126.53833,35.16266],[126.53735,35.16468],[126.53733,35.16472],[126.53727,35.16483],[126.53697,35.1653],[126.53692,35.16537],[126.53685,35.16545],[126.53674,35.16554],[126.5367,35.16557],[126.53666,35.16559],[126.53661,35.16561],[126.53655,35.16564],[126.5365,35.16566],[126.53643,35.16568],[126.53635,35.1657],[126.53625,35.16572],[126.53618,35.16573],[126.53611,35.16574],[126.53603,35.16575],[126.53591,35.16575],[126.53586,35.16574],[126.53581,35.16573],[126.53577,35.16572],[126.53573,35.1657],[126.5357,35.16569],[126.53564,35.16564],[126.53551,35.16555],[126.53543,35.16548],[126.53537,35.16543],[126.53532,35.1654],[126.53524,35.16536],[126.53519,35.16534],[126.53514,35.16532],[126.5351,35.16531],[126.53502,35.1653],[126.53494,35.16528],[126.53487,35.16528],[126.53482,35.16528],[126.53476,35.16528],[126.53469,35.16528],[126.53461,35.16529],[126.5343,35.16533],[126.53354,35.16542],[126.53345,35.16543],[126.5334,35.16544],[126.53332,35.16547],[126.53325,35.16551],[126.5332,35.16554],[126.53274,35.1659],[126.53245,35.16614],[126.53239,35.16621],[126.53202,35.16662],[126.53193,35.16673],[126.5318,35.16691],[126.53171,35.16704],[126.53154,35.16729],[126.53075,35.16851],[126.53063,35.1687],[126.53057,35.16879],[126.53051,35.1689],[126.53049,35.16895],[126.53028,35.16967],[126.53026,35.16974],[126.53025,35.1698],[126.53021,35.1701],[126.53012,35.17097],[126.53012,35.17106],[126.53012,35.17112],[126.53012,35.17119],[126.53012,35.17143],[126.53012,35.17147],[126.53013,35.17151],[126.53015,35.17157],[126.5302,35.17171],[126.53022,35.17174],[126.53025,35.1718],[126.53182,35.17234],[126.53218,35.17247],[126.53254,35.17261],[126.53259,35.17263],[126.53264,35.17266],[126.53268,35.17269],[126.53272,35.17272],[126.53275,35.17276],[126.53278,35.17279],[126.53281,35.17282],[126.53289,35.17294],[126.53291,35.17298],[126.53294,35.17307],[126.53301,35.17328],[126.53343,35.17488],[126.53344,35.17494],[126.53344,35.175],[126.53344,35.17512],[126.53344,35.17524],[126.53343,35.17531],[126.53342,35.17548],[126.53341,35.17552],[126.5334,35.17557],[126.53336,35.1758],[126.533,35.17733],[126.53297,35.17741],[126.5329,35.17766],[126.53285,35.17777],[126.53231,35.179],[126.53229,35.17904],[126.53226,35.17908],[126.53221,35.17916],[126.53193,35.17954],[126.53187,35.17961],[126.53176,35.17971],[126.53168,35.17977],[126.53156,35.17984],[126.53148,35.17989],[126.531,35.18039],[126.53098,35.18043],[126.53095,35.18049],[126.53093,35.18059],[126.53074,35.18209],[126.53074,35.18223],[126.53073,35.18235],[126.53074,35.18244],[126.53074,35.1825],[126.53077,35.18263],[126.53348,35.18229],[126.53536,35.18286],[126.53624,35.1833],[126.53645,35.18412],[126.5368,35.18453],[126.53697,35.18472],[126.54114,35.18588],[126.54208,35.1866],[126.5436,35.18811],[126.54366,35.18818],[126.54696,35.18771],[126.54759,35.18602],[126.54895,35.18533],[126.54918,35.18525],[126.55433,35.18617],[126.56088,35.18798],[126.56168,35.18844],[126.56496,35.19072],[126.56495,35.19227],[126.56477,35.19331],[126.5642,35.19454],[126.56303,35.19591],[126.5623,35.19669],[126.56519,35.19868],[126.56813,35.19894],[126.57186,35.19856],[126.57758,35.1976],[126.57863,35.19648],[126.5801,35.19594],[126.58089,35.19602],[126.58097,35.19602],[126.58329,35.1993],[126.5836,35.20132],[126.58425,35.20077],[126.58678,35.19906],[126.58858,35.19817],[126.58895,35.19785],[126.59039,35.19626],[126.59093,35.19597],[126.59275,35.19511],[126.59328,35.1949],[126.59372,35.19493],[126.5943,35.19526],[126.59493,35.19575],[126.59551,35.19628],[126.5958,35.19652],[126.59588,35.19654],[126.59653,35.19674],[126.59698,35.19683],[126.59748,35.19684],[126.59779,35.19684],[126.60556,35.19585],[126.60589,35.19579],[126.60633,35.1957],[126.60778,35.19534],[126.608,35.19517],[126.60816,35.1949],[126.60839,35.19438],[126.60854,35.194],[126.60884,35.19351],[126.6105,35.19164],[126.61108,35.19101],[126.61335,35.18929],[126.61411,35.1893],[126.61866,35.18934],[126.61998,35.18877],[126.62067,35.18735],[126.62071,35.18727],[126.62054,35.18701],[126.61965,35.18562],[126.61873,35.18409],[126.61864,35.18344],[126.61876,35.18269],[126.61913,35.18209],[126.61954,35.18168],[126.61992,35.18135],[126.62058,35.18082],[126.62136,35.18034],[126.62173,35.17969],[126.6221,35.17901],[126.62206,35.17859],[126.62191,35.1781],[126.61981,35.17258],[126.61749,35.16857],[126.6171,35.16816],[126.61521,35.16729],[126.61468,35.16706],[126.61359,35.16667],[126.61248,35.16596],[126.61208,35.16564],[126.6118,35.16522],[126.61127,35.16387],[126.61141,35.16357],[126.61176,35.16312],[126.61247,35.16189],[126.61391,35.15927],[126.61502,35.15721],[126.61597,35.1554]]]]}},{"type":"Feature","properties":{"code":"12820380","name":"월야면","parent":"12820"},"geometry":{"type":"MultiPolygon","coordinates":[[[[126.65312,35.1924],[126.6537,35.19127],[126.65404,35.19078],[126.65552,35.18877],[126.65822,35.18607],[126.65947,35.1858],[126.66156,35.18427],[126.66371,35.18227],[126.66325,35.18191],[126.6627,35.18149],[126.66261,35.18131],[126.66246,35.181],[126.66251,35.18053],[126.66258,35.1805],[126.66505,35.17932],[126.66687,35.17679],[126.66782,35.17541],[126.66797,35.17528],[126.66825,35.17506],[126.66931,35.17483],[126.66941,35.1748],[126.67004,35.17506],[126.67063,35.17515],[126.67093,35.17503],[126.67098,35.175],[126.67137,35.17452],[126.67191,35.17262],[126.67192,35.17205],[126.67165,35.17065],[126.67162,35.17055],[126.67105,35.16944],[126.67009,35.1695],[126.66973,35.1695],[126.66936,35.16945],[126.66566,35.16877],[126.66449,35.16848],[126.66439,35.16846],[126.66427,35.16841],[126.66286,35.16748],[126.66279,35.16643],[126.66075,35.16673],[126.65957,35.16642],[126.65856,35.16683],[126.65727,35.16663],[126.65587,35.16588],[126.65397,35.16457],[126.65419,35.16221],[126.65372,35.16123],[126.65409,35.16039],[126.65515,35.15973],[126.65549,35.15887],[126.65381,35.1576],[126.65307,35.15646],[126.65222,35.15609],[126.65166,35.15542],[126.65155,35.15474],[126.65172,35.15405],[126.65364,35.15304],[126.65325,35.15256],[126.65305,35.1523],[126.65209,35.1514],[126.65118,35.15069],[126.65087,35.15141],[126.65069,35.15161],[126.65031,35.15201],[126.65012,35.15216],[126.64996,35.15225],[126.64953,35.15235],[126.64857,35.15253],[126.64819,35.15252],[126.64757,35.15248],[126.64722,35.15245],[126.64178,35.15536],[126.64173,35.15537],[126.64163,35.1554],[126.64159,35.15537],[126.64018,35.15419],[126.63554,35.15141],[126.63135,35.14918],[126.62994,35.14867],[126.62981,35.14865],[126.6296,35.14869],[126.62846,35.1491],[126.62794,35.14934],[126.62581,35.15082],[126.62584,35.15171],[126.62586,35.15182],[126.62582,35.15307],[126.62438,35.15469],[126.62208,35.15517],[126.62061,35.15538],[126.62016,35.15539],[126.61597,35.1554],[126.61502,35.15721],[126.61391,35.15927],[126.61247,35.16189],[126.61176,35.16312],[126.61141,35.16357],[126.61127,35.16387],[126.6118,35.16522],[126.61208,35.16564],[126.61248,35.16596],[126.61359,35.16667],[126.61468,35.16706],[126.61521,35.16729],[126.6171,35.16816],[126.61749,35.16857],[126.61981,35.17258],[126.62191,35.1781],[126.62206,35.17859],[126.6221,35.17901],[126.62173,35.17969],[126.62136,35.18034],[126.62058,35.18082],[126.61992,35.18135],[126.61954,35.18168],[126.61913,35.18209],[126.61876,35.18269],[126.61864,35.18344],[126.61873,35.18409],[126.61965,35.18562],[126.62054,35.18701],[126.62071,35.18727],[126.62067,35.18735],[126.61998,35.18877],[126.61866,35.18934],[126.61411,35.1893],[126.61335,35.18929],[126.61108,35.19101],[126.6105,35.19164],[126.60884,35.19351],[126.60854,35.194],[126.60839,35.19438],[126.60816,35.1949],[126.608,35.19517],[126.60778,35.19534],[126.60633,35.1957],[126.60589,35.19579],[126.60556,35.19585],[126.59779,35.19684],[126.59748,35.19684],[126.59698,35.19683],[126.59653,35.19674],[126.59588,35.19654],[126.5958,35.19652],[126.59551,35.19628],[126.59493,35.19575],[126.5943,35.19526],[126.59372,35.19493],[126.59328,35.1949],[126.59275,35.19511],[126.59093,35.19597],[126.59039,35.19626],[126.58895,35.19785],[126.58858,35.19817],[126.58678,35.19906],[126.58425,35.20077],[126.5836,35.20132],[126.5846,35.20221],[126.58582,35.20559],[126.58675,35.20821],[126.58729,35.20951],[126.58778,35.21033],[126.58796,35.21045],[126.58905,35.21115],[126.59055,35.21342],[126.59106,35.21673],[126.59083,35.21742],[126.59009,35.21748],[126.58979,35.21781],[126.5896,35.21987],[126.5896,35.22034],[126.59033,35.2223],[126.59058,35.2225],[126.5912,35.22255],[126.5916,35.22271],[126.59313,35.22441],[126.59131,35.22538],[126.59094,35.22597],[126.58948,35.22917],[126.58948,35.22948],[126.59014,35.23054],[126.59049,35.23097],[126.59188,35.23194],[126.59263,35.23242],[126.59585,35.23435],[126.59656,35.23469],[126.59681,35.23481],[126.59705,35.23491],[126.59973,35.23556],[126.60083,35.23566],[126.60103,35.23566],[126.60126,35.23566],[126.6015,35.23561],[126.60298,35.23452],[126.60381,35.2339],[126.6041,35.23374],[126.60504,35.23323],[126.61163,35.22971],[126.61172,35.22969],[126.61188,35.22969],[126.61212,35.22976],[126.61231,35.22985],[126.61249,35.22995],[126.61323,35.22946],[126.61384,35.22869],[126.61693,35.22435],[126.61696,35.22421],[126.61692,35.2238],[126.61685,35.22357],[126.61681,35.22324],[126.61686,35.223],[126.61714,35.22255],[126.61748,35.22214],[126.61752,35.2221],[126.61779,35.22179],[126.61823,35.22142],[126.6184,35.22127],[126.61884,35.22102],[126.61925,35.22089],[126.61929,35.22088],[126.62246,35.22009],[126.62319,35.21995],[126.62445,35.21974],[126.62581,35.21949],[126.62597,35.21945],[126.62605,35.21943],[126.6262,35.21928],[126.62819,35.21698],[126.62841,35.21655],[126.6288,35.21578],[126.62891,35.2155],[126.62891,35.21535],[126.62895,35.21518],[126.62901,35.21503],[126.62996,35.21401],[126.63038,35.21364],[126.63341,35.21124],[126.63381,35.21092],[126.63397,35.21081],[126.63471,35.21033],[126.6392,35.20765],[126.63926,35.20764],[126.63953,35.2078],[126.63961,35.20783],[126.63971,35.20787],[126.6398,35.20787],[126.64169,35.20758],[126.64198,35.20752],[126.6422,35.20746],[126.64255,35.20735],[126.64263,35.20728],[126.64534,35.20358],[126.64624,35.20186],[126.64714,35.20043],[126.6489,35.1988],[126.64953,35.19849],[126.64976,35.19834],[126.64991,35.19822],[126.65163,35.19661],[126.6517,35.19651],[126.65194,35.19596],[126.65164,35.19438],[126.65157,35.19425],[126.65141,35.19408],[126.65128,35.19393],[126.65113,35.19376],[126.65105,35.19362],[126.65098,35.1933],[126.65099,35.19316],[126.65312,35.1924]]]]}}]}