{"type":"FeatureCollection","features":[{"type":"Feature","properties":{"code":"26470610","name":"거제1동","parent":"26470"},"geometry":{"type":"MultiPolygon","coordinates":[[[[129.08033,35.19927],[129.0831,35.19642],[129.08406,35.19563],[129.08472,35.19521],[129.08561,35.19472],[129.08588,35.1946],[129.08637,35.19438],[129.08651,35.19434],[129.08711,35.19416],[129.08955,35.19362],[129.09039,35.19351],[129.09073,35.19346],[129.08863,35.19178],[129.08713,35.19181],[129.08548,35.19185],[129.08491,35.19192],[129.08362,35.19218],[129.08019,35.1916],[129.07722,35.18773],[129.0754,35.18844],[129.07412,35.18859],[129.07387,35.18912],[129.07369,35.18934],[129.06992,35.19185],[129.06715,35.19208],[129.06648,35.19416],[129.07123,35.19512],[129.07296,35.19668],[129.07341,35.19716],[129.07426,35.19806],[129.07487,35.19828],[129.07626,35.1988],[129.0764,35.19885],[129.07791,35.1994],[129.07809,35.19938],[129.07816,35.19938],[129.08033,35.19927]]]]}},{"type":"Feature","properties":{"code":"26470620","name":"거제2동","parent":"26470"},"geometry":{"type":"MultiPolygon","coordinates":[[[[129.07412,35.18859],[129.07063,35.18552],[129.0705,35.18553],[129.06918,35.18545],[129.06387,35.18448],[129.0612,35.18389],[129.06033,35.18407],[129.05664,35.18446],[129.05397,35.18432],[129.05204,35.18478],[129.05097,35.1858],[129.04823,35.18959],[129.04697,35.19186],[129.04693,35.19218],[129.04706,35.19292],[129.04742,35.19384],[129.04769,35.19421],[129.05279,35.19217],[129.05306,35.19208],[129.05322,35.19208],[129.05577,35.19237],[129.05988,35.1913],[129.06275,35.19187],[129.06462,35.19225],[129.0642,35.1937],[129.06648,35.19416],[129.06715,35.19208],[129.06992,35.19185],[129.07369,35.18934],[129.07387,35.18912],[129.07412,35.18859]]]]}},{"type":"Feature","properties":{"code":"26470630","name":"거제3동","parent":"26470"},"geometry":{"type":"MultiPolygon","coordinates":[[[[129.07722,35.18773],[129.07477,35.18434],[129.07472,35.18426],[129.07364,35.18268],[129.07359,35.1826],[129.07238,35.18068],[129.07237,35.18065],[129.0723,35.18052],[129.07191,35.17959],[129.07194,35.17794],[129.07027,35.17583],[129.06778,35.17657],[129.06734,35.1769],[129.06779,35.17861],[129.06785,35.17877],[129.06825,35.17991],[129.06863,35.18088],[129.06881,35.18132],[129.06883,35.18135],[129.06896,35.18166],[129.06917,35.18217],[129.07044,35.18515],[129.07063,35.18552],[129.07412,35.18859],[129.0754,35.18844],[129.07722,35.18773]]]]}},{"type":"Feature","properties":{"code":"26470640","name":"거제4동","parent":"26470"},"geometry":{"type":"MultiPolygon","coordinates":[[[[129.07063,35.18552],[129.07044,35.18515],[129.06917,35.18217],[129.06896,35.18166],[129.06883,35.18135],[129.06881,35.18132],[129.06863,35.18088],[129.06825,35.17991],[129.06785,35.17877],[129.06779,35.17861],[129.06734,35.1769],[129.06473,35.17714],[129.0638,35.17726],[129.06377,35.17726],[129.06339,35.17734],[129.06306,35.17744],[129.06297,35.17749],[129.06292,35.17754],[129.06286,35.17765],[129.0628,35.17801],[129.06276,35.17859],[129.06273,35.1787],[129.0621,35.17993],[129.06203,35.18004],[129.06193,35.1801],[129.06166,35.18025],[129.0612,35.18389],[129.06387,35.18448],[129.06918,35.18545],[129.0705,35.18553],[129.07063,35.18552]]]]}},{"type":"Feature","properties":{"code":"26470650","name":"연산1동","parent":"26470"},"geometry":{"type":"MultiPolygon","coordinates":[[[[129.09543,35.19238],[129.09539,35.19232],[129.09507,35.19186],[129.09455,35.1911],[129.09405,35.18987],[129.09391,35.18952],[129.09337,35.18818],[129.09323,35.18784],[129.09326,35.18591],[129.09336,35.18527],[129.09345,35.18499],[129.09352,35.18484],[129.09366,35.18328],[129.093,35.18269],[129.09174,35.18345],[129.09027,35.18376],[129.09024,35.18372],[129.08912,35.18373],[129.08724,35.18383],[129.08718,35.18385],[129.0872,35.18426],[129.08729,35.18706],[129.08643,35.18708],[129.08504,35.18712],[129.0841,35.18795],[129.08441,35.18822],[129.08462,35.1884],[129.08449,35.18891],[129.08426,35.18987],[129.08362,35.19218],[129.08491,35.19192],[129.08548,35.19185],[129.08713,35.19181],[129.08863,35.19178],[129.09073,35.19346],[129.09499,35.19242],[129.09543,35.19238]]]]}},{"type":"Feature","properties":{"code":"26470660","name":"연산2동","parent":"26470"},"geometry":{"type":"MultiPolygon","coordinates":[[[[129.08384,35.18101],[129.08443,35.17966],[129.08549,35.17723],[129.08588,35.17631],[129.08591,35.17623],[129.08653,35.17461],[129.08578,35.17472],[129.08461,35.17486],[129.08364,35.17243],[129.08272,35.16979],[129.08268,35.16965],[129.08294,35.16924],[129.08326,35.16892],[129.08354,35.16866],[129.08414,35.1677],[129.08464,35.16638],[129.08461,35.16564],[129.08422,35.1644],[129.08371,35.16338],[129.08331,35.16274],[129.08293,35.16214],[129.08203,35.15948],[129.08089,35.15971],[129.07852,35.16242],[129.07885,35.16573],[129.07929,35.16667],[129.07999,35.16706],[129.08081,35.16774],[129.08142,35.16926],[129.08199,35.17125],[129.08196,35.17149],[129.08196,35.17154],[129.08192,35.17174],[129.08168,35.17198],[129.07796,35.1754],[129.07554,35.17731],[129.07503,35.17759],[129.07777,35.18112],[129.07833,35.1818],[129.07916,35.1814],[129.08384,35.18101]]]]}},{"type":"Feature","properties":{"code":"26470670","name":"연산3동","parent":"26470"},"geometry":{"type":"MultiPolygon","coordinates":[[[[129.09646,35.17346],[129.09699,35.17331],[129.09699,35.1732],[129.09711,35.17182],[129.09713,35.17163],[129.09625,35.17022],[129.0953,35.16884],[129.09473,35.16811],[129.09394,35.16733],[129.0932,35.16686],[129.09232,35.16617],[129.09394,35.1626],[129.09432,35.16222],[129.09482,35.16174],[129.09437,35.16114],[129.09371,35.16065],[129.09277,35.16032],[129.09105,35.16035],[129.09031,35.1605],[129.08978,35.1607],[129.08939,35.16081],[129.08802,35.16047],[129.0877,35.16037],[129.08413,35.15881],[129.08293,35.15824],[129.08497,35.16019],[129.08579,35.1607],[129.08842,35.16367],[129.08864,35.16396],[129.08889,35.16442],[129.08888,35.16451],[129.08854,35.16537],[129.08833,35.16585],[129.08774,35.16692],[129.08752,35.16721],[129.0874,35.16745],[129.08704,35.16905],[129.0869,35.16967],[129.08688,35.16979],[129.08684,35.17002],[129.08699,35.17091],[129.08702,35.17112],[129.08711,35.1716],[129.08717,35.17194],[129.08724,35.17234],[129.08773,35.17447],[129.08859,35.17437],[129.08889,35.17433],[129.08937,35.17426],[129.09077,35.17407],[129.093,35.1738],[129.09308,35.17379],[129.09389,35.1737],[129.09412,35.17367],[129.09445,35.17364],[129.09646,35.17346]]]]}},{"type":"Feature","properties":{"code":"26470680","name":"연산4동","parent":"26470"},"geometry":{"type":"MultiPolygon","coordinates":[[[[129.093,35.18269],[129.096,35.18019],[129.09402,35.17969],[129.09345,35.17954],[129.09273,35.17953],[129.09032,35.1795],[129.08834,35.17984],[129.08506,35.17984],[129.08443,35.17966],[129.08384,35.18101],[129.08137,35.18714],[129.08019,35.1916],[129.08362,35.19218],[129.08426,35.18987],[129.08449,35.18891],[129.08462,35.1884],[129.08441,35.18822],[129.0841,35.18795],[129.08504,35.18712],[129.08643,35.18708],[129.08729,35.18706],[129.0872,35.18426],[129.08718,35.18385],[129.08724,35.18383],[129.08912,35.18373],[129.09024,35.18372],[129.09027,35.18376],[129.09174,35.18345],[129.093,35.18269]]]]}},{"type":"Feature","properties":{"code":"26470690","name":"연산5동","parent":"26470"},"geometry":{"type":"MultiPolygon","coordinates":[[[[129.08384,35.18101],[129.07916,35.1814],[129.07833,35.1818],[129.07777,35.18112],[129.07503,35.17759],[129.07191,35.17959],[129.0723,35.18052],[129.07237,35.18065],[129.07238,35.18068],[129.07359,35.1826],[129.07364,35.18268],[129.07472,35.18426],[129.07477,35.18434],[129.07722,35.18773],[129.08019,35.1916],[129.08137,35.18714],[129.08384,35.18101]]]]}},{"type":"Feature","properties":{"code":"26470700","name":"연산6동","parent":"26470"},"geometry":{"type":"MultiPolygon","coordinates":[[[[129.09742,35.17952],[129.0971,35.17897],[129.09667,35.17795],[129.09657,35.17772],[129.09648,35.17736],[129.09647,35.17701],[129.09668,35.17511],[129.09646,35.17346],[129.09445,35.17364],[129.09412,35.17367],[129.09389,35.1737],[129.09308,35.17379],[129.093,35.1738],[129.09077,35.17407],[129.08937,35.17426],[129.08889,35.17433],[129.08859,35.17437],[129.08773,35.17447],[129.08724,35.17234],[129.08717,35.17194],[129.08711,35.1716],[129.08702,35.17112],[129.08699,35.17091],[129.08684,35.17002],[129.08688,35.16979],[129.0869,35.16967],[129.08704,35.16905],[129.0874,35.16745],[129.08752,35.16721],[129.08774,35.16692],[129.08833,35.16585],[129.08854,35.16537],[129.08888,35.16451],[129.08889,35.16442],[129.08864,35.16396],[129.08842,35.16367],[129.08579,35.1607],[129.08497,35.16019],[129.08293,35.15824],[129.08203,35.15948],[129.08293,35.16214],[129.08331,35.16274],[129.08371,35.16338],[129.08422,35.1644],[129.08461,35.16564],[129.08464,35.16638],[129.08414,35.1677],[129.08354,35.16866],[129.08326,35.16892],[129.08294,35.16924],[129.08268,35.16965],[129.08272,35.16979],[129.08364,35.17243],[129.08461,35.17486],[129.08578,35.17472],[129.08653,35.17461],[129.08591,35.17623],[129.08588,35.17631],[129.08549,35.17723],[129.08443,35.17966],[129.08506,35.17984],[129.08834,35.17984],[129.09032,35.1795],[129.09273,35.17953],[129.09345,35.17954],[129.09402,35.17969],[129.096,35.18019],[129.09742,35.17952]]]]}},{"type":"Feature","properties":{"code":"26470720","name":"연산8동","parent":"26470"},"geometry":{"type":"MultiPolygon","coordinates":[[[[129.09941,35.19175],[129.10054,35.18919],[129.10121,35.18769],[129.10265,35.18772],[129.10095,35.18504],[129.10061,35.18454],[129.10033,35.18416],[129.10022,35.18405],[129.10002,35.18385],[129.09995,35.1838],[129.09988,35.18375],[129.09981,35.1837],[129.09971,35.18365],[129.09961,35.1836],[129.09948,35.18352],[129.09945,35.18349],[129.09942,35.18347],[129.09937,35.18342],[129.09803,35.18194],[129.09754,35.18116],[129.0973,35.1806],[129.09721,35.18031],[129.0972,35.18017],[129.0972,35.18005],[129.09724,35.17987],[129.09731,35.17963],[129.09742,35.17952],[129.096,35.18019],[129.093,35.18269],[129.09366,35.18328],[129.09352,35.18484],[129.09345,35.18499],[129.09336,35.18527],[129.09326,35.18591],[129.09323,35.18784],[129.09337,35.18818],[129.09391,35.18952],[129.09405,35.18987],[129.09455,35.1911],[129.09507,35.19186],[129.09539,35.19232],[129.09543,35.19238],[129.09941,35.19175]]]]}},{"type":"Feature","properties":{"code":"26470730","name":"연산9동","parent":"26470"},"geometry":{"type":"MultiPolygon","coordinates":[[[[129.10062,35.19144],[129.10237,35.19099],[129.10378,35.19086],[129.10526,35.19076],[129.10563,35.19074],[129.10818,35.19044],[129.10838,35.19041],[129.11052,35.18964],[129.11216,35.18715],[129.1122,35.187],[129.11241,35.18627],[129.11391,35.18434],[129.11416,35.18404],[129.11448,35.18374],[129.11459,35.18362],[129.11498,35.18331],[129.11516,35.18318],[129.11496,35.1826],[129.11418,35.18076],[129.11415,35.1807],[129.11356,35.17953],[129.1123,35.17717],[129.1111,35.17594],[129.11057,35.17604],[129.10957,35.17623],[129.10795,35.17723],[129.10783,35.17736],[129.10718,35.17811],[129.10715,35.17855],[129.1071,35.17949],[129.10708,35.17966],[129.10621,35.18003],[129.10435,35.18072],[129.10357,35.18087],[129.10039,35.18027],[129.09866,35.17984],[129.09742,35.17952],[129.09731,35.17963],[129.09724,35.17987],[129.0972,35.18005],[129.0972,35.18017],[129.09721,35.18031],[129.0973,35.1806],[129.09754,35.18116],[129.09803,35.18194],[129.09937,35.18342],[129.09942,35.18347],[129.09945,35.18349],[129.09948,35.18352],[129.09961,35.1836],[129.09971,35.18365],[129.09981,35.1837],[129.09988,35.18375],[129.09995,35.1838],[129.10002,35.18385],[129.10022,35.18405],[129.10033,35.18416],[129.10061,35.18454],[129.10095,35.18504],[129.10265,35.18772],[129.10121,35.18769],[129.10054,35.18919],[129.09941,35.19175],[129.10062,35.19144]]]]}}]}