{"type":"FeatureCollection","features":[{"type":"Feature","properties":{"code":"41820250","name":"가평읍","parent":"41820"},"geometry":{"type":"MultiPolygon","coordinates":[[[[127.6076,37.88986],[127.60782,37.88946],[127.60784,37.88942],[127.60785,37.88939],[127.60788,37.8893],[127.60791,37.88919],[127.60794,37.88908],[127.60795,37.88903],[127.60796,37.88895],[127.60799,37.88882],[127.60882,37.88417],[127.60885,37.88394],[127.60886,37.88371],[127.60885,37.88361],[127.60884,37.88349],[127.60881,37.88326],[127.60877,37.88305],[127.60871,37.88284],[127.60869,37.88276],[127.60864,37.88264],[127.60857,37.88245],[127.60625,37.87731],[127.60619,37.87718],[127.60617,37.87714],[127.60608,37.87699],[127.60603,37.87692],[127.60598,37.87683],[127.6059,37.87674],[127.60586,37.87669],[127.60574,37.87656],[127.60562,37.87645],[127.60549,37.87634],[127.60404,37.87523],[127.60392,37.87514],[127.60378,37.87504],[127.60363,37.87494],[127.60359,37.87493],[127.60346,37.87485],[127.60332,37.87479],[127.60329,37.87477],[127.6031,37.8747],[127.60299,37.87466],[127.60289,37.87463],[127.60267,37.87458],[127.60244,37.87455],[127.60219,37.87454],[127.60208,37.87454],[127.60193,37.87454],[127.60175,37.87455],[127.60166,37.87455],[127.60138,37.87458],[127.6011,37.87462],[127.60082,37.87467],[127.60052,37.87473],[127.60025,37.87478],[127.59997,37.87484],[127.5997,37.87491],[127.59943,37.87497],[127.59916,37.87503],[127.59889,37.8751],[127.59874,37.87514],[127.59863,37.87516],[127.59837,37.87522],[127.59825,37.87525],[127.59808,37.87529],[127.59784,37.87534],[127.5978,37.87535],[127.59752,37.87541],[127.59731,37.87545],[127.59724,37.87547],[127.59706,37.8755],[127.59697,37.87552],[127.59674,37.87556],[127.5967,37.87557],[127.59643,37.87562],[127.5964,37.87563],[127.59619,37.87567],[127.59605,37.87569],[127.59595,37.87571],[127.59574,37.87575],[127.59554,37.87579],[127.59542,37.87581],[127.59534,37.87582],[127.59515,37.87585],[127.59509,37.87585],[127.59496,37.87587],[127.59475,37.87588],[127.59455,37.87589],[127.58788,37.87598],[127.58765,37.87598],[127.58549,37.87593],[127.58528,37.87592],[127.58518,37.87591],[127.58506,37.8759],[127.58496,37.87588],[127.58483,37.87586],[127.5846,37.8758],[127.58455,37.87579],[127.58436,37.87573],[127.57834,37.8738],[127.57824,37.87377],[127.57817,37.87373],[127.57813,37.87372],[127.57809,37.8737],[127.57681,37.87304],[127.57667,37.87297],[127.57661,37.87294],[127.57641,37.87283],[127.5762,37.8727],[127.57613,37.87266],[127.57603,37.8726],[127.57599,37.87257],[127.57594,37.87254],[127.57583,37.87247],[127.57577,37.87243],[127.57557,37.87228],[127.57552,37.87224],[127.57536,37.87213],[127.57518,37.87199],[127.575,37.87185],[127.57485,37.87171],[127.57471,37.87159],[127.57097,37.86811],[127.56914,37.86632],[127.56814,37.8647],[127.56769,37.86393],[127.56661,37.86195],[127.56655,37.86184],[127.56649,37.86172],[127.56644,37.8616],[127.56641,37.86152],[127.5664,37.86148],[127.56639,37.86144],[127.56636,37.86136],[127.56634,37.86124],[127.56632,37.86112],[127.56632,37.86101],[127.56632,37.86097],[127.56632,37.86089],[127.56633,37.86081],[127.56633,37.86078],[127.56634,37.86068],[127.56631,37.86015],[127.56611,37.85921],[127.56607,37.85907],[127.56603,37.85894],[127.566,37.85885],[127.56598,37.85881],[127.56595,37.85876],[127.5659,37.85868],[127.56581,37.85856],[127.5657,37.85845],[127.56242,37.85548],[127.56092,37.85517],[127.5578,37.85472],[127.55554,37.85441],[127.55542,37.85443],[127.55532,37.85445],[127.55529,37.85445],[127.55525,37.85445],[127.55519,37.85444],[127.55513,37.85443],[127.55509,37.85441],[127.55384,37.85391],[127.55375,37.85387],[127.55369,37.85385],[127.55362,37.85382],[127.55355,37.85379],[127.55349,37.85376],[127.55344,37.85373],[127.55338,37.8537],[127.55334,37.85368],[127.55329,37.85365],[127.5524,37.85316],[127.55235,37.85314],[127.55232,37.85311],[127.55229,37.85309],[127.55088,37.85205],[127.55041,37.851],[127.55043,37.8509],[127.55043,37.85083],[127.55044,37.8508],[127.55045,37.85071],[127.55045,37.85066],[127.55046,37.85061],[127.55046,37.85054],[127.55047,37.85049],[127.55047,37.85046],[127.55047,37.85039],[127.55047,37.85032],[127.55047,37.85026],[127.55047,37.8502],[127.55047,37.85013],[127.55046,37.85006],[127.55046,37.85001],[127.55046,37.84998],[127.55045,37.84988],[127.55044,37.84981],[127.55043,37.84972],[127.55042,37.84963],[127.55042,37.84957],[127.55042,37.84954],[127.55041,37.84951],[127.55041,37.84946],[127.5504,37.84938],[127.55039,37.84932],[127.55038,37.84925],[127.55037,37.8492],[127.55037,37.84915],[127.55036,37.84911],[127.55018,37.84809],[127.55017,37.84803],[127.55015,37.84796],[127.55013,37.84789],[127.55011,37.84782],[127.55007,37.84773],[127.55003,37.84763],[127.54998,37.84752],[127.54991,37.84739],[127.54987,37.84733],[127.54983,37.84727],[127.54972,37.84714],[127.54959,37.84702],[127.54955,37.84699],[127.54943,37.84691],[127.54932,37.84685],[127.54386,37.84664],[127.54345,37.84662],[127.54318,37.8466],[127.54313,37.84659],[127.54305,37.84659],[127.54267,37.84655],[127.54229,37.8465],[127.54193,37.84644],[127.54164,37.84638],[127.54157,37.84636],[127.54136,37.84631],[127.54121,37.84627],[127.54099,37.84621],[127.54083,37.84617],[127.54065,37.84611],[127.54044,37.84604],[127.54003,37.8459],[127.53988,37.84584],[127.53958,37.84573],[127.5391,37.84554],[127.53859,37.84533],[127.53846,37.84527],[127.53837,37.84523],[127.53819,37.84516],[127.53806,37.8451],[127.53751,37.84485],[127.53731,37.84475],[127.53725,37.84472],[127.53694,37.84458],[127.53684,37.84452],[127.53637,37.84429],[127.53579,37.84398],[127.53533,37.84373],[127.53527,37.84369],[127.53522,37.84366],[127.53465,37.84332],[127.5341,37.84298],[127.53356,37.84262],[127.53303,37.84225],[127.53253,37.84188],[127.53216,37.8416],[127.53205,37.84152],[127.53157,37.84113],[127.53113,37.84076],[127.53071,37.84039],[127.53064,37.84033],[127.53047,37.84017],[127.53032,37.84002],[127.53001,37.83971],[127.52999,37.83969],[127.52995,37.83965],[127.5296,37.83928],[127.52927,37.83891],[127.52896,37.83852],[127.52867,37.83813],[127.52839,37.83773],[127.52815,37.83736],[127.52812,37.83732],[127.52799,37.8371],[127.52787,37.83689],[127.52763,37.83646],[127.52757,37.83635],[127.52739,37.83602],[127.5272,37.83565],[127.52717,37.83558],[127.52695,37.83514],[127.52674,37.8347],[127.52655,37.83429],[127.52651,37.8342],[127.52634,37.83384],[127.52622,37.83358],[127.52615,37.83342],[127.52608,37.83327],[127.52596,37.833],[127.52588,37.83283],[127.52586,37.83277],[127.52578,37.83259],[127.52561,37.83218],[127.52548,37.83182],[127.52545,37.83177],[127.52531,37.83136],[127.52518,37.83095],[127.52506,37.83054],[127.52495,37.83013],[127.52486,37.82972],[127.52479,37.82937],[127.52478,37.82932],[127.52471,37.82891],[127.52464,37.82851],[127.52459,37.82811],[127.52454,37.82772],[127.52453,37.82766],[127.5245,37.82733],[127.52446,37.82696],[127.52446,37.82691],[127.52445,37.82669],[127.52444,37.82659],[127.52443,37.82623],[127.52443,37.82589],[127.52444,37.82573],[127.52445,37.82557],[127.52447,37.82546],[127.52449,37.82526],[127.52455,37.82501],[127.52456,37.82497],[127.5246,37.82484],[127.52462,37.82476],[127.52464,37.8247],[127.52475,37.82445],[127.52489,37.82422],[127.52505,37.82399],[127.52512,37.8239],[127.52523,37.82378],[127.52543,37.82357],[127.52547,37.82354],[127.52565,37.82336],[127.5259,37.82316],[127.52605,37.82303],[127.52616,37.82295],[127.5263,37.82284],[127.52645,37.82273],[127.52659,37.82263],[127.52676,37.82252],[127.52693,37.8224],[127.52708,37.8223],[127.52743,37.82208],[127.52765,37.82195],[127.52779,37.82186],[127.52817,37.82164],[127.52857,37.82143],[127.52898,37.82122],[127.52941,37.82101],[127.52985,37.8208],[127.5303,37.82059],[127.53075,37.82038],[127.53082,37.82036],[127.53095,37.8203],[127.5312,37.82018],[127.53165,37.81997],[127.53193,37.81985],[127.5321,37.81977],[127.53236,37.81964],[127.53253,37.81956],[127.53296,37.81935],[127.53338,37.81913],[127.53378,37.8189],[127.53416,37.81866],[127.53453,37.8184],[127.53487,37.81813],[127.53494,37.81807],[127.53519,37.81783],[127.53548,37.81752],[127.53575,37.81718],[127.536,37.81682],[127.53622,37.81646],[127.53629,37.81632],[127.53642,37.81608],[127.53643,37.81605],[127.53654,37.81582],[127.53658,37.81573],[127.53659,37.8157],[127.53674,37.81531],[127.53687,37.81492],[127.53696,37.8146],[127.53698,37.81454],[127.53704,37.81427],[127.53706,37.81417],[127.53712,37.81383],[127.53712,37.81379],[127.53716,37.81343],[127.53718,37.81307],[127.53718,37.81297],[127.53718,37.81279],[127.53718,37.81272],[127.53716,37.81237],[127.53714,37.81221],[127.53712,37.81203],[127.53706,37.81171],[127.53702,37.81156],[127.53698,37.81139],[127.53689,37.81108],[127.53684,37.81096],[127.53678,37.81079],[127.53667,37.81051],[127.53655,37.81025],[127.53642,37.81],[127.53629,37.80978],[127.53617,37.80958],[127.53604,37.80939],[127.5359,37.80923],[127.53575,37.80907],[127.5356,37.80892],[127.53543,37.80878],[127.53524,37.80863],[127.53503,37.80849],[127.5348,37.80834],[127.53455,37.80818],[127.53435,37.80806],[127.53431,37.80804],[127.53428,37.80801],[127.53421,37.80797],[127.534,37.80784],[127.53391,37.80779],[127.53381,37.80773],[127.53376,37.8077],[127.53371,37.80767],[127.53341,37.80748],[127.53331,37.80741],[127.53311,37.80729],[127.53282,37.8071],[127.53253,37.80689],[127.53238,37.80678],[127.53225,37.80668],[127.53197,37.80647],[127.53174,37.80629],[127.53171,37.80626],[127.53145,37.80605],[127.5305,37.80528],[127.53029,37.80511],[127.53008,37.80493],[127.52999,37.80484],[127.52988,37.80474],[127.52968,37.80454],[127.52962,37.80448],[127.52947,37.80432],[127.52926,37.80407],[127.5231,37.79605],[127.52289,37.79578],[127.5227,37.79551],[127.52255,37.79529],[127.52252,37.79525],[127.52241,37.79507],[127.52236,37.79498],[127.52227,37.79482],[127.5222,37.79471],[127.52208,37.79447],[127.52206,37.79444],[127.52203,37.79436],[127.52201,37.79432],[127.52194,37.79416],[127.52188,37.79401],[127.52183,37.79389],[127.52181,37.79384],[127.52179,37.79377],[127.52174,37.79361],[127.52166,37.79334],[127.52161,37.79313],[127.52159,37.79306],[127.52154,37.79278],[127.52151,37.7925],[127.52151,37.79237],[127.5215,37.79221],[127.52151,37.79193],[127.52154,37.79164],[127.52157,37.79146],[127.52158,37.79139],[127.52159,37.79134],[127.52164,37.79115],[127.52166,37.79109],[127.52167,37.79103],[127.52172,37.79088],[127.52177,37.79072],[127.52185,37.79054],[127.5219,37.7904],[127.522,37.79021],[127.52206,37.79008],[127.52224,37.78975],[127.52245,37.78942],[127.52269,37.78908],[127.52291,37.78879],[127.52295,37.78874],[127.52324,37.78839],[127.52333,37.78829],[127.52355,37.78805],[127.52374,37.78785],[127.52389,37.7877],[127.52399,37.78761],[127.52425,37.78736],[127.52437,37.78724],[127.52455,37.78708],[127.52462,37.78702],[127.5248,37.78686],[127.52501,37.78668],[127.5254,37.78636],[127.52578,37.78604],[127.52594,37.78591],[127.52616,37.78573],[127.52653,37.78544],[127.52663,37.78536],[127.5269,37.78515],[127.52708,37.78501],[127.52723,37.7849],[127.52747,37.7847],[127.52756,37.78463],[127.52789,37.78436],[127.52821,37.78409],[127.52854,37.7838],[127.52888,37.78349],[127.52904,37.78333],[127.52919,37.78319],[127.52922,37.78316],[127.52934,37.78304],[127.52937,37.78301],[127.52951,37.78287],[127.52958,37.7828],[127.53605,37.77621],[127.53629,37.77597],[127.53651,37.77574],[127.53694,37.77528],[127.53735,37.77483],[127.53774,37.77439],[127.53812,37.77394],[127.53848,37.77349],[127.53867,37.77325],[127.53885,37.77304],[127.53921,37.77257],[127.53942,37.77229],[127.53958,37.77209],[127.53995,37.77159],[127.54033,37.77108],[127.54058,37.77073],[127.54072,37.77054],[127.54083,37.77038],[127.54109,37.77001],[127.54146,37.76945],[127.54181,37.76888],[127.54216,37.7683],[127.54248,37.76772],[127.54278,37.76713],[127.54291,37.76684],[127.54306,37.76653],[127.54326,37.76607],[127.54331,37.76594],[127.54333,37.76589],[127.54354,37.76536],[127.54375,37.76478],[127.54381,37.7646],[127.54394,37.76423],[127.54403,37.76392],[127.5441,37.7637],[127.54423,37.7632],[127.54435,37.76274],[127.54443,37.76237],[127.54444,37.7623],[127.54451,37.76188],[127.54452,37.76178],[127.54456,37.76148],[127.54457,37.76109],[127.54457,37.76093],[127.54457,37.76071],[127.54454,37.76033],[127.54448,37.75994],[127.54447,37.75989],[127.54445,37.75983],[127.54439,37.75954],[127.54428,37.75914],[127.54414,37.75872],[127.54407,37.75852],[127.54398,37.75831],[127.54395,37.75822],[127.54394,37.7582],[127.5438,37.75789],[127.5436,37.75748],[127.54337,37.75706],[127.54313,37.75666],[127.54287,37.75626],[127.54259,37.75587],[127.54229,37.75548],[127.54197,37.7551],[127.54163,37.75472],[127.54136,37.75445],[127.54126,37.75434],[127.54088,37.75397],[127.54047,37.75359],[127.54041,37.75354],[127.54004,37.75321],[127.53958,37.75283],[127.53955,37.75281],[127.53911,37.75245],[127.53864,37.75208],[127.53813,37.7517],[127.5379,37.75154],[127.53773,37.75142],[127.53762,37.75133],[127.53754,37.75128],[127.53711,37.75097],[127.53659,37.75062],[127.53608,37.75028],[127.53576,37.75007],[127.53556,37.74994],[127.53504,37.74962],[127.53452,37.74929],[127.534,37.74898],[127.53347,37.74866],[127.53293,37.74835],[127.53239,37.74804],[127.53217,37.74791],[127.53184,37.74772],[127.53129,37.74741],[127.53073,37.74709],[127.53017,37.74678],[127.52961,37.74647],[127.52905,37.74616],[127.5285,37.74585],[127.52795,37.74555],[127.52741,37.74526],[127.5271,37.74509],[127.52687,37.74496],[127.52658,37.7448],[127.52633,37.74467],[127.52589,37.74443],[127.52576,37.74436],[127.52528,37.74411],[127.52518,37.74406],[127.52508,37.74401],[127.52495,37.74394],[127.52456,37.74374],[127.52391,37.7434],[127.5232,37.74305],[127.52262,37.74276],[127.52253,37.74271],[127.52245,37.74267],[127.52165,37.74228],[127.52082,37.74188],[127.52029,37.74162],[127.51997,37.74146],[127.51911,37.74103],[127.51826,37.7406],[127.51783,37.74037],[127.51742,37.74016],[127.51697,37.73992],[127.5166,37.73972],[127.51583,37.73929],[127.51509,37.73885],[127.5144,37.73843],[127.51374,37.738],[127.51369,37.73797],[127.51312,37.73759],[127.51297,37.73748],[127.51255,37.73718],[127.51209,37.73684],[127.51201,37.73677],[127.51151,37.73638],[127.51106,37.736],[127.51064,37.73562],[127.51026,37.73524],[127.5099,37.73486],[127.50958,37.73447],[127.50928,37.73407],[127.509,37.73366],[127.50881,37.73336],[127.50873,37.73323],[127.50864,37.73305],[127.50857,37.73292],[127.50848,37.73277],[127.50825,37.73229],[127.50819,37.73215],[127.50803,37.73178],[127.50783,37.73125],[127.50765,37.7307],[127.50748,37.73012],[127.50734,37.72951],[127.50721,37.72888],[127.50711,37.72822],[127.50702,37.72755],[127.50696,37.72688],[127.50691,37.72621],[127.50689,37.72588],[127.50687,37.72556],[127.50687,37.72542],[127.50685,37.72493],[127.50684,37.72435],[127.50684,37.72381],[127.50685,37.72332],[127.50687,37.7229],[127.50689,37.72265],[127.5069,37.72251],[127.5069,37.72246],[127.50692,37.72227],[127.50693,37.72217],[127.50698,37.72187],[127.50731,37.71967],[127.50556,37.71939],[127.50331,37.71877],[127.50126,37.71826],[127.4993,37.71909],[127.4948,37.72303],[127.49374,37.72461],[127.49318,37.72717],[127.49241,37.73016],[127.49122,37.73315],[127.49043,37.73359],[127.48957,37.73364],[127.48937,37.73361],[127.48893,37.73354],[127.48801,37.73347],[127.48625,37.73392],[127.48554,37.73418],[127.48488,37.73442],[127.48355,37.73505],[127.48279,37.7359],[127.48255,37.73672],[127.48164,37.7391],[127.48026,37.74073],[127.47938,37.74102],[127.47884,37.74152],[127.47879,37.74156],[127.47631,37.74555],[127.47646,37.7486],[127.47705,37.74923],[127.47725,37.74943],[127.47886,37.75017],[127.48308,37.7513],[127.48444,37.75133],[127.48618,37.75145],[127.4867,37.75253],[127.48672,37.75257],[127.48792,37.75703],[127.48839,37.7591],[127.48711,37.76182],[127.48812,37.76748],[127.48945,37.76973],[127.49191,37.77286],[127.49224,37.77324],[127.49274,37.77385],[127.49369,37.7749],[127.49394,37.77515],[127.49464,37.77583],[127.49398,37.77851],[127.4914,37.78383],[127.48866,37.78573],[127.48594,37.78689],[127.48444,37.78743],[127.47745,37.78765],[127.47226,37.78704],[127.47038,37.78655],[127.46866,37.78761],[127.4689,37.7883],[127.46859,37.78927],[127.46731,37.79146],[127.46632,37.79184],[127.46137,37.79522],[127.46079,37.79609],[127.4607,37.79636],[127.46044,37.79715],[127.46041,37.79837],[127.46022,37.79958],[127.45597,37.80271],[127.45317,37.80342],[127.45231,37.80232],[127.45171,37.80148],[127.44935,37.80099],[127.44808,37.80146],[127.44583,37.80233],[127.44407,37.8035],[127.44371,37.80434],[127.44098,37.80504],[127.43961,37.80524],[127.43722,37.80432],[127.437,37.8042],[127.43605,37.8037],[127.43481,37.80332],[127.42866,37.80263],[127.42389,37.80249],[127.4209,37.8021],[127.42016,37.80303],[127.41527,37.81046],[127.41522,37.81056],[127.41502,37.81088],[127.41506,37.81122],[127.41508,37.8114],[127.41543,37.81225],[127.41587,37.81297],[127.41832,37.81671],[127.41899,37.81739],[127.41934,37.81749],[127.42005,37.81767],[127.42096,37.81866],[127.42026,37.82022],[127.41942,37.82118],[127.41819,37.82241],[127.41772,37.8228],[127.41586,37.82532],[127.41575,37.8281],[127.41407,37.8307],[127.41278,37.83156],[127.41187,37.83257],[127.41178,37.83273],[127.41172,37.83285],[127.4115,37.83327],[127.41313,37.83648],[127.41479,37.83899],[127.4155,37.83964],[127.41645,37.84029],[127.41713,37.84058],[127.4188,37.84126],[127.41917,37.84153],[127.41757,37.8446],[127.41647,37.84663],[127.41643,37.84721],[127.41639,37.84784],[127.41664,37.85024],[127.41681,37.85219],[127.41652,37.85656],[127.41485,37.85729],[127.4145,37.85743],[127.41415,37.85759],[127.41364,37.85849],[127.41142,37.86277],[127.41147,37.86315],[127.41154,37.86368],[127.41135,37.86483],[127.41109,37.86614],[127.40984,37.86866],[127.40976,37.8699],[127.40978,37.86999],[127.40991,37.87023],[127.41123,37.87172],[127.4112,37.87315],[127.40625,37.87377],[127.40333,37.87317],[127.40089,37.8761],[127.40074,37.87633],[127.40003,37.87738],[127.40013,37.87941],[127.40037,37.88118],[127.40043,37.88124],[127.40079,37.88161],[127.4011,37.88193],[127.40132,37.88214],[127.40053,37.8859],[127.39927,37.88778],[127.39874,37.88845],[127.39939,37.89003],[127.40066,37.89155],[127.40665,37.89403],[127.40994,37.89536],[127.41169,37.89584],[127.41321,37.89672],[127.41438,37.89885],[127.41589,37.8958],[127.41888,37.8952],[127.42082,37.89417],[127.42151,37.89368],[127.42184,37.89345],[127.42412,37.89057],[127.42517,37.88888],[127.42571,37.88826],[127.42826,37.88658],[127.42905,37.88687],[127.42934,37.88695],[127.43027,37.88721],[127.43152,37.8873],[127.43349,37.88736],[127.4365,37.88711],[127.43785,37.88683],[127.43851,37.88655],[127.43863,37.8865],[127.44036,37.88674],[127.44426,37.88747],[127.4454,37.88793],[127.44595,37.88843],[127.4463,37.88874],[127.44973,37.88854],[127.45094,37.88832],[127.45244,37.888],[127.45416,37.8879],[127.4565,37.88827],[127.46012,37.88938],[127.46054,37.88951],[127.46076,37.88957],[127.46087,37.88956],[127.4614,37.88952],[127.46196,37.88945],[127.46318,37.88796],[127.46388,37.8871],[127.47651,37.88296],[127.48026,37.88222],[127.48934,37.88303],[127.4917,37.88324],[127.4924,37.88347],[127.49329,37.88363],[127.49363,37.88369],[127.49571,37.88397],[127.49896,37.88183],[127.50518,37.8777],[127.5069,37.8753],[127.50785,37.87363],[127.51193,37.87489],[127.51816,37.87113],[127.51818,37.8711],[127.51915,37.8693],[127.51967,37.86913],[127.52013,37.86897],[127.52095,37.86878],[127.52151,37.86922],[127.52153,37.86936],[127.52155,37.86944],[127.52167,37.87018],[127.52181,37.87052],[127.52215,37.87139],[127.52346,37.87273],[127.52388,37.87313],[127.52474,37.87394],[127.52528,37.87425],[127.5261,37.87474],[127.52914,37.87541],[127.53212,37.87548],[127.5338,37.87533],[127.5393,37.87483],[127.54023,37.87453],[127.54062,37.8744],[127.54161,37.87389],[127.54243,37.87342],[127.54302,37.87286],[127.54351,37.87239],[127.54442,37.87237],[127.5467,37.87289],[127.54981,37.87362],[127.55295,37.87444],[127.55308,37.87545],[127.5531,37.87565],[127.55772,37.87877],[127.55997,37.87972],[127.56128,37.88014],[127.56254,37.88067],[127.56263,37.88071],[127.56271,37.88075],[127.56322,37.88096],[127.56553,37.88234],[127.56583,37.88301],[127.56597,37.88334],[127.5689,37.88569],[127.5695,37.88606],[127.56981,37.88625],[127.57185,37.88624],[127.57238,37.88611],[127.57338,37.88586],[127.57652,37.88547],[127.57672,37.88546],[127.57694,37.88545],[127.57829,37.8854],[127.58033,37.88589],[127.58584,37.88765],[127.58735,37.88887],[127.58808,37.88966],[127.5885,37.89011],[127.59176,37.8915],[127.59197,37.89153],[127.59255,37.8916],[127.59264,37.89162],[127.59367,37.89142],[127.59392,37.89125],[127.594,37.89119],[127.59478,37.89065],[127.59602,37.89036],[127.60112,37.89051],[127.60642,37.88992],[127.6067,37.8899],[127.6076,37.88986]]]]}},{"type":"Feature","properties":{"code":"41820310","name":"설악면","parent":"41820"},"geometry":{"type":"MultiPolygon","coordinates":[[[[127.55986,37.72851],[127.55951,37.72789],[127.55944,37.72581],[127.55968,37.72314],[127.56052,37.72265],[127.56217,37.72232],[127.5622,37.72216],[127.5624,37.72104],[127.56162,37.71996],[127.56103,37.71822],[127.55983,37.71659],[127.55929,37.71604],[127.55806,37.7143],[127.5581,37.71414],[127.55839,37.71276],[127.55855,37.71118],[127.55845,37.70636],[127.55842,37.70602],[127.5583,37.7058],[127.55804,37.70551],[127.55741,37.70508],[127.55715,37.70494],[127.55699,37.70486],[127.55613,37.70261],[127.55566,37.70082],[127.55507,37.69902],[127.55462,37.69781],[127.55358,37.69511],[127.5518,37.69081],[127.55063,37.6878],[127.55062,37.68777],[127.55045,37.68699],[127.55036,37.68656],[127.55015,37.68546],[127.54989,37.68056],[127.55001,37.68016],[127.55004,37.6801],[127.55007,37.68003],[127.55059,37.67895],[127.55096,37.67819],[127.55094,37.67809],[127.55083,37.67766],[127.55034,37.67591],[127.55002,37.67568],[127.54975,37.67549],[127.54915,37.67037],[127.54921,37.66757],[127.54929,37.66741],[127.54937,37.66725],[127.54974,37.66676],[127.55007,37.66634],[127.55096,37.66559],[127.55165,37.66502],[127.55245,37.66278],[127.55281,37.66155],[127.55102,37.66023],[127.55064,37.65995],[127.55038,37.65983],[127.54855,37.65899],[127.54759,37.65826],[127.54649,37.65743],[127.54487,37.65535],[127.54403,37.65302],[127.54391,37.65159],[127.54335,37.65141],[127.542,37.65098],[127.54197,37.65097],[127.5401,37.65112],[127.53935,37.65118],[127.53923,37.65119],[127.5388,37.65109],[127.53568,37.65035],[127.53543,37.64968],[127.53523,37.64637],[127.53702,37.643],[127.53904,37.64145],[127.54003,37.64069],[127.54378,37.63818],[127.54582,37.63776],[127.54682,37.63756],[127.54771,37.63486],[127.54826,37.6332],[127.55534,37.63004],[127.55898,37.62845],[127.55988,37.62736],[127.55976,37.62614],[127.55968,37.62535],[127.55981,37.62341],[127.56288,37.6209],[127.56517,37.62008],[127.56646,37.61878],[127.56709,37.61724],[127.56759,37.61566],[127.56873,37.61456],[127.56984,37.61433],[127.57072,37.61369],[127.57075,37.61367],[127.57067,37.61285],[127.57061,37.61223],[127.5705,37.61145],[127.57032,37.61021],[127.56956,37.60831],[127.56825,37.60828],[127.56712,37.60825],[127.56615,37.60796],[127.5623,37.60435],[127.56231,37.60297],[127.56231,37.60136],[127.5624,37.60049],[127.56244,37.60001],[127.56141,37.59767],[127.55997,37.59537],[127.55908,37.59423],[127.559,37.5923],[127.56062,37.59054],[127.56112,37.58897],[127.56152,37.58706],[127.56123,37.58611],[127.56025,37.58308],[127.5586,37.58382],[127.55469,37.58421],[127.55245,37.58608],[127.55143,37.58612],[127.55095,37.58615],[127.5471,37.58542],[127.54447,37.58507],[127.53788,37.58461],[127.53777,37.5847],[127.53674,37.58555],[127.53606,37.58584],[127.53132,37.58624],[127.52411,37.58665],[127.52178,37.58641],[127.52012,37.58566],[127.51761,37.58272],[127.51463,37.57961],[127.51296,37.57812],[127.51003,37.57647],[127.50824,37.57594],[127.50696,37.57556],[127.50657,37.57546],[127.50636,37.57541],[127.50562,37.57522],[127.50475,37.57501],[127.50436,37.57492],[127.49913,37.57237],[127.49834,37.57184],[127.49735,37.57184],[127.49657,37.572],[127.4911,37.57378],[127.49012,37.57498],[127.48671,37.57528],[127.48414,37.57526],[127.48174,37.57571],[127.4784,37.57686],[127.47473,37.57725],[127.47159,37.57989],[127.47117,37.5825],[127.47077,37.58536],[127.46941,37.59106],[127.46989,37.59193],[127.47104,37.59384],[127.47091,37.59495],[127.4726,37.59641],[127.47288,37.59832],[127.47314,37.60022],[127.47351,37.60792],[127.47217,37.60928],[127.47202,37.61293],[127.47192,37.61616],[127.47192,37.61621],[127.47185,37.61828],[127.47118,37.62113],[127.46988,37.62361],[127.46835,37.62467],[127.4626,37.62493],[127.46216,37.62573],[127.46166,37.62664],[127.45827,37.62997],[127.45642,37.63394],[127.45659,37.63549],[127.4566,37.63559],[127.45558,37.63691],[127.4541,37.63851],[127.45361,37.63861],[127.45227,37.63889],[127.45147,37.6397],[127.45094,37.6407],[127.44952,37.64338],[127.44863,37.64447],[127.44485,37.64777],[127.4446,37.64787],[127.44392,37.64814],[127.44278,37.64755],[127.44255,37.64744],[127.44248,37.64736],[127.44191,37.64679],[127.44059,37.64717],[127.43808,37.64789],[127.43743,37.65058],[127.43723,37.6514],[127.43532,37.65324],[127.43506,37.65342],[127.43477,37.65361],[127.43546,37.65459],[127.43778,37.65723],[127.43825,37.65765],[127.43842,37.6578],[127.43967,37.65872],[127.43982,37.65882],[127.44138,37.6598],[127.43986,37.66181],[127.43506,37.66504],[127.43446,37.66567],[127.43401,37.66608],[127.43365,37.66641],[127.43101,37.66863],[127.43031,37.6691],[127.42983,37.66941],[127.42815,37.67154],[127.42667,37.67337],[127.42758,37.674],[127.42873,37.67479],[127.42898,37.67528],[127.42956,37.67646],[127.42999,37.678],[127.43015,37.67816],[127.43052,37.67853],[127.43056,37.67855],[127.43089,37.67878],[127.43139,37.67899],[127.43186,37.67899],[127.43206,37.67899],[127.43259,37.68038],[127.43282,37.68139],[127.43281,37.68145],[127.43273,37.68206],[127.43189,37.68261],[127.43124,37.68275],[127.4311,37.68293],[127.43013,37.68416],[127.4241,37.69072],[127.4225,37.69273],[127.42129,37.69454],[127.42124,37.69512],[127.42106,37.69876],[127.42192,37.70148],[127.42406,37.70396],[127.42445,37.70408],[127.425,37.70437],[127.42547,37.70486],[127.42543,37.706],[127.42371,37.7112],[127.42367,37.71124],[127.42345,37.71148],[127.42197,37.71291],[127.4203,37.71447],[127.4196,37.71551],[127.41774,37.71957],[127.41519,37.72292],[127.41516,37.72296],[127.41545,37.72304],[127.42073,37.72447],[127.42134,37.72463],[127.42181,37.72475],[127.42207,37.72482],[127.42262,37.7249],[127.42292,37.72494],[127.42396,37.72485],[127.42632,37.72426],[127.42705,37.72397],[127.42904,37.72317],[127.43017,37.72258],[127.43111,37.72208],[127.4318,37.72171],[127.43192,37.72165],[127.43359,37.72061],[127.43786,37.71794],[127.43989,37.71706],[127.44004,37.717],[127.4407,37.71671],[127.44272,37.71547],[127.44372,37.7147],[127.44562,37.71324],[127.44704,37.71205],[127.44773,37.71149],[127.44801,37.71129],[127.45094,37.70929],[127.45222,37.70886],[127.4531,37.70858],[127.45323,37.70856],[127.45332,37.70855],[127.45397,37.70848],[127.45722,37.70812],[127.45999,37.70777],[127.46527,37.70711],[127.46726,37.70682],[127.47293,37.70611],[127.47348,37.70609],[127.47474,37.70606],[127.47508,37.70605],[127.4826,37.70644],[127.48316,37.70647],[127.48492,37.70651],[127.48514,37.70652],[127.48544,37.70653],[127.48897,37.70636],[127.49037,37.70629],[127.49196,37.70609],[127.49463,37.70577],[127.49785,37.70474],[127.49791,37.70473],[127.49971,37.70338],[127.50005,37.70312],[127.50049,37.70279],[127.50425,37.70072],[127.51083,37.69752],[127.5123,37.6972],[127.5144,37.69675],[127.51603,37.69675],[127.51729,37.697],[127.51777,37.6971],[127.5179,37.6972],[127.51931,37.69825],[127.52057,37.69972],[127.5208,37.70035],[127.52103,37.70098],[127.52116,37.70133],[127.52132,37.70264],[127.51985,37.70635],[127.51874,37.70849],[127.5136,37.71525],[127.51194,37.7168],[127.51157,37.71713],[127.51093,37.71769],[127.51405,37.71939],[127.51962,37.72253],[127.52007,37.72291],[127.52409,37.72616],[127.52442,37.72635],[127.52538,37.7269],[127.52691,37.72671],[127.52867,37.72633],[127.53088,37.72505],[127.53257,37.72323],[127.53322,37.72253],[127.53352,37.72221],[127.53749,37.72013],[127.5408,37.71909],[127.54249,37.71953],[127.5443,37.72073],[127.54486,37.72109],[127.5453,37.72139],[127.54819,37.72342],[127.54913,37.72466],[127.55067,37.72675],[127.55209,37.72826],[127.55361,37.72873],[127.55735,37.72899],[127.55986,37.72851]]]]}},{"type":"Feature","properties":{"code":"41820325","name":"청평면","parent":"41820"},"geometry":{"type":"MultiPolygon","coordinates":[[[[127.50731,37.71967],[127.51093,37.71769],[127.51157,37.71713],[127.51194,37.7168],[127.5136,37.71525],[127.51874,37.70849],[127.51985,37.70635],[127.52132,37.70264],[127.52116,37.70133],[127.52103,37.70098],[127.5208,37.70035],[127.52057,37.69972],[127.51931,37.69825],[127.5179,37.6972],[127.51777,37.6971],[127.51729,37.697],[127.51603,37.69675],[127.5144,37.69675],[127.5123,37.6972],[127.51083,37.69752],[127.50425,37.70072],[127.50049,37.70279],[127.50005,37.70312],[127.49971,37.70338],[127.49791,37.70473],[127.49785,37.70474],[127.49463,37.70577],[127.49196,37.70609],[127.49037,37.70629],[127.48897,37.70636],[127.48544,37.70653],[127.48514,37.70652],[127.48492,37.70651],[127.48316,37.70647],[127.4826,37.70644],[127.47508,37.70605],[127.47474,37.70606],[127.47348,37.70609],[127.47293,37.70611],[127.46726,37.70682],[127.46527,37.70711],[127.45999,37.70777],[127.45722,37.70812],[127.45397,37.70848],[127.45332,37.70855],[127.45323,37.70856],[127.4531,37.70858],[127.45222,37.70886],[127.45094,37.70929],[127.44801,37.71129],[127.44773,37.71149],[127.44704,37.71205],[127.44562,37.71324],[127.44372,37.7147],[127.44272,37.71547],[127.4407,37.71671],[127.44004,37.717],[127.43989,37.71706],[127.43786,37.71794],[127.43359,37.72061],[127.43192,37.72165],[127.4318,37.72171],[127.43111,37.72208],[127.43017,37.72258],[127.42904,37.72317],[127.42705,37.72397],[127.42632,37.72426],[127.42396,37.72485],[127.42292,37.72494],[127.42262,37.7249],[127.42207,37.72482],[127.42181,37.72475],[127.42134,37.72463],[127.42073,37.72447],[127.41545,37.72304],[127.41516,37.72296],[127.41519,37.72292],[127.41774,37.71957],[127.4196,37.71551],[127.4203,37.71447],[127.42197,37.71291],[127.42345,37.71148],[127.42367,37.71124],[127.42371,37.7112],[127.42543,37.706],[127.42547,37.70486],[127.425,37.70437],[127.42445,37.70408],[127.42406,37.70396],[127.42192,37.70148],[127.42106,37.69876],[127.42124,37.69512],[127.42129,37.69454],[127.4225,37.69273],[127.4241,37.69072],[127.43013,37.68416],[127.4311,37.68293],[127.43124,37.68275],[127.43189,37.68261],[127.43273,37.68206],[127.43281,37.68145],[127.43282,37.68139],[127.43259,37.68038],[127.43206,37.67899],[127.43186,37.67899],[127.43139,37.67899],[127.43089,37.67878],[127.43056,37.67855],[127.43052,37.67853],[127.43015,37.67816],[127.42999,37.678],[127.42956,37.67646],[127.42898,37.67528],[127.42873,37.67479],[127.42758,37.674],[127.42667,37.67337],[127.42815,37.67154],[127.42816,37.67076],[127.42812,37.67055],[127.42809,37.6703],[127.42707,37.66816],[127.42587,37.66646],[127.42509,37.66563],[127.42217,37.66393],[127.41887,37.6633],[127.41706,37.66335],[127.41697,37.66335],[127.41644,37.66337],[127.41595,37.6631],[127.41551,37.66287],[127.41521,37.66259],[127.415,37.6624],[127.41342,37.66099],[127.41278,37.6606],[127.4121,37.66019],[127.41053,37.66018],[127.41006,37.66018],[127.40813,37.65988],[127.40406,37.65706],[127.40124,37.65449],[127.40077,37.65388],[127.40036,37.65336],[127.4,37.65216],[127.39943,37.65086],[127.39322,37.65107],[127.38891,37.65122],[127.38612,37.65137],[127.38005,37.65142],[127.37835,37.651],[127.37478,37.64902],[127.37328,37.64767],[127.37113,37.64819],[127.37205,37.65066],[127.3731,37.65232],[127.37336,37.65273],[127.37442,37.65433],[127.37637,37.66011],[127.37703,37.66478],[127.37711,37.66644],[127.37714,37.66701],[127.37755,37.6699],[127.37772,37.67036],[127.37856,37.67259],[127.3792,37.67459],[127.37765,37.67554],[127.37636,37.67632],[127.37513,37.67728],[127.37506,37.67733],[127.37477,37.67797],[127.37459,37.67955],[127.37455,37.68001],[127.37458,37.68037],[127.37461,37.68079],[127.37462,37.68098],[127.37462,37.68132],[127.37457,37.68154],[127.3744,37.6819],[127.37417,37.68219],[127.37381,37.68249],[127.37261,37.68329],[127.37244,37.68338],[127.37151,37.68385],[127.36992,37.68483],[127.36976,37.68494],[127.36962,37.68503],[127.36925,37.68528],[127.3687,37.68569],[127.36866,37.68573],[127.36857,37.68579],[127.36808,37.6863],[127.36769,37.68677],[127.36749,37.68705],[127.36734,37.68728],[127.36724,37.68748],[127.36693,37.68822],[127.36692,37.68825],[127.36686,37.6884],[127.36683,37.68857],[127.36677,37.68924],[127.36676,37.68953],[127.36677,37.68965],[127.3668,37.68976],[127.36705,37.69002],[127.36714,37.69011],[127.37019,37.69036],[127.3705,37.6904],[127.37075,37.69047],[127.37142,37.69092],[127.37153,37.69101],[127.37169,37.69114],[127.37213,37.69157],[127.37219,37.69179],[127.37212,37.69203],[127.37173,37.6924],[127.37121,37.69271],[127.37082,37.69292],[127.37024,37.69302],[127.36931,37.69315],[127.36768,37.69323],[127.36692,37.69326],[127.36236,37.69366],[127.36135,37.69381],[127.36022,37.69557],[127.35946,37.69678],[127.35909,37.69751],[127.35892,37.6984],[127.35849,37.69923],[127.35764,37.70019],[127.35592,37.70193],[127.35446,37.70309],[127.35344,37.70382],[127.35366,37.70501],[127.35425,37.70542],[127.35484,37.70632],[127.35512,37.70718],[127.35514,37.70776],[127.35517,37.70858],[127.35453,37.70966],[127.35436,37.70988],[127.35397,37.71036],[127.35362,37.71071],[127.35339,37.71094],[127.35372,37.71316],[127.35408,37.71411],[127.35441,37.71511],[127.35472,37.71663],[127.35468,37.71699],[127.3545,37.71708],[127.35415,37.71727],[127.35407,37.71782],[127.354,37.71835],[127.35404,37.71941],[127.35454,37.72151],[127.35545,37.72369],[127.35663,37.7243],[127.35906,37.72549],[127.36109,37.72612],[127.36142,37.72608],[127.36252,37.72635],[127.36716,37.72996],[127.37099,37.73404],[127.37217,37.73641],[127.37237,37.73784],[127.3735,37.73874],[127.37762,37.74076],[127.37936,37.74147],[127.38298,37.74288],[127.38313,37.74281],[127.38454,37.74211],[127.38482,37.74185],[127.38597,37.74173],[127.3879,37.74237],[127.39027,37.74331],[127.39477,37.74487],[127.3987,37.74531],[127.4066,37.74746],[127.40691,37.74755],[127.40703,37.74758],[127.40786,37.74879],[127.40885,37.74923],[127.41061,37.74999],[127.41303,37.75087],[127.41411,37.75085],[127.4147,37.75083],[127.41519,37.75049],[127.41625,37.74931],[127.41638,37.74916],[127.41644,37.74909],[127.41684,37.74867],[127.41757,37.74789],[127.41909,37.749],[127.41996,37.74968],[127.42186,37.75159],[127.42224,37.75237],[127.42222,37.75476],[127.42179,37.75572],[127.42105,37.75709],[127.42032,37.75775],[127.41802,37.7594],[127.41619,37.76049],[127.4127,37.76621],[127.41227,37.76851],[127.41223,37.76885],[127.41221,37.76913],[127.41221,37.77033],[127.41251,37.77116],[127.41449,37.77296],[127.41532,37.7733],[127.41672,37.77419],[127.4179,37.77524],[127.41787,37.77526],[127.41783,37.77529],[127.41717,37.77576],[127.41663,37.77614],[127.41564,37.7768],[127.4154,37.77692],[127.415,37.77712],[127.41463,37.77763],[127.41432,37.77904],[127.41396,37.78077],[127.41452,37.78116],[127.41496,37.78148],[127.41545,37.78217],[127.41574,37.78294],[127.41592,37.78361],[127.41617,37.78456],[127.41635,37.7857],[127.41593,37.79219],[127.41573,37.79328],[127.41561,37.79384],[127.41552,37.79425],[127.41546,37.79583],[127.41557,37.79641],[127.41648,37.79707],[127.41644,37.7987],[127.41684,37.80037],[127.41849,37.80121],[127.4209,37.8021],[127.42389,37.80249],[127.42866,37.80263],[127.43481,37.80332],[127.43605,37.8037],[127.437,37.8042],[127.43722,37.80432],[127.43961,37.80524],[127.44098,37.80504],[127.44371,37.80434],[127.44407,37.8035],[127.44583,37.80233],[127.44808,37.80146],[127.44935,37.80099],[127.45171,37.80148],[127.45231,37.80232],[127.45317,37.80342],[127.45597,37.80271],[127.46022,37.79958],[127.46041,37.79837],[127.46044,37.79715],[127.4607,37.79636],[127.46079,37.79609],[127.46137,37.79522],[127.46632,37.79184],[127.46731,37.79146],[127.46859,37.78927],[127.4689,37.7883],[127.46866,37.78761],[127.47038,37.78655],[127.47226,37.78704],[127.47745,37.78765],[127.48444,37.78743],[127.48594,37.78689],[127.48866,37.78573],[127.4914,37.78383],[127.49398,37.77851],[127.49464,37.77583],[127.49394,37.77515],[127.49369,37.7749],[127.49274,37.77385],[127.49224,37.77324],[127.49191,37.77286],[127.48945,37.76973],[127.48812,37.76748],[127.48711,37.76182],[127.48839,37.7591],[127.48792,37.75703],[127.48672,37.75257],[127.4867,37.75253],[127.48618,37.75145],[127.48444,37.75133],[127.48308,37.7513],[127.47886,37.75017],[127.47725,37.74943],[127.47705,37.74923],[127.47646,37.7486],[127.47631,37.74555],[127.47879,37.74156],[127.47884,37.74152],[127.47938,37.74102],[127.48026,37.74073],[127.48164,37.7391],[127.48255,37.73672],[127.48279,37.7359],[127.48355,37.73505],[127.48488,37.73442],[127.48554,37.73418],[127.48625,37.73392],[127.48801,37.73347],[127.48893,37.73354],[127.48937,37.73361],[127.48957,37.73364],[127.49043,37.73359],[127.49122,37.73315],[127.49241,37.73016],[127.49318,37.72717],[127.49374,37.72461],[127.4948,37.72303],[127.4993,37.71909],[127.50126,37.71826],[127.50331,37.71877],[127.50556,37.71939],[127.50731,37.71967]]]]}},{"type":"Feature","properties":{"code":"41820330","name":"상면","parent":"41820"},"geometry":{"type":"MultiPolygon","coordinates":[[[[127.3121,37.86612],[127.31221,37.8643],[127.31255,37.86093],[127.31416,37.85856],[127.31492,37.85751],[127.31542,37.85621],[127.31521,37.85539],[127.31641,37.85362],[127.31959,37.85067],[127.31954,37.84905],[127.3183,37.84798],[127.3182,37.84774],[127.31812,37.84752],[127.31817,37.84553],[127.31892,37.84535],[127.3192,37.84528],[127.32045,37.84314],[127.32063,37.84226],[127.32058,37.84152],[127.32039,37.84131],[127.32013,37.84103],[127.32005,37.84053],[127.31991,37.83966],[127.32087,37.83577],[127.32153,37.8346],[127.32663,37.82947],[127.32808,37.82906],[127.33074,37.82863],[127.33081,37.82862],[127.33532,37.82809],[127.3361,37.8281],[127.33641,37.82658],[127.33405,37.82348],[127.33394,37.82321],[127.33366,37.82252],[127.33382,37.82248],[127.3342,37.82238],[127.33576,37.82198],[127.33638,37.8214],[127.33667,37.82112],[127.33777,37.81984],[127.33812,37.81943],[127.33823,37.81905],[127.33806,37.81871],[127.33788,37.8184],[127.33771,37.81811],[127.33759,37.81769],[127.33754,37.81701],[127.33752,37.81683],[127.33751,37.81621],[127.33757,37.8155],[127.34095,37.80836],[127.34143,37.80758],[127.3437,37.80567],[127.34393,37.80553],[127.34436,37.80527],[127.34468,37.80512],[127.34524,37.80498],[127.34735,37.80455],[127.3513,37.80411],[127.35159,37.80414],[127.35164,37.80415],[127.35175,37.80417],[127.35186,37.80419],[127.35214,37.80425],[127.35225,37.80427],[127.35247,37.80432],[127.35411,37.80492],[127.35478,37.80554],[127.35496,37.8058],[127.3552,37.80618],[127.35565,37.80645],[127.35676,37.80693],[127.35817,37.80733],[127.35874,37.8075],[127.35881,37.8075],[127.35917,37.80751],[127.36335,37.80618],[127.36422,37.8049],[127.36483,37.80361],[127.36545,37.8021],[127.36549,37.80114],[127.36556,37.80055],[127.36565,37.80031],[127.36694,37.7981],[127.36807,37.79663],[127.36849,37.79609],[127.37063,37.79575],[127.37234,37.79582],[127.37321,37.79639],[127.37326,37.79651],[127.37346,37.79697],[127.37333,37.79832],[127.37324,37.79946],[127.37326,37.80006],[127.37336,37.80044],[127.37343,37.80052],[127.37361,37.80071],[127.37478,37.80064],[127.3757,37.80034],[127.37689,37.7994],[127.37718,37.79875],[127.37742,37.79767],[127.37747,37.79715],[127.37751,37.79666],[127.3778,37.79597],[127.37812,37.79567],[127.37834,37.79555],[127.37839,37.79552],[127.37843,37.7955],[127.37893,37.79525],[127.37922,37.7951],[127.37949,37.79496],[127.37981,37.79486],[127.37993,37.79484],[127.38016,37.79481],[127.38293,37.79616],[127.38374,37.7966],[127.38449,37.79706],[127.38456,37.7971],[127.38497,37.79719],[127.38581,37.79739],[127.38649,37.79745],[127.38817,37.79758],[127.39177,37.79813],[127.39281,37.79835],[127.39415,37.79903],[127.39609,37.79805],[127.39609,37.79722],[127.39669,37.79409],[127.40787,37.79667],[127.40994,37.79753],[127.41461,37.79844],[127.41644,37.7987],[127.41648,37.79707],[127.41557,37.79641],[127.41546,37.79583],[127.41552,37.79425],[127.41561,37.79384],[127.41573,37.79328],[127.41593,37.79219],[127.41635,37.7857],[127.41617,37.78456],[127.41592,37.78361],[127.41574,37.78294],[127.41545,37.78217],[127.41496,37.78148],[127.41452,37.78116],[127.41396,37.78077],[127.41432,37.77904],[127.41463,37.77763],[127.415,37.77712],[127.4154,37.77692],[127.41564,37.7768],[127.41663,37.77614],[127.41717,37.77576],[127.41783,37.77529],[127.41787,37.77526],[127.4179,37.77524],[127.41672,37.77419],[127.41532,37.7733],[127.41449,37.77296],[127.41251,37.77116],[127.41221,37.77033],[127.41221,37.76913],[127.41223,37.76885],[127.41227,37.76851],[127.4127,37.76621],[127.41619,37.76049],[127.41802,37.7594],[127.42032,37.75775],[127.42105,37.75709],[127.42179,37.75572],[127.42222,37.75476],[127.42224,37.75237],[127.42186,37.75159],[127.41996,37.74968],[127.41909,37.749],[127.41757,37.74789],[127.41684,37.74867],[127.41644,37.74909],[127.41638,37.74916],[127.41625,37.74931],[127.41519,37.75049],[127.4147,37.75083],[127.41411,37.75085],[127.41303,37.75087],[127.41061,37.74999],[127.40885,37.74923],[127.40786,37.74879],[127.40703,37.74758],[127.40691,37.74755],[127.4066,37.74746],[127.3987,37.74531],[127.39477,37.74487],[127.39027,37.74331],[127.3879,37.74237],[127.38597,37.74173],[127.38482,37.74185],[127.38454,37.74211],[127.38313,37.74281],[127.38298,37.74288],[127.37936,37.74147],[127.37762,37.74076],[127.3735,37.73874],[127.37237,37.73784],[127.37217,37.73641],[127.37099,37.73404],[127.36716,37.72996],[127.36252,37.72635],[127.36142,37.72608],[127.36109,37.72612],[127.35906,37.72549],[127.35663,37.7243],[127.35545,37.72369],[127.35313,37.72454],[127.34786,37.7269],[127.345,37.7277],[127.34492,37.72774],[127.34486,37.72778],[127.34349,37.72888],[127.34329,37.72905],[127.34294,37.72937],[127.3429,37.72942],[127.34288,37.72946],[127.34286,37.72955],[127.343,37.73114],[127.34302,37.7312],[127.34308,37.73135],[127.34315,37.73147],[127.34326,37.73162],[127.34341,37.73188],[127.34342,37.73198],[127.34342,37.7321],[127.34339,37.73289],[127.34338,37.73303],[127.34337,37.73313],[127.34336,37.73321],[127.34246,37.73754],[127.34241,37.7378],[127.34216,37.73823],[127.34207,37.73834],[127.34197,37.73845],[127.34181,37.7386],[127.33744,37.74241],[127.33531,37.74383],[127.33293,37.74646],[127.33245,37.74717],[127.33235,37.74732],[127.33107,37.74954],[127.33116,37.74985],[127.33135,37.75031],[127.33142,37.75045],[127.33181,37.75107],[127.33185,37.75114],[127.33193,37.75122],[127.33198,37.75127],[127.33209,37.75137],[127.33218,37.75145],[127.33224,37.7515],[127.33233,37.75157],[127.33246,37.75166],[127.33249,37.75168],[127.33312,37.75206],[127.33327,37.75216],[127.33346,37.75226],[127.33355,37.75232],[127.33372,37.75246],[127.33386,37.75257],[127.33395,37.75268],[127.33398,37.75275],[127.33399,37.75278],[127.33397,37.75281],[127.33396,37.75284],[127.33388,37.75293],[127.33383,37.75298],[127.33305,37.75352],[127.33192,37.75424],[127.33009,37.75585],[127.32849,37.75773],[127.32844,37.75781],[127.32841,37.75785],[127.32837,37.75793],[127.32837,37.75799],[127.32837,37.75802],[127.32838,37.75807],[127.32645,37.76025],[127.32534,37.76082],[127.3237,37.76176],[127.32237,37.76307],[127.32233,37.76315],[127.32231,37.76323],[127.32223,37.76353],[127.32215,37.76376],[127.32211,37.76386],[127.32202,37.76403],[127.32195,37.76415],[127.32185,37.76425],[127.32015,37.76597],[127.31992,37.76619],[127.31985,37.76624],[127.31857,37.76723],[127.31575,37.76893],[127.31565,37.76897],[127.31531,37.76903],[127.31521,37.76903],[127.31397,37.76879],[127.31369,37.7687],[127.31294,37.7685],[127.31192,37.76827],[127.31178,37.76825],[127.31144,37.7682],[127.31088,37.76812],[127.31074,37.76813],[127.31008,37.76824],[127.30989,37.7683],[127.30978,37.76836],[127.30631,37.77035],[127.30503,37.77123],[127.30469,37.77148],[127.30459,37.77162],[127.30455,37.77172],[127.3021,37.77338],[127.2985,37.77429],[127.29573,37.77524],[127.29363,37.77608],[127.29359,37.7761],[127.29354,37.77613],[127.29343,37.77616],[127.29313,37.77624],[127.29196,37.77614],[127.29181,37.77612],[127.29169,37.77608],[127.29162,37.77606],[127.29156,37.77604],[127.29153,37.77602],[127.29137,37.77593],[127.29104,37.77574],[127.29091,37.77562],[127.2908,37.77552],[127.29043,37.7752],[127.29031,37.77512],[127.2902,37.77507],[127.29009,37.77504],[127.29,37.77501],[127.28608,37.77477],[127.28602,37.77477],[127.28592,37.77477],[127.2828,37.77478],[127.28186,37.77492],[127.27775,37.77449],[127.27406,37.77405],[127.27402,37.77406],[127.27397,37.77407],[127.27391,37.77409],[127.27371,37.77416],[127.27363,37.77426],[127.27357,37.77455],[127.27329,37.77527],[127.27294,37.77603],[127.27292,37.77606],[127.27287,37.77611],[127.26973,37.77883],[127.2696,37.77893],[127.26956,37.77896],[127.26941,37.77905],[127.26926,37.77914],[127.26905,37.77925],[127.26885,37.77933],[127.26862,37.77943],[127.26845,37.77949],[127.2683,37.77953],[127.26803,37.77957],[127.26778,37.77961],[127.26652,37.78045],[127.26698,37.78186],[127.26708,37.78217],[127.26735,37.78296],[127.26807,37.78456],[127.26813,37.78468],[127.26841,37.78516],[127.26848,37.78523],[127.26853,37.78528],[127.2686,37.78532],[127.2687,37.78535],[127.26891,37.7854],[127.26934,37.7855],[127.26954,37.78555],[127.26966,37.7856],[127.26998,37.78572],[127.27018,37.78581],[127.27034,37.78588],[127.2704,37.78591],[127.27093,37.78622],[127.27097,37.78629],[127.271,37.78636],[127.2719,37.78865],[127.27216,37.79039],[127.27132,37.79135],[127.27126,37.79144],[127.27121,37.79155],[127.27096,37.79234],[127.27052,37.79378],[127.27051,37.79386],[127.27083,37.79459],[127.2718,37.79603],[127.27187,37.79613],[127.27553,37.80117],[127.27727,37.80358],[127.27753,37.80379],[127.27774,37.80403],[127.27808,37.80448],[127.27852,37.80506],[127.27875,37.80546],[127.27845,37.80606],[127.2784,37.80611],[127.2783,37.8062],[127.27808,37.80629],[127.27785,37.80637],[127.2774,37.80882],[127.27778,37.80995],[127.27855,37.81319],[127.27926,37.81639],[127.27926,37.81645],[127.27923,37.81661],[127.279,37.81727],[127.27702,37.82192],[127.27583,37.8247],[127.27564,37.82474],[127.27559,37.82475],[127.27552,37.82476],[127.27539,37.8248],[127.27524,37.82489],[127.27513,37.82497],[127.27506,37.82504],[127.27418,37.82636],[127.27413,37.82647],[127.2741,37.82659],[127.27409,37.82669],[127.27413,37.83052],[127.27415,37.83062],[127.2763,37.83591],[127.27747,37.83786],[127.27857,37.83941],[127.27886,37.84134],[127.27886,37.8417],[127.27888,37.84182],[127.27889,37.84185],[127.27893,37.84201],[127.27903,37.84234],[127.28103,37.84419],[127.28122,37.84436],[127.28135,37.84447],[127.28147,37.84457],[127.28238,37.84532],[127.28347,37.84576],[127.28367,37.84584],[127.28389,37.84594],[127.28393,37.84596],[127.28397,37.84599],[127.28402,37.84603],[127.28493,37.84683],[127.28572,37.84755],[127.28628,37.84822],[127.28632,37.84828],[127.2863,37.84831],[127.28586,37.84892],[127.28579,37.84899],[127.28562,37.84912],[127.2855,37.84916],[127.28354,37.85074],[127.28075,37.85349],[127.28034,37.85389],[127.28029,37.85396],[127.28026,37.85405],[127.28028,37.85464],[127.28033,37.85528],[127.28036,37.85543],[127.28168,37.85655],[127.28466,37.85998],[127.28478,37.86014],[127.28491,37.86031],[127.28515,37.86085],[127.28521,37.86101],[127.28584,37.8639],[127.2858,37.86468],[127.28576,37.86496],[127.28576,37.86501],[127.28584,37.86543],[127.28588,37.86558],[127.28595,37.86572],[127.28728,37.86833],[127.28861,37.87022],[127.29154,37.87414],[127.29317,37.87342],[127.29574,37.86962],[127.29617,37.86887],[127.29829,37.8683],[127.29875,37.86824],[127.2998,37.86814],[127.30038,37.86811],[127.30064,37.8681],[127.30085,37.86811],[127.30193,37.86821],[127.30227,37.86825],[127.30295,37.86835],[127.30331,37.86841],[127.30394,37.86852],[127.30432,37.86865],[127.30457,37.86874],[127.30467,37.86877],[127.30476,37.8688],[127.30495,37.86884],[127.30517,37.86885],[127.30533,37.86885],[127.30547,37.86884],[127.3057,37.86879],[127.30857,37.86806],[127.30867,37.86802],[127.30884,37.86794],[127.30902,37.86785],[127.30912,37.86774],[127.30916,37.86767],[127.30927,37.86738],[127.30932,37.8672],[127.30943,37.86707],[127.3096,37.8669],[127.30969,37.86682],[127.30973,37.86679],[127.30981,37.86672],[127.31,37.86657],[127.31007,37.86651],[127.31011,37.86648],[127.3102,37.86644],[127.31025,37.86642],[127.31032,37.8664],[127.3117,37.86614],[127.31178,37.86613],[127.31188,37.86612],[127.312,37.86612],[127.31204,37.86612],[127.3121,37.86612]]]]}},{"type":"Feature","properties":{"code":"41820345","name":"조종면","parent":"41820"},"geometry":{"type":"MultiPolygon","coordinates":[[[[127.41438,37.89885],[127.41321,37.89672],[127.41169,37.89584],[127.40994,37.89536],[127.40665,37.89403],[127.40066,37.89155],[127.39939,37.89003],[127.39874,37.88845],[127.39927,37.88778],[127.40053,37.8859],[127.40132,37.88214],[127.4011,37.88193],[127.40079,37.88161],[127.40043,37.88124],[127.40037,37.88118],[127.40013,37.87941],[127.40003,37.87738],[127.40074,37.87633],[127.40089,37.8761],[127.40333,37.87317],[127.40625,37.87377],[127.4112,37.87315],[127.41123,37.87172],[127.40991,37.87023],[127.40978,37.86999],[127.40976,37.8699],[127.40984,37.86866],[127.41109,37.86614],[127.41135,37.86483],[127.41154,37.86368],[127.41147,37.86315],[127.41142,37.86277],[127.41364,37.85849],[127.41415,37.85759],[127.4145,37.85743],[127.41485,37.85729],[127.41652,37.85656],[127.41681,37.85219],[127.41664,37.85024],[127.41639,37.84784],[127.41643,37.84721],[127.41647,37.84663],[127.41757,37.8446],[127.41917,37.84153],[127.4188,37.84126],[127.41713,37.84058],[127.41645,37.84029],[127.4155,37.83964],[127.41479,37.83899],[127.41313,37.83648],[127.4115,37.83327],[127.41172,37.83285],[127.41178,37.83273],[127.41187,37.83257],[127.41278,37.83156],[127.41407,37.8307],[127.41575,37.8281],[127.41586,37.82532],[127.41772,37.8228],[127.41819,37.82241],[127.41942,37.82118],[127.42026,37.82022],[127.42096,37.81866],[127.42005,37.81767],[127.41934,37.81749],[127.41899,37.81739],[127.41832,37.81671],[127.41587,37.81297],[127.41543,37.81225],[127.41508,37.8114],[127.41506,37.81122],[127.41502,37.81088],[127.41522,37.81056],[127.41527,37.81046],[127.42016,37.80303],[127.4209,37.8021],[127.41849,37.80121],[127.41684,37.80037],[127.41644,37.7987],[127.41461,37.79844],[127.40994,37.79753],[127.40787,37.79667],[127.39669,37.79409],[127.39609,37.79722],[127.39609,37.79805],[127.39415,37.79903],[127.39281,37.79835],[127.39177,37.79813],[127.38817,37.79758],[127.38649,37.79745],[127.38581,37.79739],[127.38497,37.79719],[127.38456,37.7971],[127.38449,37.79706],[127.38374,37.7966],[127.38293,37.79616],[127.38016,37.79481],[127.37993,37.79484],[127.37981,37.79486],[127.37949,37.79496],[127.37922,37.7951],[127.37893,37.79525],[127.37843,37.7955],[127.37839,37.79552],[127.37834,37.79555],[127.37812,37.79567],[127.3778,37.79597],[127.37751,37.79666],[127.37747,37.79715],[127.37742,37.79767],[127.37718,37.79875],[127.37689,37.7994],[127.3757,37.80034],[127.37478,37.80064],[127.37361,37.80071],[127.37343,37.80052],[127.37336,37.80044],[127.37326,37.80006],[127.37324,37.79946],[127.37333,37.79832],[127.37346,37.79697],[127.37326,37.79651],[127.37321,37.79639],[127.37234,37.79582],[127.37063,37.79575],[127.36849,37.79609],[127.36807,37.79663],[127.36694,37.7981],[127.36565,37.80031],[127.36556,37.80055],[127.36549,37.80114],[127.36545,37.8021],[127.36483,37.80361],[127.36422,37.8049],[127.36335,37.80618],[127.35917,37.80751],[127.35881,37.8075],[127.35874,37.8075],[127.35817,37.80733],[127.35676,37.80693],[127.35565,37.80645],[127.3552,37.80618],[127.35496,37.8058],[127.35478,37.80554],[127.35411,37.80492],[127.35247,37.80432],[127.35225,37.80427],[127.35214,37.80425],[127.35186,37.80419],[127.35175,37.80417],[127.35164,37.80415],[127.35159,37.80414],[127.3513,37.80411],[127.34735,37.80455],[127.34524,37.80498],[127.34468,37.80512],[127.34436,37.80527],[127.34393,37.80553],[127.3437,37.80567],[127.34143,37.80758],[127.34095,37.80836],[127.33757,37.8155],[127.33751,37.81621],[127.33752,37.81683],[127.33754,37.81701],[127.33759,37.81769],[127.33771,37.81811],[127.33788,37.8184],[127.33806,37.81871],[127.33823,37.81905],[127.33812,37.81943],[127.33777,37.81984],[127.33667,37.82112],[127.33638,37.8214],[127.33576,37.82198],[127.3342,37.82238],[127.33382,37.82248],[127.33366,37.82252],[127.33394,37.82321],[127.33405,37.82348],[127.33641,37.82658],[127.3361,37.8281],[127.33532,37.82809],[127.33081,37.82862],[127.33074,37.82863],[127.32808,37.82906],[127.32663,37.82947],[127.32153,37.8346],[127.32087,37.83577],[127.31991,37.83966],[127.32005,37.84053],[127.32013,37.84103],[127.32039,37.84131],[127.32058,37.84152],[127.32063,37.84226],[127.32045,37.84314],[127.3192,37.84528],[127.31892,37.84535],[127.31817,37.84553],[127.31812,37.84752],[127.3182,37.84774],[127.3183,37.84798],[127.31954,37.84905],[127.31959,37.85067],[127.31641,37.85362],[127.31521,37.85539],[127.31542,37.85621],[127.31492,37.85751],[127.31416,37.85856],[127.31255,37.86093],[127.31221,37.8643],[127.3121,37.86612],[127.31253,37.86691],[127.31259,37.86698],[127.31329,37.8677],[127.31341,37.86782],[127.31349,37.86786],[127.31353,37.86788],[127.31359,37.86788],[127.31372,37.8679],[127.31395,37.86788],[127.31429,37.86782],[127.31755,37.86929],[127.3206,37.87139],[127.32124,37.8714],[127.32221,37.87142],[127.32229,37.87143],[127.32236,37.87148],[127.32316,37.8727],[127.32346,37.87317],[127.32356,37.87333],[127.3236,37.87339],[127.32372,37.87363],[127.32375,37.87374],[127.32391,37.87616],[127.32308,37.88075],[127.32364,37.88746],[127.3237,37.88785],[127.32475,37.88945],[127.3258,37.89079],[127.32626,37.8911],[127.32669,37.89138],[127.32686,37.89152],[127.32732,37.89192],[127.3284,37.89321],[127.32861,37.89348],[127.32899,37.89408],[127.32913,37.89431],[127.3289,37.89504],[127.32819,37.89689],[127.32737,37.9025],[127.32739,37.90284],[127.32745,37.90321],[127.32747,37.90335],[127.32789,37.90446],[127.3291,37.90715],[127.32922,37.9072],[127.32934,37.90725],[127.32967,37.90736],[127.33005,37.90748],[127.33026,37.9076],[127.33032,37.90763],[127.33046,37.90782],[127.33052,37.90808],[127.33056,37.90905],[127.33048,37.90974],[127.33039,37.91004],[127.3301,37.91029],[127.32996,37.91034],[127.32977,37.9104],[127.32937,37.9106],[127.3279,37.91215],[127.32786,37.91224],[127.32786,37.91241],[127.32886,37.91404],[127.32964,37.91525],[127.32968,37.91531],[127.32974,37.91538],[127.3303,37.91606],[127.33047,37.91627],[127.33062,37.91652],[127.33077,37.91675],[127.33089,37.91718],[127.33088,37.91757],[127.3304,37.91837],[127.32979,37.91948],[127.32947,37.92025],[127.32899,37.92203],[127.32923,37.92228],[127.33043,37.92362],[127.33056,37.92411],[127.33066,37.9245],[127.33098,37.92591],[127.33127,37.92607],[127.33147,37.92619],[127.33303,37.9265],[127.33462,37.92547],[127.3361,37.92447],[127.33644,37.92416],[127.33729,37.92377],[127.3384,37.92384],[127.33996,37.92426],[127.34313,37.92615],[127.34361,37.92654],[127.34393,37.92679],[127.34518,37.92721],[127.34575,37.92703],[127.34744,37.92607],[127.34793,37.9256],[127.3485,37.92505],[127.34859,37.92482],[127.34918,37.92376],[127.35031,37.92233],[127.35061,37.92222],[127.35134,37.92197],[127.35463,37.92165],[127.35583,37.92165],[127.35663,37.92196],[127.3569,37.92206],[127.35721,37.92222],[127.3581,37.92269],[127.3643,37.92595],[127.3661,37.92883],[127.36717,37.92936],[127.3681,37.92967],[127.36909,37.93009],[127.36989,37.93062],[127.37053,37.93159],[127.37195,37.93386],[127.37455,37.93653],[127.37615,37.93775],[127.37754,37.93877],[127.37928,37.93908],[127.37954,37.93911],[127.37981,37.93913],[127.38043,37.93959],[127.38119,37.94026],[127.38169,37.94081],[127.38192,37.94131],[127.38219,37.94191],[127.38282,37.94276],[127.38353,37.94319],[127.38428,37.94354],[127.3851,37.9432],[127.38522,37.94315],[127.38602,37.94315],[127.39109,37.9434],[127.39309,37.94418],[127.39609,37.94492],[127.39618,37.94488],[127.39666,37.94467],[127.39733,37.94424],[127.39759,37.94373],[127.39775,37.9434],[127.39857,37.94265],[127.4007,37.94222],[127.40451,37.93988],[127.40788,37.93762],[127.41153,37.93508],[127.41502,37.93316],[127.41672,37.93325],[127.41897,37.9326],[127.42031,37.93165],[127.42242,37.92946],[127.41943,37.92183],[127.41883,37.92087],[127.4182,37.92013],[127.41809,37.92],[127.41783,37.91981],[127.41713,37.91929],[127.41714,37.91307],[127.4181,37.9108],[127.41819,37.91058],[127.41833,37.91016],[127.41871,37.90899],[127.41791,37.90797],[127.41702,37.90708],[127.41616,37.90569],[127.4163,37.90483],[127.41636,37.90428],[127.41642,37.90364],[127.41632,37.90209],[127.41587,37.9007],[127.41438,37.89885]]]]}},{"type":"Feature","properties":{"code":"41820350","name":"북면","parent":"41820"},"geometry":{"type":"MultiPolygon","coordinates":[[[[127.53974,38.00118],[127.54173,37.99772],[127.54238,37.99645],[127.54267,37.9956],[127.54345,37.9919],[127.54344,37.99106],[127.54335,37.98995],[127.54334,37.9898],[127.54345,37.98881],[127.54416,37.98761],[127.54495,37.98652],[127.54518,37.98629],[127.54566,37.98581],[127.5461,37.98517],[127.54608,37.98496],[127.54607,37.98489],[127.54598,37.98416],[127.54588,37.98329],[127.54609,37.98206],[127.54662,37.98065],[127.5471,37.97976],[127.54546,37.97643],[127.54521,37.97607],[127.54501,37.97578],[127.54497,37.97566],[127.54473,37.97479],[127.54466,37.97444],[127.54461,37.97423],[127.54421,37.96909],[127.54433,37.96812],[127.54519,37.96762],[127.5483,37.96613],[127.54946,37.96607],[127.55068,37.96621],[127.55079,37.96621],[127.5516,37.9662],[127.55482,37.96525],[127.55525,37.96501],[127.55606,37.96454],[127.55651,37.96435],[127.55763,37.96385],[127.55848,37.96359],[127.55974,37.96321],[127.56125,37.96278],[127.56229,37.96266],[127.56468,37.96328],[127.56912,37.96372],[127.57155,37.96392],[127.57322,37.96405],[127.57634,37.96348],[127.58493,37.96184],[127.58522,37.96178],[127.58785,37.96126],[127.59361,37.95715],[127.59397,37.95696],[127.59412,37.95688],[127.59468,37.95668],[127.59484,37.95664],[127.59494,37.95662],[127.5952,37.95658],[127.59631,37.95639],[127.59652,37.95637],[127.59694,37.95635],[127.59784,37.95633],[127.59802,37.95634],[127.59812,37.95635],[127.59817,37.95637],[127.59823,37.9564],[127.59832,37.95642],[127.5984,37.95643],[127.59846,37.95645],[127.59927,37.95649],[127.60009,37.95651],[127.60016,37.95649],[127.60139,37.95605],[127.6015,37.956],[127.60161,37.95594],[127.60299,37.9551],[127.60331,37.95423],[127.60342,37.95381],[127.60354,37.95292],[127.60354,37.95281],[127.6034,37.95135],[127.6033,37.95091],[127.60319,37.95044],[127.60284,37.94905],[127.60273,37.94864],[127.60267,37.94771],[127.60472,37.9443],[127.60474,37.94427],[127.60482,37.94416],[127.60487,37.94412],[127.6049,37.9441],[127.60508,37.94404],[127.60536,37.94399],[127.60705,37.94379],[127.60779,37.94378],[127.60786,37.94379],[127.60801,37.94383],[127.60823,37.94384],[127.60833,37.94382],[127.60904,37.94365],[127.60908,37.94362],[127.60932,37.94345],[127.60946,37.94334],[127.61238,37.9407],[127.61376,37.93939],[127.61515,37.93429],[127.61643,37.93141],[127.61658,37.9302],[127.61658,37.93011],[127.6166,37.92954],[127.6166,37.9295],[127.6166,37.92945],[127.61572,37.92776],[127.61565,37.92763],[127.61559,37.92753],[127.61554,37.92746],[127.61542,37.92734],[127.61534,37.92727],[127.61523,37.92717],[127.61506,37.92705],[127.61492,37.92695],[127.61458,37.92679],[127.61444,37.92673],[127.61422,37.92665],[127.6141,37.9266],[127.61399,37.92656],[127.61383,37.92648],[127.6137,37.92639],[127.61355,37.92628],[127.61325,37.926],[127.61277,37.92547],[127.61259,37.92527],[127.61252,37.92516],[127.61251,37.92513],[127.61249,37.92506],[127.61222,37.92401],[127.61221,37.9239],[127.61207,37.92081],[127.61209,37.92074],[127.61213,37.92068],[127.61229,37.92055],[127.6134,37.91975],[127.61349,37.9197],[127.6162,37.91506],[127.61624,37.91498],[127.61666,37.91389],[127.61719,37.91248],[127.61721,37.9124],[127.61751,37.9106],[127.61755,37.91033],[127.61764,37.90909],[127.61773,37.90661],[127.61772,37.90653],[127.61754,37.90611],[127.6153,37.90225],[127.61137,37.89622],[127.61041,37.89407],[127.60822,37.89017],[127.6076,37.88986],[127.6067,37.8899],[127.60642,37.88992],[127.60112,37.89051],[127.59602,37.89036],[127.59478,37.89065],[127.594,37.89119],[127.59392,37.89125],[127.59367,37.89142],[127.59264,37.89162],[127.59255,37.8916],[127.59197,37.89153],[127.59176,37.8915],[127.5885,37.89011],[127.58808,37.88966],[127.58735,37.88887],[127.58584,37.88765],[127.58033,37.88589],[127.57829,37.8854],[127.57694,37.88545],[127.57672,37.88546],[127.57652,37.88547],[127.57338,37.88586],[127.57238,37.88611],[127.57185,37.88624],[127.56981,37.88625],[127.5695,37.88606],[127.5689,37.88569],[127.56597,37.88334],[127.56583,37.88301],[127.56553,37.88234],[127.56322,37.88096],[127.56271,37.88075],[127.56263,37.88071],[127.56254,37.88067],[127.56128,37.88014],[127.55997,37.87972],[127.55772,37.87877],[127.5531,37.87565],[127.55308,37.87545],[127.55295,37.87444],[127.54981,37.87362],[127.5467,37.87289],[127.54442,37.87237],[127.54351,37.87239],[127.54302,37.87286],[127.54243,37.87342],[127.54161,37.87389],[127.54062,37.8744],[127.54023,37.87453],[127.5393,37.87483],[127.5338,37.87533],[127.53212,37.87548],[127.52914,37.87541],[127.5261,37.87474],[127.52528,37.87425],[127.52474,37.87394],[127.52388,37.87313],[127.52346,37.87273],[127.52215,37.87139],[127.52181,37.87052],[127.52167,37.87018],[127.52155,37.86944],[127.52153,37.86936],[127.52151,37.86922],[127.52095,37.86878],[127.52013,37.86897],[127.51967,37.86913],[127.51915,37.8693],[127.51818,37.8711],[127.51816,37.87113],[127.51193,37.87489],[127.50785,37.87363],[127.5069,37.8753],[127.50518,37.8777],[127.49896,37.88183],[127.49571,37.88397],[127.49363,37.88369],[127.49329,37.88363],[127.4924,37.88347],[127.4917,37.88324],[127.48934,37.88303],[127.48026,37.88222],[127.47651,37.88296],[127.46388,37.8871],[127.46318,37.88796],[127.46196,37.88945],[127.4614,37.88952],[127.46087,37.88956],[127.46076,37.88957],[127.46054,37.88951],[127.46012,37.88938],[127.4565,37.88827],[127.45416,37.8879],[127.45244,37.888],[127.45094,37.88832],[127.44973,37.88854],[127.4463,37.88874],[127.44595,37.88843],[127.4454,37.88793],[127.44426,37.88747],[127.44036,37.88674],[127.43863,37.8865],[127.43851,37.88655],[127.43785,37.88683],[127.4365,37.88711],[127.43349,37.88736],[127.43152,37.8873],[127.43027,37.88721],[127.42934,37.88695],[127.42905,37.88687],[127.42826,37.88658],[127.42571,37.88826],[127.42517,37.88888],[127.42412,37.89057],[127.42184,37.89345],[127.42151,37.89368],[127.42082,37.89417],[127.41888,37.8952],[127.41589,37.8958],[127.41438,37.89885],[127.41587,37.9007],[127.41632,37.90209],[127.41642,37.90364],[127.41636,37.90428],[127.4163,37.90483],[127.41616,37.90569],[127.41702,37.90708],[127.41791,37.90797],[127.41871,37.90899],[127.41833,37.91016],[127.41819,37.91058],[127.4181,37.9108],[127.41714,37.91307],[127.41713,37.91929],[127.41783,37.91981],[127.41809,37.92],[127.4182,37.92013],[127.41883,37.92087],[127.41943,37.92183],[127.42242,37.92946],[127.42031,37.93165],[127.41897,37.9326],[127.41672,37.93325],[127.41502,37.93316],[127.41153,37.93508],[127.40788,37.93762],[127.40451,37.93988],[127.4007,37.94222],[127.39857,37.94265],[127.39775,37.9434],[127.39759,37.94373],[127.39733,37.94424],[127.39666,37.94467],[127.39618,37.94488],[127.39609,37.94492],[127.39309,37.94418],[127.39109,37.9434],[127.38602,37.94315],[127.38522,37.94315],[127.3851,37.9432],[127.38428,37.94354],[127.3842,37.94372],[127.38416,37.94381],[127.384,37.94413],[127.38444,37.94571],[127.38471,37.94667],[127.38491,37.94709],[127.38313,37.94958],[127.38235,37.95045],[127.38169,37.95066],[127.38135,37.95077],[127.38029,37.95073],[127.37875,37.95112],[127.37683,37.95293],[127.37697,37.95359],[127.37771,37.95426],[127.37951,37.95647],[127.37973,37.95778],[127.3795,37.95825],[127.37917,37.95892],[127.37871,37.95892],[127.37744,37.9594],[127.3763,37.96108],[127.37626,37.96119],[127.37614,37.96153],[127.37697,37.96342],[127.3779,37.96534],[127.37968,37.96634],[127.38009,37.96663],[127.38177,37.96862],[127.38264,37.9697],[127.38263,37.96973],[127.38184,37.97227],[127.38245,37.97422],[127.38489,37.97587],[127.38539,37.97615],[127.38412,37.97793],[127.38395,37.97995],[127.38394,37.98006],[127.38395,37.98111],[127.38504,37.98241],[127.38666,37.98323],[127.3898,37.98268],[127.39431,37.98592],[127.39942,37.9894],[127.39945,37.98941],[127.40386,37.99061],[127.40513,37.99054],[127.40525,37.99054],[127.40529,37.99054],[127.4065,37.99163],[127.40748,37.99357],[127.40907,37.9963],[127.40956,37.99644],[127.41017,37.9966],[127.41063,37.99669],[127.41086,37.99673],[127.41139,37.99687],[127.41274,37.99759],[127.41302,37.9978],[127.41479,38.00175],[127.41479,38.00327],[127.4148,38.00408],[127.41469,38.00447],[127.41463,38.00469],[127.41454,38.005],[127.41452,38.00525],[127.41481,38.00692],[127.4168,38.01062],[127.41827,38.01468],[127.41828,38.01475],[127.41913,38.01606],[127.42001,38.01742],[127.42154,38.01902],[127.4225,38.01957],[127.42349,38.02015],[127.42466,38.02223],[127.42655,38.02566],[127.42719,38.02749],[127.42623,38.02958],[127.42429,38.03094],[127.42473,38.03303],[127.42491,38.0334],[127.42776,38.03401],[127.43019,38.03465],[127.43044,38.03478],[127.43121,38.03517],[127.43355,38.03673],[127.43504,38.03799],[127.43749,38.0403],[127.44177,38.04478],[127.44181,38.04493],[127.44171,38.04505],[127.44168,38.04509],[127.4422,38.04615],[127.44439,38.05],[127.44514,38.05058],[127.44566,38.05098],[127.44785,38.05034],[127.44912,38.04983],[127.45222,38.04744],[127.45227,38.0473],[127.45245,38.0468],[127.45244,38.0446],[127.45243,38.04446],[127.45237,38.04336],[127.45146,38.04024],[127.45091,38.03974],[127.45067,38.03898],[127.45095,38.03761],[127.45126,38.03647],[127.45129,38.03637],[127.4519,38.03468],[127.45228,38.03366],[127.45346,38.03089],[127.45361,38.03073],[127.45403,38.03027],[127.45417,38.03018],[127.45431,38.03009],[127.45524,38.02946],[127.45627,38.02726],[127.45614,38.02681],[127.45609,38.0266],[127.45561,38.02551],[127.45547,38.02503],[127.45682,38.01886],[127.45698,38.01848],[127.45799,38.01623],[127.46139,38.0129],[127.46611,38.01031],[127.46925,38.00859],[127.47018,38.00789],[127.47216,38.00606],[127.47635,38.00612],[127.47897,38.00615],[127.48554,38.00436],[127.48612,38.00446],[127.49021,38.00517],[127.49721,38.00363],[127.49727,38.00361],[127.4979,38.00222],[127.4984,38.0011],[127.50141,37.99956],[127.50583,38.00052],[127.50763,38.00059],[127.51003,38.00069],[127.51065,38.00072],[127.51635,38.00102],[127.51897,38.00124],[127.52167,38.00163],[127.52202,38.00168],[127.52351,38.00187],[127.52568,38.00171],[127.52646,38.00129],[127.52752,38.00071],[127.53277,38.00097],[127.53807,38.00071],[127.53974,38.00118]]]]}}]}