{"type":"FeatureCollection","features":[{"type":"Feature","properties":{"code":"48129540","name":"여좌동","parent":"48129"},"geometry":{"type":"MultiPolygon","coordinates":[[[[128.67485,35.17553],[128.67618,35.17494],[128.67287,35.16766],[128.67004,35.16154],[128.66881,35.15784],[128.66828,35.15279],[128.66955,35.15208],[128.66709,35.15205],[128.66465,35.15227],[128.65716,35.153],[128.65603,35.15308],[128.65598,35.1545],[128.65585,35.15833],[128.65651,35.15877],[128.65665,35.15886],[128.65669,35.1592],[128.65696,35.16212],[128.65632,35.16527],[128.65216,35.17033],[128.65098,35.17176],[128.64745,35.17555],[128.64799,35.17566],[128.64892,35.17585],[128.65139,35.17733],[128.65373,35.1787],[128.65662,35.17994],[128.65668,35.17997],[128.6575,35.18024],[128.6577,35.18029],[128.65787,35.18033],[128.65801,35.18034],[128.65823,35.18032],[128.65849,35.18025],[128.66039,35.17975],[128.66281,35.18007],[128.6629,35.18007],[128.66298,35.18007],[128.66309,35.18005],[128.66607,35.17868],[128.66696,35.17825],[128.67007,35.17667],[128.67144,35.17594],[128.67399,35.176],[128.67485,35.17553]]]]}},{"type":"Feature","properties":{"code":"48129550","name":"태백동","parent":"48129"},"geometry":{"type":"MultiPolygon","coordinates":[[[[128.67444,35.15237],[128.66955,35.15208],[128.66828,35.15279],[128.66881,35.15784],[128.67004,35.16154],[128.67287,35.16766],[128.67373,35.16731],[128.6741,35.16703],[128.6744,35.16677],[128.67496,35.16628],[128.67537,35.16507],[128.6759,35.16345],[128.67603,35.16269],[128.67603,35.16263],[128.67598,35.16244],[128.6759,35.16214],[128.6758,35.16193],[128.67561,35.16163],[128.67546,35.16152],[128.67542,35.16145],[128.67529,35.16053],[128.67529,35.16048],[128.6753,35.16043],[128.67628,35.15948],[128.67662,35.15918],[128.67671,35.15912],[128.67757,35.15939],[128.67763,35.15938],[128.68086,35.15834],[128.681,35.1579],[128.68101,35.15786],[128.6811,35.15754],[128.68111,35.15748],[128.68114,35.15728],[128.68115,35.15723],[128.68145,35.15303],[128.676,35.1525],[128.67444,35.15237]]]]}},{"type":"Feature","properties":{"code":"48129560","name":"경화동","parent":"48129"},"geometry":{"type":"MultiPolygon","coordinates":[[[[128.68985,35.16979],[128.68948,35.16838],[128.68778,35.16255],[128.68782,35.15863],[128.68784,35.15731],[128.68787,35.15683],[128.68791,35.15615],[128.68798,35.15504],[128.68807,35.15356],[128.68839,35.15277],[128.68862,35.15059],[128.68876,35.14737],[128.68865,35.14728],[128.68862,35.14727],[128.68859,35.14725],[128.68855,35.14724],[128.68851,35.14723],[128.68848,35.14722],[128.68805,35.14716],[128.68611,35.14707],[128.68576,35.14706],[128.68313,35.14694],[128.67958,35.14678],[128.67951,35.14676],[128.67847,35.14641],[128.67653,35.14923],[128.67654,35.1497],[128.67444,35.15237],[128.676,35.1525],[128.68145,35.15303],[128.68115,35.15723],[128.68114,35.15728],[128.68111,35.15748],[128.6811,35.15754],[128.68101,35.15786],[128.681,35.1579],[128.68086,35.15834],[128.67763,35.15938],[128.67757,35.15939],[128.67671,35.15912],[128.67662,35.15918],[128.67628,35.15948],[128.6753,35.16043],[128.67529,35.16048],[128.67529,35.16053],[128.67542,35.16145],[128.67546,35.16152],[128.67561,35.16163],[128.6758,35.16193],[128.6759,35.16214],[128.67598,35.16244],[128.67603,35.16263],[128.67603,35.16269],[128.6759,35.16345],[128.67537,35.16507],[128.67496,35.16628],[128.6744,35.16677],[128.6741,35.16703],[128.67373,35.16731],[128.67287,35.16766],[128.67618,35.17494],[128.67964,35.17294],[128.68018,35.17299],[128.68031,35.17301],[128.68054,35.17301],[128.68068,35.173],[128.68524,35.17198],[128.68536,35.17195],[128.68604,35.17168],[128.68985,35.16979]]]]}},{"type":"Feature","properties":{"code":"48129570","name":"병암동","parent":"48129"},"geometry":{"type":"MultiPolygon","coordinates":[[[[128.69466,35.16883],[128.69676,35.16471],[128.6968,35.16454],[128.6964,35.162],[128.69637,35.16195],[128.6963,35.16185],[128.69624,35.16177],[128.69618,35.1617],[128.69614,35.16165],[128.6961,35.16161],[128.69604,35.16155],[128.69599,35.1615],[128.69593,35.16143],[128.69588,35.16138],[128.69581,35.16132],[128.69569,35.16121],[128.69559,35.16113],[128.69551,35.16107],[128.69544,35.16102],[128.69534,35.16096],[128.69449,35.15727],[128.69391,35.1544],[128.6938,35.15358],[128.69334,35.15351],[128.69278,35.15328],[128.69266,35.1532],[128.68996,35.15084],[128.68993,35.15081],[128.6899,35.15075],[128.68878,35.14682],[128.68876,35.14737],[128.68862,35.15059],[128.68839,35.15277],[128.68807,35.15356],[128.68798,35.15504],[128.68791,35.15615],[128.68787,35.15683],[128.68784,35.15731],[128.68782,35.15863],[128.68778,35.16255],[128.68948,35.16838],[128.68985,35.16979],[128.69466,35.16883]]]]}},{"type":"Feature","properties":{"code":"48129580","name":"석동","parent":"48129"},"geometry":{"type":"MultiPolygon","coordinates":[[[[128.71341,35.16616],[128.71004,35.16267],[128.70918,35.1604],[128.70828,35.15775],[128.70899,35.15748],[128.70983,35.15715],[128.71086,35.15469],[128.70659,35.15297],[128.70646,35.15291],[128.70594,35.1527],[128.70572,35.15262],[128.70324,35.15168],[128.69925,35.15339],[128.69676,35.15449],[128.69391,35.1544],[128.69449,35.15727],[128.69534,35.16096],[128.69544,35.16102],[128.69551,35.16107],[128.69559,35.16113],[128.69569,35.16121],[128.69581,35.16132],[128.69588,35.16138],[128.69593,35.16143],[128.69599,35.1615],[128.69604,35.16155],[128.6961,35.16161],[128.69614,35.16165],[128.69618,35.1617],[128.69624,35.16177],[128.6963,35.16185],[128.69637,35.16195],[128.6964,35.162],[128.6968,35.16454],[128.69676,35.16471],[128.69466,35.16883],[128.69856,35.16874],[128.7005,35.16878],[128.7009,35.16875],[128.70105,35.16873],[128.70115,35.1687],[128.70218,35.16826],[128.70289,35.16788],[128.70298,35.16784],[128.70307,35.1678],[128.70328,35.16776],[128.70618,35.16744],[128.70638,35.16744],[128.70653,35.16746],[128.70748,35.16775],[128.71209,35.1669],[128.71219,35.16686],[128.71297,35.16651],[128.71304,35.16647],[128.71327,35.16632],[128.71341,35.16616]]]]}},{"type":"Feature","properties":{"code":"48129590","name":"이동","parent":"48129"},"geometry":{"type":"MultiPolygon","coordinates":[[[[128.70572,35.15262],[128.70653,35.1512],[128.70658,35.1511],[128.70668,35.15088],[128.70677,35.15064],[128.70679,35.15058],[128.70681,35.15042],[128.70296,35.14828],[128.70141,35.14736],[128.70118,35.14727],[128.70094,35.14721],[128.70069,35.1472],[128.70036,35.14719],[128.69973,35.14723],[128.69943,35.14725],[128.69575,35.14741],[128.69263,35.1474],[128.69125,35.14692],[128.6905,35.14665],[128.68878,35.14682],[128.6899,35.15075],[128.68993,35.15081],[128.68996,35.15084],[128.69266,35.1532],[128.69278,35.15328],[128.69334,35.15351],[128.6938,35.15358],[128.69391,35.1544],[128.69676,35.15449],[128.69925,35.15339],[128.70324,35.15168],[128.70572,35.15262]]]]}},{"type":"Feature","properties":{"code":"48129600","name":"자은동","parent":"48129"},"geometry":{"type":"MultiPolygon","coordinates":[[[[128.73841,35.15669],[128.73838,35.1555],[128.73852,35.15491],[128.73862,35.15461],[128.73901,35.15378],[128.73938,35.15331],[128.73932,35.15001],[128.73927,35.14934],[128.73899,35.14731],[128.73856,35.14604],[128.73765,35.14427],[128.73627,35.14363],[128.73419,35.14222],[128.73388,35.142],[128.73173,35.14001],[128.73128,35.13954],[128.73071,35.14062],[128.72956,35.14113],[128.72675,35.14124],[128.72319,35.14143],[128.72241,35.14181],[128.7226,35.14218],[128.72261,35.14224],[128.72243,35.14375],[128.72235,35.14391],[128.72222,35.14406],[128.72208,35.14417],[128.71899,35.14668],[128.71849,35.14704],[128.71837,35.14711],[128.71736,35.14749],[128.71729,35.14751],[128.7139,35.1481],[128.71381,35.14811],[128.71358,35.1481],[128.71338,35.14807],[128.7133,35.14803],[128.71091,35.14707],[128.71088,35.14701],[128.71083,35.1469],[128.71044,35.14642],[128.71012,35.14617],[128.70836,35.14557],[128.70669,35.14551],[128.70306,35.14651],[128.70301,35.14719],[128.70296,35.14828],[128.70681,35.15042],[128.70679,35.15058],[128.70677,35.15064],[128.70668,35.15088],[128.70658,35.1511],[128.70653,35.1512],[128.70572,35.15262],[128.70594,35.1527],[128.70646,35.15291],[128.70659,35.15297],[128.71086,35.15469],[128.70983,35.15715],[128.70899,35.15748],[128.70828,35.15775],[128.70918,35.1604],[128.71004,35.16267],[128.71341,35.16616],[128.71442,35.16536],[128.71666,35.16393],[128.71683,35.16385],[128.71755,35.16354],[128.71769,35.16349],[128.71955,35.16311],[128.72165,35.16263],[128.72563,35.16076],[128.72993,35.15884],[128.73007,35.15879],[128.73286,35.15792],[128.73529,35.15747],[128.73583,35.1574],[128.7361,35.15741],[128.73633,35.15743],[128.73674,35.15744],[128.73697,35.15741],[128.73721,35.15735],[128.73739,35.15728],[128.73777,35.15709],[128.73809,35.15689],[128.73841,35.15669]]]]}},{"type":"Feature","properties":{"code":"48129610","name":"덕산동","parent":"48129"},"geometry":{"type":"MultiPolygon","coordinates":[[[[128.72241,35.14181],[128.72247,35.14045],[128.72245,35.1403],[128.72214,35.13993],[128.72083,35.13994],[128.72036,35.14001],[128.72015,35.14005],[128.71977,35.14029],[128.71933,35.14033],[128.71891,35.14032],[128.71812,35.1403],[128.71756,35.14016],[128.71585,35.13931],[128.71422,35.13848],[128.71411,35.13843],[128.71395,35.13842],[128.7129,35.13859],[128.71224,35.13884],[128.71194,35.13898],[128.71164,35.13917],[128.71131,35.13956],[128.70839,35.14001],[128.7013,35.13962],[128.70118,35.13959],[128.70013,35.13923],[128.69907,35.13886],[128.69659,35.13796],[128.69655,35.13793],[128.69644,35.13785],[128.69644,35.1379],[128.69642,35.138],[128.69636,35.13824],[128.69632,35.13839],[128.69594,35.13884],[128.69582,35.13896],[128.69561,35.13913],[128.69483,35.13968],[128.69189,35.14155],[128.6914,35.14134],[128.6908,35.14107],[128.68993,35.14063],[128.68945,35.1404],[128.68881,35.14011],[128.68841,35.14066],[128.68783,35.14148],[128.68737,35.14233],[128.68738,35.14247],[128.68745,35.14261],[128.68757,35.14271],[128.68768,35.14274],[128.68788,35.1428],[128.68794,35.1428],[128.68801,35.14276],[128.68999,35.14539],[128.69048,35.14616],[128.6905,35.14665],[128.69125,35.14692],[128.69263,35.1474],[128.69575,35.14741],[128.69943,35.14725],[128.69973,35.14723],[128.70036,35.14719],[128.70069,35.1472],[128.70094,35.14721],[128.70118,35.14727],[128.70141,35.14736],[128.70296,35.14828],[128.70301,35.14719],[128.70306,35.14651],[128.70669,35.14551],[128.70836,35.14557],[128.71012,35.14617],[128.71044,35.14642],[128.71083,35.1469],[128.71088,35.14701],[128.71091,35.14707],[128.7133,35.14803],[128.71338,35.14807],[128.71358,35.1481],[128.71381,35.14811],[128.7139,35.1481],[128.71729,35.14751],[128.71736,35.14749],[128.71837,35.14711],[128.71849,35.14704],[128.71899,35.14668],[128.72208,35.14417],[128.72222,35.14406],[128.72235,35.14391],[128.72243,35.14375],[128.72261,35.14224],[128.7226,35.14218],[128.72241,35.14181]]]]}},{"type":"Feature","properties":{"code":"48129620","name":"풍호동","parent":"48129"},"geometry":{"type":"MultiPolygon","coordinates":[[[[128.73128,35.13954],[128.73078,35.13794],[128.7282,35.13556],[128.72788,35.13526],[128.72853,35.13443],[128.72873,35.13413],[128.72906,35.13362],[128.72938,35.13313],[128.7296,35.13184],[128.72934,35.13123],[128.72886,35.13053],[128.7253,35.12639],[128.72396,35.12544],[128.71698,35.12052],[128.71656,35.12022],[128.71648,35.12018],[128.71485,35.1194],[128.71331,35.11852],[128.70975,35.11607],[128.70806,35.11484],[128.70515,35.11172],[128.70456,35.11072],[128.70449,35.11058],[128.70452,35.11006],[128.70459,35.10983],[128.70478,35.1094],[128.70505,35.1089],[128.7054,35.10827],[128.70563,35.10793],[128.70588,35.10756],[128.70627,35.10705],[128.70667,35.10658],[128.70689,35.10631],[128.70699,35.10619],[128.7074,35.10558],[128.70768,35.10461],[128.70471,35.10483],[128.70314,35.10474],[128.70094,35.10398],[128.7005,35.10322],[128.70115,35.10165],[128.70286,35.10104],[128.70298,35.10059],[128.70297,35.10006],[128.70148,35.09875],[128.70025,35.09834],[128.6988,35.09793],[128.69563,35.09704],[128.69431,35.09735],[128.69235,35.09852],[128.68892,35.10114],[128.68819,35.10283],[128.68826,35.10359],[128.68864,35.10427],[128.68905,35.10524],[128.6886,35.10743],[128.68794,35.10815],[128.68635,35.10699],[128.68605,35.10672],[128.68586,35.10689],[128.6857,35.10703],[128.68811,35.10901],[128.6891,35.1091],[128.69073,35.10861],[128.6913,35.10845],[128.69227,35.10848],[128.69534,35.10985],[128.69538,35.11017],[128.69524,35.11101],[128.69493,35.1114],[128.69478,35.11142],[128.69646,35.11297],[128.69987,35.11531],[128.70051,35.11582],[128.7005,35.11657],[128.70009,35.12211],[128.69966,35.12556],[128.69848,35.12743],[128.69791,35.12832],[128.69592,35.12986],[128.69377,35.13316],[128.69564,35.13414],[128.69725,35.13446],[128.69644,35.13785],[128.69655,35.13793],[128.69659,35.13796],[128.69907,35.13886],[128.70013,35.13923],[128.70118,35.13959],[128.7013,35.13962],[128.70839,35.14001],[128.71131,35.13956],[128.71164,35.13917],[128.71194,35.13898],[128.71224,35.13884],[128.7129,35.13859],[128.71395,35.13842],[128.71411,35.13843],[128.71422,35.13848],[128.71585,35.13931],[128.71756,35.14016],[128.71812,35.1403],[128.71891,35.14032],[128.71933,35.14033],[128.71977,35.14029],[128.72015,35.14005],[128.72036,35.14001],[128.72083,35.13994],[128.72214,35.13993],[128.72245,35.1403],[128.72247,35.14045],[128.72241,35.14181],[128.72319,35.14143],[128.72675,35.14124],[128.72956,35.14113],[128.73071,35.14062],[128.73128,35.13954]]]]}},{"type":"Feature","properties":{"code":"48129630","name":"웅천동","parent":"48129"},"geometry":{"type":"MultiPolygon","coordinates":[[[[128.76385,35.05978],[128.76368,35.05976],[128.76356,35.05979],[128.76328,35.05987],[128.76305,35.05998],[128.76249,35.06024],[128.76144,35.06086],[128.76137,35.06092],[128.76127,35.06101],[128.7612,35.0611],[128.76113,35.06122],[128.76111,35.0613],[128.7611,35.06139],[128.76109,35.06152],[128.76111,35.06165],[128.76113,35.06175],[128.76185,35.06472],[128.76189,35.06482],[128.76203,35.06512],[128.76224,35.06541],[128.76257,35.06573],[128.76289,35.06594],[128.76299,35.06599],[128.76315,35.06606],[128.76451,35.06658],[128.76551,35.0669],[128.76558,35.06692],[128.76651,35.06695],[128.76661,35.06695],[128.76686,35.06692],[128.76696,35.06691],[128.76718,35.06687],[128.76727,35.06684],[128.76896,35.06539],[128.76865,35.06371],[128.76444,35.06017],[128.76435,35.06009],[128.76412,35.05991],[128.764,35.05983],[128.76385,35.05978]]],[[[128.69762,35.07917],[128.69771,35.07793],[128.69724,35.07721],[128.69626,35.07826],[128.69462,35.07776],[128.69408,35.07746],[128.69304,35.07683],[128.69285,35.07706],[128.69338,35.07777],[128.69551,35.07928],[128.69677,35.07982],[128.69762,35.07917]]],[[[128.70973,35.08281],[128.71101,35.0821],[128.71279,35.08219],[128.7147,35.08131],[128.71477,35.08126],[128.71482,35.08118],[128.71481,35.08085],[128.71479,35.08075],[128.71473,35.08063],[128.71466,35.08051],[128.71454,35.08035],[128.71447,35.08029],[128.7144,35.08027],[128.71314,35.07997],[128.71305,35.07997],[128.7104,35.0805],[128.70872,35.08086],[128.70845,35.08094],[128.70835,35.08098],[128.70826,35.08102],[128.7082,35.08107],[128.708,35.0813],[128.70794,35.08138],[128.70789,35.08146],[128.70787,35.08154],[128.70782,35.08182],[128.70783,35.08198],[128.70787,35.0821],[128.70793,35.0822],[128.708,35.0823],[128.7081,35.08239],[128.70824,35.08249],[128.70835,35.08256],[128.70851,35.08264],[128.7087,35.08273],[128.70885,35.08277],[128.70943,35.08287],[128.70959,35.08284],[128.70973,35.08281]]],[[[128.72277,35.08387],[128.72189,35.08386],[128.72165,35.08388],[128.71893,35.08421],[128.71832,35.08497],[128.72118,35.08801],[128.72262,35.08921],[128.72271,35.08916],[128.72332,35.08853],[128.72337,35.08845],[128.72341,35.08831],[128.72345,35.08478],[128.72342,35.08467],[128.72318,35.08432],[128.72289,35.08392],[128.72277,35.08387]]],[[[128.71926,35.08952],[128.71912,35.08949],[128.71889,35.08958],[128.71864,35.08968],[128.71849,35.08985],[128.71817,35.09035],[128.71789,35.091],[128.71786,35.09108],[128.71786,35.09117],[128.71797,35.0915],[128.71799,35.09155],[128.71923,35.09303],[128.71929,35.09307],[128.71937,35.09309],[128.71946,35.09311],[128.71963,35.09309],[128.71971,35.09308],[128.71995,35.09308],[128.72004,35.09306],[128.72016,35.09301],[128.72258,35.09152],[128.72271,35.09143],[128.72274,35.09124],[128.72267,35.09109],[128.72252,35.09095],[128.72229,35.09078],[128.72089,35.09005],[128.71926,35.08952]]],[[[128.77306,35.09893],[128.77203,35.09876],[128.77153,35.09901],[128.77119,35.09957],[128.76972,35.1032],[128.76825,35.10374],[128.76344,35.10507],[128.76297,35.10513],[128.76314,35.10232],[128.76572,35.09796],[128.78439,35.09667],[128.78002,35.08175],[128.76504,35.08286],[128.76498,35.07893],[128.76517,35.07885],[128.76615,35.07847],[128.76677,35.0783],[128.76768,35.07803],[128.76789,35.07791],[128.76811,35.07775],[128.76815,35.07757],[128.76849,35.07592],[128.76853,35.07449],[128.76853,35.07403],[128.76852,35.07346],[128.76851,35.07325],[128.76849,35.07295],[128.76795,35.06943],[128.76674,35.06761],[128.76637,35.06746],[128.76599,35.06787],[128.7655,35.06843],[128.76536,35.0686],[128.76533,35.07017],[128.76475,35.07168],[128.75976,35.07181],[128.75155,35.08215],[128.75104,35.08211],[128.75061,35.08208],[128.74757,35.08174],[128.74745,35.08173],[128.74734,35.08171],[128.74718,35.08167],[128.74705,35.08163],[128.74698,35.0816],[128.74677,35.08148],[128.74658,35.08136],[128.74646,35.0811],[128.74648,35.08098],[128.7465,35.08092],[128.74652,35.08086],[128.74654,35.08067],[128.74654,35.08061],[128.74651,35.08055],[128.74647,35.08048],[128.74567,35.07942],[128.74559,35.07934],[128.74554,35.07929],[128.74545,35.07922],[128.7442,35.07818],[128.74394,35.07799],[128.7429,35.07769],[128.74172,35.07796],[128.74159,35.0782],[128.74176,35.07926],[128.7418,35.07941],[128.74184,35.07953],[128.74222,35.08021],[128.74231,35.08032],[128.74259,35.08065],[128.74285,35.0809],[128.74339,35.08137],[128.74346,35.08142],[128.74372,35.08158],[128.7438,35.08164],[128.74386,35.0817],[128.74395,35.0818],[128.74399,35.08185],[128.74402,35.08191],[128.74406,35.08199],[128.74407,35.08207],[128.74408,35.08219],[128.74409,35.08223],[128.74408,35.0824],[128.74407,35.08251],[128.74383,35.0839],[128.74367,35.08432],[128.74285,35.08395],[128.74188,35.0824],[128.74137,35.0819],[128.73991,35.08191],[128.73546,35.08782],[128.73529,35.08866],[128.74271,35.09813],[128.7437,35.09841],[128.74373,35.09891],[128.74355,35.09981],[128.74213,35.09996],[128.74035,35.10014],[128.73872,35.09936],[128.73839,35.09899],[128.73821,35.09873],[128.73842,35.09864],[128.73855,35.09829],[128.73858,35.09806],[128.7366,35.09465],[128.73548,35.09343],[128.73111,35.09084],[128.72963,35.09012],[128.72906,35.08998],[128.72857,35.08996],[128.72822,35.09014],[128.72816,35.09042],[128.72834,35.09071],[128.72874,35.09131],[128.72906,35.09171],[128.72996,35.09268],[128.73068,35.09359],[128.73051,35.09391],[128.73031,35.09417],[128.72996,35.09437],[128.72965,35.09447],[128.72923,35.09453],[128.72884,35.09448],[128.72845,35.09431],[128.726,35.09463],[128.7254,35.09588],[128.72483,35.09693],[128.72446,35.09752],[128.72417,35.09761],[128.72399,35.09763],[128.72334,35.09762],[128.72309,35.0976],[128.7228,35.09753],[128.71803,35.09608],[128.71466,35.09498],[128.71425,35.09518],[128.71416,35.0961],[128.71448,35.09822],[128.71507,35.09991],[128.71513,35.10255],[128.71514,35.10421],[128.71453,35.10639],[128.71348,35.10672],[128.71236,35.10689],[128.71206,35.10672],[128.71039,35.10343],[128.70847,35.10413],[128.70805,35.10431],[128.70768,35.10461],[128.7074,35.10558],[128.70699,35.10619],[128.70689,35.10631],[128.70667,35.10658],[128.70627,35.10705],[128.70588,35.10756],[128.70563,35.10793],[128.7054,35.10827],[128.70505,35.1089],[128.70478,35.1094],[128.70459,35.10983],[128.70452,35.11006],[128.70449,35.11058],[128.70456,35.11072],[128.70515,35.11172],[128.70806,35.11484],[128.70975,35.11607],[128.71331,35.11852],[128.71485,35.1194],[128.71648,35.12018],[128.71656,35.12022],[128.71698,35.12052],[128.72396,35.12544],[128.7253,35.12639],[128.72886,35.13053],[128.72934,35.13123],[128.7296,35.13184],[128.72938,35.13313],[128.72906,35.13362],[128.72873,35.13413],[128.72853,35.13443],[128.72788,35.13526],[128.7282,35.13556],[128.73078,35.13794],[128.73128,35.13954],[128.73173,35.14001],[128.73388,35.142],[128.73419,35.14222],[128.73627,35.14363],[128.73765,35.14427],[128.73922,35.14305],[128.7397,35.14213],[128.74128,35.14207],[128.74287,35.14184],[128.74426,35.14123],[128.7464,35.13915],[128.74894,35.13529],[128.74902,35.13308],[128.74958,35.13075],[128.7498,35.13023],[128.75071,35.12966],[128.75347,35.12831],[128.75476,35.12803],[128.75585,35.12607],[128.75586,35.12419],[128.75787,35.12128],[128.75938,35.12035],[128.76076,35.12012],[128.76225,35.11998],[128.76324,35.11939],[128.76511,35.11754],[128.76536,35.11633],[128.76542,35.11528],[128.76545,35.11514],[128.76548,35.11505],[128.76551,35.11501],[128.76552,35.11498],[128.76572,35.11473],[128.76817,35.11265],[128.76911,35.11224],[128.77043,35.1101],[128.77069,35.10969],[128.7708,35.10889],[128.77237,35.10321],[128.77308,35.10103],[128.77306,35.09904],[128.77306,35.09893]]]]}},{"type":"Feature","properties":{"code":"48129640","name":"웅동1동","parent":"48129"},"geometry":{"type":"MultiPolygon","coordinates":[[[[128.79362,35.15705],[128.79442,35.15554],[128.79617,35.15255],[128.79938,35.14888],[128.80133,35.14674],[128.80233,35.14315],[128.80457,35.14184],[128.80664,35.14094],[128.80688,35.13947],[128.80691,35.13937],[128.80695,35.13926],[128.80706,35.1391],[128.80715,35.13899],[128.80829,35.13788],[128.80841,35.13778],[128.81545,35.13256],[128.81555,35.13253],[128.81569,35.13251],[128.81631,35.13242],[128.81713,35.13242],[128.8176,35.13243],[128.8177,35.13243],[128.81786,35.13241],[128.81805,35.13237],[128.82029,35.13182],[128.82416,35.13044],[128.82636,35.12956],[128.82646,35.1295],[128.82649,35.12938],[128.82651,35.12913],[128.82648,35.12897],[128.82651,35.1289],[128.82673,35.12859],[128.82688,35.12842],[128.8271,35.12826],[128.82729,35.12818],[128.82747,35.12815],[128.82997,35.12826],[128.83026,35.12828],[128.83047,35.12834],[128.83059,35.12843],[128.83072,35.12853],[128.83089,35.12876],[128.83116,35.129],[128.83148,35.12922],[128.83175,35.12939],[128.83203,35.12953],[128.83288,35.12965],[128.83298,35.12964],[128.83318,35.12951],[128.83357,35.12919],[128.83388,35.12886],[128.83406,35.12865],[128.83414,35.12843],[128.83418,35.12827],[128.8342,35.12809],[128.8344,35.1263],[128.82472,35.12273],[128.82401,35.12247],[128.81614,35.1203],[128.81221,35.11753],[128.80678,35.115],[128.80369,35.11431],[128.80331,35.11422],[128.79981,35.11343],[128.79963,35.11079],[128.79827,35.11008],[128.79529,35.10853],[128.7938,35.10784],[128.79098,35.10654],[128.78931,35.10546],[128.78893,35.10504],[128.78888,35.10498],[128.78836,35.10644],[128.78822,35.10687],[128.7882,35.10739],[128.78822,35.10813],[128.78881,35.11163],[128.78921,35.11329],[128.78862,35.11337],[128.78818,35.11342],[128.78465,35.11379],[128.78403,35.11344],[128.78262,35.11254],[128.78251,35.11244],[128.78245,35.11236],[128.78127,35.11022],[128.78109,35.10975],[128.78008,35.10405],[128.78008,35.10393],[128.77995,35.10305],[128.77897,35.10257],[128.77877,35.10248],[128.77872,35.10247],[128.77844,35.10245],[128.7783,35.10245],[128.77823,35.10246],[128.77816,35.10246],[128.77811,35.10246],[128.77801,35.10244],[128.7779,35.10242],[128.77778,35.1024],[128.7776,35.10236],[128.77745,35.10232],[128.77734,35.10228],[128.77728,35.10227],[128.77724,35.10225],[128.77712,35.10219],[128.77574,35.10144],[128.7752,35.10111],[128.77515,35.10107],[128.77509,35.10102],[128.77497,35.10092],[128.77464,35.10063],[128.77454,35.10053],[128.77306,35.09893],[128.77306,35.09904],[128.77308,35.10103],[128.77237,35.10321],[128.7708,35.10889],[128.77069,35.10969],[128.77043,35.1101],[128.76911,35.11224],[128.76817,35.11265],[128.76572,35.11473],[128.76552,35.11498],[128.76551,35.11501],[128.76548,35.11505],[128.76545,35.11514],[128.76542,35.11528],[128.76536,35.11633],[128.76511,35.11754],[128.76324,35.11939],[128.76225,35.11998],[128.76076,35.12012],[128.75938,35.12035],[128.75787,35.12128],[128.75586,35.12419],[128.75585,35.12607],[128.75476,35.12803],[128.75347,35.12831],[128.75071,35.12966],[128.7498,35.13023],[128.74958,35.13075],[128.74902,35.13308],[128.74894,35.13529],[128.7464,35.13915],[128.74426,35.14123],[128.74287,35.14184],[128.74128,35.14207],[128.7397,35.14213],[128.73922,35.14305],[128.73765,35.14427],[128.73856,35.14604],[128.73899,35.14731],[128.73927,35.14934],[128.73932,35.15001],[128.73938,35.15331],[128.73901,35.15378],[128.73862,35.15461],[128.73852,35.15491],[128.73838,35.1555],[128.73841,35.15669],[128.73973,35.15911],[128.74119,35.16299],[128.74124,35.16328],[128.74135,35.16439],[128.74138,35.16616],[128.74138,35.16633],[128.74136,35.1664],[128.74119,35.16701],[128.74293,35.16682],[128.74634,35.16665],[128.74757,35.16687],[128.74792,35.1673],[128.7489,35.16764],[128.75016,35.16774],[128.75212,35.16729],[128.75541,35.16613],[128.75582,35.16605],[128.75599,35.16602],[128.75641,35.16633],[128.75689,35.16767],[128.75793,35.16815],[128.76059,35.16779],[128.76142,35.16784],[128.7628,35.16839],[128.76349,35.16739],[128.76596,35.16539],[128.76919,35.16434],[128.77144,35.16351],[128.77212,35.16302],[128.77613,35.15991],[128.77678,35.15932],[128.78592,35.15742],[128.79144,35.15749],[128.79362,35.15705]]]]}},{"type":"Feature","properties":{"code":"48129650","name":"웅동2동","parent":"48129"},"geometry":{"type":"MultiPolygon","coordinates":[[[[128.83247,35.08631],[128.82838,35.08948],[128.82792,35.08911],[128.8271,35.08843],[128.82643,35.08787],[128.82643,35.08621],[128.82456,35.08585],[128.82306,35.08585],[128.82154,35.08585],[128.82154,35.08493],[128.82154,35.08445],[128.81853,35.083],[128.81809,35.083],[128.8115,35.08299],[128.80949,35.08278],[128.8016,35.08305],[128.79726,35.08133],[128.79445,35.07974],[128.79306,35.07919],[128.79227,35.07888],[128.7916,35.07878],[128.79084,35.07879],[128.78536,35.07948],[128.78483,35.07983],[128.7826,35.08356],[128.78184,35.08612],[128.7892,35.09409],[128.78936,35.09426],[128.79153,35.09504],[128.79164,35.09508],[128.79193,35.09517],[128.79251,35.095],[128.7926,35.09497],[128.79289,35.09484],[128.79326,35.09424],[128.79383,35.09376],[128.79387,35.09374],[128.79748,35.09295],[128.79822,35.09308],[128.79898,35.0934],[128.79982,35.09384],[128.80081,35.09464],[128.80187,35.0959],[128.80246,35.09863],[128.80217,35.09935],[128.80183,35.09958],[128.79917,35.10034],[128.79868,35.10035],[128.79795,35.10033],[128.79745,35.1003],[128.7968,35.10012],[128.79474,35.09887],[128.79293,35.09817],[128.7891,35.09785],[128.78854,35.09793],[128.78833,35.09796],[128.788,35.09827],[128.78812,35.09865],[128.78922,35.10005],[128.79019,35.10063],[128.79063,35.10101],[128.79136,35.10165],[128.79142,35.10268],[128.79075,35.10361],[128.79011,35.10415],[128.78888,35.10498],[128.78893,35.10504],[128.78931,35.10546],[128.79098,35.10654],[128.7938,35.10784],[128.79529,35.10853],[128.79827,35.11008],[128.79963,35.11079],[128.79981,35.11343],[128.80331,35.11422],[128.80369,35.11431],[128.80678,35.115],[128.81221,35.11753],[128.81614,35.1203],[128.82401,35.12247],[128.82472,35.12273],[128.8344,35.1263],[128.83484,35.12531],[128.83539,35.12406],[128.83551,35.12381],[128.83565,35.12362],[128.836,35.12323],[128.83615,35.12295],[128.83624,35.12269],[128.83629,35.12209],[128.83633,35.11974],[128.83625,35.11864],[128.83749,35.1161],[128.83756,35.11597],[128.83766,35.11585],[128.83824,35.11528],[128.83851,35.11505],[128.83994,35.11515],[128.84008,35.11516],[128.84019,35.11515],[128.84051,35.11504],[128.84138,35.11469],[128.84158,35.11457],[128.8417,35.11448],[128.84216,35.11406],[128.84267,35.11355],[128.84279,35.11338],[128.8429,35.11317],[128.84294,35.11297],[128.84327,35.11057],[128.84325,35.11015],[128.84321,35.10969],[128.84314,35.10935],[128.8431,35.10913],[128.84303,35.10899],[128.84208,35.10703],[128.84133,35.10605],[128.84059,35.10527],[128.83666,35.10199],[128.83562,35.1014],[128.83489,35.10123],[128.83484,35.10122],[128.83459,35.10122],[128.8345,35.10124],[128.83372,35.10141],[128.83305,35.10171],[128.83248,35.102],[128.8321,35.10219],[128.83181,35.10225],[128.83115,35.10223],[128.83049,35.10222],[128.82774,35.10212],[128.82571,35.10203],[128.82481,35.10199],[128.82394,35.10177],[128.82276,35.09882],[128.82288,35.09692],[128.82463,35.0946],[128.82595,35.09354],[128.82818,35.09173],[128.83222,35.08847],[128.83298,35.08867],[128.83326,35.08738],[128.83247,35.08631]]]]}},{"type":"Feature","properties":{"code":"48129530","name":"충무동","parent":"48129"},"geometry":{"type":"MultiPolygon","coordinates":[[[[128.66955,35.15208],[128.67444,35.15237],[128.67654,35.1497],[128.67653,35.14923],[128.67847,35.14641],[128.67833,35.14636],[128.67605,35.1456],[128.67522,35.1453],[128.67512,35.14527],[128.67502,35.14522],[128.67492,35.14518],[128.67483,35.14513],[128.67474,35.14508],[128.67465,35.14503],[128.67393,35.14459],[128.67352,35.14433],[128.67083,35.14248],[128.67085,35.14221],[128.67098,35.14207],[128.67165,35.14152],[128.67241,35.14196],[128.67267,35.14167],[128.67328,35.14093],[128.6733,35.13961],[128.67327,35.13909],[128.67331,35.13737],[128.67334,35.13596],[128.67363,35.13384],[128.67419,35.13301],[128.67453,35.13251],[128.67537,35.13163],[128.6768,35.13031],[128.67749,35.12845],[128.67811,35.12649],[128.67795,35.12514],[128.67687,35.12412],[128.672,35.12202],[128.67131,35.12067],[128.6671,35.1185],[128.66565,35.11842],[128.66168,35.12167],[128.66189,35.12216],[128.66313,35.12442],[128.66239,35.12747],[128.66298,35.13039],[128.65961,35.13353],[128.6587,35.13425],[128.65845,35.1349],[128.65826,35.1355],[128.6588,35.13587],[128.659,35.13625],[128.65848,35.13664],[128.65789,35.13658],[128.65645,35.13527],[128.64888,35.13542],[128.64879,35.13774],[128.64658,35.13988],[128.64585,35.13981],[128.64403,35.14045],[128.64363,35.14061],[128.64297,35.14216],[128.64253,35.14318],[128.64233,35.14422],[128.64269,35.14731],[128.64474,35.14596],[128.64589,35.14592],[128.64711,35.14654],[128.64708,35.15038],[128.64434,35.1504],[128.63963,35.14945],[128.63481,35.14936],[128.6348,35.14867],[128.63625,35.14852],[128.6373,35.14756],[128.63733,35.14599],[128.63721,35.14573],[128.63592,35.14581],[128.63499,35.146],[128.63443,35.14654],[128.63414,35.14689],[128.62923,35.14856],[128.62744,35.14828],[128.62646,35.14797],[128.6254,35.1474],[128.62529,35.14728],[128.62676,35.14585],[128.62381,35.13971],[128.62263,35.13741],[128.62188,35.13649],[128.61789,35.13552],[128.61706,35.13586],[128.61578,35.13824],[128.61329,35.13865],[128.61146,35.13758],[128.60755,35.1371],[128.6068,35.13723],[128.60653,35.13848],[128.60655,35.13931],[128.60723,35.14102],[128.60797,35.1419],[128.61033,35.14409],[128.61153,35.14467],[128.61385,35.14493],[128.61274,35.14729],[128.61163,35.14823],[128.61279,35.14858],[128.61329,35.14875],[128.61383,35.14901],[128.61461,35.14944],[128.61477,35.14956],[128.61487,35.14966],[128.61493,35.14991],[128.61503,35.15051],[128.6151,35.15159],[128.61509,35.15184],[128.61718,35.15414],[128.61969,35.15685],[128.61976,35.15752],[128.61982,35.15814],[128.61987,35.15835],[128.61995,35.15857],[128.62003,35.15869],[128.62011,35.15877],[128.62037,35.159],[128.62073,35.15931],[128.62191,35.16023],[128.62215,35.16039],[128.62406,35.16151],[128.62521,35.16204],[128.62719,35.16487],[128.6272,35.16523],[128.62726,35.16547],[128.6274,35.1659],[128.62751,35.16619],[128.62898,35.16884],[128.6291,35.16905],[128.62924,35.1692],[128.62931,35.16928],[128.62943,35.16936],[128.6295,35.16941],[128.63164,35.17058],[128.63184,35.17065],[128.63421,35.17227],[128.63541,35.17415],[128.63669,35.17566],[128.63694,35.17592],[128.63764,35.1765],[128.638,35.17677],[128.63811,35.17678],[128.63839,35.17662],[128.63865,35.17643],[128.63931,35.17589],[128.63966,35.17557],[128.64013,35.17509],[128.64745,35.17555],[128.65098,35.17176],[128.65216,35.17033],[128.65632,35.16527],[128.65696,35.16212],[128.65669,35.1592],[128.65665,35.15886],[128.65651,35.15877],[128.65585,35.15833],[128.65598,35.1545],[128.65603,35.15308],[128.65716,35.153],[128.66465,35.15227],[128.66709,35.15205],[128.66955,35.15208]]],[[[128.65087,35.11882],[128.65121,35.11845],[128.65144,35.11848],[128.65163,35.11845],[128.65187,35.11835],[128.6521,35.11824],[128.65223,35.11816],[128.65231,35.11805],[128.65234,35.11792],[128.65232,35.11782],[128.65213,35.11756],[128.65116,35.11669],[128.65107,35.11662],[128.65066,35.11635],[128.65056,35.11631],[128.65046,35.11638],[128.64914,35.1179],[128.64911,35.11802],[128.64915,35.1181],[128.64984,35.11876],[128.64994,35.11882],[128.65005,35.11888],[128.65029,35.11892],[128.65043,35.11893],[128.65056,35.11892],[128.65074,35.11889],[128.65087,35.11882]]],[[[128.67188,35.05642],[128.66993,35.05588],[128.66945,35.05608],[128.66708,35.05833],[128.66569,35.06018],[128.66806,35.06109],[128.66868,35.06105],[128.66899,35.06095],[128.67004,35.06032],[128.67009,35.06027],[128.67236,35.05763],[128.67188,35.05642]]],[[[128.66531,35.09017],[128.6649,35.09002],[128.66443,35.09007],[128.66296,35.09035],[128.66237,35.09051],[128.66188,35.09073],[128.66145,35.091],[128.66137,35.09134],[128.6614,35.09157],[128.66151,35.09181],[128.66358,35.09208],[128.66404,35.0921],[128.66441,35.092],[128.66471,35.09186],[128.665,35.09154],[128.66582,35.09141],[128.66601,35.09128],[128.66604,35.09094],[128.66591,35.09068],[128.66571,35.09048],[128.66531,35.09017]]],[[[128.67077,35.0969],[128.67055,35.09689],[128.6704,35.09696],[128.67019,35.09709],[128.67011,35.09719],[128.66963,35.09773],[128.66964,35.09795],[128.66969,35.09808],[128.66986,35.09826],[128.66996,35.09834],[128.67011,35.09845],[128.67032,35.09855],[128.67052,35.09865],[128.67081,35.09877],[128.67097,35.09879],[128.67123,35.09882],[128.67147,35.09882],[128.67159,35.09879],[128.67257,35.09818],[128.67263,35.09809],[128.67264,35.09799],[128.67262,35.09786],[128.67205,35.09747],[128.67186,35.09735],[128.67112,35.09701],[128.67092,35.09693],[128.67077,35.0969]]],[[[128.65197,35.10582],[128.65315,35.10575],[128.65799,35.10574],[128.65811,35.10576],[128.65836,35.1058],[128.65868,35.10583],[128.65886,35.10583],[128.65903,35.10582],[128.66164,35.10544],[128.6618,35.10537],[128.66194,35.10526],[128.66197,35.1051],[128.66193,35.105],[128.66185,35.10487],[128.65905,35.10257],[128.66079,35.10067],[128.66023,35.09768],[128.66081,35.09677],[128.66153,35.09519],[128.66154,35.09504],[128.66151,35.09488],[128.66144,35.09467],[128.6613,35.09441],[128.66116,35.0942],[128.66096,35.09407],[128.66076,35.094],[128.66051,35.09397],[128.66027,35.09407],[128.65909,35.09531],[128.659,35.09543],[128.65887,35.09567],[128.65879,35.09592],[128.65706,35.09739],[128.65697,35.09746],[128.65689,35.09751],[128.65666,35.09765],[128.65325,35.0996],[128.65321,35.09962],[128.65314,35.09963],[128.65308,35.09964],[128.65302,35.09964],[128.65014,35.09953],[128.64995,35.09937],[128.64952,35.09905],[128.64936,35.09897],[128.64913,35.09892],[128.64893,35.09892],[128.64868,35.09895],[128.64848,35.09902],[128.64829,35.0991],[128.64816,35.09922],[128.64758,35.0999],[128.64754,35.10046],[128.64763,35.10249],[128.64791,35.10529],[128.64911,35.1058],[128.64921,35.10583],[128.64931,35.10586],[128.64947,35.1059],[128.64961,35.10593],[128.64995,35.10598],[128.65011,35.106],[128.65024,35.106],[128.6506,35.10603],[128.65086,35.10604],[128.65168,35.10592],[128.65181,35.1059],[128.65197,35.10582]]]]}}]}