{"type":"FeatureCollection","features":[{"type":"Feature","properties":{"code":"51780250","name":"철원읍","parent":"51780"},"geometry":{"type":"MultiPolygon","coordinates":[[[[127.24544,38.33367],[127.21387,38.26714],[127.21287,38.26514],[127.2106,38.26056],[127.21051,38.26038],[127.21058,38.26017],[127.2109,38.25932],[127.2135,38.25788],[127.21491,38.25465],[127.21508,38.25334],[127.21539,38.25271],[127.21576,38.25224],[127.21607,38.252],[127.21635,38.25172],[127.21671,38.2513],[127.21687,38.25082],[127.21696,38.25049],[127.21675,38.24973],[127.21574,38.2481],[127.21486,38.24667],[127.21492,38.24629],[127.21571,38.24548],[127.21611,38.24476],[127.21658,38.24281],[127.21661,38.24245],[127.21637,38.24193],[127.2156,38.24063],[127.21586,38.23995],[127.21607,38.23944],[127.21614,38.23926],[127.21666,38.23854],[127.21733,38.23792],[127.21746,38.23741],[127.21698,38.23343],[127.21692,38.23315],[127.21697,38.23272],[127.21708,38.23193],[127.21714,38.23149],[127.21751,38.23085],[127.21791,38.2302],[127.218,38.23005],[127.21804,38.2298],[127.21805,38.22971],[127.21772,38.22892],[127.21762,38.22875],[127.21751,38.22861],[127.21746,38.22857],[127.21725,38.22839],[127.21692,38.22811],[127.21637,38.22785],[127.21629,38.22781],[127.21553,38.227],[127.21521,38.22626],[127.21513,38.22571],[127.21576,38.22191],[127.21582,38.22177],[127.21595,38.22149],[127.2179,38.21835],[127.21832,38.21799],[127.21933,38.21826],[127.21958,38.21835],[127.21983,38.21819],[127.21995,38.21812],[127.22002,38.21767],[127.21979,38.21598],[127.21981,38.2143],[127.22006,38.21381],[127.22103,38.21354],[127.22156,38.21329],[127.22251,38.21209],[127.22199,38.21169],[127.22039,38.21101],[127.21973,38.21085],[127.21965,38.21095],[127.21869,38.21094],[127.21673,38.21085],[127.21638,38.21077],[127.21493,38.21036],[127.21409,38.20993],[127.2138,38.20975],[127.21364,38.20965],[127.21275,38.20908],[127.21255,38.20895],[127.21149,38.20847],[127.20942,38.20786],[127.20873,38.20775],[127.20814,38.20769],[127.20723,38.20835],[127.20605,38.21026],[127.20523,38.21223],[127.20514,38.21254],[127.20419,38.21426],[127.20071,38.21393],[127.19763,38.21251],[127.19737,38.21239],[127.19493,38.21092],[127.19447,38.21057],[127.1915,38.20797],[127.19095,38.20743],[127.19096,38.20712],[127.19194,38.20501],[127.19197,38.20475],[127.192,38.20449],[127.19181,38.2034],[127.19157,38.2029],[127.19081,38.20223],[127.19073,38.20179],[127.1905,38.19802],[127.19067,38.19677],[127.19094,38.1959],[127.19154,38.19452],[127.19169,38.194],[127.19172,38.19348],[127.19163,38.19306],[127.19136,38.19268],[127.19076,38.19232],[127.19069,38.19219],[127.19036,38.18928],[127.19037,38.18922],[127.1904,38.18886],[127.1879,38.18825],[127.18345,38.18605],[127.18242,38.18544],[127.18206,38.18524],[127.1819,38.18518],[127.1817,38.18509],[127.18166,38.18508],[127.18113,38.18491],[127.18069,38.18482],[127.18032,38.18477],[127.18016,38.18475],[127.17938,38.18465],[127.1788,38.18496],[127.17771,38.18554],[127.17742,38.18575],[127.17546,38.18825],[127.17477,38.18932],[127.17451,38.18977],[127.17419,38.19092],[127.17408,38.19132],[127.17396,38.19156],[127.17389,38.1917],[127.17204,38.19347],[127.17015,38.19521],[127.1665,38.19782],[127.16642,38.19791],[127.16625,38.19808],[127.16614,38.19831],[127.16612,38.19836],[127.16605,38.19851],[127.16612,38.19868],[127.16645,38.19954],[127.16939,38.20296],[127.17202,38.20559],[127.17223,38.20596],[127.17228,38.2064],[127.17226,38.20884],[127.17226,38.20888],[127.17219,38.21042],[127.17188,38.21137],[127.17128,38.21242],[127.17126,38.21245],[127.17049,38.21314],[127.16979,38.21368],[127.16956,38.21385],[127.1689,38.21418],[127.16629,38.2153],[127.16455,38.21583],[127.16311,38.21627],[127.16288,38.21639],[127.16242,38.21662],[127.16209,38.21678],[127.16198,38.21686],[127.16164,38.2171],[127.15962,38.21884],[127.15944,38.21907],[127.15946,38.21934],[127.15947,38.21941],[127.15996,38.21997],[127.16016,38.22019],[127.1606,38.22082],[127.16084,38.22114],[127.16105,38.22177],[127.16139,38.22283],[127.16146,38.22304],[127.16139,38.22329],[127.16135,38.22342],[127.16118,38.22368],[127.16106,38.22387],[127.16074,38.22412],[127.16005,38.22467],[127.15982,38.22505],[127.15956,38.22551],[127.15959,38.22605],[127.16013,38.22786],[127.16058,38.22866],[127.16078,38.22901],[127.1615,38.22977],[127.16249,38.23222],[127.16244,38.23246],[127.16244,38.23248],[127.16243,38.23252],[127.1608,38.23582],[127.15964,38.23745],[127.15836,38.2389],[127.15774,38.23923],[127.15266,38.24172],[127.1497,38.24261],[127.14895,38.24268],[127.14851,38.24251],[127.14825,38.24191],[127.14808,38.24152],[127.14784,38.24097],[127.14697,38.23972],[127.14353,38.238],[127.14149,38.23725],[127.14134,38.23732],[127.14096,38.2374],[127.14067,38.23747],[127.14057,38.23746],[127.13983,38.2374],[127.13592,38.23615],[127.13495,38.23426],[127.13493,38.23423],[127.13491,38.2342],[127.13488,38.23414],[127.13466,38.23376],[127.13054,38.23256],[127.13039,38.23258],[127.13033,38.23258],[127.12995,38.23291],[127.12961,38.23321],[127.12933,38.23326],[127.12903,38.23332],[127.12693,38.23373],[127.12654,38.23375],[127.12627,38.23377],[127.12567,38.23359],[127.12425,38.23313],[127.12369,38.23294],[127.12337,38.23277],[127.12288,38.23251],[127.12242,38.23278],[127.12136,38.2334],[127.12027,38.23468],[127.12021,38.23474],[127.11985,38.23504],[127.11774,38.23634],[127.11747,38.23641],[127.11728,38.23647],[127.11633,38.23642],[127.11543,38.23629],[127.11462,38.23629],[127.11383,38.23679],[127.113,38.23759],[127.1127,38.23804],[127.11013,38.24216],[127.10986,38.24365],[127.10986,38.24381],[127.10989,38.24461],[127.11003,38.24495],[127.1102,38.24536],[127.11054,38.2458],[127.1111,38.24832],[127.11068,38.24945],[127.11048,38.25046],[127.11046,38.25056],[127.11046,38.25067],[127.11046,38.25114],[127.11046,38.25141],[127.11046,38.25169],[127.11056,38.25213],[127.11071,38.25272],[127.11399,38.26527],[127.1104,38.28568],[127.10928,38.29204],[127.11451,38.29414],[127.11563,38.29459],[127.11968,38.29804],[127.12309,38.30046],[127.12637,38.30158],[127.13051,38.30751],[127.13213,38.31357],[127.13911,38.31538],[127.14933,38.3078],[127.1537,38.30424],[127.15836,38.30518],[127.18253,38.31223],[127.19768,38.31635],[127.20966,38.32],[127.21692,38.32201],[127.2189,38.32625],[127.22697,38.32901],[127.23487,38.3316],[127.24102,38.33267],[127.24544,38.33367]]]]}},{"type":"Feature","properties":{"code":"51780253","name":"김화읍","parent":"51780"},"geometry":{"type":"MultiPolygon","coordinates":[[[[127.48749,38.30371],[127.48779,38.30329],[127.48915,38.30214],[127.49087,38.30093],[127.49377,38.30038],[127.49651,38.29966],[127.49697,38.29788],[127.49612,38.29384],[127.49538,38.29243],[127.49512,38.29193],[127.49357,38.28958],[127.49228,38.28797],[127.48985,38.28176],[127.48976,38.27983],[127.4892,38.27924],[127.48834,38.27839],[127.48204,38.28174],[127.48051,38.28302],[127.47774,38.28456],[127.47612,38.28486],[127.47503,38.28504],[127.47026,38.28558],[127.46835,38.28576],[127.46525,38.28501],[127.46297,38.28376],[127.45989,38.28297],[127.45599,38.28269],[127.45449,38.28279],[127.45253,38.28292],[127.45098,38.28019],[127.45024,38.27874],[127.45049,38.27122],[127.4507,38.26826],[127.44829,38.26824],[127.44702,38.26791],[127.44434,38.26707],[127.44185,38.26601],[127.44062,38.26446],[127.44007,38.26295],[127.4399,38.26085],[127.43968,38.25794],[127.43804,38.25438],[127.43578,38.25337],[127.43336,38.25193],[127.43164,38.25067],[127.43068,38.25011],[127.4293,38.24945],[127.42828,38.2494],[127.42741,38.24919],[127.42608,38.24804],[127.42552,38.24736],[127.42463,38.24617],[127.42392,38.24507],[127.42343,38.24456],[127.42332,38.24453],[127.42323,38.2445],[127.42211,38.24419],[127.42102,38.24434],[127.4201,38.24472],[127.41968,38.24511],[127.41905,38.24583],[127.41875,38.24656],[127.4183,38.24748],[127.4177,38.24779],[127.41724,38.2479],[127.41666,38.24786],[127.41627,38.24761],[127.41606,38.24726],[127.41606,38.24685],[127.41623,38.24584],[127.41656,38.24448],[127.41857,38.23789],[127.41911,38.23715],[127.41958,38.23684],[127.4198,38.23672],[127.41957,38.23451],[127.41896,38.23149],[127.41596,38.22771],[127.41478,38.22655],[127.41408,38.22608],[127.41346,38.22553],[127.41301,38.22473],[127.41299,38.22411],[127.41304,38.22371],[127.41317,38.22344],[127.41322,38.22334],[127.4139,38.22281],[127.41439,38.22247],[127.41477,38.2222],[127.41479,38.22115],[127.41318,38.21674],[127.41268,38.21649],[127.41142,38.21605],[127.40872,38.21519],[127.4058,38.21435],[127.40276,38.21133],[127.4011,38.20996],[127.40028,38.20935],[127.39884,38.2086],[127.39625,38.20894],[127.39559,38.20896],[127.38822,38.20818],[127.38276,38.20759],[127.38033,38.20731],[127.37933,38.20711],[127.37645,38.20507],[127.37618,38.20461],[127.37586,38.20405],[127.37561,38.20374],[127.37509,38.20358],[127.37446,38.20343],[127.36724,38.2084],[127.36681,38.20888],[127.36667,38.20904],[127.36424,38.21267],[127.36411,38.21287],[127.36395,38.21362],[127.36392,38.21411],[127.364,38.21487],[127.36457,38.21712],[127.3647,38.21777],[127.36465,38.21945],[127.36372,38.22278],[127.36351,38.22331],[127.36306,38.22424],[127.35862,38.2284],[127.35825,38.22859],[127.35688,38.22879],[127.35619,38.22886],[127.35603,38.22888],[127.35516,38.22903],[127.35471,38.2292],[127.35454,38.22929],[127.35434,38.2294],[127.34998,38.23385],[127.34906,38.23921],[127.35135,38.2431],[127.35299,38.24556],[127.35394,38.24938],[127.35537,38.25513],[127.35634,38.25722],[127.35341,38.25815],[127.34999,38.25862],[127.34771,38.25894],[127.34537,38.2603],[127.34501,38.26102],[127.34499,38.26104],[127.34471,38.26174],[127.34466,38.26187],[127.34698,38.26325],[127.35,38.26494],[127.34691,38.26608],[127.34571,38.26826],[127.34679,38.27038],[127.3495,38.27249],[127.35047,38.27359],[127.35059,38.27563],[127.3502,38.27722],[127.35046,38.2781],[127.35278,38.27861],[127.35477,38.27965],[127.36352,38.3055],[127.36415,38.30592],[127.36507,38.30668],[127.36642,38.30848],[127.36755,38.30952],[127.36846,38.31009],[127.36859,38.31016],[127.36873,38.31023],[127.36886,38.31028],[127.37283,38.31143],[127.37374,38.31159],[127.37657,38.31099],[127.37932,38.30967],[127.38147,38.30715],[127.38091,38.30482],[127.38078,38.30448],[127.38145,38.30388],[127.38175,38.30362],[127.38209,38.30333],[127.38544,38.30303],[127.38594,38.30313],[127.3863,38.30337],[127.3873,38.30345],[127.38833,38.30293],[127.38852,38.30275],[127.39023,38.29829],[127.3906,38.29642],[127.39078,38.29544],[127.39081,38.29446],[127.39242,38.29178],[127.39453,38.28952],[127.39549,38.28865],[127.3967,38.28773],[127.39992,38.28744],[127.40498,38.28805],[127.41004,38.29033],[127.41075,38.29136],[127.41228,38.29099],[127.41448,38.28966],[127.41586,38.28897],[127.41608,38.28887],[127.41688,38.28868],[127.41744,38.28887],[127.41811,38.28967],[127.41823,38.29005],[127.4187,38.29145],[127.41945,38.29334],[127.4199,38.29443],[127.42042,38.295],[127.42154,38.29509],[127.42214,38.29501],[127.42358,38.29536],[127.42508,38.29693],[127.425,38.29768],[127.42643,38.29949],[127.42808,38.3014],[127.4297,38.30211],[127.42988,38.30219],[127.43208,38.30305],[127.43363,38.30312],[127.4374,38.30588],[127.43736,38.30616],[127.43735,38.30625],[127.43734,38.30673],[127.43734,38.30702],[127.4375,38.30909],[127.43751,38.30919],[127.439,38.31203],[127.43953,38.31299],[127.43965,38.31321],[127.43973,38.31325],[127.44002,38.31328],[127.44009,38.31314],[127.44028,38.31297],[127.44048,38.31287],[127.44179,38.31229],[127.44334,38.31179],[127.44454,38.31162],[127.44461,38.31162],[127.44707,38.31258],[127.44797,38.31314],[127.44809,38.31322],[127.45104,38.31554],[127.45182,38.31621],[127.45245,38.31701],[127.45349,38.31695],[127.45909,38.31865],[127.46419,38.32008],[127.46546,38.32044],[127.46995,38.32033],[127.47279,38.31937],[127.47536,38.31808],[127.47959,38.31098],[127.48393,38.30578],[127.48678,38.30369],[127.48749,38.30371]]]]}},{"type":"Feature","properties":{"code":"51780256","name":"갈말읍","parent":"51780"},"geometry":{"type":"MultiPolygon","coordinates":[[[[127.36352,38.3055],[127.35477,38.27965],[127.35278,38.27861],[127.35046,38.2781],[127.3502,38.27722],[127.35059,38.27563],[127.35047,38.27359],[127.3495,38.27249],[127.34679,38.27038],[127.34571,38.26826],[127.34691,38.26608],[127.35,38.26494],[127.34698,38.26325],[127.34466,38.26187],[127.34471,38.26174],[127.34499,38.26104],[127.34501,38.26102],[127.34537,38.2603],[127.34771,38.25894],[127.34999,38.25862],[127.35341,38.25815],[127.35634,38.25722],[127.35537,38.25513],[127.35394,38.24938],[127.35299,38.24556],[127.35135,38.2431],[127.34906,38.23921],[127.34998,38.23385],[127.35434,38.2294],[127.35454,38.22929],[127.35471,38.2292],[127.35516,38.22903],[127.35603,38.22888],[127.35619,38.22886],[127.35688,38.22879],[127.35825,38.22859],[127.35862,38.2284],[127.36306,38.22424],[127.36351,38.22331],[127.36372,38.22278],[127.36465,38.21945],[127.3647,38.21777],[127.36457,38.21712],[127.364,38.21487],[127.36392,38.21411],[127.36395,38.21362],[127.36411,38.21287],[127.36424,38.21267],[127.36667,38.20904],[127.36681,38.20888],[127.36724,38.2084],[127.37446,38.20343],[127.37509,38.20358],[127.37561,38.20374],[127.37586,38.20405],[127.37618,38.20461],[127.37645,38.20507],[127.37933,38.20711],[127.38033,38.20731],[127.38276,38.20759],[127.38822,38.20818],[127.39559,38.20896],[127.39625,38.20894],[127.39884,38.2086],[127.39946,38.20776],[127.40152,38.20447],[127.40232,38.2029],[127.40253,38.20224],[127.40253,38.20149],[127.40239,38.20072],[127.40252,38.19965],[127.40318,38.19716],[127.40419,38.19561],[127.40594,38.19417],[127.40571,38.19247],[127.4042,38.18884],[127.40373,38.18825],[127.40311,38.18776],[127.40263,38.18539],[127.40257,38.18205],[127.40299,38.17758],[127.40303,38.1768],[127.40257,38.17565],[127.40203,38.17356],[127.40259,38.17101],[127.40171,38.16592],[127.40021,38.16572],[127.39986,38.16567],[127.39963,38.16572],[127.39927,38.16581],[127.39707,38.16688],[127.39661,38.1669],[127.39505,38.16616],[127.394,38.16509],[127.38931,38.16295],[127.38793,38.16281],[127.38694,38.16271],[127.38575,38.16327],[127.38531,38.16339],[127.3834,38.16354],[127.37356,38.16169],[127.37031,38.16005],[127.3701,38.1595],[127.37045,38.1574],[127.3709,38.15477],[127.37099,38.15434],[127.37167,38.15092],[127.37189,38.15031],[127.37242,38.14949],[127.37497,38.14726],[127.3766,38.14612],[127.37679,38.14567],[127.37876,38.14017],[127.37845,38.13771],[127.37852,38.13659],[127.37872,38.13359],[127.37901,38.13222],[127.38062,38.12701],[127.3812,38.12543],[127.38131,38.12434],[127.37944,38.11939],[127.37894,38.11852],[127.37827,38.11776],[127.37809,38.11774],[127.37792,38.11769],[127.3777,38.11757],[127.3727,38.11435],[127.37264,38.11429],[127.37261,38.11427],[127.37197,38.11366],[127.37191,38.11358],[127.37189,38.11356],[127.37186,38.11352],[127.3718,38.11337],[127.37177,38.11322],[127.37178,38.11309],[127.37183,38.1124],[127.37186,38.11221],[127.37189,38.11204],[127.3719,38.11196],[127.3719,38.11175],[127.3719,38.11137],[127.37185,38.11111],[127.37179,38.111],[127.37161,38.11072],[127.37142,38.11054],[127.3711,38.11022],[127.3709,38.11004],[127.3708,38.10997],[127.37075,38.10993],[127.37061,38.10984],[127.37007,38.10954],[127.36928,38.10912],[127.36445,38.10704],[127.36418,38.10708],[127.3639,38.1071],[127.36385,38.1071],[127.36371,38.1071],[127.36331,38.10708],[127.36011,38.10687],[127.35977,38.10684],[127.35947,38.10681],[127.35635,38.10631],[127.35624,38.10629],[127.35607,38.10625],[127.356,38.10623],[127.35587,38.1062],[127.35548,38.10594],[127.35505,38.10554],[127.35445,38.10503],[127.35351,38.1044],[127.35337,38.10434],[127.35312,38.10435],[127.35018,38.10446],[127.34601,38.10426],[127.33927,38.10154],[127.33894,38.10136],[127.33861,38.10113],[127.33852,38.10106],[127.3384,38.10095],[127.33821,38.10078],[127.33819,38.10073],[127.33817,38.10067],[127.33812,38.10055],[127.3381,38.1005],[127.33739,38.08982],[127.33526,38.09088],[127.33307,38.09157],[127.33263,38.09176],[127.33241,38.09189],[127.33233,38.09193],[127.33228,38.09197],[127.33196,38.0922],[127.33137,38.09273],[127.33109,38.09302],[127.33093,38.09321],[127.33081,38.09334],[127.33078,38.09341],[127.33074,38.0935],[127.33068,38.09362],[127.33057,38.09383],[127.33047,38.09396],[127.33032,38.09411],[127.33017,38.09421],[127.32993,38.09431],[127.32945,38.09444],[127.32909,38.09453],[127.32904,38.09455],[127.32862,38.09462],[127.32581,38.0951],[127.32556,38.09512],[127.3252,38.09502],[127.3251,38.09497],[127.32498,38.09492],[127.32479,38.09484],[127.32473,38.09482],[127.32449,38.09479],[127.32415,38.09477],[127.32265,38.09489],[127.32202,38.09497],[127.32185,38.09499],[127.32173,38.09503],[127.32149,38.09512],[127.32119,38.09522],[127.3167,38.10062],[127.314,38.10462],[127.31363,38.10519],[127.3128,38.10672],[127.31248,38.10736],[127.31239,38.10758],[127.31184,38.10949],[127.31158,38.1124],[127.31135,38.11493],[127.31147,38.11538],[127.31137,38.1157],[127.31129,38.11597],[127.31064,38.1166],[127.30932,38.11785],[127.30739,38.11924],[127.30723,38.11936],[127.30701,38.11942],[127.30675,38.1192],[127.30683,38.11835],[127.30569,38.11718],[127.30564,38.11714],[127.30274,38.11568],[127.30216,38.1156],[127.30168,38.11554],[127.30013,38.11546],[127.29951,38.11551],[127.29586,38.11632],[127.29485,38.11526],[127.29293,38.11409],[127.29263,38.11409],[127.29234,38.11408],[127.2915,38.11435],[127.28978,38.11555],[127.28856,38.11669],[127.28819,38.11671],[127.28776,38.11669],[127.28768,38.11668],[127.28735,38.11653],[127.28673,38.11572],[127.28648,38.11544],[127.28603,38.11505],[127.28564,38.1151],[127.28559,38.11511],[127.28463,38.11559],[127.2832,38.11648],[127.28265,38.1184],[127.28262,38.11866],[127.28259,38.11894],[127.28263,38.119],[127.28288,38.11945],[127.28301,38.11969],[127.28331,38.12022],[127.28305,38.12337],[127.28195,38.12474],[127.28192,38.12477],[127.2819,38.12479],[127.28161,38.125],[127.28043,38.12552],[127.27674,38.12545],[127.27707,38.12616],[127.2774,38.12688],[127.27748,38.12764],[127.27739,38.13249],[127.27719,38.13303],[127.27686,38.13332],[127.2768,38.13335],[127.27671,38.13339],[127.2763,38.1336],[127.27577,38.13397],[127.27557,38.13427],[127.27547,38.13456],[127.27545,38.13463],[127.2754,38.13509],[127.27544,38.13608],[127.27548,38.13641],[127.27549,38.13644],[127.2755,38.13652],[127.27555,38.13679],[127.27577,38.13722],[127.27621,38.13757],[127.27841,38.13922],[127.28329,38.14475],[127.28334,38.14481],[127.28382,38.14542],[127.28417,38.14593],[127.28718,38.15135],[127.28723,38.15162],[127.28727,38.15192],[127.28727,38.15195],[127.28727,38.15198],[127.28726,38.15206],[127.28724,38.15233],[127.28521,38.1566],[127.28464,38.15775],[127.28713,38.16034],[127.28715,38.16036],[127.28731,38.16049],[127.28736,38.16054],[127.2874,38.16058],[127.28745,38.16068],[127.28747,38.16073],[127.28752,38.16088],[127.288,38.16354],[127.288,38.16383],[127.28799,38.164],[127.28799,38.16422],[127.28794,38.16452],[127.28756,38.16551],[127.28744,38.16579],[127.28728,38.16614],[127.28717,38.16722],[127.28716,38.16727],[127.28717,38.16785],[127.28717,38.16794],[127.28725,38.16871],[127.28753,38.16937],[127.28787,38.16988],[127.28793,38.16997],[127.28797,38.17003],[127.29119,38.17233],[127.29137,38.1724],[127.29142,38.17242],[127.2915,38.17245],[127.29166,38.1725],[127.29181,38.17256],[127.29222,38.17264],[127.29268,38.17266],[127.29288,38.17266],[127.2932,38.17267],[127.29365,38.17266],[127.29411,38.1726],[127.29448,38.17261],[127.29478,38.17264],[127.29515,38.17273],[127.29519,38.17275],[127.29547,38.17292],[127.29635,38.1736],[127.29707,38.17427],[127.29721,38.17452],[127.29725,38.17466],[127.29728,38.17478],[127.29729,38.17498],[127.29722,38.1754],[127.29701,38.17568],[127.29696,38.17573],[127.29675,38.1759],[127.29663,38.176],[127.29618,38.1763],[127.29586,38.17642],[127.29287,38.17683],[127.29227,38.17684],[127.292,38.17682],[127.29195,38.17681],[127.29128,38.17667],[127.29081,38.17654],[127.29051,38.17652],[127.29014,38.17658],[127.28991,38.17667],[127.2897,38.17674],[127.28933,38.1769],[127.28924,38.17696],[127.28907,38.17707],[127.28901,38.17711],[127.28778,38.17798],[127.28743,38.17831],[127.28714,38.1786],[127.28708,38.17867],[127.28687,38.17893],[127.2867,38.17918],[127.28663,38.17942],[127.28662,38.17958],[127.28661,38.17965],[127.28658,38.18034],[127.28657,38.18257],[127.28683,38.18349],[127.28732,38.18425],[127.28805,38.18483],[127.28894,38.18514],[127.28946,38.18529],[127.29008,38.18526],[127.29047,38.18508],[127.29092,38.18455],[127.29145,38.18378],[127.29253,38.18297],[127.29346,38.18251],[127.29412,38.18248],[127.29453,38.18272],[127.29884,38.18589],[127.29979,38.18686],[127.29984,38.18691],[127.30003,38.18751],[127.29999,38.18811],[127.29967,38.18885],[127.29903,38.18931],[127.29603,38.19038],[127.29325,38.19067],[127.29183,38.19072],[127.29039,38.19075],[127.28931,38.19053],[127.28846,38.19028],[127.28744,38.19001],[127.28624,38.18996],[127.28481,38.19018],[127.28251,38.19153],[127.27989,38.19568],[127.27829,38.19853],[127.27578,38.20022],[127.27512,38.20028],[127.27493,38.2004],[127.27451,38.20066],[127.27277,38.20182],[127.26998,38.2037],[127.26643,38.20758],[127.26624,38.20822],[127.26615,38.20913],[127.26603,38.20987],[127.26586,38.21027],[127.26581,38.21038],[127.26541,38.21093],[127.26477,38.21158],[127.26366,38.2124],[127.26268,38.21371],[127.26064,38.21943],[127.26059,38.21975],[127.26082,38.21993],[127.26245,38.22045],[127.26376,38.22105],[127.26393,38.22147],[127.26355,38.22207],[127.26037,38.2251],[127.2591,38.22604],[127.25854,38.22621],[127.25851,38.22622],[127.25764,38.22647],[127.25646,38.227],[127.25462,38.22844],[127.25345,38.22956],[127.2532,38.23015],[127.2534,38.2311],[127.25361,38.2318],[127.25365,38.2319],[127.25459,38.2341],[127.25513,38.23462],[127.25624,38.23535],[127.25683,38.23599],[127.25703,38.23733],[127.25706,38.23854],[127.25689,38.23973],[127.25649,38.24106],[127.25656,38.24189],[127.25715,38.24568],[127.25731,38.24614],[127.25911,38.24734],[127.25946,38.24742],[127.25986,38.24735],[127.26373,38.24473],[127.2661,38.24298],[127.26676,38.24246],[127.26744,38.24233],[127.26872,38.24282],[127.2694,38.24331],[127.27054,38.24451],[127.2717,38.24597],[127.27228,38.24688],[127.27239,38.24747],[127.2724,38.24794],[127.2723,38.24836],[127.27195,38.24871],[127.2715,38.24915],[127.27146,38.24939],[127.2715,38.24991],[127.27166,38.25025],[127.27215,38.25079],[127.27313,38.25146],[127.27498,38.25263],[127.27595,38.25314],[127.27912,38.25434],[127.28164,38.25525],[127.2829,38.25506],[127.28471,38.25313],[127.28399,38.2512],[127.28493,38.24915],[127.28666,38.24896],[127.28699,38.24948],[127.28841,38.25181],[127.28779,38.25374],[127.28859,38.25828],[127.29372,38.26015],[127.2942,38.26032],[127.29585,38.26276],[127.29684,38.26361],[127.29828,38.2647],[127.29939,38.26496],[127.30135,38.26526],[127.30729,38.2666],[127.3099,38.26833],[127.31827,38.27117],[127.31965,38.27169],[127.32656,38.27428],[127.32762,38.27511],[127.32796,38.27567],[127.32786,38.27594],[127.32734,38.27628],[127.32538,38.27685],[127.32229,38.27761],[127.3215,38.2778],[127.31993,38.27845],[127.31864,38.27951],[127.31788,38.2806],[127.31547,38.28596],[127.31376,38.28976],[127.29841,38.31686],[127.30261,38.31408],[127.30551,38.3169],[127.31063,38.3169],[127.31295,38.31741],[127.31787,38.31852],[127.32314,38.3211],[127.32744,38.32679],[127.33051,38.32842],[127.3348,38.32961],[127.33832,38.33203],[127.34171,38.33115],[127.34533,38.3295],[127.34808,38.32898],[127.35379,38.32948],[127.36523,38.33207],[127.36883,38.33289],[127.37256,38.33418],[127.37343,38.33479],[127.3724,38.33175],[127.36935,38.32882],[127.36822,38.32829],[127.36812,38.32826],[127.36749,38.32819],[127.36671,38.32809],[127.36654,38.32804],[127.36378,38.32638],[127.36184,38.32257],[127.36184,38.32227],[127.36206,38.32208],[127.36285,38.32159],[127.36324,38.32164],[127.36457,38.32169],[127.36474,38.32167],[127.36499,38.32152],[127.36595,38.32088],[127.36659,38.31945],[127.36669,38.31904],[127.36669,38.31897],[127.36669,38.31805],[127.36583,38.3166],[127.36544,38.31608],[127.36445,38.31556],[127.3642,38.31551],[127.36374,38.31542],[127.36109,38.31496],[127.35945,38.31487],[127.35913,38.31476],[127.35876,38.31442],[127.3582,38.31388],[127.35822,38.31358],[127.35871,38.31232],[127.35914,38.31176],[127.35957,38.31102],[127.35946,38.31054],[127.35912,38.30988],[127.35882,38.30935],[127.35793,38.308],[127.35692,38.30682],[127.35659,38.30658],[127.35367,38.30445],[127.35324,38.30389],[127.3532,38.3037],[127.35332,38.30325],[127.35386,38.30274],[127.35432,38.30258],[127.35477,38.30254],[127.35801,38.30275],[127.35865,38.30289],[127.35932,38.3032],[127.35996,38.30353],[127.36238,38.30481],[127.36352,38.3055]]]]}},{"type":"Feature","properties":{"code":"51780259","name":"동송읍","parent":"51780"},"geometry":{"type":"MultiPolygon","coordinates":[[[[127.29841,38.31686],[127.31376,38.28976],[127.31547,38.28596],[127.31788,38.2806],[127.31864,38.27951],[127.31993,38.27845],[127.3215,38.2778],[127.32229,38.27761],[127.32538,38.27685],[127.32734,38.27628],[127.32786,38.27594],[127.32796,38.27567],[127.32762,38.27511],[127.32656,38.27428],[127.31965,38.27169],[127.31827,38.27117],[127.3099,38.26833],[127.30729,38.2666],[127.30135,38.26526],[127.29939,38.26496],[127.29828,38.2647],[127.29684,38.26361],[127.29585,38.26276],[127.2942,38.26032],[127.29372,38.26015],[127.28859,38.25828],[127.28779,38.25374],[127.28841,38.25181],[127.28699,38.24948],[127.28666,38.24896],[127.28493,38.24915],[127.28399,38.2512],[127.28471,38.25313],[127.2829,38.25506],[127.28164,38.25525],[127.27912,38.25434],[127.27595,38.25314],[127.27498,38.25263],[127.27313,38.25146],[127.27215,38.25079],[127.27166,38.25025],[127.2715,38.24991],[127.27146,38.24939],[127.2715,38.24915],[127.27195,38.24871],[127.2723,38.24836],[127.2724,38.24794],[127.27239,38.24747],[127.27228,38.24688],[127.2717,38.24597],[127.27054,38.24451],[127.2694,38.24331],[127.26872,38.24282],[127.26744,38.24233],[127.26676,38.24246],[127.2661,38.24298],[127.26373,38.24473],[127.25986,38.24735],[127.25946,38.24742],[127.25911,38.24734],[127.25731,38.24614],[127.25715,38.24568],[127.25656,38.24189],[127.25649,38.24106],[127.25689,38.23973],[127.25706,38.23854],[127.25703,38.23733],[127.25683,38.23599],[127.25624,38.23535],[127.25513,38.23462],[127.25459,38.2341],[127.25365,38.2319],[127.25361,38.2318],[127.2534,38.2311],[127.2532,38.23015],[127.25345,38.22956],[127.25462,38.22844],[127.25646,38.227],[127.25764,38.22647],[127.25851,38.22622],[127.25854,38.22621],[127.2591,38.22604],[127.26037,38.2251],[127.26355,38.22207],[127.26393,38.22147],[127.26376,38.22105],[127.26245,38.22045],[127.26082,38.21993],[127.26059,38.21975],[127.26064,38.21943],[127.26268,38.21371],[127.26366,38.2124],[127.26477,38.21158],[127.26541,38.21093],[127.26581,38.21038],[127.26586,38.21027],[127.26603,38.20987],[127.26615,38.20913],[127.26624,38.20822],[127.26643,38.20758],[127.26998,38.2037],[127.27277,38.20182],[127.27451,38.20066],[127.27493,38.2004],[127.27512,38.20028],[127.27578,38.20022],[127.27829,38.19853],[127.27989,38.19568],[127.28251,38.19153],[127.28481,38.19018],[127.28624,38.18996],[127.28744,38.19001],[127.28846,38.19028],[127.28931,38.19053],[127.29039,38.19075],[127.29183,38.19072],[127.29325,38.19067],[127.29603,38.19038],[127.29903,38.18931],[127.29967,38.18885],[127.29999,38.18811],[127.30003,38.18751],[127.29984,38.18691],[127.29979,38.18686],[127.29884,38.18589],[127.29453,38.18272],[127.29412,38.18248],[127.29346,38.18251],[127.29253,38.18297],[127.29145,38.18378],[127.29092,38.18455],[127.29047,38.18508],[127.29008,38.18526],[127.28946,38.18529],[127.28894,38.18514],[127.28805,38.18483],[127.28732,38.18425],[127.28683,38.18349],[127.28657,38.18257],[127.28658,38.18034],[127.28563,38.18068],[127.28378,38.18221],[127.28369,38.18246],[127.28367,38.1825],[127.28362,38.1826],[127.28351,38.1827],[127.28345,38.18275],[127.28338,38.1828],[127.28312,38.18288],[127.28296,38.1829],[127.28283,38.18291],[127.27698,38.18237],[127.27527,38.18145],[127.27193,38.1815],[127.26651,38.18064],[127.26633,38.18057],[127.26612,38.1805],[127.2658,38.18027],[127.26577,38.18023],[127.26559,38.18006],[127.26529,38.17972],[127.26513,38.17952],[127.26503,38.1794],[127.26484,38.17911],[127.26466,38.17882],[127.26452,38.17854],[127.26449,38.17847],[127.26448,38.17843],[127.26445,38.17835],[127.26442,38.17828],[127.26441,38.17802],[127.26444,38.17781],[127.26452,38.17759],[127.26456,38.17754],[127.26463,38.17747],[127.2648,38.1773],[127.26491,38.17721],[127.26505,38.1771],[127.26541,38.17683],[127.2655,38.17675],[127.26556,38.1767],[127.26563,38.17661],[127.26568,38.17654],[127.26583,38.17636],[127.2659,38.17623],[127.26596,38.17605],[127.266,38.17586],[127.26599,38.17582],[127.26599,38.17562],[127.26592,38.17533],[127.2657,38.17481],[127.26518,38.17379],[127.26505,38.17352],[127.26438,38.17248],[127.26411,38.1721],[127.26372,38.17165],[127.26352,38.17146],[127.26335,38.17135],[127.2631,38.17119],[127.26165,38.17047],[127.26038,38.17037],[127.2585,38.16865],[127.25615,38.16493],[127.25584,38.16418],[127.25584,38.16404],[127.25586,38.16396],[127.25434,38.1628],[127.25166,38.16197],[127.24972,38.1609],[127.24705,38.15943],[127.24207,38.15631],[127.23962,38.15454],[127.23922,38.15416],[127.2391,38.15404],[127.23749,38.15202],[127.23766,38.15159],[127.23508,38.14801],[127.23389,38.14733],[127.23262,38.14712],[127.23203,38.14703],[127.22872,38.14761],[127.22597,38.14819],[127.22591,38.14821],[127.22419,38.14755],[127.22374,38.14727],[127.22333,38.14691],[127.22327,38.14686],[127.22364,38.14469],[127.2237,38.14143],[127.22355,38.14061],[127.22252,38.13811],[127.22189,38.13763],[127.21979,38.13869],[127.21916,38.13905],[127.21889,38.13924],[127.21342,38.14338],[127.21263,38.14549],[127.21259,38.14574],[127.21241,38.14606],[127.21223,38.14639],[127.21198,38.14672],[127.21177,38.14688],[127.21161,38.14692],[127.21145,38.14697],[127.21102,38.14696],[127.21084,38.14692],[127.21029,38.14682],[127.20992,38.14679],[127.20961,38.14677],[127.20891,38.14685],[127.20881,38.14687],[127.20859,38.14692],[127.20834,38.14706],[127.2082,38.14714],[127.208,38.14733],[127.20793,38.14739],[127.20763,38.14767],[127.20696,38.1484],[127.20456,38.15105],[127.20404,38.15163],[127.20361,38.15219],[127.2033,38.15278],[127.20328,38.15283],[127.20305,38.15322],[127.20288,38.15341],[127.20276,38.15349],[127.20265,38.15357],[127.19936,38.15551],[127.19913,38.15564],[127.19901,38.15571],[127.19885,38.15579],[127.19866,38.15589],[127.1976,38.15622],[127.19724,38.15631],[127.19674,38.15643],[127.19602,38.15666],[127.19552,38.15688],[127.1949,38.15727],[127.19484,38.15731],[127.19295,38.15854],[127.19025,38.16042],[127.18999,38.16069],[127.18959,38.16138],[127.18935,38.16191],[127.18908,38.16254],[127.1887,38.16362],[127.18772,38.16718],[127.18739,38.16878],[127.1868,38.17013],[127.18641,38.17049],[127.18631,38.17066],[127.18625,38.17079],[127.1862,38.17094],[127.18603,38.17295],[127.18604,38.17339],[127.18704,38.1782],[127.18808,38.18333],[127.18807,38.18366],[127.18807,38.18373],[127.18808,38.18389],[127.18808,38.18395],[127.18808,38.18411],[127.18818,38.18452],[127.18832,38.18494],[127.18885,38.18631],[127.18887,38.18637],[127.18893,38.1865],[127.18896,38.18655],[127.18904,38.18671],[127.18922,38.18696],[127.1894,38.18718],[127.19028,38.18825],[127.1904,38.18886],[127.19037,38.18922],[127.19036,38.18928],[127.19069,38.19219],[127.19076,38.19232],[127.19136,38.19268],[127.19163,38.19306],[127.19172,38.19348],[127.19169,38.194],[127.19154,38.19452],[127.19094,38.1959],[127.19067,38.19677],[127.1905,38.19802],[127.19073,38.20179],[127.19081,38.20223],[127.19157,38.2029],[127.19181,38.2034],[127.192,38.20449],[127.19197,38.20475],[127.19194,38.20501],[127.19096,38.20712],[127.19095,38.20743],[127.1915,38.20797],[127.19447,38.21057],[127.19493,38.21092],[127.19737,38.21239],[127.19763,38.21251],[127.20071,38.21393],[127.20419,38.21426],[127.20514,38.21254],[127.20523,38.21223],[127.20605,38.21026],[127.20723,38.20835],[127.20814,38.20769],[127.20873,38.20775],[127.20942,38.20786],[127.21149,38.20847],[127.21255,38.20895],[127.21275,38.20908],[127.21364,38.20965],[127.2138,38.20975],[127.21409,38.20993],[127.21493,38.21036],[127.21638,38.21077],[127.21673,38.21085],[127.21869,38.21094],[127.21965,38.21095],[127.21973,38.21085],[127.22039,38.21101],[127.22199,38.21169],[127.22251,38.21209],[127.22156,38.21329],[127.22103,38.21354],[127.22006,38.21381],[127.21981,38.2143],[127.21979,38.21598],[127.22002,38.21767],[127.21995,38.21812],[127.21983,38.21819],[127.21958,38.21835],[127.21933,38.21826],[127.21832,38.21799],[127.2179,38.21835],[127.21595,38.22149],[127.21582,38.22177],[127.21576,38.22191],[127.21513,38.22571],[127.21521,38.22626],[127.21553,38.227],[127.21629,38.22781],[127.21637,38.22785],[127.21692,38.22811],[127.21725,38.22839],[127.21746,38.22857],[127.21751,38.22861],[127.21762,38.22875],[127.21772,38.22892],[127.21805,38.22971],[127.21804,38.2298],[127.218,38.23005],[127.21791,38.2302],[127.21751,38.23085],[127.21714,38.23149],[127.21708,38.23193],[127.21697,38.23272],[127.21692,38.23315],[127.21698,38.23343],[127.21746,38.23741],[127.21733,38.23792],[127.21666,38.23854],[127.21614,38.23926],[127.21607,38.23944],[127.21586,38.23995],[127.2156,38.24063],[127.21637,38.24193],[127.21661,38.24245],[127.21658,38.24281],[127.21611,38.24476],[127.21571,38.24548],[127.21492,38.24629],[127.21486,38.24667],[127.21574,38.2481],[127.21675,38.24973],[127.21696,38.25049],[127.21687,38.25082],[127.21671,38.2513],[127.21635,38.25172],[127.21607,38.252],[127.21576,38.25224],[127.21539,38.25271],[127.21508,38.25334],[127.21491,38.25465],[127.2135,38.25788],[127.2109,38.25932],[127.21058,38.26017],[127.21051,38.26038],[127.2106,38.26056],[127.21287,38.26514],[127.21387,38.26714],[127.24544,38.33367],[127.25189,38.33001],[127.26239,38.32783],[127.2789,38.32538],[127.28684,38.32635],[127.29841,38.31686]]]]}},{"type":"Feature","properties":{"code":"51780330","name":"근북면","parent":"51780"},"geometry":{"type":"MultiPolygon","coordinates":[[[[127.45245,38.31701],[127.45182,38.31621],[127.45104,38.31554],[127.44809,38.31322],[127.44797,38.31314],[127.44707,38.31258],[127.44461,38.31162],[127.44454,38.31162],[127.44334,38.31179],[127.44179,38.31229],[127.44048,38.31287],[127.44028,38.31297],[127.44009,38.31314],[127.44002,38.31328],[127.43973,38.31325],[127.43965,38.31321],[127.43953,38.31299],[127.439,38.31203],[127.43751,38.30919],[127.4375,38.30909],[127.43734,38.30702],[127.43734,38.30673],[127.43735,38.30625],[127.43736,38.30616],[127.4374,38.30588],[127.43363,38.30312],[127.43208,38.30305],[127.42988,38.30219],[127.4297,38.30211],[127.42808,38.3014],[127.42643,38.29949],[127.425,38.29768],[127.42508,38.29693],[127.42358,38.29536],[127.42214,38.29501],[127.42154,38.29509],[127.42042,38.295],[127.4199,38.29443],[127.41945,38.29334],[127.4187,38.29145],[127.41823,38.29005],[127.41811,38.28967],[127.41744,38.28887],[127.41688,38.28868],[127.41608,38.28887],[127.41586,38.28897],[127.41448,38.28966],[127.41228,38.29099],[127.41075,38.29136],[127.41004,38.29033],[127.40498,38.28805],[127.39992,38.28744],[127.3967,38.28773],[127.39549,38.28865],[127.39453,38.28952],[127.39242,38.29178],[127.39081,38.29446],[127.39078,38.29544],[127.3906,38.29642],[127.39023,38.29829],[127.38852,38.30275],[127.38833,38.30293],[127.3873,38.30345],[127.3863,38.30337],[127.38594,38.30313],[127.38544,38.30303],[127.38209,38.30333],[127.38175,38.30362],[127.38145,38.30388],[127.38078,38.30448],[127.38091,38.30482],[127.38147,38.30715],[127.37932,38.30967],[127.37657,38.31099],[127.37374,38.31159],[127.37283,38.31143],[127.36886,38.31028],[127.36873,38.31023],[127.36859,38.31016],[127.36846,38.31009],[127.36755,38.30952],[127.36642,38.30848],[127.36507,38.30668],[127.36415,38.30592],[127.36352,38.3055],[127.36238,38.30481],[127.35996,38.30353],[127.35932,38.3032],[127.35865,38.30289],[127.35801,38.30275],[127.35477,38.30254],[127.35432,38.30258],[127.35386,38.30274],[127.35332,38.30325],[127.3532,38.3037],[127.35324,38.30389],[127.35367,38.30445],[127.35659,38.30658],[127.35692,38.30682],[127.35793,38.308],[127.35882,38.30935],[127.35912,38.30988],[127.35946,38.31054],[127.35957,38.31102],[127.35914,38.31176],[127.35871,38.31232],[127.35822,38.31358],[127.3582,38.31388],[127.35876,38.31442],[127.35913,38.31476],[127.35945,38.31487],[127.36109,38.31496],[127.36374,38.31542],[127.3642,38.31551],[127.36445,38.31556],[127.36544,38.31608],[127.36583,38.3166],[127.36669,38.31805],[127.36669,38.31897],[127.36669,38.31904],[127.36659,38.31945],[127.36595,38.32088],[127.36499,38.32152],[127.36474,38.32167],[127.36457,38.32169],[127.36324,38.32164],[127.36285,38.32159],[127.36206,38.32208],[127.36184,38.32227],[127.36184,38.32257],[127.36378,38.32638],[127.36654,38.32804],[127.36671,38.32809],[127.36749,38.32819],[127.36812,38.32826],[127.36822,38.32829],[127.36935,38.32882],[127.3724,38.33175],[127.37343,38.33479],[127.37365,38.33495],[127.37608,38.33667],[127.37839,38.33804],[127.3819,38.33846],[127.38486,38.33992],[127.38794,38.34],[127.39176,38.33817],[127.39548,38.33704],[127.39823,38.33686],[127.40065,38.33823],[127.4024,38.33882],[127.40733,38.33794],[127.4217,38.33547],[127.42454,38.33433],[127.43,38.32982],[127.43427,38.32631],[127.43687,38.32418],[127.44451,38.31948],[127.44911,38.31722],[127.45245,38.31701]]]]}},{"type":"Feature","properties":{"code":"51780310","name":"서면","parent":"51780"},"geometry":{"type":"MultiPolygon","coordinates":[[[[127.44052,38.1244],[127.44031,38.12437],[127.43968,38.12412],[127.43745,38.12178],[127.4332,38.11752],[127.43195,38.11635],[127.43057,38.11528],[127.42623,38.11196],[127.4225,38.10888],[127.41519,38.10367],[127.41206,38.10272],[127.4087,38.10409],[127.40858,38.10414],[127.40848,38.10418],[127.40839,38.10423],[127.40831,38.10428],[127.40823,38.10433],[127.40817,38.10438],[127.40625,38.10583],[127.40622,38.10585],[127.40618,38.10588],[127.40612,38.10594],[127.40606,38.106],[127.406,38.10607],[127.40594,38.10614],[127.4059,38.10621],[127.40585,38.1063],[127.40583,38.10635],[127.40581,38.10639],[127.40579,38.10642],[127.40577,38.10649],[127.40575,38.10652],[127.40573,38.10659],[127.4057,38.1067],[127.40569,38.10672],[127.40567,38.10681],[127.40564,38.10693],[127.40561,38.10705],[127.4056,38.10711],[127.40559,38.10718],[127.40556,38.10731],[127.40554,38.10746],[127.40551,38.1076],[127.40549,38.10772],[127.40549,38.10775],[127.40546,38.1079],[127.40543,38.10804],[127.4054,38.10819],[127.40536,38.10834],[127.40533,38.10849],[127.40528,38.10863],[127.40524,38.10877],[127.4052,38.10891],[127.40516,38.10904],[127.40512,38.10916],[127.40507,38.10928],[127.40504,38.10938],[127.405,38.10947],[127.40497,38.10956],[127.40493,38.10965],[127.4034,38.11289],[127.40337,38.11295],[127.40333,38.11299],[127.40328,38.11304],[127.40324,38.11306],[127.40317,38.11311],[127.40309,38.11315],[127.40306,38.11317],[127.40301,38.11319],[127.40297,38.11321],[127.4029,38.11324],[127.40283,38.11327],[127.40272,38.1133],[127.40258,38.11335],[127.40248,38.11337],[127.40072,38.11371],[127.40069,38.11371],[127.4006,38.11373],[127.40048,38.11374],[127.40037,38.11374],[127.40025,38.11373],[127.40012,38.11371],[127.40001,38.11368],[127.39989,38.11364],[127.39977,38.11361],[127.39675,38.11342],[127.39396,38.1134],[127.39196,38.11404],[127.38576,38.11426],[127.3836,38.11538],[127.38358,38.11552],[127.38355,38.1158],[127.38349,38.11597],[127.38342,38.11616],[127.38331,38.11638],[127.3832,38.11653],[127.38311,38.11658],[127.38306,38.11659],[127.383,38.1166],[127.38296,38.1166],[127.38287,38.1166],[127.38194,38.11652],[127.37827,38.11776],[127.37894,38.11852],[127.37944,38.11939],[127.38131,38.12434],[127.3812,38.12543],[127.38062,38.12701],[127.37901,38.13222],[127.37872,38.13359],[127.37852,38.13659],[127.37845,38.13771],[127.37876,38.14017],[127.37679,38.14567],[127.3766,38.14612],[127.37497,38.14726],[127.37242,38.14949],[127.37189,38.15031],[127.37167,38.15092],[127.37099,38.15434],[127.3709,38.15477],[127.37045,38.1574],[127.3701,38.1595],[127.37031,38.16005],[127.37356,38.16169],[127.3834,38.16354],[127.38531,38.16339],[127.38575,38.16327],[127.38694,38.16271],[127.38793,38.16281],[127.38931,38.16295],[127.394,38.16509],[127.39505,38.16616],[127.39661,38.1669],[127.39707,38.16688],[127.39927,38.16581],[127.39963,38.16572],[127.39986,38.16567],[127.40021,38.16572],[127.40171,38.16592],[127.40259,38.17101],[127.40203,38.17356],[127.40257,38.17565],[127.40303,38.1768],[127.40299,38.17758],[127.40257,38.18205],[127.40263,38.18539],[127.40311,38.18776],[127.40373,38.18825],[127.4042,38.18884],[127.40571,38.19247],[127.40594,38.19417],[127.40419,38.19561],[127.40318,38.19716],[127.40252,38.19965],[127.40239,38.20072],[127.40253,38.20149],[127.40253,38.20224],[127.40232,38.2029],[127.40152,38.20447],[127.39946,38.20776],[127.39884,38.2086],[127.40028,38.20935],[127.4011,38.20996],[127.40276,38.21133],[127.4058,38.21435],[127.40872,38.21519],[127.41142,38.21605],[127.41268,38.21649],[127.41318,38.21674],[127.41479,38.22115],[127.41477,38.2222],[127.41439,38.22247],[127.4139,38.22281],[127.41322,38.22334],[127.41317,38.22344],[127.41304,38.22371],[127.41299,38.22411],[127.41301,38.22473],[127.41346,38.22553],[127.41408,38.22608],[127.41478,38.22655],[127.41596,38.22771],[127.41896,38.23149],[127.41957,38.23451],[127.4198,38.23672],[127.41958,38.23684],[127.41911,38.23715],[127.41857,38.23789],[127.41656,38.24448],[127.41623,38.24584],[127.41606,38.24685],[127.41606,38.24726],[127.41627,38.24761],[127.41666,38.24786],[127.41724,38.2479],[127.4177,38.24779],[127.4183,38.24748],[127.41875,38.24656],[127.41905,38.24583],[127.41968,38.24511],[127.4201,38.24472],[127.42102,38.24434],[127.42211,38.24419],[127.42323,38.2445],[127.42332,38.24453],[127.42343,38.24456],[127.42392,38.24507],[127.42463,38.24617],[127.42552,38.24736],[127.42608,38.24804],[127.42741,38.24919],[127.42828,38.2494],[127.4293,38.24945],[127.43068,38.25011],[127.43164,38.25067],[127.43336,38.25193],[127.43578,38.25337],[127.43804,38.25438],[127.43968,38.25794],[127.4399,38.26085],[127.44007,38.26295],[127.44062,38.26446],[127.44185,38.26601],[127.44434,38.26707],[127.44702,38.26791],[127.44829,38.26824],[127.4507,38.26826],[127.45279,38.26481],[127.45284,38.26417],[127.45284,38.26394],[127.45269,38.26361],[127.45227,38.26319],[127.45188,38.26272],[127.45166,38.26239],[127.45172,38.26198],[127.45485,38.25375],[127.45539,38.25273],[127.45767,38.25094],[127.45804,38.25085],[127.46077,38.25067],[127.46147,38.25047],[127.46275,38.24989],[127.4641,38.24898],[127.46434,38.24869],[127.46452,38.24771],[127.46446,38.247],[127.46394,38.24572],[127.4639,38.24562],[127.46301,38.24482],[127.46087,38.2429],[127.45845,38.2405],[127.45816,38.24008],[127.45768,38.23806],[127.45762,38.2376],[127.45759,38.23733],[127.45927,38.23368],[127.46005,38.23228],[127.46011,38.23164],[127.46013,38.2315],[127.45921,38.23034],[127.45878,38.22937],[127.45862,38.22865],[127.45887,38.22656],[127.45703,38.22382],[127.4567,38.22354],[127.45516,38.22186],[127.455,38.22166],[127.45497,38.22163],[127.45486,38.2215],[127.45416,38.21876],[127.45358,38.21477],[127.45139,38.21063],[127.45115,38.20806],[127.45123,38.20707],[127.45141,38.20624],[127.45197,38.20542],[127.45193,38.20423],[127.45175,38.20335],[127.45143,38.20272],[127.45051,38.20195],[127.44863,38.19919],[127.44859,38.19883],[127.44889,38.19634],[127.44901,38.19583],[127.45018,38.19265],[127.45064,38.19189],[127.45146,38.19107],[127.45321,38.18984],[127.45385,38.18884],[127.45475,38.18435],[127.45465,38.18286],[127.45408,38.18241],[127.45275,38.18198],[127.45229,38.18166],[127.44747,38.17827],[127.44646,38.17741],[127.44612,38.17702],[127.44602,38.17678],[127.44696,38.17574],[127.44746,38.17531],[127.44751,38.17526],[127.44804,38.17481],[127.44841,38.17377],[127.44866,38.17185],[127.44837,38.17114],[127.44805,38.1704],[127.44783,38.17016],[127.44747,38.16985],[127.44731,38.16946],[127.4459,38.16433],[127.44581,38.16195],[127.44604,38.16064],[127.44587,38.16037],[127.44386,38.15855],[127.44261,38.15813],[127.44238,38.15779],[127.44226,38.15714],[127.44269,38.15377],[127.44352,38.1504],[127.44379,38.1475],[127.44302,38.14639],[127.44159,38.14473],[127.43981,38.14223],[127.43963,38.14184],[127.43945,38.14103],[127.4399,38.139],[127.44072,38.13399],[127.44067,38.13345],[127.44053,38.13107],[127.44043,38.1286],[127.44044,38.12566],[127.44047,38.12521],[127.44052,38.1244]]]]}},{"type":"Feature","properties":{"code":"51780320","name":"근남면","parent":"51780"},"geometry":{"type":"MultiPolygon","coordinates":[[[[127.61015,38.34047],[127.58565,38.29671],[127.58341,38.29269],[127.58339,38.28993],[127.58655,38.28715],[127.59292,38.2851],[127.59642,38.28358],[127.59912,38.27839],[127.59897,38.27376],[127.59709,38.26995],[127.59512,38.26806],[127.59315,38.2668],[127.59289,38.26362],[127.59206,38.26108],[127.59044,38.26],[127.58675,38.25929],[127.5819,38.25877],[127.5789,38.25779],[127.57875,38.25759],[127.57797,38.25661],[127.57742,38.25573],[127.57697,38.25343],[127.57678,38.25247],[127.57643,38.25221],[127.57529,38.25169],[127.57463,38.25149],[127.57188,38.24973],[127.571,38.24897],[127.57041,38.24818],[127.56981,38.24703],[127.56911,38.24538],[127.56884,38.24436],[127.56861,38.24294],[127.56816,38.24083],[127.56767,38.23943],[127.56673,38.2382],[127.56581,38.23748],[127.55929,38.2331],[127.55862,38.23271],[127.55858,38.23269],[127.55793,38.23246],[127.55116,38.23129],[127.55044,38.23131],[127.54971,38.23136],[127.54926,38.23149],[127.54769,38.23158],[127.54361,38.23042],[127.54354,38.23037],[127.5435,38.23035],[127.54171,38.2292],[127.53861,38.22499],[127.53846,38.22442],[127.53845,38.22401],[127.5388,38.22284],[127.53866,38.22125],[127.53831,38.22066],[127.53741,38.21955],[127.53737,38.21913],[127.53746,38.21885],[127.53756,38.21857],[127.53857,38.21793],[127.53959,38.21713],[127.54007,38.21636],[127.54032,38.21576],[127.54033,38.21531],[127.54009,38.21486],[127.53923,38.21362],[127.53726,38.2115],[127.53692,38.21118],[127.53642,38.2109],[127.53587,38.21076],[127.53448,38.21068],[127.5315,38.21069],[127.53109,38.21068],[127.53072,38.21056],[127.53054,38.21033],[127.529,38.20759],[127.52821,38.20569],[127.52796,38.20511],[127.52681,38.20335],[127.52437,38.20009],[127.524,38.19992],[127.51804,38.19899],[127.51643,38.19896],[127.51593,38.19904],[127.51535,38.19925],[127.51457,38.19935],[127.51247,38.19942],[127.50905,38.19901],[127.50837,38.19892],[127.50794,38.19869],[127.50765,38.1984],[127.50752,38.19815],[127.50748,38.19647],[127.50766,38.1955],[127.50766,38.19492],[127.50696,38.19356],[127.50591,38.19128],[127.50558,38.19055],[127.5055,38.1901],[127.50563,38.18902],[127.50552,38.18863],[127.50478,38.18768],[127.50326,38.18419],[127.50337,38.18376],[127.50401,38.18259],[127.50441,38.181],[127.50445,38.18041],[127.50414,38.17893],[127.50289,38.17735],[127.50299,38.17692],[127.50364,38.17592],[127.50428,38.17468],[127.50423,38.17434],[127.50377,38.17357],[127.50125,38.17049],[127.50096,38.17015],[127.5,38.16963],[127.49695,38.16689],[127.49554,38.16492],[127.49522,38.16428],[127.49488,38.16286],[127.49461,38.16246],[127.49309,38.16134],[127.49148,38.16058],[127.49092,38.16023],[127.49064,38.15982],[127.49056,38.15941],[127.49101,38.1582],[127.49229,38.15573],[127.49491,38.15314],[127.49531,38.1528],[127.49646,38.15231],[127.49691,38.1522],[127.49785,38.15219],[127.49811,38.15217],[127.49869,38.15207],[127.50008,38.15114],[127.50174,38.14966],[127.50251,38.14882],[127.50269,38.14859],[127.5027,38.14832],[127.5016,38.14578],[127.49932,38.14304],[127.49903,38.14294],[127.49865,38.14297],[127.49785,38.14333],[127.49723,38.14293],[127.4959,38.14051],[127.49576,38.14012],[127.49483,38.13663],[127.4948,38.13632],[127.49556,38.1346],[127.49558,38.13347],[127.49529,38.13275],[127.49433,38.13188],[127.49126,38.12909],[127.48953,38.12774],[127.48715,38.12668],[127.48455,38.12565],[127.48354,38.12536],[127.48234,38.12515],[127.48222,38.12514],[127.48059,38.12506],[127.47322,38.12483],[127.47055,38.12481],[127.46885,38.12501],[127.46771,38.12553],[127.46661,38.12535],[127.45756,38.12338],[127.4561,38.12134],[127.45309,38.11853],[127.45147,38.11814],[127.45088,38.11807],[127.45074,38.11805],[127.45006,38.11814],[127.449,38.11845],[127.4484,38.11871],[127.4479,38.11902],[127.44764,38.11939],[127.44743,38.12002],[127.44431,38.12194],[127.44304,38.12256],[127.44202,38.1228],[127.44131,38.12308],[127.44102,38.12333],[127.44052,38.1244],[127.44047,38.12521],[127.44044,38.12566],[127.44043,38.1286],[127.44053,38.13107],[127.44067,38.13345],[127.44072,38.13399],[127.4399,38.139],[127.43945,38.14103],[127.43963,38.14184],[127.43981,38.14223],[127.44159,38.14473],[127.44302,38.14639],[127.44379,38.1475],[127.44352,38.1504],[127.44269,38.15377],[127.44226,38.15714],[127.44238,38.15779],[127.44261,38.15813],[127.44386,38.15855],[127.44587,38.16037],[127.44604,38.16064],[127.44581,38.16195],[127.4459,38.16433],[127.44731,38.16946],[127.44747,38.16985],[127.44783,38.17016],[127.44805,38.1704],[127.44837,38.17114],[127.44866,38.17185],[127.44841,38.17377],[127.44804,38.17481],[127.44751,38.17526],[127.44746,38.17531],[127.44696,38.17574],[127.44602,38.17678],[127.44612,38.17702],[127.44646,38.17741],[127.44747,38.17827],[127.45229,38.18166],[127.45275,38.18198],[127.45408,38.18241],[127.45465,38.18286],[127.45475,38.18435],[127.45385,38.18884],[127.45321,38.18984],[127.45146,38.19107],[127.45064,38.19189],[127.45018,38.19265],[127.44901,38.19583],[127.44889,38.19634],[127.44859,38.19883],[127.44863,38.19919],[127.45051,38.20195],[127.45143,38.20272],[127.45175,38.20335],[127.45193,38.20423],[127.45197,38.20542],[127.45141,38.20624],[127.45123,38.20707],[127.45115,38.20806],[127.45139,38.21063],[127.45358,38.21477],[127.45416,38.21876],[127.45486,38.2215],[127.45497,38.22163],[127.455,38.22166],[127.45516,38.22186],[127.4567,38.22354],[127.45703,38.22382],[127.45887,38.22656],[127.45862,38.22865],[127.45878,38.22937],[127.45921,38.23034],[127.46013,38.2315],[127.46011,38.23164],[127.46005,38.23228],[127.45927,38.23368],[127.45759,38.23733],[127.45762,38.2376],[127.45768,38.23806],[127.45816,38.24008],[127.45845,38.2405],[127.46087,38.2429],[127.46301,38.24482],[127.4639,38.24562],[127.46394,38.24572],[127.46446,38.247],[127.46452,38.24771],[127.46434,38.24869],[127.4641,38.24898],[127.46275,38.24989],[127.46147,38.25047],[127.46077,38.25067],[127.45804,38.25085],[127.45767,38.25094],[127.45539,38.25273],[127.45485,38.25375],[127.45172,38.26198],[127.45166,38.26239],[127.45188,38.26272],[127.45227,38.26319],[127.45269,38.26361],[127.45284,38.26394],[127.45284,38.26417],[127.45279,38.26481],[127.4507,38.26826],[127.45049,38.27122],[127.45024,38.27874],[127.45098,38.28019],[127.45253,38.28292],[127.45449,38.28279],[127.45599,38.28269],[127.45989,38.28297],[127.46297,38.28376],[127.46525,38.28501],[127.46835,38.28576],[127.47026,38.28558],[127.47503,38.28504],[127.47612,38.28486],[127.47774,38.28456],[127.48051,38.28302],[127.48204,38.28174],[127.48834,38.27839],[127.4892,38.27924],[127.48976,38.27983],[127.48985,38.28176],[127.49228,38.28797],[127.49357,38.28958],[127.49512,38.29193],[127.49538,38.29243],[127.49612,38.29384],[127.49697,38.29788],[127.49651,38.29966],[127.49377,38.30038],[127.49087,38.30093],[127.48915,38.30214],[127.48779,38.30329],[127.48749,38.30371],[127.49127,38.30385],[127.49631,38.30357],[127.50103,38.30337],[127.5032,38.30328],[127.50847,38.30378],[127.51507,38.30651],[127.52391,38.31262],[127.52686,38.31409],[127.52692,38.31412],[127.53041,38.31587],[127.53625,38.32043],[127.54165,38.32524],[127.54594,38.3266],[127.55079,38.32951],[127.55715,38.33018],[127.56242,38.33162],[127.56987,38.33407],[127.57401,38.33542],[127.57764,38.33653],[127.58368,38.339],[127.58809,38.34011],[127.59751,38.34049],[127.60694,38.3407],[127.61015,38.34047]]]]}}]}