{"type":"FeatureCollection","features":[{"type":"Feature","properties":{"code":"11710510","name":"풍납1동","parent":"11710"},"geometry":{"type":"MultiPolygon","coordinates":[[[[127.12321,37.53853],[127.12243,37.53626],[127.12126,37.53311],[127.11982,37.53353],[127.11225,37.53568],[127.11184,37.53579],[127.1112,37.53596],[127.11094,37.53604],[127.10984,37.53605],[127.10416,37.536],[127.10956,37.54347],[127.11712,37.54134],[127.11839,37.54096],[127.11843,37.54095],[127.1185,37.54093],[127.1186,37.54089],[127.11908,37.54071],[127.11952,37.54046],[127.1196,37.54041],[127.11979,37.54027],[127.12046,37.53981],[127.12142,37.53927],[127.12148,37.53923],[127.12161,37.53916],[127.12321,37.53853]]]]}},{"type":"Feature","properties":{"code":"11710520","name":"풍납2동","parent":"11710"},"geometry":{"type":"MultiPolygon","coordinates":[[[[127.12126,37.53311],[127.12072,37.53132],[127.11916,37.52807],[127.1164,37.52396],[127.10616,37.5239],[127.10434,37.52422],[127.09896,37.52795],[127.1032,37.53467],[127.10416,37.536],[127.10984,37.53605],[127.11094,37.53604],[127.1112,37.53596],[127.11184,37.53579],[127.11225,37.53568],[127.11982,37.53353],[127.12126,37.53311]]]]}},{"type":"Feature","properties":{"code":"11710531","name":"거여1동","parent":"11710"},"geometry":{"type":"MultiPolygon","coordinates":[[[[127.14658,37.49798],[127.14546,37.49546],[127.14366,37.49116],[127.14272,37.48912],[127.14256,37.48917],[127.14237,37.48942],[127.14248,37.49005],[127.14247,37.49049],[127.14238,37.49093],[127.1421,37.49104],[127.14183,37.49165],[127.14149,37.49168],[127.13776,37.49043],[127.13667,37.48915],[127.13583,37.48952],[127.1359,37.49023],[127.13728,37.49147],[127.13731,37.4931],[127.13784,37.49364],[127.13796,37.4943],[127.13928,37.49566],[127.13981,37.49538],[127.14001,37.4958],[127.14076,37.4974],[127.14197,37.49943],[127.14658,37.49798]]]]}},{"type":"Feature","properties":{"code":"11710532","name":"거여2동","parent":"11710"},"geometry":{"type":"MultiPolygon","coordinates":[[[[127.14897,37.49628],[127.15032,37.49536],[127.15092,37.49483],[127.15106,37.49469],[127.15129,37.49445],[127.15151,37.49423],[127.15157,37.49416],[127.15181,37.49386],[127.1525,37.49297],[127.15131,37.49268],[127.15033,37.49205],[127.15049,37.4916],[127.15065,37.49144],[127.15036,37.4912],[127.14965,37.49048],[127.14842,37.49005],[127.1473,37.48902],[127.14733,37.48888],[127.1472,37.4882],[127.14681,37.48745],[127.1467,37.48733],[127.14631,37.48726],[127.14599,37.48727],[127.14572,37.4871],[127.14527,37.48737],[127.14509,37.48743],[127.14468,37.48741],[127.14458,37.48743],[127.14451,37.48753],[127.14448,37.48774],[127.14421,37.48816],[127.14434,37.48846],[127.14326,37.48876],[127.14304,37.48898],[127.14272,37.48912],[127.14366,37.49116],[127.14546,37.49546],[127.14658,37.49798],[127.14897,37.49628]]]]}},{"type":"Feature","properties":{"code":"11710540","name":"마천1동","parent":"11710"},"geometry":{"type":"MultiPolygon","coordinates":[[[[127.1601,37.49716],[127.16005,37.4946],[127.16005,37.49452],[127.16005,37.49445],[127.16003,37.49438],[127.15998,37.49422],[127.15981,37.49376],[127.15974,37.4936],[127.15842,37.4907],[127.1582,37.49046],[127.15768,37.49017],[127.15639,37.49094],[127.1525,37.49297],[127.15181,37.49386],[127.15157,37.49416],[127.15151,37.49423],[127.15129,37.49445],[127.15106,37.49469],[127.15092,37.49483],[127.15032,37.49536],[127.14897,37.49628],[127.15686,37.49839],[127.1601,37.49716]]]]}},{"type":"Feature","properties":{"code":"11710550","name":"마천2동","parent":"11710"},"geometry":{"type":"MultiPolygon","coordinates":[[[[127.1601,37.49716],[127.15686,37.49839],[127.14897,37.49628],[127.14658,37.49798],[127.14197,37.49943],[127.14437,37.50439],[127.14506,37.50365],[127.14513,37.50359],[127.14524,37.5035],[127.1456,37.50343],[127.14605,37.50337],[127.14769,37.50327],[127.14864,37.50373],[127.14929,37.50407],[127.15012,37.50451],[127.15084,37.50411],[127.15167,37.50337],[127.1519,37.50315],[127.15206,37.50311],[127.15215,37.50309],[127.15263,37.50312],[127.15282,37.50306],[127.15301,37.50291],[127.15321,37.50275],[127.15347,37.50275],[127.1536,37.50275],[127.15372,37.50275],[127.15396,37.50276],[127.15415,37.50269],[127.15456,37.50255],[127.15532,37.50229],[127.15617,37.502],[127.15647,37.5019],[127.15665,37.50209],[127.15762,37.50309],[127.15787,37.50301],[127.16055,37.50115],[127.16138,37.50025],[127.16138,37.49983],[127.16138,37.49961],[127.16056,37.4977],[127.1601,37.49716]]]]}},{"type":"Feature","properties":{"code":"11710561","name":"방이1동","parent":"11710"},"geometry":{"type":"MultiPolygon","coordinates":[[[[127.12799,37.51174],[127.1239,37.50537],[127.12243,37.50538],[127.11666,37.50776],[127.11676,37.50791],[127.12103,37.51459],[127.12799,37.51174]]]]}},{"type":"Feature","properties":{"code":"11710562","name":"방이2동","parent":"11710"},"geometry":{"type":"MultiPolygon","coordinates":[[[[127.12103,37.51459],[127.11676,37.50791],[127.11666,37.50776],[127.11535,37.50853],[127.11225,37.51036],[127.11116,37.51079],[127.11016,37.51118],[127.10809,37.51198],[127.10665,37.51551],[127.11276,37.51772],[127.11255,37.51752],[127.11274,37.51744],[127.11815,37.51545],[127.11865,37.51527],[127.11903,37.51513],[127.12047,37.51474],[127.12103,37.51459]]]]}},{"type":"Feature","properties":{"code":"11710566","name":"오륜동","parent":"11710"},"geometry":{"type":"MultiPolygon","coordinates":[[[[127.12874,37.52379],[127.13391,37.52154],[127.13942,37.51914],[127.14083,37.51851],[127.14321,37.51744],[127.14461,37.51696],[127.14488,37.5168],[127.14541,37.51649],[127.1454,37.51633],[127.1454,37.5161],[127.14466,37.51555],[127.14113,37.51564],[127.14329,37.51398],[127.14352,37.51269],[127.14258,37.51275],[127.14206,37.51279],[127.14113,37.51232],[127.14027,37.5099],[127.14025,37.50983],[127.13997,37.50859],[127.14023,37.50839],[127.13636,37.50837],[127.12799,37.51174],[127.12103,37.51459],[127.12047,37.51474],[127.11903,37.51513],[127.11865,37.51527],[127.11815,37.51545],[127.11274,37.51744],[127.11255,37.51752],[127.11276,37.51772],[127.1164,37.52396],[127.11916,37.52807],[127.12874,37.52379]]]]}},{"type":"Feature","properties":{"code":"11710570","name":"오금동","parent":"11710"},"geometry":{"type":"MultiPolygon","coordinates":[[[[127.14023,37.50839],[127.14128,37.50694],[127.14116,37.50631],[127.14093,37.5057],[127.14104,37.50557],[127.14114,37.50545],[127.14301,37.50467],[127.1434,37.50452],[127.14356,37.50445],[127.14437,37.50439],[127.14197,37.49943],[127.14076,37.4974],[127.14001,37.4958],[127.13981,37.49538],[127.13928,37.49566],[127.13498,37.49782],[127.13215,37.49953],[127.13104,37.50012],[127.13068,37.50031],[127.13052,37.50042],[127.12814,37.502],[127.1239,37.50537],[127.12799,37.51174],[127.13636,37.50837],[127.14023,37.50839]]]]}},{"type":"Feature","properties":{"code":"11710580","name":"송파1동","parent":"11710"},"geometry":{"type":"MultiPolygon","coordinates":[[[[127.11666,37.50776],[127.11513,37.50532],[127.11476,37.50476],[127.11413,37.50408],[127.11381,37.50376],[127.11351,37.50354],[127.11322,37.50333],[127.11318,37.5033],[127.11306,37.50322],[127.11261,37.50294],[127.11198,37.50264],[127.11144,37.50241],[127.11133,37.50237],[127.11114,37.50231],[127.11067,37.50216],[127.11015,37.50199],[127.1057,37.50651],[127.10403,37.50875],[127.10464,37.50924],[127.10809,37.51198],[127.11016,37.51118],[127.11116,37.51079],[127.11225,37.51036],[127.11535,37.50853],[127.11666,37.50776]]]]}},{"type":"Feature","properties":{"code":"11710590","name":"송파2동","parent":"11710"},"geometry":{"type":"MultiPolygon","coordinates":[[[[127.12243,37.50538],[127.12166,37.50227],[127.11984,37.50091],[127.11876,37.50025],[127.11847,37.50007],[127.11833,37.49999],[127.11752,37.49956],[127.11651,37.49902],[127.11493,37.49821],[127.1148,37.49821],[127.11162,37.5004],[127.11015,37.50199],[127.11067,37.50216],[127.11114,37.50231],[127.11133,37.50237],[127.11144,37.50241],[127.11198,37.50264],[127.11261,37.50294],[127.11306,37.50322],[127.11318,37.5033],[127.11322,37.50333],[127.11351,37.50354],[127.11381,37.50376],[127.11413,37.50408],[127.11476,37.50476],[127.11513,37.50532],[127.11666,37.50776],[127.12243,37.50538]]]]}},{"type":"Feature","properties":{"code":"11710600","name":"석촌동","parent":"11710"},"geometry":{"type":"MultiPolygon","coordinates":[[[[127.11015,37.50199],[127.11162,37.5004],[127.11059,37.50007],[127.10964,37.501],[127.09815,37.49759],[127.09762,37.49743],[127.09734,37.49694],[127.09687,37.49711],[127.09656,37.49721],[127.09661,37.49788],[127.09694,37.50236],[127.09701,37.50317],[127.09705,37.50364],[127.09708,37.50396],[127.09731,37.50654],[127.09767,37.50648],[127.09803,37.50645],[127.09846,37.50646],[127.09875,37.50649],[127.09892,37.50651],[127.09908,37.50653],[127.09942,37.50658],[127.09988,37.5067],[127.10029,37.50684],[127.10066,37.50699],[127.10118,37.5072],[127.10214,37.50763],[127.10265,37.50788],[127.10299,37.50805],[127.10403,37.50875],[127.1057,37.50651],[127.11015,37.50199]]]]}},{"type":"Feature","properties":{"code":"11710610","name":"삼전동","parent":"11710"},"geometry":{"type":"MultiPolygon","coordinates":[[[[127.09731,37.50654],[127.09708,37.50396],[127.09705,37.50364],[127.09701,37.50317],[127.09694,37.50236],[127.09661,37.49788],[127.09656,37.49721],[127.09687,37.49711],[127.09734,37.49694],[127.09674,37.49583],[127.09047,37.49747],[127.08363,37.49926],[127.09072,37.50753],[127.09731,37.50654]]]]}},{"type":"Feature","properties":{"code":"11710620","name":"가락본동","parent":"11710"},"geometry":{"type":"MultiPolygon","coordinates":[[[[127.1239,37.50537],[127.12814,37.502],[127.12761,37.50146],[127.12734,37.50117],[127.12722,37.50102],[127.12699,37.50074],[127.12664,37.50031],[127.12335,37.49498],[127.12508,37.49293],[127.12626,37.49151],[127.12108,37.489],[127.11843,37.49252],[127.11667,37.49482],[127.11568,37.49593],[127.11552,37.49611],[127.11525,37.49642],[127.11522,37.49644],[127.11463,37.49723],[127.11464,37.49733],[127.1148,37.49821],[127.11493,37.49821],[127.11651,37.49902],[127.11752,37.49956],[127.11833,37.49999],[127.11847,37.50007],[127.11876,37.50025],[127.11984,37.50091],[127.12166,37.50227],[127.12243,37.50538],[127.1239,37.50537]]]]}},{"type":"Feature","properties":{"code":"11710631","name":"가락1동","parent":"11710"},"geometry":{"type":"MultiPolygon","coordinates":[[[[127.11162,37.5004],[127.1148,37.49821],[127.11464,37.49733],[127.11463,37.49723],[127.11522,37.49644],[127.11525,37.49642],[127.11552,37.49611],[127.11568,37.49593],[127.11667,37.49482],[127.11843,37.49252],[127.10814,37.48931],[127.10568,37.49141],[127.1048,37.49204],[127.10437,37.4923],[127.10365,37.49273],[127.10222,37.49353],[127.10212,37.49358],[127.10197,37.49364],[127.09674,37.49583],[127.09734,37.49694],[127.09762,37.49743],[127.09815,37.49759],[127.10964,37.501],[127.11059,37.50007],[127.11162,37.5004]]]]}},{"type":"Feature","properties":{"code":"11710632","name":"가락2동","parent":"11710"},"geometry":{"type":"MultiPolygon","coordinates":[[[[127.13928,37.49566],[127.13796,37.4943],[127.13355,37.49053],[127.13036,37.49285],[127.13019,37.49296],[127.12991,37.49316],[127.12961,37.49322],[127.12884,37.49288],[127.12872,37.49282],[127.12804,37.49247],[127.12685,37.49183],[127.12626,37.49151],[127.12508,37.49293],[127.12335,37.49498],[127.12664,37.50031],[127.12699,37.50074],[127.12722,37.50102],[127.12734,37.50117],[127.12761,37.50146],[127.12814,37.502],[127.13052,37.50042],[127.13068,37.50031],[127.13104,37.50012],[127.13215,37.49953],[127.13498,37.49782],[127.13928,37.49566]]]]}},{"type":"Feature","properties":{"code":"11710641","name":"문정1동","parent":"11710"},"geometry":{"type":"MultiPolygon","coordinates":[[[[127.13355,37.49053],[127.12981,37.48725],[127.1264,37.48281],[127.12417,37.48237],[127.12108,37.489],[127.12626,37.49151],[127.12685,37.49183],[127.12804,37.49247],[127.12872,37.49282],[127.12884,37.49288],[127.12961,37.49322],[127.12991,37.49316],[127.13019,37.49296],[127.13036,37.49285],[127.13355,37.49053]]]]}},{"type":"Feature","properties":{"code":"11710642","name":"문정2동","parent":"11710"},"geometry":{"type":"MultiPolygon","coordinates":[[[[127.12108,37.489],[127.12417,37.48237],[127.12469,37.48154],[127.12507,37.48093],[127.12534,37.48038],[127.12541,37.48023],[127.12578,37.47939],[127.12649,37.47753],[127.12703,37.47594],[127.1269,37.47351],[127.12659,37.46885],[127.12577,37.46921],[127.12507,37.4689],[127.12383,37.4663],[127.12229,37.46521],[127.12236,37.46545],[127.1224,37.4656],[127.12242,37.46586],[127.1223,37.46676],[127.12218,37.46752],[127.12151,37.46882],[127.12054,37.47038],[127.11961,37.47168],[127.1188,37.4728],[127.11459,37.47852],[127.1117,37.48244],[127.11109,37.48289],[127.11104,37.48294],[127.1111,37.48294],[127.11139,37.48305],[127.11174,37.48318],[127.11198,37.48332],[127.11218,37.48344],[127.11228,37.48354],[127.11156,37.48456],[127.11019,37.48688],[127.10814,37.48931],[127.11843,37.49252],[127.12108,37.489]]]]}},{"type":"Feature","properties":{"code":"11710650","name":"잠실본동","parent":"11710"},"geometry":{"type":"MultiPolygon","coordinates":[[[[127.08669,37.51172],[127.08557,37.51143],[127.08585,37.5104],[127.08594,37.51018],[127.08601,37.51003],[127.08603,37.50999],[127.08606,37.50994],[127.08608,37.50989],[127.08611,37.50984],[127.08623,37.50964],[127.0863,37.50954],[127.08637,37.50945],[127.08642,37.50937],[127.08664,37.50911],[127.08689,37.50888],[127.08693,37.50884],[127.08697,37.5088],[127.08723,37.5086],[127.08751,37.5084],[127.08794,37.50818],[127.08826,37.50804],[127.08868,37.50789],[127.08882,37.50786],[127.08897,37.50783],[127.09072,37.50753],[127.08363,37.49926],[127.07549,37.5012],[127.07318,37.50213],[127.07514,37.50353],[127.07519,37.50357],[127.07539,37.50371],[127.07618,37.50429],[127.07732,37.50512],[127.07776,37.50545],[127.07779,37.50547],[127.07811,37.50571],[127.07829,37.50584],[127.07851,37.50601],[127.07947,37.50673],[127.07939,37.50717],[127.07938,37.50721],[127.07924,37.5078],[127.07833,37.51187],[127.08133,37.51176],[127.08669,37.51172]]]]}},{"type":"Feature","properties":{"code":"11710690","name":"잠실4동","parent":"11710"},"geometry":{"type":"MultiPolygon","coordinates":[[[[127.1164,37.52396],[127.11276,37.51772],[127.10665,37.51551],[127.1033,37.5215],[127.10321,37.52166],[127.10301,37.52201],[127.09812,37.52756],[127.09896,37.52795],[127.10434,37.52422],[127.10616,37.5239],[127.1164,37.52396]]]]}},{"type":"Feature","properties":{"code":"11710710","name":"잠실6동","parent":"11710"},"geometry":{"type":"MultiPolygon","coordinates":[[[[127.10665,37.51551],[127.10809,37.51198],[127.10464,37.50924],[127.10403,37.50875],[127.10127,37.5117],[127.09888,37.51487],[127.09866,37.51516],[127.09764,37.51648],[127.09608,37.5185],[127.09512,37.51974],[127.09421,37.52091],[127.0924,37.52335],[127.09192,37.52399],[127.09044,37.526],[127.09225,37.52679],[127.09812,37.52756],[127.10301,37.52201],[127.10321,37.52166],[127.1033,37.5215],[127.10665,37.51551]]]]}},{"type":"Feature","properties":{"code":"11710720","name":"잠실7동","parent":"11710"},"geometry":{"type":"MultiPolygon","coordinates":[[[[127.07318,37.50213],[127.07291,37.50232],[127.07266,37.5025],[127.07249,37.50262],[127.07121,37.50352],[127.07002,37.50478],[127.06999,37.50481],[127.06981,37.50504],[127.06971,37.50539],[127.06943,37.50645],[127.0688,37.51],[127.07188,37.51076],[127.07363,37.51117],[127.07833,37.51187],[127.07924,37.5078],[127.07938,37.50721],[127.07939,37.50717],[127.07947,37.50673],[127.07851,37.50601],[127.07829,37.50584],[127.07811,37.50571],[127.07779,37.50547],[127.07776,37.50545],[127.07732,37.50512],[127.07618,37.50429],[127.07539,37.50371],[127.07519,37.50357],[127.07514,37.50353],[127.07318,37.50213]]]]}},{"type":"Feature","properties":{"code":"11710670","name":"잠실2동","parent":"11710"},"geometry":{"type":"MultiPolygon","coordinates":[[[[127.08669,37.51172],[127.08133,37.51176],[127.07833,37.51187],[127.07363,37.51117],[127.07188,37.51076],[127.0688,37.51],[127.06846,37.51028],[127.06844,37.51143],[127.06838,37.51231],[127.06716,37.51998],[127.0665,37.52093],[127.06696,37.52508],[127.07258,37.52378],[127.07285,37.52371],[127.07695,37.52359],[127.07758,37.52358],[127.07989,37.52387],[127.08236,37.52418],[127.08342,37.52431],[127.08429,37.52442],[127.08559,37.52474],[127.08759,37.52525],[127.08852,37.52549],[127.08852,37.52402],[127.08851,37.5232],[127.09066,37.51703],[127.09117,37.5156],[127.09194,37.51346],[127.09225,37.51261],[127.09255,37.51191],[127.0925,37.51191],[127.09169,37.51182],[127.0897,37.5116],[127.08877,37.5115],[127.08669,37.51172]]]]}},{"type":"Feature","properties":{"code":"11710680","name":"잠실3동","parent":"11710"},"geometry":{"type":"MultiPolygon","coordinates":[[[[127.10403,37.50875],[127.10299,37.50805],[127.10265,37.50788],[127.10214,37.50763],[127.10118,37.5072],[127.10066,37.50699],[127.10029,37.50684],[127.09988,37.5067],[127.09942,37.50658],[127.09908,37.50653],[127.09892,37.50651],[127.09875,37.50649],[127.09846,37.50646],[127.09803,37.50645],[127.09767,37.50648],[127.09731,37.50654],[127.09072,37.50753],[127.08897,37.50783],[127.08882,37.50786],[127.08868,37.50789],[127.08826,37.50804],[127.08794,37.50818],[127.08751,37.5084],[127.08723,37.5086],[127.08697,37.5088],[127.08693,37.50884],[127.08689,37.50888],[127.08664,37.50911],[127.08642,37.50937],[127.08637,37.50945],[127.0863,37.50954],[127.08623,37.50964],[127.08611,37.50984],[127.08608,37.50989],[127.08606,37.50994],[127.08603,37.50999],[127.08601,37.51003],[127.08594,37.51018],[127.08585,37.5104],[127.08557,37.51143],[127.08669,37.51172],[127.08877,37.5115],[127.0897,37.5116],[127.09169,37.51182],[127.0925,37.51191],[127.09255,37.51191],[127.09225,37.51261],[127.09194,37.51346],[127.09117,37.5156],[127.09066,37.51703],[127.08851,37.5232],[127.08852,37.52402],[127.08852,37.52549],[127.09044,37.526],[127.09192,37.52399],[127.0924,37.52335],[127.09421,37.52091],[127.09512,37.51974],[127.09608,37.5185],[127.09764,37.51648],[127.09866,37.51516],[127.09888,37.51487],[127.10127,37.5117],[127.10403,37.50875]]]]}},{"type":"Feature","properties":{"code":"11710646","name":"장지동","parent":"11710"},"geometry":{"type":"MultiPolygon","coordinates":[[[[127.13667,37.48915],[127.13535,37.48142],[127.13684,37.48148],[127.13724,37.48159],[127.13769,37.48166],[127.13907,37.48171],[127.13854,37.48081],[127.1383,37.48048],[127.13759,37.47988],[127.13719,37.47963],[127.13685,37.47946],[127.1364,37.47933],[127.13627,37.47932],[127.13575,37.47918],[127.13512,37.47896],[127.13368,37.47826],[127.13037,37.47579],[127.1269,37.47351],[127.12703,37.47594],[127.12649,37.47753],[127.12578,37.47939],[127.12541,37.48023],[127.12534,37.48038],[127.12507,37.48093],[127.12469,37.48154],[127.12417,37.48237],[127.1264,37.48281],[127.12981,37.48725],[127.13355,37.49053],[127.13796,37.4943],[127.13784,37.49364],[127.13731,37.4931],[127.13728,37.49147],[127.1359,37.49023],[127.13583,37.48952],[127.13667,37.48915]]]]}},{"type":"Feature","properties":{"code":"11710647","name":"위례동","parent":"11710"},"geometry":{"type":"MultiPolygon","coordinates":[[[[127.15768,37.49017],[127.1573,37.48963],[127.15764,37.48914],[127.15225,37.48625],[127.15196,37.48658],[127.14984,37.48527],[127.14874,37.48399],[127.14772,37.48175],[127.1474,37.47722],[127.14424,37.47732],[127.14419,37.47656],[127.1439,37.476],[127.14354,37.47525],[127.14345,37.4741],[127.13715,37.47434],[127.13259,37.47485],[127.13237,37.47123],[127.13229,37.47028],[127.13187,37.46973],[127.13268,37.46823],[127.13096,37.4677],[127.13056,37.46763],[127.12987,37.46791],[127.12873,37.46791],[127.12869,37.46793],[127.12863,37.46795],[127.1282,37.46814],[127.12659,37.46885],[127.1269,37.47351],[127.13037,37.47579],[127.13368,37.47826],[127.13512,37.47896],[127.13575,37.47918],[127.13627,37.47932],[127.1364,37.47933],[127.13685,37.47946],[127.13719,37.47963],[127.13759,37.47988],[127.1383,37.48048],[127.13854,37.48081],[127.13907,37.48171],[127.13769,37.48166],[127.13724,37.48159],[127.13684,37.48148],[127.13535,37.48142],[127.13667,37.48915],[127.13776,37.49043],[127.14149,37.49168],[127.14183,37.49165],[127.1421,37.49104],[127.14238,37.49093],[127.14247,37.49049],[127.14248,37.49005],[127.14237,37.48942],[127.14256,37.48917],[127.14272,37.48912],[127.14304,37.48898],[127.14326,37.48876],[127.14434,37.48846],[127.14421,37.48816],[127.14448,37.48774],[127.14451,37.48753],[127.14458,37.48743],[127.14468,37.48741],[127.14509,37.48743],[127.14527,37.48737],[127.14572,37.4871],[127.14599,37.48727],[127.14631,37.48726],[127.1467,37.48733],[127.14681,37.48745],[127.1472,37.4882],[127.14733,37.48888],[127.1473,37.48902],[127.14842,37.49005],[127.14965,37.49048],[127.15036,37.4912],[127.15065,37.49144],[127.15049,37.4916],[127.15033,37.49205],[127.15131,37.49268],[127.1525,37.49297],[127.15639,37.49094],[127.15768,37.49017]]]]}}]}