{"type":"FeatureCollection","features":[{"type":"Feature","properties":{"code":"12780250","name":"강진읍","parent":"12780"},"geometry":{"type":"MultiPolygon","coordinates":[[[[126.76725,34.66619],[126.76733,34.66509],[126.76706,34.6625],[126.7672,34.66175],[126.76743,34.66169],[126.7681,34.66167],[126.76868,34.66163],[126.7695,34.66145],[126.7724,34.66038],[126.77326,34.65994],[126.77399,34.65952],[126.77548,34.65861],[126.77615,34.65815],[126.78164,34.65153],[126.7818,34.65103],[126.7817,34.65082],[126.781,34.65005],[126.78075,34.65015],[126.78007,34.65122],[126.77931,34.65091],[126.77927,34.65084],[126.77955,34.64953],[126.78034,34.64627],[126.78074,34.64538],[126.78045,34.64378],[126.77961,34.64294],[126.7794,34.64254],[126.77957,34.64038],[126.7796,34.64019],[126.77971,34.63981],[126.77995,34.63933],[126.78027,34.63887],[126.78189,34.63661],[126.78224,34.63628],[126.7827,34.636],[126.7832,34.63551],[126.78327,34.63437],[126.78305,34.63399],[126.78262,34.63326],[126.78251,34.63307],[126.78178,34.63287],[126.78131,34.63225],[126.78107,34.63178],[126.78085,34.63132],[126.78053,34.63061],[126.78042,34.6302],[126.78039,34.62892],[126.78035,34.62764],[126.78007,34.62622],[126.77968,34.62509],[126.77896,34.62372],[126.77798,34.62272],[126.77699,34.62171],[126.77337,34.61837],[126.77146,34.61717],[126.77072,34.61692],[126.77004,34.61603],[126.77017,34.61507],[126.77042,34.61317],[126.77119,34.60744],[126.77132,34.60649],[126.77135,34.60619],[126.77169,34.60302],[126.77166,34.59988],[126.77163,34.59673],[126.77075,34.59506],[126.77031,34.59422],[126.76942,34.59254],[126.76938,34.59227],[126.76993,34.59191],[126.76796,34.59069],[126.76735,34.59036],[126.76499,34.58922],[126.76329,34.58882],[126.76259,34.58884],[126.75512,34.58914],[126.75462,34.58919],[126.75367,34.58931],[126.74689,34.59087],[126.74148,34.592],[126.7409,34.59204],[126.7388,34.59245],[126.73192,34.59419],[126.73128,34.59469],[126.72924,34.59661],[126.72874,34.59744],[126.72865,34.59777],[126.72909,34.59835],[126.72902,34.59896],[126.7285,34.59987],[126.72738,34.60156],[126.72141,34.60402],[126.71924,34.60478],[126.71876,34.60501],[126.71836,34.60532],[126.71632,34.60708],[126.71266,34.60924],[126.71224,34.6093],[126.71197,34.60964],[126.71019,34.61304],[126.71034,34.61891],[126.71056,34.62092],[126.71087,34.62243],[126.71085,34.62314],[126.70883,34.62458],[126.70754,34.62515],[126.70679,34.62544],[126.70614,34.62556],[126.70553,34.62565],[126.70433,34.62585],[126.70382,34.62601],[126.70275,34.62647],[126.70223,34.6268],[126.70191,34.62711],[126.70168,34.62741],[126.70098,34.62897],[126.70083,34.62973],[126.70071,34.63008],[126.70068,34.63016],[126.69978,34.63001],[126.69805,34.63015],[126.69762,34.62972],[126.69553,34.62904],[126.69361,34.62845],[126.69332,34.62849],[126.6912,34.62943],[126.68963,34.63073],[126.68815,34.63161],[126.68739,34.63189],[126.6866,34.63205],[126.68531,34.63214],[126.68446,34.63217],[126.6826,34.63258],[126.68233,34.6327],[126.68266,34.63391],[126.68282,34.63428],[126.68363,34.63595],[126.68443,34.63685],[126.68471,34.63708],[126.686,34.63732],[126.68662,34.63749],[126.6883,34.63886],[126.68834,34.63904],[126.68893,34.64129],[126.68962,34.64342],[126.69018,34.64502],[126.69307,34.64779],[126.69517,34.64926],[126.69703,34.64982],[126.69724,34.64996],[126.69735,34.65095],[126.6963,34.65398],[126.6939,34.6563],[126.69211,34.65803],[126.69244,34.6585],[126.69438,34.66096],[126.69544,34.66143],[126.69666,34.66134],[126.69712,34.66131],[126.69831,34.66104],[126.70171,34.66205],[126.70206,34.66163],[126.70288,34.66069],[126.70416,34.65974],[126.70629,34.65828],[126.70756,34.65761],[126.70761,34.65759],[126.70768,34.65759],[126.712,34.65809],[126.71511,34.65861],[126.71523,34.65862],[126.71646,34.65854],[126.71715,34.65838],[126.7175,34.65828],[126.71779,34.65816],[126.71791,34.65807],[126.71824,34.65774],[126.71846,34.65749],[126.71865,34.65731],[126.71873,34.65725],[126.7189,34.65712],[126.71901,34.65707],[126.71917,34.65707],[126.72334,34.65771],[126.72346,34.65773],[126.72366,34.65779],[126.724,34.65793],[126.72433,34.6581],[126.72463,34.65827],[126.72479,34.65839],[126.72487,34.65847],[126.72511,34.65904],[126.72559,34.66003],[126.72577,34.66034],[126.72596,34.66038],[126.72606,34.66038],[126.72645,34.66028],[126.72686,34.66012],[126.72712,34.65999],[126.72865,34.65896],[126.72887,34.65869],[126.72975,34.65751],[126.73075,34.6557],[126.73086,34.65547],[126.73084,34.65503],[126.73084,34.6548],[126.73091,34.65466],[126.731,34.65458],[126.73126,34.6545],[126.73135,34.65449],[126.7317,34.65448],[126.73215,34.65451],[126.73232,34.65455],[126.73259,34.65473],[126.73447,34.6567],[126.73457,34.65689],[126.73458,34.65702],[126.73457,34.65714],[126.73444,34.65766],[126.7344,34.65806],[126.73442,34.65821],[126.73447,34.65837],[126.73458,34.65854],[126.73475,34.65873],[126.73722,34.66013],[126.73732,34.66017],[126.73737,34.66019],[126.7374,34.66021],[126.73753,34.66024],[126.73807,34.66035],[126.73862,34.66042],[126.73922,34.66044],[126.74002,34.66043],[126.74043,34.6605],[126.74477,34.6622],[126.74486,34.66226],[126.74489,34.66232],[126.74491,34.66243],[126.74492,34.66262],[126.74491,34.66286],[126.74488,34.66311],[126.74489,34.66339],[126.74493,34.66353],[126.745,34.66369],[126.74591,34.66522],[126.74599,34.66527],[126.74611,34.66528],[126.74688,34.6654],[126.74729,34.66544],[126.75226,34.66575],[126.75243,34.66574],[126.7526,34.66573],[126.75288,34.66568],[126.75388,34.66541],[126.75593,34.66496],[126.76053,34.66419],[126.76063,34.66418],[126.76081,34.66419],[126.76202,34.66423],[126.76212,34.66424],[126.76229,34.66428],[126.76254,34.66434],[126.76263,34.66438],[126.76333,34.66487],[126.76342,34.66495],[126.7635,34.66503],[126.76372,34.6653],[126.76386,34.66544],[126.76402,34.66556],[126.76415,34.66566],[126.76431,34.66576],[126.76447,34.66586],[126.76465,34.66596],[126.76478,34.66602],[126.76512,34.66616],[126.76529,34.66622],[126.76543,34.66625],[126.76558,34.66627],[126.7658,34.66627],[126.76597,34.66626],[126.76638,34.66624],[126.76725,34.66619]]]]}},{"type":"Feature","properties":{"code":"12780310","name":"군동면","parent":"12780"},"geometry":{"type":"MultiPolygon","coordinates":[[[[126.82876,34.6712],[126.82983,34.67161],[126.83472,34.67348],[126.83539,34.67381],[126.83766,34.67463],[126.83828,34.67483],[126.8393,34.67473],[126.84103,34.67445],[126.84237,34.6742],[126.84354,34.67388],[126.84386,34.67395],[126.84411,34.67431],[126.8445,34.67501],[126.8447,34.67642],[126.84454,34.6775],[126.84438,34.67795],[126.84541,34.67989],[126.84583,34.68055],[126.84677,34.68166],[126.84747,34.68198],[126.84836,34.68216],[126.84891,34.68168],[126.84914,34.68143],[126.8495,34.68112],[126.84994,34.68086],[126.85477,34.68119],[126.85566,34.68165],[126.85567,34.68067],[126.85587,34.67884],[126.85801,34.67844],[126.85958,34.67823],[126.8602,34.67812],[126.86059,34.67785],[126.86153,34.67619],[126.86178,34.67571],[126.86255,34.67402],[126.86369,34.6721],[126.86431,34.67202],[126.86468,34.67194],[126.86514,34.67182],[126.8656,34.67163],[126.86609,34.67135],[126.86749,34.67035],[126.86815,34.66908],[126.86837,34.66827],[126.86774,34.66463],[126.8676,34.66413],[126.86704,34.66334],[126.8665,34.66269],[126.86566,34.6608],[126.86556,34.66042],[126.86648,34.65846],[126.8668,34.65808],[126.86718,34.65765],[126.86744,34.65748],[126.86792,34.65723],[126.86841,34.65709],[126.8692,34.65696],[126.86968,34.65677],[126.87236,34.6544],[126.87399,34.65279],[126.87392,34.65273],[126.87311,34.65192],[126.87198,34.65093],[126.87144,34.64991],[126.871,34.64906],[126.87058,34.64799],[126.87036,34.64675],[126.87052,34.64655],[126.87085,34.64648],[126.87158,34.64725],[126.8721,34.64771],[126.87298,34.6479],[126.87388,34.64716],[126.87198,34.64439],[126.87145,34.64367],[126.8706,34.64006],[126.87134,34.63408],[126.87142,34.63372],[126.87403,34.63],[126.87477,34.62931],[126.8773,34.62715],[126.87912,34.62629],[126.87839,34.6256],[126.87635,34.62363],[126.87525,34.62183],[126.87482,34.62061],[126.87463,34.62002],[126.87422,34.61994],[126.87047,34.61975],[126.86997,34.61973],[126.8692,34.61987],[126.86695,34.62043],[126.86465,34.6216],[126.86448,34.62169],[126.8643,34.62191],[126.86394,34.6225],[126.86388,34.62263],[126.86382,34.62271],[126.86374,34.62275],[126.8636,34.62278],[126.86345,34.62282],[126.85838,34.62397],[126.85826,34.62398],[126.85815,34.62393],[126.85396,34.62192],[126.85219,34.62088],[126.85086,34.61986],[126.85069,34.61972],[126.85027,34.61937],[126.84985,34.61885],[126.84973,34.61867],[126.84973,34.61855],[126.84973,34.61845],[126.84847,34.61803],[126.8476,34.61795],[126.84688,34.61818],[126.84626,34.6184],[126.84483,34.61837],[126.84414,34.61819],[126.84349,34.61802],[126.84286,34.61784],[126.83984,34.61607],[126.83901,34.61556],[126.8375,34.6143],[126.83765,34.61339],[126.8381,34.61084],[126.83851,34.61037],[126.8391,34.60972],[126.83921,34.60933],[126.83901,34.60916],[126.83785,34.6086],[126.83726,34.60856],[126.83655,34.60853],[126.83541,34.60827],[126.83378,34.60783],[126.83199,34.60718],[126.83139,34.60625],[126.83082,34.60484],[126.82957,34.60454],[126.82895,34.60457],[126.82717,34.60504],[126.82513,34.60478],[126.82433,34.60447],[126.82325,34.60405],[126.82241,34.60373],[126.81925,34.60283],[126.81898,34.60275],[126.81814,34.60255],[126.8143,34.60159],[126.81404,34.60153],[126.81357,34.60154],[126.81294,34.60168],[126.8124,34.60181],[126.81113,34.60213],[126.80907,34.6029],[126.80866,34.60316],[126.80455,34.60652],[126.80336,34.60815],[126.80298,34.6087],[126.80297,34.60911],[126.8033,34.6098],[126.80323,34.61021],[126.80298,34.61073],[126.80113,34.61271],[126.80059,34.61323],[126.79962,34.61357],[126.79852,34.6137],[126.79674,34.61367],[126.79515,34.61367],[126.79087,34.6138],[126.7896,34.61399],[126.78941,34.61407],[126.78809,34.6148],[126.78731,34.61546],[126.78725,34.61598],[126.78716,34.61687],[126.78705,34.61697],[126.78668,34.61727],[126.7841,34.61722],[126.78282,34.61719],[126.78153,34.61717],[126.78144,34.61747],[126.78138,34.61768],[126.78104,34.6189],[126.78111,34.6194],[126.78124,34.62007],[126.78128,34.62049],[126.78129,34.62064],[126.78066,34.62163],[126.78064,34.62165],[126.781,34.62423],[126.78173,34.62994],[126.78176,34.63095],[126.78185,34.63146],[126.78202,34.63201],[126.78239,34.63287],[126.78251,34.63307],[126.78262,34.63326],[126.78305,34.63399],[126.78327,34.63437],[126.7832,34.63551],[126.7827,34.636],[126.78224,34.63628],[126.78189,34.63661],[126.78027,34.63887],[126.77995,34.63933],[126.77971,34.63981],[126.7796,34.64019],[126.77957,34.64038],[126.7794,34.64254],[126.77961,34.64294],[126.78045,34.64378],[126.78074,34.64538],[126.78034,34.64627],[126.77955,34.64953],[126.77927,34.65084],[126.77931,34.65091],[126.78007,34.65122],[126.78075,34.65015],[126.781,34.65005],[126.7817,34.65082],[126.7818,34.65103],[126.78164,34.65153],[126.77615,34.65815],[126.77548,34.65861],[126.77399,34.65952],[126.77326,34.65994],[126.7724,34.66038],[126.7695,34.66145],[126.76868,34.66163],[126.7681,34.66167],[126.76743,34.66169],[126.7672,34.66175],[126.76706,34.6625],[126.76733,34.66509],[126.76725,34.66619],[126.77031,34.67013],[126.77217,34.67004],[126.77332,34.67006],[126.77408,34.67039],[126.77445,34.67119],[126.77593,34.67264],[126.77639,34.67273],[126.77905,34.67238],[126.77972,34.67227],[126.78034,34.67208],[126.78099,34.67187],[126.78143,34.67121],[126.78164,34.67078],[126.78134,34.6702],[126.78273,34.66998],[126.78377,34.66985],[126.78739,34.67318],[126.7875,34.67409],[126.78787,34.67452],[126.78826,34.67472],[126.79467,34.67707],[126.79556,34.6771],[126.7963,34.67698],[126.79676,34.67698],[126.7982,34.67744],[126.79873,34.67775],[126.79937,34.67813],[126.79981,34.67851],[126.7995,34.68157],[126.79934,34.682],[126.79904,34.68244],[126.7989,34.68284],[126.79924,34.68317],[126.79971,34.68348],[126.80024,34.68374],[126.80287,34.68299],[126.80334,34.68263],[126.80458,34.68284],[126.80508,34.68288],[126.80707,34.68264],[126.80768,34.68249],[126.80836,34.68199],[126.8091,34.68127],[126.80945,34.68099],[126.80989,34.68074],[126.81075,34.68032],[126.81433,34.67861],[126.81477,34.67853],[126.81579,34.6786],[126.8161,34.67864],[126.81686,34.6788],[126.81725,34.6792],[126.81759,34.67971],[126.81828,34.67989],[126.8199,34.67957],[126.82209,34.67834],[126.8223,34.67805],[126.82325,34.67649],[126.82379,34.67561],[126.82467,34.67408],[126.82516,34.67303],[126.8255,34.67225],[126.8256,34.67168],[126.82608,34.67112],[126.82648,34.67088],[126.82816,34.67109],[126.82876,34.6712]]]]}},{"type":"Feature","properties":{"code":"12780320","name":"칠량면","parent":"12780"},"geometry":{"type":"MultiPolygon","coordinates":[[[[126.84973,34.61845],[126.84974,34.61834],[126.84979,34.61809],[126.8499,34.61799],[126.85031,34.6176],[126.8512,34.61694],[126.85141,34.6168],[126.85192,34.6166],[126.85252,34.61636],[126.85292,34.61616],[126.85366,34.61571],[126.85377,34.6156],[126.85385,34.61548],[126.85387,34.61536],[126.85399,34.61439],[126.85401,34.61407],[126.85396,34.61367],[126.85384,34.6127],[126.85351,34.60944],[126.85349,34.6058],[126.85351,34.60477],[126.85353,34.60466],[126.85355,34.60456],[126.8537,34.6042],[126.85605,34.59991],[126.85627,34.5996],[126.8568,34.59897],[126.85714,34.59873],[126.8583,34.5983],[126.861,34.59747],[126.86151,34.59735],[126.86261,34.59721],[126.86293,34.59721],[126.86344,34.5972],[126.86357,34.59717],[126.86378,34.59708],[126.86726,34.5953],[126.86797,34.5947],[126.86816,34.59453],[126.86819,34.59448],[126.86819,34.59438],[126.86782,34.5937],[126.86653,34.59175],[126.86603,34.59135],[126.86592,34.59123],[126.86587,34.59111],[126.86585,34.591],[126.86885,34.58468],[126.86972,34.58297],[126.86981,34.58292],[126.87041,34.58274],[126.87072,34.58258],[126.87117,34.58228],[126.87645,34.57799],[126.87731,34.57701],[126.87783,34.57626],[126.87804,34.57587],[126.87808,34.57578],[126.87781,34.57506],[126.87676,34.57378],[126.87605,34.57335],[126.87621,34.57234],[126.87667,34.56994],[126.87743,34.56869],[126.87801,34.56811],[126.87851,34.56742],[126.87862,34.56703],[126.87903,34.56542],[126.87897,34.56424],[126.87786,34.56284],[126.87697,34.56172],[126.87658,34.56072],[126.87664,34.55853],[126.8767,34.55743],[126.87671,34.55513],[126.87645,34.55345],[126.87621,34.55196],[126.87636,34.55151],[126.8772,34.55042],[126.87751,34.5501],[126.87765,34.54999],[126.8813,34.54826],[126.88164,34.54812],[126.88267,34.54787],[126.88357,34.54769],[126.88421,34.54754],[126.88455,34.54734],[126.8849,34.54671],[126.88578,34.54504],[126.88581,34.54445],[126.88428,34.5435],[126.88336,34.54246],[126.88305,34.54187],[126.8827,34.54126],[126.88185,34.54027],[126.88159,34.54017],[126.88096,34.5401],[126.87905,34.53997],[126.87766,34.53998],[126.87706,34.53979],[126.87555,34.5387],[126.87464,34.53747],[126.87346,34.53626],[126.87251,34.53571],[126.87241,34.53565],[126.8696,34.53425],[126.86641,34.53249],[126.86613,34.53222],[126.8658,34.53185],[126.86555,34.53155],[126.86546,34.53138],[126.86522,34.53067],[126.8652,34.53056],[126.86525,34.52981],[126.8653,34.52963],[126.8653,34.52958],[126.86529,34.52949],[126.86518,34.52938],[126.86456,34.52898],[126.86401,34.52866],[126.86319,34.52835],[126.86305,34.52831],[126.86291,34.52827],[126.86312,34.52975],[126.86314,34.53001],[126.86314,34.53059],[126.86282,34.53328],[126.86255,34.53395],[126.86243,34.53418],[126.86197,34.53464],[126.86021,34.53636],[126.85997,34.53653],[126.85709,34.53842],[126.85279,34.54134],[126.84977,34.5435],[126.84938,34.54403],[126.84903,34.54428],[126.84713,34.54522],[126.84642,34.54542],[126.84535,34.54557],[126.84504,34.54546],[126.84454,34.54568],[126.84388,34.54592],[126.84359,34.54596],[126.84316,34.54596],[126.84297,34.54589],[126.83998,34.54463],[126.83961,34.54437],[126.83856,34.54312],[126.83827,34.54281],[126.83672,34.54207],[126.83658,34.54205],[126.8361,34.54205],[126.83555,34.54207],[126.83367,34.54231],[126.83317,34.54245],[126.83245,34.5426],[126.83228,34.5426],[126.83156,34.54248],[126.83106,34.54234],[126.82896,34.54153],[126.82694,34.54053],[126.82669,34.54034],[126.82648,34.54001],[126.8263,34.53964],[126.82624,34.53923],[126.82624,34.53841],[126.82624,34.53825],[126.8262,34.53819],[126.82614,34.5381],[126.82368,34.53649],[126.82344,34.53642],[126.82323,34.53646],[126.82253,34.53674],[126.82228,34.53689],[126.82102,34.53776],[126.82058,34.53802],[126.82046,34.53805],[126.82009,34.53805],[126.81992,34.53801],[126.81697,34.53693],[126.81689,34.53689],[126.81674,34.53675],[126.81567,34.53548],[126.81503,34.53459],[126.81487,34.53444],[126.81417,34.53411],[126.81351,34.53384],[126.81326,34.53375],[126.81317,34.53376],[126.81187,34.53482],[126.81148,34.53519],[126.80947,34.53746],[126.80939,34.53765],[126.80939,34.53784],[126.80939,34.53797],[126.80974,34.53871],[126.80984,34.53897],[126.80984,34.53933],[126.8098,34.53962],[126.80922,34.5416],[126.80907,34.54191],[126.80891,34.54218],[126.80812,34.5433],[126.8077,34.5435],[126.80717,34.54362],[126.80634,34.54367],[126.80459,34.54368],[126.80407,34.54368],[126.8039,34.54366],[126.80188,34.5434],[126.80039,34.543],[126.80021,34.54296],[126.80006,34.54296],[126.79882,34.54318],[126.79864,34.54322],[126.79849,34.54327],[126.79841,34.54334],[126.79833,34.54349],[126.79808,34.54397],[126.79789,34.54441],[126.7977,34.54508],[126.7977,34.54528],[126.7977,34.5454],[126.79762,34.5455],[126.79748,34.54559],[126.79731,34.54562],[126.79715,34.54563],[126.7964,34.54558],[126.79622,34.54554],[126.79611,34.54546],[126.79599,34.54534],[126.79508,34.54441],[126.79442,34.54352],[126.79346,34.54223],[126.79239,34.54068],[126.79231,34.54035],[126.79229,34.54018],[126.79229,34.53998],[126.79227,34.53977],[126.79216,34.53953],[126.79196,34.53924],[126.79167,34.53895],[126.79016,34.5379],[126.7902,34.53885],[126.79028,34.54075],[126.7908,34.54171],[126.79133,34.54268],[126.79197,34.5434],[126.79262,34.54413],[126.79327,34.54486],[126.79392,34.54559],[126.79523,34.54713],[126.79393,34.54725],[126.79263,34.54738],[126.79133,34.5475],[126.79106,34.54843],[126.7908,34.54937],[126.79053,34.5503],[126.79,34.55217],[126.7894,34.55295],[126.78879,34.55372],[126.78982,34.55487],[126.7909,34.55582],[126.79133,34.55755],[126.79,34.55797],[126.78867,34.5584],[126.78909,34.55961],[126.78951,34.56083],[126.79046,34.56137],[126.79142,34.56191],[126.79372,34.56486],[126.79385,34.56761],[126.79284,34.56995],[126.79182,34.57014],[126.79177,34.57015],[126.7907,34.57036],[126.79037,34.57042],[126.78947,34.57121],[126.78857,34.572],[126.78565,34.57706],[126.78608,34.57868],[126.7873,34.57891],[126.78853,34.57914],[126.78984,34.5816],[126.78854,34.58644],[126.78795,34.58708],[126.78738,34.58769],[126.78541,34.58888],[126.7841,34.58899],[126.78279,34.5891],[126.78038,34.59018],[126.77762,34.59496],[126.77857,34.59683],[126.77978,34.59718],[126.78098,34.59753],[126.78184,34.59785],[126.78141,34.59884],[126.78099,34.59983],[126.78056,34.60081],[126.78009,34.60185],[126.77914,34.60391],[126.77904,34.60573],[126.77861,34.61302],[126.7784,34.61667],[126.77835,34.61758],[126.77879,34.61897],[126.77941,34.61986],[126.78064,34.62165],[126.78066,34.62163],[126.78129,34.62064],[126.78128,34.62049],[126.78124,34.62007],[126.78111,34.6194],[126.78104,34.6189],[126.78138,34.61768],[126.78144,34.61747],[126.78153,34.61717],[126.78282,34.61719],[126.7841,34.61722],[126.78668,34.61727],[126.78705,34.61697],[126.78716,34.61687],[126.78725,34.61598],[126.78731,34.61546],[126.78809,34.6148],[126.78941,34.61407],[126.7896,34.61399],[126.79087,34.6138],[126.79515,34.61367],[126.79674,34.61367],[126.79852,34.6137],[126.79962,34.61357],[126.80059,34.61323],[126.80113,34.61271],[126.80298,34.61073],[126.80323,34.61021],[126.8033,34.6098],[126.80297,34.60911],[126.80298,34.6087],[126.80336,34.60815],[126.80455,34.60652],[126.80866,34.60316],[126.80907,34.6029],[126.81113,34.60213],[126.8124,34.60181],[126.81294,34.60168],[126.81357,34.60154],[126.81404,34.60153],[126.8143,34.60159],[126.81814,34.60255],[126.81898,34.60275],[126.81925,34.60283],[126.82241,34.60373],[126.82325,34.60405],[126.82433,34.60447],[126.82513,34.60478],[126.82717,34.60504],[126.82895,34.60457],[126.82957,34.60454],[126.83082,34.60484],[126.83139,34.60625],[126.83199,34.60718],[126.83378,34.60783],[126.83541,34.60827],[126.83655,34.60853],[126.83726,34.60856],[126.83785,34.6086],[126.83901,34.60916],[126.83921,34.60933],[126.8391,34.60972],[126.83851,34.61037],[126.8381,34.61084],[126.83765,34.61339],[126.8375,34.6143],[126.83901,34.61556],[126.83984,34.61607],[126.84286,34.61784],[126.84349,34.61802],[126.84414,34.61819],[126.84483,34.61837],[126.84626,34.6184],[126.84688,34.61818],[126.8476,34.61795],[126.84847,34.61803],[126.84973,34.61845]]]]}},{"type":"Feature","properties":{"code":"12780330","name":"대구면","parent":"12780"},"geometry":{"type":"MultiPolygon","coordinates":[[[[126.78953,34.46068],[126.7893,34.46066],[126.78889,34.46069],[126.78871,34.46079],[126.7886,34.46086],[126.78855,34.461],[126.78852,34.46123],[126.78862,34.46152],[126.7906,34.46373],[126.79066,34.46379],[126.79094,34.46397],[126.79116,34.46404],[126.79154,34.46408],[126.79239,34.46408],[126.79265,34.46405],[126.79281,34.46401],[126.79292,34.46391],[126.79292,34.4637],[126.79282,34.46357],[126.79026,34.46103],[126.79007,34.4609],[126.78971,34.46076],[126.78953,34.46068]]],[[[126.86291,34.52827],[126.85861,34.52798],[126.85854,34.52797],[126.85848,34.52791],[126.85836,34.52779],[126.85688,34.52562],[126.85682,34.52553],[126.85682,34.52545],[126.8569,34.52469],[126.85691,34.52448],[126.85686,34.5231],[126.85683,34.52282],[126.85678,34.52264],[126.85551,34.51931],[126.8552,34.51876],[126.85515,34.51872],[126.85495,34.51859],[126.85478,34.51849],[126.85405,34.51812],[126.85259,34.51737],[126.85222,34.51717],[126.8519,34.51696],[126.85186,34.51691],[126.85179,34.51683],[126.8517,34.51661],[126.85063,34.51431],[126.84934,34.51188],[126.8489,34.51176],[126.84882,34.51172],[126.84851,34.51151],[126.84797,34.51098],[126.84556,34.50853],[126.84481,34.50754],[126.84396,34.50602],[126.84394,34.50587],[126.84394,34.50548],[126.84397,34.50537],[126.84408,34.50515],[126.84418,34.50503],[126.84491,34.50418],[126.84335,34.50408],[126.84271,34.50393],[126.84107,34.50351],[126.84029,34.50317],[126.84024,34.50315],[126.84019,34.50152],[126.84003,34.5004],[126.8394,34.49869],[126.83907,34.4979],[126.83876,34.49723],[126.83828,34.49693],[126.83329,34.49468],[126.83208,34.4942],[126.83185,34.49413],[126.83143,34.49406],[126.83114,34.49404],[126.83064,34.49404],[126.83023,34.49406],[126.82783,34.49435],[126.82701,34.49447],[126.82665,34.49455],[126.82641,34.49464],[126.82613,34.49485],[126.82581,34.49503],[126.82548,34.4952],[126.82477,34.49543],[126.82373,34.49572],[126.82342,34.49578],[126.82306,34.49585],[126.82259,34.49585],[126.82223,34.4958],[126.82186,34.49569],[126.82142,34.49551],[126.82117,34.49528],[126.82089,34.49473],[126.82087,34.49409],[126.82089,34.49346],[126.82089,34.49324],[126.8208,34.49306],[126.81844,34.49081],[126.81813,34.49058],[126.81573,34.48841],[126.8154,34.48649],[126.81498,34.48491],[126.81478,34.48421],[126.81399,34.48258],[126.81393,34.48247],[126.81385,34.48241],[126.81289,34.482],[126.81243,34.4819],[126.81192,34.48179],[126.81091,34.48171],[126.81009,34.48157],[126.80966,34.48139],[126.80876,34.48061],[126.80824,34.47993],[126.80787,34.47915],[126.80761,34.4784],[126.80758,34.47818],[126.80788,34.47769],[126.80822,34.47724],[126.80862,34.4767],[126.80874,34.47643],[126.80892,34.47531],[126.809,34.47466],[126.80899,34.47451],[126.80887,34.47439],[126.80856,34.47422],[126.80842,34.47415],[126.80727,34.47358],[126.80473,34.47251],[126.80408,34.47228],[126.80379,34.47222],[126.80298,34.47215],[126.80054,34.47191],[126.79985,34.47173],[126.79839,34.47121],[126.79749,34.4708],[126.79712,34.47055],[126.79702,34.47036],[126.79689,34.46908],[126.79677,34.46785],[126.79675,34.46769],[126.79668,34.46743],[126.79538,34.467],[126.79519,34.46695],[126.79505,34.46693],[126.79171,34.4664],[126.79148,34.4664],[126.79131,34.4664],[126.79036,34.4665],[126.79011,34.46653],[126.78981,34.46662],[126.78959,34.46671],[126.78556,34.46871],[126.78536,34.46884],[126.78521,34.46897],[126.78502,34.4692],[126.7857,34.47414],[126.78625,34.47606],[126.78664,34.47662],[126.78728,34.47742],[126.78756,34.47766],[126.78809,34.47805],[126.78863,34.47836],[126.78924,34.47864],[126.79241,34.47989],[126.79279,34.47991],[126.79304,34.47989],[126.79325,34.47981],[126.79338,34.47972],[126.79401,34.47921],[126.79407,34.47919],[126.79412,34.47918],[126.79432,34.47915],[126.79439,34.47915],[126.79494,34.4792],[126.79512,34.47922],[126.79522,34.47926],[126.79528,34.47929],[126.79693,34.48039],[126.79637,34.48462],[126.79632,34.48484],[126.796,34.48573],[126.79504,34.48837],[126.79494,34.48844],[126.7943,34.48878],[126.79396,34.48896],[126.79378,34.48896],[126.79363,34.48896],[126.79359,34.48895],[126.79338,34.4889],[126.79331,34.48887],[126.7932,34.48877],[126.79294,34.48858],[126.79267,34.48852],[126.79244,34.48849],[126.79206,34.48849],[126.79182,34.48886],[126.79133,34.49211],[126.79124,34.49272],[126.79076,34.49627],[126.79078,34.49724],[126.7908,34.4975],[126.79092,34.4977],[126.79177,34.49861],[126.79272,34.50044],[126.79198,34.50155],[126.79116,34.50207],[126.79088,34.5023],[126.79072,34.50258],[126.7905,34.5054],[126.79045,34.50793],[126.79146,34.50918],[126.79157,34.50945],[126.79152,34.50995],[126.79144,34.51008],[126.79121,34.51033],[126.79074,34.51071],[126.79048,34.51087],[126.79022,34.51099],[126.78948,34.51113],[126.78905,34.51112],[126.78872,34.51115],[126.78839,34.51126],[126.7868,34.51216],[126.78656,34.51248],[126.78657,34.51285],[126.78708,34.51406],[126.78738,34.51475],[126.78746,34.51495],[126.78769,34.51529],[126.78821,34.51597],[126.78839,34.51626],[126.78907,34.51793],[126.78976,34.52109],[126.78979,34.52127],[126.78981,34.52162],[126.78976,34.52193],[126.78966,34.52218],[126.78955,34.52259],[126.78935,34.52392],[126.78929,34.52439],[126.78932,34.52482],[126.78949,34.52532],[126.79067,34.52781],[126.79081,34.52808],[126.79125,34.52848],[126.79132,34.52859],[126.79133,34.52878],[126.7914,34.53145],[126.79138,34.53204],[126.79123,34.53263],[126.79106,34.5332],[126.79096,34.53341],[126.79051,34.53412],[126.79001,34.53458],[126.78981,34.53482],[126.78964,34.53523],[126.78964,34.53682],[126.79016,34.5379],[126.79167,34.53895],[126.79196,34.53924],[126.79216,34.53953],[126.79227,34.53977],[126.79229,34.53998],[126.79229,34.54018],[126.79231,34.54035],[126.79239,34.54068],[126.79346,34.54223],[126.79442,34.54352],[126.79508,34.54441],[126.79599,34.54534],[126.79611,34.54546],[126.79622,34.54554],[126.7964,34.54558],[126.79715,34.54563],[126.79731,34.54562],[126.79748,34.54559],[126.79762,34.5455],[126.7977,34.5454],[126.7977,34.54528],[126.7977,34.54508],[126.79789,34.54441],[126.79808,34.54397],[126.79833,34.54349],[126.79841,34.54334],[126.79849,34.54327],[126.79864,34.54322],[126.79882,34.54318],[126.80006,34.54296],[126.80021,34.54296],[126.80039,34.543],[126.80188,34.5434],[126.8039,34.54366],[126.80407,34.54368],[126.80459,34.54368],[126.80634,34.54367],[126.80717,34.54362],[126.8077,34.5435],[126.80812,34.5433],[126.80891,34.54218],[126.80907,34.54191],[126.80922,34.5416],[126.8098,34.53962],[126.80984,34.53933],[126.80984,34.53897],[126.80974,34.53871],[126.80939,34.53797],[126.80939,34.53784],[126.80939,34.53765],[126.80947,34.53746],[126.81148,34.53519],[126.81187,34.53482],[126.81317,34.53376],[126.81326,34.53375],[126.81351,34.53384],[126.81417,34.53411],[126.81487,34.53444],[126.81503,34.53459],[126.81567,34.53548],[126.81674,34.53675],[126.81689,34.53689],[126.81697,34.53693],[126.81992,34.53801],[126.82009,34.53805],[126.82046,34.53805],[126.82058,34.53802],[126.82102,34.53776],[126.82228,34.53689],[126.82253,34.53674],[126.82323,34.53646],[126.82344,34.53642],[126.82368,34.53649],[126.82614,34.5381],[126.8262,34.53819],[126.82624,34.53825],[126.82624,34.53841],[126.82624,34.53923],[126.8263,34.53964],[126.82648,34.54001],[126.82669,34.54034],[126.82694,34.54053],[126.82896,34.54153],[126.83106,34.54234],[126.83156,34.54248],[126.83228,34.5426],[126.83245,34.5426],[126.83317,34.54245],[126.83367,34.54231],[126.83555,34.54207],[126.8361,34.54205],[126.83658,34.54205],[126.83672,34.54207],[126.83827,34.54281],[126.83856,34.54312],[126.83961,34.54437],[126.83998,34.54463],[126.84297,34.54589],[126.84316,34.54596],[126.84359,34.54596],[126.84388,34.54592],[126.84454,34.54568],[126.84504,34.54546],[126.84535,34.54557],[126.84642,34.54542],[126.84713,34.54522],[126.84903,34.54428],[126.84938,34.54403],[126.84977,34.5435],[126.85279,34.54134],[126.85709,34.53842],[126.85997,34.53653],[126.86021,34.53636],[126.86197,34.53464],[126.86243,34.53418],[126.86255,34.53395],[126.86282,34.53328],[126.86314,34.53059],[126.86314,34.53001],[126.86312,34.52975],[126.86291,34.52827]]]]}},{"type":"Feature","properties":{"code":"12780400","name":"마량면","parent":"12780"},"geometry":{"type":"MultiPolygon","coordinates":[[[[126.84512,34.45134],[126.8445,34.45139],[126.84439,34.45103],[126.84409,34.44938],[126.84348,34.44824],[126.84253,34.44805],[126.83962,34.44901],[126.83948,34.44915],[126.83876,34.44987],[126.83883,34.45027],[126.83909,34.45212],[126.83911,34.45306],[126.83258,34.44963],[126.83201,34.44853],[126.8299,34.44759],[126.8294,34.44762],[126.82829,34.44816],[126.82411,34.44876],[126.82272,34.44838],[126.81952,34.44866],[126.81797,34.44902],[126.81682,34.4495],[126.8164,34.44968],[126.81567,34.44998],[126.81529,34.45039],[126.81563,34.45124],[126.81555,34.45225],[126.81473,34.45293],[126.81136,34.45476],[126.81091,34.45478],[126.81063,34.45478],[126.81001,34.45465],[126.80987,34.45461],[126.80891,34.45425],[126.80879,34.45413],[126.80823,34.45359],[126.8083,34.45307],[126.80837,34.45264],[126.80846,34.45228],[126.8084,34.45183],[126.80828,34.45135],[126.80801,34.45106],[126.80758,34.45061],[126.80721,34.45031],[126.8067,34.45044],[126.80622,34.45092],[126.80592,34.45207],[126.80654,34.45246],[126.80701,34.45286],[126.80727,34.45408],[126.80691,34.45507],[126.80622,34.45554],[126.80476,34.45601],[126.80434,34.45686],[126.80432,34.45876],[126.80498,34.4595],[126.80595,34.46043],[126.80647,34.46076],[126.80672,34.46142],[126.80664,34.46259],[126.80682,34.46457],[126.80713,34.46573],[126.80759,34.46627],[126.80795,34.46641],[126.8087,34.46811],[126.80669,34.46865],[126.80116,34.4688],[126.79882,34.4684],[126.79805,34.46818],[126.79675,34.46769],[126.79677,34.46785],[126.79689,34.46908],[126.79702,34.47036],[126.79712,34.47055],[126.79749,34.4708],[126.79839,34.47121],[126.79985,34.47173],[126.80054,34.47191],[126.80298,34.47215],[126.80379,34.47222],[126.80408,34.47228],[126.80473,34.47251],[126.80727,34.47358],[126.80842,34.47415],[126.80856,34.47422],[126.80887,34.47439],[126.80899,34.47451],[126.809,34.47466],[126.80892,34.47531],[126.80874,34.47643],[126.80862,34.4767],[126.80822,34.47724],[126.80788,34.47769],[126.80758,34.47818],[126.80761,34.4784],[126.80787,34.47915],[126.80824,34.47993],[126.80876,34.48061],[126.80966,34.48139],[126.81009,34.48157],[126.81091,34.48171],[126.81192,34.48179],[126.81243,34.4819],[126.81289,34.482],[126.81385,34.48241],[126.81393,34.48247],[126.81399,34.48258],[126.81478,34.48421],[126.81498,34.48491],[126.8154,34.48649],[126.81573,34.48841],[126.81813,34.49058],[126.81844,34.49081],[126.8208,34.49306],[126.82089,34.49324],[126.82089,34.49346],[126.82087,34.49409],[126.82089,34.49473],[126.82117,34.49528],[126.82142,34.49551],[126.82186,34.49569],[126.82223,34.4958],[126.82259,34.49585],[126.82306,34.49585],[126.82342,34.49578],[126.82373,34.49572],[126.82477,34.49543],[126.82548,34.4952],[126.82581,34.49503],[126.82613,34.49485],[126.82641,34.49464],[126.82665,34.49455],[126.82701,34.49447],[126.82783,34.49435],[126.83023,34.49406],[126.83064,34.49404],[126.83114,34.49404],[126.83143,34.49406],[126.83185,34.49413],[126.83208,34.4942],[126.83329,34.49468],[126.83828,34.49693],[126.83876,34.49723],[126.83907,34.4979],[126.8394,34.49869],[126.84003,34.5004],[126.84019,34.50152],[126.84024,34.50315],[126.84029,34.50317],[126.84107,34.50351],[126.84271,34.50393],[126.84335,34.50408],[126.84491,34.50418],[126.84931,34.49688],[126.85029,34.49526],[126.85063,34.49418],[126.85095,34.49248],[126.85104,34.49173],[126.85089,34.49081],[126.85074,34.48989],[126.85044,34.48805],[126.8503,34.48686],[126.85055,34.4864],[126.85076,34.48618],[126.85091,34.48592],[126.85153,34.48481],[126.85174,34.48377],[126.85194,34.48173],[126.85195,34.48154],[126.85193,34.48144],[126.85131,34.48124],[126.85097,34.48088],[126.85086,34.48074],[126.85074,34.48059],[126.85067,34.48046],[126.85031,34.4795],[126.85023,34.47902],[126.85019,34.47851],[126.85021,34.47837],[126.85032,34.47819],[126.85059,34.47785],[126.85131,34.47703],[126.85227,34.47596],[126.85255,34.47576],[126.85295,34.47548],[126.85334,34.47528],[126.85371,34.47509],[126.85408,34.47479],[126.85418,34.47465],[126.85429,34.4742],[126.85439,34.4696],[126.85439,34.46933],[126.85427,34.4689],[126.85402,34.46858],[126.85279,34.46758],[126.85251,34.46735],[126.85239,34.46723],[126.8523,34.46706],[126.8515,34.46502],[126.8514,34.46459],[126.85137,34.46296],[126.85137,34.46253],[126.85142,34.46231],[126.85162,34.46155],[126.85167,34.46141],[126.8517,34.46106],[126.85161,34.45997],[126.85155,34.4594],[126.85147,34.45912],[126.85045,34.45723],[126.85025,34.4569],[126.8495,34.45641],[126.84874,34.456],[126.8471,34.45498],[126.8455,34.4534],[126.84543,34.45327],[126.84533,34.45304],[126.84516,34.45252],[126.84512,34.45215],[126.84511,34.45185],[126.84512,34.45134]]]]}},{"type":"Feature","properties":{"code":"12780340","name":"도암면","parent":"12780"},"geometry":{"type":"MultiPolygon","coordinates":[[[[126.78241,34.53052],[126.78215,34.53047],[126.78198,34.53048],[126.78185,34.53049],[126.78177,34.5305],[126.78163,34.53054],[126.779,34.53178],[126.77882,34.53188],[126.77863,34.53204],[126.77822,34.53254],[126.77649,34.5366],[126.77644,34.53677],[126.7764,34.53704],[126.77639,34.53724],[126.7764,34.53735],[126.77651,34.53763],[126.77662,34.5378],[126.77669,34.5379],[126.77695,34.53811],[126.777,34.53814],[126.77737,34.53832],[126.77777,34.53851],[126.77795,34.53854],[126.77823,34.53856],[126.77868,34.53852],[126.7791,34.53841],[126.77928,34.53835],[126.7795,34.53821],[126.77961,34.53814],[126.77991,34.53784],[126.78005,34.53765],[126.78095,34.53633],[126.78176,34.53632],[126.78206,34.53631],[126.78221,34.53629],[126.78292,34.5361],[126.78306,34.53606],[126.78329,34.53596],[126.78457,34.53528],[126.78473,34.53516],[126.78487,34.53501],[126.78491,34.53488],[126.78522,34.53385],[126.78527,34.53364],[126.78527,34.53348],[126.78524,34.53325],[126.78514,34.53299],[126.78468,34.53236],[126.78343,34.53101],[126.78318,34.53078],[126.78299,34.53067],[126.78257,34.53056],[126.78241,34.53052]]],[[[126.69805,34.63015],[126.69978,34.63001],[126.70068,34.63016],[126.70071,34.63008],[126.70083,34.62973],[126.70098,34.62897],[126.70168,34.62741],[126.70191,34.62711],[126.70223,34.6268],[126.70275,34.62647],[126.70382,34.62601],[126.70433,34.62585],[126.70553,34.62565],[126.70614,34.62556],[126.70679,34.62544],[126.70754,34.62515],[126.70883,34.62458],[126.71085,34.62314],[126.71087,34.62243],[126.71056,34.62092],[126.71034,34.61891],[126.71019,34.61304],[126.71197,34.60964],[126.71224,34.6093],[126.71266,34.60924],[126.71632,34.60708],[126.71836,34.60532],[126.71876,34.60501],[126.71924,34.60478],[126.72141,34.60402],[126.72738,34.60156],[126.7285,34.59987],[126.72902,34.59896],[126.72909,34.59835],[126.72865,34.59777],[126.72874,34.59744],[126.72924,34.59661],[126.73128,34.59469],[126.73192,34.59419],[126.7388,34.59245],[126.7409,34.59204],[126.74148,34.592],[126.74689,34.59087],[126.75367,34.58931],[126.75462,34.58919],[126.75512,34.58914],[126.76259,34.58884],[126.76329,34.58882],[126.76499,34.58922],[126.76735,34.59036],[126.76796,34.59069],[126.76993,34.59191],[126.77018,34.59084],[126.77012,34.58888],[126.76917,34.58314],[126.76885,34.58123],[126.76869,34.58031],[126.76853,34.57939],[126.76837,34.57847],[126.76789,34.57571],[126.76741,34.57295],[126.76725,34.57204],[126.76671,34.56881],[126.76595,34.56432],[126.76579,34.56335],[126.76576,34.56305],[126.76718,34.55756],[126.76742,34.5569],[126.76753,34.55678],[126.76785,34.55672],[126.76825,34.55647],[126.76832,34.55607],[126.76848,34.55488],[126.76787,34.5523],[126.76772,34.55193],[126.76627,34.5486],[126.76464,34.5456],[126.76464,34.54541],[126.76496,34.54448],[126.76564,34.54354],[126.76588,34.54331],[126.76656,34.54305],[126.76708,34.54305],[126.76736,34.54285],[126.7682,34.54212],[126.76841,34.54169],[126.76815,34.54142],[126.76749,34.5408],[126.76697,34.54052],[126.766,34.54041],[126.76525,34.54046],[126.76457,34.54053],[126.76427,34.54026],[126.76445,34.53949],[126.76471,34.53839],[126.76508,34.53781],[126.76573,34.53718],[126.76482,34.53489],[126.76411,34.5338],[126.76424,34.53315],[126.76461,34.53211],[126.76512,34.53105],[126.76552,34.5305],[126.76634,34.53009],[126.76921,34.52873],[126.76983,34.52849],[126.77133,34.52817],[126.77162,34.5295],[126.77213,34.52942],[126.77301,34.52881],[126.77313,34.52812],[126.7733,34.52537],[126.7726,34.52499],[126.7719,34.52504],[126.77137,34.52538],[126.77053,34.5259],[126.76945,34.52611],[126.76837,34.52633],[126.76585,34.52658],[126.76447,34.52666],[126.7631,34.52674],[126.76173,34.52682],[126.75905,34.52604],[126.75915,34.52509],[126.76035,34.51367],[126.76045,34.51272],[126.76055,34.51177],[126.75392,34.5118],[126.75171,34.51181],[126.75061,34.51181],[126.74739,34.51189],[126.74559,34.512],[126.74453,34.51221],[126.74431,34.51232],[126.74389,34.51253],[126.74292,34.51301],[126.74251,34.51337],[126.74211,34.5138],[126.74194,34.51435],[126.74195,34.51519],[126.74264,34.51678],[126.74275,34.51751],[126.74249,34.51801],[126.74222,34.51828],[126.73671,34.52064],[126.73423,34.51959],[126.73408,34.51939],[126.73371,34.51922],[126.73292,34.5195],[126.73274,34.51958],[126.73108,34.52099],[126.73094,34.52135],[126.73089,34.52202],[126.73085,34.52246],[126.73079,34.52316],[126.73029,34.52454],[126.72949,34.52558],[126.72902,34.52604],[126.72879,34.52622],[126.72756,34.52661],[126.7274,34.52661],[126.72535,34.52612],[126.72484,34.52554],[126.72385,34.52485],[126.72324,34.52443],[126.72256,34.52404],[126.72211,34.52379],[126.72188,34.52371],[126.7217,34.52383],[126.72128,34.52407],[126.72043,34.52455],[126.71663,34.5265],[126.7156,34.5268],[126.71126,34.52762],[126.71041,34.52777],[126.70943,34.52864],[126.70764,34.53011],[126.70648,34.53098],[126.70524,34.53181],[126.70363,34.53281],[126.70268,34.53341],[126.69889,34.53545],[126.69832,34.53569],[126.69737,34.53599],[126.69732,34.53601],[126.69714,34.53605],[126.69696,34.53604],[126.69605,34.53547],[126.69552,34.53503],[126.69507,34.53454],[126.69474,34.53393],[126.69455,34.53358],[126.69341,34.53207],[126.69296,34.5316],[126.69266,34.53136],[126.69199,34.53103],[126.69116,34.53074],[126.69054,34.53063],[126.68989,34.53047],[126.68867,34.53013],[126.68676,34.52942],[126.68624,34.5291],[126.68605,34.52897],[126.68559,34.52864],[126.68522,34.52835],[126.68493,34.528],[126.68472,34.52833],[126.68325,34.53006],[126.68284,34.53037],[126.68262,34.53026],[126.68226,34.53009],[126.68121,34.52976],[126.68077,34.52972],[126.68023,34.52971],[126.6799,34.52974],[126.67954,34.52984],[126.67493,34.53114],[126.67466,34.53123],[126.67442,34.53134],[126.67427,34.53155],[126.67131,34.53397],[126.67107,34.53404],[126.66956,34.53447],[126.66891,34.53473],[126.6687,34.53485],[126.6685,34.53501],[126.66835,34.53521],[126.66766,34.53648],[126.66748,34.53683],[126.66741,34.53699],[126.66755,34.53861],[126.66757,34.53876],[126.66774,34.5389],[126.66807,34.53895],[126.66896,34.53901],[126.67086,34.53904],[126.67113,34.53903],[126.67226,34.53906],[126.67427,34.53976],[126.67963,34.5422],[126.68195,34.54387],[126.68263,34.54443],[126.68425,34.54594],[126.69033,34.55285],[126.69169,34.55478],[126.69274,34.55631],[126.69284,34.55649],[126.6929,34.55661],[126.69302,34.55686],[126.69316,34.55717],[126.69322,34.55788],[126.69314,34.55855],[126.69308,34.55933],[126.69311,34.55955],[126.69312,34.55961],[126.69317,34.55975],[126.69442,34.56268],[126.69508,34.56381],[126.69509,34.56387],[126.69504,34.56397],[126.69447,34.56454],[126.69436,34.56462],[126.69373,34.56505],[126.6933,34.56531],[126.69197,34.56641],[126.6879,34.57171],[126.68729,34.57277],[126.68496,34.57475],[126.68461,34.57491],[126.68423,34.57503],[126.68386,34.57516],[126.68337,34.57561],[126.68299,34.576],[126.68013,34.58153],[126.68004,34.58177],[126.68,34.58194],[126.67994,34.58217],[126.67997,34.58248],[126.68004,34.58272],[126.68016,34.58288],[126.68022,34.58296],[126.68034,34.58301],[126.68064,34.58332],[126.68065,34.58336],[126.68076,34.58373],[126.68076,34.58389],[126.68075,34.58416],[126.68069,34.58444],[126.68039,34.58522],[126.67992,34.58623],[126.67982,34.58632],[126.67931,34.58654],[126.67869,34.58665],[126.67846,34.58664],[126.67821,34.5867],[126.67766,34.58689],[126.6764,34.58742],[126.67613,34.58756],[126.6759,34.58768],[126.67569,34.58784],[126.67555,34.58797],[126.67285,34.59041],[126.67267,34.59061],[126.67197,34.59175],[126.67183,34.59199],[126.67177,34.59227],[126.67183,34.59252],[126.6719,34.59271],[126.67271,34.59402],[126.67294,34.59441],[126.67388,34.59587],[126.67482,34.59731],[126.67571,34.59853],[126.67617,34.59886],[126.67841,34.60032],[126.67871,34.60045],[126.67917,34.60036],[126.67942,34.60038],[126.6815,34.60139],[126.6884,34.60712],[126.68871,34.60787],[126.69001,34.61431],[126.69001,34.61459],[126.68992,34.61559],[126.68986,34.61599],[126.68975,34.61624],[126.68975,34.6165],[126.68987,34.617],[126.69031,34.6182],[126.69046,34.61855],[126.69248,34.6227],[126.69264,34.62303],[126.69283,34.62339],[126.69334,34.6236],[126.69376,34.62362],[126.69418,34.62362],[126.69462,34.62366],[126.69556,34.62416],[126.69594,34.62446],[126.69811,34.62709],[126.69859,34.62768],[126.69876,34.62789],[126.69857,34.62867],[126.69805,34.63015]]]]}},{"type":"Feature","properties":{"code":"12780350","name":"신전면","parent":"12780"},"geometry":{"type":"MultiPolygon","coordinates":[[[[126.75053,34.44954],[126.75031,34.44953],[126.75014,34.44961],[126.74996,34.45001],[126.74986,34.45029],[126.74986,34.4504],[126.74992,34.45052],[126.7505,34.4512],[126.75057,34.45128],[126.75069,34.45136],[126.75079,34.45143],[126.7509,34.45144],[126.75147,34.45147],[126.75162,34.45147],[126.75177,34.45142],[126.75271,34.45133],[126.7528,34.45129],[126.75314,34.45098],[126.75318,34.45086],[126.75325,34.45047],[126.75324,34.45029],[126.75315,34.45019],[126.75068,34.44957],[126.75053,34.44954]]],[[[126.76055,34.51177],[126.76068,34.51078],[126.7608,34.50979],[126.76143,34.50484],[126.76168,34.50286],[126.76268,34.50227],[126.76365,34.50227],[126.76607,34.50092],[126.76607,34.49964],[126.76608,34.49835],[126.76453,34.4978],[126.76334,34.49769],[126.76216,34.49758],[126.76071,34.49729],[126.75864,34.49547],[126.75801,34.49453],[126.75806,34.49376],[126.75888,34.49314],[126.76066,34.49263],[126.76067,34.49119],[126.75917,34.49062],[126.75734,34.49062],[126.75602,34.49165],[126.75483,34.49212],[126.75154,34.49178],[126.74932,34.49125],[126.74571,34.48999],[126.74072,34.48812],[126.73896,34.48665],[126.73846,34.486],[126.74034,34.48191],[126.74119,34.48036],[126.74231,34.47964],[126.74341,34.47938],[126.74451,34.47913],[126.74534,34.47882],[126.7472,34.47809],[126.74793,34.47628],[126.74913,34.47342],[126.74944,34.47299],[126.7514,34.47323],[126.75189,34.47421],[126.75398,34.47507],[126.75358,34.47157],[126.75253,34.47052],[126.7511,34.47075],[126.75023,34.47199],[126.74819,34.47189],[126.74372,34.46616],[126.74308,34.46535],[126.74249,34.46458],[126.74014,34.46152],[126.73896,34.45998],[126.73544,34.45539],[126.73485,34.45462],[126.73458,34.45474],[126.73417,34.45492],[126.73325,34.45533],[126.73202,34.45595],[126.73079,34.45657],[126.7285,34.45789],[126.72633,34.45935],[126.72497,34.46034],[126.72477,34.46051],[126.72363,34.46152],[126.72174,34.46324],[126.72104,34.46391],[126.7203,34.46492],[126.71944,34.4664],[126.71919,34.4669],[126.71891,34.46746],[126.71838,34.46852],[126.71788,34.46936],[126.71739,34.47004],[126.71693,34.47048],[126.71661,34.47057],[126.71656,34.47058],[126.71606,34.47068],[126.71436,34.47067],[126.70884,34.47079],[126.70598,34.47094],[126.70454,34.47102],[126.70443,34.47102],[126.70034,34.47113],[126.69915,34.47114],[126.69795,34.47115],[126.69686,34.47102],[126.69577,34.47089],[126.69468,34.47076],[126.69249,34.4705],[126.69202,34.47038],[126.69183,34.47033],[126.69176,34.46986],[126.69176,34.46962],[126.69169,34.4689],[126.69155,34.46868],[126.69121,34.46849],[126.69037,34.46817],[126.68998,34.46808],[126.6897,34.46808],[126.68963,34.46808],[126.68903,34.46815],[126.68804,34.46835],[126.68664,34.46878],[126.68563,34.46912],[126.68414,34.46962],[126.6824,34.47377],[126.68237,34.47384],[126.68239,34.47389],[126.6832,34.47708],[126.6839,34.48262],[126.6839,34.48292],[126.68381,34.48311],[126.68372,34.48329],[126.68328,34.48536],[126.68285,34.48831],[126.68284,34.48995],[126.6829,34.49036],[126.68305,34.49063],[126.6833,34.49098],[126.68442,34.49193],[126.68577,34.49302],[126.68584,34.49793],[126.68643,34.49989],[126.68643,34.50003],[126.68641,34.50017],[126.68619,34.50125],[126.68616,34.50139],[126.68606,34.50153],[126.68584,34.50178],[126.68543,34.50225],[126.68527,34.50245],[126.68565,34.50633],[126.68598,34.50808],[126.68615,34.5084],[126.6863,34.50872],[126.68637,34.50917],[126.68627,34.50952],[126.68615,34.50965],[126.68588,34.50984],[126.68569,34.50997],[126.68517,34.51027],[126.68426,34.5105],[126.6828,34.51042],[126.68145,34.51114],[126.68125,34.51143],[126.68112,34.51181],[126.68039,34.5153],[126.68032,34.51593],[126.68044,34.51623],[126.68229,34.51855],[126.68283,34.51907],[126.6833,34.51935],[126.68355,34.51947],[126.68369,34.51955],[126.68403,34.51987],[126.68441,34.52034],[126.68526,34.52149],[126.6854,34.52169],[126.68571,34.5222],[126.68596,34.52268],[126.68615,34.52311],[126.68619,34.52326],[126.6862,34.52332],[126.68625,34.52351],[126.68627,34.52366],[126.68628,34.524],[126.68627,34.52433],[126.68607,34.52492],[126.68493,34.528],[126.68522,34.52835],[126.68559,34.52864],[126.68605,34.52897],[126.68624,34.5291],[126.68676,34.52942],[126.68867,34.53013],[126.68989,34.53047],[126.69054,34.53063],[126.69116,34.53074],[126.69199,34.53103],[126.69266,34.53136],[126.69296,34.5316],[126.69341,34.53207],[126.69455,34.53358],[126.69474,34.53393],[126.69507,34.53454],[126.69552,34.53503],[126.69605,34.53547],[126.69696,34.53604],[126.69714,34.53605],[126.69732,34.53601],[126.69737,34.53599],[126.69832,34.53569],[126.69889,34.53545],[126.70268,34.53341],[126.70363,34.53281],[126.70524,34.53181],[126.70648,34.53098],[126.70764,34.53011],[126.70943,34.52864],[126.71041,34.52777],[126.71126,34.52762],[126.7156,34.5268],[126.71663,34.5265],[126.72043,34.52455],[126.72128,34.52407],[126.7217,34.52383],[126.72188,34.52371],[126.72211,34.52379],[126.72256,34.52404],[126.72324,34.52443],[126.72385,34.52485],[126.72484,34.52554],[126.72535,34.52612],[126.7274,34.52661],[126.72756,34.52661],[126.72879,34.52622],[126.72902,34.52604],[126.72949,34.52558],[126.73029,34.52454],[126.73079,34.52316],[126.73085,34.52246],[126.73089,34.52202],[126.73094,34.52135],[126.73108,34.52099],[126.73274,34.51958],[126.73292,34.5195],[126.73371,34.51922],[126.73408,34.51939],[126.73423,34.51959],[126.73671,34.52064],[126.74222,34.51828],[126.74249,34.51801],[126.74275,34.51751],[126.74264,34.51678],[126.74195,34.51519],[126.74194,34.51435],[126.74211,34.5138],[126.74251,34.51337],[126.74292,34.51301],[126.74389,34.51253],[126.74431,34.51232],[126.74453,34.51221],[126.74559,34.512],[126.74739,34.51189],[126.75061,34.51181],[126.75171,34.51181],[126.75392,34.5118],[126.76055,34.51177]]]]}},{"type":"Feature","properties":{"code":"12780360","name":"성전면","parent":"12780"},"geometry":{"type":"MultiPolygon","coordinates":[[[[126.74325,34.75673],[126.74336,34.75565],[126.7434,34.75509],[126.74335,34.75493],[126.74259,34.75344],[126.74067,34.75312],[126.7393,34.75256],[126.73923,34.75253],[126.73912,34.75245],[126.73905,34.75239],[126.73428,34.74468],[126.73425,34.74463],[126.73377,34.74331],[126.73288,34.74079],[126.73231,34.73705],[126.73188,34.73334],[126.73188,34.73329],[126.73153,34.73049],[126.73151,34.7303],[126.7315,34.73027],[126.73146,34.73025],[126.73112,34.73023],[126.73091,34.73021],[126.73066,34.73019],[126.73044,34.73015],[126.7302,34.7301],[126.73001,34.73003],[126.72992,34.72999],[126.72987,34.72994],[126.72978,34.72983],[126.72975,34.72978],[126.7297,34.72967],[126.72965,34.72954],[126.72961,34.72938],[126.72903,34.72694],[126.72919,34.72615],[126.72922,34.726],[126.72921,34.72588],[126.72913,34.72565],[126.72901,34.7253],[126.72891,34.72511],[126.72879,34.72496],[126.72874,34.7249],[126.7286,34.72479],[126.72826,34.72457],[126.72737,34.72405],[126.72693,34.72381],[126.72652,34.72367],[126.72568,34.72354],[126.72499,34.7235],[126.72406,34.72351],[126.72353,34.72353],[126.72341,34.72352],[126.72065,34.72266],[126.72035,34.72252],[126.72016,34.72242],[126.71992,34.72224],[126.71973,34.72205],[126.71964,34.72192],[126.71955,34.72175],[126.71953,34.72156],[126.71953,34.72129],[126.71953,34.72103],[126.71957,34.72089],[126.71969,34.72064],[126.71992,34.71974],[126.72023,34.71784],[126.72024,34.71775],[126.72024,34.71765],[126.72019,34.71753],[126.72014,34.7174],[126.71971,34.71648],[126.71966,34.71637],[126.71956,34.7162],[126.71942,34.71607],[126.71934,34.71598],[126.71933,34.71564],[126.71933,34.71528],[126.71935,34.71483],[126.71938,34.7147],[126.71943,34.71455],[126.7195,34.71446],[126.7204,34.7135],[126.72156,34.71301],[126.72198,34.71301],[126.72231,34.713],[126.72264,34.71297],[126.72295,34.71291],[126.72577,34.71135],[126.73122,34.70801],[126.73129,34.70795],[126.73184,34.70744],[126.73195,34.70733],[126.7321,34.70713],[126.73245,34.70659],[126.7326,34.70632],[126.73263,34.70624],[126.73265,34.70604],[126.73265,34.70589],[126.73264,34.70581],[126.7326,34.70574],[126.73273,34.70438],[126.73442,34.70337],[126.73449,34.70335],[126.73723,34.70277],[126.73737,34.70274],[126.73751,34.70273],[126.73805,34.70274],[126.73811,34.70274],[126.7418,34.70362],[126.74193,34.70365],[126.74206,34.7037],[126.74593,34.70296],[126.74756,34.70114],[126.75185,34.69757],[126.75559,34.69516],[126.75619,34.69481],[126.75762,34.69394],[126.7577,34.69389],[126.75779,34.69383],[126.75789,34.69372],[126.75796,34.69362],[126.75802,34.69352],[126.75807,34.6934],[126.7581,34.69333],[126.75816,34.69318],[126.75819,34.69306],[126.75821,34.69281],[126.75822,34.69237],[126.75822,34.69158],[126.7582,34.69106],[126.75817,34.69081],[126.75816,34.69017],[126.75817,34.68992],[126.75822,34.68943],[126.75827,34.68901],[126.75832,34.68883],[126.75839,34.6886],[126.75849,34.68833],[126.75999,34.68493],[126.76008,34.68476],[126.76015,34.68466],[126.76036,34.68444],[126.76101,34.6838],[126.76113,34.68369],[126.76138,34.68347],[126.7617,34.68322],[126.76186,34.68309],[126.76202,34.68292],[126.76212,34.68282],[126.76226,34.68264],[126.76234,34.68255],[126.76253,34.68228],[126.76269,34.68202],[126.76279,34.68185],[126.76288,34.68167],[126.76295,34.6815],[126.76303,34.6813],[126.76307,34.68118],[126.76311,34.68097],[126.76314,34.68068],[126.76329,34.67927],[126.76338,34.67845],[126.76436,34.67668],[126.7644,34.67663],[126.76614,34.67524],[126.76629,34.67512],[126.76714,34.67455],[126.76724,34.67453],[126.76731,34.67453],[126.76743,34.67453],[126.76757,34.67456],[126.7678,34.67459],[126.76792,34.6746],[126.76805,34.67458],[126.76819,34.67452],[126.76948,34.67381],[126.76954,34.67376],[126.76959,34.67369],[126.77019,34.67241],[126.77025,34.67229],[126.77028,34.67215],[126.77029,34.672],[126.77031,34.67013],[126.76725,34.66619],[126.76638,34.66624],[126.76597,34.66626],[126.7658,34.66627],[126.76558,34.66627],[126.76543,34.66625],[126.76529,34.66622],[126.76512,34.66616],[126.76478,34.66602],[126.76465,34.66596],[126.76447,34.66586],[126.76431,34.66576],[126.76415,34.66566],[126.76402,34.66556],[126.76386,34.66544],[126.76372,34.6653],[126.7635,34.66503],[126.76342,34.66495],[126.76333,34.66487],[126.76263,34.66438],[126.76254,34.66434],[126.76229,34.66428],[126.76212,34.66424],[126.76202,34.66423],[126.76081,34.66419],[126.76063,34.66418],[126.76053,34.66419],[126.75593,34.66496],[126.75388,34.66541],[126.75288,34.66568],[126.7526,34.66573],[126.75243,34.66574],[126.75226,34.66575],[126.74729,34.66544],[126.74688,34.6654],[126.74611,34.66528],[126.74599,34.66527],[126.74591,34.66522],[126.745,34.66369],[126.74493,34.66353],[126.74489,34.66339],[126.74488,34.66311],[126.74491,34.66286],[126.74492,34.66262],[126.74491,34.66243],[126.74489,34.66232],[126.74486,34.66226],[126.74477,34.6622],[126.74043,34.6605],[126.74002,34.66043],[126.73922,34.66044],[126.73862,34.66042],[126.73807,34.66035],[126.73753,34.66024],[126.7374,34.66021],[126.73737,34.66019],[126.73732,34.66017],[126.73722,34.66013],[126.73475,34.65873],[126.73458,34.65854],[126.73447,34.65837],[126.73442,34.65821],[126.7344,34.65806],[126.73444,34.65766],[126.73457,34.65714],[126.73458,34.65702],[126.73457,34.65689],[126.73447,34.6567],[126.73259,34.65473],[126.73232,34.65455],[126.73215,34.65451],[126.7317,34.65448],[126.73135,34.65449],[126.73126,34.6545],[126.731,34.65458],[126.73091,34.65466],[126.73084,34.6548],[126.73084,34.65503],[126.73086,34.65547],[126.73075,34.6557],[126.72975,34.65751],[126.72887,34.65869],[126.72865,34.65896],[126.72712,34.65999],[126.72686,34.66012],[126.72645,34.66028],[126.72606,34.66038],[126.72596,34.66038],[126.72577,34.66034],[126.72559,34.66003],[126.72511,34.65904],[126.72487,34.65847],[126.72479,34.65839],[126.72463,34.65827],[126.72433,34.6581],[126.724,34.65793],[126.72366,34.65779],[126.72346,34.65773],[126.72334,34.65771],[126.71917,34.65707],[126.71901,34.65707],[126.7189,34.65712],[126.71873,34.65725],[126.71865,34.65731],[126.71846,34.65749],[126.71824,34.65774],[126.71791,34.65807],[126.71779,34.65816],[126.7175,34.65828],[126.71715,34.65838],[126.71646,34.65854],[126.71523,34.65862],[126.71511,34.65861],[126.712,34.65809],[126.70768,34.65759],[126.70761,34.65759],[126.70756,34.65761],[126.70629,34.65828],[126.70416,34.65974],[126.70288,34.66069],[126.70206,34.66163],[126.70171,34.66205],[126.70194,34.66237],[126.70207,34.66338],[126.70197,34.66476],[126.7019,34.66519],[126.70181,34.66532],[126.70175,34.66541],[126.70118,34.66624],[126.69994,34.66811],[126.69844,34.67159],[126.69845,34.67183],[126.69849,34.67248],[126.69974,34.67292],[126.70063,34.6735],[126.70236,34.67479],[126.70425,34.67802],[126.70438,34.67827],[126.70521,34.67997],[126.70542,34.68054],[126.70561,34.68101],[126.70566,34.6817],[126.70523,34.6821],[126.70348,34.68311],[126.70142,34.68415],[126.70002,34.68432],[126.69946,34.68419],[126.69874,34.68374],[126.69805,34.68321],[126.69746,34.6831],[126.69606,34.6832],[126.6948,34.68426],[126.69346,34.68517],[126.69209,34.68587],[126.68952,34.6862],[126.68863,34.6861],[126.68764,34.68579],[126.68722,34.6857],[126.68584,34.68602],[126.68476,34.68647],[126.68151,34.68703],[126.68118,34.68675],[126.68008,34.6859],[126.67993,34.68582],[126.67819,34.68537],[126.67782,34.68536],[126.67482,34.68616],[126.67432,34.6864],[126.67424,34.68678],[126.67388,34.68764],[126.6735,34.68828],[126.67312,34.68891],[126.67241,34.68958],[126.67176,34.69004],[126.67006,34.69101],[126.67189,34.69393],[126.67187,34.6949],[126.67192,34.69642],[126.67335,34.69966],[126.67382,34.70008],[126.67409,34.70019],[126.67441,34.70032],[126.67505,34.70055],[126.67523,34.70108],[126.67533,34.70165],[126.67523,34.70218],[126.67472,34.70386],[126.67453,34.70447],[126.67413,34.70466],[126.67351,34.70464],[126.67256,34.70515],[126.6724,34.70535],[126.67221,34.70582],[126.67214,34.70648],[126.67246,34.70728],[126.67291,34.70812],[126.67441,34.7095],[126.67475,34.7095],[126.67568,34.70964],[126.67841,34.71054],[126.67888,34.71087],[126.68139,34.71304],[126.68132,34.71374],[126.68062,34.71677],[126.6803,34.71779],[126.67936,34.72067],[126.67802,34.72231],[126.67452,34.72306],[126.67421,34.7231],[126.67259,34.7231],[126.67207,34.72307],[126.67176,34.72291],[126.67161,34.72275],[126.67078,34.72251],[126.66984,34.72249],[126.66498,34.72243],[126.66345,34.72454],[126.66311,34.72513],[126.66296,34.7257],[126.66329,34.72617],[126.66324,34.72633],[126.66263,34.72784],[126.6619,34.72825],[126.65897,34.72938],[126.65637,34.73059],[126.65597,34.73152],[126.65616,34.73169],[126.65784,34.73413],[126.65803,34.73417],[126.65891,34.73399],[126.65932,34.7341],[126.65985,34.73442],[126.6628,34.73666],[126.66706,34.73966],[126.66905,34.74018],[126.66935,34.74033],[126.67027,34.74101],[126.67083,34.74156],[126.67631,34.74749],[126.67861,34.75042],[126.67921,34.75157],[126.67921,34.75222],[126.68016,34.75311],[126.68053,34.7534],[126.68076,34.75349],[126.68092,34.75349],[126.68304,34.75311],[126.68348,34.75281],[126.68433,34.75243],[126.68453,34.75243],[126.68533,34.75268],[126.68686,34.75392],[126.68699,34.75389],[126.68706,34.75389],[126.68717,34.7539],[126.68728,34.7539],[126.68815,34.75401],[126.68823,34.75403],[126.69193,34.7552],[126.69217,34.75528],[126.69224,34.75532],[126.6923,34.75536],[126.69235,34.7554],[126.69333,34.75631],[126.69342,34.75641],[126.69363,34.7567],[126.69366,34.75675],[126.69368,34.7568],[126.69376,34.75761],[126.69376,34.75768],[126.69376,34.75775],[126.69376,34.7578],[126.69376,34.75785],[126.69607,34.76044],[126.69612,34.76046],[126.69819,34.76125],[126.69827,34.7613],[126.69935,34.76191],[126.69948,34.76199],[126.69955,34.76206],[126.69958,34.76209],[126.70111,34.76414],[126.70242,34.76565],[126.70398,34.76653],[126.70486,34.76689],[126.70536,34.76668],[126.70638,34.76665],[126.70653,34.76664],[126.70683,34.76661],[126.70746,34.76653],[126.7076,34.76651],[126.708,34.76643],[126.70822,34.76636],[126.70964,34.76576],[126.70983,34.76568],[126.70985,34.76563],[126.70986,34.76556],[126.70985,34.7655],[126.70985,34.76499],[126.71009,34.76383],[126.71014,34.76368],[126.71018,34.7636],[126.71023,34.76352],[126.71028,34.76346],[126.71035,34.76339],[126.71381,34.76061],[126.71392,34.76054],[126.71399,34.76049],[126.71411,34.76045],[126.71516,34.76008],[126.71532,34.76006],[126.71549,34.76005],[126.71565,34.76006],[126.71585,34.76009],[126.71602,34.76013],[126.71621,34.7602],[126.71638,34.76027],[126.71652,34.76036],[126.71664,34.76046],[126.7169,34.76067],[126.71697,34.76073],[126.71707,34.76077],[126.71764,34.76102],[126.71777,34.76106],[126.71784,34.76108],[126.71792,34.76109],[126.71804,34.76108],[126.71818,34.76104],[126.71966,34.76058],[126.71976,34.76054],[126.7199,34.76048],[126.72004,34.7604],[126.72082,34.75991],[126.72088,34.75986],[126.72089,34.7598],[126.72091,34.7597],[126.72092,34.75962],[126.72098,34.7595],[126.72104,34.7594],[126.7211,34.75933],[126.72117,34.75928],[126.72146,34.75915],[126.72158,34.75911],[126.72175,34.75905],[126.72191,34.759],[126.72204,34.75898],[126.72409,34.75908],[126.72644,34.75941],[126.72669,34.75947],[126.72687,34.75959],[126.72712,34.75988],[126.72729,34.76014],[126.72737,34.76026],[126.72754,34.76038],[126.72885,34.76105],[126.729,34.76111],[126.72914,34.76111],[126.73227,34.76032],[126.7324,34.76026],[126.7326,34.75999],[126.7327,34.75977],[126.73278,34.75951],[126.7329,34.75922],[126.73302,34.75902],[126.73393,34.75774],[126.7343,34.75725],[126.73449,34.75707],[126.73465,34.75701],[126.73769,34.75629],[126.73794,34.75623],[126.73811,34.75624],[126.73826,34.75626],[126.7418,34.75667],[126.74325,34.75673]]]]}},{"type":"Feature","properties":{"code":"12780370","name":"작천면","parent":"12780"},"geometry":{"type":"MultiPolygon","coordinates":[[[[126.78946,34.73441],[126.78921,34.73438],[126.78909,34.73435],[126.78896,34.73429],[126.78883,34.73424],[126.7886,34.73412],[126.78834,34.73394],[126.78819,34.73377],[126.78812,34.73363],[126.78809,34.73353],[126.78806,34.73338],[126.78808,34.73327],[126.78875,34.73092],[126.78882,34.73069],[126.78885,34.7306],[126.78895,34.73039],[126.78987,34.72895],[126.78998,34.72883],[126.7911,34.72785],[126.79123,34.72776],[126.79265,34.72681],[126.79273,34.72676],[126.79287,34.72671],[126.79297,34.72668],[126.79307,34.72666],[126.79323,34.72666],[126.79351,34.72666],[126.7937,34.72667],[126.79389,34.72668],[126.79399,34.72668],[126.79408,34.72665],[126.79418,34.72662],[126.79433,34.72655],[126.79455,34.72638],[126.79472,34.7262],[126.79483,34.72609],[126.79502,34.72573],[126.79505,34.72566],[126.79513,34.72542],[126.7953,34.72486],[126.79537,34.72464],[126.7954,34.72452],[126.79542,34.72445],[126.79543,34.72441],[126.79422,34.72047],[126.79385,34.71971],[126.79378,34.71967],[126.79273,34.7192],[126.7926,34.71916],[126.79117,34.71334],[126.79005,34.70999],[126.79003,34.70992],[126.79312,34.70648],[126.79325,34.70641],[126.79356,34.70629],[126.79531,34.70566],[126.79537,34.70565],[126.79542,34.70566],[126.79587,34.70579],[126.7959,34.7058],[126.79668,34.70626],[126.79676,34.70631],[126.79956,34.70826],[126.79958,34.70829],[126.79982,34.70894],[126.79984,34.70901],[126.79986,34.70911],[126.79987,34.70924],[126.79988,34.7094],[126.79989,34.70946],[126.79993,34.70957],[126.8,34.70968],[126.80005,34.70973],[126.80012,34.70978],[126.80017,34.70981],[126.80026,34.70984],[126.80037,34.70986],[126.80059,34.70989],[126.80078,34.70991],[126.80112,34.70993],[126.80143,34.70993],[126.80219,34.7099],[126.80237,34.70988],[126.80257,34.70984],[126.80285,34.70977],[126.80315,34.70969],[126.80448,34.70929],[126.80472,34.70921],[126.80477,34.70919],[126.80481,34.70914],[126.80484,34.70909],[126.80667,34.70642],[126.80672,34.70635],[126.80674,34.70627],[126.80674,34.70618],[126.80674,34.70613],[126.80671,34.70607],[126.8066,34.70593],[126.80645,34.70571],[126.8064,34.70564],[126.80636,34.70552],[126.80638,34.70539],[126.8064,34.70532],[126.80642,34.70529],[126.80651,34.70514],[126.80657,34.70507],[126.80676,34.70487],[126.80688,34.70474],[126.80741,34.70419],[126.80749,34.70411],[126.80756,34.70406],[126.80762,34.70403],[126.80779,34.70396],[126.80831,34.70376],[126.80928,34.7034],[126.80965,34.70327],[126.81017,34.70312],[126.81068,34.70299],[126.81152,34.70282],[126.81572,34.70209],[126.8158,34.70209],[126.8159,34.70211],[126.81606,34.70216],[126.81612,34.70219],[126.81622,34.70225],[126.81632,34.70235],[126.81703,34.70323],[126.81705,34.7033],[126.81701,34.7034],[126.81698,34.70348],[126.81697,34.70354],[126.81699,34.70364],[126.81702,34.70371],[126.81708,34.70379],[126.81718,34.70387],[126.81735,34.70395],[126.81743,34.70398],[126.81758,34.70404],[126.8177,34.70405],[126.81775,34.70404],[126.81783,34.70402],[126.81994,34.70326],[126.82011,34.70318],[126.82027,34.7031],[126.82032,34.70308],[126.82035,34.70305],[126.82291,34.70009],[126.82293,34.70007],[126.82293,34.70002],[126.82293,34.69998],[126.82291,34.69993],[126.82266,34.69951],[126.82249,34.69924],[126.82246,34.69921],[126.82205,34.69868],[126.82168,34.69832],[126.82156,34.69827],[126.82136,34.69824],[126.82123,34.69826],[126.82103,34.69835],[126.81934,34.69583],[126.81907,34.69267],[126.82113,34.68661],[126.82122,34.68638],[126.82134,34.68606],[126.82137,34.68599],[126.8215,34.68575],[126.8217,34.68544],[126.82175,34.68538],[126.82182,34.68529],[126.82192,34.68518],[126.82196,34.68516],[126.82204,34.68513],[126.82275,34.68499],[126.82354,34.68485],[126.82379,34.68482],[126.82456,34.68481],[126.82503,34.68483],[126.82528,34.68485],[126.82595,34.68493],[126.8265,34.68505],[126.82682,34.68512],[126.82697,34.68514],[126.82701,34.68514],[126.82743,34.68458],[126.82748,34.6845],[126.8274,34.68348],[126.82724,34.68225],[126.82719,34.67894],[126.8272,34.67885],[126.82721,34.67879],[126.82734,34.67864],[126.82841,34.6775],[126.82857,34.67735],[126.82881,34.67713],[126.82922,34.67614],[126.82934,34.67447],[126.82929,34.67298],[126.82876,34.6712],[126.82816,34.67109],[126.82648,34.67088],[126.82608,34.67112],[126.8256,34.67168],[126.8255,34.67225],[126.82516,34.67303],[126.82467,34.67408],[126.82379,34.67561],[126.82325,34.67649],[126.8223,34.67805],[126.82209,34.67834],[126.8199,34.67957],[126.81828,34.67989],[126.81759,34.67971],[126.81725,34.6792],[126.81686,34.6788],[126.8161,34.67864],[126.81579,34.6786],[126.81477,34.67853],[126.81433,34.67861],[126.81075,34.68032],[126.80989,34.68074],[126.80945,34.68099],[126.8091,34.68127],[126.80836,34.68199],[126.80768,34.68249],[126.80707,34.68264],[126.80508,34.68288],[126.80458,34.68284],[126.80334,34.68263],[126.80287,34.68299],[126.80024,34.68374],[126.79971,34.68348],[126.79924,34.68317],[126.7989,34.68284],[126.79904,34.68244],[126.79934,34.682],[126.7995,34.68157],[126.79981,34.67851],[126.79937,34.67813],[126.79873,34.67775],[126.7982,34.67744],[126.79676,34.67698],[126.7963,34.67698],[126.79556,34.6771],[126.79467,34.67707],[126.78826,34.67472],[126.78787,34.67452],[126.7875,34.67409],[126.78739,34.67318],[126.78377,34.66985],[126.78273,34.66998],[126.78134,34.6702],[126.78164,34.67078],[126.78143,34.67121],[126.78099,34.67187],[126.78034,34.67208],[126.77972,34.67227],[126.77905,34.67238],[126.77639,34.67273],[126.77593,34.67264],[126.77445,34.67119],[126.77408,34.67039],[126.77332,34.67006],[126.77217,34.67004],[126.77031,34.67013],[126.77029,34.672],[126.77028,34.67215],[126.77025,34.67229],[126.77019,34.67241],[126.76959,34.67369],[126.76954,34.67376],[126.76948,34.67381],[126.76819,34.67452],[126.76805,34.67458],[126.76792,34.6746],[126.7678,34.67459],[126.76757,34.67456],[126.76743,34.67453],[126.76731,34.67453],[126.76724,34.67453],[126.76714,34.67455],[126.76629,34.67512],[126.76614,34.67524],[126.7644,34.67663],[126.76436,34.67668],[126.76338,34.67845],[126.76329,34.67927],[126.76314,34.68068],[126.76311,34.68097],[126.76307,34.68118],[126.76303,34.6813],[126.76295,34.6815],[126.76288,34.68167],[126.76279,34.68185],[126.76269,34.68202],[126.76253,34.68228],[126.76234,34.68255],[126.76226,34.68264],[126.76212,34.68282],[126.76202,34.68292],[126.76186,34.68309],[126.7617,34.68322],[126.76138,34.68347],[126.76113,34.68369],[126.76101,34.6838],[126.76036,34.68444],[126.76015,34.68466],[126.76008,34.68476],[126.75999,34.68493],[126.75849,34.68833],[126.75839,34.6886],[126.75832,34.68883],[126.75827,34.68901],[126.75822,34.68943],[126.75817,34.68992],[126.75816,34.69017],[126.75817,34.69081],[126.7582,34.69106],[126.75822,34.69158],[126.75822,34.69237],[126.75821,34.69281],[126.75819,34.69306],[126.75816,34.69318],[126.7581,34.69333],[126.75807,34.6934],[126.75802,34.69352],[126.75796,34.69362],[126.75789,34.69372],[126.75779,34.69383],[126.7577,34.69389],[126.75762,34.69394],[126.75619,34.69481],[126.75559,34.69516],[126.75185,34.69757],[126.74756,34.70114],[126.74593,34.70296],[126.74206,34.7037],[126.74193,34.70365],[126.7418,34.70362],[126.73811,34.70274],[126.73805,34.70274],[126.73751,34.70273],[126.73737,34.70274],[126.73723,34.70277],[126.73449,34.70335],[126.73442,34.70337],[126.73273,34.70438],[126.7326,34.70574],[126.73264,34.70581],[126.73265,34.70589],[126.73265,34.70604],[126.73263,34.70624],[126.7326,34.70632],[126.73245,34.70659],[126.7321,34.70713],[126.73195,34.70733],[126.73184,34.70744],[126.73129,34.70795],[126.73122,34.70801],[126.72577,34.71135],[126.72295,34.71291],[126.72264,34.71297],[126.72231,34.713],[126.72198,34.71301],[126.72156,34.71301],[126.7204,34.7135],[126.7195,34.71446],[126.71943,34.71455],[126.71938,34.7147],[126.71935,34.71483],[126.71933,34.71528],[126.71933,34.71564],[126.71934,34.71598],[126.71942,34.71607],[126.71956,34.7162],[126.71966,34.71637],[126.71971,34.71648],[126.72014,34.7174],[126.72019,34.71753],[126.72024,34.71765],[126.72024,34.71775],[126.72023,34.71784],[126.71992,34.71974],[126.71969,34.72064],[126.71957,34.72089],[126.71953,34.72103],[126.71953,34.72129],[126.71953,34.72156],[126.71955,34.72175],[126.71964,34.72192],[126.71973,34.72205],[126.71992,34.72224],[126.72016,34.72242],[126.72035,34.72252],[126.72065,34.72266],[126.72341,34.72352],[126.72353,34.72353],[126.72406,34.72351],[126.72499,34.7235],[126.72568,34.72354],[126.72652,34.72367],[126.72693,34.72381],[126.72737,34.72405],[126.72826,34.72457],[126.7286,34.72479],[126.72874,34.7249],[126.72879,34.72496],[126.72891,34.72511],[126.72901,34.7253],[126.72913,34.72565],[126.72921,34.72588],[126.72922,34.726],[126.72919,34.72615],[126.72903,34.72694],[126.72961,34.72938],[126.72965,34.72954],[126.7297,34.72967],[126.72975,34.72978],[126.72978,34.72983],[126.72987,34.72994],[126.72992,34.72999],[126.73001,34.73003],[126.7302,34.7301],[126.73044,34.73015],[126.73066,34.73019],[126.73091,34.73021],[126.73112,34.73023],[126.73146,34.73025],[126.7315,34.73027],[126.73151,34.7303],[126.73153,34.73049],[126.73188,34.73329],[126.73188,34.73334],[126.73231,34.73705],[126.73288,34.74079],[126.73377,34.74331],[126.73425,34.74463],[126.73428,34.74468],[126.73905,34.75239],[126.73912,34.75245],[126.73923,34.75253],[126.7393,34.75256],[126.74067,34.75312],[126.74259,34.75344],[126.74335,34.75493],[126.7434,34.75509],[126.74336,34.75565],[126.74325,34.75673],[126.74652,34.75744],[126.74751,34.75747],[126.75002,34.7558],[126.75044,34.75523],[126.7507,34.7547],[126.75092,34.75422],[126.75128,34.75312],[126.7514,34.75254],[126.75143,34.75237],[126.75143,34.7523],[126.75138,34.75091],[126.75284,34.74768],[126.75297,34.74768],[126.75312,34.74767],[126.75335,34.74763],[126.75357,34.74758],[126.75367,34.74756],[126.75383,34.7475],[126.75411,34.74734],[126.75452,34.74707],[126.7547,34.74693],[126.75494,34.7467],[126.75501,34.74662],[126.75508,34.74647],[126.75515,34.74632],[126.75537,34.74574],[126.75547,34.74546],[126.75601,34.74387],[126.75603,34.7438],[126.75603,34.74371],[126.75601,34.74357],[126.75597,34.74348],[126.75593,34.74336],[126.75592,34.74327],[126.75593,34.74321],[126.75596,34.74312],[126.75604,34.74296],[126.75613,34.74279],[126.75616,34.74276],[126.75622,34.7427],[126.75779,34.74124],[126.75784,34.74121],[126.76284,34.73945],[126.76307,34.73942],[126.76332,34.73941],[126.76478,34.73934],[126.76488,34.73935],[126.76589,34.7395],[126.76594,34.73952],[126.76597,34.73953],[126.76671,34.74],[126.76689,34.74015],[126.76713,34.74043],[126.76724,34.74058],[126.76734,34.74069],[126.76739,34.7407],[126.7674,34.74064],[126.7674,34.74017],[126.76739,34.7397],[126.76721,34.73799],[126.76715,34.73755],[126.76711,34.73738],[126.76705,34.73729],[126.76607,34.73582],[126.76595,34.73572],[126.7659,34.73567],[126.76583,34.73554],[126.76578,34.73542],[126.76576,34.73507],[126.7658,34.73495],[126.76587,34.73479],[126.7659,34.73473],[126.76598,34.73461],[126.76613,34.7344],[126.76631,34.73419],[126.76637,34.73413],[126.76821,34.73294],[126.76829,34.73289],[126.76841,34.73282],[126.76851,34.73278],[126.76861,34.73278],[126.76869,34.73278],[126.7742,34.73326],[126.77505,34.73339],[126.77533,34.73344],[126.77545,34.73347],[126.77565,34.73354],[126.77579,34.73361],[126.77592,34.73368],[126.77621,34.73386],[126.77652,34.73411],[126.77665,34.73423],[126.77672,34.73429],[126.77708,34.73458],[126.77761,34.73495],[126.77785,34.73508],[126.77811,34.73524],[126.77829,34.73533],[126.77841,34.73539],[126.77856,34.73542],[126.77972,34.73557],[126.78377,34.73594],[126.78559,34.73562],[126.7886,34.73498],[126.78874,34.73494],[126.7889,34.73488],[126.78906,34.73478],[126.78946,34.73441]]]]}},{"type":"Feature","properties":{"code":"12780380","name":"병영면","parent":"12780"},"geometry":{"type":"MultiPolygon","coordinates":[[[[126.83539,34.73637],[126.83662,34.73539],[126.83788,34.7349],[126.84018,34.73374],[126.8402,34.7337],[126.84081,34.73137],[126.84082,34.73135],[126.8408,34.73131],[126.84075,34.7312],[126.84058,34.73088],[126.84041,34.73056],[126.8403,34.7303],[126.84029,34.73027],[126.84074,34.72735],[126.84075,34.7273],[126.84077,34.72718],[126.8408,34.72713],[126.84091,34.72692],[126.84122,34.72653],[126.84155,34.72614],[126.84188,34.72577],[126.84196,34.72572],[126.84212,34.72565],[126.85101,34.72259],[126.85141,34.72264],[126.85219,34.72268],[126.85225,34.72268],[126.85228,34.72264],[126.85257,34.72177],[126.85258,34.72173],[126.85254,34.72088],[126.85253,34.72082],[126.85248,34.72077],[126.85193,34.72027],[126.85182,34.72024],[126.85169,34.72024],[126.85077,34.72026],[126.85055,34.72027],[126.8503,34.7203],[126.84999,34.72034],[126.84959,34.7204],[126.84939,34.72044],[126.84915,34.72048],[126.84859,34.72027],[126.84856,34.72025],[126.84821,34.71976],[126.84818,34.71973],[126.84684,34.71711],[126.84682,34.71707],[126.84679,34.71694],[126.84688,34.7167],[126.84693,34.71661],[126.84712,34.71643],[126.84724,34.71636],[126.84739,34.71629],[126.84756,34.71622],[126.84768,34.71618],[126.84779,34.71611],[126.84788,34.71602],[126.84794,34.71592],[126.84817,34.71542],[126.84865,34.71424],[126.84873,34.71401],[126.84874,34.71394],[126.84874,34.71376],[126.84871,34.71308],[126.84867,34.71262],[126.84854,34.71114],[126.84826,34.70981],[126.84812,34.70966],[126.84805,34.70952],[126.84818,34.70848],[126.8483,34.7078],[126.84833,34.70772],[126.84839,34.70761],[126.84901,34.70682],[126.84913,34.70668],[126.84982,34.70604],[126.85101,34.70466],[126.85406,34.70108],[126.85413,34.70098],[126.85419,34.70089],[126.85424,34.7008],[126.85447,34.70037],[126.85457,34.70013],[126.85466,34.69992],[126.85468,34.69984],[126.85469,34.69963],[126.85469,34.69957],[126.85463,34.69934],[126.85453,34.69902],[126.85437,34.69855],[126.85431,34.69838],[126.85424,34.69827],[126.85415,34.69816],[126.85401,34.69803],[126.8539,34.69794],[126.85385,34.6979],[126.8538,34.69784],[126.85375,34.69776],[126.85372,34.69771],[126.85371,34.69767],[126.85366,34.69753],[126.85349,34.69677],[126.85347,34.69657],[126.85352,34.69168],[126.85379,34.68857],[126.85381,34.68835],[126.85387,34.68807],[126.85394,34.68785],[126.85407,34.68749],[126.85426,34.68711],[126.85439,34.68689],[126.85455,34.68666],[126.8547,34.68652],[126.85491,34.68634],[126.85504,34.68625],[126.85531,34.68611],[126.8555,34.68604],[126.85605,34.68582],[126.8561,34.68577],[126.85614,34.68572],[126.85618,34.68567],[126.85625,34.68554],[126.85635,34.68535],[126.85677,34.68445],[126.85681,34.68435],[126.85689,34.68399],[126.85699,34.68339],[126.85702,34.68319],[126.85702,34.68314],[126.85693,34.68274],[126.85688,34.68258],[126.85682,34.68244],[126.85672,34.68229],[126.85665,34.68223],[126.85645,34.68211],[126.85566,34.68165],[126.85477,34.68119],[126.84994,34.68086],[126.8495,34.68112],[126.84914,34.68143],[126.84891,34.68168],[126.84836,34.68216],[126.84747,34.68198],[126.84677,34.68166],[126.84583,34.68055],[126.84541,34.67989],[126.84438,34.67795],[126.84454,34.6775],[126.8447,34.67642],[126.8445,34.67501],[126.84411,34.67431],[126.84386,34.67395],[126.84354,34.67388],[126.84237,34.6742],[126.84103,34.67445],[126.8393,34.67473],[126.83828,34.67483],[126.83766,34.67463],[126.83539,34.67381],[126.83472,34.67348],[126.82983,34.67161],[126.82876,34.6712],[126.82929,34.67298],[126.82934,34.67447],[126.82922,34.67614],[126.82881,34.67713],[126.82857,34.67735],[126.82841,34.6775],[126.82734,34.67864],[126.82721,34.67879],[126.8272,34.67885],[126.82719,34.67894],[126.82724,34.68225],[126.8274,34.68348],[126.82748,34.6845],[126.82743,34.68458],[126.82701,34.68514],[126.82697,34.68514],[126.82682,34.68512],[126.8265,34.68505],[126.82595,34.68493],[126.82528,34.68485],[126.82503,34.68483],[126.82456,34.68481],[126.82379,34.68482],[126.82354,34.68485],[126.82275,34.68499],[126.82204,34.68513],[126.82196,34.68516],[126.82192,34.68518],[126.82182,34.68529],[126.82175,34.68538],[126.8217,34.68544],[126.8215,34.68575],[126.82137,34.68599],[126.82134,34.68606],[126.82122,34.68638],[126.82113,34.68661],[126.81907,34.69267],[126.81934,34.69583],[126.82103,34.69835],[126.82123,34.69826],[126.82136,34.69824],[126.82156,34.69827],[126.82168,34.69832],[126.82205,34.69868],[126.82246,34.69921],[126.82249,34.69924],[126.82266,34.69951],[126.82291,34.69993],[126.82293,34.69998],[126.82293,34.70002],[126.82293,34.70007],[126.82291,34.70009],[126.82035,34.70305],[126.82032,34.70308],[126.82027,34.7031],[126.82011,34.70318],[126.81994,34.70326],[126.81783,34.70402],[126.81775,34.70404],[126.8177,34.70405],[126.81758,34.70404],[126.81743,34.70398],[126.81735,34.70395],[126.81718,34.70387],[126.81708,34.70379],[126.81702,34.70371],[126.81699,34.70364],[126.81697,34.70354],[126.81698,34.70348],[126.81701,34.7034],[126.81705,34.7033],[126.81703,34.70323],[126.81632,34.70235],[126.81622,34.70225],[126.81612,34.70219],[126.81606,34.70216],[126.8159,34.70211],[126.8158,34.70209],[126.81572,34.70209],[126.81152,34.70282],[126.81068,34.70299],[126.81017,34.70312],[126.80965,34.70327],[126.80928,34.7034],[126.80831,34.70376],[126.80779,34.70396],[126.80762,34.70403],[126.80756,34.70406],[126.80749,34.70411],[126.80741,34.70419],[126.80688,34.70474],[126.80676,34.70487],[126.80657,34.70507],[126.80651,34.70514],[126.80642,34.70529],[126.8064,34.70532],[126.80638,34.70539],[126.80636,34.70552],[126.8064,34.70564],[126.80645,34.70571],[126.8066,34.70593],[126.80671,34.70607],[126.80674,34.70613],[126.80674,34.70618],[126.80674,34.70627],[126.80672,34.70635],[126.80667,34.70642],[126.80484,34.70909],[126.80481,34.70914],[126.80477,34.70919],[126.80472,34.70921],[126.80448,34.70929],[126.80315,34.70969],[126.80285,34.70977],[126.80257,34.70984],[126.80237,34.70988],[126.80219,34.7099],[126.80143,34.70993],[126.80112,34.70993],[126.80078,34.70991],[126.80059,34.70989],[126.80037,34.70986],[126.80026,34.70984],[126.80017,34.70981],[126.80012,34.70978],[126.80005,34.70973],[126.8,34.70968],[126.79993,34.70957],[126.79989,34.70946],[126.79988,34.7094],[126.79987,34.70924],[126.79986,34.70911],[126.79984,34.70901],[126.79982,34.70894],[126.79958,34.70829],[126.79956,34.70826],[126.79676,34.70631],[126.79668,34.70626],[126.7959,34.7058],[126.79587,34.70579],[126.79542,34.70566],[126.79537,34.70565],[126.79531,34.70566],[126.79356,34.70629],[126.79325,34.70641],[126.79312,34.70648],[126.79003,34.70992],[126.79005,34.70999],[126.79117,34.71334],[126.7926,34.71916],[126.79273,34.7192],[126.79378,34.71967],[126.79385,34.71971],[126.79422,34.72047],[126.79543,34.72441],[126.79542,34.72445],[126.7954,34.72452],[126.79537,34.72464],[126.7953,34.72486],[126.79513,34.72542],[126.79505,34.72566],[126.79502,34.72573],[126.79483,34.72609],[126.79472,34.7262],[126.79455,34.72638],[126.79433,34.72655],[126.79418,34.72662],[126.79408,34.72665],[126.79399,34.72668],[126.79389,34.72668],[126.7937,34.72667],[126.79351,34.72666],[126.79323,34.72666],[126.79307,34.72666],[126.79297,34.72668],[126.79287,34.72671],[126.79273,34.72676],[126.79265,34.72681],[126.79123,34.72776],[126.7911,34.72785],[126.78998,34.72883],[126.78987,34.72895],[126.78895,34.73039],[126.78885,34.7306],[126.78882,34.73069],[126.78875,34.73092],[126.78808,34.73327],[126.78806,34.73338],[126.78809,34.73353],[126.78812,34.73363],[126.78819,34.73377],[126.78834,34.73394],[126.7886,34.73412],[126.78883,34.73424],[126.78896,34.73429],[126.78909,34.73435],[126.78921,34.73438],[126.78946,34.73441],[126.78977,34.73431],[126.79009,34.73423],[126.79029,34.7342],[126.79039,34.73419],[126.7905,34.73418],[126.79071,34.73419],[126.79084,34.73422],[126.79193,34.73455],[126.79209,34.73464],[126.79219,34.73473],[126.79229,34.73481],[126.7924,34.73498],[126.7925,34.7351],[126.79256,34.73516],[126.79274,34.73528],[126.79285,34.73533],[126.79301,34.73539],[126.79318,34.73543],[126.79678,34.73602],[126.79913,34.73643],[126.8023,34.73733],[126.80236,34.73735],[126.8026,34.7374],[126.80286,34.73744],[126.80302,34.73745],[126.80332,34.73746],[126.80367,34.73745],[126.80404,34.73742],[126.80479,34.73735],[126.8054,34.73723],[126.80571,34.73711],[126.8059,34.73705],[126.80604,34.73701],[126.80619,34.73698],[126.80632,34.73695],[126.80654,34.73693],[126.80773,34.73687],[126.80805,34.73688],[126.81126,34.73723],[126.81141,34.73727],[126.81328,34.73786],[126.81342,34.73791],[126.81354,34.73797],[126.8137,34.73807],[126.81381,34.73814],[126.81387,34.7382],[126.81393,34.73833],[126.81401,34.73864],[126.81407,34.73882],[126.81416,34.73898],[126.81424,34.73912],[126.81431,34.73922],[126.81438,34.73932],[126.81448,34.73942],[126.8146,34.73954],[126.8147,34.73962],[126.81478,34.73968],[126.8169,34.74081],[126.81695,34.74083],[126.81725,34.74091],[126.81744,34.74095],[126.81756,34.74093],[126.821,34.74083],[126.82278,34.74093],[126.82283,34.74056],[126.82284,34.74046],[126.82289,34.74037],[126.82294,34.7403],[126.82462,34.73852],[126.82541,34.73799],[126.82724,34.73799],[126.82902,34.73707],[126.83142,34.73589],[126.83162,34.73579],[126.8317,34.73576],[126.83179,34.73572],[126.83188,34.7357],[126.83197,34.73569],[126.83215,34.73568],[126.83229,34.73568],[126.83539,34.73637]]]]}},{"type":"Feature","properties":{"code":"12780390","name":"옴천면","parent":"12780"},"geometry":{"type":"MultiPolygon","coordinates":[[[[126.79587,34.7805],[126.79616,34.7805],[126.7965,34.78049],[126.79676,34.78036],[126.79816,34.77926],[126.79918,34.77846],[126.79951,34.77818],[126.79974,34.77756],[126.80002,34.77723],[126.80059,34.77711],[126.80186,34.77712],[126.8024,34.77714],[126.80418,34.77774],[126.80497,34.77814],[126.8055,34.77837],[126.8075,34.77862],[126.80806,34.77851],[126.80846,34.77838],[126.809,34.77822],[126.80945,34.7782],[126.81009,34.77825],[126.81045,34.77838],[126.81085,34.77862],[126.81157,34.77952],[126.81213,34.78022],[126.81242,34.78042],[126.81298,34.78043],[126.81327,34.78036],[126.81399,34.77976],[126.81702,34.7767],[126.81719,34.77643],[126.81746,34.77561],[126.81756,34.77515],[126.81758,34.77505],[126.81753,34.77457],[126.81731,34.77255],[126.81719,34.77209],[126.81704,34.77159],[126.81625,34.77004],[126.81607,34.76972],[126.81547,34.76912],[126.81464,34.76855],[126.81439,34.76826],[126.81416,34.76797],[126.81418,34.76748],[126.81426,34.76729],[126.81437,34.76702],[126.81487,34.76655],[126.8168,34.76522],[126.81733,34.76508],[126.818,34.76494],[126.81909,34.76307],[126.81979,34.76075],[126.81997,34.75958],[126.81969,34.75949],[126.81948,34.7594],[126.81925,34.75927],[126.81901,34.7591],[126.81883,34.75886],[126.81865,34.75859],[126.81857,34.75833],[126.81854,34.75807],[126.81851,34.7578],[126.81855,34.75751],[126.81865,34.75725],[126.81881,34.75701],[126.82097,34.75408],[126.82192,34.75341],[126.82216,34.75324],[126.82379,34.74817],[126.82389,34.7476],[126.82448,34.74599],[126.82461,34.74564],[126.82537,34.74387],[126.82543,34.74379],[126.82551,34.7437],[126.83148,34.73718],[126.83159,34.73712],[126.83539,34.73637],[126.83229,34.73568],[126.83215,34.73568],[126.83197,34.73569],[126.83188,34.7357],[126.83179,34.73572],[126.8317,34.73576],[126.83162,34.73579],[126.83142,34.73589],[126.82902,34.73707],[126.82724,34.73799],[126.82541,34.73799],[126.82462,34.73852],[126.82294,34.7403],[126.82289,34.74037],[126.82284,34.74046],[126.82283,34.74056],[126.82278,34.74093],[126.821,34.74083],[126.81756,34.74093],[126.81744,34.74095],[126.81725,34.74091],[126.81695,34.74083],[126.8169,34.74081],[126.81478,34.73968],[126.8147,34.73962],[126.8146,34.73954],[126.81448,34.73942],[126.81438,34.73932],[126.81431,34.73922],[126.81424,34.73912],[126.81416,34.73898],[126.81407,34.73882],[126.81401,34.73864],[126.81393,34.73833],[126.81387,34.7382],[126.81381,34.73814],[126.8137,34.73807],[126.81354,34.73797],[126.81342,34.73791],[126.81328,34.73786],[126.81141,34.73727],[126.81126,34.73723],[126.80805,34.73688],[126.80773,34.73687],[126.80654,34.73693],[126.80632,34.73695],[126.80619,34.73698],[126.80604,34.73701],[126.8059,34.73705],[126.80571,34.73711],[126.8054,34.73723],[126.80479,34.73735],[126.80404,34.73742],[126.80367,34.73745],[126.80332,34.73746],[126.80302,34.73745],[126.80286,34.73744],[126.8026,34.7374],[126.80236,34.73735],[126.8023,34.73733],[126.79913,34.73643],[126.79678,34.73602],[126.79318,34.73543],[126.79301,34.73539],[126.79285,34.73533],[126.79274,34.73528],[126.79256,34.73516],[126.7925,34.7351],[126.7924,34.73498],[126.79229,34.73481],[126.79219,34.73473],[126.79209,34.73464],[126.79193,34.73455],[126.79084,34.73422],[126.79071,34.73419],[126.7905,34.73418],[126.79039,34.73419],[126.79029,34.7342],[126.79009,34.73423],[126.78977,34.73431],[126.78946,34.73441],[126.78906,34.73478],[126.7889,34.73488],[126.78874,34.73494],[126.7886,34.73498],[126.78559,34.73562],[126.78377,34.73594],[126.77972,34.73557],[126.77856,34.73542],[126.77841,34.73539],[126.77829,34.73533],[126.77811,34.73524],[126.77785,34.73508],[126.77761,34.73495],[126.77708,34.73458],[126.77672,34.73429],[126.77665,34.73423],[126.77652,34.73411],[126.77621,34.73386],[126.77592,34.73368],[126.77579,34.73361],[126.77565,34.73354],[126.77545,34.73347],[126.77533,34.73344],[126.77505,34.73339],[126.7742,34.73326],[126.76869,34.73278],[126.76861,34.73278],[126.76851,34.73278],[126.76841,34.73282],[126.76829,34.73289],[126.76821,34.73294],[126.76637,34.73413],[126.76631,34.73419],[126.76613,34.7344],[126.76598,34.73461],[126.7659,34.73473],[126.76587,34.73479],[126.7658,34.73495],[126.76576,34.73507],[126.76578,34.73542],[126.76583,34.73554],[126.7659,34.73567],[126.76595,34.73572],[126.76607,34.73582],[126.76705,34.73729],[126.76711,34.73738],[126.76715,34.73755],[126.76721,34.73799],[126.76739,34.7397],[126.7674,34.74017],[126.7674,34.74064],[126.76739,34.7407],[126.76734,34.74069],[126.76724,34.74058],[126.76713,34.74043],[126.76689,34.74015],[126.76671,34.74],[126.76597,34.73953],[126.76594,34.73952],[126.76589,34.7395],[126.76488,34.73935],[126.76478,34.73934],[126.76332,34.73941],[126.76307,34.73942],[126.76284,34.73945],[126.75784,34.74121],[126.75779,34.74124],[126.75622,34.7427],[126.75616,34.74276],[126.75613,34.74279],[126.75604,34.74296],[126.75596,34.74312],[126.75593,34.74321],[126.75592,34.74327],[126.75593,34.74336],[126.75597,34.74348],[126.75601,34.74357],[126.75603,34.74371],[126.75603,34.7438],[126.75601,34.74387],[126.75547,34.74546],[126.75537,34.74574],[126.75515,34.74632],[126.75508,34.74647],[126.75501,34.74662],[126.75494,34.7467],[126.7547,34.74693],[126.75452,34.74707],[126.75411,34.74734],[126.75383,34.7475],[126.75367,34.74756],[126.75357,34.74758],[126.75335,34.74763],[126.75312,34.74767],[126.75297,34.74768],[126.75284,34.74768],[126.75138,34.75091],[126.75143,34.7523],[126.75143,34.75237],[126.7514,34.75254],[126.75128,34.75312],[126.75092,34.75422],[126.7507,34.7547],[126.75044,34.75523],[126.75002,34.7558],[126.74751,34.75747],[126.74652,34.75744],[126.74805,34.75945],[126.74875,34.76276],[126.74883,34.76321],[126.74908,34.76353],[126.74976,34.76431],[126.75019,34.76466],[126.75051,34.76486],[126.75103,34.76506],[126.75362,34.76555],[126.75389,34.76555],[126.75577,34.76868],[126.75884,34.77032],[126.76069,34.77033],[126.7619,34.77047],[126.7621,34.77057],[126.7623,34.77091],[126.76331,34.77375],[126.76342,34.77415],[126.76343,34.77433],[126.7634,34.7745],[126.76293,34.77521],[126.76255,34.77587],[126.76248,34.77638],[126.76255,34.77665],[126.76274,34.77727],[126.7649,34.7817],[126.76512,34.78187],[126.76798,34.78337],[126.76999,34.78398],[126.77004,34.78489],[126.77009,34.78581],[126.77103,34.78581],[126.77247,34.78575],[126.7734,34.78525],[126.77548,34.78544],[126.77647,34.78564],[126.77733,34.78596],[126.7783,34.78644],[126.77878,34.78694],[126.77923,34.78726],[126.7796,34.78746],[126.78022,34.78769],[126.78044,34.7877],[126.78054,34.78771],[126.78086,34.78762],[126.78113,34.78748],[126.7822,34.78684],[126.78272,34.78647],[126.78284,34.78618],[126.78296,34.78563],[126.78271,34.7846],[126.78275,34.78395],[126.78297,34.7832],[126.78407,34.78087],[126.78422,34.78074],[126.78466,34.78066],[126.78508,34.78063],[126.78569,34.78069],[126.78635,34.78083],[126.78683,34.78096],[126.78838,34.78106],[126.79276,34.78089],[126.79444,34.78081],[126.79488,34.78071],[126.79587,34.7805]]]]}}]}