{"type":"FeatureCollection","features":[{"type":"Feature","properties":{"code":"52740250","name":"장수읍","parent":"52740"},"geometry":{"type":"MultiPolygon","coordinates":[[[[127.5437,35.6821],[127.54368,35.68145],[127.54386,35.68071],[127.54475,35.67727],[127.54563,35.67602],[127.54772,35.67244],[127.54797,35.67129],[127.548,35.67118],[127.54808,35.67104],[127.54842,35.67054],[127.5486,35.67031],[127.5498,35.669],[127.54987,35.66896],[127.55171,35.66813],[127.55189,35.66807],[127.55235,35.66793],[127.55249,35.66789],[127.55263,35.66787],[127.5552,35.66778],[127.5566,35.66782],[127.55765,35.66806],[127.55952,35.66831],[127.55957,35.66831],[127.55972,35.6683],[127.56118,35.66811],[127.56137,35.66807],[127.5616,35.66799],[127.56186,35.66782],[127.56205,35.66768],[127.56356,35.66649],[127.56491,35.66407],[127.56496,35.66397],[127.56666,35.65936],[127.56669,35.65926],[127.56687,35.65854],[127.56689,35.65843],[127.56688,35.65836],[127.56676,35.65813],[127.56674,35.65801],[127.56679,35.65779],[127.56687,35.65748],[127.56828,35.65429],[127.56843,35.654],[127.56873,35.6534],[127.56878,35.65335],[127.56891,35.6533],[127.57261,35.65182],[127.57582,35.65047],[127.57598,35.65038],[127.5762,35.65023],[127.57649,35.65002],[127.57712,35.64949],[127.57718,35.64944],[127.57787,35.64875],[127.57905,35.6474],[127.57909,35.64734],[127.58156,35.64221],[127.58246,35.63805],[127.58246,35.63796],[127.58249,35.63788],[127.5885,35.63238],[127.58858,35.63232],[127.59072,35.63154],[127.59086,35.63149],[127.59092,35.63149],[127.59112,35.63154],[127.59136,35.63158],[127.59154,35.6316],[127.59173,35.6316],[127.59188,35.63159],[127.59201,35.63155],[127.59379,35.63092],[127.59395,35.63086],[127.59405,35.6308],[127.59476,35.63016],[127.59485,35.63005],[127.59491,35.62994],[127.59507,35.62903],[127.59359,35.62668],[127.59332,35.62531],[127.5933,35.62471],[127.59338,35.62442],[127.59338,35.62426],[127.59323,35.62352],[127.59317,35.62333],[127.59307,35.62315],[127.59249,35.62229],[127.5902,35.61924],[127.59008,35.61915],[127.58979,35.61904],[127.58859,35.6188],[127.58743,35.61862],[127.5872,35.61862],[127.58714,35.61862],[127.58701,35.6186],[127.58692,35.61857],[127.58115,35.61486],[127.58106,35.6148],[127.58098,35.6147],[127.58093,35.61459],[127.57922,35.61082],[127.57922,35.61077],[127.57927,35.61069],[127.57947,35.61042],[127.57955,35.61021],[127.57959,35.61001],[127.57984,35.60735],[127.57973,35.60721],[127.57893,35.60619],[127.57881,35.60608],[127.57857,35.60589],[127.57842,35.6058],[127.57659,35.60493],[127.57655,35.60494],[127.57546,35.60502],[127.57483,35.60502],[127.57433,35.60502],[127.57222,35.60484],[127.57207,35.60483],[127.57202,35.60483],[127.57197,35.60482],[127.57182,35.60479],[127.57153,35.60472],[127.57041,35.6044],[127.57015,35.60432],[127.56997,35.60428],[127.56791,35.6039],[127.56773,35.60386],[127.56758,35.60388],[127.56739,35.60392],[127.56719,35.60399],[127.56507,35.60449],[127.56122,35.60468],[127.56113,35.60467],[127.56099,35.60463],[127.56069,35.60451],[127.56044,35.60439],[127.56027,35.60428],[127.56019,35.60418],[127.55753,35.60259],[127.55222,35.601],[127.55156,35.60085],[127.54972,35.6005],[127.54959,35.60049],[127.54933,35.60049],[127.54926,35.6005],[127.54907,35.6005],[127.54851,35.60055],[127.54818,35.6006],[127.54801,35.6006],[127.54796,35.60058],[127.54617,35.59908],[127.54608,35.59899],[127.54603,35.59892],[127.54564,35.59818],[127.54556,35.59803],[127.54553,35.59784],[127.54554,35.59769],[127.54556,35.59751],[127.54559,35.59741],[127.54566,35.59729],[127.54586,35.59696],[127.54596,35.59675],[127.54602,35.5966],[127.54629,35.59558],[127.54615,35.5954],[127.5443,35.59348],[127.5427,35.59218],[127.54091,35.59305],[127.53957,35.59374],[127.53948,35.59379],[127.53944,35.59382],[127.53937,35.59388],[127.53933,35.59402],[127.53935,35.59411],[127.5394,35.59422],[127.5396,35.59462],[127.53987,35.59528],[127.54007,35.59587],[127.54015,35.5961],[127.5402,35.59634],[127.54019,35.59647],[127.54016,35.59663],[127.54011,35.59685],[127.54002,35.5971],[127.53992,35.59736],[127.53984,35.59749],[127.53972,35.59761],[127.53968,35.59766],[127.53964,35.59769],[127.53957,35.59776],[127.53938,35.59792],[127.53907,35.59816],[127.53901,35.59821],[127.53887,35.5983],[127.53872,35.59838],[127.53861,35.5984],[127.53846,35.59847],[127.53798,35.5987],[127.53768,35.59887],[127.53731,35.59913],[127.53642,35.59986],[127.53636,35.59992],[127.53631,35.60003],[127.53629,35.60014],[127.53629,35.60122],[127.53629,35.60132],[127.53631,35.60142],[127.5364,35.60157],[127.53657,35.6018],[127.53664,35.6019],[127.53666,35.60201],[127.53668,35.60229],[127.53669,35.60274],[127.53668,35.60302],[127.53659,35.60399],[127.53626,35.60676],[127.53556,35.60838],[127.53546,35.60854],[127.53527,35.60877],[127.53502,35.60905],[127.53401,35.60924],[127.53284,35.6094],[127.53249,35.60943],[127.53186,35.60947],[127.53151,35.60949],[127.53139,35.6095],[127.53116,35.60951],[127.53088,35.60951],[127.52472,35.60912],[127.52294,35.60896],[127.52153,35.60764],[127.52022,35.60587],[127.51989,35.60465],[127.51975,35.60403],[127.51972,35.60389],[127.51973,35.60375],[127.51874,35.6012],[127.51691,35.59949],[127.51387,35.59525],[127.51384,35.59518],[127.51384,35.59512],[127.51403,35.594],[127.51405,35.59387],[127.51426,35.59323],[127.5143,35.59313],[127.51405,35.59174],[127.51375,35.59016],[127.51369,35.59001],[127.51161,35.58521],[127.51154,35.5851],[127.51124,35.58483],[127.51096,35.58463],[127.50943,35.58376],[127.50869,35.58344],[127.50833,35.58336],[127.50806,35.58332],[127.50768,35.5833],[127.50757,35.58329],[127.50735,35.58326],[127.50721,35.58324],[127.50712,35.58322],[127.50693,35.58319],[127.50673,35.58312],[127.50474,35.5824],[127.50442,35.58227],[127.50394,35.58199],[127.5037,35.58179],[127.50338,35.58147],[127.50294,35.58109],[127.5028,35.58098],[127.50257,35.5809],[127.5024,35.58088],[127.50215,35.58088],[127.50193,35.58098],[127.50018,35.58182],[127.49576,35.58389],[127.48857,35.58576],[127.48761,35.58562],[127.48558,35.5831],[127.4855,35.58293],[127.48547,35.58282],[127.48399,35.57691],[127.48389,35.57597],[127.48389,35.5759],[127.48394,35.57583],[127.4841,35.5757],[127.48421,35.57562],[127.48426,35.5756],[127.4847,35.57522],[127.48566,35.57433],[127.48644,35.57345],[127.48659,35.57325],[127.48719,35.57238],[127.48637,35.57122],[127.48588,35.57064],[127.48514,35.56977],[127.48387,35.56828],[127.4822,35.567],[127.48191,35.56686],[127.48186,35.56681],[127.48182,35.56676],[127.4818,35.56672],[127.48181,35.56598],[127.48185,35.56497],[127.48199,35.56347],[127.48202,35.56329],[127.48205,35.56319],[127.48255,35.56222],[127.48291,35.56183],[127.48305,35.5617],[127.48313,35.56158],[127.48315,35.56148],[127.48327,35.55987],[127.48326,35.55975],[127.48322,35.55965],[127.48318,35.55958],[127.4831,35.55949],[127.48304,35.55943],[127.48297,35.55939],[127.48268,35.55924],[127.48225,35.55902],[127.48109,35.55861],[127.48094,35.55857],[127.48074,35.55855],[127.48053,35.55855],[127.47642,35.55871],[127.47334,35.56004],[127.46888,35.56194],[127.46874,35.56199],[127.46824,35.56218],[127.46802,35.56226],[127.4678,35.56234],[127.46756,35.56241],[127.46726,35.5625],[127.46718,35.56252],[127.46686,35.5626],[127.46661,35.56264],[127.46638,35.56267],[127.46629,35.56268],[127.46574,35.56274],[127.46531,35.56278],[127.46521,35.56278],[127.46518,35.56279],[127.46497,35.5628],[127.46471,35.56281],[127.46303,35.56282],[127.46286,35.56282],[127.46278,35.56282],[127.46203,35.56276],[127.4608,35.56264],[127.45946,35.56247],[127.45812,35.56223],[127.45801,35.56214],[127.45794,35.56211],[127.45783,35.56208],[127.45775,35.56206],[127.45744,35.562],[127.45724,35.56197],[127.45709,35.56197],[127.45695,35.56198],[127.45081,35.56519],[127.45035,35.56542],[127.45012,35.56749],[127.45189,35.57052],[127.45369,35.57261],[127.45546,35.57435],[127.45329,35.57699],[127.45322,35.57698],[127.45313,35.577],[127.45186,35.57732],[127.45177,35.57735],[127.45081,35.57774],[127.45072,35.57779],[127.45062,35.57785],[127.45055,35.57789],[127.45044,35.57799],[127.4504,35.57803],[127.45034,35.57814],[127.45033,35.57818],[127.45031,35.57823],[127.45031,35.57825],[127.45032,35.57842],[127.45046,35.57943],[127.45047,35.57952],[127.45049,35.57959],[127.45056,35.57977],[127.45078,35.58028],[127.4508,35.58033],[127.45081,35.5804],[127.45079,35.58051],[127.45077,35.58057],[127.45073,35.58067],[127.45069,35.58074],[127.4506,35.58086],[127.44858,35.58322],[127.44654,35.58757],[127.44495,35.58865],[127.44435,35.58884],[127.44431,35.58887],[127.4427,35.58994],[127.44266,35.58998],[127.44263,35.59002],[127.44242,35.59073],[127.44242,35.59079],[127.44306,35.59298],[127.44312,35.59309],[127.44317,35.59318],[127.44321,35.59323],[127.44325,35.59327],[127.44332,35.59334],[127.44374,35.59371],[127.4442,35.5942],[127.44434,35.59435],[127.44479,35.59547],[127.44481,35.59554],[127.44582,35.60021],[127.44583,35.60032],[127.44584,35.60051],[127.44585,35.60067],[127.44583,35.60276],[127.44582,35.60281],[127.44577,35.60287],[127.44497,35.60369],[127.44488,35.60378],[127.44472,35.60525],[127.44365,35.6087],[127.44218,35.61017],[127.44206,35.61025],[127.44201,35.61029],[127.44198,35.61033],[127.44192,35.61045],[127.44151,35.61205],[127.4415,35.61213],[127.44116,35.61634],[127.44116,35.6164],[127.44119,35.61647],[127.44129,35.6167],[127.44158,35.61733],[127.4421,35.6191],[127.44212,35.61953],[127.44264,35.61936],[127.44276,35.61933],[127.44285,35.61931],[127.44295,35.61931],[127.44306,35.61931],[127.44584,35.61954],[127.45209,35.61902],[127.45362,35.61882],[127.45369,35.61882],[127.45374,35.61883],[127.45875,35.62014],[127.45893,35.62019],[127.45902,35.62024],[127.45912,35.6203],[127.46402,35.62117],[127.46544,35.6207],[127.46558,35.62066],[127.46568,35.62065],[127.46614,35.62072],[127.46646,35.62078],[127.46716,35.62096],[127.46744,35.62106],[127.46845,35.62144],[127.46853,35.62147],[127.46856,35.6215],[127.46875,35.62193],[127.46882,35.6221],[127.46886,35.6222],[127.46918,35.62328],[127.4692,35.62338],[127.47,35.62667],[127.47002,35.62676],[127.47001,35.62685],[127.46973,35.62871],[127.46869,35.63261],[127.46761,35.63618],[127.4668,35.63747],[127.46668,35.63769],[127.46666,35.63774],[127.46664,35.63778],[127.46663,35.63784],[127.46663,35.63789],[127.46663,35.63791],[127.46746,35.63983],[127.46788,35.64066],[127.46792,35.64074],[127.47008,35.64419],[127.47165,35.64517],[127.47172,35.64518],[127.47191,35.64524],[127.47208,35.64532],[127.47224,35.64539],[127.47239,35.64551],[127.47248,35.64559],[127.47377,35.64702],[127.47385,35.64713],[127.47409,35.64766],[127.47468,35.65208],[127.47479,35.65302],[127.4747,35.65415],[127.47468,35.65437],[127.47462,35.65454],[127.47522,35.65586],[127.47602,35.6575],[127.47612,35.65769],[127.47651,35.65815],[127.47666,35.6583],[127.47679,35.65837],[127.47689,35.65841],[127.47704,35.65846],[127.47722,35.65851],[127.47751,35.65858],[127.47771,35.65863],[127.47781,35.65869],[127.47786,35.65872],[127.4779,35.65884],[127.47793,35.65899],[127.47794,35.65912],[127.47787,35.65938],[127.47779,35.65961],[127.47724,35.66074],[127.47717,35.66084],[127.47705,35.66096],[127.47697,35.661],[127.47741,35.66322],[127.47821,35.66483],[127.47835,35.66495],[127.4797,35.66618],[127.47982,35.66628],[127.47994,35.66637],[127.48002,35.66642],[127.48017,35.66649],[127.48516,35.6675],[127.48872,35.6671],[127.48934,35.66708],[127.49438,35.66712],[127.4945,35.66714],[127.50018,35.66985],[127.50031,35.66992],[127.50034,35.66995],[127.50065,35.67064],[127.50312,35.67381],[127.50317,35.67387],[127.50348,35.67404],[127.50391,35.67428],[127.50557,35.67491],[127.50695,35.67532],[127.50803,35.67536],[127.50832,35.67535],[127.5086,35.67531],[127.51022,35.67465],[127.51046,35.67451],[127.51064,35.67439],[127.51098,35.67419],[127.51124,35.67406],[127.51233,35.67366],[127.51371,35.67332],[127.51387,35.67331],[127.51405,35.6733],[127.51415,35.67332],[127.51432,35.67335],[127.51484,35.67351],[127.51497,35.67356],[127.51504,35.67361],[127.51509,35.67366],[127.51532,35.67407],[127.51539,35.67418],[127.51567,35.6746],[127.51671,35.6757],[127.51766,35.67659],[127.51876,35.67759],[127.51885,35.67744],[127.51907,35.6771],[127.51934,35.67675],[127.51997,35.67601],[127.52011,35.67586],[127.52077,35.67513],[127.5217,35.67415],[127.52413,35.67326],[127.52453,35.67316],[127.52488,35.67309],[127.52506,35.67307],[127.52548,35.67307],[127.52942,35.67181],[127.53217,35.67078],[127.53299,35.67048],[127.53305,35.67047],[127.5331,35.67048],[127.53315,35.6705],[127.53668,35.67282],[127.53674,35.67289],[127.53682,35.67308],[127.53683,35.67312],[127.53771,35.67769],[127.53787,35.67958],[127.53805,35.68048],[127.53815,35.68081],[127.5383,35.68122],[127.53838,35.68132],[127.53846,35.68137],[127.53875,35.68147],[127.53908,35.68157],[127.53919,35.6816],[127.54197,35.68208],[127.54213,35.6821],[127.54287,35.68217],[127.54303,35.68219],[127.54331,35.68215],[127.5437,35.6821]]]]}},{"type":"Feature","properties":{"code":"52740310","name":"산서면","parent":"52740"},"geometry":{"type":"MultiPolygon","coordinates":[[[[127.44212,35.61953],[127.4421,35.6191],[127.44158,35.61733],[127.44129,35.6167],[127.44119,35.61647],[127.44116,35.6164],[127.44116,35.61634],[127.4415,35.61213],[127.44151,35.61205],[127.44192,35.61045],[127.44198,35.61033],[127.44201,35.61029],[127.44206,35.61025],[127.44218,35.61017],[127.44365,35.6087],[127.44472,35.60525],[127.44488,35.60378],[127.44497,35.60369],[127.44577,35.60287],[127.44582,35.60281],[127.44583,35.60276],[127.44585,35.60067],[127.44584,35.60051],[127.44583,35.60032],[127.44582,35.60021],[127.44481,35.59554],[127.44479,35.59547],[127.44434,35.59435],[127.4442,35.5942],[127.44374,35.59371],[127.44332,35.59334],[127.44325,35.59327],[127.44321,35.59323],[127.44317,35.59318],[127.44312,35.59309],[127.44306,35.59298],[127.44242,35.59079],[127.44242,35.59073],[127.44263,35.59002],[127.44266,35.58998],[127.4427,35.58994],[127.44431,35.58887],[127.44435,35.58884],[127.44495,35.58865],[127.44654,35.58757],[127.44858,35.58322],[127.4506,35.58086],[127.45069,35.58074],[127.45073,35.58067],[127.45077,35.58057],[127.45079,35.58051],[127.45081,35.5804],[127.4508,35.58033],[127.45078,35.58028],[127.45056,35.57977],[127.45049,35.57959],[127.45047,35.57952],[127.45046,35.57943],[127.45032,35.57842],[127.45031,35.57825],[127.45031,35.57823],[127.45033,35.57818],[127.45034,35.57814],[127.4504,35.57803],[127.45044,35.57799],[127.45055,35.57789],[127.45062,35.57785],[127.45072,35.57779],[127.45081,35.57774],[127.45177,35.57735],[127.45186,35.57732],[127.45313,35.577],[127.45322,35.57698],[127.45329,35.57699],[127.45546,35.57435],[127.45369,35.57261],[127.45189,35.57052],[127.45012,35.56749],[127.45035,35.56542],[127.45027,35.56529],[127.45008,35.56501],[127.44993,35.5648],[127.44988,35.56474],[127.44916,35.56394],[127.44914,35.56391],[127.44908,35.56385],[127.44905,35.56382],[127.449,35.56379],[127.44888,35.56373],[127.44883,35.56371],[127.44879,35.5637],[127.44875,35.5637],[127.44869,35.56369],[127.44846,35.56367],[127.44819,35.56368],[127.44813,35.56369],[127.44788,35.56371],[127.44664,35.5631],[127.44419,35.56159],[127.44407,35.5615],[127.44396,35.56136],[127.4439,35.56127],[127.44384,35.56116],[127.44381,35.56105],[127.44365,35.56004],[127.44347,35.55869],[127.44077,35.55503],[127.43962,35.55385],[127.43954,35.55377],[127.43948,35.55368],[127.43941,35.55282],[127.43842,35.55279],[127.43641,35.55221],[127.43538,35.5517],[127.43439,35.55094],[127.43223,35.5504],[127.42614,35.55019],[127.42444,35.55068],[127.42387,35.55134],[127.42222,35.55232],[127.42168,35.5525],[127.42096,35.55263],[127.42055,35.5527],[127.42039,35.55273],[127.42033,35.55274],[127.41636,35.55651],[127.41571,35.55725],[127.41539,35.55779],[127.41534,35.55793],[127.41513,35.55839],[127.41427,35.55933],[127.41342,35.56006],[127.41319,35.56015],[127.41306,35.56019],[127.41002,35.56071],[127.40946,35.56067],[127.4087,35.56025],[127.40808,35.55979],[127.40802,35.55974],[127.40719,35.55776],[127.40717,35.5576],[127.40714,35.55737],[127.40758,35.55627],[127.40772,35.55605],[127.40653,35.55378],[127.40245,35.54844],[127.39921,35.54707],[127.39717,35.54793],[127.39688,35.54809],[127.3966,35.54802],[127.39452,35.54732],[127.39203,35.54641],[127.38585,35.54635],[127.38534,35.54635],[127.38455,35.54652],[127.38055,35.54751],[127.37898,35.54793],[127.37766,35.54828],[127.37699,35.54862],[127.37483,35.55014],[127.37254,35.55224],[127.36897,35.55495],[127.36819,35.55538],[127.36638,35.55623],[127.36385,35.55795],[127.36347,35.55823],[127.36407,35.55873],[127.36415,35.55881],[127.36362,35.56095],[127.36361,35.561],[127.36351,35.56106],[127.36329,35.56111],[127.363,35.56119],[127.36273,35.56128],[127.36205,35.5615],[127.36184,35.56158],[127.36173,35.56163],[127.36164,35.56175],[127.36162,35.56186],[127.3616,35.56202],[127.36146,35.56356],[127.36146,35.5637],[127.36148,35.56389],[127.36151,35.56397],[127.36157,35.56409],[127.364,35.5677],[127.36421,35.568],[127.36445,35.5683],[127.36451,35.56837],[127.36471,35.56859],[127.36488,35.56876],[127.36511,35.56893],[127.36525,35.569],[127.36549,35.56913],[127.36571,35.56924],[127.36602,35.5694],[127.36675,35.5697],[127.36765,35.57006],[127.36789,35.57016],[127.36804,35.5702],[127.36863,35.57039],[127.36873,35.57043],[127.36894,35.5705],[127.36967,35.57074],[127.37014,35.57091],[127.3711,35.57128],[127.37149,35.57143],[127.37169,35.57152],[127.37195,35.57167],[127.37685,35.57477],[127.37708,35.57493],[127.37732,35.5751],[127.37766,35.5754],[127.37798,35.57573],[127.3789,35.57697],[127.37905,35.57723],[127.37909,35.57734],[127.37911,35.57745],[127.37909,35.57764],[127.37888,35.57903],[127.37665,35.58473],[127.37646,35.58488],[127.37377,35.5863],[127.37272,35.58648],[127.37208,35.58669],[127.372,35.58737],[127.37193,35.58862],[127.37212,35.59216],[127.37216,35.59265],[127.37219,35.59277],[127.37235,35.5932],[127.37351,35.59614],[127.37356,35.59627],[127.37358,35.59632],[127.37375,35.5966],[127.37387,35.59679],[127.37474,35.59797],[127.37546,35.59875],[127.37552,35.59881],[127.37569,35.59899],[127.37571,35.59903],[127.37573,35.59907],[127.37574,35.59912],[127.37572,35.59918],[127.37515,35.60129],[127.37456,35.60339],[127.37442,35.60388],[127.37438,35.60411],[127.37435,35.60435],[127.37424,35.60547],[127.37423,35.6063],[127.37426,35.60682],[127.37436,35.60758],[127.37459,35.6081],[127.37461,35.60814],[127.37469,35.60821],[127.37478,35.60827],[127.37535,35.60862],[127.37548,35.60869],[127.3756,35.60875],[127.37723,35.60951],[127.3815,35.61329],[127.38681,35.61493],[127.38861,35.61491],[127.3918,35.61454],[127.39434,35.61378],[127.39501,35.61351],[127.39555,35.61331],[127.39592,35.61319],[127.39595,35.61318],[127.39607,35.61315],[127.39612,35.61314],[127.39619,35.61313],[127.39902,35.61287],[127.39989,35.61279],[127.39996,35.61279],[127.40113,35.61287],[127.4012,35.61289],[127.40132,35.61294],[127.4014,35.61299],[127.40145,35.61303],[127.40184,35.61335],[127.40198,35.61347],[127.40215,35.6136],[127.40226,35.61368],[127.40231,35.6137],[127.40241,35.61372],[127.40248,35.61373],[127.41107,35.61486],[127.41115,35.61486],[127.41196,35.6148],[127.41209,35.61478],[127.41226,35.61474],[127.41235,35.61471],[127.41282,35.6145],[127.41297,35.61442],[127.4131,35.61434],[127.42228,35.61463],[127.42569,35.61465],[127.42595,35.61469],[127.42649,35.6148],[127.42654,35.61483],[127.4266,35.61488],[127.42689,35.61516],[127.42937,35.618],[127.4295,35.61812],[127.43279,35.6203],[127.43435,35.62108],[127.43599,35.62186],[127.43828,35.62185],[127.44212,35.61953]]]]}},{"type":"Feature","properties":{"code":"52740320","name":"번암면","parent":"52740"},"geometry":{"type":"MultiPolygon","coordinates":[[[[127.62008,35.64272],[127.62013,35.64254],[127.62014,35.64246],[127.62018,35.64233],[127.62041,35.64179],[127.62049,35.64165],[127.62139,35.64019],[127.62224,35.63989],[127.6225,35.63983],[127.62347,35.63934],[127.62449,35.63808],[127.62467,35.63712],[127.62469,35.63701],[127.62494,35.63547],[127.62494,35.63541],[127.62492,35.6353],[127.62489,35.6352],[127.62487,35.63515],[127.62454,35.63434],[127.62407,35.63324],[127.62406,35.63272],[127.62408,35.63257],[127.62412,35.63239],[127.62413,35.63235],[127.62422,35.63219],[127.62812,35.62576],[127.62856,35.62515],[127.62862,35.62509],[127.62869,35.625],[127.62872,35.62497],[127.6288,35.6249],[127.62885,35.62487],[127.62893,35.62483],[127.62943,35.62471],[127.62966,35.62466],[127.62983,35.62463],[127.62995,35.6246],[127.62999,35.62457],[127.63161,35.62337],[127.63203,35.62306],[127.63211,35.62298],[127.63298,35.62201],[127.63547,35.61847],[127.63539,35.61838],[127.63512,35.61813],[127.63491,35.61794],[127.63489,35.61792],[127.63485,35.6179],[127.63481,35.61786],[127.63458,35.61779],[127.63412,35.61764],[127.63398,35.61761],[127.63385,35.6176],[127.63374,35.61761],[127.63348,35.61763],[127.63203,35.61779],[127.63192,35.6178],[127.63121,35.61796],[127.63107,35.618],[127.63101,35.61802],[127.6309,35.61808],[127.62751,35.61733],[127.62689,35.61656],[127.62577,35.61562],[127.62574,35.6156],[127.62571,35.61559],[127.62408,35.6154],[127.6239,35.61538],[127.6238,35.61539],[127.62355,35.61541],[127.62301,35.61537],[127.62256,35.61533],[127.62245,35.61531],[127.62113,35.61501],[127.62044,35.61431],[127.62023,35.61408],[127.62017,35.61402],[127.61999,35.61385],[127.61987,35.61372],[127.61983,35.61362],[127.61978,35.61351],[127.61958,35.61271],[127.61958,35.61266],[127.61957,35.61252],[127.61961,35.61231],[127.61824,35.61038],[127.61819,35.61031],[127.6175,35.60984],[127.61742,35.60979],[127.61731,35.60976],[127.61681,35.60976],[127.61596,35.60974],[127.6145,35.60969],[127.613,35.60869],[127.61292,35.60858],[127.6124,35.60695],[127.61245,35.60686],[127.61255,35.60668],[127.61272,35.60643],[127.6128,35.60628],[127.61287,35.60614],[127.61296,35.60596],[127.61298,35.6059],[127.61303,35.60577],[127.61313,35.60523],[127.61313,35.60505],[127.61268,35.5997],[127.61104,35.5987],[127.61084,35.59867],[127.61039,35.59854],[127.61027,35.5985],[127.61011,35.59843],[127.60952,35.59814],[127.60932,35.59802],[127.60912,35.59788],[127.60902,35.5978],[127.60894,35.59773],[127.60887,35.59765],[127.60757,35.59477],[127.60788,35.59203],[127.60793,35.5918],[127.60814,35.59121],[127.60822,35.59098],[127.60853,35.59048],[127.60859,35.59041],[127.60862,35.59036],[127.60869,35.59029],[127.60874,35.59024],[127.60891,35.59014],[127.60903,35.59011],[127.60918,35.59006],[127.6093,35.59002],[127.60944,35.58996],[127.60955,35.58988],[127.60958,35.58983],[127.60962,35.58979],[127.60968,35.58967],[127.6097,35.58962],[127.61057,35.58687],[127.61069,35.58648],[127.6107,35.58642],[127.61073,35.58631],[127.61074,35.58613],[127.61074,35.58606],[127.61059,35.58486],[127.61051,35.58476],[127.61042,35.58465],[127.61027,35.5845],[127.6102,35.58443],[127.61011,35.58434],[127.60997,35.58421],[127.60597,35.58069],[127.60452,35.57886],[127.60442,35.57875],[127.60437,35.5787],[127.60428,35.57864],[127.60394,35.57855],[127.6037,35.57851],[127.60335,35.57847],[127.60301,35.57844],[127.60291,35.57842],[127.60241,35.57827],[127.60165,35.57803],[127.60142,35.57793],[127.60137,35.57791],[127.6009,35.57771],[127.59891,35.57684],[127.59459,35.57336],[127.59438,35.5727],[127.59396,35.57175],[127.5938,35.57146],[127.59341,35.57081],[127.59079,35.56708],[127.59074,35.56702],[127.59067,35.56695],[127.59003,35.56647],[127.5898,35.56633],[127.5897,35.56627],[127.58957,35.56623],[127.58916,35.5661],[127.5888,35.566],[127.58838,35.5659],[127.58828,35.56589],[127.58817,35.56586],[127.58805,35.56579],[127.5879,35.56568],[127.58759,35.56537],[127.58749,35.56526],[127.58741,35.56516],[127.58736,35.56509],[127.58722,35.56486],[127.5872,35.5648],[127.58718,35.56477],[127.58714,35.5647],[127.58663,35.56278],[127.58644,35.56156],[127.58566,35.55541],[127.58541,35.55459],[127.58444,35.55314],[127.58139,35.54957],[127.57863,35.54713],[127.57848,35.54703],[127.57707,35.54647],[127.57687,35.54641],[127.57597,35.54627],[127.57575,35.54627],[127.57488,35.5463],[127.57364,35.54615],[127.57357,35.54612],[127.57332,35.54591],[127.57314,35.54575],[127.57311,35.54571],[127.57307,35.54565],[127.57229,35.54166],[127.57201,35.54007],[127.57184,35.53902],[127.57166,35.53782],[127.57156,35.53688],[127.57143,35.53603],[127.57117,35.5348],[127.57114,35.53468],[127.57107,35.53453],[127.57105,35.53448],[127.57103,35.53446],[127.57099,35.53444],[127.57042,35.53429],[127.56971,35.53415],[127.56858,35.53257],[127.56789,35.5288],[127.56787,35.52867],[127.56787,35.52861],[127.56788,35.52715],[127.5679,35.52706],[127.56839,35.525],[127.56845,35.52485],[127.56857,35.52472],[127.5688,35.52456],[127.56911,35.52443],[127.56952,35.52426],[127.56979,35.5241],[127.56995,35.52397],[127.5701,35.52382],[127.57034,35.52341],[127.5704,35.52325],[127.57045,35.52281],[127.57049,35.52174],[127.5705,35.52144],[127.57046,35.52106],[127.57041,35.52078],[127.57046,35.51977],[127.57048,35.51968],[127.57051,35.51962],[127.57119,35.51877],[127.57127,35.51871],[127.57389,35.51713],[127.57407,35.51705],[127.57425,35.51701],[127.57449,35.51701],[127.57617,35.51679],[127.57826,35.51631],[127.57842,35.51627],[127.57852,35.51622],[127.5786,35.51612],[127.57999,35.51408],[127.58002,35.51396],[127.58069,35.51141],[127.58069,35.51111],[127.58038,35.50759],[127.57923,35.5038],[127.5793,35.50372],[127.57999,35.50285],[127.58009,35.50269],[127.58021,35.50221],[127.58019,35.50208],[127.58015,35.50202],[127.578,35.50035],[127.57562,35.49827],[127.57553,35.49818],[127.57537,35.49796],[127.5751,35.4975],[127.57504,35.49734],[127.57488,35.49678],[127.57483,35.49663],[127.5747,35.49611],[127.57468,35.49599],[127.57468,35.4958],[127.57467,35.49548],[127.57464,35.4953],[127.5745,35.49493],[127.5744,35.49476],[127.57431,35.49469],[127.57048,35.49203],[127.56648,35.48959],[127.5663,35.48948],[127.56603,35.48937],[127.56509,35.48899],[127.56468,35.48882],[127.56434,35.48871],[127.56423,35.48869],[127.56375,35.48854],[127.5636,35.48847],[127.56352,35.48842],[127.56345,35.48833],[127.56341,35.48824],[127.56276,35.48577],[127.56087,35.48235],[127.55952,35.48107],[127.55947,35.48102],[127.55943,35.48094],[127.55939,35.48067],[127.5594,35.48058],[127.55981,35.47897],[127.56127,35.4769],[127.56216,35.47482],[127.56213,35.47447],[127.5621,35.47421],[127.56206,35.47405],[127.56178,35.4735],[127.56174,35.47345],[127.56168,35.4734],[127.56049,35.47243],[127.56025,35.47224],[127.5601,35.47214],[127.55838,35.47133],[127.55827,35.47129],[127.55794,35.4712],[127.55758,35.47113],[127.55732,35.47108],[127.55715,35.47106],[127.55698,35.47105],[127.55602,35.47104],[127.55589,35.47105],[127.55566,35.47107],[127.55513,35.47115],[127.55452,35.47124],[127.55433,35.47128],[127.55408,35.47129],[127.55388,35.47129],[127.55374,35.47126],[127.54839,35.46966],[127.54727,35.46917],[127.54719,35.46912],[127.54715,35.46907],[127.54707,35.46889],[127.54691,35.46842],[127.54685,35.46829],[127.54679,35.46819],[127.54671,35.46811],[127.54664,35.46805],[127.54658,35.46803],[127.5465,35.46802],[127.54517,35.46792],[127.54499,35.4679],[127.54487,35.46791],[127.54468,35.46793],[127.5434,35.4681],[127.54323,35.46812],[127.54314,35.46815],[127.54299,35.46822],[127.54283,35.4683],[127.54273,35.46839],[127.54269,35.46848],[127.54266,35.4686],[127.54264,35.46869],[127.54263,35.46882],[127.54263,35.46906],[127.54266,35.46915],[127.54281,35.46948],[127.54285,35.46962],[127.54285,35.46975],[127.54282,35.46992],[127.54245,35.4708],[127.54236,35.47097],[127.54228,35.47107],[127.54218,35.47117],[127.54184,35.47146],[127.5418,35.4715],[127.5417,35.47153],[127.54165,35.47155],[127.54034,35.47169],[127.53947,35.47145],[127.53872,35.47105],[127.53755,35.4704],[127.53747,35.47037],[127.53738,35.47036],[127.53724,35.47036],[127.53587,35.47035],[127.53583,35.47036],[127.53575,35.47041],[127.53563,35.47049],[127.534,35.47138],[127.53386,35.47146],[127.5337,35.47153],[127.53286,35.47186],[127.5306,35.47266],[127.53052,35.47269],[127.52971,35.47287],[127.52911,35.473],[127.52894,35.47302],[127.52556,35.47315],[127.52529,35.47311],[127.52517,35.4731],[127.52506,35.47312],[127.52491,35.47319],[127.52483,35.47323],[127.52463,35.47342],[127.52383,35.47421],[127.52378,35.47432],[127.52373,35.47444],[127.52369,35.47467],[127.52185,35.47686],[127.51925,35.47843],[127.51914,35.47846],[127.51463,35.47917],[127.51401,35.4792],[127.51402,35.47929],[127.51408,35.47945],[127.51414,35.47952],[127.5143,35.47966],[127.51443,35.47976],[127.51481,35.48001],[127.51524,35.48026],[127.51603,35.48067],[127.52126,35.48323],[127.52155,35.48325],[127.52259,35.48333],[127.52271,35.48337],[127.52308,35.48351],[127.52343,35.48366],[127.52404,35.48394],[127.52558,35.48489],[127.52594,35.48517],[127.52613,35.48534],[127.52641,35.48565],[127.52679,35.48608],[127.52693,35.48625],[127.52698,35.48635],[127.52837,35.49113],[127.52837,35.49143],[127.52832,35.49183],[127.52829,35.49203],[127.52719,35.49529],[127.52714,35.4954],[127.52704,35.49546],[127.52694,35.49554],[127.52504,35.49614],[127.52479,35.4962],[127.52465,35.49623],[127.52456,35.49624],[127.52433,35.49627],[127.52335,35.49641],[127.52318,35.49641],[127.52302,35.49641],[127.52297,35.4964],[127.52287,35.4964],[127.52283,35.49638],[127.52276,35.49636],[127.52267,35.49633],[127.52259,35.4963],[127.52254,35.49628],[127.52232,35.49623],[127.52215,35.4962],[127.52204,35.49621],[127.52169,35.49629],[127.52147,35.49637],[127.51594,35.4988],[127.51416,35.50388],[127.513,35.50733],[127.51042,35.51015],[127.50484,35.51383],[127.50257,35.51591],[127.50248,35.51601],[127.50138,35.5176],[127.50133,35.51773],[127.50132,35.51784],[127.50132,35.51799],[127.50138,35.5182],[127.5015,35.51845],[127.50152,35.5185],[127.50168,35.51945],[127.50184,35.52039],[127.50186,35.52075],[127.50185,35.52113],[127.50182,35.52135],[127.50179,35.52139],[127.50171,35.52145],[127.50055,35.52201],[127.5005,35.52204],[127.50046,35.52206],[127.49773,35.52244],[127.49566,35.52296],[127.49333,35.52448],[127.49227,35.52552],[127.49123,35.52695],[127.49122,35.527],[127.49106,35.52803],[127.4911,35.52856],[127.49128,35.5293],[127.49173,35.52983],[127.49186,35.52987],[127.49191,35.52994],[127.49218,35.5308],[127.49254,35.53377],[127.49254,35.53391],[127.49249,35.534],[127.49235,35.53414],[127.49222,35.53421],[127.49209,35.53425],[127.49206,35.53425],[127.49197,35.53426],[127.49148,35.53422],[127.49132,35.53421],[127.49115,35.5342],[127.49093,35.53424],[127.4908,35.53428],[127.49052,35.53441],[127.48482,35.53722],[127.48229,35.53855],[127.48214,35.5386],[127.48202,35.53862],[127.48194,35.53862],[127.4818,35.5386],[127.48143,35.5385],[127.48082,35.5383],[127.48046,35.5382],[127.48031,35.5382],[127.47902,35.53826],[127.47717,35.53836],[127.47667,35.5384],[127.47647,35.53845],[127.47511,35.5389],[127.47346,35.53967],[127.47329,35.53975],[127.47321,35.53979],[127.46946,35.54186],[127.46936,35.54193],[127.46926,35.54203],[127.4692,35.54211],[127.46907,35.54228],[127.46902,35.54234],[127.46898,35.54242],[127.46895,35.54251],[127.46843,35.54394],[127.46839,35.54404],[127.46836,35.54425],[127.46836,35.54433],[127.46836,35.54439],[127.46837,35.54455],[127.46839,35.54461],[127.46841,35.54469],[127.46843,35.54481],[127.46845,35.54492],[127.46846,35.54501],[127.46845,35.54503],[127.46843,35.54507],[127.4684,35.54514],[127.46838,35.54518],[127.46825,35.54535],[127.46822,35.54539],[127.46808,35.54557],[127.46796,35.5457],[127.46778,35.54589],[127.46768,35.54598],[127.46759,35.54603],[127.46742,35.54613],[127.46735,35.54616],[127.46723,35.54621],[127.46716,35.54623],[127.46713,35.54624],[127.46705,35.54626],[127.46701,35.54626],[127.46692,35.54626],[127.46498,35.54613],[127.46493,35.54612],[127.4649,35.54611],[127.46485,35.54609],[127.46372,35.54568],[127.46258,35.54523],[127.45999,35.5452],[127.4595,35.5455],[127.45769,35.54621],[127.45762,35.54624],[127.45745,35.54628],[127.45736,35.54629],[127.45729,35.54629],[127.45711,35.54629],[127.45687,35.54629],[127.45538,35.54562],[127.45511,35.54548],[127.45407,35.54426],[127.45359,35.54365],[127.4523,35.54075],[127.45161,35.54141],[127.45056,35.54239],[127.44676,35.54529],[127.44226,35.54621],[127.44221,35.54623],[127.44014,35.54772],[127.44007,35.54779],[127.43993,35.548],[127.43982,35.54826],[127.43981,35.54832],[127.43941,35.55282],[127.43948,35.55368],[127.43954,35.55377],[127.43962,35.55385],[127.44077,35.55503],[127.44347,35.55869],[127.44365,35.56004],[127.44381,35.56105],[127.44384,35.56116],[127.4439,35.56127],[127.44396,35.56136],[127.44407,35.5615],[127.44419,35.56159],[127.44664,35.5631],[127.44788,35.56371],[127.44813,35.56369],[127.44819,35.56368],[127.44846,35.56367],[127.44869,35.56369],[127.44875,35.5637],[127.44879,35.5637],[127.44883,35.56371],[127.44888,35.56373],[127.449,35.56379],[127.44905,35.56382],[127.44908,35.56385],[127.44914,35.56391],[127.44916,35.56394],[127.44988,35.56474],[127.44993,35.5648],[127.45008,35.56501],[127.45027,35.56529],[127.45035,35.56542],[127.45081,35.56519],[127.45695,35.56198],[127.45709,35.56197],[127.45724,35.56197],[127.45744,35.562],[127.45775,35.56206],[127.45783,35.56208],[127.45794,35.56211],[127.45801,35.56214],[127.45812,35.56223],[127.45946,35.56247],[127.4608,35.56264],[127.46203,35.56276],[127.46278,35.56282],[127.46286,35.56282],[127.46303,35.56282],[127.46471,35.56281],[127.46497,35.5628],[127.46518,35.56279],[127.46521,35.56278],[127.46531,35.56278],[127.46574,35.56274],[127.46629,35.56268],[127.46638,35.56267],[127.46661,35.56264],[127.46686,35.5626],[127.46718,35.56252],[127.46726,35.5625],[127.46756,35.56241],[127.4678,35.56234],[127.46802,35.56226],[127.46824,35.56218],[127.46874,35.56199],[127.46888,35.56194],[127.47334,35.56004],[127.47642,35.55871],[127.48053,35.55855],[127.48074,35.55855],[127.48094,35.55857],[127.48109,35.55861],[127.48225,35.55902],[127.48268,35.55924],[127.48297,35.55939],[127.48304,35.55943],[127.4831,35.55949],[127.48318,35.55958],[127.48322,35.55965],[127.48326,35.55975],[127.48327,35.55987],[127.48315,35.56148],[127.48313,35.56158],[127.48305,35.5617],[127.48291,35.56183],[127.48255,35.56222],[127.48205,35.56319],[127.48202,35.56329],[127.48199,35.56347],[127.48185,35.56497],[127.48181,35.56598],[127.4818,35.56672],[127.48182,35.56676],[127.48186,35.56681],[127.48191,35.56686],[127.4822,35.567],[127.48387,35.56828],[127.48514,35.56977],[127.48588,35.57064],[127.48637,35.57122],[127.48719,35.57238],[127.48659,35.57325],[127.48644,35.57345],[127.48566,35.57433],[127.4847,35.57522],[127.48426,35.5756],[127.48421,35.57562],[127.4841,35.5757],[127.48394,35.57583],[127.48389,35.5759],[127.48389,35.57597],[127.48399,35.57691],[127.48547,35.58282],[127.4855,35.58293],[127.48558,35.5831],[127.48761,35.58562],[127.48857,35.58576],[127.49576,35.58389],[127.50018,35.58182],[127.50193,35.58098],[127.50215,35.58088],[127.5024,35.58088],[127.50257,35.5809],[127.5028,35.58098],[127.50294,35.58109],[127.50338,35.58147],[127.5037,35.58179],[127.50394,35.58199],[127.50442,35.58227],[127.50474,35.5824],[127.50673,35.58312],[127.50693,35.58319],[127.50712,35.58322],[127.50721,35.58324],[127.50735,35.58326],[127.50757,35.58329],[127.50768,35.5833],[127.50806,35.58332],[127.50833,35.58336],[127.50869,35.58344],[127.50943,35.58376],[127.51096,35.58463],[127.51124,35.58483],[127.51154,35.5851],[127.51161,35.58521],[127.51369,35.59001],[127.51375,35.59016],[127.51405,35.59174],[127.5143,35.59313],[127.51426,35.59323],[127.51405,35.59387],[127.51403,35.594],[127.51384,35.59512],[127.51384,35.59518],[127.51387,35.59525],[127.51691,35.59949],[127.51874,35.6012],[127.51973,35.60375],[127.51972,35.60389],[127.51975,35.60403],[127.51989,35.60465],[127.52022,35.60587],[127.52153,35.60764],[127.52294,35.60896],[127.52472,35.60912],[127.53088,35.60951],[127.53116,35.60951],[127.53139,35.6095],[127.53151,35.60949],[127.53186,35.60947],[127.53249,35.60943],[127.53284,35.6094],[127.53401,35.60924],[127.53502,35.60905],[127.53527,35.60877],[127.53546,35.60854],[127.53556,35.60838],[127.53626,35.60676],[127.53659,35.60399],[127.53668,35.60302],[127.53669,35.60274],[127.53668,35.60229],[127.53666,35.60201],[127.53664,35.6019],[127.53657,35.6018],[127.5364,35.60157],[127.53631,35.60142],[127.53629,35.60132],[127.53629,35.60122],[127.53629,35.60014],[127.53631,35.60003],[127.53636,35.59992],[127.53642,35.59986],[127.53731,35.59913],[127.53768,35.59887],[127.53798,35.5987],[127.53846,35.59847],[127.53861,35.5984],[127.53872,35.59838],[127.53887,35.5983],[127.53901,35.59821],[127.53907,35.59816],[127.53938,35.59792],[127.53957,35.59776],[127.53964,35.59769],[127.53968,35.59766],[127.53972,35.59761],[127.53984,35.59749],[127.53992,35.59736],[127.54002,35.5971],[127.54011,35.59685],[127.54016,35.59663],[127.54019,35.59647],[127.5402,35.59634],[127.54015,35.5961],[127.54007,35.59587],[127.53987,35.59528],[127.5396,35.59462],[127.5394,35.59422],[127.53935,35.59411],[127.53933,35.59402],[127.53937,35.59388],[127.53944,35.59382],[127.53948,35.59379],[127.53957,35.59374],[127.54091,35.59305],[127.5427,35.59218],[127.5443,35.59348],[127.54615,35.5954],[127.54629,35.59558],[127.54602,35.5966],[127.54596,35.59675],[127.54586,35.59696],[127.54566,35.59729],[127.54559,35.59741],[127.54556,35.59751],[127.54554,35.59769],[127.54553,35.59784],[127.54556,35.59803],[127.54564,35.59818],[127.54603,35.59892],[127.54608,35.59899],[127.54617,35.59908],[127.54796,35.60058],[127.54801,35.6006],[127.54818,35.6006],[127.54851,35.60055],[127.54907,35.6005],[127.54926,35.6005],[127.54933,35.60049],[127.54959,35.60049],[127.54972,35.6005],[127.55156,35.60085],[127.55222,35.601],[127.55753,35.60259],[127.56019,35.60418],[127.56027,35.60428],[127.56044,35.60439],[127.56069,35.60451],[127.56099,35.60463],[127.56113,35.60467],[127.56122,35.60468],[127.56507,35.60449],[127.56719,35.60399],[127.56739,35.60392],[127.56758,35.60388],[127.56773,35.60386],[127.56791,35.6039],[127.56997,35.60428],[127.57015,35.60432],[127.57041,35.6044],[127.57153,35.60472],[127.57182,35.60479],[127.57197,35.60482],[127.57202,35.60483],[127.57207,35.60483],[127.57222,35.60484],[127.57433,35.60502],[127.57483,35.60502],[127.57546,35.60502],[127.57655,35.60494],[127.57659,35.60493],[127.57842,35.6058],[127.57857,35.60589],[127.57881,35.60608],[127.57893,35.60619],[127.57973,35.60721],[127.57984,35.60735],[127.57959,35.61001],[127.57955,35.61021],[127.57947,35.61042],[127.57927,35.61069],[127.57922,35.61077],[127.57922,35.61082],[127.58093,35.61459],[127.58098,35.6147],[127.58106,35.6148],[127.58115,35.61486],[127.58692,35.61857],[127.58701,35.6186],[127.58714,35.61862],[127.5872,35.61862],[127.58743,35.61862],[127.58859,35.6188],[127.58979,35.61904],[127.59008,35.61915],[127.5902,35.61924],[127.59249,35.62229],[127.59307,35.62315],[127.59317,35.62333],[127.59323,35.62352],[127.59338,35.62426],[127.59338,35.62442],[127.5933,35.62471],[127.59332,35.62531],[127.59359,35.62668],[127.59507,35.62903],[127.59524,35.62906],[127.59557,35.62913],[127.59577,35.62919],[127.59723,35.62983],[127.59959,35.63097],[127.59974,35.63105],[127.59984,35.63115],[127.59989,35.63125],[127.60045,35.63234],[127.6045,35.63779],[127.60455,35.63783],[127.60505,35.63804],[127.60511,35.63805],[127.60533,35.63804],[127.6054,35.63804],[127.60545,35.63803],[127.60561,35.63803],[127.6057,35.63805],[127.60581,35.63811],[127.60676,35.63866],[127.60761,35.63926],[127.61073,35.64158],[127.61345,35.64375],[127.61396,35.64325],[127.61459,35.64334],[127.61523,35.64337],[127.61533,35.64337],[127.61537,35.64336],[127.61544,35.64334],[127.61551,35.64329],[127.61563,35.64318],[127.61569,35.64312],[127.61579,35.64299],[127.61591,35.64282],[127.616,35.64264],[127.61605,35.64256],[127.61607,35.64254],[127.61611,35.6425],[127.6162,35.64249],[127.61753,35.64251],[127.61931,35.64263],[127.61935,35.64263],[127.61943,35.64263],[127.61988,35.64269],[127.62008,35.64272]]]]}},{"type":"Feature","properties":{"code":"52740335","name":"장계면","parent":"52740"},"geometry":{"type":"MultiPolygon","coordinates":[[[[127.66906,35.77147],[127.66824,35.77105],[127.66738,35.77061],[127.66595,35.76973],[127.66564,35.76943],[127.66514,35.76896],[127.66414,35.76701],[127.66409,35.76688],[127.66404,35.76675],[127.664,35.76662],[127.66378,35.766],[127.66226,35.76099],[127.66204,35.75813],[127.66201,35.75071],[127.66182,35.74983],[127.66182,35.74979],[127.66182,35.74972],[127.66264,35.74709],[127.66266,35.74705],[127.66269,35.74701],[127.66294,35.74676],[127.66313,35.74652],[127.6634,35.74609],[127.6635,35.74591],[127.66352,35.74586],[127.6636,35.74508],[127.6636,35.74502],[127.66312,35.74215],[127.66177,35.74064],[127.66105,35.73978],[127.66099,35.7397],[127.6603,35.7384],[127.66069,35.73554],[127.66127,35.7339],[127.6618,35.73224],[127.66325,35.72569],[127.66342,35.72487],[127.66344,35.72476],[127.66151,35.72031],[127.66144,35.72023],[127.66135,35.72019],[127.66123,35.72015],[127.66114,35.72013],[127.66093,35.72011],[127.66086,35.72008],[127.66082,35.72004],[127.66081,35.72002],[127.66072,35.71977],[127.66065,35.71951],[127.66064,35.71947],[127.65982,35.71636],[127.65979,35.71623],[127.65975,35.71609],[127.65971,35.71583],[127.65973,35.71579],[127.6598,35.7157],[127.65994,35.71557],[127.66008,35.71547],[127.66065,35.71293],[127.66077,35.70975],[127.65981,35.70818],[127.65973,35.70807],[127.65831,35.707],[127.65764,35.70657],[127.6556,35.70638],[127.6529,35.70567],[127.65276,35.70562],[127.64927,35.70408],[127.64916,35.70399],[127.64905,35.70385],[127.64903,35.70382],[127.649,35.70373],[127.64899,35.70363],[127.64921,35.70236],[127.64925,35.7022],[127.64936,35.70192],[127.64955,35.70162],[127.64705,35.69971],[127.64505,35.69766],[127.64209,35.69277],[127.64038,35.68666],[127.64068,35.68548],[127.64104,35.68464],[127.64106,35.68457],[127.64107,35.68449],[127.64049,35.68203],[127.64035,35.68147],[127.64032,35.68136],[127.64009,35.68071],[127.64006,35.68065],[127.63973,35.68],[127.63936,35.67928],[127.63932,35.67915],[127.63928,35.67893],[127.63928,35.67887],[127.63928,35.67877],[127.63937,35.67692],[127.63947,35.67577],[127.63948,35.67564],[127.63951,35.6756],[127.63955,35.67552],[127.6396,35.67545],[127.63973,35.67536],[127.63995,35.67527],[127.64001,35.67523],[127.64007,35.67513],[127.64014,35.67493],[127.64042,35.67284],[127.64041,35.67273],[127.64035,35.67252],[127.64026,35.67231],[127.63905,35.67004],[127.639,35.66996],[127.63893,35.66989],[127.63515,35.66709],[127.63508,35.66705],[127.63488,35.66698],[127.6332,35.66655],[127.63305,35.66654],[127.62915,35.66427],[127.6291,35.66422],[127.62907,35.6642],[127.62901,35.66411],[127.62821,35.66257],[127.62815,35.66245],[127.62809,35.66225],[127.6281,35.66211],[127.62824,35.6607],[127.62827,35.66061],[127.62836,35.66041],[127.62853,35.66013],[127.62867,35.66],[127.6287,35.65997],[127.62886,35.65984],[127.62894,35.65973],[127.62906,35.65951],[127.62913,35.65934],[127.62917,35.65919],[127.62958,35.65732],[127.62961,35.65669],[127.6296,35.65663],[127.62874,35.65601],[127.62696,35.65462],[127.62385,35.65219],[127.62303,35.65149],[127.62248,35.65101],[127.62242,35.65094],[127.62238,35.65084],[127.62241,35.65057],[127.62242,35.6505],[127.62259,35.64938],[127.6224,35.64835],[127.62234,35.64821],[127.62225,35.64802],[127.62222,35.64799],[127.62138,35.64749],[127.62102,35.64731],[127.62083,35.64723],[127.62069,35.64713],[127.62057,35.64702],[127.62053,35.64694],[127.62025,35.64626],[127.62023,35.64613],[127.62008,35.64272],[127.61988,35.64269],[127.61943,35.64263],[127.61935,35.64263],[127.61931,35.64263],[127.61753,35.64251],[127.6162,35.64249],[127.61611,35.6425],[127.61607,35.64254],[127.61605,35.64256],[127.616,35.64264],[127.61591,35.64282],[127.61579,35.64299],[127.61569,35.64312],[127.61563,35.64318],[127.61551,35.64329],[127.61544,35.64334],[127.61537,35.64336],[127.61533,35.64337],[127.61523,35.64337],[127.61459,35.64334],[127.61396,35.64325],[127.61345,35.64375],[127.61269,35.64639],[127.6122,35.64936],[127.61189,35.65328],[127.61189,35.65435],[127.61199,35.65703],[127.612,35.6571],[127.61204,35.65716],[127.61213,35.65723],[127.61229,35.65732],[127.61254,35.65743],[127.61261,35.65749],[127.61268,35.65757],[127.61283,35.65781],[127.613,35.65816],[127.613,35.65823],[127.61277,35.65967],[127.61273,35.65977],[127.61261,35.66],[127.61245,35.66027],[127.61222,35.66061],[127.61211,35.66074],[127.61162,35.66139],[127.61138,35.66174],[127.61128,35.66194],[127.61056,35.66366],[127.61048,35.66387],[127.61045,35.66404],[127.61044,35.66417],[127.61048,35.66439],[127.61055,35.66454],[127.61077,35.66485],[127.61146,35.66644],[127.61216,35.67037],[127.61216,35.67048],[127.61215,35.6712],[127.61205,35.67194],[127.61195,35.67227],[127.6118,35.67259],[127.61162,35.67286],[127.61146,35.67302],[127.61129,35.67314],[127.61122,35.67324],[127.61113,35.67339],[127.61102,35.67395],[127.61102,35.67417],[127.6115,35.67715],[127.61154,35.67722],[127.61159,35.67725],[127.61226,35.67749],[127.61234,35.67755],[127.61235,35.67761],[127.61271,35.67933],[127.61307,35.68197],[127.61308,35.68209],[127.61307,35.68247],[127.61303,35.68277],[127.613,35.68292],[127.61237,35.68433],[127.61226,35.68444],[127.61201,35.68462],[127.61168,35.6848],[127.61152,35.68485],[127.61113,35.68489],[127.61066,35.68495],[127.61042,35.685],[127.61018,35.68511],[127.60986,35.6853],[127.60928,35.68571],[127.60921,35.68581],[127.60655,35.6898],[127.60651,35.68988],[127.60651,35.68992],[127.60652,35.68994],[127.60677,35.69011],[127.60688,35.6902],[127.60695,35.69028],[127.6072,35.69068],[127.60739,35.691],[127.60758,35.69134],[127.60894,35.69426],[127.60923,35.6951],[127.60931,35.6956],[127.60931,35.69599],[127.6093,35.69655],[127.60926,35.69677],[127.60798,35.69891],[127.60766,35.699],[127.60732,35.69915],[127.60687,35.69936],[127.60564,35.70012],[127.60552,35.70024],[127.60533,35.70044],[127.60519,35.70062],[127.60377,35.70301],[127.60371,35.70317],[127.60365,35.70358],[127.60371,35.70369],[127.6038,35.70379],[127.60389,35.70386],[127.60399,35.70393],[127.60413,35.70395],[127.60427,35.70403],[127.60439,35.7041],[127.60478,35.70466],[127.60484,35.70479],[127.60486,35.70497],[127.60482,35.70508],[127.60465,35.70535],[127.60318,35.70733],[127.60286,35.70774],[127.60184,35.70892],[127.60119,35.70967],[127.6004,35.71049],[127.60021,35.71066],[127.6001,35.7107],[127.59989,35.71071],[127.59972,35.71075],[127.5994,35.71083],[127.59905,35.71094],[127.59863,35.71114],[127.59848,35.71123],[127.59842,35.71133],[127.5981,35.71199],[127.59805,35.71211],[127.59801,35.71227],[127.59792,35.71297],[127.5979,35.71326],[127.59788,35.71349],[127.59688,35.71664],[127.59618,35.71822],[127.5956,35.71951],[127.59543,35.71983],[127.5947,35.7207],[127.5876,35.72737],[127.58735,35.72756],[127.58732,35.72759],[127.58651,35.72756],[127.58621,35.72753],[127.58599,35.72752],[127.58527,35.72748],[127.58496,35.72747],[127.58384,35.7276],[127.58355,35.72766],[127.57901,35.72887],[127.57892,35.72914],[127.57824,35.73037],[127.57788,35.73095],[127.57667,35.73289],[127.5753,35.73501],[127.57446,35.73622],[127.57441,35.73629],[127.57365,35.73732],[127.57327,35.73783],[127.57286,35.73835],[127.56991,35.74208],[127.56818,35.74349],[127.56765,35.74379],[127.5668,35.7444],[127.56637,35.74487],[127.56493,35.74701],[127.56458,35.74772],[127.56392,35.74871],[127.5628,35.7499],[127.56221,35.75015],[127.56163,35.75017],[127.5607,35.74996],[127.56019,35.74983],[127.55953,35.74962],[127.5583,35.74909],[127.55755,35.74859],[127.55655,35.74785],[127.55617,35.74753],[127.55546,35.74698],[127.55447,35.74632],[127.55392,35.74602],[127.55383,35.746],[127.55349,35.74606],[127.55313,35.74614],[127.55307,35.74618],[127.55303,35.74624],[127.55292,35.74671],[127.55271,35.75226],[127.55266,35.75613],[127.55339,35.75665],[127.55416,35.75728],[127.55592,35.75908],[127.55725,35.76057],[127.55838,35.7622],[127.55833,35.76243],[127.55837,35.76345],[127.55845,35.76423],[127.5595,35.76773],[127.55988,35.76856],[127.56104,35.76987],[127.56205,35.77075],[127.56306,35.77117],[127.56652,35.77322],[127.56699,35.77382],[127.56769,35.77457],[127.56879,35.77563],[127.56962,35.77615],[127.57236,35.77713],[127.5749,35.77788],[127.57461,35.77731],[127.57481,35.77658],[127.57518,35.77598],[127.57582,35.77518],[127.5771,35.77408],[127.5783,35.77316],[127.57976,35.77243],[127.58007,35.77204],[127.58037,35.7714],[127.58042,35.77102],[127.58031,35.77056],[127.57988,35.7694],[127.57974,35.76846],[127.57958,35.76683],[127.57973,35.76553],[127.57988,35.76493],[127.58111,35.76529],[127.58318,35.76624],[127.58395,35.76635],[127.5851,35.76644],[127.58708,35.76607],[127.5877,35.76593],[127.58842,35.76576],[127.58915,35.7654],[127.58966,35.765],[127.59055,35.76435],[127.59158,35.76387],[127.59247,35.76374],[127.59306,35.76384],[127.59415,35.76391],[127.59548,35.76359],[127.59611,35.7633],[127.5978,35.76194],[127.60029,35.75984],[127.60285,35.75745],[127.60372,35.75638],[127.60421,35.75599],[127.61041,35.75331],[127.6105,35.75329],[127.61134,35.75312],[127.61248,35.75301],[127.61296,35.75291],[127.6133,35.75283],[127.61572,35.75221],[127.61617,35.75208],[127.61677,35.75189],[127.61701,35.75178],[127.61857,35.75097],[127.61867,35.75086],[127.61869,35.75071],[127.61871,35.75047],[127.61874,35.75036],[127.61879,35.75031],[127.61992,35.74923],[127.62017,35.7491],[127.62034,35.74905],[127.62047,35.74905],[127.62509,35.75102],[127.62517,35.75106],[127.62523,35.75111],[127.62655,35.75194],[127.62675,35.75209],[127.62684,35.75217],[127.62695,35.75228],[127.62964,35.75529],[127.63134,35.75832],[127.63244,35.76095],[127.63264,35.76139],[127.6328,35.76164],[127.63311,35.76193],[127.63345,35.76211],[127.63383,35.7623],[127.63529,35.76268],[127.64036,35.76442],[127.64149,35.76502],[127.64219,35.76573],[127.64291,35.7665],[127.64461,35.76845],[127.64539,35.76941],[127.64618,35.77012],[127.64656,35.77038],[127.64708,35.77072],[127.64792,35.77092],[127.64898,35.77111],[127.64902,35.77112],[127.65038,35.77116],[127.65181,35.77125],[127.65461,35.77168],[127.65543,35.77188],[127.65697,35.77265],[127.65791,35.77322],[127.65871,35.77381],[127.6599,35.77494],[127.66042,35.77545],[127.66181,35.77652],[127.66201,35.77663],[127.66274,35.77667],[127.66295,35.77665],[127.66369,35.77654],[127.66411,35.77626],[127.66557,35.77509],[127.66613,35.77445],[127.66678,35.77325],[127.66715,35.77278],[127.66778,35.77228],[127.66906,35.77147]]]]}},{"type":"Feature","properties":{"code":"52740340","name":"천천면","parent":"52740"},"geometry":{"type":"MultiPolygon","coordinates":[[[[127.57679,35.79509],[127.57728,35.79429],[127.57762,35.79346],[127.57794,35.79205],[127.57836,35.79141],[127.57907,35.7907],[127.58036,35.78964],[127.58056,35.78917],[127.58056,35.78877],[127.58002,35.78701],[127.57957,35.78579],[127.57902,35.78483],[127.57842,35.78399],[127.57723,35.78248],[127.57649,35.78159],[127.57571,35.78014],[127.57508,35.77861],[127.5749,35.77788],[127.57236,35.77713],[127.56962,35.77615],[127.56879,35.77563],[127.56769,35.77457],[127.56699,35.77382],[127.56652,35.77322],[127.56306,35.77117],[127.56205,35.77075],[127.56104,35.76987],[127.55988,35.76856],[127.5595,35.76773],[127.55845,35.76423],[127.55837,35.76345],[127.55833,35.76243],[127.55838,35.7622],[127.55725,35.76057],[127.55592,35.75908],[127.55416,35.75728],[127.55339,35.75665],[127.55266,35.75613],[127.55271,35.75226],[127.55292,35.74671],[127.55303,35.74624],[127.55307,35.74618],[127.55313,35.74614],[127.55349,35.74606],[127.55369,35.74551],[127.55413,35.74457],[127.55433,35.74413],[127.55471,35.74398],[127.55516,35.74376],[127.55532,35.74366],[127.5578,35.7395],[127.55876,35.73773],[127.5585,35.73757],[127.5583,35.73733],[127.55668,35.73532],[127.55587,35.73381],[127.55568,35.73346],[127.55569,35.73338],[127.55586,35.73324],[127.55591,35.73309],[127.55597,35.73279],[127.55593,35.73231],[127.55571,35.73107],[127.55531,35.72939],[127.55508,35.72869],[127.55445,35.72659],[127.55494,35.72211],[127.55557,35.71947],[127.55592,35.71883],[127.55597,35.71861],[127.55602,35.71837],[127.55605,35.71697],[127.55602,35.71685],[127.55547,35.71591],[127.55534,35.71577],[127.55508,35.7156],[127.55475,35.71546],[127.55162,35.71473],[127.55101,35.71464],[127.55082,35.71464],[127.54897,35.71424],[127.54708,35.71153],[127.54704,35.71148],[127.54702,35.71142],[127.54565,35.70749],[127.54555,35.70715],[127.54555,35.70702],[127.54778,35.70216],[127.54957,35.69856],[127.5503,35.6972],[127.54972,35.69524],[127.54933,35.69392],[127.54728,35.69066],[127.54601,35.68882],[127.5451,35.68734],[127.5444,35.68603],[127.5437,35.6821],[127.54331,35.68215],[127.54303,35.68219],[127.54287,35.68217],[127.54213,35.6821],[127.54197,35.68208],[127.53919,35.6816],[127.53908,35.68157],[127.53875,35.68147],[127.53846,35.68137],[127.53838,35.68132],[127.5383,35.68122],[127.53815,35.68081],[127.53805,35.68048],[127.53787,35.67958],[127.53771,35.67769],[127.53683,35.67312],[127.53682,35.67308],[127.53674,35.67289],[127.53668,35.67282],[127.53315,35.6705],[127.5331,35.67048],[127.53305,35.67047],[127.53299,35.67048],[127.53217,35.67078],[127.52942,35.67181],[127.52548,35.67307],[127.52506,35.67307],[127.52488,35.67309],[127.52453,35.67316],[127.52413,35.67326],[127.5217,35.67415],[127.52077,35.67513],[127.52011,35.67586],[127.51997,35.67601],[127.51934,35.67675],[127.51907,35.6771],[127.51885,35.67744],[127.51876,35.67759],[127.51766,35.67659],[127.51671,35.6757],[127.51567,35.6746],[127.51539,35.67418],[127.51532,35.67407],[127.51509,35.67366],[127.51504,35.67361],[127.51497,35.67356],[127.51484,35.67351],[127.51432,35.67335],[127.51415,35.67332],[127.51405,35.6733],[127.51387,35.67331],[127.51371,35.67332],[127.51233,35.67366],[127.51124,35.67406],[127.51098,35.67419],[127.51064,35.67439],[127.51046,35.67451],[127.51022,35.67465],[127.5086,35.67531],[127.50832,35.67535],[127.50803,35.67536],[127.50695,35.67532],[127.50557,35.67491],[127.50391,35.67428],[127.50348,35.67404],[127.50317,35.67387],[127.50312,35.67381],[127.50065,35.67064],[127.50034,35.66995],[127.50031,35.66992],[127.50018,35.66985],[127.4945,35.66714],[127.49438,35.66712],[127.48934,35.66708],[127.48872,35.6671],[127.48516,35.6675],[127.48017,35.66649],[127.48002,35.66642],[127.47994,35.66637],[127.47982,35.66628],[127.4797,35.66618],[127.47835,35.66495],[127.47821,35.66483],[127.47741,35.66322],[127.47697,35.661],[127.47634,35.66114],[127.47522,35.66148],[127.47354,35.66205],[127.47336,35.66213],[127.47325,35.66219],[127.47217,35.66282],[127.47205,35.6629],[127.4719,35.66301],[127.47177,35.66311],[127.47165,35.66323],[127.47102,35.66384],[127.47072,35.66422],[127.47037,35.66475],[127.46686,35.66702],[127.46451,35.66819],[127.46025,35.6727],[127.4601,35.67286],[127.46001,35.67297],[127.45995,35.67306],[127.45994,35.67314],[127.45994,35.67327],[127.46029,35.67471],[127.46096,35.67619],[127.46104,35.67629],[127.4611,35.67635],[127.46131,35.67643],[127.46155,35.67651],[127.46167,35.67654],[127.46182,35.67659],[127.46199,35.67667],[127.46213,35.67678],[127.46224,35.67686],[127.46392,35.67829],[127.46406,35.67842],[127.46414,35.67852],[127.46421,35.67869],[127.46587,35.68281],[127.46589,35.68289],[127.4661,35.68409],[127.46636,35.68581],[127.46661,35.68912],[127.46659,35.68925],[127.46659,35.68931],[127.46657,35.68937],[127.46606,35.69019],[127.46557,35.69097],[127.46545,35.69118],[127.46539,35.69131],[127.46483,35.69307],[127.46481,35.69316],[127.46481,35.69322],[127.46483,35.69329],[127.46489,35.69337],[127.46629,35.69487],[127.46636,35.69491],[127.46694,35.69509],[127.4673,35.69519],[127.4675,35.69524],[127.46764,35.69526],[127.46795,35.69531],[127.46819,35.69534],[127.46841,35.69538],[127.46888,35.6955],[127.46955,35.69569],[127.47054,35.69598],[127.47068,35.69602],[127.47099,35.69616],[127.47233,35.69684],[127.47239,35.69688],[127.47308,35.69728],[127.47317,35.69735],[127.47324,35.69744],[127.47715,35.70222],[127.47781,35.70327],[127.47821,35.70458],[127.47826,35.70481],[127.47828,35.70496],[127.47833,35.70539],[127.47836,35.70584],[127.47836,35.70587],[127.4775,35.71053],[127.47681,35.71274],[127.47642,35.71325],[127.47576,35.71434],[127.47571,35.71448],[127.47568,35.71463],[127.47565,35.71478],[127.47565,35.71491],[127.47596,35.71784],[127.476,35.71802],[127.47607,35.71817],[127.47612,35.71826],[127.47669,35.71925],[127.47673,35.71931],[127.47852,35.72129],[127.48138,35.72114],[127.48147,35.72115],[127.48157,35.7212],[127.4833,35.72221],[127.48337,35.72227],[127.48345,35.72235],[127.4835,35.72244],[127.48355,35.72253],[127.48513,35.72558],[127.48665,35.72636],[127.48674,35.72641],[127.48704,35.72664],[127.48736,35.72689],[127.48748,35.72699],[127.48753,35.72704],[127.48757,35.72709],[127.48819,35.72848],[127.48859,35.72953],[127.4886,35.72958],[127.48876,35.73011],[127.48882,35.73036],[127.48893,35.73081],[127.48898,35.73095],[127.489,35.73097],[127.49414,35.73605],[127.4948,35.73664],[127.49487,35.7367],[127.49505,35.73683],[127.49513,35.73688],[127.49702,35.73805],[127.50071,35.74025],[127.50093,35.74037],[127.50112,35.74041],[127.50117,35.74041],[127.50133,35.74042],[127.50149,35.74041],[127.50154,35.74041],[127.50191,35.74044],[127.50208,35.74047],[127.50222,35.74053],[127.5026,35.74076],[127.50324,35.74116],[127.50367,35.74144],[127.50378,35.74154],[127.50554,35.74325],[127.50649,35.74482],[127.50704,35.74541],[127.50848,35.74668],[127.50905,35.74711],[127.50965,35.74713],[127.51047,35.74709],[127.51119,35.74701],[127.51155,35.74694],[127.51168,35.74691],[127.51206,35.74689],[127.51211,35.7469],[127.51225,35.74692],[127.51469,35.74798],[127.51476,35.74802],[127.51484,35.74805],[127.51907,35.75031],[127.5201,35.75117],[127.52255,35.75386],[127.5229,35.75441],[127.52336,35.7556],[127.5233,35.75586],[127.52329,35.75589],[127.52329,35.75593],[127.52312,35.75608],[127.52287,35.75632],[127.52037,35.7578],[127.51962,35.75805],[127.51927,35.75848],[127.51918,35.75904],[127.51935,35.75957],[127.5196,35.76055],[127.51952,35.76133],[127.51925,35.76173],[127.51859,35.76249],[127.51756,35.76425],[127.51684,35.76583],[127.51677,35.76601],[127.51669,35.76618],[127.51681,35.76669],[127.51701,35.76749],[127.51706,35.76793],[127.51684,35.7682],[127.51644,35.76853],[127.51552,35.76903],[127.51459,35.7695],[127.51412,35.76973],[127.51321,35.77033],[127.51314,35.77052],[127.51315,35.77096],[127.51324,35.77172],[127.51268,35.77477],[127.5116,35.77566],[127.51143,35.77663],[127.51163,35.77749],[127.51203,35.77886],[127.51309,35.78167],[127.51331,35.78224],[127.51384,35.78302],[127.51385,35.78361],[127.51377,35.7842],[127.51376,35.78432],[127.51289,35.78816],[127.51243,35.78906],[127.51159,35.79023],[127.51124,35.79077],[127.51113,35.79187],[127.51119,35.79301],[127.51161,35.79475],[127.51341,35.7991],[127.51379,35.7996],[127.51381,35.79962],[127.51428,35.80001],[127.51706,35.80172],[127.51721,35.80173],[127.51766,35.80176],[127.51777,35.80176],[127.51813,35.80175],[127.51829,35.80174],[127.51875,35.80193],[127.51934,35.80267],[127.51978,35.80345],[127.51981,35.8035],[127.52022,35.80455],[127.52059,35.80638],[127.52085,35.80746],[127.52141,35.80933],[127.52224,35.81166],[127.52265,35.81217],[127.52337,35.81261],[127.52417,35.81278],[127.52512,35.81296],[127.52598,35.8131],[127.5282,35.81345],[127.52926,35.81354],[127.53344,35.81355],[127.53442,35.81338],[127.53578,35.81331],[127.5407,35.8101],[127.54073,35.81006],[127.54124,35.80931],[127.54177,35.80822],[127.542,35.80704],[127.54227,35.80679],[127.54269,35.80656],[127.54362,35.80641],[127.54446,35.80637],[127.54568,35.8064],[127.54702,35.80649],[127.54774,35.80647],[127.55292,35.80596],[127.55377,35.80576],[127.55651,35.80463],[127.55733,35.80408],[127.55806,35.80327],[127.55824,35.80299],[127.5588,35.80182],[127.55924,35.80092],[127.55961,35.80037],[127.56022,35.79973],[127.5608,35.79942],[127.56155,35.79901],[127.56198,35.79946],[127.56415,35.79899],[127.56566,35.79847],[127.56868,35.79711],[127.56992,35.79575],[127.57057,35.79466],[127.5722,35.79394],[127.5756,35.79386],[127.57629,35.79397],[127.57657,35.79428],[127.57679,35.79509]]]]}},{"type":"Feature","properties":{"code":"52740350","name":"계남면","parent":"52740"},"geometry":{"type":"MultiPolygon","coordinates":[[[[127.61345,35.64375],[127.61073,35.64158],[127.60761,35.63926],[127.60676,35.63866],[127.60581,35.63811],[127.6057,35.63805],[127.60561,35.63803],[127.60545,35.63803],[127.6054,35.63804],[127.60533,35.63804],[127.60511,35.63805],[127.60505,35.63804],[127.60455,35.63783],[127.6045,35.63779],[127.60045,35.63234],[127.59989,35.63125],[127.59984,35.63115],[127.59974,35.63105],[127.59959,35.63097],[127.59723,35.62983],[127.59577,35.62919],[127.59557,35.62913],[127.59524,35.62906],[127.59507,35.62903],[127.59491,35.62994],[127.59485,35.63005],[127.59476,35.63016],[127.59405,35.6308],[127.59395,35.63086],[127.59379,35.63092],[127.59201,35.63155],[127.59188,35.63159],[127.59173,35.6316],[127.59154,35.6316],[127.59136,35.63158],[127.59112,35.63154],[127.59092,35.63149],[127.59086,35.63149],[127.59072,35.63154],[127.58858,35.63232],[127.5885,35.63238],[127.58249,35.63788],[127.58246,35.63796],[127.58246,35.63805],[127.58156,35.64221],[127.57909,35.64734],[127.57905,35.6474],[127.57787,35.64875],[127.57718,35.64944],[127.57712,35.64949],[127.57649,35.65002],[127.5762,35.65023],[127.57598,35.65038],[127.57582,35.65047],[127.57261,35.65182],[127.56891,35.6533],[127.56878,35.65335],[127.56873,35.6534],[127.56843,35.654],[127.56828,35.65429],[127.56687,35.65748],[127.56679,35.65779],[127.56674,35.65801],[127.56676,35.65813],[127.56688,35.65836],[127.56689,35.65843],[127.56687,35.65854],[127.56669,35.65926],[127.56666,35.65936],[127.56496,35.66397],[127.56491,35.66407],[127.56356,35.66649],[127.56205,35.66768],[127.56186,35.66782],[127.5616,35.66799],[127.56137,35.66807],[127.56118,35.66811],[127.55972,35.6683],[127.55957,35.66831],[127.55952,35.66831],[127.55765,35.66806],[127.5566,35.66782],[127.5552,35.66778],[127.55263,35.66787],[127.55249,35.66789],[127.55235,35.66793],[127.55189,35.66807],[127.55171,35.66813],[127.54987,35.66896],[127.5498,35.669],[127.5486,35.67031],[127.54842,35.67054],[127.54808,35.67104],[127.548,35.67118],[127.54797,35.67129],[127.54772,35.67244],[127.54563,35.67602],[127.54475,35.67727],[127.54386,35.68071],[127.54368,35.68145],[127.5437,35.6821],[127.5444,35.68603],[127.5451,35.68734],[127.54601,35.68882],[127.54728,35.69066],[127.54933,35.69392],[127.54972,35.69524],[127.5503,35.6972],[127.54957,35.69856],[127.54778,35.70216],[127.54555,35.70702],[127.54555,35.70715],[127.54565,35.70749],[127.54702,35.71142],[127.54704,35.71148],[127.54708,35.71153],[127.54897,35.71424],[127.55082,35.71464],[127.55101,35.71464],[127.55162,35.71473],[127.55475,35.71546],[127.55508,35.7156],[127.55534,35.71577],[127.55547,35.71591],[127.55602,35.71685],[127.55605,35.71697],[127.55602,35.71837],[127.55597,35.71861],[127.55592,35.71883],[127.55557,35.71947],[127.55494,35.72211],[127.55445,35.72659],[127.55508,35.72869],[127.55531,35.72939],[127.55571,35.73107],[127.55593,35.73231],[127.55597,35.73279],[127.55591,35.73309],[127.55586,35.73324],[127.55569,35.73338],[127.55568,35.73346],[127.55587,35.73381],[127.55668,35.73532],[127.5583,35.73733],[127.5585,35.73757],[127.55876,35.73773],[127.5578,35.7395],[127.55532,35.74366],[127.55516,35.74376],[127.55471,35.74398],[127.55433,35.74413],[127.55413,35.74457],[127.55369,35.74551],[127.55349,35.74606],[127.55383,35.746],[127.55392,35.74602],[127.55447,35.74632],[127.55546,35.74698],[127.55617,35.74753],[127.55655,35.74785],[127.55755,35.74859],[127.5583,35.74909],[127.55953,35.74962],[127.56019,35.74983],[127.5607,35.74996],[127.56163,35.75017],[127.56221,35.75015],[127.5628,35.7499],[127.56392,35.74871],[127.56458,35.74772],[127.56493,35.74701],[127.56637,35.74487],[127.5668,35.7444],[127.56765,35.74379],[127.56818,35.74349],[127.56991,35.74208],[127.57286,35.73835],[127.57327,35.73783],[127.57365,35.73732],[127.57441,35.73629],[127.57446,35.73622],[127.5753,35.73501],[127.57667,35.73289],[127.57788,35.73095],[127.57824,35.73037],[127.57892,35.72914],[127.57901,35.72887],[127.58355,35.72766],[127.58384,35.7276],[127.58496,35.72747],[127.58527,35.72748],[127.58599,35.72752],[127.58621,35.72753],[127.58651,35.72756],[127.58732,35.72759],[127.58735,35.72756],[127.5876,35.72737],[127.5947,35.7207],[127.59543,35.71983],[127.5956,35.71951],[127.59618,35.71822],[127.59688,35.71664],[127.59788,35.71349],[127.5979,35.71326],[127.59792,35.71297],[127.59801,35.71227],[127.59805,35.71211],[127.5981,35.71199],[127.59842,35.71133],[127.59848,35.71123],[127.59863,35.71114],[127.59905,35.71094],[127.5994,35.71083],[127.59972,35.71075],[127.59989,35.71071],[127.6001,35.7107],[127.60021,35.71066],[127.6004,35.71049],[127.60119,35.70967],[127.60184,35.70892],[127.60286,35.70774],[127.60318,35.70733],[127.60465,35.70535],[127.60482,35.70508],[127.60486,35.70497],[127.60484,35.70479],[127.60478,35.70466],[127.60439,35.7041],[127.60427,35.70403],[127.60413,35.70395],[127.60399,35.70393],[127.60389,35.70386],[127.6038,35.70379],[127.60371,35.70369],[127.60365,35.70358],[127.60371,35.70317],[127.60377,35.70301],[127.60519,35.70062],[127.60533,35.70044],[127.60552,35.70024],[127.60564,35.70012],[127.60687,35.69936],[127.60732,35.69915],[127.60766,35.699],[127.60798,35.69891],[127.60926,35.69677],[127.6093,35.69655],[127.60931,35.69599],[127.60931,35.6956],[127.60923,35.6951],[127.60894,35.69426],[127.60758,35.69134],[127.60739,35.691],[127.6072,35.69068],[127.60695,35.69028],[127.60688,35.6902],[127.60677,35.69011],[127.60652,35.68994],[127.60651,35.68992],[127.60651,35.68988],[127.60655,35.6898],[127.60921,35.68581],[127.60928,35.68571],[127.60986,35.6853],[127.61018,35.68511],[127.61042,35.685],[127.61066,35.68495],[127.61113,35.68489],[127.61152,35.68485],[127.61168,35.6848],[127.61201,35.68462],[127.61226,35.68444],[127.61237,35.68433],[127.613,35.68292],[127.61303,35.68277],[127.61307,35.68247],[127.61308,35.68209],[127.61307,35.68197],[127.61271,35.67933],[127.61235,35.67761],[127.61234,35.67755],[127.61226,35.67749],[127.61159,35.67725],[127.61154,35.67722],[127.6115,35.67715],[127.61102,35.67417],[127.61102,35.67395],[127.61113,35.67339],[127.61122,35.67324],[127.61129,35.67314],[127.61146,35.67302],[127.61162,35.67286],[127.6118,35.67259],[127.61195,35.67227],[127.61205,35.67194],[127.61215,35.6712],[127.61216,35.67048],[127.61216,35.67037],[127.61146,35.66644],[127.61077,35.66485],[127.61055,35.66454],[127.61048,35.66439],[127.61044,35.66417],[127.61045,35.66404],[127.61048,35.66387],[127.61056,35.66366],[127.61128,35.66194],[127.61138,35.66174],[127.61162,35.66139],[127.61211,35.66074],[127.61222,35.66061],[127.61245,35.66027],[127.61261,35.66],[127.61273,35.65977],[127.61277,35.65967],[127.613,35.65823],[127.613,35.65816],[127.61283,35.65781],[127.61268,35.65757],[127.61261,35.65749],[127.61254,35.65743],[127.61229,35.65732],[127.61213,35.65723],[127.61204,35.65716],[127.612,35.6571],[127.61199,35.65703],[127.61189,35.65435],[127.61189,35.65328],[127.6122,35.64936],[127.61269,35.64639],[127.61345,35.64375]]]]}},{"type":"Feature","properties":{"code":"52740360","name":"계북면","parent":"52740"},"geometry":{"type":"MultiPolygon","coordinates":[[[[127.69965,35.78822],[127.69671,35.78608],[127.69298,35.78292],[127.68982,35.78095],[127.68499,35.77785],[127.68475,35.77754],[127.6847,35.77737],[127.68255,35.77364],[127.68014,35.77056],[127.67903,35.76927],[127.67746,35.76967],[127.67649,35.7702],[127.67579,35.7705],[127.67492,35.77078],[127.67386,35.77099],[127.67003,35.77168],[127.66906,35.77147],[127.66778,35.77228],[127.66715,35.77278],[127.66678,35.77325],[127.66613,35.77445],[127.66557,35.77509],[127.66411,35.77626],[127.66369,35.77654],[127.66295,35.77665],[127.66274,35.77667],[127.66201,35.77663],[127.66181,35.77652],[127.66042,35.77545],[127.6599,35.77494],[127.65871,35.77381],[127.65791,35.77322],[127.65697,35.77265],[127.65543,35.77188],[127.65461,35.77168],[127.65181,35.77125],[127.65038,35.77116],[127.64902,35.77112],[127.64898,35.77111],[127.64792,35.77092],[127.64708,35.77072],[127.64656,35.77038],[127.64618,35.77012],[127.64539,35.76941],[127.64461,35.76845],[127.64291,35.7665],[127.64219,35.76573],[127.64149,35.76502],[127.64036,35.76442],[127.63529,35.76268],[127.63383,35.7623],[127.63345,35.76211],[127.63311,35.76193],[127.6328,35.76164],[127.63264,35.76139],[127.63244,35.76095],[127.63134,35.75832],[127.62964,35.75529],[127.62695,35.75228],[127.62684,35.75217],[127.62675,35.75209],[127.62655,35.75194],[127.62523,35.75111],[127.62517,35.75106],[127.62509,35.75102],[127.62047,35.74905],[127.62034,35.74905],[127.62017,35.7491],[127.61992,35.74923],[127.61879,35.75031],[127.61874,35.75036],[127.61871,35.75047],[127.61869,35.75071],[127.61867,35.75086],[127.61857,35.75097],[127.61701,35.75178],[127.61677,35.75189],[127.61617,35.75208],[127.61572,35.75221],[127.6133,35.75283],[127.61296,35.75291],[127.61248,35.75301],[127.61134,35.75312],[127.6105,35.75329],[127.61041,35.75331],[127.60421,35.75599],[127.60372,35.75638],[127.60285,35.75745],[127.60029,35.75984],[127.5978,35.76194],[127.59611,35.7633],[127.59548,35.76359],[127.59415,35.76391],[127.59306,35.76384],[127.59247,35.76374],[127.59158,35.76387],[127.59055,35.76435],[127.58966,35.765],[127.58915,35.7654],[127.58842,35.76576],[127.5877,35.76593],[127.58708,35.76607],[127.5851,35.76644],[127.58395,35.76635],[127.58318,35.76624],[127.58111,35.76529],[127.57988,35.76493],[127.57973,35.76553],[127.57958,35.76683],[127.57974,35.76846],[127.57988,35.7694],[127.58031,35.77056],[127.58042,35.77102],[127.58037,35.7714],[127.58007,35.77204],[127.57976,35.77243],[127.5783,35.77316],[127.5771,35.77408],[127.57582,35.77518],[127.57518,35.77598],[127.57481,35.77658],[127.57461,35.77731],[127.5749,35.77788],[127.57508,35.77861],[127.57571,35.78014],[127.57649,35.78159],[127.57723,35.78248],[127.57842,35.78399],[127.57902,35.78483],[127.57957,35.78579],[127.58002,35.78701],[127.58056,35.78877],[127.58056,35.78917],[127.58036,35.78964],[127.57907,35.7907],[127.57836,35.79141],[127.57794,35.79205],[127.57762,35.79346],[127.57728,35.79429],[127.57679,35.79509],[127.57692,35.79528],[127.57714,35.79533],[127.57737,35.79524],[127.57773,35.7949],[127.57821,35.79402],[127.57857,35.79376],[127.57903,35.7937],[127.57934,35.7938],[127.58235,35.79553],[127.58545,35.79746],[127.58973,35.80053],[127.59278,35.80179],[127.59866,35.80728],[127.60263,35.81185],[127.60265,35.81303],[127.60263,35.81423],[127.60244,35.81539],[127.60229,35.8166],[127.60243,35.817],[127.60276,35.81785],[127.60349,35.81886],[127.60453,35.82255],[127.60466,35.82365],[127.60483,35.82467],[127.60538,35.82608],[127.60711,35.8302],[127.60954,35.83303],[127.61007,35.83362],[127.61075,35.83395],[127.61426,35.83601],[127.61908,35.83913],[127.6198,35.8397],[127.62142,35.83407],[127.62153,35.83388],[127.62239,35.83207],[127.62268,35.83141],[127.62259,35.83091],[127.62211,35.82878],[127.62168,35.82778],[127.62082,35.82545],[127.62071,35.82468],[127.62079,35.82437],[127.62111,35.82352],[127.62421,35.81961],[127.62455,35.81933],[127.6253,35.81879],[127.62641,35.81805],[127.62701,35.81767],[127.62741,35.81729],[127.62985,35.81473],[127.62985,35.81448],[127.62997,35.81357],[127.63033,35.81307],[127.63229,35.81405],[127.63305,35.81466],[127.63454,35.81577],[127.63556,35.81609],[127.63639,35.81618],[127.63694,35.81616],[127.63762,35.81598],[127.63882,35.81561],[127.63954,35.81532],[127.63988,35.81514],[127.64148,35.81372],[127.64241,35.81317],[127.64373,35.81248],[127.64405,35.81231],[127.64472,35.81197],[127.64498,35.81186],[127.64576,35.81168],[127.64827,35.8115],[127.65334,35.81121],[127.65393,35.81125],[127.65436,35.81137],[127.65479,35.81159],[127.65504,35.81181],[127.6574,35.81393],[127.65913,35.81551],[127.65918,35.81559],[127.65996,35.81625],[127.66237,35.8181],[127.66265,35.81826],[127.66304,35.81828],[127.66332,35.81817],[127.66367,35.8179],[127.66414,35.81747],[127.66472,35.81665],[127.66488,35.81642],[127.66552,35.81564],[127.66602,35.81541],[127.66701,35.81501],[127.66811,35.81456],[127.66897,35.81415],[127.67,35.81277],[127.67027,35.81214],[127.67035,35.81138],[127.67067,35.81018],[127.67093,35.80997],[127.67124,35.80987],[127.67424,35.81008],[127.67456,35.81013],[127.6759,35.81031],[127.67723,35.81033],[127.67803,35.80974],[127.6793,35.80839],[127.68188,35.8059],[127.68212,35.80567],[127.6843,35.80497],[127.6857,35.80448],[127.68688,35.80388],[127.68721,35.80342],[127.68796,35.80177],[127.68822,35.80108],[127.68829,35.80073],[127.68831,35.79975],[127.688,35.79824],[127.68796,35.79706],[127.68798,35.79596],[127.68829,35.79541],[127.69084,35.79347],[127.69371,35.79133],[127.69588,35.79009],[127.69965,35.78822]]]]}}]}