{"type":"FeatureCollection","features":[{"type":"Feature","properties":{"code":"41271510","name":"일동","parent":"41271"},"geometry":{"type":"MultiPolygon","coordinates":[[[[126.87812,37.31946],[126.87775,37.31847],[126.87731,37.31809],[126.87724,37.31799],[126.87721,37.31795],[126.87694,37.31695],[126.87713,37.31325],[126.8791,37.31135],[126.87988,37.31113],[126.88034,37.311],[126.88126,37.31017],[126.88181,37.30902],[126.88003,37.30778],[126.87981,37.30777],[126.8794,37.30775],[126.87911,37.30693],[126.879,37.30545],[126.87906,37.30493],[126.87925,37.3034],[126.87913,37.3025],[126.87913,37.30243],[126.87834,37.30238],[126.87449,37.30285],[126.87287,37.30392],[126.86914,37.30648],[126.86739,37.30827],[126.86393,37.31165],[126.86329,37.31208],[126.86314,37.31218],[126.86249,37.31249],[126.86199,37.31265],[126.85975,37.31334],[126.85902,37.31362],[126.8581,37.31409],[126.85704,37.31508],[126.85703,37.31511],[126.85578,37.31796],[126.8578,37.31864],[126.85905,37.31942],[126.8595,37.3197],[126.86016,37.32011],[126.86117,37.32074],[126.86133,37.32074],[126.86429,37.32065],[126.86612,37.31995],[126.86689,37.31965],[126.86714,37.31951],[126.8679,37.3191],[126.86871,37.31882],[126.86991,37.31841],[126.87344,37.32031],[126.87421,37.32086],[126.87812,37.31946]]]]}},{"type":"Feature","properties":{"code":"41271525","name":"사동","parent":"41271"},"geometry":{"type":"MultiPolygon","coordinates":[[[[126.85857,37.3044],[126.85869,37.30429],[126.85895,37.30362],[126.85909,37.30294],[126.85914,37.30222],[126.85913,37.30186],[126.85909,37.30102],[126.85884,37.29737],[126.85878,37.29705],[126.85877,37.29697],[126.85794,37.29374],[126.85775,37.29305],[126.85559,37.2931],[126.85531,37.29308],[126.85516,37.29308],[126.85373,37.29215],[126.85267,37.2912],[126.85227,37.29167],[126.85107,37.29284],[126.85061,37.29315],[126.85014,37.29315],[126.85002,37.29314],[126.84975,37.2931],[126.84955,37.29294],[126.84935,37.29252],[126.84928,37.29242],[126.84918,37.29227],[126.84908,37.29215],[126.84869,37.29162],[126.84835,37.29119],[126.84804,37.29093],[126.84779,37.29089],[126.84768,37.29087],[126.84548,37.29056],[126.84416,37.29036],[126.84326,37.29132],[126.84291,37.29208],[126.8421,37.29421],[126.84203,37.29458],[126.84209,37.29504],[126.84222,37.29536],[126.84231,37.29549],[126.84244,37.29568],[126.84257,37.29587],[126.84259,37.29589],[126.84261,37.29591],[126.84289,37.29626],[126.84309,37.29651],[126.84357,37.2971],[126.8442,37.2979],[126.84435,37.29825],[126.8444,37.29877],[126.8442,37.29924],[126.84416,37.2993],[126.84379,37.29984],[126.84347,37.30038],[126.84327,37.30098],[126.84334,37.30346],[126.84335,37.30352],[126.84342,37.30412],[126.84375,37.30704],[126.84564,37.30693],[126.84598,37.30691],[126.84715,37.30681],[126.84723,37.3068],[126.84756,37.30677],[126.84754,37.30663],[126.84754,37.30659],[126.84749,37.30608],[126.84746,37.30584],[126.84744,37.30567],[126.84914,37.3056],[126.84927,37.30563],[126.8495,37.30569],[126.84956,37.30572],[126.84963,37.30574],[126.84973,37.30579],[126.85,37.30594],[126.85072,37.30641],[126.8527,37.30772],[126.85293,37.30787],[126.85471,37.30836],[126.85733,37.30565],[126.85857,37.3044]]]]}},{"type":"Feature","properties":{"code":"41271532","name":"사이동","parent":"41271"},"geometry":{"type":"MultiPolygon","coordinates":[[[[126.85775,37.29305],[126.85738,37.29147],[126.85733,37.29132],[126.85645,37.28824],[126.85639,37.28803],[126.85614,37.28716],[126.85576,37.28586],[126.8553,37.27974],[126.85455,37.2793],[126.84885,37.27703],[126.83968,37.27513],[126.83781,37.27541],[126.8365,37.27629],[126.83556,37.27685],[126.83537,37.27696],[126.83372,37.27774],[126.83255,37.27801],[126.83162,37.27809],[126.83102,37.27814],[126.82931,37.27861],[126.828,37.2798],[126.82627,37.28522],[126.82574,37.28881],[126.82707,37.28885],[126.82848,37.2889],[126.83008,37.28902],[126.83198,37.2902],[126.83881,37.29028],[126.83994,37.28873],[126.8404,37.28811],[126.84203,37.28912],[126.84245,37.28939],[126.84288,37.28965],[126.84398,37.29034],[126.84416,37.29036],[126.84548,37.29056],[126.84768,37.29087],[126.84779,37.29089],[126.84804,37.29093],[126.84835,37.29119],[126.84869,37.29162],[126.84908,37.29215],[126.84918,37.29227],[126.84928,37.29242],[126.84935,37.29252],[126.84955,37.29294],[126.84975,37.2931],[126.85002,37.29314],[126.85014,37.29315],[126.85061,37.29315],[126.85107,37.29284],[126.85227,37.29167],[126.85267,37.2912],[126.85373,37.29215],[126.85516,37.29308],[126.85531,37.29308],[126.85559,37.2931],[126.85775,37.29305]]]]}},{"type":"Feature","properties":{"code":"41271540","name":"본오1동","parent":"41271"},"geometry":{"type":"MultiPolygon","coordinates":[[[[126.89841,37.294],[126.89955,37.2902],[126.89878,37.28958],[126.8977,37.28906],[126.89641,37.28899],[126.89583,37.28864],[126.89526,37.2883],[126.89323,37.28677],[126.89319,37.28674],[126.89287,37.28645],[126.89109,37.28385],[126.89147,37.28288],[126.89139,37.28248],[126.89091,37.28202],[126.88914,37.28126],[126.88781,37.28079],[126.88618,37.28053],[126.88405,37.28162],[126.8833,37.28218],[126.87969,37.28567],[126.87923,37.28531],[126.87907,37.28511],[126.87901,37.28504],[126.87876,37.28447],[126.87853,37.28395],[126.87827,37.28247],[126.87821,37.28115],[126.87815,37.27923],[126.87667,37.27772],[126.87132,37.27471],[126.87118,37.27471],[126.8613,37.2743],[126.8596,37.27424],[126.85822,37.27418],[126.85794,37.27388],[126.85378,37.27235],[126.85272,37.27204],[126.85143,37.27075],[126.84983,37.26916],[126.84934,37.26868],[126.84812,37.26651],[126.8479,37.26596],[126.84717,37.26575],[126.84647,37.26587],[126.84432,37.26716],[126.84253,37.26787],[126.84128,37.26865],[126.84084,37.26911],[126.84003,37.26997],[126.83884,37.27143],[126.83825,37.2735],[126.83791,37.27497],[126.83781,37.27541],[126.83968,37.27513],[126.84885,37.27703],[126.85455,37.2793],[126.8553,37.27974],[126.85576,37.28586],[126.85614,37.28716],[126.85639,37.28803],[126.85645,37.28824],[126.85733,37.29132],[126.85738,37.29147],[126.85775,37.29305],[126.85794,37.29374],[126.85869,37.29371],[126.87255,37.29323],[126.87251,37.29235],[126.87247,37.29164],[126.87243,37.29083],[126.87239,37.29002],[126.87239,37.28999],[126.87308,37.29004],[126.87843,37.29173],[126.87842,37.29307],[126.87841,37.29415],[126.87743,37.29544],[126.87661,37.29637],[126.87547,37.2964],[126.87455,37.2969],[126.87454,37.29697],[126.87453,37.29704],[126.8752,37.29899],[126.87851,37.29911],[126.8834,37.2993],[126.88629,37.298],[126.88883,37.29797],[126.88927,37.29762],[126.89134,37.29576],[126.89458,37.29447],[126.89485,37.29445],[126.89569,37.29438],[126.89692,37.29426],[126.89735,37.29421],[126.89841,37.294]]]]}},{"type":"Feature","properties":{"code":"41271550","name":"본오2동","parent":"41271"},"geometry":{"type":"MultiPolygon","coordinates":[[[[126.8752,37.29899],[126.87453,37.29704],[126.87454,37.29697],[126.87455,37.2969],[126.87547,37.2964],[126.87661,37.29637],[126.87743,37.29544],[126.87841,37.29415],[126.87842,37.29307],[126.87843,37.29173],[126.87308,37.29004],[126.87239,37.28999],[126.87239,37.29002],[126.87243,37.29083],[126.87247,37.29164],[126.87251,37.29235],[126.87255,37.29323],[126.85869,37.29371],[126.85794,37.29374],[126.85877,37.29697],[126.86299,37.2968],[126.86464,37.29674],[126.86864,37.29661],[126.86939,37.29659],[126.86987,37.29657],[126.87269,37.2965],[126.87279,37.29795],[126.87288,37.29926],[126.87288,37.29929],[126.87453,37.29948],[126.87493,37.29942],[126.8752,37.29899]]]]}},{"type":"Feature","properties":{"code":"41271560","name":"본오3동","parent":"41271"},"geometry":{"type":"MultiPolygon","coordinates":[[[[126.87449,37.30285],[126.87834,37.30238],[126.87851,37.29911],[126.8752,37.29899],[126.87493,37.29942],[126.87453,37.29948],[126.87288,37.29929],[126.87288,37.29926],[126.87279,37.29795],[126.87269,37.2965],[126.86987,37.29657],[126.86939,37.29659],[126.86864,37.29661],[126.86464,37.29674],[126.86299,37.2968],[126.85877,37.29697],[126.85878,37.29705],[126.85884,37.29737],[126.85909,37.30102],[126.85913,37.30186],[126.85914,37.30222],[126.85909,37.30294],[126.85895,37.30362],[126.85869,37.30429],[126.85857,37.3044],[126.86324,37.30314],[126.86454,37.30307],[126.86815,37.30283],[126.8696,37.30259],[126.87046,37.30245],[126.87381,37.30225],[126.87437,37.30274],[126.87449,37.30285]]]]}},{"type":"Feature","properties":{"code":"41271570","name":"부곡동","parent":"41271"},"geometry":{"type":"MultiPolygon","coordinates":[[[[126.88731,37.34675],[126.88754,37.346],[126.8877,37.34399],[126.88767,37.34359],[126.88683,37.34032],[126.8868,37.34025],[126.88678,37.34019],[126.88549,37.33838],[126.88536,37.3382],[126.88091,37.33362],[126.88071,37.33347],[126.88056,37.33338],[126.87992,37.33302],[126.87951,37.33283],[126.87923,37.33276],[126.87858,37.33272],[126.87764,37.33266],[126.87672,37.33265],[126.87398,37.32995],[126.87359,37.32928],[126.87278,37.32657],[126.87276,37.32643],[126.87275,37.32635],[126.87275,37.3263],[126.87275,37.32621],[126.87336,37.32307],[126.87382,37.32277],[126.87399,37.32271],[126.87428,37.32257],[126.87445,37.32244],[126.87454,37.32233],[126.87458,37.32224],[126.87465,37.32209],[126.87466,37.32192],[126.87461,37.32178],[126.8746,37.32175],[126.87421,37.32086],[126.87344,37.32031],[126.86991,37.31841],[126.86871,37.31882],[126.8679,37.3191],[126.86714,37.31951],[126.86689,37.31965],[126.86612,37.31995],[126.86429,37.32065],[126.86133,37.32074],[126.86117,37.32074],[126.86016,37.32011],[126.8595,37.3197],[126.85905,37.31942],[126.8578,37.31864],[126.85578,37.31796],[126.85548,37.31958],[126.85585,37.32057],[126.85648,37.32422],[126.85667,37.32604],[126.85726,37.32778],[126.8574,37.32935],[126.85776,37.33046],[126.85901,37.33173],[126.85905,37.33176],[126.85908,37.33179],[126.85961,37.33225],[126.86063,37.33314],[126.86089,37.33346],[126.86118,37.33387],[126.86119,37.3339],[126.86133,37.33413],[126.86161,37.33459],[126.8619,37.33513],[126.86278,37.33679],[126.8626,37.33685],[126.86208,37.33703],[126.8606,37.33751],[126.86038,37.33758],[126.85657,37.33781],[126.85429,37.33849],[126.85477,37.33903],[126.85516,37.33947],[126.85535,37.33997],[126.85609,37.34187],[126.85626,37.34233],[126.85634,37.34252],[126.85689,37.34271],[126.85791,37.34362],[126.85853,37.34425],[126.8594,37.34512],[126.86187,37.34725],[126.86188,37.34722],[126.86224,37.34651],[126.86267,37.34624],[126.86342,37.3458],[126.8645,37.34612],[126.86566,37.34677],[126.86658,37.34743],[126.86773,37.34773],[126.87101,37.34701],[126.87144,37.34676],[126.8714,37.34631],[126.87136,37.34576],[126.87301,37.34518],[126.87575,37.34508],[126.8817,37.34578],[126.88433,37.34616],[126.8856,37.34637],[126.88639,37.34651],[126.88731,37.34675]]]]}},{"type":"Feature","properties":{"code":"41271580","name":"월피동","parent":"41271"},"geometry":{"type":"MultiPolygon","coordinates":[[[[126.85449,37.36029],[126.85629,37.35781],[126.85689,37.35699],[126.85689,37.35669],[126.85654,37.35558],[126.85634,37.3551],[126.85595,37.35428],[126.85528,37.35424],[126.85498,37.35412],[126.85352,37.35271],[126.85335,37.34845],[126.85341,37.34802],[126.85362,37.34771],[126.85394,37.34737],[126.85419,37.34717],[126.85445,37.34702],[126.85477,37.34695],[126.85516,37.34685],[126.85605,37.34642],[126.85659,37.34594],[126.85688,37.34432],[126.85681,37.34361],[126.85634,37.34252],[126.85626,37.34233],[126.85609,37.34187],[126.85535,37.33997],[126.85516,37.33947],[126.85477,37.33903],[126.85429,37.33849],[126.85657,37.33781],[126.86038,37.33758],[126.8606,37.33751],[126.86208,37.33703],[126.8626,37.33685],[126.86278,37.33679],[126.8619,37.33513],[126.86161,37.33459],[126.86133,37.33413],[126.86119,37.3339],[126.86118,37.33387],[126.86089,37.33346],[126.86063,37.33314],[126.85961,37.33225],[126.85908,37.33179],[126.85905,37.33176],[126.85901,37.33173],[126.85776,37.33046],[126.8574,37.32935],[126.85726,37.32778],[126.85667,37.32604],[126.85664,37.32604],[126.85495,37.32605],[126.854,37.32644],[126.8529,37.32698],[126.85258,37.32714],[126.85243,37.32721],[126.85223,37.32732],[126.85198,37.32744],[126.85159,37.32757],[126.85127,37.32759],[126.85009,37.32768],[126.84989,37.3277],[126.8493,37.32772],[126.84736,37.32781],[126.84361,37.32799],[126.84182,37.32807],[126.84178,37.33012],[126.84174,37.33087],[126.84146,37.33422],[126.84144,37.33424],[126.84028,37.33502],[126.8371,37.33903],[126.83752,37.33946],[126.83806,37.33999],[126.83869,37.34042],[126.83966,37.34088],[126.84058,37.34154],[126.84183,37.3428],[126.84124,37.34335],[126.84113,37.34345],[126.84102,37.34348],[126.84066,37.34356],[126.83941,37.34385],[126.83793,37.34458],[126.83634,37.34536],[126.83619,37.34577],[126.83603,37.34622],[126.83519,37.3489],[126.83454,37.34995],[126.83455,37.35006],[126.83456,37.35032],[126.83481,37.35065],[126.83603,37.3518],[126.83712,37.35256],[126.83696,37.35577],[126.839,37.35858],[126.83931,37.35867],[126.83972,37.35857],[126.83976,37.35856],[126.84056,37.35894],[126.84061,37.35921],[126.84101,37.36188],[126.84093,37.36323],[126.84075,37.36369],[126.84166,37.36321],[126.84247,37.36325],[126.84335,37.36329],[126.84622,37.36402],[126.84825,37.36505],[126.84925,37.36417],[126.84977,37.36359],[126.85017,37.36286],[126.85028,37.36203],[126.85209,37.361],[126.85343,37.36044],[126.85449,37.36029]]]]}},{"type":"Feature","properties":{"code":"41271590","name":"성포동","parent":"41271"},"geometry":{"type":"MultiPolygon","coordinates":[[[[126.84182,37.32807],[126.84361,37.32799],[126.84736,37.32781],[126.8493,37.32772],[126.84989,37.3277],[126.85009,37.32768],[126.85127,37.32759],[126.85159,37.32757],[126.85198,37.32744],[126.85223,37.32732],[126.85243,37.32721],[126.85258,37.32714],[126.8529,37.32698],[126.854,37.32644],[126.85495,37.32605],[126.85664,37.32604],[126.85667,37.32604],[126.85648,37.32422],[126.85585,37.32057],[126.85548,37.31958],[126.85578,37.31796],[126.85703,37.31511],[126.85635,37.31502],[126.85557,37.3149],[126.85274,37.31455],[126.85271,37.31456],[126.85014,37.31561],[126.84927,37.31595],[126.84917,37.31596],[126.84774,37.31608],[126.84311,37.31629],[126.84325,37.31743],[126.84315,37.31792],[126.84263,37.31844],[126.84237,37.3187],[126.84227,37.31881],[126.84185,37.31921],[126.84135,37.31968],[126.84126,37.31977],[126.84111,37.3201],[126.84102,37.3203],[126.84104,37.32058],[126.84119,37.32282],[126.84124,37.32358],[126.84139,37.32551],[126.8416,37.3281],[126.84182,37.32807]]]]}},{"type":"Feature","properties":{"code":"41271600","name":"반월동","parent":"41271"},"geometry":{"type":"MultiPolygon","coordinates":[[[[126.93043,37.30706],[126.93051,37.3053],[126.93052,37.30521],[126.9312,37.30413],[126.93128,37.30405],[126.93135,37.30396],[126.93154,37.30381],[126.93295,37.30305],[126.93276,37.30297],[126.93259,37.30076],[126.93355,37.29985],[126.93547,37.29803],[126.93652,37.29766],[126.93934,37.29692],[126.93954,37.29535],[126.93955,37.29532],[126.93929,37.29498],[126.93507,37.29269],[126.93407,37.29232],[126.93298,37.29163],[126.93281,37.29102],[126.93245,37.29016],[126.93139,37.28842],[126.92959,37.28622],[126.92929,37.28602],[126.92924,37.28589],[126.92913,37.28557],[126.92808,37.28234],[126.92778,37.27993],[126.92767,37.27946],[126.9274,37.27885],[126.92737,37.2788],[126.92638,37.27908],[126.92622,37.27913],[126.92371,37.28136],[126.91829,37.28493],[126.91817,37.285],[126.91756,37.28539],[126.91694,37.28699],[126.91613,37.28867],[126.91385,37.29147],[126.91378,37.29148],[126.91309,37.29153],[126.91259,37.29105],[126.9122,37.29042],[126.91213,37.29029],[126.91198,37.29015],[126.90947,37.29005],[126.90555,37.28989],[126.9015,37.29098],[126.89841,37.294],[126.89735,37.29421],[126.89692,37.29426],[126.89569,37.29438],[126.89485,37.29445],[126.89458,37.29447],[126.89134,37.29576],[126.88927,37.29762],[126.88883,37.29797],[126.88629,37.298],[126.8834,37.2993],[126.87851,37.29911],[126.87834,37.30238],[126.87913,37.30243],[126.87913,37.3025],[126.87925,37.3034],[126.87906,37.30493],[126.879,37.30545],[126.87911,37.30693],[126.8794,37.30775],[126.87981,37.30777],[126.88003,37.30778],[126.88181,37.30902],[126.88126,37.31017],[126.88034,37.311],[126.87988,37.31113],[126.8791,37.31135],[126.87713,37.31325],[126.87694,37.31695],[126.87721,37.31795],[126.87724,37.31799],[126.87731,37.31809],[126.87775,37.31847],[126.87812,37.31946],[126.88154,37.32082],[126.88163,37.32084],[126.88306,37.32086],[126.88316,37.32086],[126.88328,37.32081],[126.8837,37.32059],[126.88559,37.31946],[126.88577,37.31935],[126.88774,37.31791],[126.89153,37.31978],[126.89187,37.31983],[126.89279,37.31981],[126.89389,37.3198],[126.89413,37.31975],[126.8942,37.3197],[126.89446,37.31955],[126.89503,37.31917],[126.90556,37.32165],[126.9077,37.32188],[126.90816,37.32161],[126.91093,37.31777],[126.91047,37.31759],[126.91028,37.31735],[126.91032,37.31693],[126.91035,37.31688],[126.91039,37.31683],[126.91044,37.31677],[126.9107,37.31654],[126.91246,37.31558],[126.91257,37.31557],[126.9127,37.31558],[126.91283,37.3156],[126.91314,37.3157],[126.91379,37.31591],[126.91391,37.31593],[126.91417,37.31594],[126.91441,37.31591],[126.91445,37.31589],[126.91459,37.31583],[126.91505,37.31556],[126.91551,37.31514],[126.9152,37.31355],[126.91451,37.31202],[126.9144,37.31171],[126.91433,37.31131],[126.91433,37.31125],[126.91433,37.31118],[126.91433,37.31094],[126.91437,37.31052],[126.91528,37.30558],[126.91538,37.3055],[126.91604,37.30522],[126.91622,37.30516],[126.91646,37.30515],[126.92064,37.30554],[126.92091,37.30558],[126.92121,37.30566],[126.92159,37.30582],[126.92225,37.30613],[126.92237,37.30618],[126.9225,37.30642],[126.92258,37.30644],[126.92477,37.30679],[126.92542,37.30686],[126.92616,37.30691],[126.92916,37.3069],[126.93043,37.30706]]]]}},{"type":"Feature","properties":{"code":"41271610","name":"안산동","parent":"41271"},"geometry":{"type":"MultiPolygon","coordinates":[[[[126.8911,37.37527],[126.89128,37.37479],[126.89387,37.36635],[126.89556,37.36045],[126.89561,37.36014],[126.89569,37.35998],[126.89605,37.35938],[126.89724,37.35807],[126.89409,37.35571],[126.894,37.35562],[126.89395,37.35548],[126.89375,37.35365],[126.89192,37.3514],[126.89016,37.35013],[126.88985,37.34993],[126.8896,37.3498],[126.88903,37.34961],[126.88895,37.34958],[126.88867,37.34944],[126.88745,37.3473],[126.88731,37.34675],[126.88639,37.34651],[126.8856,37.34637],[126.88433,37.34616],[126.8817,37.34578],[126.87575,37.34508],[126.87301,37.34518],[126.87136,37.34576],[126.8714,37.34631],[126.87144,37.34676],[126.87101,37.34701],[126.86773,37.34773],[126.86658,37.34743],[126.86566,37.34677],[126.8645,37.34612],[126.86342,37.3458],[126.86267,37.34624],[126.86224,37.34651],[126.86188,37.34722],[126.86187,37.34725],[126.8594,37.34512],[126.85853,37.34425],[126.85791,37.34362],[126.85689,37.34271],[126.85634,37.34252],[126.85681,37.34361],[126.85688,37.34432],[126.85659,37.34594],[126.85605,37.34642],[126.85516,37.34685],[126.85477,37.34695],[126.85445,37.34702],[126.85419,37.34717],[126.85394,37.34737],[126.85362,37.34771],[126.85341,37.34802],[126.85335,37.34845],[126.85352,37.35271],[126.85498,37.35412],[126.85528,37.35424],[126.85595,37.35428],[126.85634,37.3551],[126.85654,37.35558],[126.85689,37.35669],[126.85689,37.35699],[126.85629,37.35781],[126.85449,37.36029],[126.85662,37.3611],[126.85996,37.36148],[126.86131,37.36148],[126.862,37.36149],[126.86362,37.3615],[126.86483,37.36152],[126.87007,37.36483],[126.87122,37.36567],[126.87155,37.36591],[126.87315,37.36851],[126.8778,37.37233],[126.87933,37.37352],[126.88107,37.37508],[126.88191,37.37622],[126.88649,37.37658],[126.8911,37.37527]]]]}},{"type":"Feature","properties":{"code":"41271515","name":"이동","parent":"41271"},"geometry":{"type":"MultiPolygon","coordinates":[[[[126.85703,37.31511],[126.85704,37.31508],[126.8581,37.31409],[126.85902,37.31362],[126.85975,37.31334],[126.86199,37.31265],[126.86249,37.31249],[126.86314,37.31218],[126.86329,37.31208],[126.86393,37.31165],[126.86739,37.30827],[126.86914,37.30648],[126.87287,37.30392],[126.87449,37.30285],[126.87437,37.30274],[126.87381,37.30225],[126.87046,37.30245],[126.8696,37.30259],[126.86815,37.30283],[126.86454,37.30307],[126.86324,37.30314],[126.85857,37.3044],[126.85733,37.30565],[126.85471,37.30836],[126.85293,37.30787],[126.8527,37.30772],[126.85072,37.30641],[126.85,37.30594],[126.84973,37.30579],[126.84963,37.30574],[126.84956,37.30572],[126.8495,37.30569],[126.84927,37.30563],[126.84914,37.3056],[126.84744,37.30567],[126.84746,37.30584],[126.84749,37.30608],[126.84754,37.30659],[126.84754,37.30663],[126.84756,37.30677],[126.84723,37.3068],[126.84715,37.30681],[126.84598,37.30691],[126.84564,37.30693],[126.84375,37.30704],[126.84211,37.30716],[126.84252,37.31489],[126.84253,37.31494],[126.84262,37.31581],[126.84311,37.31629],[126.84774,37.31608],[126.84917,37.31596],[126.84927,37.31595],[126.85014,37.31561],[126.85271,37.31456],[126.85274,37.31455],[126.85557,37.3149],[126.85635,37.31502],[126.85703,37.31511]]]]}},{"type":"Feature","properties":{"code":"41271537","name":"해양동","parent":"41271"},"geometry":{"type":"MultiPolygon","coordinates":[[[[126.84375,37.30704],[126.84342,37.30412],[126.84335,37.30352],[126.84334,37.30346],[126.84327,37.30098],[126.84347,37.30038],[126.84379,37.29984],[126.84416,37.2993],[126.8442,37.29924],[126.8444,37.29877],[126.84435,37.29825],[126.8442,37.2979],[126.84357,37.2971],[126.84309,37.29651],[126.84289,37.29626],[126.84261,37.29591],[126.84259,37.29589],[126.84257,37.29587],[126.84244,37.29568],[126.84231,37.29549],[126.84222,37.29536],[126.84209,37.29504],[126.84203,37.29458],[126.8421,37.29421],[126.84291,37.29208],[126.84326,37.29132],[126.84416,37.29036],[126.84398,37.29034],[126.84288,37.28965],[126.84245,37.28939],[126.84203,37.28912],[126.8404,37.28811],[126.83994,37.28873],[126.83881,37.29028],[126.83198,37.2902],[126.83008,37.28902],[126.82848,37.2889],[126.82775,37.29159],[126.82218,37.29087],[126.82212,37.29087],[126.82197,37.29085],[126.82165,37.2908],[126.82014,37.29163],[126.81392,37.29505],[126.81513,37.29654],[126.81632,37.29801],[126.81686,37.29888],[126.81871,37.30132],[126.82099,37.30363],[126.82371,37.30441],[126.82388,37.3044],[126.82867,37.30408],[126.82969,37.30355],[126.83545,37.3035],[126.83574,37.30352],[126.83595,37.30358],[126.83798,37.30421],[126.83851,37.30438],[126.83869,37.30444],[126.84093,37.30539],[126.84126,37.30554],[126.84149,37.30567],[126.84164,37.3058],[126.84177,37.30593],[126.84182,37.30601],[126.84191,37.30615],[126.84197,37.30637],[126.84212,37.30695],[126.84211,37.30716],[126.84375,37.30704]]]]}}]}