{"type":"FeatureCollection","features":[{"type":"Feature","properties":{"code":"48330253","name":"물금읍","parent":"48330"},"geometry":{"type":"MultiPolygon","coordinates":[[[[129.02676,35.34183],[129.02605,35.34105],[129.02546,35.34016],[129.02522,35.33981],[129.02438,35.33853],[129.0243,35.33841],[129.02407,35.33806],[129.02385,35.33772],[129.02349,35.33715],[129.02149,35.33398],[129.02143,35.33386],[129.02142,35.33377],[129.02123,35.33219],[129.02122,35.3321],[129.02116,35.33152],[129.02109,35.33085],[129.02103,35.33018],[129.02066,35.32759],[129.0203,35.32526],[129.02009,35.32389],[129.01993,35.32268],[129.01975,35.32114],[129.01952,35.31919],[129.01949,35.31892],[129.01945,35.31861],[129.01918,35.31612],[129.01917,35.31607],[129.01895,35.31406],[129.01894,35.31397],[129.0189,35.31364],[129.01846,35.31038],[129.01835,35.30977],[129.0179,35.30775],[129.01688,35.30426],[129.01587,35.30101],[129.01579,35.30077],[129.01578,35.30073],[129.01496,35.29818],[129.01419,35.29574],[129.0141,35.29484],[129.01418,35.29455],[129.01426,35.29427],[129.01426,35.29398],[129.01424,35.29369],[129.01391,35.29076],[129.01386,35.29043],[129.01378,35.2901],[129.01367,35.28977],[129.01322,35.28882],[129.013,35.28848],[129.01277,35.28814],[129.01254,35.28788],[129.012,35.28729],[129.01167,35.28695],[129.01164,35.28692],[129.01145,35.28663],[129.01135,35.28634],[129.01129,35.28603],[129.01124,35.28573],[129.01065,35.28185],[129.01043,35.28021],[129.01002,35.27875],[129.00947,35.27962],[129.00904,35.2803],[129.00881,35.28062],[129.00858,35.28093],[129.00834,35.28123],[129.00808,35.28152],[129.00783,35.28181],[129.00755,35.28209],[129.00724,35.28238],[129.00664,35.28295],[129.00632,35.28322],[129.00294,35.286],[129.00264,35.28622],[129.00204,35.28667],[129.00173,35.28689],[129.00141,35.28711],[129.00077,35.28752],[129.00044,35.28773],[129.00006,35.28794],[128.99967,35.28815],[128.99606,35.28985],[128.99556,35.29007],[128.99485,35.29037],[128.99392,35.29072],[128.99354,35.29086],[128.99315,35.29097],[128.99256,35.29113],[128.99219,35.29123],[128.9915,35.29142],[128.99051,35.29178],[128.98959,35.29212],[128.98835,35.29264],[128.98786,35.29291],[128.98732,35.2932],[128.98609,35.29396],[128.98549,35.29439],[128.98468,35.29501],[128.98402,35.2956],[128.98394,35.29567],[128.98364,35.29596],[128.98318,35.29646],[128.98249,35.2973],[128.98141,35.29869],[128.97698,35.30572],[128.97541,35.30822],[128.97455,35.30961],[128.97448,35.30972],[128.97417,35.31036],[128.974,35.31081],[128.97377,35.31151],[128.97352,35.31234],[128.97266,35.31578],[128.97316,35.31617],[128.97465,35.31765],[128.97568,35.31958],[128.97588,35.31987],[128.976,35.31997],[128.97632,35.32005],[128.97652,35.32006],[128.97811,35.31992],[128.97843,35.31989],[128.97888,35.31979],[128.97941,35.31964],[128.97977,35.31951],[128.98009,35.31933],[128.98079,35.31886],[128.98136,35.31848],[128.98159,35.31834],[128.98231,35.31789],[128.98236,35.3179],[128.98303,35.31934],[128.98312,35.31955],[128.98316,35.31968],[128.98287,35.3208],[128.98262,35.32141],[128.9824,35.32192],[128.98235,35.32207],[128.98247,35.32315],[128.98251,35.32336],[128.98355,35.3276],[128.98409,35.32884],[128.98543,35.33045],[128.98682,35.3318],[128.9885,35.33259],[128.98947,35.33345],[128.98983,35.33382],[128.99128,35.33534],[128.99149,35.33558],[128.99375,35.33749],[128.99649,35.33943],[128.99984,35.34054],[129.00198,35.34127],[129.00427,35.34214],[129.00473,35.34236],[129.0049,35.34251],[129.0063,35.34554],[129.007,35.34553],[129.00889,35.34534],[129.00907,35.34532],[129.01174,35.34432],[129.01257,35.34398],[129.01774,35.34267],[129.01965,35.34231],[129.02274,35.34171],[129.02305,35.34171],[129.02389,35.34221],[129.02458,35.34243],[129.02491,35.3424],[129.02589,35.34213],[129.02676,35.34183]]]]}},{"type":"Feature","properties":{"code":"48330310","name":"동면","parent":"48330"},"geometry":{"type":"MultiPolygon","coordinates":[[[[129.12956,35.35916],[129.13003,35.35883],[129.13196,35.35716],[129.13471,35.35306],[129.13473,35.35296],[129.13473,35.35287],[129.1346,35.35149],[129.13457,35.35141],[129.13395,35.3506],[129.13327,35.35],[129.13306,35.34997],[129.13261,35.3499],[129.13247,35.34987],[129.13228,35.34982],[129.13176,35.34966],[129.13103,35.3494],[129.13065,35.34924],[129.13002,35.34895],[129.12982,35.34885],[129.12966,35.34874],[129.12949,35.34859],[129.12942,35.34852],[129.12737,35.34567],[129.12731,35.34556],[129.12725,35.34539],[129.12723,35.34529],[129.12724,35.3452],[129.12727,35.34504],[129.12756,35.34462],[129.12776,35.34437],[129.12824,35.3438],[129.12829,35.34371],[129.12833,35.34359],[129.12834,35.34349],[129.12834,35.34334],[129.12834,35.34321],[129.1283,35.34314],[129.12822,35.34304],[129.128,35.34288],[129.12759,35.34263],[129.1272,35.34241],[129.12689,35.34224],[129.12671,35.34214],[129.12658,35.34205],[129.12648,35.34197],[129.1264,35.34192],[129.12631,35.34181],[129.12619,35.34161],[129.12604,35.34133],[129.12597,35.34116],[129.12593,35.34104],[129.12508,35.33668],[129.12506,35.33655],[129.12503,35.3363],[129.12505,35.33614],[129.1251,35.336],[129.12523,35.33575],[129.12547,35.33532],[129.12563,35.33505],[129.1258,35.33477],[129.12593,35.33448],[129.12605,35.3342],[129.12612,35.33405],[129.12621,35.33373],[129.12625,35.33349],[129.12626,35.33326],[129.12625,35.33304],[129.12623,35.33293],[129.12607,35.3324],[129.126,35.33222],[129.12584,35.33192],[129.12572,35.33175],[129.12552,35.33152],[129.12524,35.33125],[129.12482,35.33085],[129.12467,35.33073],[129.12453,35.33066],[129.12419,35.3305],[129.12329,35.3301],[129.12287,35.32992],[129.12273,35.32986],[129.12239,35.32978],[129.12206,35.3297],[129.12169,35.32957],[129.12132,35.3294],[129.12116,35.32925],[129.12087,35.32892],[129.12059,35.32842],[129.12048,35.32818],[129.12012,35.32724],[129.1199,35.32654],[129.11974,35.32581],[129.11966,35.32535],[129.11965,35.325],[129.11955,35.32442],[129.11933,35.32382],[129.11902,35.32328],[129.11848,35.32246],[129.11798,35.32215],[129.11568,35.32092],[129.11467,35.32039],[129.11365,35.31985],[129.11331,35.3195],[129.11272,35.31835],[129.11247,35.31783],[129.11223,35.31706],[129.11208,35.31615],[129.11194,35.31515],[129.11191,35.31434],[129.11189,35.31219],[129.11192,35.31168],[129.11192,35.31157],[129.1118,35.3102],[129.11171,35.30922],[129.11165,35.30877],[129.11098,35.30661],[129.11042,35.30597],[129.10961,35.30544],[129.10892,35.30507],[129.10621,35.3062],[129.10387,35.30618],[129.10348,35.30614],[129.09814,35.30417],[129.09793,35.30405],[129.097,35.30354],[129.09572,35.30355],[129.09404,35.30345],[129.09098,35.30351],[129.09086,35.30356],[129.09077,35.30357],[129.09065,35.30356],[129.09052,35.30354],[129.08922,35.30319],[129.08911,35.30314],[129.08895,35.30307],[129.08749,35.30223],[129.08708,35.30192],[129.08653,35.30148],[129.08621,35.30119],[129.08019,35.29594],[129.07812,35.29396],[129.07764,35.29351],[129.07356,35.29007],[129.07343,35.29002],[129.07317,35.28994],[129.07294,35.28991],[129.06971,35.29005],[129.06944,35.29007],[129.06923,35.29013],[129.06525,35.29145],[129.06511,35.29151],[129.06469,35.2917],[129.06444,35.29182],[129.06388,35.29212],[129.06345,35.2924],[129.06298,35.29278],[129.06119,35.29452],[129.06089,35.29481],[129.06077,35.29496],[129.06059,35.29517],[129.06045,35.29538],[129.06027,35.29554],[129.06019,35.29558],[129.06013,35.29555],[129.06,35.29548],[129.05192,35.28804],[129.05186,35.28796],[129.04994,35.28393],[129.04991,35.28386],[129.04988,35.28352],[129.04986,35.28271],[129.04995,35.2823],[129.05005,35.28208],[129.05018,35.2819],[129.05042,35.28167],[129.05057,35.28151],[129.05062,35.2814],[129.05096,35.28046],[129.05095,35.28036],[129.05087,35.28024],[129.05075,35.28014],[129.05057,35.28006],[129.04991,35.27999],[129.04869,35.28038],[129.04859,35.28039],[129.0443,35.28033],[129.04411,35.28031],[129.04395,35.28025],[129.04223,35.27917],[129.04211,35.27909],[129.04155,35.27848],[129.03923,35.27589],[129.03787,35.2761],[129.03423,35.27686],[129.03406,35.27691],[129.03392,35.27695],[129.03009,35.27852],[129.02618,35.27807],[129.02151,35.27625],[129.02113,35.27612],[129.02038,35.27584],[129.01996,35.27575],[129.0187,35.2755],[129.01827,35.27545],[129.01808,35.27547],[129.01722,35.27543],[129.01706,35.27539],[129.01678,35.27531],[129.01667,35.27528],[129.01628,35.27513],[129.01489,35.27452],[129.01281,35.27345],[129.01263,35.2733],[129.01261,35.27328],[129.01152,35.27645],[129.01002,35.27875],[129.01043,35.28021],[129.01065,35.28185],[129.01124,35.28573],[129.01129,35.28603],[129.01135,35.28634],[129.01145,35.28663],[129.01164,35.28692],[129.01167,35.28695],[129.012,35.28729],[129.01254,35.28788],[129.01277,35.28814],[129.013,35.28848],[129.01322,35.28882],[129.01367,35.28977],[129.01378,35.2901],[129.01386,35.29043],[129.01391,35.29076],[129.01424,35.29369],[129.01426,35.29398],[129.01426,35.29427],[129.01418,35.29455],[129.0141,35.29484],[129.01419,35.29574],[129.01496,35.29818],[129.01578,35.30073],[129.01579,35.30077],[129.01587,35.30101],[129.01688,35.30426],[129.0179,35.30775],[129.01835,35.30977],[129.01846,35.31038],[129.0189,35.31364],[129.01894,35.31397],[129.01895,35.31406],[129.01917,35.31607],[129.01918,35.31612],[129.01945,35.31861],[129.01949,35.31892],[129.01952,35.31919],[129.01975,35.32114],[129.01993,35.32268],[129.02009,35.32389],[129.0203,35.32526],[129.02202,35.32603],[129.0228,35.32642],[129.02442,35.32728],[129.02506,35.32761],[129.02599,35.32806],[129.02615,35.32813],[129.02637,35.32821],[129.02669,35.32832],[129.02711,35.32841],[129.02935,35.3289],[129.0304,35.32911],[129.03078,35.32917],[129.03116,35.32914],[129.03126,35.32912],[129.03135,35.32911],[129.03154,35.32908],[129.03274,35.32889],[129.03394,35.32881],[129.03414,35.32883],[129.03433,35.32886],[129.03444,35.3289],[129.0346,35.32899],[129.03471,35.32906],[129.035,35.32925],[129.03523,35.32938],[129.03553,35.32956],[129.03614,35.32987],[129.03774,35.33065],[129.03821,35.33085],[129.03851,35.33095],[129.03881,35.33102],[129.03902,35.33105],[129.03922,35.33103],[129.03955,35.33099],[129.03969,35.33097],[129.03987,35.33092],[129.04064,35.33063],[129.04742,35.32804],[129.04946,35.32698],[129.05,35.32648],[129.0506,35.32594],[129.05086,35.32572],[129.05104,35.3256],[129.05122,35.3255],[129.05136,35.32546],[129.05155,35.32544],[129.05174,35.32546],[129.05187,35.32547],[129.05216,35.32576],[129.05222,35.32586],[129.05234,35.32607],[129.05338,35.32826],[129.05349,35.32852],[129.0536,35.32885],[129.05364,35.32927],[129.05367,35.3295],[129.05375,35.32981],[129.05388,35.33006],[129.05409,35.33031],[129.05444,35.33069],[129.05467,35.3309],[129.05497,35.3311],[129.05717,35.33255],[129.05734,35.33261],[129.05822,35.33265],[129.05841,35.33264],[129.05872,35.33257],[129.05902,35.33251],[129.05926,35.3325],[129.06321,35.33303],[129.06363,35.33309],[129.06407,35.33319],[129.06473,35.33344],[129.06513,35.33361],[129.0655,35.33386],[129.06578,35.33414],[129.06594,35.33437],[129.06765,35.33471],[129.07061,35.33457],[129.07326,35.33318],[129.07337,35.33309],[129.07345,35.33303],[129.07356,35.33298],[129.07385,35.33287],[129.08131,35.33283],[129.08142,35.33284],[129.08177,35.33291],[129.08376,35.33476],[129.08381,35.33484],[129.08392,35.33505],[129.08394,35.33517],[129.08397,35.33535],[129.08399,35.33553],[129.08403,35.33572],[129.08406,35.33578],[129.08411,35.33586],[129.08422,35.33597],[129.08432,35.33604],[129.0845,35.33613],[129.08472,35.33619],[129.08488,35.33623],[129.0855,35.33634],[129.0856,35.33634],[129.08578,35.33633],[129.08596,35.33631],[129.08737,35.33606],[129.08832,35.3359],[129.08853,35.33584],[129.08865,35.3358],[129.08884,35.33573],[129.08916,35.33563],[129.08934,35.33559],[129.08952,35.33557],[129.08971,35.33557],[129.09003,35.33562],[129.09037,35.33573],[129.09064,35.33587],[129.09094,35.33607],[129.09111,35.3362],[129.09349,35.33881],[129.09359,35.33896],[129.09411,35.33999],[129.09417,35.34015],[129.0942,35.34027],[129.09421,35.34046],[129.09421,35.34092],[129.09419,35.34108],[129.09413,35.3412],[129.09383,35.34176],[129.09329,35.3448],[129.09305,35.34766],[129.09308,35.34789],[129.09312,35.34797],[129.09383,35.34884],[129.09459,35.35003],[129.09512,35.35128],[129.09577,35.35306],[129.09572,35.35321],[129.09564,35.35345],[129.09557,35.35364],[129.0955,35.35381],[129.09539,35.35402],[129.09519,35.35425],[129.09504,35.35437],[129.09467,35.35464],[129.09446,35.35476],[129.09431,35.35488],[129.09416,35.35502],[129.0941,35.35514],[129.09405,35.35524],[129.0935,35.35729],[129.09344,35.35767],[129.09346,35.35781],[129.09351,35.35799],[129.09391,35.35927],[129.09437,35.3604],[129.0919,35.3622],[129.0918,35.36225],[129.09173,35.36232],[129.09135,35.36342],[129.09128,35.36362],[129.09121,35.36391],[129.09123,35.36401],[129.09128,35.3642],[129.09132,35.36431],[129.09447,35.36845],[129.09688,35.37227],[129.09913,35.37467],[129.10131,35.37713],[129.1014,35.37729],[129.10149,35.37746],[129.10153,35.37757],[129.10154,35.37778],[129.10155,35.37794],[129.10155,35.37806],[129.10155,35.37867],[129.10154,35.37883],[129.1015,35.37904],[129.10143,35.37931],[129.10141,35.37958],[129.10143,35.37987],[129.10146,35.38021],[129.10152,35.38053],[129.10156,35.38071],[129.10164,35.38087],[129.10175,35.38104],[129.10345,35.38333],[129.10532,35.3857],[129.10564,35.38527],[129.10694,35.38395],[129.11008,35.38144],[129.11508,35.37655],[129.11609,35.3737],[129.11656,35.37245],[129.11667,35.37219],[129.11835,35.3683],[129.1184,35.3682],[129.12215,35.36409],[129.1222,35.36403],[129.12227,35.36396],[129.12273,35.36352],[129.1229,35.36345],[129.12309,35.36339],[129.12371,35.36325],[129.12391,35.36322],[129.12401,35.36321],[129.12493,35.36323],[129.12574,35.36319],[129.12598,35.36314],[129.12612,35.36309],[129.1269,35.36256],[129.12695,35.36253],[129.127,35.36249],[129.12713,35.36237],[129.128,35.36098],[129.12852,35.36005],[129.1287,35.35974],[129.12876,35.35967],[129.12956,35.35916]]]]}},{"type":"Feature","properties":{"code":"48330320","name":"원동면","parent":"48330"},"geometry":{"type":"MultiPolygon","coordinates":[[[[129.0567,35.53111],[129.05653,35.52704],[129.05314,35.52536],[129.052,35.51573],[129.04473,35.51301],[129.04469,35.51298],[129.04464,35.51294],[129.04453,35.51288],[129.04442,35.51282],[129.04307,35.51234],[129.04132,35.51171],[129.04017,35.51131],[129.03987,35.5112],[129.03978,35.51118],[129.0397,35.51116],[129.03953,35.51112],[129.03937,35.51109],[129.03923,35.51106],[129.03906,35.51103],[129.03769,35.50976],[129.03577,35.50793],[129.03559,35.50773],[129.03555,35.50768],[129.03294,35.50318],[129.03178,35.50111],[129.03172,35.50097],[129.03169,35.50075],[129.03173,35.5003],[129.0317,35.50007],[129.03139,35.49923],[129.03136,35.4992],[129.03134,35.49917],[129.03126,35.49915],[129.02869,35.49853],[129.02552,35.49769],[129.02382,35.49717],[129.02366,35.49712],[129.02354,35.49705],[129.02184,35.49533],[129.02173,35.49521],[129.02172,35.4951],[129.02179,35.4949],[129.02188,35.49472],[129.02195,35.49459],[129.02206,35.49437],[129.0222,35.49417],[129.02228,35.49405],[129.02234,35.49382],[129.02243,35.49273],[129.0224,35.4926],[129.02225,35.49245],[129.02131,35.49154],[129.02088,35.49115],[129.02018,35.49076],[129.0201,35.49073],[129.02004,35.4907],[129.01992,35.49064],[129.01958,35.49047],[129.0194,35.49035],[129.01922,35.49017],[129.01911,35.49002],[129.01823,35.48886],[129.01814,35.48872],[129.01746,35.48734],[129.0174,35.48721],[129.01592,35.48323],[129.01586,35.48301],[129.0159,35.48272],[129.01597,35.48231],[129.01601,35.48214],[129.01604,35.48206],[129.01699,35.48018],[129.01755,35.47971],[129.01766,35.47965],[129.01778,35.47958],[129.01785,35.47954],[129.01774,35.47955],[129.01755,35.47951],[129.01744,35.47947],[129.01735,35.47943],[129.01724,35.47936],[129.01714,35.47927],[129.01649,35.47857],[129.01641,35.47848],[129.01454,35.47617],[129.01385,35.47505],[129.01373,35.47487],[129.01364,35.47482],[129.01349,35.47478],[129.01309,35.47476],[129.01197,35.47471],[129.01187,35.47471],[129.01184,35.47473],[129.01174,35.47486],[129.01163,35.47501],[129.01154,35.47508],[129.01141,35.47516],[129.0107,35.47553],[129.01059,35.47557],[129.01049,35.47558],[129.01042,35.47558],[129.01014,35.47554],[129.00804,35.47514],[129.00184,35.475],[129.00168,35.475],[129.00149,35.47496],[129.00135,35.47487],[129.00115,35.47464],[129.00078,35.47418],[129.00054,35.47383],[129.00043,35.47367],[128.99972,35.47245],[128.99961,35.47225],[128.99886,35.4701],[128.99883,35.46993],[128.9988,35.46922],[128.9988,35.4686],[128.99883,35.46845],[128.99887,35.46833],[128.99892,35.46826],[128.99921,35.46585],[128.99745,35.46092],[128.99742,35.46088],[128.99735,35.4608],[128.9936,35.45813],[128.99149,35.4569],[128.99129,35.45681],[128.99102,35.45663],[128.99082,35.45637],[128.9906,35.45599],[128.99048,35.45575],[128.99041,35.45557],[128.99035,35.45532],[128.9903,35.45149],[128.99095,35.44909],[128.99051,35.44681],[128.9901,35.44497],[128.98978,35.44348],[128.98979,35.44329],[128.98983,35.443],[128.98994,35.44266],[128.99017,35.44206],[128.99056,35.44111],[128.99086,35.44047],[128.99145,35.43935],[128.99236,35.43768],[128.99249,35.43749],[128.99263,35.43738],[128.99289,35.43726],[128.99319,35.43721],[128.99446,35.43701],[128.99579,35.43433],[128.99567,35.43409],[128.99561,35.4338],[128.99559,35.43352],[128.99563,35.43317],[128.99573,35.43273],[128.99584,35.43248],[128.99718,35.42999],[128.99738,35.42969],[128.99761,35.42942],[128.99774,35.4293],[128.99872,35.42852],[128.99933,35.42805],[128.99997,35.42789],[129.0027,35.42554],[129.00276,35.42549],[129.00277,35.42546],[129.00193,35.42401],[129.00171,35.42392],[129.00154,35.42386],[129.00117,35.4238],[128.99712,35.42339],[128.99692,35.4234],[128.99669,35.42344],[128.99646,35.42352],[128.99632,35.42356],[128.99615,35.42362],[128.99586,35.42365],[128.99576,35.42363],[128.99449,35.42308],[128.99058,35.42164],[128.98373,35.41965],[128.98354,35.41963],[128.98268,35.41944],[128.98262,35.41939],[128.98252,35.41921],[128.98249,35.41915],[128.98226,35.41871],[128.98217,35.41847],[128.98087,35.41463],[128.98074,35.41413],[128.98073,35.41396],[128.98078,35.41381],[128.98125,35.41231],[128.98135,35.41215],[128.98149,35.41195],[128.98166,35.41179],[128.98181,35.41167],[128.98242,35.41038],[128.98331,35.4075],[128.98335,35.40725],[128.98336,35.40705],[128.98332,35.40684],[128.98324,35.40661],[128.98316,35.40649],[128.98301,35.40634],[128.98274,35.40616],[128.98245,35.406],[128.98211,35.40583],[128.982,35.4058],[128.9818,35.40575],[128.98157,35.40571],[128.98126,35.40566],[128.98104,35.4056],[128.98077,35.4055],[128.9804,35.40534],[128.98022,35.40524],[128.97962,35.40478],[128.97952,35.4047],[128.97759,35.40165],[128.97729,35.40088],[128.97721,35.40066],[128.97717,35.40053],[128.97706,35.40019],[128.97702,35.39995],[128.97696,35.39947],[128.97696,35.39932],[128.97699,35.39907],[128.97724,35.39832],[128.97734,35.3981],[128.9774,35.398],[128.97761,35.39779],[128.97799,35.39743],[128.97817,35.39729],[128.9784,35.39711],[128.97868,35.39691],[128.97895,35.39671],[128.97927,35.39655],[128.97966,35.39632],[128.97987,35.39616],[128.98004,35.39601],[128.98025,35.39582],[128.98055,35.39552],[128.98065,35.39539],[128.98214,35.39241],[128.98217,35.39228],[128.98221,35.39187],[128.9822,35.39162],[128.98217,35.39154],[128.9821,35.39144],[128.98201,35.39133],[128.98181,35.39114],[128.98173,35.39105],[128.98164,35.39093],[128.98159,35.39084],[128.98157,35.39072],[128.98138,35.38872],[128.98137,35.38859],[128.98139,35.3885],[128.98145,35.38837],[128.98174,35.38781],[128.98179,35.38775],[128.98181,35.38772],[128.98502,35.38453],[128.98509,35.38449],[128.98526,35.38442],[128.9853,35.38441],[128.98563,35.38437],[128.98586,35.38435],[128.98604,35.38436],[128.98623,35.38442],[128.98639,35.38449],[128.9865,35.38457],[128.98669,35.38473],[128.98692,35.38495],[128.98701,35.38501],[128.98706,35.38503],[128.9878,35.38519],[128.98795,35.38522],[128.98814,35.38523],[128.98827,35.38522],[128.99063,35.38473],[128.99078,35.38467],[128.99107,35.38448],[128.992,35.38374],[128.99213,35.3836],[128.99224,35.38344],[128.99238,35.38315],[128.99251,35.38287],[128.99255,35.38269],[128.99265,35.38254],[128.99272,35.38244],[128.9928,35.38238],[128.99287,35.38234],[128.9947,35.38195],[128.99563,35.38177],[128.99585,35.38174],[128.99603,35.38174],[128.9962,35.38176],[128.99644,35.38183],[128.99678,35.38194],[128.99705,35.38202],[128.99732,35.38206],[128.99761,35.38206],[128.99774,35.38205],[128.99784,35.38204],[128.99793,35.38201],[128.99814,35.38188],[128.99857,35.38159],[128.99875,35.38146],[129.00092,35.37952],[129.00103,35.37937],[129.00114,35.37919],[129.00117,35.37906],[129.00121,35.3789],[129.00123,35.37849],[129.00051,35.37451],[129.00001,35.37324],[128.99971,35.37258],[128.99965,35.3717],[128.9997,35.37038],[129.00019,35.3694],[129.00423,35.36666],[129.00804,35.36445],[129.00816,35.36438],[129.00821,35.3643],[129.00825,35.36419],[129.00835,35.36132],[129.00834,35.36091],[129.00832,35.36062],[129.00827,35.36056],[129.00818,35.36051],[129.00682,35.36022],[129.00665,35.36023],[129.00627,35.36029],[129.00544,35.36042],[129.00502,35.36051],[129.00483,35.36054],[129.0047,35.36052],[129.00454,35.36043],[129.00428,35.36025],[129.00407,35.36003],[129.00386,35.3597],[129.00371,35.35939],[129.00312,35.35813],[129.00301,35.35788],[129.00262,35.35561],[129.00262,35.35522],[129.00309,35.35139],[129.00424,35.34882],[129.00439,35.34858],[129.00497,35.34793],[129.00579,35.34691],[129.0059,35.34669],[129.00618,35.34596],[129.0063,35.34554],[129.0049,35.34251],[129.00473,35.34236],[129.00427,35.34214],[129.00198,35.34127],[128.99984,35.34054],[128.99649,35.33943],[128.99375,35.33749],[128.99149,35.33558],[128.99128,35.33534],[128.98983,35.33382],[128.98947,35.33345],[128.9885,35.33259],[128.98682,35.3318],[128.98543,35.33045],[128.98409,35.32884],[128.98355,35.3276],[128.98251,35.32336],[128.98247,35.32315],[128.98235,35.32207],[128.9824,35.32192],[128.98262,35.32141],[128.98287,35.3208],[128.98316,35.31968],[128.98312,35.31955],[128.98303,35.31934],[128.98236,35.3179],[128.98231,35.31789],[128.98159,35.31834],[128.98136,35.31848],[128.98079,35.31886],[128.98009,35.31933],[128.97977,35.31951],[128.97941,35.31964],[128.97888,35.31979],[128.97843,35.31989],[128.97811,35.31992],[128.97652,35.32006],[128.97632,35.32005],[128.976,35.31997],[128.97588,35.31987],[128.97568,35.31958],[128.97465,35.31765],[128.97316,35.31617],[128.97266,35.31578],[128.97246,35.31695],[128.97218,35.31829],[128.9719,35.31944],[128.9706,35.32398],[128.96996,35.32614],[128.9696,35.32704],[128.9693,35.32774],[128.96909,35.32806],[128.9688,35.32846],[128.96753,35.32973],[128.96617,35.33067],[128.96407,35.33177],[128.96172,35.33283],[128.95847,35.33403],[128.95616,35.33484],[128.95466,35.33535],[128.95415,35.33552],[128.95191,35.3362],[128.95018,35.33672],[128.94843,35.33713],[128.94775,35.33728],[128.94733,35.33734],[128.94569,35.33769],[128.94452,35.33805],[128.9434,35.33862],[128.94087,35.34025],[128.9388,35.34263],[128.93679,35.34521],[128.93594,35.34629],[128.93419,35.34829],[128.9335,35.34907],[128.93151,35.35087],[128.9311,35.35124],[128.92636,35.35533],[128.92553,35.35604],[128.92478,35.35662],[128.92385,35.35734],[128.91865,35.36112],[128.9178,35.36168],[128.9168,35.36217],[128.91565,35.36267],[128.91481,35.36299],[128.91361,35.36341],[128.91245,35.36379],[128.91161,35.36403],[128.9094,35.3646],[128.9073,35.36507],[128.9065,35.3652],[128.90477,35.36541],[128.90356,35.36546],[128.90248,35.36547],[128.90215,35.36546],[128.90115,35.36534],[128.90019,35.36512],[128.89922,35.3648],[128.89466,35.36454],[128.89254,35.36455],[128.89201,35.36459],[128.89174,35.36463],[128.8916,35.36464],[128.89056,35.36482],[128.88958,35.36501],[128.88886,35.36516],[128.88804,35.36533],[128.88716,35.36551],[128.88654,35.36568],[128.88597,35.36585],[128.88512,35.36613],[128.88376,35.3667],[128.88322,35.36699],[128.8821,35.36763],[128.88141,35.36804],[128.88067,35.3685],[128.87995,35.36898],[128.87792,35.37048],[128.87712,35.37121],[128.87677,35.3716],[128.87619,35.37248],[128.87465,35.37502],[128.87388,35.37646],[128.87284,35.37903],[128.87275,35.37933],[128.87254,35.38052],[128.87275,35.3807],[128.87374,35.38156],[128.87416,35.38197],[128.87452,35.38237],[128.87459,35.38246],[128.87488,35.38281],[128.87504,35.38304],[128.87522,35.38334],[128.8756,35.38403],[128.87579,35.3844],[128.87595,35.38473],[128.87606,35.38507],[128.87615,35.38526],[128.87622,35.38535],[128.87626,35.3854],[128.87631,35.38543],[128.87735,35.38605],[128.87743,35.3861],[128.87946,35.38652],[128.87965,35.38654],[128.87986,35.38653],[128.88008,35.3865],[128.88034,35.38644],[128.88052,35.38644],[128.88062,35.38645],[128.88066,35.38649],[128.88066,35.38656],[128.88066,35.38665],[128.87969,35.3931],[128.8796,35.395],[128.87956,35.39532],[128.87921,35.39644],[128.87918,35.39653],[128.87913,35.39661],[128.87906,35.3967],[128.87897,35.39678],[128.87877,35.39694],[128.87864,35.39704],[128.87943,35.3978],[128.87991,35.39822],[128.88162,35.39968],[128.88516,35.40235],[128.88735,35.40377],[128.88755,35.40389],[128.88778,35.40401],[128.88801,35.40411],[128.88871,35.4043],[128.88901,35.40435],[128.88918,35.40434],[128.88937,35.40432],[128.88954,35.40427],[128.88973,35.40416],[128.88991,35.40408],[128.89,35.40406],[128.89022,35.40405],[128.89047,35.40408],[128.89057,35.40409],[128.89067,35.40417],[128.89076,35.40428],[128.89084,35.40447],[128.89191,35.40864],[128.89218,35.40978],[128.89249,35.41115],[128.8925,35.4114],[128.89239,35.41198],[128.89236,35.41208],[128.89186,35.41298],[128.89121,35.4141],[128.8912,35.41413],[128.8912,35.41418],[128.89123,35.41426],[128.8913,35.41441],[128.8914,35.41453],[128.89153,35.4146],[128.89354,35.41542],[128.89448,35.41575],[128.90063,35.41866],[128.90342,35.42005],[128.90353,35.42006],[128.90365,35.42002],[128.90374,35.41996],[128.90386,35.41984],[128.90399,35.41969],[128.90416,35.41952],[128.90491,35.4189],[128.90652,35.41772],[128.90885,35.41671],[128.91152,35.41569],[128.91358,35.41558],[128.9204,35.41894],[128.9235,35.4212],[128.92366,35.42133],[128.92368,35.42138],[128.9237,35.42142],[128.92377,35.42163],[128.92382,35.42179],[128.92382,35.42191],[128.92354,35.42303],[128.92348,35.42319],[128.92219,35.42581],[128.92212,35.42588],[128.92187,35.4261],[128.92183,35.42612],[128.91609,35.42989],[128.91394,35.43051],[128.91386,35.43055],[128.9138,35.43062],[128.91269,35.43193],[128.91224,35.43251],[128.91161,35.43326],[128.91153,35.43336],[128.91134,35.43353],[128.91116,35.43368],[128.91018,35.43449],[128.91008,35.43454],[128.90886,35.43511],[128.90802,35.43531],[128.9079,35.43532],[128.90777,35.4354],[128.90764,35.43552],[128.90751,35.43569],[128.90736,35.4359],[128.90723,35.43609],[128.90673,35.43731],[128.9067,35.43743],[128.90659,35.4379],[128.90642,35.43876],[128.90638,35.43894],[128.90638,35.4391],[128.90643,35.43928],[128.90651,35.43939],[128.90662,35.4395],[128.90672,35.43957],[128.90714,35.43965],[128.90729,35.43971],[128.90916,35.4407],[128.90922,35.44075],[128.90925,35.44081],[128.90933,35.44108],[128.90949,35.44181],[128.90952,35.44196],[128.90951,35.44202],[128.90948,35.44207],[128.90942,35.44216],[128.90931,35.44227],[128.90918,35.44242],[128.90914,35.44251],[128.90912,35.44257],[128.90912,35.44266],[128.90915,35.44279],[128.9092,35.44306],[128.90926,35.44326],[128.90935,35.44356],[128.90945,35.44378],[128.90985,35.44457],[128.90997,35.44473],[128.91005,35.44482],[128.91016,35.44488],[128.91089,35.44524],[128.91115,35.44536],[128.91143,35.44546],[128.91165,35.44555],[128.91191,35.44567],[128.9127,35.44604],[128.91298,35.44617],[128.91337,35.44639],[128.91346,35.44645],[128.9168,35.44896],[128.91814,35.45068],[128.9182,35.45078],[128.91823,35.45086],[128.91827,35.45108],[128.91829,35.45126],[128.91835,35.45134],[128.91882,35.45172],[128.91893,35.45179],[128.91913,35.45183],[128.92008,35.45204],[128.92803,35.45364],[128.93222,35.45337],[128.93244,35.45325],[128.9326,35.45318],[128.93372,35.45289],[128.93702,35.45397],[128.93828,35.4545],[128.93839,35.45456],[128.93843,35.45461],[128.9385,35.45475],[128.93857,35.45505],[128.93868,35.4554],[128.93873,35.45551],[128.93882,35.45561],[128.93889,35.45565],[128.93958,35.45594],[128.93987,35.45602],[128.94215,35.45655],[128.94231,35.45656],[128.94298,35.45659],[128.94318,35.45658],[128.94321,35.45657],[128.94336,35.45651],[128.9435,35.45643],[128.94469,35.45598],[128.94651,35.45529],[128.94696,35.45513],[128.94775,35.45486],[128.94815,35.45477],[128.94874,35.45464],[128.94905,35.45458],[128.94956,35.45452],[128.94974,35.45452],[128.94988,35.45454],[128.94993,35.45454],[128.95001,35.45457],[128.95022,35.45467],[128.95034,35.45474],[128.95112,35.45527],[128.95151,35.45554],[128.95161,35.45565],[128.95462,35.45726],[128.95778,35.45809],[128.96272,35.45938],[128.96366,35.45965],[128.96411,35.45982],[128.96435,35.45993],[128.96488,35.4602],[128.96534,35.46048],[128.96557,35.46063],[128.96591,35.46088],[128.96619,35.46109],[128.96683,35.46161],[128.96692,35.46168],[128.96704,35.46179],[128.96712,35.46189],[128.96722,35.46202],[128.96733,35.4622],[128.96739,35.46233],[128.96748,35.46253],[128.96751,35.46261],[128.96758,35.46281],[128.96761,35.46304],[128.96763,35.46327],[128.96772,35.46485],[128.96772,35.46502],[128.96767,35.46524],[128.96759,35.4655],[128.96775,35.46867],[128.96799,35.47068],[128.96826,35.47231],[128.96831,35.47242],[128.96833,35.47249],[128.96833,35.47259],[128.96804,35.47393],[128.96783,35.47481],[128.96777,35.47494],[128.9677,35.47505],[128.9676,35.47517],[128.96752,35.47524],[128.96742,35.47532],[128.96727,35.47538],[128.96683,35.47556],[128.96601,35.47588],[128.9657,35.47601],[128.96556,35.47607],[128.96544,35.47613],[128.9651,35.47636],[128.96504,35.4764],[128.96492,35.4765],[128.96478,35.47667],[128.96467,35.47683],[128.96457,35.47701],[128.96447,35.47719],[128.96441,35.47736],[128.96426,35.47805],[128.96464,35.47998],[128.96468,35.48008],[128.96517,35.48108],[128.963,35.48473],[128.96284,35.48481],[128.96272,35.48492],[128.96262,35.48507],[128.96258,35.48516],[128.96256,35.48525],[128.96256,35.48533],[128.96259,35.48545],[128.96265,35.48556],[128.96275,35.48573],[128.96281,35.48582],[128.9647,35.48838],[128.96475,35.48843],[128.96482,35.48849],[128.96635,35.48978],[128.96643,35.48983],[128.96659,35.48986],[128.96666,35.48987],[128.96694,35.48987],[128.9672,35.49069],[128.96534,35.49253],[128.96523,35.49264],[128.96515,35.49271],[128.96369,35.49323],[128.962,35.49416],[128.96103,35.49473],[128.9596,35.4959],[128.95957,35.49595],[128.95949,35.49624],[128.95941,35.49667],[128.95915,35.4978],[128.95911,35.49791],[128.95903,35.49801],[128.95891,35.49809],[128.95776,35.49877],[128.95762,35.49883],[128.95743,35.49886],[128.95722,35.49889],[128.9559,35.49903],[128.95317,35.50036],[128.9539,35.502],[128.95561,35.50526],[128.9557,35.50543],[128.95592,35.50569],[128.95622,35.50599],[128.95978,35.50889],[128.96116,35.50991],[128.96128,35.50996],[128.96137,35.50995],[128.9682,35.50881],[128.96845,35.50876],[128.96875,35.50869],[128.96897,35.50859],[128.96938,35.50837],[128.96955,35.5083],[128.97591,35.50792],[128.97745,35.50788],[128.97763,35.50793],[128.97773,35.508],[128.9779,35.50816],[128.97884,35.50923],[128.9794,35.51024],[128.97948,35.51037],[128.9797,35.51064],[128.98018,35.51116],[128.9803,35.51125],[128.9864,35.51552],[128.98797,35.51605],[128.98897,35.51644],[128.98906,35.51648],[128.98912,35.51651],[128.98966,35.51718],[128.98969,35.51723],[128.98969,35.51726],[128.98956,35.51805],[128.9894,35.51852],[128.98899,35.51949],[128.98861,35.52012],[128.98855,35.52021],[128.98853,35.52028],[128.98848,35.52042],[128.98846,35.52062],[128.98844,35.52081],[128.98845,35.52091],[128.98846,35.52099],[128.9885,35.52119],[128.98873,35.52212],[128.98875,35.52221],[128.98878,35.52229],[128.98883,35.52237],[128.98917,35.52291],[128.98933,35.52316],[128.993,35.52813],[128.9945,35.52899],[128.99831,35.52817],[129.00198,35.52806],[129.00573,35.52805],[129.00955,35.52799],[129.00929,35.52755],[129.00892,35.52671],[129.00884,35.52653],[129.00879,35.52527],[129.00874,35.52397],[129.00899,35.52383],[129.01144,35.52317],[129.01156,35.52314],[129.01172,35.52313],[129.01186,35.52312],[129.01209,35.52313],[129.01267,35.52315],[129.01293,35.52318],[129.01702,35.52375],[129.01948,35.52446],[129.02199,35.52536],[129.02231,35.52535],[129.02312,35.52502],[129.03834,35.52742],[129.05576,35.53214],[129.0567,35.53111]]]]}},{"type":"Feature","properties":{"code":"48330330","name":"상북면","parent":"48330"},"geometry":{"type":"MultiPolygon","coordinates":[[[[129.01785,35.47954],[129.02008,35.47838],[129.02022,35.47832],[129.02039,35.47827],[129.02123,35.47805],[129.02145,35.47802],[129.02166,35.47799],[129.02439,35.47767],[129.02743,35.47737],[129.02768,35.47737],[129.0287,35.47737],[129.02904,35.47735],[129.02935,35.47731],[129.02977,35.47725],[129.03082,35.47704],[129.03137,35.4769],[129.03189,35.47677],[129.03347,35.47631],[129.03465,35.47581],[129.03595,35.47517],[129.03898,35.47365],[129.04207,35.47209],[129.0422,35.47205],[129.04241,35.47201],[129.04253,35.47201],[129.04263,35.472],[129.04282,35.47201],[129.0429,35.47201],[129.04297,35.47202],[129.04324,35.47209],[129.04493,35.47167],[129.04689,35.47116],[129.04695,35.47114],[129.04699,35.47113],[129.04891,35.47014],[129.04903,35.47007],[129.04931,35.46833],[129.04795,35.46651],[129.04782,35.46637],[129.04774,35.46628],[129.04766,35.46619],[129.04763,35.46613],[129.04763,35.4661],[129.04767,35.46604],[129.04988,35.46326],[129.05,35.46316],[129.05018,35.46307],[129.05144,35.46282],[129.05171,35.46279],[129.05203,35.4628],[129.05244,35.46288],[129.05254,35.46292],[129.05264,35.46296],[129.05274,35.46305],[129.05282,35.46311],[129.054,35.46237],[129.05491,35.4584],[129.05495,35.45811],[129.05497,35.45787],[129.05509,35.45677],[129.05512,35.45651],[129.05511,35.45623],[129.05504,35.45585],[129.05496,35.45546],[129.05492,35.45305],[129.05491,35.45039],[129.05492,35.45017],[129.05506,35.4491],[129.05509,35.44899],[129.05512,35.44894],[129.05515,35.44889],[129.05519,35.44883],[129.05535,35.44874],[129.05575,35.44855],[129.05599,35.44845],[129.05669,35.44796],[129.05772,35.44689],[129.05785,35.44673],[129.05796,35.44655],[129.05807,35.44634],[129.05815,35.44613],[129.05817,35.44593],[129.05818,35.44575],[129.05812,35.44545],[129.05804,35.44459],[129.058,35.44343],[129.05804,35.44331],[129.06191,35.44182],[129.06459,35.44098],[129.06469,35.44098],[129.06481,35.44096],[129.06493,35.44095],[129.06511,35.44089],[129.06525,35.44081],[129.06532,35.44075],[129.06539,35.44069],[129.06549,35.44053],[129.06577,35.44001],[129.06582,35.43989],[129.06584,35.43985],[129.06587,35.43972],[129.06576,35.43697],[129.0657,35.43314],[129.06571,35.43244],[129.06576,35.43173],[129.06579,35.43143],[129.06581,35.43127],[129.06583,35.4312],[129.06587,35.43112],[129.06591,35.43108],[129.06595,35.43104],[129.06602,35.43101],[129.06617,35.43096],[129.07281,35.42925],[129.07906,35.42859],[129.08433,35.42828],[129.08672,35.42856],[129.08843,35.42717],[129.08854,35.4271],[129.08906,35.42682],[129.09008,35.42642],[129.09034,35.42633],[129.09058,35.42627],[129.09267,35.42607],[129.09525,35.4248],[129.09665,35.41974],[129.09768,35.41122],[129.09765,35.40954],[129.09761,35.40936],[129.09756,35.40922],[129.0974,35.40885],[129.09719,35.40842],[129.09711,35.40825],[129.09704,35.40798],[129.09702,35.40769],[129.09705,35.40743],[129.09711,35.40725],[129.09721,35.40712],[129.09723,35.4071],[129.09735,35.40699],[129.09745,35.40692],[129.09753,35.40686],[129.09856,35.40619],[129.09882,35.40603],[129.09917,35.40586],[129.10057,35.40518],[129.10066,35.40514],[129.10092,35.40504],[129.10107,35.40499],[129.10119,35.40495],[129.1017,35.40486],[129.10295,35.40464],[129.10445,35.40412],[129.1062,35.40344],[129.10631,35.40335],[129.10637,35.40327],[129.10648,35.40306],[129.10653,35.40212],[129.10651,35.40202],[129.1062,35.40115],[129.10614,35.40099],[129.10605,35.40082],[129.10594,35.40067],[129.10541,35.4001],[129.10531,35.39998],[129.10519,35.39984],[129.10508,35.39966],[129.10502,35.39952],[129.10473,35.39827],[129.10471,35.39809],[129.10468,35.39722],[129.1047,35.39697],[129.10486,35.39466],[129.10489,35.39454],[129.10501,35.39433],[129.10493,35.39245],[129.10453,35.3891],[129.10383,35.38737],[129.10166,35.38716],[129.101,35.38699],[129.10057,35.38687],[129.10042,35.38683],[129.10022,35.38675],[129.10003,35.38666],[129.0998,35.38653],[129.0996,35.3864],[129.09942,35.38628],[129.09811,35.38561],[129.09512,35.38414],[129.09485,35.38403],[129.09287,35.38326],[129.09272,35.3832],[129.09256,35.38321],[129.09244,35.38327],[129.0905,35.38375],[129.08741,35.38414],[129.08724,35.38416],[129.08711,35.38412],[129.08696,35.38404],[129.08655,35.38375],[129.08614,35.38343],[129.08582,35.38317],[129.08555,35.38297],[129.08535,35.38284],[129.08521,35.38277],[129.08271,35.38251],[129.08258,35.3825],[129.08125,35.38268],[129.08041,35.38283],[129.08032,35.38283],[129.07906,35.3825],[129.07454,35.38103],[129.07434,35.38096],[129.07422,35.38088],[129.07405,35.38071],[129.07378,35.38036],[129.07028,35.37881],[129.06774,35.37901],[129.06569,35.379],[129.06502,35.37835],[129.06373,35.37722],[129.0636,35.37715],[129.0635,35.37711],[129.0634,35.37709],[129.06056,35.37664],[129.05709,35.37612],[129.0559,35.37625],[129.05578,35.37629],[129.05564,35.37634],[129.0556,35.37635],[129.05558,35.37636],[129.05554,35.37638],[129.05405,35.37676],[129.05268,35.3771],[129.0526,35.37711],[129.05253,35.37712],[129.05246,35.37712],[129.05241,35.37712],[129.05235,35.37711],[129.05106,35.37679],[129.04976,35.37633],[129.04909,35.37588],[129.04841,35.37524],[129.04836,35.3752],[129.04831,35.37517],[129.04827,35.37515],[129.04822,35.37513],[129.04816,35.37511],[129.04811,35.3751],[129.04658,35.37498],[129.04558,35.37514],[129.04582,35.37631],[129.04406,35.37703],[129.04257,35.37749],[129.04234,35.37746],[129.0422,35.37745],[129.04217,35.37741],[129.04184,35.37703],[129.0416,35.37677],[129.04141,35.37664],[129.04042,35.37613],[129.04001,35.37597],[129.03934,35.37574],[129.03812,35.37545],[129.03787,35.37545],[129.03755,35.37552],[129.03723,35.37568],[129.03691,35.37589],[129.03667,35.3761],[129.03643,35.37637],[129.03583,35.37718],[129.03505,35.37831],[129.03479,35.37871],[129.031,35.3858],[129.02841,35.39076],[129.0281,35.39136],[129.02791,35.39185],[129.02776,35.3923],[129.0268,35.39626],[129.02678,35.39648],[129.02667,35.39804],[129.0267,35.39836],[129.02754,35.40356],[129.02631,35.40482],[129.02438,35.40475],[129.02376,35.40475],[129.02363,35.40478],[129.02304,35.40507],[129.02274,35.40523],[129.01869,35.40739],[129.01794,35.4078],[129.01785,35.40788],[129.01737,35.40857],[129.01734,35.40868],[129.01724,35.40905],[129.01722,35.40929],[129.01719,35.40969],[129.01717,35.40984],[129.01703,35.41035],[129.01695,35.4105],[129.01687,35.41057],[129.01546,35.41144],[129.01483,35.41174],[129.01422,35.41198],[129.01403,35.41204],[129.01372,35.41208],[129.01335,35.41209],[129.01323,35.41214],[129.01237,35.41297],[129.01231,35.41305],[129.01203,35.41347],[129.01161,35.41416],[129.01099,35.41542],[129.00995,35.41772],[129.00983,35.41818],[129.0097,35.41925],[129.0097,35.41942],[129.00977,35.4197],[129.00985,35.41996],[129.00999,35.42051],[129.00999,35.42061],[129.0099,35.42096],[129.00986,35.42101],[129.0098,35.42104],[129.0073,35.42202],[129.00714,35.42208],[129.00696,35.42213],[129.00682,35.42214],[129.00518,35.42209],[129.0049,35.42206],[129.00454,35.422],[129.00406,35.42186],[129.00378,35.42179],[129.00355,35.42176],[129.00337,35.42178],[129.00322,35.42184],[129.00312,35.4219],[129.00301,35.422],[129.00223,35.42281],[129.00213,35.423],[129.00206,35.4232],[129.00202,35.42336],[129.002,35.42362],[129.00193,35.42401],[129.00277,35.42546],[129.00276,35.42549],[129.0027,35.42554],[128.99997,35.42789],[128.99933,35.42805],[128.99872,35.42852],[128.99774,35.4293],[128.99761,35.42942],[128.99738,35.42969],[128.99718,35.42999],[128.99584,35.43248],[128.99573,35.43273],[128.99563,35.43317],[128.99559,35.43352],[128.99561,35.4338],[128.99567,35.43409],[128.99579,35.43433],[128.99446,35.43701],[128.99319,35.43721],[128.99289,35.43726],[128.99263,35.43738],[128.99249,35.43749],[128.99236,35.43768],[128.99145,35.43935],[128.99086,35.44047],[128.99056,35.44111],[128.99017,35.44206],[128.98994,35.44266],[128.98983,35.443],[128.98979,35.44329],[128.98978,35.44348],[128.9901,35.44497],[128.99051,35.44681],[128.99095,35.44909],[128.9903,35.45149],[128.99035,35.45532],[128.99041,35.45557],[128.99048,35.45575],[128.9906,35.45599],[128.99082,35.45637],[128.99102,35.45663],[128.99129,35.45681],[128.99149,35.4569],[128.9936,35.45813],[128.99735,35.4608],[128.99742,35.46088],[128.99745,35.46092],[128.99921,35.46585],[128.99892,35.46826],[128.99887,35.46833],[128.99883,35.46845],[128.9988,35.4686],[128.9988,35.46922],[128.99883,35.46993],[128.99886,35.4701],[128.99961,35.47225],[128.99972,35.47245],[129.00043,35.47367],[129.00054,35.47383],[129.00078,35.47418],[129.00115,35.47464],[129.00135,35.47487],[129.00149,35.47496],[129.00168,35.475],[129.00184,35.475],[129.00804,35.47514],[129.01014,35.47554],[129.01042,35.47558],[129.01049,35.47558],[129.01059,35.47557],[129.0107,35.47553],[129.01141,35.47516],[129.01154,35.47508],[129.01163,35.47501],[129.01174,35.47486],[129.01184,35.47473],[129.01187,35.47471],[129.01197,35.47471],[129.01309,35.47476],[129.01349,35.47478],[129.01364,35.47482],[129.01373,35.47487],[129.01385,35.47505],[129.01454,35.47617],[129.01641,35.47848],[129.01649,35.47857],[129.01714,35.47927],[129.01724,35.47936],[129.01735,35.47943],[129.01744,35.47947],[129.01755,35.47951],[129.01774,35.47955],[129.01785,35.47954]]]]}},{"type":"Feature","properties":{"code":"48330340","name":"하북면","parent":"48330"},"geometry":{"type":"MultiPolygon","coordinates":[[[[129.0947,35.49774],[129.0949,35.49812],[129.09679,35.49815],[129.09696,35.49794],[129.09713,35.49773],[129.09741,35.49749],[129.09788,35.49716],[129.09826,35.49693],[129.09915,35.49661],[129.09953,35.49648],[129.10046,35.49662],[129.10129,35.49727],[129.10221,35.49764],[129.1026,35.49767],[129.10401,35.49728],[129.10406,35.49725],[129.10428,35.49711],[129.10527,35.49647],[129.10656,35.4952],[129.10666,35.49509],[129.10671,35.49496],[129.10671,35.49478],[129.10666,35.49459],[129.10641,35.49376],[129.10622,35.49176],[129.10623,35.49164],[129.10629,35.49137],[129.1066,35.48993],[129.10664,35.48977],[129.10678,35.48948],[129.10701,35.48918],[129.10747,35.48867],[129.10773,35.48842],[129.10799,35.48825],[129.10817,35.48816],[129.10842,35.48807],[129.10872,35.48801],[129.10881,35.48797],[129.10889,35.4879],[129.10896,35.48774],[129.10927,35.4864],[129.10931,35.48617],[129.10932,35.48596],[129.10932,35.4858],[129.10929,35.48559],[129.10921,35.48523],[129.10907,35.48474],[129.10905,35.48467],[129.10895,35.48455],[129.10874,35.48437],[129.10848,35.48416],[129.10826,35.48404],[129.10813,35.48398],[129.10803,35.4839],[129.10796,35.48383],[129.10793,35.48374],[129.10793,35.48363],[129.10859,35.48116],[129.1095,35.47984],[129.10963,35.4797],[129.11208,35.47795],[129.11215,35.47791],[129.11219,35.47788],[129.11525,35.47667],[129.11711,35.47486],[129.1171,35.47475],[129.11712,35.47467],[129.11898,35.47024],[129.11913,35.4699],[129.11947,35.46925],[129.11967,35.46888],[129.11985,35.46855],[129.11998,35.46836],[129.12012,35.46819],[129.12164,35.4664],[129.12266,35.46527],[129.12498,35.46325],[129.12531,35.46294],[129.12706,35.46118],[129.12862,35.45941],[129.12876,35.45925],[129.12889,35.45917],[129.13088,35.45791],[129.13101,35.45785],[129.13186,35.45757],[129.13422,35.45683],[129.13462,35.45672],[129.13572,35.45645],[129.13562,35.45613],[129.13557,35.45575],[129.1356,35.45542],[129.13561,35.45537],[129.13565,35.45527],[129.13898,35.45007],[129.13979,35.449],[129.14015,35.44865],[129.14297,35.44591],[129.14323,35.4458],[129.14356,35.44572],[129.14385,35.44566],[129.14474,35.44544],[129.1451,35.44531],[129.14527,35.44516],[129.14541,35.44499],[129.14566,35.44443],[129.14459,35.44351],[129.14435,35.44327],[129.14399,35.44277],[129.14391,35.4425],[129.1439,35.44239],[129.14398,35.44204],[129.14404,35.44179],[129.14402,35.44094],[129.144,35.44073],[129.14247,35.43878],[129.14113,35.43768],[129.13874,35.43534],[129.13874,35.43479],[129.13892,35.43337],[129.139,35.43309],[129.1393,35.43269],[129.13938,35.43243],[129.13933,35.43214],[129.13916,35.43166],[129.13883,35.43121],[129.13819,35.43058],[129.13654,35.42905],[129.13404,35.42748],[129.1321,35.42634],[129.13151,35.42619],[129.13118,35.42603],[129.13087,35.4258],[129.12988,35.42485],[129.1296,35.42455],[129.12837,35.42287],[129.12832,35.42277],[129.12825,35.42254],[129.12821,35.4223],[129.12823,35.42209],[129.12831,35.42174],[129.12842,35.42149],[129.12842,35.4214],[129.12837,35.42132],[129.12808,35.42095],[129.12545,35.41761],[129.1237,35.41578],[129.12179,35.41189],[129.1219,35.40991],[129.12192,35.40986],[129.122,35.40978],[129.12215,35.40967],[129.12236,35.40953],[129.12263,35.40936],[129.12302,35.40912],[129.12311,35.40902],[129.12314,35.40891],[129.12312,35.40875],[129.12303,35.40846],[129.12284,35.40813],[129.12273,35.40802],[129.12146,35.40712],[129.12137,35.40706],[129.12128,35.407],[129.12115,35.40694],[129.12105,35.40691],[129.11973,35.40668],[129.11917,35.4066],[129.11611,35.40668],[129.11526,35.40683],[129.1152,35.40683],[129.11512,35.40682],[129.11507,35.4068],[129.11498,35.40676],[129.11492,35.40671],[129.11484,35.40663],[129.11479,35.40656],[129.11468,35.4064],[129.11412,35.40536],[129.11303,35.40377],[129.10776,35.39971],[129.10765,35.39964],[129.10756,35.39962],[129.10743,35.39961],[129.10623,35.39957],[129.10611,35.39961],[129.10597,35.39967],[129.10584,35.39976],[129.10541,35.4001],[129.10594,35.40067],[129.10605,35.40082],[129.10614,35.40099],[129.1062,35.40115],[129.10651,35.40202],[129.10653,35.40212],[129.10648,35.40306],[129.10637,35.40327],[129.10631,35.40335],[129.1062,35.40344],[129.10445,35.40412],[129.10295,35.40464],[129.1017,35.40486],[129.10119,35.40495],[129.10107,35.40499],[129.10092,35.40504],[129.10066,35.40514],[129.10057,35.40518],[129.09917,35.40586],[129.09882,35.40603],[129.09856,35.40619],[129.09753,35.40686],[129.09745,35.40692],[129.09735,35.40699],[129.09723,35.4071],[129.09721,35.40712],[129.09711,35.40725],[129.09705,35.40743],[129.09702,35.40769],[129.09704,35.40798],[129.09711,35.40825],[129.09719,35.40842],[129.0974,35.40885],[129.09756,35.40922],[129.09761,35.40936],[129.09765,35.40954],[129.09768,35.41122],[129.09665,35.41974],[129.09525,35.4248],[129.09267,35.42607],[129.09058,35.42627],[129.09034,35.42633],[129.09008,35.42642],[129.08906,35.42682],[129.08854,35.4271],[129.08843,35.42717],[129.08672,35.42856],[129.08433,35.42828],[129.07906,35.42859],[129.07281,35.42925],[129.06617,35.43096],[129.06602,35.43101],[129.06595,35.43104],[129.06591,35.43108],[129.06587,35.43112],[129.06583,35.4312],[129.06581,35.43127],[129.06579,35.43143],[129.06576,35.43173],[129.06571,35.43244],[129.0657,35.43314],[129.06576,35.43697],[129.06587,35.43972],[129.06584,35.43985],[129.06582,35.43989],[129.06577,35.44001],[129.06549,35.44053],[129.06539,35.44069],[129.06532,35.44075],[129.06525,35.44081],[129.06511,35.44089],[129.06493,35.44095],[129.06481,35.44096],[129.06469,35.44098],[129.06459,35.44098],[129.06191,35.44182],[129.05804,35.44331],[129.058,35.44343],[129.05804,35.44459],[129.05812,35.44545],[129.05818,35.44575],[129.05817,35.44593],[129.05815,35.44613],[129.05807,35.44634],[129.05796,35.44655],[129.05785,35.44673],[129.05772,35.44689],[129.05669,35.44796],[129.05599,35.44845],[129.05575,35.44855],[129.05535,35.44874],[129.05519,35.44883],[129.05515,35.44889],[129.05512,35.44894],[129.05509,35.44899],[129.05506,35.4491],[129.05492,35.45017],[129.05491,35.45039],[129.05492,35.45305],[129.05496,35.45546],[129.05504,35.45585],[129.05511,35.45623],[129.05512,35.45651],[129.05509,35.45677],[129.05497,35.45787],[129.05495,35.45811],[129.05491,35.4584],[129.054,35.46237],[129.05282,35.46311],[129.05274,35.46305],[129.05264,35.46296],[129.05254,35.46292],[129.05244,35.46288],[129.05203,35.4628],[129.05171,35.46279],[129.05144,35.46282],[129.05018,35.46307],[129.05,35.46316],[129.04988,35.46326],[129.04767,35.46604],[129.04763,35.4661],[129.04763,35.46613],[129.04766,35.46619],[129.04774,35.46628],[129.04782,35.46637],[129.04795,35.46651],[129.04931,35.46833],[129.04903,35.47007],[129.04891,35.47014],[129.04699,35.47113],[129.04695,35.47114],[129.04689,35.47116],[129.04493,35.47167],[129.04324,35.47209],[129.04297,35.47202],[129.0429,35.47201],[129.04282,35.47201],[129.04263,35.472],[129.04253,35.47201],[129.04241,35.47201],[129.0422,35.47205],[129.04207,35.47209],[129.03898,35.47365],[129.03595,35.47517],[129.03465,35.47581],[129.03347,35.47631],[129.03189,35.47677],[129.03137,35.4769],[129.03082,35.47704],[129.02977,35.47725],[129.02935,35.47731],[129.02904,35.47735],[129.0287,35.47737],[129.02768,35.47737],[129.02743,35.47737],[129.02439,35.47767],[129.02166,35.47799],[129.02145,35.47802],[129.02123,35.47805],[129.02039,35.47827],[129.02022,35.47832],[129.02008,35.47838],[129.01785,35.47954],[129.01778,35.47958],[129.01766,35.47965],[129.01755,35.47971],[129.01699,35.48018],[129.01604,35.48206],[129.01601,35.48214],[129.01597,35.48231],[129.0159,35.48272],[129.01586,35.48301],[129.01592,35.48323],[129.0174,35.48721],[129.01746,35.48734],[129.01814,35.48872],[129.01823,35.48886],[129.01911,35.49002],[129.01922,35.49017],[129.0194,35.49035],[129.01958,35.49047],[129.01992,35.49064],[129.02004,35.4907],[129.0201,35.49073],[129.02018,35.49076],[129.02088,35.49115],[129.02131,35.49154],[129.02225,35.49245],[129.0224,35.4926],[129.02243,35.49273],[129.02234,35.49382],[129.02228,35.49405],[129.0222,35.49417],[129.02206,35.49437],[129.02195,35.49459],[129.02188,35.49472],[129.02179,35.4949],[129.02172,35.4951],[129.02173,35.49521],[129.02184,35.49533],[129.02354,35.49705],[129.02366,35.49712],[129.02382,35.49717],[129.02552,35.49769],[129.02869,35.49853],[129.03126,35.49915],[129.03134,35.49917],[129.03136,35.4992],[129.03139,35.49923],[129.0317,35.50007],[129.03173,35.5003],[129.03169,35.50075],[129.03172,35.50097],[129.03178,35.50111],[129.03294,35.50318],[129.03555,35.50768],[129.03559,35.50773],[129.03577,35.50793],[129.03769,35.50976],[129.03906,35.51103],[129.03923,35.51106],[129.03937,35.51109],[129.03953,35.51112],[129.0397,35.51116],[129.03978,35.51118],[129.03987,35.5112],[129.04017,35.51131],[129.04132,35.51171],[129.04307,35.51234],[129.04442,35.51282],[129.04453,35.51288],[129.04464,35.51294],[129.04469,35.51298],[129.04473,35.51301],[129.052,35.51573],[129.06165,35.50946],[129.07102,35.50573],[129.08644,35.50184],[129.08667,35.50149],[129.08724,35.50083],[129.0885,35.49972],[129.08945,35.49896],[129.08958,35.49886],[129.08969,35.49881],[129.09078,35.49824],[129.09096,35.49819],[129.09435,35.49743],[129.0947,35.49774]]]]}},{"type":"Feature","properties":{"code":"48330520","name":"삼성동","parent":"48330"},"geometry":{"type":"MultiPolygon","coordinates":[[[[129.10532,35.3857],[129.10345,35.38333],[129.10175,35.38104],[129.10164,35.38087],[129.10156,35.38071],[129.10152,35.38053],[129.10146,35.38021],[129.10143,35.37987],[129.10141,35.37958],[129.10143,35.37931],[129.1015,35.37904],[129.10154,35.37883],[129.10155,35.37867],[129.10155,35.37806],[129.10155,35.37794],[129.10154,35.37778],[129.10153,35.37757],[129.10149,35.37746],[129.1014,35.37729],[129.10131,35.37713],[129.09913,35.37467],[129.09688,35.37227],[129.09447,35.36845],[129.09132,35.36431],[129.09128,35.3642],[129.09123,35.36401],[129.09121,35.36391],[129.09128,35.36362],[129.09135,35.36342],[129.09173,35.36232],[129.0918,35.36225],[129.0919,35.3622],[129.09127,35.36145],[129.08854,35.36048],[129.08799,35.36041],[129.08579,35.35896],[129.08129,35.35571],[129.0793,35.35426],[129.07915,35.35335],[129.07817,35.35246],[129.07629,35.35147],[129.07599,35.35144],[129.07495,35.35179],[129.07463,35.35221],[129.07433,35.35235],[129.06912,35.35144],[129.06835,35.35123],[129.06788,35.35082],[129.06764,35.35019],[129.06774,35.34966],[129.06666,35.34867],[129.06383,35.34767],[129.06254,35.34762],[129.0611,35.34756],[129.06024,35.34717],[129.05941,35.34627],[129.05866,35.34532],[129.05801,35.34422],[129.05757,35.34358],[129.05727,35.34336],[129.05547,35.34413],[129.05468,35.34457],[129.04931,35.34763],[129.04864,35.34853],[129.04857,35.34867],[129.04839,35.34927],[129.0478,35.35026],[129.04774,35.35034],[129.04754,35.35044],[129.04729,35.35051],[129.04124,35.35139],[129.041,35.35138],[129.04078,35.35135],[129.03977,35.35107],[129.03845,35.35069],[129.03754,35.35042],[129.03692,35.35024],[129.03153,35.34868],[129.03381,35.35306],[129.03446,35.35429],[129.03538,35.35595],[129.03598,35.35685],[129.03643,35.35749],[129.03645,35.35752],[129.03683,35.35806],[129.03774,35.35944],[129.03821,35.36023],[129.03898,35.36184],[129.03996,35.36434],[129.04095,35.36696],[129.04359,35.37096],[129.04448,35.3722],[129.04495,35.37306],[129.04533,35.37417],[129.04558,35.37514],[129.04658,35.37498],[129.04811,35.3751],[129.04816,35.37511],[129.04822,35.37513],[129.04827,35.37515],[129.04831,35.37517],[129.04836,35.3752],[129.04841,35.37524],[129.04909,35.37588],[129.04976,35.37633],[129.05106,35.37679],[129.05235,35.37711],[129.05241,35.37712],[129.05246,35.37712],[129.05253,35.37712],[129.0526,35.37711],[129.05268,35.3771],[129.05405,35.37676],[129.05554,35.37638],[129.05558,35.37636],[129.0556,35.37635],[129.05564,35.37634],[129.05578,35.37629],[129.0559,35.37625],[129.05709,35.37612],[129.06056,35.37664],[129.0634,35.37709],[129.0635,35.37711],[129.0636,35.37715],[129.06373,35.37722],[129.06502,35.37835],[129.06569,35.379],[129.06774,35.37901],[129.07028,35.37881],[129.07378,35.38036],[129.07405,35.38071],[129.07422,35.38088],[129.07434,35.38096],[129.07454,35.38103],[129.07906,35.3825],[129.08032,35.38283],[129.08041,35.38283],[129.08125,35.38268],[129.08258,35.3825],[129.08271,35.38251],[129.08521,35.38277],[129.08535,35.38284],[129.08555,35.38297],[129.08582,35.38317],[129.08614,35.38343],[129.08655,35.38375],[129.08696,35.38404],[129.08711,35.38412],[129.08724,35.38416],[129.08741,35.38414],[129.0905,35.38375],[129.09244,35.38327],[129.09256,35.38321],[129.09272,35.3832],[129.09287,35.38326],[129.09485,35.38403],[129.09512,35.38414],[129.09811,35.38561],[129.09942,35.38628],[129.0996,35.3864],[129.0998,35.38653],[129.10003,35.38666],[129.10022,35.38675],[129.10042,35.38683],[129.10057,35.38687],[129.101,35.38699],[129.10166,35.38716],[129.10383,35.38737],[129.10425,35.38713],[129.10532,35.3857]]]]}},{"type":"Feature","properties":{"code":"48330530","name":"강서동","parent":"48330"},"geometry":{"type":"MultiPolygon","coordinates":[[[[129.04558,35.37514],[129.04533,35.37417],[129.04495,35.37306],[129.04448,35.3722],[129.04359,35.37096],[129.04095,35.36696],[129.03996,35.36434],[129.03898,35.36184],[129.03821,35.36023],[129.03774,35.35944],[129.03683,35.35806],[129.03645,35.35752],[129.03643,35.35749],[129.03598,35.35685],[129.03538,35.35595],[129.03446,35.35429],[129.03381,35.35306],[129.03153,35.34868],[129.03079,35.34676],[129.03059,35.34632],[129.03026,35.34573],[129.02979,35.3451],[129.02965,35.34495],[129.02884,35.34403],[129.02798,35.34306],[129.02676,35.34183],[129.02589,35.34213],[129.02491,35.3424],[129.02458,35.34243],[129.02389,35.34221],[129.02305,35.34171],[129.02274,35.34171],[129.01965,35.34231],[129.01774,35.34267],[129.01257,35.34398],[129.01174,35.34432],[129.00907,35.34532],[129.00889,35.34534],[129.007,35.34553],[129.0063,35.34554],[129.00618,35.34596],[129.0059,35.34669],[129.00579,35.34691],[129.00497,35.34793],[129.00439,35.34858],[129.00424,35.34882],[129.00309,35.35139],[129.00262,35.35522],[129.00262,35.35561],[129.00301,35.35788],[129.00312,35.35813],[129.00371,35.35939],[129.00386,35.3597],[129.00407,35.36003],[129.00428,35.36025],[129.00454,35.36043],[129.0047,35.36052],[129.00483,35.36054],[129.00502,35.36051],[129.00544,35.36042],[129.00627,35.36029],[129.00665,35.36023],[129.00682,35.36022],[129.00818,35.36051],[129.00827,35.36056],[129.00832,35.36062],[129.00834,35.36091],[129.00835,35.36132],[129.00825,35.36419],[129.00821,35.3643],[129.00816,35.36438],[129.00804,35.36445],[129.00423,35.36666],[129.00019,35.3694],[128.9997,35.37038],[128.99965,35.3717],[128.99971,35.37258],[129.00001,35.37324],[129.00051,35.37451],[129.00123,35.37849],[129.00121,35.3789],[129.00117,35.37906],[129.00114,35.37919],[129.00103,35.37937],[129.00092,35.37952],[128.99875,35.38146],[128.99857,35.38159],[128.99814,35.38188],[128.99793,35.38201],[128.99784,35.38204],[128.99774,35.38205],[128.99761,35.38206],[128.99732,35.38206],[128.99705,35.38202],[128.99678,35.38194],[128.99644,35.38183],[128.9962,35.38176],[128.99603,35.38174],[128.99585,35.38174],[128.99563,35.38177],[128.9947,35.38195],[128.99287,35.38234],[128.9928,35.38238],[128.99272,35.38244],[128.99265,35.38254],[128.99255,35.38269],[128.99251,35.38287],[128.99238,35.38315],[128.99224,35.38344],[128.99213,35.3836],[128.992,35.38374],[128.99107,35.38448],[128.99078,35.38467],[128.99063,35.38473],[128.98827,35.38522],[128.98814,35.38523],[128.98795,35.38522],[128.9878,35.38519],[128.98706,35.38503],[128.98701,35.38501],[128.98692,35.38495],[128.98669,35.38473],[128.9865,35.38457],[128.98639,35.38449],[128.98623,35.38442],[128.98604,35.38436],[128.98586,35.38435],[128.98563,35.38437],[128.9853,35.38441],[128.98526,35.38442],[128.98509,35.38449],[128.98502,35.38453],[128.98181,35.38772],[128.98179,35.38775],[128.98174,35.38781],[128.98145,35.38837],[128.98139,35.3885],[128.98137,35.38859],[128.98138,35.38872],[128.98157,35.39072],[128.98159,35.39084],[128.98164,35.39093],[128.98173,35.39105],[128.98181,35.39114],[128.98201,35.39133],[128.9821,35.39144],[128.98217,35.39154],[128.9822,35.39162],[128.98221,35.39187],[128.98217,35.39228],[128.98214,35.39241],[128.98065,35.39539],[128.98055,35.39552],[128.98025,35.39582],[128.98004,35.39601],[128.97987,35.39616],[128.97966,35.39632],[128.97927,35.39655],[128.97895,35.39671],[128.97868,35.39691],[128.9784,35.39711],[128.97817,35.39729],[128.97799,35.39743],[128.97761,35.39779],[128.9774,35.398],[128.97734,35.3981],[128.97724,35.39832],[128.97699,35.39907],[128.97696,35.39932],[128.97696,35.39947],[128.97702,35.39995],[128.97706,35.40019],[128.97717,35.40053],[128.97721,35.40066],[128.97729,35.40088],[128.97759,35.40165],[128.97952,35.4047],[128.97962,35.40478],[128.98022,35.40524],[128.9804,35.40534],[128.98077,35.4055],[128.98104,35.4056],[128.98126,35.40566],[128.98157,35.40571],[128.9818,35.40575],[128.982,35.4058],[128.98211,35.40583],[128.98245,35.406],[128.98274,35.40616],[128.98301,35.40634],[128.98316,35.40649],[128.98324,35.40661],[128.98332,35.40684],[128.98336,35.40705],[128.98335,35.40725],[128.98331,35.4075],[128.98242,35.41038],[128.98181,35.41167],[128.98166,35.41179],[128.98149,35.41195],[128.98135,35.41215],[128.98125,35.41231],[128.98078,35.41381],[128.98073,35.41396],[128.98074,35.41413],[128.98087,35.41463],[128.98217,35.41847],[128.98226,35.41871],[128.98249,35.41915],[128.98252,35.41921],[128.98262,35.41939],[128.98268,35.41944],[128.98354,35.41963],[128.98373,35.41965],[128.99058,35.42164],[128.99449,35.42308],[128.99576,35.42363],[128.99586,35.42365],[128.99615,35.42362],[128.99632,35.42356],[128.99646,35.42352],[128.99669,35.42344],[128.99692,35.4234],[128.99712,35.42339],[129.00117,35.4238],[129.00154,35.42386],[129.00171,35.42392],[129.00193,35.42401],[129.002,35.42362],[129.00202,35.42336],[129.00206,35.4232],[129.00213,35.423],[129.00223,35.42281],[129.00301,35.422],[129.00312,35.4219],[129.00322,35.42184],[129.00337,35.42178],[129.00355,35.42176],[129.00378,35.42179],[129.00406,35.42186],[129.00454,35.422],[129.0049,35.42206],[129.00518,35.42209],[129.00682,35.42214],[129.00696,35.42213],[129.00714,35.42208],[129.0073,35.42202],[129.0098,35.42104],[129.00986,35.42101],[129.0099,35.42096],[129.00999,35.42061],[129.00999,35.42051],[129.00985,35.41996],[129.00977,35.4197],[129.0097,35.41942],[129.0097,35.41925],[129.00983,35.41818],[129.00995,35.41772],[129.01099,35.41542],[129.01161,35.41416],[129.01203,35.41347],[129.01231,35.41305],[129.01237,35.41297],[129.01323,35.41214],[129.01335,35.41209],[129.01372,35.41208],[129.01403,35.41204],[129.01422,35.41198],[129.01483,35.41174],[129.01546,35.41144],[129.01687,35.41057],[129.01695,35.4105],[129.01703,35.41035],[129.01717,35.40984],[129.01719,35.40969],[129.01722,35.40929],[129.01724,35.40905],[129.01734,35.40868],[129.01737,35.40857],[129.01785,35.40788],[129.01794,35.4078],[129.01869,35.40739],[129.02274,35.40523],[129.02304,35.40507],[129.02363,35.40478],[129.02376,35.40475],[129.02438,35.40475],[129.02631,35.40482],[129.02754,35.40356],[129.0267,35.39836],[129.02667,35.39804],[129.02678,35.39648],[129.0268,35.39626],[129.02776,35.3923],[129.02791,35.39185],[129.0281,35.39136],[129.02841,35.39076],[129.031,35.3858],[129.03479,35.37871],[129.03505,35.37831],[129.03583,35.37718],[129.03643,35.37637],[129.03667,35.3761],[129.03691,35.37589],[129.03723,35.37568],[129.03755,35.37552],[129.03787,35.37545],[129.03812,35.37545],[129.03934,35.37574],[129.04001,35.37597],[129.04042,35.37613],[129.04141,35.37664],[129.0416,35.37677],[129.04184,35.37703],[129.04217,35.37741],[129.0422,35.37745],[129.04234,35.37746],[129.04257,35.37749],[129.04406,35.37703],[129.04582,35.37631],[129.04558,35.37514]]]]}},{"type":"Feature","properties":{"code":"48330540","name":"서창동","parent":"48330"},"geometry":{"type":"MultiPolygon","coordinates":[[[[129.2022,35.42999],[129.20109,35.42881],[129.20019,35.42421],[129.20018,35.42413],[129.20202,35.4216],[129.20215,35.42146],[129.20271,35.42115],[129.20313,35.42094],[129.2073,35.42012],[129.20808,35.41998],[129.21024,35.41972],[129.21035,35.41972],[129.21119,35.41921],[129.21134,35.41908],[129.21256,35.41751],[129.21556,35.41424],[129.21572,35.41419],[129.21643,35.41385],[129.21744,35.41323],[129.2176,35.41306],[129.21824,35.41214],[129.21865,35.41147],[129.21925,35.41043],[129.21986,35.40917],[129.21992,35.40901],[129.21999,35.40877],[129.21996,35.4084],[129.21981,35.40811],[129.21971,35.40797],[129.21958,35.4079],[129.21929,35.40782],[129.21882,35.4077],[129.21725,35.40687],[129.21715,35.40679],[129.21569,35.40523],[129.21548,35.40499],[129.21536,35.40457],[129.21525,35.404],[129.21519,35.40387],[129.21073,35.40012],[129.21072,35.40003],[129.21062,35.39934],[129.21019,35.39712],[129.21015,35.39702],[129.21006,35.39687],[129.20949,35.39627],[129.20827,35.39501],[129.20818,35.39493],[129.20808,35.39484],[129.20784,35.39469],[129.20762,35.39457],[129.20746,35.3945],[129.20734,35.39446],[129.20718,35.39442],[129.20709,35.39436],[129.20626,35.39361],[129.20614,35.39347],[129.20609,35.3934],[129.20601,35.39327],[129.20591,35.39308],[129.20571,35.39265],[129.20556,35.39226],[129.20539,35.39171],[129.20535,35.39159],[129.20369,35.38891],[129.20297,35.38787],[129.20287,35.38798],[129.20275,35.38806],[129.20259,35.38814],[129.20118,35.38859],[129.20053,35.38867],[129.20031,35.38853],[129.19911,35.38769],[129.19763,35.38627],[129.1968,35.38547],[129.19451,35.38375],[129.19429,35.38397],[129.19419,35.38407],[129.19398,35.3841],[129.19329,35.38397],[129.19289,35.38384],[129.19214,35.38347],[129.19186,35.38318],[129.19137,35.38278],[129.18944,35.38221],[129.18871,35.38204],[129.18753,35.38209],[129.18633,35.38212],[129.18509,35.38216],[129.1833,35.38197],[129.18283,35.38171],[129.18202,35.38144],[129.18172,35.38143],[129.1806,35.38153],[129.17895,35.38237],[129.17714,35.38331],[129.17616,35.38342],[129.17556,35.38347],[129.17261,35.38365],[129.17237,35.38337],[129.17112,35.38355],[129.17036,35.38383],[129.16684,35.38549],[129.16519,35.38647],[129.16246,35.38815],[129.16094,35.38936],[129.16022,35.38996],[129.1598,35.39036],[129.15941,35.39074],[129.16021,35.39131],[129.16089,35.3918],[129.16102,35.39191],[129.16125,35.3921],[129.16147,35.39243],[129.1616,35.39273],[129.16174,35.39339],[129.16194,35.39439],[129.16189,35.39609],[129.16182,35.39792],[129.1609,35.40072],[129.16018,35.40277],[129.15937,35.40505],[129.15939,35.40555],[129.15984,35.40733],[129.1599,35.40748],[129.16014,35.40804],[129.16052,35.4089],[129.16119,35.40973],[129.16381,35.41271],[129.16472,35.41342],[129.16573,35.41418],[129.16763,35.41572],[129.16775,35.41585],[129.16818,35.4163],[129.16927,35.41863],[129.16895,35.4193],[129.16865,35.41975],[129.16834,35.42015],[129.1682,35.42091],[129.16817,35.42141],[129.16846,35.42342],[129.16877,35.42529],[129.16759,35.4254],[129.16754,35.42536],[129.16751,35.42536],[129.16686,35.42562],[129.16614,35.42627],[129.16534,35.42706],[129.16516,35.42759],[129.16504,35.42806],[129.16464,35.42993],[129.16463,35.43028],[129.16482,35.43132],[129.16506,35.43184],[129.16549,35.43229],[129.16552,35.43222],[129.16558,35.43213],[129.16564,35.43208],[129.1658,35.43205],[129.16786,35.4319],[129.16814,35.43192],[129.16916,35.43222],[129.16972,35.4324],[129.17007,35.43258],[129.17035,35.43286],[129.17048,35.43305],[129.17071,35.43325],[129.17093,35.43338],[129.1712,35.43346],[129.17167,35.43352],[129.17224,35.43356],[129.17255,35.43357],[129.17265,35.43357],[129.1754,35.43318],[129.17895,35.43263],[129.18172,35.43331],[129.18743,35.43487],[129.19218,35.43686],[129.19274,35.43728],[129.19346,35.43771],[129.19485,35.43855],[129.19636,35.43942],[129.19641,35.43945],[129.19649,35.43943],[129.19659,35.43935],[129.1967,35.43924],[129.19685,35.43908],[129.19693,35.43899],[129.19924,35.43586],[129.1999,35.43494],[129.19997,35.43477],[129.20075,35.43431],[129.20107,35.43391],[129.20135,35.4335],[129.20222,35.43214],[129.20234,35.43195],[129.20235,35.43184],[129.20229,35.43113],[129.2022,35.42999]]]]}},{"type":"Feature","properties":{"code":"48330550","name":"소주동","parent":"48330"},"geometry":{"type":"MultiPolygon","coordinates":[[[[129.16549,35.43229],[129.16506,35.43184],[129.16482,35.43132],[129.16463,35.43028],[129.16464,35.42993],[129.16504,35.42806],[129.16516,35.42759],[129.16534,35.42706],[129.16614,35.42627],[129.16686,35.42562],[129.16751,35.42536],[129.16754,35.42536],[129.16759,35.4254],[129.16877,35.42529],[129.16846,35.42342],[129.16817,35.42141],[129.1682,35.42091],[129.16834,35.42015],[129.16865,35.41975],[129.16895,35.4193],[129.16927,35.41863],[129.16818,35.4163],[129.16775,35.41585],[129.16763,35.41572],[129.16573,35.41418],[129.16472,35.41342],[129.16381,35.41271],[129.16119,35.40973],[129.16052,35.4089],[129.16014,35.40804],[129.1599,35.40748],[129.15984,35.40733],[129.15939,35.40555],[129.15937,35.40505],[129.16018,35.40277],[129.1609,35.40072],[129.16182,35.39792],[129.16189,35.39609],[129.16194,35.39439],[129.16174,35.39339],[129.1616,35.39273],[129.16147,35.39243],[129.16125,35.3921],[129.16102,35.39191],[129.16089,35.3918],[129.16021,35.39131],[129.15941,35.39074],[129.15864,35.3903],[129.15859,35.39027],[129.15838,35.39007],[129.15818,35.38988],[129.15709,35.38855],[129.15577,35.38671],[129.1557,35.38642],[129.15554,35.38644],[129.15494,35.38663],[129.15472,35.38672],[129.151,35.38837],[129.14037,35.38967],[129.13678,35.38953],[129.13567,35.3892],[129.13423,35.38851],[129.13415,35.38847],[129.13403,35.38845],[129.13389,35.38843],[129.13376,35.38843],[129.12829,35.38858],[129.12723,35.38869],[129.12426,35.39039],[129.12363,35.39077],[129.12296,35.39141],[129.12295,35.39144],[129.12214,35.39491],[129.12191,35.39735],[129.12205,35.39761],[129.12295,35.39863],[129.12332,35.40071],[129.12278,35.40232],[129.1226,35.40279],[129.12257,35.40288],[129.12173,35.40372],[129.1209,35.40441],[129.12037,35.40504],[129.11952,35.40608],[129.11917,35.4066],[129.11973,35.40668],[129.12105,35.40691],[129.12115,35.40694],[129.12128,35.407],[129.12137,35.40706],[129.12146,35.40712],[129.12273,35.40802],[129.12284,35.40813],[129.12303,35.40846],[129.12312,35.40875],[129.12314,35.40891],[129.12311,35.40902],[129.12302,35.40912],[129.12263,35.40936],[129.12236,35.40953],[129.12215,35.40967],[129.122,35.40978],[129.12192,35.40986],[129.1219,35.40991],[129.12179,35.41189],[129.1237,35.41578],[129.12545,35.41761],[129.12808,35.42095],[129.12837,35.42132],[129.12842,35.4214],[129.12842,35.42149],[129.12831,35.42174],[129.12823,35.42209],[129.12821,35.4223],[129.12825,35.42254],[129.12832,35.42277],[129.12837,35.42287],[129.1296,35.42455],[129.12988,35.42485],[129.13087,35.4258],[129.13118,35.42603],[129.13151,35.42619],[129.1321,35.42634],[129.13404,35.42748],[129.13654,35.42905],[129.13819,35.43058],[129.13883,35.43121],[129.13916,35.43166],[129.13933,35.43214],[129.13938,35.43243],[129.1393,35.43269],[129.139,35.43309],[129.13892,35.43337],[129.13874,35.43479],[129.13874,35.43534],[129.14113,35.43768],[129.14247,35.43878],[129.144,35.44073],[129.14402,35.44094],[129.14404,35.44179],[129.14398,35.44204],[129.1439,35.44239],[129.14391,35.4425],[129.14399,35.44277],[129.14435,35.44327],[129.14459,35.44351],[129.14566,35.44443],[129.14635,35.44381],[129.14787,35.44382],[129.14802,35.44379],[129.14975,35.44311],[129.15,35.44298],[129.15209,35.44164],[129.15236,35.44143],[129.15265,35.44106],[129.15296,35.44057],[129.15309,35.44036],[129.15341,35.44008],[129.15825,35.43673],[129.16078,35.43517],[129.16137,35.43508],[129.16163,35.43505],[129.16187,35.43503],[129.16235,35.43492],[129.16315,35.43466],[129.16426,35.43429],[129.1647,35.43414],[129.16509,35.4337],[129.16522,35.4334],[129.16534,35.43301],[129.16544,35.43258],[129.16549,35.43229]]]]}},{"type":"Feature","properties":{"code":"48330560","name":"평산동","parent":"48330"},"geometry":{"type":"MultiPolygon","coordinates":[[[[129.11917,35.4066],[129.11952,35.40608],[129.12037,35.40504],[129.1209,35.40441],[129.12173,35.40372],[129.12257,35.40288],[129.1226,35.40279],[129.12278,35.40232],[129.12332,35.40071],[129.12295,35.39863],[129.12205,35.39761],[129.12191,35.39735],[129.12214,35.39491],[129.12295,35.39144],[129.12296,35.39141],[129.12363,35.39077],[129.12426,35.39039],[129.12723,35.38869],[129.12829,35.38858],[129.13376,35.38843],[129.13389,35.38843],[129.13403,35.38845],[129.13415,35.38847],[129.13423,35.38851],[129.13567,35.3892],[129.13678,35.38953],[129.14037,35.38967],[129.151,35.38837],[129.15472,35.38672],[129.15494,35.38663],[129.15554,35.38644],[129.1557,35.38642],[129.15551,35.38519],[129.15583,35.38345],[129.15609,35.38275],[129.15648,35.38218],[129.15678,35.38174],[129.15685,35.38142],[129.15714,35.3801],[129.15529,35.37883],[129.15421,35.37834],[129.15373,35.37822],[129.15315,35.37808],[129.153,35.37803],[129.1521,35.37767],[129.15205,35.37765],[129.15153,35.37742],[129.15022,35.37683],[129.15017,35.37681],[129.14978,35.37661],[129.14856,35.37567],[129.14816,35.37528],[129.14758,35.37459],[129.14656,35.37345],[129.14459,35.37135],[129.14425,35.37099],[129.14362,35.37041],[129.14312,35.37018],[129.14193,35.36976],[129.14136,35.36956],[129.1388,35.36869],[129.13834,35.36858],[129.13796,35.36857],[129.13788,35.36825],[129.13753,35.36688],[129.13758,35.36674],[129.13762,35.36657],[129.13851,35.36608],[129.13841,35.36605],[129.13816,35.36599],[129.13797,35.36596],[129.13657,35.36575],[129.13407,35.36552],[129.13369,35.36551],[129.13331,35.3655],[129.13292,35.36553],[129.1326,35.36557],[129.13241,35.36562],[129.13206,35.36568],[129.13153,35.36569],[129.1314,35.36565],[129.1313,35.36556],[129.13086,35.36503],[129.13068,35.3646],[129.13059,35.3643],[129.13038,35.36337],[129.13036,35.36322],[129.13034,35.36311],[129.13032,35.36298],[129.1303,35.36284],[129.13029,35.36265],[129.13028,35.36195],[129.12956,35.35916],[129.12876,35.35967],[129.1287,35.35974],[129.12852,35.36005],[129.128,35.36098],[129.12713,35.36237],[129.127,35.36249],[129.12695,35.36253],[129.1269,35.36256],[129.12612,35.36309],[129.12598,35.36314],[129.12574,35.36319],[129.12493,35.36323],[129.12401,35.36321],[129.12391,35.36322],[129.12371,35.36325],[129.12309,35.36339],[129.1229,35.36345],[129.12273,35.36352],[129.12227,35.36396],[129.1222,35.36403],[129.12215,35.36409],[129.1184,35.3682],[129.11835,35.3683],[129.11667,35.37219],[129.11656,35.37245],[129.11609,35.3737],[129.11508,35.37655],[129.11008,35.38144],[129.10694,35.38395],[129.10564,35.38527],[129.10532,35.3857],[129.10425,35.38713],[129.10383,35.38737],[129.10453,35.3891],[129.10493,35.39245],[129.10501,35.39433],[129.10489,35.39454],[129.10486,35.39466],[129.1047,35.39697],[129.10468,35.39722],[129.10471,35.39809],[129.10473,35.39827],[129.10502,35.39952],[129.10508,35.39966],[129.10519,35.39984],[129.10531,35.39998],[129.10541,35.4001],[129.10584,35.39976],[129.10597,35.39967],[129.10611,35.39961],[129.10623,35.39957],[129.10743,35.39961],[129.10756,35.39962],[129.10765,35.39964],[129.10776,35.39971],[129.11303,35.40377],[129.11412,35.40536],[129.11468,35.4064],[129.11479,35.40656],[129.11484,35.40663],[129.11492,35.40671],[129.11498,35.40676],[129.11507,35.4068],[129.11512,35.40682],[129.1152,35.40683],[129.11526,35.40683],[129.11611,35.40668],[129.11917,35.4066]]]]}},{"type":"Feature","properties":{"code":"48330570","name":"덕계동","parent":"48330"},"geometry":{"type":"MultiPolygon","coordinates":[[[[129.19451,35.38375],[129.19373,35.38208],[129.19372,35.38205],[129.19372,35.38199],[129.19373,35.38194],[129.19377,35.38182],[129.19447,35.38048],[129.19452,35.38039],[129.19457,35.38036],[129.19463,35.38032],[129.1947,35.38029],[129.19479,35.38026],[129.19489,35.38023],[129.19507,35.38018],[129.19515,35.38016],[129.19573,35.37988],[129.19582,35.37982],[129.19868,35.37704],[129.19875,35.37695],[129.1988,35.37688],[129.19936,35.37575],[129.19937,35.37562],[129.19934,35.37544],[129.19925,35.37492],[129.19809,35.36922],[129.19382,35.36187],[129.19364,35.36117],[129.19358,35.36101],[129.19349,35.36091],[129.19232,35.36021],[129.19036,35.35949],[129.19026,35.35949],[129.18999,35.35963],[129.18986,35.3597],[129.18971,35.35975],[129.18959,35.35976],[129.18948,35.35976],[129.18771,35.35915],[129.18693,35.35881],[129.18631,35.35852],[129.18558,35.35817],[129.18256,35.35544],[129.18228,35.35518],[129.18219,35.35503],[129.18214,35.35458],[129.18209,35.35433],[129.18194,35.354],[129.18179,35.3538],[129.18163,35.35365],[129.1784,35.3516],[129.17824,35.35152],[129.17808,35.35144],[129.17789,35.35141],[129.17735,35.35133],[129.17714,35.35129],[129.17702,35.3513],[129.17543,35.35137],[129.17461,35.35145],[129.17453,35.35147],[129.16746,35.35406],[129.16363,35.35584],[129.16283,35.35621],[129.16255,35.35636],[129.1623,35.35659],[129.16216,35.35688],[129.16216,35.35702],[129.16219,35.35717],[129.16227,35.35761],[129.16235,35.35778],[129.1624,35.35797],[129.16239,35.35805],[129.16188,35.35871],[129.16179,35.35878],[129.16161,35.35883],[129.16141,35.35885],[129.15756,35.35901],[129.15725,35.359],[129.15415,35.36081],[129.1541,35.36106],[129.15399,35.36134],[129.15374,35.36185],[129.15334,35.36237],[129.15309,35.36254],[129.15279,35.36272],[129.14988,35.36384],[129.14936,35.36399],[129.14895,35.36409],[129.1484,35.36416],[129.14836,35.36417],[129.14635,35.36388],[129.14142,35.36495],[129.14122,35.36502],[129.14098,35.36511],[129.13851,35.36608],[129.13762,35.36657],[129.13758,35.36674],[129.13753,35.36688],[129.13788,35.36825],[129.13796,35.36857],[129.13834,35.36858],[129.1388,35.36869],[129.14136,35.36956],[129.14193,35.36976],[129.14312,35.37018],[129.14362,35.37041],[129.14425,35.37099],[129.14459,35.37135],[129.14656,35.37345],[129.14758,35.37459],[129.14816,35.37528],[129.14856,35.37567],[129.14978,35.37661],[129.15017,35.37681],[129.15022,35.37683],[129.15153,35.37742],[129.15205,35.37765],[129.1521,35.37767],[129.153,35.37803],[129.15315,35.37808],[129.15373,35.37822],[129.15421,35.37834],[129.15529,35.37883],[129.15714,35.3801],[129.15685,35.38142],[129.15678,35.38174],[129.15648,35.38218],[129.15609,35.38275],[129.15583,35.38345],[129.15551,35.38519],[129.1557,35.38642],[129.15577,35.38671],[129.15709,35.38855],[129.15818,35.38988],[129.15838,35.39007],[129.15859,35.39027],[129.15864,35.3903],[129.15941,35.39074],[129.1598,35.39036],[129.16022,35.38996],[129.16094,35.38936],[129.16246,35.38815],[129.16519,35.38647],[129.16684,35.38549],[129.17036,35.38383],[129.17112,35.38355],[129.17237,35.38337],[129.17261,35.38365],[129.17556,35.38347],[129.17616,35.38342],[129.17714,35.38331],[129.17895,35.38237],[129.1806,35.38153],[129.18172,35.38143],[129.18202,35.38144],[129.18283,35.38171],[129.1833,35.38197],[129.18509,35.38216],[129.18633,35.38212],[129.18753,35.38209],[129.18871,35.38204],[129.18944,35.38221],[129.19137,35.38278],[129.19186,35.38318],[129.19214,35.38347],[129.19289,35.38384],[129.19329,35.38397],[129.19398,35.3841],[129.19419,35.38407],[129.19429,35.38397],[129.19451,35.38375]]]]}},{"type":"Feature","properties":{"code":"48330510","name":"중앙동","parent":"48330"},"geometry":{"type":"MultiPolygon","coordinates":[[[[129.0346,35.32899],[129.0346,35.32978],[129.03459,35.33269],[129.03465,35.33296],[129.03471,35.33314],[129.03475,35.33328],[129.03487,35.33357],[129.03512,35.33419],[129.03514,35.33425],[129.03517,35.33431],[129.03569,35.3356],[129.03594,35.33627],[129.03608,35.33695],[129.03569,35.3379],[129.03546,35.33835],[129.03486,35.33938],[129.03479,35.3395],[129.03451,35.33999],[129.03426,35.34043],[129.03423,35.34048],[129.03365,35.34151],[129.03364,35.34157],[129.03356,35.34229],[129.03377,35.34302],[129.03384,35.34324],[129.034,35.3436],[129.03472,35.34524],[129.03692,35.35024],[129.03754,35.35042],[129.03845,35.35069],[129.03977,35.35107],[129.04078,35.35135],[129.041,35.35138],[129.04124,35.35139],[129.04729,35.35051],[129.04754,35.35044],[129.04774,35.35034],[129.0478,35.35026],[129.04839,35.34927],[129.04857,35.34867],[129.04864,35.34853],[129.04931,35.34763],[129.05468,35.34457],[129.05547,35.34413],[129.05727,35.34336],[129.05757,35.34358],[129.05801,35.34422],[129.05866,35.34532],[129.05941,35.34627],[129.06024,35.34717],[129.0611,35.34756],[129.06254,35.34762],[129.06383,35.34767],[129.06666,35.34867],[129.06774,35.34966],[129.06764,35.35019],[129.06788,35.35082],[129.06835,35.35123],[129.06912,35.35144],[129.07433,35.35235],[129.07463,35.35221],[129.07495,35.35179],[129.07599,35.35144],[129.07629,35.35147],[129.07817,35.35246],[129.07915,35.35335],[129.0793,35.35426],[129.08129,35.35571],[129.08579,35.35896],[129.08799,35.36041],[129.08854,35.36048],[129.09127,35.36145],[129.0919,35.3622],[129.09437,35.3604],[129.09391,35.35927],[129.09351,35.35799],[129.09346,35.35781],[129.09344,35.35767],[129.0935,35.35729],[129.09405,35.35524],[129.0941,35.35514],[129.09416,35.35502],[129.09431,35.35488],[129.09446,35.35476],[129.09467,35.35464],[129.09504,35.35437],[129.09519,35.35425],[129.09539,35.35402],[129.0955,35.35381],[129.09557,35.35364],[129.09564,35.35345],[129.09572,35.35321],[129.09577,35.35306],[129.09512,35.35128],[129.09459,35.35003],[129.09383,35.34884],[129.09312,35.34797],[129.09308,35.34789],[129.09305,35.34766],[129.09329,35.3448],[129.09383,35.34176],[129.09413,35.3412],[129.09419,35.34108],[129.09421,35.34092],[129.09421,35.34046],[129.0942,35.34027],[129.09417,35.34015],[129.09411,35.33999],[129.09359,35.33896],[129.09349,35.33881],[129.09111,35.3362],[129.09094,35.33607],[129.09064,35.33587],[129.09037,35.33573],[129.09003,35.33562],[129.08971,35.33557],[129.08952,35.33557],[129.08934,35.33559],[129.08916,35.33563],[129.08884,35.33573],[129.08865,35.3358],[129.08853,35.33584],[129.08832,35.3359],[129.08737,35.33606],[129.08596,35.33631],[129.08578,35.33633],[129.0856,35.33634],[129.0855,35.33634],[129.08488,35.33623],[129.08472,35.33619],[129.0845,35.33613],[129.08432,35.33604],[129.08422,35.33597],[129.08411,35.33586],[129.08406,35.33578],[129.08403,35.33572],[129.08399,35.33553],[129.08397,35.33535],[129.08394,35.33517],[129.08392,35.33505],[129.08381,35.33484],[129.08376,35.33476],[129.08177,35.33291],[129.08142,35.33284],[129.08131,35.33283],[129.07385,35.33287],[129.07356,35.33298],[129.07345,35.33303],[129.07337,35.33309],[129.07326,35.33318],[129.07061,35.33457],[129.06765,35.33471],[129.06594,35.33437],[129.06578,35.33414],[129.0655,35.33386],[129.06513,35.33361],[129.06473,35.33344],[129.06407,35.33319],[129.06363,35.33309],[129.06321,35.33303],[129.05926,35.3325],[129.05902,35.33251],[129.05872,35.33257],[129.05841,35.33264],[129.05822,35.33265],[129.05734,35.33261],[129.05717,35.33255],[129.05497,35.3311],[129.05467,35.3309],[129.05444,35.33069],[129.05409,35.33031],[129.05388,35.33006],[129.05375,35.32981],[129.05367,35.3295],[129.05364,35.32927],[129.0536,35.32885],[129.05349,35.32852],[129.05338,35.32826],[129.05234,35.32607],[129.05222,35.32586],[129.05216,35.32576],[129.05187,35.32547],[129.05174,35.32546],[129.05155,35.32544],[129.05136,35.32546],[129.05122,35.3255],[129.05104,35.3256],[129.05086,35.32572],[129.0506,35.32594],[129.05,35.32648],[129.04946,35.32698],[129.04742,35.32804],[129.04064,35.33063],[129.03987,35.33092],[129.03969,35.33097],[129.03955,35.33099],[129.03922,35.33103],[129.03902,35.33105],[129.03881,35.33102],[129.03851,35.33095],[129.03821,35.33085],[129.03774,35.33065],[129.03614,35.32987],[129.03553,35.32956],[129.03523,35.32938],[129.035,35.32925],[129.03471,35.32906],[129.0346,35.32899]]]]}},{"type":"Feature","properties":{"code":"48330515","name":"양주동","parent":"48330"},"geometry":{"type":"MultiPolygon","coordinates":[[[[129.0346,35.32899],[129.03444,35.3289],[129.03433,35.32886],[129.03414,35.32883],[129.03394,35.32881],[129.03274,35.32889],[129.03154,35.32908],[129.03135,35.32911],[129.03126,35.32912],[129.03116,35.32914],[129.03078,35.32917],[129.0304,35.32911],[129.02935,35.3289],[129.02711,35.32841],[129.02669,35.32832],[129.02637,35.32821],[129.02615,35.32813],[129.02599,35.32806],[129.02506,35.32761],[129.02442,35.32728],[129.0228,35.32642],[129.02202,35.32603],[129.0203,35.32526],[129.02066,35.32759],[129.02103,35.33018],[129.02109,35.33085],[129.02116,35.33152],[129.02122,35.3321],[129.02123,35.33219],[129.02142,35.33377],[129.02143,35.33386],[129.02149,35.33398],[129.02349,35.33715],[129.02385,35.33772],[129.02407,35.33806],[129.0243,35.33841],[129.02438,35.33853],[129.02522,35.33981],[129.02546,35.34016],[129.02605,35.34105],[129.02676,35.34183],[129.02798,35.34306],[129.02884,35.34403],[129.02965,35.34495],[129.02979,35.3451],[129.03026,35.34573],[129.03059,35.34632],[129.03079,35.34676],[129.03153,35.34868],[129.03692,35.35024],[129.03472,35.34524],[129.034,35.3436],[129.03384,35.34324],[129.03377,35.34302],[129.03356,35.34229],[129.03364,35.34157],[129.03365,35.34151],[129.03423,35.34048],[129.03426,35.34043],[129.03451,35.33999],[129.03479,35.3395],[129.03486,35.33938],[129.03546,35.33835],[129.03569,35.3379],[129.03608,35.33695],[129.03594,35.33627],[129.03569,35.3356],[129.03517,35.33431],[129.03514,35.33425],[129.03512,35.33419],[129.03487,35.33357],[129.03475,35.33328],[129.03471,35.33314],[129.03465,35.33296],[129.03459,35.33269],[129.0346,35.32978],[129.0346,35.32899]]]]}}]}