{"type":"FeatureCollection","features":[{"type":"Feature","properties":{"code":"52730250","name":"무주읍","parent":"52730"},"geometry":{"type":"MultiPolygon","coordinates":[[[[127.69523,36.05867],[127.69522,36.05778],[127.69597,36.0567],[127.69672,36.05622],[127.6962,36.05469],[127.69583,36.05379],[127.69551,36.05302],[127.69516,36.04936],[127.69505,36.04638],[127.69647,36.0412],[127.69743,36.04059],[127.69964,36.03875],[127.69989,36.03761],[127.7003,36.03655],[127.70211,36.03521],[127.70499,36.03365],[127.7069,36.03399],[127.70938,36.03492],[127.71116,36.03527],[127.71187,36.03541],[127.71366,36.03536],[127.71391,36.03531],[127.7141,36.03527],[127.71542,36.03487],[127.71696,36.0344],[127.717,36.03436],[127.71791,36.03353],[127.71942,36.03121],[127.71984,36.03044],[127.72005,36.03026],[127.72008,36.02996],[127.72007,36.02981],[127.72001,36.02915],[127.71996,36.02885],[127.71991,36.02855],[127.71986,36.0283],[127.71965,36.0277],[127.71844,36.02493],[127.71827,36.02458],[127.71822,36.02451],[127.71804,36.02438],[127.71791,36.02433],[127.71783,36.02432],[127.71669,36.02424],[127.71662,36.02424],[127.7164,36.02424],[127.71618,36.02425],[127.71328,36.0246],[127.71107,36.02492],[127.71021,36.02492],[127.70918,36.02488],[127.70903,36.02487],[127.70865,36.02473],[127.70845,36.02464],[127.70834,36.02454],[127.7083,36.02448],[127.70772,36.02276],[127.70772,36.02273],[127.70765,36.02248],[127.70762,36.0222],[127.70756,36.02069],[127.70777,36.0191],[127.70808,36.01796],[127.70845,36.01726],[127.70812,36.01505],[127.70811,36.015],[127.70781,36.01366],[127.7075,36.01243],[127.70815,36.00981],[127.70829,36.00956],[127.70838,36.00937],[127.7086,36.00876],[127.70862,36.00869],[127.70871,36.00787],[127.70871,36.00781],[127.70868,36.00774],[127.70819,36.00696],[127.70806,36.00676],[127.70787,36.00652],[127.70776,36.00639],[127.70768,36.00631],[127.70752,36.00617],[127.70742,36.00611],[127.70946,36.005],[127.71359,36.00321],[127.71414,36.00301],[127.71427,36.00272],[127.71436,36.00241],[127.71398,36.00152],[127.71389,36.00064],[127.71404,36.00021],[127.71487,35.99969],[127.71628,35.9987],[127.71673,35.99802],[127.71676,35.99762],[127.7166,35.99725],[127.7158,35.99633],[127.71535,35.99581],[127.71395,35.99403],[127.71347,35.99289],[127.71312,35.99179],[127.71285,35.9905],[127.71282,35.9901],[127.71071,35.98952],[127.70991,35.98948],[127.7096,35.98949],[127.70402,35.99015],[127.70254,35.99045],[127.70079,35.99108],[127.70007,35.99172],[127.69952,35.9923],[127.69903,35.99247],[127.69171,35.99225],[127.68412,35.99124],[127.68364,35.99096],[127.6776,35.98471],[127.67756,35.9842],[127.67779,35.98351],[127.67927,35.98164],[127.68073,35.97943],[127.68207,35.97708],[127.68255,35.97614],[127.68283,35.97539],[127.68284,35.96953],[127.68174,35.96799],[127.68107,35.9685],[127.67849,35.96983],[127.67798,35.97009],[127.67615,35.97042],[127.67489,35.97091],[127.67404,35.97156],[127.6732,35.97293],[127.67248,35.97376],[127.67092,35.975],[127.67018,35.97536],[127.6684,35.97543],[127.66737,35.97539],[127.66698,35.97506],[127.66689,35.97489],[127.6665,35.97416],[127.6662,35.97287],[127.66604,35.97233],[127.66413,35.96846],[127.66323,35.96762],[127.66117,35.96647],[127.6569,35.96352],[127.65637,35.96233],[127.65561,35.96057],[127.65554,35.96029],[127.65521,35.95986],[127.65386,35.95908],[127.65293,35.95837],[127.65245,35.95775],[127.65224,35.95726],[127.65215,35.95646],[127.65213,35.95621],[127.65166,35.9559],[127.64867,35.95517],[127.648,35.95508],[127.64721,35.95512],[127.64663,35.95519],[127.64574,35.95569],[127.6365,35.96094],[127.63626,35.96128],[127.63656,35.96262],[127.63667,35.96439],[127.63665,35.96448],[127.63647,35.96512],[127.63429,35.96848],[127.63365,35.96903],[127.63108,35.97062],[127.62978,35.97139],[127.62861,35.97193],[127.62808,35.97203],[127.62763,35.97183],[127.62737,35.97155],[127.62697,35.97111],[127.62588,35.9707],[127.61988,35.96854],[127.6195,35.96842],[127.61915,35.96842],[127.61884,35.96843],[127.6185,35.96856],[127.61823,35.96877],[127.61598,35.97177],[127.61231,35.97398],[127.60773,35.97649],[127.60709,35.97683],[127.60653,35.97706],[127.60387,35.97786],[127.60357,35.97795],[127.60324,35.97777],[127.60293,35.97746],[127.60156,35.97604],[127.60127,35.9757],[127.60087,35.97511],[127.60073,35.97485],[127.60052,35.97458],[127.60006,35.97427],[127.59921,35.97382],[127.59795,35.97321],[127.59714,35.97302],[127.59682,35.97297],[127.59578,35.97285],[127.59498,35.97285],[127.59475,35.97286],[127.59478,35.97292],[127.59528,35.97389],[127.59562,35.97477],[127.59579,35.9758],[127.59589,35.97646],[127.59575,35.97711],[127.59373,35.98133],[127.59212,35.98341],[127.59198,35.9837],[127.59212,35.98404],[127.59242,35.98463],[127.5928,35.98506],[127.5932,35.98538],[127.59405,35.98584],[127.59543,35.98638],[127.59599,35.98663],[127.59797,35.98803],[127.59826,35.98836],[127.59938,35.98968],[127.59971,35.99011],[127.60006,35.99105],[127.60009,35.99144],[127.60028,35.99442],[127.60026,35.99641],[127.60098,36.00012],[127.60149,36.0026],[127.60275,36.00546],[127.6039,36.0073],[127.60487,36.01033],[127.60509,36.01132],[127.60507,36.01146],[127.60495,36.0116],[127.60544,36.01148],[127.60585,36.01134],[127.60619,36.01117],[127.60646,36.01098],[127.60667,36.01079],[127.60683,36.01058],[127.60979,36.00569],[127.60995,36.00541],[127.61009,36.00511],[127.61016,36.00494],[127.61022,36.00479],[127.61033,36.00445],[127.61043,36.00412],[127.61044,36.00409],[127.61052,36.00378],[127.61059,36.00346],[127.61062,36.00332],[127.61066,36.00315],[127.61068,36.00306],[127.61077,36.00261],[127.61082,36.00239],[127.61087,36.00219],[127.61094,36.00201],[127.61101,36.00185],[127.61108,36.00176],[127.61111,36.00171],[127.61123,36.00159],[127.61138,36.00147],[127.61157,36.00137],[127.61178,36.00127],[127.61202,36.00119],[127.61227,36.00112],[127.61253,36.00106],[127.61279,36.00102],[127.61306,36.001],[127.61331,36.001],[127.61355,36.00102],[127.61378,36.00105],[127.61399,36.00111],[127.6142,36.00119],[127.61439,36.00128],[127.61458,36.0014],[127.61476,36.00153],[127.61485,36.0016],[127.61494,36.00168],[127.61511,36.00184],[127.61528,36.00202],[127.61544,36.00222],[127.6156,36.00242],[127.61566,36.00251],[127.61575,36.00264],[127.61589,36.00286],[127.61602,36.00309],[127.61615,36.00332],[127.61627,36.00356],[127.61772,36.00662],[127.6178,36.00679],[127.61783,36.00685],[127.61793,36.00709],[127.61802,36.00733],[127.61809,36.00757],[127.61816,36.00782],[127.61821,36.00808],[127.61825,36.00834],[127.61827,36.00855],[127.61827,36.00861],[127.61828,36.00889],[127.61828,36.0091],[127.61828,36.00917],[127.61826,36.00947],[127.61823,36.00978],[127.61749,36.0164],[127.61744,36.01681],[127.61738,36.0172],[127.61735,36.01734],[127.6173,36.01756],[127.61721,36.01791],[127.61709,36.01823],[127.61694,36.01855],[127.61692,36.01857],[127.61675,36.01884],[127.61653,36.01913],[127.61626,36.01941],[127.6162,36.01947],[127.61596,36.01968],[127.61563,36.01995],[127.61526,36.02021],[127.61486,36.02047],[127.61444,36.02073],[127.61398,36.021],[127.61351,36.02127],[127.61302,36.02154],[127.61253,36.02181],[127.61205,36.02209],[127.6116,36.02237],[127.61118,36.02264],[127.61081,36.02291],[127.6105,36.02318],[127.61026,36.02345],[127.61009,36.02371],[127.60999,36.02397],[127.60994,36.02422],[127.60996,36.02446],[127.61002,36.02469],[127.6101,36.02485],[127.61014,36.02492],[127.61031,36.02514],[127.61039,36.02522],[127.61051,36.02535],[127.61076,36.02554],[127.61099,36.02569],[127.61105,36.02573],[127.61139,36.0259],[127.61176,36.02605],[127.61217,36.02619],[127.61263,36.02632],[127.61312,36.02642],[127.61364,36.0265],[127.6142,36.02656],[127.61478,36.02659],[127.61538,36.02661],[127.61598,36.0266],[127.61658,36.02657],[127.61716,36.02651],[127.61773,36.02643],[127.61828,36.02632],[127.61879,36.02619],[127.61929,36.02604],[127.61975,36.02588],[127.6202,36.02571],[127.62023,36.0257],[127.62062,36.02554],[127.62102,36.02537],[127.62175,36.02504],[127.6221,36.0249],[127.62243,36.02477],[127.62275,36.02467],[127.62307,36.02459],[127.62339,36.02455],[127.62372,36.02454],[127.62406,36.02458],[127.62442,36.02465],[127.62478,36.02477],[127.62514,36.02492],[127.6255,36.0251],[127.62569,36.02521],[127.62585,36.0253],[127.62619,36.02552],[127.62649,36.02574],[127.62677,36.02597],[127.62701,36.0262],[127.62722,36.02642],[127.62732,36.02655],[127.62739,36.02664],[127.62754,36.02686],[127.62765,36.02709],[127.62774,36.02731],[127.6278,36.02754],[127.62784,36.02777],[127.62786,36.028],[127.62786,36.02824],[127.62786,36.02836],[127.62785,36.02848],[127.62783,36.02873],[127.62779,36.02897],[127.62775,36.02921],[127.6277,36.02946],[127.62761,36.02994],[127.62756,36.03017],[127.62752,36.0304],[127.6275,36.03055],[127.62749,36.03063],[127.62748,36.03085],[127.62749,36.03105],[127.62751,36.03125],[127.62756,36.03144],[127.62764,36.03161],[127.62775,36.03177],[127.62787,36.03192],[127.62792,36.03196],[127.62802,36.03205],[127.62819,36.03218],[127.62831,36.03224],[127.62837,36.03228],[127.62857,36.03237],[127.6287,36.03242],[127.62878,36.03245],[127.62887,36.03248],[127.629,36.03252],[127.62922,36.03256],[127.62947,36.03258],[127.62974,36.03258],[127.63003,36.03256],[127.63021,36.03252],[127.63035,36.0325],[127.6307,36.0324],[127.63108,36.03227],[127.63114,36.03225],[127.63151,36.03211],[127.63174,36.03201],[127.63197,36.03191],[127.63245,36.03171],[127.63296,36.03151],[127.63348,36.03133],[127.63401,36.03119],[127.63424,36.03115],[127.63438,36.03113],[127.63454,36.0311],[127.63507,36.03107],[127.63559,36.03112],[127.63609,36.03124],[127.63656,36.03141],[127.63679,36.03153],[127.63698,36.03163],[127.63735,36.03187],[127.63765,36.03214],[127.63788,36.0324],[127.63802,36.03266],[127.63806,36.0329],[127.63804,36.03299],[127.63801,36.0331],[127.63798,36.03316],[127.63788,36.0333],[127.63769,36.03347],[127.63752,36.03358],[127.63743,36.03363],[127.63711,36.03377],[127.63677,36.03388],[127.63639,36.03399],[127.63598,36.03408],[127.63556,36.03415],[127.63513,36.03423],[127.6347,36.03432],[127.63427,36.03441],[127.63386,36.03453],[127.63346,36.03467],[127.63308,36.03484],[127.63273,36.03506],[127.63241,36.03531],[127.63223,36.03548],[127.63212,36.03559],[127.63186,36.0359],[127.6317,36.03613],[127.63164,36.03623],[127.6316,36.0363],[127.63145,36.03658],[127.63129,36.03694],[127.63117,36.03731],[127.63109,36.03768],[127.63108,36.03773],[127.63103,36.03806],[127.631,36.03842],[127.63099,36.03878],[127.63098,36.03913],[127.63097,36.03946],[127.63096,36.03977],[127.63094,36.04006],[127.63092,36.04022],[127.6309,36.04032],[127.63084,36.04056],[127.63074,36.04077],[127.6306,36.04096],[127.63042,36.04113],[127.63019,36.04127],[127.62989,36.0414],[127.62954,36.0415],[127.62911,36.04159],[127.62862,36.04166],[127.62809,36.04172],[127.62753,36.04175],[127.62696,36.04176],[127.62679,36.04176],[127.62639,36.04175],[127.62584,36.04172],[127.62532,36.04166],[127.62483,36.04159],[127.6244,36.04149],[127.62408,36.0414],[127.624,36.04138],[127.62363,36.04126],[127.62359,36.04124],[127.6233,36.04113],[127.623,36.041],[127.62273,36.04087],[127.62225,36.04064],[127.62203,36.04055],[127.62183,36.04046],[127.62164,36.04039],[127.62145,36.04034],[127.62126,36.0403],[127.62112,36.04029],[127.62106,36.04029],[127.62086,36.04029],[127.62065,36.04032],[127.62043,36.04036],[127.62021,36.04043],[127.61999,36.04052],[127.61978,36.04063],[127.61958,36.04075],[127.61939,36.0409],[127.61935,36.04094],[127.61922,36.04106],[127.61908,36.04124],[127.61897,36.04144],[127.61888,36.04166],[127.61881,36.04191],[127.61876,36.0422],[127.61874,36.04251],[127.6186,36.05154],[127.61861,36.05199],[127.61863,36.05247],[127.61867,36.05298],[127.61872,36.05352],[127.61879,36.05408],[127.61888,36.05467],[127.61897,36.05528],[127.61979,36.06023],[127.61988,36.06078],[127.61998,36.06129],[127.62006,36.06167],[127.62008,36.06176],[127.6202,36.06218],[127.62024,36.0623],[127.62033,36.06256],[127.62044,36.06281],[127.62047,36.06287],[127.62054,36.063],[127.62062,36.06315],[127.6208,36.06338],[127.62098,36.0636],[127.62259,36.06536],[127.62262,36.0654],[127.62288,36.06568],[127.6232,36.06598],[127.62354,36.06626],[127.62392,36.06651],[127.62434,36.06671],[127.62481,36.06685],[127.62512,36.0669],[127.62531,36.06694],[127.62548,36.06695],[127.62585,36.06699],[127.63402,36.06741],[127.63458,36.06743],[127.63505,36.06743],[127.63546,36.0674],[127.63581,36.06736],[127.6361,36.0673],[127.63627,36.06725],[127.63634,36.06724],[127.63654,36.06717],[127.63685,36.06706],[127.63698,36.06703],[127.63709,36.067],[127.63718,36.067],[127.63727,36.06701],[127.63734,36.06703],[127.63741,36.06707],[127.63748,36.06714],[127.63751,36.06718],[127.63754,36.06721],[127.63761,36.06732],[127.63766,36.06743],[127.63771,36.06756],[127.63775,36.06772],[127.63778,36.06789],[127.63778,36.06808],[127.63777,36.06829],[127.63776,36.06836],[127.63849,36.06824],[127.63927,36.0682],[127.6437,36.06699],[127.64471,36.06657],[127.64861,36.06268],[127.64863,36.06263],[127.64883,36.06217],[127.64887,36.06207],[127.64872,36.06057],[127.64887,36.05882],[127.64896,36.05854],[127.64913,36.05801],[127.64961,36.05768],[127.65038,36.05734],[127.65097,36.05736],[127.65134,36.05741],[127.65187,36.05739],[127.65309,36.05711],[127.65404,36.05641],[127.65503,36.05489],[127.65649,36.05045],[127.65821,36.04688],[127.65991,36.04216],[127.65969,36.04066],[127.65955,36.04057],[127.65952,36.04055],[127.65934,36.04025],[127.65952,36.03944],[127.66026,36.03827],[127.6604,36.03807],[127.66095,36.03791],[127.66543,36.03677],[127.6664,36.03686],[127.66654,36.03691],[127.66684,36.03701],[127.66751,36.03734],[127.66808,36.03763],[127.6692,36.0383],[127.67262,36.04131],[127.67269,36.04176],[127.67181,36.04297],[127.67116,36.04359],[127.67128,36.04624],[127.67138,36.04636],[127.67157,36.04656],[127.6717,36.04843],[127.67081,36.05192],[127.67419,36.05442],[127.67792,36.05649],[127.68077,36.05803],[127.6811,36.05822],[127.68285,36.05983],[127.68386,36.06084],[127.68486,36.0616],[127.68528,36.06182],[127.6873,36.06264],[127.6879,36.0628],[127.68816,36.06282],[127.68858,36.06282],[127.68899,36.06267],[127.68922,36.06255],[127.68952,36.06188],[127.68955,36.06181],[127.68984,36.06105],[127.69002,36.06069],[127.69127,36.05868],[127.69146,36.05856],[127.69523,36.05867]]]]}},{"type":"Feature","properties":{"code":"52730310","name":"무풍면","parent":"52730"},"geometry":{"type":"MultiPolygon","coordinates":[[[[127.91147,35.94945],[127.91146,35.94937],[127.9114,35.94883],[127.91132,35.94836],[127.91116,35.94787],[127.9103,35.9457],[127.91007,35.94532],[127.90646,35.94057],[127.90628,35.94051],[127.90419,35.93973],[127.90034,35.93789],[127.89972,35.93758],[127.89862,35.93702],[127.89763,35.93642],[127.89679,35.93552],[127.89646,35.93487],[127.89617,35.9343],[127.8958,35.93406],[127.89419,35.93323],[127.89362,35.933],[127.89313,35.9328],[127.89152,35.93216],[127.8904,35.93171],[127.88942,35.93145],[127.88894,35.93136],[127.88847,35.93127],[127.88748,35.93118],[127.8869,35.9311],[127.88596,35.93095],[127.88539,35.93086],[127.88508,35.93074],[127.88489,35.93067],[127.88309,35.92944],[127.88251,35.92882],[127.88247,35.92869],[127.88241,35.92854],[127.88238,35.92843],[127.8823,35.92809],[127.88222,35.92774],[127.8824,35.92721],[127.88262,35.92664],[127.88265,35.92656],[127.88291,35.92623],[127.88313,35.92596],[127.88329,35.92561],[127.88347,35.92519],[127.88357,35.92495],[127.88365,35.92474],[127.88378,35.92442],[127.88379,35.92377],[127.88371,35.92335],[127.88365,35.92306],[127.88358,35.92271],[127.8835,35.92235],[127.88327,35.92162],[127.88306,35.92107],[127.88268,35.92059],[127.88243,35.92038],[127.88242,35.92035],[127.88223,35.92015],[127.88262,35.91879],[127.88278,35.91838],[127.88304,35.91791],[127.88319,35.91773],[127.88468,35.91685],[127.88597,35.91607],[127.88634,35.91578],[127.88761,35.91458],[127.88687,35.91448],[127.88567,35.91429],[127.88556,35.91426],[127.88367,35.91367],[127.883,35.91336],[127.8824,35.91308],[127.8784,35.90955],[127.87792,35.9089],[127.87751,35.90817],[127.87723,35.9075],[127.87706,35.90737],[127.87665,35.90715],[127.87093,35.90464],[127.87019,35.90447],[127.86995,35.90442],[127.86771,35.90409],[127.86756,35.90408],[127.86738,35.90407],[127.86728,35.90408],[127.8672,35.90411],[127.86714,35.90417],[127.86696,35.90436],[127.86667,35.90473],[127.86615,35.90554],[127.86591,35.90568],[127.86437,35.90647],[127.86392,35.90666],[127.86324,35.90677],[127.86277,35.90678],[127.85988,35.90665],[127.85954,35.90649],[127.85842,35.90434],[127.85836,35.9042],[127.85814,35.90189],[127.85823,35.90104],[127.85827,35.90103],[127.85885,35.89984],[127.85872,35.89837],[127.85827,35.89702],[127.85709,35.89499],[127.85373,35.89218],[127.85075,35.89005],[127.85078,35.88848],[127.85111,35.88561],[127.8522,35.88433],[127.85267,35.88383],[127.85287,35.88346],[127.85299,35.88167],[127.85299,35.88122],[127.85286,35.88088],[127.8528,35.88073],[127.85241,35.88042],[127.85005,35.87898],[127.84959,35.87875],[127.8484,35.87861],[127.84749,35.87832],[127.84713,35.87815],[127.8469,35.87805],[127.84681,35.87801],[127.84666,35.87786],[127.84637,35.87758],[127.84513,35.87633],[127.84467,35.87575],[127.84475,35.87531],[127.84482,35.87488],[127.84489,35.87427],[127.84496,35.87362],[127.84483,35.87125],[127.84477,35.87104],[127.84471,35.87084],[127.84436,35.87006],[127.84365,35.86916],[127.84358,35.86907],[127.84169,35.86713],[127.84162,35.8671],[127.84156,35.86708],[127.84137,35.867],[127.84094,35.86687],[127.83456,35.86783],[127.83374,35.86822],[127.83334,35.86849],[127.83266,35.86919],[127.83247,35.86938],[127.83217,35.86946],[127.83165,35.86959],[127.83088,35.86974],[127.82883,35.86943],[127.82613,35.86875],[127.8255,35.8685],[127.82533,35.86843],[127.82316,35.86712],[127.82243,35.86667],[127.82181,35.86613],[127.82117,35.8654],[127.82071,35.86462],[127.82012,35.86361],[127.81931,35.86209],[127.81933,35.86142],[127.81751,35.85882],[127.81687,35.85846],[127.81401,35.85672],[127.81369,35.8562],[127.81342,35.8557],[127.81273,35.85283],[127.80838,35.8538],[127.80629,35.85616],[127.80483,35.85695],[127.80387,35.85718],[127.80409,35.85766],[127.80435,35.85871],[127.80443,35.85906],[127.80439,35.86194],[127.80409,35.8623],[127.80362,35.86336],[127.80222,35.86662],[127.80188,35.86756],[127.80138,35.8691],[127.80136,35.86958],[127.80151,35.86989],[127.80172,35.8703],[127.80195,35.87065],[127.80206,35.87142],[127.80192,35.8745],[127.80066,35.87586],[127.8003,35.87603],[127.79699,35.87801],[127.79572,35.87892],[127.79549,35.87926],[127.79337,35.88347],[127.79329,35.88392],[127.79325,35.88414],[127.79337,35.88471],[127.79693,35.88983],[127.80043,35.89459],[127.80077,35.8952],[127.80083,35.89549],[127.80061,35.89622],[127.80018,35.89686],[127.79974,35.89753],[127.79906,35.89876],[127.79887,35.89934],[127.79874,35.89989],[127.79879,35.90045],[127.79912,35.90109],[127.79945,35.90129],[127.7999,35.9015],[127.80062,35.90167],[127.80134,35.90204],[127.80179,35.90231],[127.80204,35.90253],[127.8034,35.90375],[127.80378,35.90423],[127.80406,35.90496],[127.80409,35.90536],[127.80379,35.90609],[127.80335,35.90661],[127.80291,35.90682],[127.80252,35.907],[127.80203,35.90767],[127.80189,35.90788],[127.80136,35.90906],[127.80139,35.90929],[127.80448,35.91501],[127.80474,35.91531],[127.80568,35.91598],[127.80643,35.91646],[127.80663,35.91677],[127.80675,35.92092],[127.80665,35.92358],[127.80645,35.92419],[127.80637,35.92475],[127.8064,35.92491],[127.80645,35.92503],[127.80757,35.92516],[127.80792,35.92518],[127.80877,35.92516],[127.80933,35.92514],[127.80959,35.92512],[127.81012,35.92506],[127.81073,35.92512],[127.81094,35.92525],[127.81123,35.92547],[127.81369,35.92804],[127.8135,35.92886],[127.81342,35.92941],[127.81336,35.9301],[127.81346,35.93057],[127.814,35.93155],[127.8155,35.93354],[127.81661,35.93436],[127.81766,35.93511],[127.81815,35.93566],[127.81826,35.93607],[127.81856,35.94207],[127.81889,35.94412],[127.81874,35.94476],[127.81678,35.94972],[127.81596,35.95029],[127.81551,35.95055],[127.81531,35.95067],[127.81476,35.95137],[127.81447,35.95177],[127.81409,35.95291],[127.81405,35.95317],[127.81406,35.95324],[127.81474,35.95391],[127.81485,35.9541],[127.81489,35.95428],[127.81488,35.95454],[127.81419,35.95596],[127.81075,35.96168],[127.80879,35.96463],[127.80856,35.9648],[127.80844,35.96504],[127.80791,35.96915],[127.80787,35.96981],[127.80791,35.97144],[127.80792,35.97166],[127.80793,35.97183],[127.80812,35.9721],[127.81257,35.97346],[127.81318,35.9735],[127.81745,35.97326],[127.82026,35.97296],[127.82266,35.97372],[127.82367,35.97708],[127.82442,35.98002],[127.82467,35.98076],[127.82488,35.98109],[127.82511,35.98126],[127.82574,35.98145],[127.82715,35.98186],[127.83156,35.98351],[127.83545,35.98566],[127.8361,35.98603],[127.8402,35.98852],[127.84026,35.98864],[127.84025,35.98894],[127.84023,35.989],[127.84019,35.9891],[127.84008,35.98936],[127.84008,35.98964],[127.84009,35.99003],[127.84025,35.99031],[127.84043,35.99046],[127.84175,35.99123],[127.84549,35.99224],[127.84771,35.99236],[127.84802,35.99235],[127.8509,35.99207],[127.85299,35.99171],[127.85339,35.99153],[127.85389,35.99122],[127.85401,35.99111],[127.85464,35.99055],[127.85514,35.99039],[127.85823,35.99006],[127.85886,35.99004],[127.85907,35.99004],[127.868,35.98995],[127.86865,35.99009],[127.87241,35.99181],[127.8727,35.99216],[127.87452,35.99437],[127.87467,35.99461],[127.87495,35.9951],[127.87581,35.99672],[127.87607,35.99653],[127.87678,35.99605],[127.87711,35.99584],[127.88012,35.99408],[127.88339,35.99243],[127.88368,35.99231],[127.88402,35.99217],[127.88465,35.99208],[127.88629,35.99212],[127.88644,35.99212],[127.8867,35.99211],[127.89002,35.98935],[127.89063,35.98863],[127.89149,35.98777],[127.89199,35.98747],[127.89213,35.98739],[127.89303,35.98708],[127.89374,35.98447],[127.89296,35.98412],[127.89194,35.98336],[127.89016,35.98126],[127.88963,35.97985],[127.8896,35.97953],[127.89022,35.97925],[127.89161,35.97871],[127.8924,35.97846],[127.89411,35.97827],[127.89507,35.9782],[127.89551,35.97812],[127.89601,35.97803],[127.89624,35.97791],[127.89661,35.97705],[127.89671,35.97681],[127.89697,35.97617],[127.89707,35.97562],[127.89713,35.97526],[127.89709,35.97457],[127.89708,35.97428],[127.89705,35.97375],[127.89671,35.97269],[127.89651,35.97204],[127.89666,35.9717],[127.89843,35.96893],[127.89958,35.968],[127.89963,35.96794],[127.90009,35.96737],[127.90039,35.96689],[127.90189,35.9609],[127.90228,35.95879],[127.90235,35.9579],[127.9024,35.95776],[127.90249,35.95748],[127.90402,35.95452],[127.90412,35.95434],[127.90448,35.95416],[127.9056,35.95415],[127.90605,35.95412],[127.90615,35.95407],[127.90632,35.95396],[127.90968,35.95177],[127.91062,35.95056],[127.91147,35.94945]]]]}},{"type":"Feature","properties":{"code":"52730320","name":"설천면","parent":"52730"},"geometry":{"type":"MultiPolygon","coordinates":[[[[127.87693,36.02244],[127.87662,36.02189],[127.87627,36.02115],[127.87538,36.01643],[127.87538,36.01489],[127.87599,36.00985],[127.87832,36.00582],[127.87878,36.0026],[127.87882,36.00131],[127.87868,36.00076],[127.87864,36.00071],[127.87839,36.00039],[127.87777,36.00025],[127.87739,36.00029],[127.87728,36.0003],[127.87698,36.00016],[127.87661,35.9999],[127.87635,35.99972],[127.87613,35.99951],[127.876,35.99938],[127.87578,35.99846],[127.87581,35.99672],[127.87495,35.9951],[127.87467,35.99461],[127.87452,35.99437],[127.8727,35.99216],[127.87241,35.99181],[127.86865,35.99009],[127.868,35.98995],[127.85907,35.99004],[127.85886,35.99004],[127.85823,35.99006],[127.85514,35.99039],[127.85464,35.99055],[127.85401,35.99111],[127.85389,35.99122],[127.85339,35.99153],[127.85299,35.99171],[127.8509,35.99207],[127.84802,35.99235],[127.84771,35.99236],[127.84549,35.99224],[127.84175,35.99123],[127.84043,35.99046],[127.84025,35.99031],[127.84009,35.99003],[127.84008,35.98964],[127.84008,35.98936],[127.84019,35.9891],[127.84023,35.989],[127.84025,35.98894],[127.84026,35.98864],[127.8402,35.98852],[127.8361,35.98603],[127.83545,35.98566],[127.83156,35.98351],[127.82715,35.98186],[127.82574,35.98145],[127.82511,35.98126],[127.82488,35.98109],[127.82467,35.98076],[127.82442,35.98002],[127.82367,35.97708],[127.82266,35.97372],[127.82026,35.97296],[127.81745,35.97326],[127.81318,35.9735],[127.81257,35.97346],[127.80812,35.9721],[127.80793,35.97183],[127.80792,35.97166],[127.80791,35.97144],[127.80787,35.96981],[127.80791,35.96915],[127.80844,35.96504],[127.80856,35.9648],[127.80879,35.96463],[127.81075,35.96168],[127.81419,35.95596],[127.81488,35.95454],[127.81489,35.95428],[127.81485,35.9541],[127.81474,35.95391],[127.81406,35.95324],[127.81405,35.95317],[127.81409,35.95291],[127.81447,35.95177],[127.81476,35.95137],[127.81531,35.95067],[127.81551,35.95055],[127.81596,35.95029],[127.81678,35.94972],[127.81874,35.94476],[127.81889,35.94412],[127.81856,35.94207],[127.81826,35.93607],[127.81815,35.93566],[127.81766,35.93511],[127.81661,35.93436],[127.8155,35.93354],[127.814,35.93155],[127.81346,35.93057],[127.81336,35.9301],[127.81342,35.92941],[127.8135,35.92886],[127.81369,35.92804],[127.81123,35.92547],[127.81094,35.92525],[127.81073,35.92512],[127.81012,35.92506],[127.80959,35.92512],[127.80933,35.92514],[127.80877,35.92516],[127.80792,35.92518],[127.80757,35.92516],[127.80645,35.92503],[127.8064,35.92491],[127.80637,35.92475],[127.80645,35.92419],[127.80665,35.92358],[127.80675,35.92092],[127.80663,35.91677],[127.80643,35.91646],[127.80568,35.91598],[127.80474,35.91531],[127.80448,35.91501],[127.80139,35.90929],[127.80136,35.90906],[127.80189,35.90788],[127.80203,35.90767],[127.80252,35.907],[127.80291,35.90682],[127.80335,35.90661],[127.80379,35.90609],[127.80409,35.90536],[127.80406,35.90496],[127.80378,35.90423],[127.8034,35.90375],[127.80204,35.90253],[127.80179,35.90231],[127.80134,35.90204],[127.80062,35.90167],[127.7999,35.9015],[127.79945,35.90129],[127.79912,35.90109],[127.79879,35.90045],[127.79874,35.89989],[127.79887,35.89934],[127.79906,35.89876],[127.79974,35.89753],[127.80018,35.89686],[127.80061,35.89622],[127.80083,35.89549],[127.80077,35.8952],[127.80043,35.89459],[127.79693,35.88983],[127.79337,35.88471],[127.79325,35.88414],[127.79329,35.88392],[127.79337,35.88347],[127.79549,35.87926],[127.79572,35.87892],[127.79699,35.87801],[127.8003,35.87603],[127.80066,35.87586],[127.80192,35.8745],[127.80206,35.87142],[127.80195,35.87065],[127.80172,35.8703],[127.80151,35.86989],[127.80136,35.86958],[127.80138,35.8691],[127.80188,35.86756],[127.80222,35.86662],[127.80362,35.86336],[127.80409,35.8623],[127.80439,35.86194],[127.80443,35.85906],[127.80435,35.85871],[127.80409,35.85766],[127.80387,35.85718],[127.80291,35.85621],[127.80191,35.85533],[127.80003,35.85416],[127.7993,35.85382],[127.79863,35.85382],[127.79795,35.85376],[127.79461,35.85301],[127.79384,35.85271],[127.79368,35.85265],[127.793,35.85197],[127.79258,35.85179],[127.79165,35.85168],[127.79002,35.85151],[127.78851,35.85158],[127.78787,35.85163],[127.78232,35.84923],[127.78049,35.84826],[127.77989,35.84781],[127.77924,35.84717],[127.77932,35.84635],[127.77937,35.8456],[127.77801,35.84403],[127.77718,35.8431],[127.77292,35.83952],[127.77215,35.83893],[127.7683,35.83811],[127.76741,35.838],[127.76668,35.83801],[127.76606,35.83808],[127.76531,35.83845],[127.76517,35.83852],[127.76487,35.83858],[127.7645,35.83866],[127.76318,35.83833],[127.76135,35.83754],[127.75963,35.83704],[127.75839,35.83669],[127.75764,35.83671],[127.75753,35.83672],[127.75407,35.83882],[127.75335,35.8393],[127.75259,35.8399],[127.75193,35.84047],[127.75151,35.84093],[127.75124,35.84166],[127.75102,35.84187],[127.75074,35.84212],[127.74836,35.84301],[127.74744,35.84297],[127.74712,35.8429],[127.74676,35.84283],[127.74556,35.84323],[127.74492,35.84392],[127.7443,35.84664],[127.74417,35.84778],[127.74522,35.84855],[127.74573,35.84896],[127.74734,35.851],[127.74738,35.85173],[127.74629,35.85799],[127.74456,35.86275],[127.74377,35.86478],[127.74223,35.86777],[127.73988,35.87219],[127.73857,35.87281],[127.73687,35.87328],[127.7362,35.87436],[127.73596,35.87527],[127.73562,35.87616],[127.73392,35.87638],[127.72748,35.87692],[127.72229,35.87718],[127.71797,35.88086],[127.71778,35.88159],[127.7178,35.88296],[127.71784,35.88421],[127.71717,35.88493],[127.71796,35.88555],[127.72057,35.88715],[127.72239,35.88802],[127.72732,35.89073],[127.7291,35.89255],[127.72995,35.89347],[127.73035,35.89438],[127.73063,35.89556],[127.73079,35.89598],[127.73098,35.89623],[127.73112,35.89634],[127.73129,35.89647],[127.73486,35.8973],[127.73821,35.89828],[127.73859,35.89845],[127.739,35.89863],[127.74003,35.8992],[127.74078,35.89963],[127.74121,35.90012],[127.74155,35.90157],[127.74159,35.9032],[127.74161,35.90326],[127.74188,35.90446],[127.74189,35.90451],[127.74237,35.90619],[127.74287,35.90682],[127.74298,35.90693],[127.74324,35.90718],[127.74352,35.90746],[127.74452,35.90844],[127.74556,35.90972],[127.747,35.91172],[127.74748,35.91259],[127.74748,35.91319],[127.7473,35.9143],[127.74655,35.91625],[127.74562,35.91771],[127.7444,35.92042],[127.74404,35.9219],[127.74327,35.92478],[127.7417,35.9278],[127.74032,35.93054],[127.73927,35.9334],[127.73931,35.93372],[127.73964,35.93422],[127.7406,35.93501],[127.74097,35.93585],[127.74181,35.94039],[127.74179,35.94109],[127.7397,35.94632],[127.73864,35.94703],[127.7383,35.94734],[127.73829,35.94813],[127.73859,35.95325],[127.73902,35.95416],[127.74321,35.96038],[127.74648,35.96298],[127.74899,35.96459],[127.74946,35.96496],[127.74973,35.96547],[127.75035,35.96836],[127.7503,35.96945],[127.75046,35.9719],[127.75118,35.97483],[127.75131,35.97531],[127.75144,35.97566],[127.75163,35.97606],[127.75175,35.97623],[127.75183,35.97638],[127.75183,35.97676],[127.75169,35.97797],[127.75111,35.97904],[127.74927,35.98124],[127.74849,35.98204],[127.74597,35.98436],[127.74482,35.98506],[127.74479,35.98508],[127.74356,35.98539],[127.74129,35.98541],[127.73777,35.98513],[127.73609,35.98467],[127.73277,35.98408],[127.72701,35.98348],[127.72649,35.98357],[127.7263,35.9836],[127.72418,35.98455],[127.72193,35.98667],[127.71712,35.98915],[127.71367,35.98993],[127.71282,35.9901],[127.71285,35.9905],[127.71312,35.99179],[127.71347,35.99289],[127.71395,35.99403],[127.71535,35.99581],[127.7158,35.99633],[127.7166,35.99725],[127.71676,35.99762],[127.71673,35.99802],[127.71628,35.9987],[127.71487,35.99969],[127.71404,36.00021],[127.71389,36.00064],[127.71398,36.00152],[127.71436,36.00241],[127.71427,36.00272],[127.71414,36.00301],[127.71359,36.00321],[127.70946,36.005],[127.70742,36.00611],[127.70752,36.00617],[127.70768,36.00631],[127.70776,36.00639],[127.70787,36.00652],[127.70806,36.00676],[127.70819,36.00696],[127.70868,36.00774],[127.70871,36.00781],[127.70871,36.00787],[127.70862,36.00869],[127.7086,36.00876],[127.70838,36.00937],[127.70829,36.00956],[127.70815,36.00981],[127.7075,36.01243],[127.70781,36.01366],[127.70811,36.015],[127.70812,36.01505],[127.70845,36.01726],[127.70808,36.01796],[127.70777,36.0191],[127.70756,36.02069],[127.70762,36.0222],[127.70765,36.02248],[127.70772,36.02273],[127.70772,36.02276],[127.7083,36.02448],[127.70834,36.02454],[127.70845,36.02464],[127.70865,36.02473],[127.70903,36.02487],[127.70918,36.02488],[127.71021,36.02492],[127.71107,36.02492],[127.71328,36.0246],[127.71618,36.02425],[127.7164,36.02424],[127.71662,36.02424],[127.71669,36.02424],[127.71783,36.02432],[127.71791,36.02433],[127.71804,36.02438],[127.71822,36.02451],[127.71827,36.02458],[127.71844,36.02493],[127.71965,36.0277],[127.71986,36.0283],[127.71991,36.02855],[127.71996,36.02885],[127.72001,36.02915],[127.72007,36.02981],[127.72008,36.02996],[127.72005,36.03026],[127.71984,36.03044],[127.72284,36.0313],[127.72328,36.03109],[127.72369,36.03047],[127.7247,36.02888],[127.72471,36.02816],[127.7251,36.02751],[127.72666,36.02653],[127.72781,36.0261],[127.72802,36.02617],[127.72822,36.02623],[127.72755,36.02814],[127.72758,36.02885],[127.72815,36.03043],[127.72899,36.03125],[127.72912,36.03134],[127.72994,36.03188],[127.73107,36.03225],[127.73244,36.03223],[127.73248,36.03223],[127.73268,36.03222],[127.73433,36.03209],[127.73498,36.03187],[127.73549,36.03171],[127.7367,36.03086],[127.73839,36.02775],[127.73948,36.02548],[127.74049,36.02487],[127.74211,36.02459],[127.74294,36.02503],[127.74334,36.02572],[127.7436,36.02658],[127.74368,36.02686],[127.74371,36.02712],[127.74377,36.02775],[127.74348,36.02826],[127.74418,36.02867],[127.74602,36.02912],[127.7479,36.02935],[127.7493,36.02833],[127.74983,36.02758],[127.75049,36.02664],[127.75262,36.02469],[127.75537,36.02414],[127.75643,36.02458],[127.75736,36.02497],[127.75816,36.02521],[127.75939,36.02558],[127.7611,36.02546],[127.76189,36.02506],[127.76239,36.0248],[127.76297,36.02373],[127.76326,36.02317],[127.76305,36.0213],[127.76098,36.01843],[127.75982,36.01694],[127.75876,36.01499],[127.76022,36.01365],[127.76154,36.01308],[127.7635,36.0124],[127.76471,36.01208],[127.76631,36.01196],[127.76915,36.01228],[127.76955,36.01242],[127.77085,36.01286],[127.77098,36.01291],[127.77104,36.01295],[127.77152,36.01332],[127.77167,36.01344],[127.77239,36.01383],[127.77261,36.01394],[127.77267,36.01397],[127.77554,36.01501],[127.77593,36.01511],[127.77693,36.01537],[127.77796,36.01563],[127.78054,36.01603],[127.78139,36.01616],[127.78171,36.01618],[127.78306,36.01625],[127.78351,36.01616],[127.78372,36.01612],[127.78785,36.01425],[127.788,36.01433],[127.79033,36.01726],[127.79138,36.01836],[127.79398,36.02078],[127.79762,36.02497],[127.80022,36.02625],[127.80081,36.0265],[127.8029,36.02654],[127.80439,36.02629],[127.81804,36.02787],[127.81874,36.02802],[127.82138,36.03012],[127.82581,36.03274],[127.82631,36.03278],[127.82714,36.03292],[127.82961,36.03383],[127.83259,36.03514],[127.83722,36.03576],[127.83828,36.0359],[127.83888,36.03592],[127.84028,36.03586],[127.84248,36.03649],[127.84301,36.03684],[127.8438,36.03765],[127.84493,36.03822],[127.84596,36.03869],[127.84712,36.03906],[127.84937,36.03966],[127.85165,36.03945],[127.85289,36.03921],[127.85342,36.03905],[127.85407,36.03825],[127.85452,36.03765],[127.85524,36.0359],[127.85523,36.03572],[127.85518,36.03517],[127.85622,36.03296],[127.85698,36.03296],[127.85749,36.03287],[127.85841,36.03241],[127.86065,36.03128],[127.86159,36.03043],[127.86259,36.0293],[127.86368,36.02744],[127.86381,36.0268],[127.8639,36.02663],[127.86427,36.02596],[127.86454,36.02559],[127.86532,36.02507],[127.87124,36.02373],[127.87595,36.02288],[127.87658,36.02266],[127.87693,36.02244]]]]}},{"type":"Feature","properties":{"code":"52730330","name":"적상면","parent":"52730"},"geometry":{"type":"MultiPolygon","coordinates":[[[[127.71282,35.9901],[127.71367,35.98993],[127.71712,35.98915],[127.72193,35.98667],[127.72418,35.98455],[127.7263,35.9836],[127.72649,35.98357],[127.72701,35.98348],[127.73277,35.98408],[127.73609,35.98467],[127.73777,35.98513],[127.74129,35.98541],[127.74356,35.98539],[127.74479,35.98508],[127.74482,35.98506],[127.74597,35.98436],[127.74849,35.98204],[127.74927,35.98124],[127.75111,35.97904],[127.75169,35.97797],[127.75183,35.97676],[127.75183,35.97638],[127.75175,35.97623],[127.75163,35.97606],[127.75144,35.97566],[127.75131,35.97531],[127.75118,35.97483],[127.75046,35.9719],[127.7503,35.96945],[127.75035,35.96836],[127.74973,35.96547],[127.74946,35.96496],[127.74899,35.96459],[127.74648,35.96298],[127.74321,35.96038],[127.73902,35.95416],[127.73859,35.95325],[127.73829,35.94813],[127.7383,35.94734],[127.73864,35.94703],[127.7397,35.94632],[127.74179,35.94109],[127.74181,35.94039],[127.74097,35.93585],[127.7406,35.93501],[127.73964,35.93422],[127.73931,35.93372],[127.73927,35.9334],[127.74032,35.93054],[127.7417,35.9278],[127.74327,35.92478],[127.74404,35.9219],[127.7444,35.92042],[127.74562,35.91771],[127.74655,35.91625],[127.7473,35.9143],[127.74748,35.91319],[127.74748,35.91259],[127.747,35.91172],[127.74556,35.90972],[127.74452,35.90844],[127.74352,35.90746],[127.74324,35.90718],[127.74298,35.90693],[127.74287,35.90682],[127.74237,35.90619],[127.74189,35.90451],[127.74188,35.90446],[127.74161,35.90326],[127.74159,35.9032],[127.74155,35.90157],[127.74121,35.90012],[127.74078,35.89963],[127.74003,35.8992],[127.739,35.89863],[127.73859,35.89845],[127.73821,35.89828],[127.73486,35.8973],[127.73129,35.89647],[127.73112,35.89634],[127.73098,35.89623],[127.73079,35.89598],[127.73063,35.89556],[127.73035,35.89438],[127.72995,35.89347],[127.7291,35.89255],[127.72732,35.89073],[127.72239,35.88802],[127.72057,35.88715],[127.71796,35.88555],[127.71717,35.88493],[127.71627,35.88545],[127.71515,35.8859],[127.71396,35.88621],[127.71254,35.88646],[127.7114,35.8867],[127.70831,35.88793],[127.70555,35.88922],[127.70454,35.88999],[127.70394,35.89089],[127.7036,35.89124],[127.70324,35.89162],[127.70291,35.89192],[127.70277,35.89205],[127.70201,35.8923],[127.70182,35.89227],[127.70118,35.89217],[127.70077,35.89195],[127.70034,35.89172],[127.69938,35.89093],[127.69832,35.8903],[127.69533,35.88958],[127.69374,35.8894],[127.69192,35.88952],[127.69084,35.88933],[127.68647,35.88808],[127.68595,35.88791],[127.6808,35.88539],[127.6802,35.88491],[127.67979,35.88399],[127.6796,35.88387],[127.67904,35.88397],[127.679,35.88398],[127.67878,35.88405],[127.6782,35.88421],[127.67678,35.88545],[127.67594,35.88641],[127.67562,35.88724],[127.67512,35.88747],[127.67454,35.88751],[127.67443,35.88747],[127.67399,35.88731],[127.67168,35.88517],[127.67077,35.8842],[127.6698,35.88336],[127.66931,35.88304],[127.66474,35.88144],[127.66165,35.87937],[127.65954,35.87834],[127.6569,35.8797],[127.65628,35.88048],[127.65551,35.88104],[127.65472,35.88121],[127.65347,35.88132],[127.65206,35.88133],[127.65115,35.88157],[127.64874,35.88366],[127.64812,35.88432],[127.64735,35.88527],[127.64616,35.88684],[127.64583,35.88739],[127.64579,35.88789],[127.64589,35.88885],[127.64572,35.8893],[127.64437,35.89091],[127.64363,35.89161],[127.64286,35.89221],[127.64186,35.89281],[127.64163,35.89263],[127.64115,35.89181],[127.64031,35.89058],[127.6362,35.88794],[127.63104,35.88775],[127.62743,35.88765],[127.62682,35.88764],[127.62286,35.88662],[127.62234,35.88619],[127.62107,35.88528],[127.62075,35.88513],[127.62032,35.88497],[127.618,35.88426],[127.61757,35.88418],[127.61687,35.88412],[127.61613,35.88413],[127.61123,35.88426],[127.60686,35.88474],[127.60658,35.88509],[127.60585,35.88572],[127.6051,35.88626],[127.6041,35.88684],[127.60221,35.88818],[127.60214,35.88851],[127.60207,35.89351],[127.60275,35.89885],[127.60318,35.90097],[127.60407,35.90337],[127.60442,35.90397],[127.6048,35.90443],[127.60511,35.9051],[127.60551,35.90672],[127.60552,35.9069],[127.60548,35.90721],[127.60511,35.91051],[127.60481,35.91185],[127.60364,35.91439],[127.60272,35.91597],[127.60162,35.91759],[127.59998,35.91893],[127.59925,35.91951],[127.59851,35.92022],[127.59818,35.92107],[127.59786,35.92214],[127.59774,35.92242],[127.59748,35.92287],[127.59715,35.9231],[127.59642,35.92323],[127.5954,35.9235],[127.59534,35.92351],[127.59424,35.9239],[127.59349,35.92425],[127.59323,35.92443],[127.5929,35.92466],[127.59268,35.92491],[127.59248,35.92515],[127.59175,35.92903],[127.58974,35.93362],[127.58917,35.93441],[127.58887,35.93529],[127.58875,35.93607],[127.5888,35.93675],[127.59011,35.94003],[127.59135,35.94285],[127.59165,35.94486],[127.59185,35.94891],[127.58947,35.95266],[127.58906,35.95316],[127.58834,35.95377],[127.58755,35.95432],[127.58649,35.95533],[127.5845,35.9574],[127.5844,35.95776],[127.58439,35.95803],[127.58444,35.95842],[127.58515,35.96111],[127.58564,35.96234],[127.5861,35.96326],[127.58689,35.96438],[127.59006,35.96786],[127.59273,35.97063],[127.59475,35.97286],[127.59498,35.97285],[127.59578,35.97285],[127.59682,35.97297],[127.59714,35.97302],[127.59795,35.97321],[127.59921,35.97382],[127.60006,35.97427],[127.60052,35.97458],[127.60073,35.97485],[127.60087,35.97511],[127.60127,35.9757],[127.60156,35.97604],[127.60293,35.97746],[127.60324,35.97777],[127.60357,35.97795],[127.60387,35.97786],[127.60653,35.97706],[127.60709,35.97683],[127.60773,35.97649],[127.61231,35.97398],[127.61598,35.97177],[127.61823,35.96877],[127.6185,35.96856],[127.61884,35.96843],[127.61915,35.96842],[127.6195,35.96842],[127.61988,35.96854],[127.62588,35.9707],[127.62697,35.97111],[127.62737,35.97155],[127.62763,35.97183],[127.62808,35.97203],[127.62861,35.97193],[127.62978,35.97139],[127.63108,35.97062],[127.63365,35.96903],[127.63429,35.96848],[127.63647,35.96512],[127.63665,35.96448],[127.63667,35.96439],[127.63656,35.96262],[127.63626,35.96128],[127.6365,35.96094],[127.64574,35.95569],[127.64663,35.95519],[127.64721,35.95512],[127.648,35.95508],[127.64867,35.95517],[127.65166,35.9559],[127.65213,35.95621],[127.65215,35.95646],[127.65224,35.95726],[127.65245,35.95775],[127.65293,35.95837],[127.65386,35.95908],[127.65521,35.95986],[127.65554,35.96029],[127.65561,35.96057],[127.65637,35.96233],[127.6569,35.96352],[127.66117,35.96647],[127.66323,35.96762],[127.66413,35.96846],[127.66604,35.97233],[127.6662,35.97287],[127.6665,35.97416],[127.66689,35.97489],[127.66698,35.97506],[127.66737,35.97539],[127.6684,35.97543],[127.67018,35.97536],[127.67092,35.975],[127.67248,35.97376],[127.6732,35.97293],[127.67404,35.97156],[127.67489,35.97091],[127.67615,35.97042],[127.67798,35.97009],[127.67849,35.96983],[127.68107,35.9685],[127.68174,35.96799],[127.68284,35.96953],[127.68283,35.97539],[127.68255,35.97614],[127.68207,35.97708],[127.68073,35.97943],[127.67927,35.98164],[127.67779,35.98351],[127.67756,35.9842],[127.6776,35.98471],[127.68364,35.99096],[127.68412,35.99124],[127.69171,35.99225],[127.69903,35.99247],[127.69952,35.9923],[127.70007,35.99172],[127.70079,35.99108],[127.70254,35.99045],[127.70402,35.99015],[127.7096,35.98949],[127.70991,35.98948],[127.71071,35.98952],[127.71282,35.9901]]]]}},{"type":"Feature","properties":{"code":"52730340","name":"안성면","parent":"52730"},"geometry":{"type":"MultiPolygon","coordinates":[[[[127.71717,35.88493],[127.71784,35.88421],[127.7178,35.88296],[127.71778,35.88159],[127.71797,35.88086],[127.72229,35.87718],[127.72748,35.87692],[127.73392,35.87638],[127.73562,35.87616],[127.73596,35.87527],[127.7362,35.87436],[127.73687,35.87328],[127.73857,35.87281],[127.73988,35.87219],[127.74223,35.86777],[127.74377,35.86478],[127.74456,35.86275],[127.74629,35.85799],[127.74738,35.85173],[127.74734,35.851],[127.74573,35.84896],[127.74522,35.84855],[127.74417,35.84778],[127.7443,35.84664],[127.74492,35.84392],[127.74441,35.84433],[127.74436,35.84428],[127.74412,35.84405],[127.74328,35.84246],[127.74126,35.83888],[127.73973,35.83728],[127.73808,35.83513],[127.73794,35.8347],[127.73834,35.83196],[127.73842,35.83145],[127.73909,35.83079],[127.73905,35.82916],[127.7388,35.82772],[127.73867,35.82706],[127.73865,35.82697],[127.73822,35.82651],[127.73759,35.82609],[127.73653,35.82558],[127.73569,35.82522],[127.73535,35.82485],[127.7326,35.82084],[127.73239,35.81882],[127.73231,35.81823],[127.73196,35.81707],[127.73162,35.81592],[127.73093,35.8144],[127.73065,35.814],[127.73041,35.81365],[127.7298,35.81308],[127.72969,35.81303],[127.72941,35.81291],[127.72911,35.81293],[127.72887,35.81303],[127.72839,35.81323],[127.72785,35.81335],[127.72584,35.81325],[127.72576,35.81323],[127.72539,35.81311],[127.72509,35.81293],[127.72338,35.81061],[127.72336,35.81035],[127.72368,35.80946],[127.72417,35.808],[127.72432,35.80672],[127.72411,35.80546],[127.72385,35.80459],[127.72345,35.80392],[127.72286,35.80351],[127.72208,35.8031],[127.72161,35.80285],[127.72042,35.80128],[127.72,35.80041],[127.71995,35.8003],[127.71979,35.79971],[127.71968,35.79884],[127.71955,35.79741],[127.71928,35.79706],[127.71757,35.79611],[127.71579,35.79523],[127.71458,35.79467],[127.71353,35.79409],[127.71237,35.79336],[127.7121,35.79317],[127.71152,35.79276],[127.71035,35.79162],[127.70978,35.7914],[127.70936,35.79125],[127.70894,35.79123],[127.70806,35.79144],[127.70788,35.79151],[127.70723,35.79177],[127.7069,35.79187],[127.70652,35.79186],[127.70467,35.79116],[127.70135,35.78956],[127.70037,35.78895],[127.70002,35.7886],[127.69965,35.78822],[127.69588,35.79009],[127.69371,35.79133],[127.69084,35.79347],[127.68829,35.79541],[127.68798,35.79596],[127.68796,35.79706],[127.688,35.79824],[127.68831,35.79975],[127.68829,35.80073],[127.68822,35.80108],[127.68796,35.80177],[127.68721,35.80342],[127.68688,35.80388],[127.6857,35.80448],[127.6843,35.80497],[127.68212,35.80567],[127.68188,35.8059],[127.6793,35.80839],[127.67803,35.80974],[127.67723,35.81033],[127.6759,35.81031],[127.67456,35.81013],[127.67424,35.81008],[127.67124,35.80987],[127.67093,35.80997],[127.67067,35.81018],[127.67035,35.81138],[127.67027,35.81214],[127.67,35.81277],[127.66897,35.81415],[127.66811,35.81456],[127.66701,35.81501],[127.66602,35.81541],[127.66552,35.81564],[127.66488,35.81642],[127.66472,35.81665],[127.66414,35.81747],[127.66367,35.8179],[127.66332,35.81817],[127.66304,35.81828],[127.66265,35.81826],[127.66237,35.8181],[127.65996,35.81625],[127.65918,35.81559],[127.65913,35.81551],[127.6574,35.81393],[127.65504,35.81181],[127.65479,35.81159],[127.65436,35.81137],[127.65393,35.81125],[127.65334,35.81121],[127.64827,35.8115],[127.64576,35.81168],[127.64498,35.81186],[127.64472,35.81197],[127.64405,35.81231],[127.64373,35.81248],[127.64241,35.81317],[127.64148,35.81372],[127.63988,35.81514],[127.63954,35.81532],[127.63882,35.81561],[127.63762,35.81598],[127.63694,35.81616],[127.63639,35.81618],[127.63556,35.81609],[127.63454,35.81577],[127.63305,35.81466],[127.63229,35.81405],[127.63033,35.81307],[127.62997,35.81357],[127.62985,35.81448],[127.62985,35.81473],[127.62741,35.81729],[127.62701,35.81767],[127.62641,35.81805],[127.6253,35.81879],[127.62455,35.81933],[127.62421,35.81961],[127.62111,35.82352],[127.62079,35.82437],[127.62071,35.82468],[127.62082,35.82545],[127.62168,35.82778],[127.62211,35.82878],[127.62259,35.83091],[127.62268,35.83141],[127.62239,35.83207],[127.62153,35.83388],[127.62142,35.83407],[127.6198,35.8397],[127.62075,35.84057],[127.62134,35.84128],[127.62141,35.84166],[127.62163,35.84229],[127.62206,35.84281],[127.62286,35.84326],[127.62426,35.84389],[127.62455,35.84402],[127.62612,35.84455],[127.62656,35.84466],[127.62762,35.84472],[127.62808,35.84473],[127.62823,35.84474],[127.62836,35.84486],[127.62842,35.84501],[127.62838,35.84513],[127.62701,35.84615],[127.62579,35.84684],[127.62433,35.84754],[127.62393,35.84775],[127.62252,35.84852],[127.6217,35.84901],[127.62093,35.85035],[127.61952,35.85333],[127.61977,35.85467],[127.6198,35.85496],[127.61962,35.85545],[127.6176,35.85864],[127.61705,35.85933],[127.6164,35.85975],[127.61565,35.85983],[127.6142,35.85956],[127.61309,35.85972],[127.61234,35.85984],[127.60911,35.86081],[127.60859,35.86197],[127.60825,35.86362],[127.60799,35.86516],[127.60732,35.8657],[127.60297,35.86912],[127.5991,35.87233],[127.59821,35.87443],[127.59826,35.87621],[127.59817,35.87819],[127.59809,35.87896],[127.59795,35.87985],[127.59769,35.88073],[127.5976,35.88081],[127.59877,35.88078],[127.60173,35.88063],[127.60212,35.88053],[127.60226,35.8805],[127.60264,35.88044],[127.60318,35.8806],[127.60372,35.88077],[127.60425,35.88111],[127.60439,35.88123],[127.60459,35.88141],[127.60539,35.88216],[127.60564,35.88269],[127.60565,35.88293],[127.60569,35.88334],[127.60577,35.88356],[127.60591,35.88395],[127.60615,35.88417],[127.60686,35.88474],[127.61123,35.88426],[127.61613,35.88413],[127.61687,35.88412],[127.61757,35.88418],[127.618,35.88426],[127.62032,35.88497],[127.62075,35.88513],[127.62107,35.88528],[127.62234,35.88619],[127.62286,35.88662],[127.62682,35.88764],[127.62743,35.88765],[127.63104,35.88775],[127.6362,35.88794],[127.64031,35.89058],[127.64115,35.89181],[127.64163,35.89263],[127.64186,35.89281],[127.64286,35.89221],[127.64363,35.89161],[127.64437,35.89091],[127.64572,35.8893],[127.64589,35.88885],[127.64579,35.88789],[127.64583,35.88739],[127.64616,35.88684],[127.64735,35.88527],[127.64812,35.88432],[127.64874,35.88366],[127.65115,35.88157],[127.65206,35.88133],[127.65347,35.88132],[127.65472,35.88121],[127.65551,35.88104],[127.65628,35.88048],[127.6569,35.8797],[127.65954,35.87834],[127.66165,35.87937],[127.66474,35.88144],[127.66931,35.88304],[127.6698,35.88336],[127.67077,35.8842],[127.67168,35.88517],[127.67399,35.88731],[127.67443,35.88747],[127.67454,35.88751],[127.67512,35.88747],[127.67562,35.88724],[127.67594,35.88641],[127.67678,35.88545],[127.6782,35.88421],[127.67878,35.88405],[127.679,35.88398],[127.67904,35.88397],[127.6796,35.88387],[127.67979,35.88399],[127.6802,35.88491],[127.6808,35.88539],[127.68595,35.88791],[127.68647,35.88808],[127.69084,35.88933],[127.69192,35.88952],[127.69374,35.8894],[127.69533,35.88958],[127.69832,35.8903],[127.69938,35.89093],[127.70034,35.89172],[127.70077,35.89195],[127.70118,35.89217],[127.70182,35.89227],[127.70201,35.8923],[127.70277,35.89205],[127.70291,35.89192],[127.70324,35.89162],[127.7036,35.89124],[127.70394,35.89089],[127.70454,35.88999],[127.70555,35.88922],[127.70831,35.88793],[127.7114,35.8867],[127.71254,35.88646],[127.71396,35.88621],[127.71515,35.8859],[127.71627,35.88545],[127.71717,35.88493]]]]}},{"type":"Feature","properties":{"code":"52730350","name":"부남면","parent":"52730"},"geometry":{"type":"MultiPolygon","coordinates":[[[[127.60495,36.0116],[127.60507,36.01146],[127.60509,36.01132],[127.60487,36.01033],[127.6039,36.0073],[127.60275,36.00546],[127.60149,36.0026],[127.60098,36.00012],[127.60026,35.99641],[127.60028,35.99442],[127.60009,35.99144],[127.60006,35.99105],[127.59971,35.99011],[127.59938,35.98968],[127.59826,35.98836],[127.59797,35.98803],[127.59599,35.98663],[127.59543,35.98638],[127.59405,35.98584],[127.5932,35.98538],[127.5928,35.98506],[127.59242,35.98463],[127.59212,35.98404],[127.59198,35.9837],[127.59212,35.98341],[127.59373,35.98133],[127.59575,35.97711],[127.59589,35.97646],[127.59579,35.9758],[127.59562,35.97477],[127.59528,35.97389],[127.59478,35.97292],[127.59475,35.97286],[127.59273,35.97063],[127.59006,35.96786],[127.58689,35.96438],[127.5861,35.96326],[127.58564,35.96234],[127.58515,35.96111],[127.58444,35.95842],[127.58439,35.95803],[127.5844,35.95776],[127.5845,35.9574],[127.58649,35.95533],[127.58755,35.95432],[127.58834,35.95377],[127.58906,35.95316],[127.58947,35.95266],[127.59185,35.94891],[127.59165,35.94486],[127.59135,35.94285],[127.59011,35.94003],[127.5888,35.93675],[127.58875,35.93607],[127.58887,35.93529],[127.58917,35.93441],[127.58974,35.93362],[127.59175,35.92903],[127.59248,35.92515],[127.59268,35.92491],[127.5929,35.92466],[127.59323,35.92443],[127.59349,35.92425],[127.59424,35.9239],[127.59534,35.92351],[127.5954,35.9235],[127.59642,35.92323],[127.59715,35.9231],[127.59748,35.92287],[127.59774,35.92242],[127.59786,35.92214],[127.59818,35.92107],[127.59851,35.92022],[127.59925,35.91951],[127.59998,35.91893],[127.60162,35.91759],[127.60272,35.91597],[127.60364,35.91439],[127.60481,35.91185],[127.60511,35.91051],[127.60548,35.90721],[127.60552,35.9069],[127.60551,35.90672],[127.60511,35.9051],[127.6048,35.90443],[127.60442,35.90397],[127.60407,35.90337],[127.60318,35.90097],[127.60275,35.89885],[127.60207,35.89351],[127.60214,35.88851],[127.60221,35.88818],[127.6041,35.88684],[127.6051,35.88626],[127.60585,35.88572],[127.60658,35.88509],[127.60686,35.88474],[127.60615,35.88417],[127.60591,35.88395],[127.60577,35.88356],[127.60569,35.88334],[127.60565,35.88293],[127.60564,35.88269],[127.60539,35.88216],[127.60459,35.88141],[127.60439,35.88123],[127.60425,35.88111],[127.60372,35.88077],[127.60318,35.8806],[127.60264,35.88044],[127.60226,35.8805],[127.60212,35.88053],[127.60173,35.88063],[127.59877,35.88078],[127.5976,35.88081],[127.59685,35.88084],[127.59579,35.88109],[127.59436,35.8814],[127.59343,35.8816],[127.59297,35.8816],[127.59259,35.8816],[127.59229,35.88146],[127.59207,35.88135],[127.59183,35.88113],[127.59141,35.88067],[127.59005,35.87876],[127.58991,35.8785],[127.58947,35.87784],[127.58902,35.87756],[127.58264,35.87569],[127.58186,35.87579],[127.5811,35.87617],[127.58097,35.87629],[127.57993,35.87708],[127.57626,35.87896],[127.57488,35.87938],[127.57564,35.88069],[127.57579,35.88097],[127.57586,35.88119],[127.57586,35.8815],[127.57578,35.88189],[127.57567,35.88253],[127.57566,35.88291],[127.57583,35.88333],[127.57798,35.88728],[127.57818,35.88761],[127.57854,35.88791],[127.57906,35.88809],[127.57943,35.8883],[127.57985,35.88861],[127.58022,35.88891],[127.58043,35.88918],[127.58049,35.88942],[127.58059,35.89017],[127.58062,35.89072],[127.58082,35.89191],[127.58163,35.8933],[127.58344,35.89578],[127.58385,35.89622],[127.58393,35.89824],[127.58396,35.89985],[127.58396,35.89998],[127.58286,35.90294],[127.58223,35.90355],[127.58082,35.9045],[127.5802,35.90469],[127.58011,35.90473],[127.5799,35.90484],[127.57959,35.90499],[127.5793,35.90513],[127.57898,35.90536],[127.57856,35.9057],[127.57801,35.90636],[127.57789,35.90654],[127.57745,35.90732],[127.57727,35.90772],[127.57717,35.90794],[127.57672,35.90852],[127.57563,35.90954],[127.57448,35.91027],[127.5739,35.91059],[127.57341,35.91086],[127.57077,35.91229],[127.57056,35.9124],[127.56829,35.91591],[127.56732,35.91772],[127.56682,35.91838],[127.56332,35.92285],[127.56311,35.92298],[127.56176,35.92307],[127.55905,35.92299],[127.55826,35.92288],[127.55781,35.92275],[127.55686,35.92264],[127.5563,35.92258],[127.55579,35.9226],[127.55551,35.92264],[127.55515,35.92275],[127.5549,35.92286],[127.5542,35.92331],[127.55387,35.92356],[127.55353,35.9239],[127.55302,35.92447],[127.54986,35.92899],[127.54973,35.92923],[127.5485,35.93239],[127.54835,35.93278],[127.54835,35.93293],[127.54842,35.93329],[127.54856,35.93365],[127.54932,35.93489],[127.54973,35.93548],[127.55023,35.93606],[127.55104,35.93664],[127.5517,35.93694],[127.55223,35.93724],[127.5525,35.93744],[127.5526,35.9377],[127.55272,35.93852],[127.55268,35.93951],[127.55257,35.94013],[127.55251,35.94064],[127.55262,35.94125],[127.55331,35.94356],[127.55453,35.94549],[127.55457,35.94589],[127.55457,35.94624],[127.55451,35.94641],[127.55405,35.94658],[127.55381,35.94663],[127.5533,35.94675],[127.55292,35.94686],[127.55252,35.94698],[127.55223,35.94716],[127.55204,35.94734],[127.55179,35.94759],[127.55168,35.94777],[127.55155,35.94805],[127.55149,35.94865],[127.55146,35.94956],[127.5514,35.9502],[127.55126,35.9505],[127.55,35.95289],[127.5498,35.95315],[127.54959,35.95331],[127.54747,35.95504],[127.546,35.95819],[127.546,35.95855],[127.5463,35.95935],[127.54663,35.96018],[127.54676,35.961],[127.54667,35.96151],[127.54518,35.9634],[127.54494,35.9635],[127.54454,35.96338],[127.54417,35.96325],[127.54389,35.96325],[127.54365,35.96325],[127.54276,35.96338],[127.54211,35.96348],[127.54099,35.9637],[127.54065,35.96387],[127.54041,35.96401],[127.5402,35.9642],[127.53917,35.96516],[127.53902,35.96556],[127.53892,35.96595],[127.53892,35.9667],[127.53899,35.96722],[127.53907,35.96757],[127.53911,35.96803],[127.53906,35.96831],[127.53892,35.96859],[127.53867,35.96894],[127.53691,35.97055],[127.5367,35.97071],[127.53621,35.97098],[127.5354,35.97131],[127.53523,35.97139],[127.53487,35.97157],[127.53466,35.97183],[127.53456,35.97206],[127.53471,35.97257],[127.53545,35.97336],[127.53634,35.9743],[127.53654,35.97454],[127.53668,35.97482],[127.53704,35.9756],[127.53721,35.97609],[127.53725,35.9765],[127.53714,35.97729],[127.53704,35.97775],[127.53687,35.97801],[127.53677,35.97807],[127.53655,35.97811],[127.53263,35.97779],[127.53235,35.97764],[127.53174,35.97733],[127.53041,35.97725],[127.5299,35.97722],[127.52886,35.97723],[127.52831,35.97729],[127.52786,35.97744],[127.52758,35.97755],[127.52709,35.97791],[127.52687,35.97814],[127.52667,35.97844],[127.52657,35.97866],[127.52649,35.97903],[127.52648,35.97954],[127.52657,35.9803],[127.52673,35.98125],[127.52676,35.98174],[127.52674,35.98303],[127.52671,35.98326],[127.52653,35.98349],[127.52473,35.98557],[127.5251,35.98579],[127.5269,35.98786],[127.52847,35.98995],[127.5313,35.99071],[127.53367,35.99211],[127.53581,35.99494],[127.53644,35.99642],[127.53645,35.99726],[127.53633,36.0007],[127.53378,36.00584],[127.5334,36.00638],[127.53242,36.0072],[127.53231,36.00813],[127.53254,36.00856],[127.5331,36.00959],[127.53415,36.00951],[127.53536,36.00966],[127.5385,36.01055],[127.53908,36.01079],[127.53974,36.01127],[127.5399,36.01144],[127.54018,36.01173],[127.54016,36.01176],[127.53878,36.01369],[127.53834,36.01405],[127.5378,36.01546],[127.53629,36.02139],[127.53715,36.02304],[127.53833,36.02385],[127.5393,36.02601],[127.53921,36.02692],[127.53919,36.02718],[127.53781,36.02738],[127.5375,36.03137],[127.53771,36.03238],[127.53792,36.03297],[127.53647,36.03414],[127.53604,36.03431],[127.53294,36.03503],[127.53224,36.03484],[127.53177,36.03466],[127.5316,36.03486],[127.53066,36.03878],[127.53091,36.04062],[127.53116,36.04089],[127.53165,36.04114],[127.53239,36.04106],[127.53299,36.04095],[127.53305,36.04094],[127.53362,36.04081],[127.53413,36.04067],[127.53429,36.04062],[127.53459,36.04053],[127.53499,36.04039],[127.53536,36.04027],[127.53567,36.04018],[127.53571,36.04017],[127.53604,36.04009],[127.53904,36.03949],[127.53982,36.03935],[127.54046,36.03935],[127.54069,36.03935],[127.54091,36.03934],[127.54113,36.03932],[127.54134,36.03927],[127.54714,36.03807],[127.54718,36.03806],[127.54728,36.03803],[127.54741,36.03797],[127.54752,36.0379],[127.54923,36.03657],[127.55069,36.0352],[127.55086,36.03504],[127.55102,36.03487],[127.55106,36.03482],[127.55117,36.03469],[127.5513,36.03452],[127.55141,36.03434],[127.55151,36.03416],[127.5516,36.03398],[127.55168,36.03382],[127.55175,36.03365],[127.5518,36.0335],[127.55182,36.03347],[127.55186,36.03336],[127.5519,36.03327],[127.55191,36.03322],[127.55196,36.03315],[127.55198,36.0331],[127.55208,36.03299],[127.55212,36.03297],[127.55221,36.0329],[127.55238,36.03281],[127.55261,36.03274],[127.5529,36.03267],[127.55327,36.03262],[127.55369,36.03258],[127.55416,36.03256],[127.55466,36.03254],[127.55517,36.03254],[127.55567,36.03255],[127.55615,36.03258],[127.55659,36.03262],[127.55699,36.03268],[127.55733,36.03274],[127.56048,36.03231],[127.56583,36.03104],[127.56618,36.03095],[127.56652,36.03084],[127.56674,36.03074],[127.56684,36.0307],[127.56715,36.03054],[127.56744,36.03036],[127.5676,36.03025],[127.56771,36.03017],[127.56783,36.03007],[127.56796,36.02996],[127.56805,36.02988],[127.56819,36.02975],[127.57273,36.02553],[127.5742,36.02376],[127.57433,36.02359],[127.57438,36.02353],[127.57457,36.0233],[127.57478,36.02309],[127.57501,36.02291],[127.57527,36.02276],[127.57557,36.02266],[127.5759,36.0226],[127.57628,36.0226],[127.57669,36.02266],[127.5769,36.02271],[127.57712,36.02276],[127.57756,36.02291],[127.57801,36.02309],[127.57844,36.0233],[127.57885,36.02354],[127.57923,36.02379],[127.57956,36.02406],[127.57986,36.02433],[127.58012,36.02461],[127.58036,36.02489],[127.58058,36.02516],[127.58078,36.02542],[127.58098,36.02567],[127.58118,36.0259],[127.58123,36.02595],[127.58138,36.02611],[127.5816,36.02629],[127.58182,36.02644],[127.58205,36.02656],[127.5823,36.02665],[127.58256,36.02671],[127.58285,36.02672],[127.58314,36.0267],[127.58346,36.02664],[127.58914,36.02557],[127.58946,36.0255],[127.58977,36.02543],[127.59007,36.02535],[127.59023,36.0253],[127.59035,36.02526],[127.59059,36.02519],[127.5908,36.0251],[127.591,36.02502],[127.59115,36.02492],[127.59129,36.02481],[127.59141,36.02466],[127.59151,36.02449],[127.59156,36.02437],[127.5916,36.02427],[127.59167,36.02401],[127.59174,36.02369],[127.59181,36.02333],[127.5919,36.02293],[127.59194,36.02278],[127.592,36.02252],[127.59214,36.02208],[127.59232,36.02165],[127.59255,36.02122],[127.59284,36.02081],[127.5932,36.02043],[127.59362,36.02007],[127.59407,36.01974],[127.59455,36.01942],[127.59504,36.01911],[127.59543,36.01887],[127.59552,36.01881],[127.59598,36.01852],[127.5964,36.01823],[127.59677,36.01793],[127.59709,36.01763],[127.59737,36.01733],[127.59762,36.01701],[127.59785,36.01668],[127.59805,36.01633],[127.59825,36.01596],[127.59837,36.0157],[127.59844,36.01557],[127.59863,36.01515],[127.59884,36.01472],[127.59907,36.01429],[127.59933,36.01386],[127.59943,36.01372],[127.59962,36.01346],[127.59996,36.01308],[127.60036,36.01275],[127.60082,36.01247],[127.60135,36.01225],[127.60193,36.01208],[127.60255,36.01196],[127.60317,36.01186],[127.60495,36.0116]]]]}}]}