{"type":"FeatureCollection","features":[{"type":"Feature","properties":{"code":"47820250","name":"화양읍","parent":"47820"},"geometry":{"type":"MultiPolygon","coordinates":[[[[128.74359,35.70387],[128.7435,35.7038],[128.74192,35.70288],[128.74168,35.70278],[128.74079,35.70253],[128.73962,35.70216],[128.73935,35.70205],[128.73785,35.70079],[128.73771,35.70066],[128.73765,35.70054],[128.73774,35.7001],[128.73776,35.69981],[128.73769,35.69962],[128.73749,35.69938],[128.73711,35.69903],[128.73657,35.69863],[128.73527,35.69772],[128.7337,35.69594],[128.73405,35.69468],[128.7341,35.69443],[128.73426,35.69255],[128.73412,35.69188],[128.73386,35.69094],[128.73343,35.68988],[128.73342,35.68979],[128.73334,35.68806],[128.7343,35.68571],[128.73456,35.68547],[128.73498,35.68518],[128.73646,35.68347],[128.73889,35.6803],[128.7391,35.67993],[128.7392,35.67957],[128.73923,35.67918],[128.73924,35.67896],[128.73932,35.67885],[128.73942,35.6787],[128.74122,35.67641],[128.74134,35.67633],[128.74231,35.6761],[128.74267,35.67605],[128.7429,35.676],[128.74309,35.67593],[128.74328,35.67583],[128.74338,35.67572],[128.74609,35.6717],[128.74617,35.67158],[128.74624,35.67111],[128.74631,35.67056],[128.74639,35.66914],[128.74639,35.66855],[128.74638,35.66836],[128.74633,35.6682],[128.74466,35.66562],[128.74457,35.66551],[128.74448,35.66545],[128.74432,35.66537],[128.7416,35.66452],[128.74002,35.6643],[128.73949,35.66429],[128.73769,35.6641],[128.73686,35.664],[128.73644,35.66393],[128.73638,35.66389],[128.73633,35.66382],[128.73623,35.66331],[128.73621,35.66315],[128.73629,35.66285],[128.73666,35.66192],[128.73939,35.6578],[128.73959,35.65761],[128.7399,35.65736],[128.74053,35.65692],[128.74203,35.65578],[128.74325,35.65431],[128.74356,35.6527],[128.74343,35.65247],[128.74331,35.65226],[128.74194,35.65064],[128.74172,35.65041],[128.74121,35.64993],[128.74109,35.64985],[128.74094,35.64973],[128.74072,35.64958],[128.73979,35.64914],[128.73939,35.64896],[128.7393,35.64892],[128.73898,35.6488],[128.73856,35.64866],[128.73841,35.6486],[128.73808,35.6485],[128.73628,35.64777],[128.73455,35.64701],[128.73399,35.64675],[128.73378,35.64665],[128.73289,35.64615],[128.73261,35.64566],[128.73336,35.64491],[128.73496,35.64177],[128.73753,35.63528],[128.73778,35.63411],[128.73779,35.63397],[128.73771,35.63383],[128.73722,35.63316],[128.737,35.63295],[128.73585,35.63075],[128.73556,35.62841],[128.73536,35.6262],[128.73528,35.6258],[128.73525,35.62568],[128.73519,35.62548],[128.73176,35.61999],[128.7316,35.61975],[128.73079,35.61871],[128.72923,35.61778],[128.72898,35.61769],[128.72797,35.61749],[128.72419,35.61664],[128.72276,35.61624],[128.72061,35.61561],[128.72035,35.61551],[128.72029,35.61531],[128.72027,35.615],[128.72026,35.61496],[128.72023,35.61475],[128.72018,35.61466],[128.72006,35.6145],[128.71988,35.61439],[128.71916,35.61408],[128.71895,35.614],[128.71858,35.61389],[128.71678,35.61342],[128.71597,35.61326],[128.71581,35.61324],[128.7156,35.61329],[128.71522,35.61345],[128.71399,35.61363],[128.7131,35.6137],[128.71261,35.61373],[128.71046,35.61361],[128.71001,35.61358],[128.70968,35.61352],[128.70935,35.61343],[128.70902,35.6133],[128.70868,35.61316],[128.70833,35.61298],[128.70799,35.61278],[128.70774,35.61265],[128.70758,35.6126],[128.70654,35.6127],[128.70633,35.61274],[128.70484,35.61307],[128.70466,35.61313],[128.70457,35.61316],[128.70402,35.61469],[128.70253,35.61938],[128.70107,35.623],[128.69937,35.62764],[128.69932,35.62803],[128.69913,35.62967],[128.69911,35.62988],[128.69913,35.63009],[128.69923,35.63066],[128.69931,35.63104],[128.69948,35.63179],[128.69955,35.63252],[128.69961,35.63343],[128.69962,35.6342],[128.69961,35.6362],[128.69951,35.63703],[128.69948,35.63722],[128.69845,35.63876],[128.69828,35.63899],[128.69777,35.63939],[128.69732,35.63977],[128.69708,35.64],[128.69666,35.64046],[128.69646,35.64068],[128.69387,35.64363],[128.69379,35.64373],[128.69312,35.64513],[128.69304,35.64535],[128.69302,35.64553],[128.69312,35.64588],[128.69332,35.6463],[128.69348,35.64671],[128.69363,35.64712],[128.69369,35.64742],[128.69392,35.64897],[128.69387,35.64921],[128.69302,35.65174],[128.69211,35.65334],[128.69195,35.65357],[128.69188,35.65368],[128.69185,35.65383],[128.69182,35.65403],[128.69182,35.65461],[128.69185,35.65478],[128.69193,35.6549],[128.69207,35.65498],[128.69244,35.65512],[128.69294,35.65529],[128.69317,35.65543],[128.69391,35.65597],[128.6972,35.65924],[128.69756,35.65977],[128.69766,35.65993],[128.69755,35.66],[128.69697,35.66026],[128.69617,35.66058],[128.69556,35.6608],[128.6951,35.66092],[128.69434,35.66109],[128.69402,35.66107],[128.69374,35.66106],[128.69367,35.66105],[128.69334,35.66103],[128.69264,35.66097],[128.69218,35.66092],[128.68914,35.6603],[128.68838,35.66006],[128.6881,35.65993],[128.68753,35.65956],[128.68719,35.65927],[128.68579,35.65797],[128.6856,35.65777],[128.68543,35.6575],[128.68268,35.65779],[128.68074,35.65769],[128.67969,35.65759],[128.67889,35.65756],[128.67868,35.65765],[128.67858,35.65774],[128.67841,35.65794],[128.67831,35.65812],[128.67823,35.65835],[128.67812,35.65877],[128.67781,35.66097],[128.67795,35.66137],[128.67799,35.66146],[128.67809,35.66162],[128.67846,35.66201],[128.67851,35.66204],[128.67855,35.66207],[128.67863,35.66207],[128.67898,35.6621],[128.67914,35.66214],[128.67928,35.66225],[128.67942,35.66243],[128.68136,35.66569],[128.68256,35.66784],[128.68261,35.66796],[128.68255,35.66825],[128.68247,35.66845],[128.68247,35.66857],[128.68248,35.66876],[128.68255,35.66895],[128.68424,35.67151],[128.68438,35.67168],[128.68457,35.67189],[128.68474,35.67206],[128.68485,35.67217],[128.68488,35.6722],[128.68509,35.67236],[128.6853,35.67246],[128.68549,35.67249],[128.68639,35.67269],[128.68791,35.67313],[128.68816,35.67325],[128.68831,35.67335],[128.68838,35.67344],[128.68846,35.67361],[128.68855,35.67384],[128.68863,35.67406],[128.68866,35.67429],[128.68861,35.67448],[128.68852,35.67466],[128.68838,35.67477],[128.68805,35.67497],[128.68782,35.67508],[128.68765,35.67518],[128.68752,35.67534],[128.68749,35.67543],[128.68712,35.67675],[128.68696,35.67812],[128.68679,35.67971],[128.68702,35.68256],[128.68709,35.68273],[128.68724,35.68289],[128.68743,35.68305],[128.68762,35.68314],[128.68773,35.68319],[128.68926,35.68348],[128.68958,35.68354],[128.68985,35.68357],[128.69055,35.68374],[128.69168,35.68418],[128.69186,35.68426],[128.69193,35.68431],[128.69203,35.68444],[128.69376,35.68716],[128.69383,35.68736],[128.6938,35.68757],[128.69482,35.69012],[128.69679,35.69286],[128.697,35.6931],[128.69723,35.69324],[128.70035,35.69496],[128.70041,35.69498],[128.70047,35.69498],[128.70074,35.6949],[128.70092,35.69488],[128.70232,35.69482],[128.70486,35.69477],[128.70518,35.69477],[128.70555,35.69488],[128.70572,35.69495],[128.70602,35.69514],[128.70631,35.69537],[128.70646,35.69556],[128.70653,35.69567],[128.70699,35.69665],[128.70712,35.69705],[128.70707,35.69717],[128.70707,35.69987],[128.70747,35.70687],[128.70751,35.70725],[128.70755,35.70745],[128.70947,35.71376],[128.70958,35.71391],[128.70984,35.71409],[128.71084,35.71475],[128.71177,35.71531],[128.71316,35.71632],[128.71341,35.71655],[128.71344,35.71664],[128.7134,35.71676],[128.71288,35.71796],[128.71277,35.71822],[128.7127,35.71841],[128.71288,35.71862],[128.71351,35.7192],[128.71529,35.7208],[128.71544,35.72077],[128.71562,35.72074],[128.71741,35.72049],[128.71773,35.72046],[128.71826,35.72045],[128.71905,35.72043],[128.71951,35.7204],[128.71981,35.72036],[128.72026,35.72022],[128.72068,35.72002],[128.72095,35.71987],[128.72224,35.71916],[128.72242,35.71913],[128.72298,35.71904],[128.72312,35.71902],[128.72325,35.71904],[128.72506,35.7193],[128.72548,35.7194],[128.72615,35.71962],[128.72676,35.71984],[128.72728,35.72003],[128.72785,35.72025],[128.728,35.7203],[128.73113,35.72015],[128.7313,35.72009],[128.73217,35.71978],[128.73237,35.7197],[128.73249,35.71962],[128.73403,35.71862],[128.73548,35.71732],[128.73558,35.71723],[128.73567,35.71709],[128.73595,35.71664],[128.73608,35.71641],[128.73611,35.71632],[128.73691,35.71167],[128.73692,35.71146],[128.7369,35.71134],[128.73687,35.71121],[128.73675,35.711],[128.73661,35.71078],[128.73655,35.71063],[128.73655,35.71052],[128.73663,35.71037],[128.73697,35.70978],[128.73711,35.70962],[128.73752,35.70915],[128.73764,35.70901],[128.73778,35.70889],[128.73989,35.70716],[128.74118,35.70617],[128.74244,35.70499],[128.74359,35.70387]]]]}},{"type":"Feature","properties":{"code":"47820253","name":"청도읍","parent":"47820"},"geometry":{"type":"MultiPolygon","coordinates":[[[[128.76559,35.70041],[128.76659,35.6986],[128.76664,35.69853],[128.76673,35.6985],[128.76684,35.6985],[128.77006,35.6987],[128.7724,35.6987],[128.77612,35.69774],[128.78179,35.69615],[128.78337,35.69612],[128.78363,35.6961],[128.78391,35.69604],[128.78471,35.69577],[128.78479,35.69571],[128.78816,35.69086],[128.78823,35.69071],[128.78918,35.68866],[128.78933,35.68829],[128.78954,35.68721],[128.78951,35.68713],[128.7894,35.68701],[128.78917,35.68684],[128.78884,35.68662],[128.78876,35.68652],[128.78871,35.68643],[128.78871,35.68635],[128.78996,35.68166],[128.7901,35.68135],[128.79032,35.68104],[128.79049,35.68092],[128.79075,35.6808],[128.79568,35.67918],[128.80412,35.67799],[128.80554,35.67802],[128.80619,35.67661],[128.80511,35.67345],[128.80486,35.67272],[128.80677,35.66855],[128.80684,35.66839],[128.80739,35.66707],[128.80741,35.66698],[128.80742,35.66618],[128.80742,35.6659],[128.80713,35.66168],[128.80712,35.6616],[128.80705,35.66153],[128.80605,35.66077],[128.80593,35.6607],[128.80573,35.66062],[128.80554,35.66059],[128.8054,35.66059],[128.80517,35.66063],[128.80492,35.66068],[128.80465,35.66073],[128.80428,35.66078],[128.80402,35.66079],[128.80169,35.66069],[128.80104,35.66057],[128.80086,35.66048],[128.80064,35.66037],[128.80009,35.65997],[128.80004,35.6599],[128.79746,35.65558],[128.7974,35.65548],[128.79738,35.65524],[128.79716,35.65319],[128.79721,35.65192],[128.79728,35.6514],[128.79715,35.65024],[128.79699,35.64974],[128.79676,35.64903],[128.79671,35.6489],[128.79664,35.64881],[128.79654,35.64876],[128.79628,35.64873],[128.79597,35.64874],[128.79478,35.64888],[128.7944,35.64893],[128.79406,35.64902],[128.79388,35.6491],[128.79371,35.64919],[128.79354,35.64929],[128.79334,35.64941],[128.7932,35.64952],[128.79304,35.64959],[128.79284,35.64963],[128.79267,35.64963],[128.79097,35.64961],[128.79083,35.6496],[128.79062,35.64957],[128.78474,35.64831],[128.7846,35.64826],[128.78318,35.64742],[128.78244,35.64687],[128.78128,35.64596],[128.78119,35.64583],[128.78109,35.64547],[128.78109,35.64533],[128.78111,35.64525],[128.78119,35.64517],[128.78134,35.64498],[128.78155,35.6447],[128.78267,35.6431],[128.78282,35.64284],[128.78284,35.64275],[128.78277,35.64265],[128.78265,35.64252],[128.78166,35.64053],[128.78009,35.63632],[128.77994,35.63587],[128.77987,35.63553],[128.77967,35.63271],[128.77984,35.62937],[128.78046,35.62502],[128.78052,35.62488],[128.78063,35.62481],[128.78107,35.62466],[128.78134,35.62452],[128.78158,35.62435],[128.78341,35.62281],[128.78351,35.62266],[128.78356,35.6225],[128.78361,35.62222],[128.78365,35.62179],[128.78369,35.62073],[128.7895,35.61103],[128.79146,35.60767],[128.79154,35.60748],[128.79154,35.60741],[128.79139,35.60726],[128.79005,35.60634],[128.78984,35.60625],[128.78966,35.60622],[128.78951,35.60623],[128.78892,35.60635],[128.78845,35.60645],[128.78824,35.60649],[128.78806,35.60647],[128.78777,35.60638],[128.78555,35.60524],[128.7858,35.59926],[128.78601,35.59717],[128.78609,35.59686],[128.78622,35.59663],[128.7864,35.5965],[128.78733,35.59617],[128.78809,35.59589],[128.78836,35.59579],[128.7898,35.59525],[128.79248,35.5941],[128.79256,35.59405],[128.79493,35.59218],[128.79584,35.59145],[128.79693,35.59046],[128.79708,35.5903],[128.79717,35.59019],[128.79725,35.59003],[128.79742,35.58962],[128.7975,35.58928],[128.79762,35.58871],[128.79796,35.58786],[128.79829,35.58713],[128.79845,35.58689],[128.79857,35.58676],[128.79872,35.58663],[128.80047,35.5854],[128.80015,35.58492],[128.8,35.58469],[128.7999,35.58446],[128.79867,35.58138],[128.79862,35.58108],[128.79861,35.58064],[128.79834,35.579],[128.79769,35.57612],[128.79761,35.57576],[128.79753,35.57553],[128.79726,35.57507],[128.79691,35.57453],[128.79669,35.57423],[128.79613,35.57353],[128.79547,35.57296],[128.78759,35.56667],[128.78675,35.56609],[128.78631,35.56594],[128.78564,35.56584],[128.78499,35.56589],[128.78462,35.56598],[128.78346,35.56632],[128.78269,35.56654],[128.78224,35.56669],[128.77606,35.56847],[128.77206,35.5688],[128.77153,35.56911],[128.77102,35.5694],[128.77082,35.56952],[128.77063,35.56963],[128.77052,35.56969],[128.76943,35.57027],[128.76925,35.57035],[128.76912,35.5704],[128.76904,35.57043],[128.76887,35.57045],[128.76809,35.57051],[128.7667,35.5687],[128.76635,35.56824],[128.76497,35.56867],[128.76386,35.56901],[128.76128,35.56825],[128.76062,35.56793],[128.7576,35.56765],[128.75743,35.56767],[128.75627,35.56802],[128.75593,35.56819],[128.75584,35.56827],[128.75506,35.56909],[128.75394,35.57018],[128.75386,35.57023],[128.75368,35.57027],[128.75187,35.5704],[128.75084,35.57031],[128.75049,35.57024],[128.75033,35.57021],[128.75015,35.57023],[128.7498,35.57032],[128.74924,35.57048],[128.74896,35.57057],[128.74834,35.57081],[128.74812,35.57095],[128.7473,35.57154],[128.74711,35.57173],[128.74697,35.57195],[128.74679,35.5722],[128.74663,35.57236],[128.74645,35.57251],[128.74628,35.57259],[128.74462,35.57332],[128.7378,35.57608],[128.73621,35.57657],[128.73588,35.57662],[128.73547,35.5766],[128.73426,35.5765],[128.73337,35.57637],[128.7327,35.57624],[128.73108,35.57621],[128.72761,35.57803],[128.72744,35.57814],[128.7271,35.57835],[128.72576,35.57942],[128.72566,35.57951],[128.72562,35.57971],[128.72549,35.58007],[128.72536,35.58027],[128.72511,35.58057],[128.72489,35.58076],[128.72464,35.58086],[128.72405,35.58097],[128.72357,35.58103],[128.72311,35.58099],[128.7226,35.58093],[128.7221,35.58087],[128.72073,35.58066],[128.72044,35.58057],[128.72028,35.58048],[128.71906,35.57968],[128.71655,35.57837],[128.71627,35.57832],[128.71546,35.57823],[128.71521,35.57825],[128.71434,35.57897],[128.71396,35.57915],[128.7127,35.57951],[128.71245,35.57955],[128.7122,35.5795],[128.71182,35.57941],[128.70798,35.57884],[128.70327,35.57853],[128.69741,35.58212],[128.69734,35.58215],[128.69713,35.58227],[128.69624,35.58288],[128.69591,35.58325],[128.69565,35.58367],[128.69547,35.58399],[128.69527,35.58454],[128.69502,35.5853],[128.69452,35.58683],[128.69444,35.58716],[128.69401,35.5888],[128.69332,35.59047],[128.69244,35.5917],[128.69216,35.59203],[128.69192,35.59239],[128.69172,35.59274],[128.69163,35.59303],[128.69128,35.59442],[128.69167,35.59641],[128.693,35.60253],[128.69308,35.60279],[128.69317,35.60303],[128.69494,35.60782],[128.69507,35.60805],[128.69535,35.60831],[128.69581,35.60867],[128.69635,35.60908],[128.69777,35.61013],[128.69906,35.61047],[128.69938,35.61049],[128.70009,35.61056],[128.70041,35.6106],[128.70088,35.6107],[128.70118,35.61082],[128.70152,35.61097],[128.70306,35.6117],[128.70322,35.61184],[128.70457,35.61316],[128.70466,35.61313],[128.70484,35.61307],[128.70633,35.61274],[128.70654,35.6127],[128.70758,35.6126],[128.70774,35.61265],[128.70799,35.61278],[128.70833,35.61298],[128.70868,35.61316],[128.70902,35.6133],[128.70935,35.61343],[128.70968,35.61352],[128.71001,35.61358],[128.71046,35.61361],[128.71261,35.61373],[128.7131,35.6137],[128.71399,35.61363],[128.71522,35.61345],[128.7156,35.61329],[128.71581,35.61324],[128.71597,35.61326],[128.71678,35.61342],[128.71858,35.61389],[128.71895,35.614],[128.71916,35.61408],[128.71988,35.61439],[128.72006,35.6145],[128.72018,35.61466],[128.72023,35.61475],[128.72026,35.61496],[128.72027,35.615],[128.72029,35.61531],[128.72035,35.61551],[128.72061,35.61561],[128.72276,35.61624],[128.72419,35.61664],[128.72797,35.61749],[128.72898,35.61769],[128.72923,35.61778],[128.73079,35.61871],[128.7316,35.61975],[128.73176,35.61999],[128.73519,35.62548],[128.73525,35.62568],[128.73528,35.6258],[128.73536,35.6262],[128.73556,35.62841],[128.73585,35.63075],[128.737,35.63295],[128.73722,35.63316],[128.73771,35.63383],[128.73779,35.63397],[128.73778,35.63411],[128.73753,35.63528],[128.73496,35.64177],[128.73336,35.64491],[128.73261,35.64566],[128.73289,35.64615],[128.73378,35.64665],[128.73399,35.64675],[128.73455,35.64701],[128.73628,35.64777],[128.73808,35.6485],[128.73841,35.6486],[128.73856,35.64866],[128.73898,35.6488],[128.7393,35.64892],[128.73939,35.64896],[128.73979,35.64914],[128.74072,35.64958],[128.74094,35.64973],[128.74109,35.64985],[128.74121,35.64993],[128.74172,35.65041],[128.74194,35.65064],[128.74331,35.65226],[128.74343,35.65247],[128.74356,35.6527],[128.74325,35.65431],[128.74203,35.65578],[128.74053,35.65692],[128.7399,35.65736],[128.73959,35.65761],[128.73939,35.6578],[128.73666,35.66192],[128.73629,35.66285],[128.73621,35.66315],[128.73623,35.66331],[128.73633,35.66382],[128.73638,35.66389],[128.73644,35.66393],[128.73686,35.664],[128.73769,35.6641],[128.73949,35.66429],[128.74002,35.6643],[128.7416,35.66452],[128.74432,35.66537],[128.74448,35.66545],[128.74457,35.66551],[128.74466,35.66562],[128.74633,35.6682],[128.74638,35.66836],[128.74639,35.66855],[128.74639,35.66914],[128.74631,35.67056],[128.74624,35.67111],[128.74617,35.67158],[128.74609,35.6717],[128.74338,35.67572],[128.74328,35.67583],[128.74309,35.67593],[128.7429,35.676],[128.74267,35.67605],[128.74231,35.6761],[128.74134,35.67633],[128.74122,35.67641],[128.73942,35.6787],[128.73932,35.67885],[128.73924,35.67896],[128.73923,35.67918],[128.7392,35.67957],[128.7391,35.67993],[128.73889,35.6803],[128.73646,35.68347],[128.73498,35.68518],[128.73456,35.68547],[128.7343,35.68571],[128.73334,35.68806],[128.73342,35.68979],[128.73343,35.68988],[128.73386,35.69094],[128.73412,35.69188],[128.73426,35.69255],[128.7341,35.69443],[128.73405,35.69468],[128.7337,35.69594],[128.73527,35.69772],[128.73657,35.69863],[128.73711,35.69903],[128.73749,35.69938],[128.73769,35.69962],[128.73776,35.69981],[128.73774,35.7001],[128.73765,35.70054],[128.73771,35.70066],[128.73785,35.70079],[128.73935,35.70205],[128.73962,35.70216],[128.74079,35.70253],[128.74168,35.70278],[128.74192,35.70288],[128.7435,35.7038],[128.74359,35.70387],[128.7539,35.70064],[128.75612,35.70081],[128.7644,35.70061],[128.76559,35.70041]]]]}},{"type":"Feature","properties":{"code":"47820310","name":"각남면","parent":"47820"},"geometry":{"type":"MultiPolygon","coordinates":[[[[128.70457,35.61316],[128.70322,35.61184],[128.70306,35.6117],[128.70152,35.61097],[128.70118,35.61082],[128.70088,35.6107],[128.70041,35.6106],[128.70009,35.61056],[128.69938,35.61049],[128.69906,35.61047],[128.69777,35.61013],[128.69635,35.60908],[128.69581,35.60867],[128.69535,35.60831],[128.69507,35.60805],[128.69494,35.60782],[128.69317,35.60303],[128.69308,35.60279],[128.693,35.60253],[128.69167,35.59641],[128.69128,35.59442],[128.69118,35.59448],[128.69083,35.59463],[128.69027,35.59481],[128.68982,35.59493],[128.68932,35.59502],[128.68876,35.59508],[128.68779,35.59511],[128.68209,35.59517],[128.67936,35.59519],[128.67246,35.59585],[128.67212,35.59552],[128.67182,35.59528],[128.67144,35.59505],[128.67056,35.59453],[128.67036,35.5945],[128.66757,35.59425],[128.66714,35.59424],[128.66622,35.59422],[128.66585,35.59424],[128.66492,35.59432],[128.66351,35.59459],[128.66274,35.59525],[128.66236,35.59557],[128.66205,35.59582],[128.66172,35.59604],[128.65953,35.59723],[128.65908,35.59742],[128.65849,35.59763],[128.65803,35.59774],[128.65784,35.59771],[128.65729,35.59761],[128.65649,35.5975],[128.65533,35.598],[128.65496,35.5972],[128.65479,35.59694],[128.65462,35.59682],[128.65417,35.59659],[128.65036,35.59491],[128.65009,35.5948],[128.64849,35.59425],[128.64777,35.59408],[128.64767,35.59406],[128.64363,35.59235],[128.64062,35.58908],[128.63707,35.58615],[128.63599,35.58409],[128.63589,35.58407],[128.63291,35.58527],[128.63149,35.5864],[128.63129,35.58656],[128.63109,35.58666],[128.62976,35.58643],[128.62835,35.58619],[128.62767,35.58551],[128.62761,35.58529],[128.62745,35.58513],[128.6271,35.58498],[128.62662,35.58484],[128.62631,35.58481],[128.62032,35.58445],[128.61759,35.58437],[128.6175,35.58433],[128.61675,35.58374],[128.61646,35.58349],[128.61609,35.58313],[128.61393,35.58221],[128.60685,35.58042],[128.60469,35.58056],[128.60217,35.58073],[128.60116,35.58083],[128.59792,35.58199],[128.59628,35.58281],[128.59437,35.58404],[128.59414,35.58419],[128.5937,35.5845],[128.59309,35.58735],[128.59299,35.58801],[128.59298,35.58825],[128.59303,35.59127],[128.59305,35.59142],[128.59331,35.59244],[128.59351,35.59273],[128.59375,35.59285],[128.59406,35.59297],[128.5944,35.59307],[128.59451,35.59308],[128.59514,35.59307],[128.59556,35.59305],[128.5959,35.59294],[128.5962,35.59286],[128.5964,35.59286],[128.59663,35.59287],[128.59685,35.59294],[128.59768,35.59346],[128.59777,35.59352],[128.5982,35.59382],[128.59871,35.59421],[128.59938,35.59477],[128.59943,35.59484],[128.59949,35.59516],[128.59957,35.59554],[128.59978,35.5959],[128.5999,35.59608],[128.60131,35.59781],[128.60447,35.59966],[128.60466,35.59977],[128.60532,35.6],[128.60663,35.60037],[128.60679,35.60038],[128.60703,35.60039],[128.60877,35.60079],[128.61216,35.60239],[128.61781,35.60583],[128.61801,35.60597],[128.61975,35.60726],[128.61996,35.60749],[128.62013,35.60773],[128.62169,35.61024],[128.62175,35.61039],[128.62219,35.61134],[128.62226,35.61156],[128.62229,35.61186],[128.62273,35.61753],[128.62272,35.61857],[128.62269,35.61889],[128.62265,35.61915],[128.62257,35.61944],[128.62244,35.61974],[128.62231,35.61998],[128.62221,35.62014],[128.62163,35.6208],[128.62138,35.62104],[128.62097,35.6215],[128.62074,35.62186],[128.62041,35.62307],[128.6203,35.62359],[128.62034,35.62375],[128.62059,35.62385],[128.62105,35.62394],[128.62229,35.62405],[128.62249,35.62404],[128.62277,35.62402],[128.6232,35.62385],[128.62365,35.62366],[128.62379,35.62365],[128.62439,35.62372],[128.62516,35.62385],[128.62802,35.62488],[128.62845,35.62504],[128.62856,35.62511],[128.62869,35.62519],[128.62924,35.62567],[128.62938,35.62582],[128.62951,35.62613],[128.62962,35.62652],[128.6298,35.62752],[128.6298,35.62767],[128.62978,35.62789],[128.62971,35.62803],[128.62923,35.62868],[128.62884,35.62909],[128.62796,35.6299],[128.62786,35.62998],[128.62772,35.63005],[128.62711,35.63025],[128.62683,35.6304],[128.62658,35.63061],[128.62574,35.63142],[128.62569,35.63152],[128.62566,35.63164],[128.62569,35.63187],[128.62574,35.63202],[128.6258,35.63214],[128.62808,35.63614],[128.62813,35.63621],[128.62832,35.63631],[128.62885,35.63646],[128.62911,35.63649],[128.62984,35.63653],[128.6307,35.63661],[128.63162,35.63671],[128.63205,35.6368],[128.63257,35.63703],[128.6331,35.63731],[128.63328,35.63745],[128.63335,35.6376],[128.63336,35.63778],[128.63331,35.63795],[128.63322,35.63832],[128.63314,35.6387],[128.63303,35.63938],[128.63304,35.6398],[128.63306,35.64023],[128.63306,35.64029],[128.63312,35.64053],[128.6332,35.64064],[128.63621,35.64347],[128.63651,35.64374],[128.6367,35.6439],[128.63696,35.6441],[128.63767,35.64459],[128.63816,35.64493],[128.6383,35.645],[128.63853,35.64507],[128.63865,35.64511],[128.63883,35.64516],[128.63919,35.64518],[128.63936,35.64516],[128.64023,35.64508],[128.6406,35.64503],[128.64093,35.64497],[128.64193,35.64475],[128.64243,35.64462],[128.64533,35.64385],[128.64614,35.6436],[128.64643,35.64352],[128.64777,35.64316],[128.6483,35.64302],[128.6488,35.64297],[128.64923,35.64296],[128.6501,35.64299],[128.65243,35.64317],[128.65252,35.64318],[128.6527,35.64321],[128.65299,35.64327],[128.65332,35.64338],[128.65349,35.6435],[128.65371,35.64368],[128.65424,35.64416],[128.65451,35.64446],[128.65486,35.64493],[128.65503,35.64515],[128.65538,35.64563],[128.65613,35.64679],[128.65625,35.64704],[128.65636,35.64741],[128.65648,35.64757],[128.6566,35.64766],[128.65773,35.64845],[128.65794,35.64859],[128.6584,35.64877],[128.65873,35.64885],[128.65912,35.64894],[128.65926,35.64895],[128.66051,35.64899],[128.66081,35.64899],[128.66129,35.64894],[128.66292,35.64884],[128.66385,35.64881],[128.66425,35.64883],[128.66499,35.64888],[128.6655,35.64895],[128.66669,35.64915],[128.66889,35.6496],[128.66958,35.64977],[128.66974,35.64983],[128.6699,35.64992],[128.67124,35.65042],[128.67265,35.65089],[128.67289,35.65096],[128.67337,35.65105],[128.675,35.65135],[128.6755,35.65143],[128.67593,35.6515],[128.67643,35.65152],[128.67697,35.65155],[128.67773,35.65172],[128.67872,35.65197],[128.67931,35.6522],[128.67964,35.65236],[128.68131,35.65341],[128.68219,35.65398],[128.68258,35.65425],[128.6837,35.65502],[128.68464,35.65602],[128.68524,35.65711],[128.68543,35.6575],[128.6856,35.65777],[128.68579,35.65797],[128.68719,35.65927],[128.68753,35.65956],[128.6881,35.65993],[128.68838,35.66006],[128.68914,35.6603],[128.69218,35.66092],[128.69264,35.66097],[128.69334,35.66103],[128.69367,35.66105],[128.69374,35.66106],[128.69402,35.66107],[128.69434,35.66109],[128.6951,35.66092],[128.69556,35.6608],[128.69617,35.66058],[128.69697,35.66026],[128.69755,35.66],[128.69766,35.65993],[128.69756,35.65977],[128.6972,35.65924],[128.69391,35.65597],[128.69317,35.65543],[128.69294,35.65529],[128.69244,35.65512],[128.69207,35.65498],[128.69193,35.6549],[128.69185,35.65478],[128.69182,35.65461],[128.69182,35.65403],[128.69185,35.65383],[128.69188,35.65368],[128.69195,35.65357],[128.69211,35.65334],[128.69302,35.65174],[128.69387,35.64921],[128.69392,35.64897],[128.69369,35.64742],[128.69363,35.64712],[128.69348,35.64671],[128.69332,35.6463],[128.69312,35.64588],[128.69302,35.64553],[128.69304,35.64535],[128.69312,35.64513],[128.69379,35.64373],[128.69387,35.64363],[128.69646,35.64068],[128.69666,35.64046],[128.69708,35.64],[128.69732,35.63977],[128.69777,35.63939],[128.69828,35.63899],[128.69845,35.63876],[128.69948,35.63722],[128.69951,35.63703],[128.69961,35.6362],[128.69962,35.6342],[128.69961,35.63343],[128.69955,35.63252],[128.69948,35.63179],[128.69931,35.63104],[128.69923,35.63066],[128.69913,35.63009],[128.69911,35.62988],[128.69913,35.62967],[128.69932,35.62803],[128.69937,35.62764],[128.70107,35.623],[128.70253,35.61938],[128.70402,35.61469],[128.70457,35.61316]]]]}},{"type":"Feature","properties":{"code":"47820320","name":"풍각면","parent":"47820"},"geometry":{"type":"MultiPolygon","coordinates":[[[[128.6297,35.64283],[128.6332,35.64064],[128.63312,35.64053],[128.63306,35.64029],[128.63306,35.64023],[128.63304,35.6398],[128.63303,35.63938],[128.63314,35.6387],[128.63322,35.63832],[128.63331,35.63795],[128.63336,35.63778],[128.63335,35.6376],[128.63328,35.63745],[128.6331,35.63731],[128.63257,35.63703],[128.63205,35.6368],[128.63162,35.63671],[128.6307,35.63661],[128.62984,35.63653],[128.62911,35.63649],[128.62885,35.63646],[128.62832,35.63631],[128.62813,35.63621],[128.62808,35.63614],[128.6258,35.63214],[128.62574,35.63202],[128.62569,35.63187],[128.62566,35.63164],[128.62569,35.63152],[128.62574,35.63142],[128.62658,35.63061],[128.62683,35.6304],[128.62711,35.63025],[128.62772,35.63005],[128.62786,35.62998],[128.62796,35.6299],[128.62884,35.62909],[128.62923,35.62868],[128.62971,35.62803],[128.62978,35.62789],[128.6298,35.62767],[128.6298,35.62752],[128.62962,35.62652],[128.62951,35.62613],[128.62938,35.62582],[128.62924,35.62567],[128.62869,35.62519],[128.62856,35.62511],[128.62845,35.62504],[128.62802,35.62488],[128.62516,35.62385],[128.62439,35.62372],[128.62379,35.62365],[128.62365,35.62366],[128.6232,35.62385],[128.62277,35.62402],[128.62249,35.62404],[128.62229,35.62405],[128.62105,35.62394],[128.62059,35.62385],[128.62034,35.62375],[128.6203,35.62359],[128.62041,35.62307],[128.62074,35.62186],[128.62097,35.6215],[128.62138,35.62104],[128.62163,35.6208],[128.62221,35.62014],[128.62231,35.61998],[128.62244,35.61974],[128.62257,35.61944],[128.62265,35.61915],[128.62269,35.61889],[128.62272,35.61857],[128.62273,35.61753],[128.62229,35.61186],[128.62226,35.61156],[128.62219,35.61134],[128.62175,35.61039],[128.62169,35.61024],[128.62013,35.60773],[128.61996,35.60749],[128.61975,35.60726],[128.61801,35.60597],[128.61781,35.60583],[128.61216,35.60239],[128.60877,35.60079],[128.60703,35.60039],[128.60679,35.60038],[128.60663,35.60037],[128.60532,35.6],[128.60466,35.59977],[128.60447,35.59966],[128.60131,35.59781],[128.5999,35.59608],[128.59978,35.5959],[128.59957,35.59554],[128.59949,35.59516],[128.59943,35.59484],[128.59938,35.59477],[128.59871,35.59421],[128.5982,35.59382],[128.59777,35.59352],[128.59768,35.59346],[128.59685,35.59294],[128.59663,35.59287],[128.5964,35.59286],[128.5962,35.59286],[128.5959,35.59294],[128.59556,35.59305],[128.59514,35.59307],[128.59451,35.59308],[128.5944,35.59307],[128.59406,35.59297],[128.59375,35.59285],[128.59351,35.59273],[128.59331,35.59244],[128.59305,35.59142],[128.59303,35.59127],[128.59298,35.58825],[128.59299,35.58801],[128.59309,35.58735],[128.5937,35.5845],[128.59344,35.58433],[128.59198,35.58464],[128.58802,35.58542],[128.5877,35.58545],[128.58675,35.5856],[128.58621,35.58573],[128.58527,35.58602],[128.58482,35.5862],[128.58169,35.58789],[128.57426,35.59221],[128.57359,35.59344],[128.5738,35.59383],[128.57395,35.59414],[128.57395,35.59428],[128.5737,35.59522],[128.57365,35.59538],[128.57264,35.59712],[128.57248,35.59731],[128.57228,35.59749],[128.5722,35.59753],[128.5721,35.59755],[128.57194,35.59755],[128.57157,35.59756],[128.5709,35.59767],[128.57024,35.5979],[128.56976,35.59808],[128.56933,35.59828],[128.56889,35.59855],[128.5677,35.59942],[128.56757,35.59953],[128.56749,35.59988],[128.56756,35.60076],[128.56755,35.601],[128.56747,35.60122],[128.56455,35.6025],[128.56434,35.60257],[128.56319,35.60262],[128.56251,35.60259],[128.56227,35.60255],[128.562,35.60254],[128.55969,35.60325],[128.55962,35.60336],[128.55958,35.60348],[128.55912,35.6061],[128.5588,35.60793],[128.55894,35.60814],[128.55898,35.60841],[128.55918,35.60982],[128.55916,35.61005],[128.5591,35.61037],[128.55805,35.61494],[128.55634,35.61663],[128.55624,35.61671],[128.55302,35.61709],[128.55284,35.61709],[128.55238,35.61695],[128.55048,35.61701],[128.54926,35.61795],[128.5475,35.61909],[128.54718,35.61923],[128.54518,35.62004],[128.54426,35.62034],[128.5429,35.62066],[128.54211,35.62078],[128.54158,35.62092],[128.53753,35.62284],[128.53699,35.62319],[128.5365,35.62365],[128.53646,35.62388],[128.53643,35.62403],[128.5358,35.62733],[128.53582,35.62739],[128.53669,35.62974],[128.53683,35.62998],[128.53705,35.63024],[128.5373,35.63045],[128.53748,35.63057],[128.53757,35.63069],[128.53805,35.63151],[128.53822,35.63184],[128.53822,35.63197],[128.5376,35.63571],[128.5375,35.63626],[128.53647,35.63932],[128.53589,35.6402],[128.53572,35.6404],[128.53546,35.64067],[128.53517,35.64111],[128.53507,35.64127],[128.53501,35.64149],[128.53474,35.64355],[128.53472,35.6438],[128.53477,35.64395],[128.53493,35.64413],[128.53599,35.64625],[128.53765,35.65073],[128.53771,35.65097],[128.53779,35.65137],[128.53834,35.65489],[128.53831,35.65504],[128.53688,35.66096],[128.53671,35.66124],[128.5355,35.662],[128.53466,35.6621],[128.53327,35.66215],[128.5327,35.66201],[128.53249,35.66198],[128.53176,35.66208],[128.5316,35.66213],[128.5315,35.66215],[128.53146,35.66217],[128.53127,35.66233],[128.53085,35.66272],[128.53079,35.66281],[128.53074,35.66292],[128.53072,35.66298],[128.53053,35.664],[128.53051,35.66413],[128.53046,35.66455],[128.53046,35.66464],[128.5305,35.66477],[128.53053,35.6648],[128.53063,35.66485],[128.53075,35.66495],[128.53086,35.66512],[128.53088,35.66522],[128.53089,35.66531],[128.53086,35.6654],[128.53039,35.66637],[128.52977,35.66751],[128.52919,35.66839],[128.52714,35.67236],[128.52706,35.67252],[128.52643,35.67403],[128.52638,35.6742],[128.52642,35.67487],[128.5264,35.67508],[128.52643,35.67554],[128.52644,35.67571],[128.52674,35.67705],[128.52682,35.67728],[128.52755,35.67886],[128.52766,35.67905],[128.52784,35.67919],[128.52812,35.67928],[128.5284,35.6794],[128.52847,35.67948],[128.52846,35.67954],[128.52641,35.68238],[128.53349,35.68208],[128.53516,35.68004],[128.53828,35.67874],[128.53858,35.67867],[128.53894,35.67862],[128.53916,35.6786],[128.54778,35.67875],[128.55174,35.67894],[128.5522,35.67901],[128.55603,35.67982],[128.55861,35.68043],[128.56462,35.6821],[128.56735,35.68559],[128.56747,35.68585],[128.56753,35.68595],[128.56766,35.68608],[128.56855,35.68693],[128.56878,35.68714],[128.56904,35.68731],[128.56931,35.68745],[128.5696,35.68756],[128.57105,35.68783],[128.5713,35.68785],[128.57162,35.68784],[128.57192,35.68777],[128.57253,35.68749],[128.57351,35.68762],[128.57369,35.68761],[128.57645,35.68658],[128.5798,35.68422],[128.57999,35.68407],[128.58015,35.6839],[128.58052,35.68316],[128.58078,35.68263],[128.58081,35.68245],[128.58083,35.68231],[128.5809,35.68216],[128.58211,35.68062],[128.58225,35.68043],[128.5825,35.6802],[128.58299,35.67991],[128.58342,35.67972],[128.58358,35.67967],[128.58409,35.67962],[128.58444,35.67959],[128.58479,35.67943],[128.58583,35.67888],[128.58644,35.67852],[128.58661,35.67837],[128.58672,35.67823],[128.58831,35.67531],[128.58837,35.67515],[128.58855,35.67398],[128.58858,35.67369],[128.58856,35.67359],[128.58855,35.67353],[128.58844,35.67343],[128.5883,35.67335],[128.58814,35.67331],[128.58783,35.67324],[128.58718,35.67313],[128.58692,35.67304],[128.58666,35.67287],[128.58654,35.67273],[128.58647,35.67249],[128.5864,35.67196],[128.58642,35.6718],[128.588,35.66441],[128.58807,35.6643],[128.58886,35.66332],[128.59104,35.66203],[128.59248,35.66134],[128.59492,35.66148],[128.5975,35.66146],[128.59892,35.66066],[128.60169,35.65857],[128.60234,35.65801],[128.60299,35.65736],[128.6032,35.65712],[128.60333,35.65697],[128.6054,35.6544],[128.60667,35.65238],[128.60976,35.64947],[128.6104,35.64943],[128.61074,35.6494],[128.61105,35.64933],[128.61159,35.64921],[128.61388,35.64853],[128.61646,35.64776],[128.6172,35.64753],[128.61857,35.64689],[128.61888,35.64675],[128.62055,35.6459],[128.62185,35.64515],[128.6243,35.64366],[128.62609,35.64257],[128.62647,35.64235],[128.62683,35.64223],[128.62715,35.64221],[128.62737,35.64223],[128.62816,35.64238],[128.6297,35.64283]]]]}},{"type":"Feature","properties":{"code":"47820330","name":"각북면","parent":"47820"},"geometry":{"type":"MultiPolygon","coordinates":[[[[128.62068,35.70428],[128.62052,35.70401],[128.62007,35.70333],[128.61995,35.70322],[128.61971,35.70302],[128.61787,35.70177],[128.61767,35.70165],[128.61741,35.70163],[128.61686,35.70167],[128.61659,35.70163],[128.61475,35.70082],[128.61223,35.69891],[128.61188,35.69854],[128.61176,35.6983],[128.61156,35.69736],[128.61109,35.69221],[128.61116,35.69135],[128.61125,35.69105],[128.61168,35.68988],[128.61229,35.68842],[128.61241,35.68818],[128.61251,35.68806],[128.61269,35.68796],[128.61313,35.68769],[128.61345,35.68755],[128.61529,35.6851],[128.61516,35.68244],[128.61455,35.67838],[128.61396,35.67418],[128.61394,35.67407],[128.61402,35.67391],[128.61522,35.67231],[128.61545,35.67206],[128.6183,35.66971],[128.61937,35.66897],[128.61972,35.6688],[128.62003,35.66866],[128.62089,35.66841],[128.62277,35.66819],[128.62315,35.66818],[128.62345,35.66816],[128.62365,35.66815],[128.62393,35.66809],[128.62429,35.66801],[128.62444,35.66797],[128.62453,35.66793],[128.62463,35.66785],[128.62469,35.66773],[128.62585,35.66269],[128.62585,35.66255],[128.62582,35.66242],[128.62402,35.65986],[128.62188,35.65628],[128.62149,35.65558],[128.62146,35.65546],[128.62148,35.65542],[128.62453,35.65353],[128.62475,35.65347],[128.62509,35.65346],[128.62593,35.65339],[128.6262,35.65329],[128.62644,35.65319],[128.62667,35.65307],[128.62717,35.65278],[128.62774,35.65226],[128.62797,35.65202],[128.63025,35.6488],[128.63127,35.64726],[128.63154,35.64684],[128.6316,35.64673],[128.63035,35.64415],[128.62986,35.64315],[128.6297,35.64283],[128.62816,35.64238],[128.62737,35.64223],[128.62715,35.64221],[128.62683,35.64223],[128.62647,35.64235],[128.62609,35.64257],[128.6243,35.64366],[128.62185,35.64515],[128.62055,35.6459],[128.61888,35.64675],[128.61857,35.64689],[128.6172,35.64753],[128.61646,35.64776],[128.61388,35.64853],[128.61159,35.64921],[128.61105,35.64933],[128.61074,35.6494],[128.6104,35.64943],[128.60976,35.64947],[128.60667,35.65238],[128.6054,35.6544],[128.60333,35.65697],[128.6032,35.65712],[128.60299,35.65736],[128.60234,35.65801],[128.60169,35.65857],[128.59892,35.66066],[128.5975,35.66146],[128.59492,35.66148],[128.59248,35.66134],[128.59104,35.66203],[128.58886,35.66332],[128.58807,35.6643],[128.588,35.66441],[128.58642,35.6718],[128.5864,35.67196],[128.58647,35.67249],[128.58654,35.67273],[128.58666,35.67287],[128.58692,35.67304],[128.58718,35.67313],[128.58783,35.67324],[128.58814,35.67331],[128.5883,35.67335],[128.58844,35.67343],[128.58855,35.67353],[128.58856,35.67359],[128.58858,35.67369],[128.58855,35.67398],[128.58837,35.67515],[128.58831,35.67531],[128.58672,35.67823],[128.58661,35.67837],[128.58644,35.67852],[128.58583,35.67888],[128.58479,35.67943],[128.58444,35.67959],[128.58409,35.67962],[128.58358,35.67967],[128.58342,35.67972],[128.58299,35.67991],[128.5825,35.6802],[128.58225,35.68043],[128.58211,35.68062],[128.5809,35.68216],[128.58083,35.68231],[128.58081,35.68245],[128.58078,35.68263],[128.58052,35.68316],[128.58015,35.6839],[128.57999,35.68407],[128.5798,35.68422],[128.57645,35.68658],[128.57369,35.68761],[128.57351,35.68762],[128.57253,35.68749],[128.57192,35.68777],[128.57162,35.68784],[128.5713,35.68785],[128.57105,35.68783],[128.5696,35.68756],[128.56931,35.68745],[128.56904,35.68731],[128.56878,35.68714],[128.56855,35.68693],[128.56766,35.68608],[128.56753,35.68595],[128.56747,35.68585],[128.56735,35.68559],[128.56462,35.6821],[128.55861,35.68043],[128.55603,35.67982],[128.5522,35.67901],[128.55174,35.67894],[128.54778,35.67875],[128.53916,35.6786],[128.53894,35.67862],[128.53858,35.67867],[128.53828,35.67874],[128.53516,35.68004],[128.53349,35.68208],[128.53184,35.68337],[128.53163,35.68412],[128.53146,35.68526],[128.53137,35.6865],[128.53138,35.68778],[128.53141,35.68795],[128.53152,35.68815],[128.53351,35.69139],[128.53514,35.69402],[128.53507,35.69411],[128.5345,35.69458],[128.53426,35.69472],[128.53406,35.69482],[128.53379,35.6949],[128.53361,35.69492],[128.53348,35.69499],[128.53177,35.69641],[128.53157,35.69662],[128.53152,35.69673],[128.53152,35.6968],[128.53152,35.69683],[128.53217,35.70149],[128.53223,35.70168],[128.53248,35.70241],[128.53241,35.70549],[128.52974,35.71097],[128.5295,35.71123],[128.52885,35.71189],[128.52714,35.71361],[128.5273,35.71361],[128.52774,35.71362],[128.52811,35.71364],[128.52835,35.7137],[128.52889,35.71389],[128.53646,35.71667],[128.53958,35.7181],[128.54194,35.71881],[128.54298,35.71892],[128.54313,35.71894],[128.54329,35.71896],[128.54353,35.71901],[128.54363,35.71904],[128.54377,35.71909],[128.54389,35.71914],[128.544,35.71922],[128.54408,35.71928],[128.545,35.72041],[128.54559,35.72136],[128.54567,35.72161],[128.54579,35.72188],[128.54595,35.72213],[128.54606,35.72225],[128.54709,35.72296],[128.54743,35.72318],[128.5485,35.72384],[128.55239,35.7262],[128.55527,35.72733],[128.55536,35.72734],[128.55563,35.72731],[128.55946,35.72865],[128.56074,35.72947],[128.56083,35.72954],[128.56133,35.73024],[128.56254,35.73199],[128.56259,35.73209],[128.56262,35.73231],[128.56263,35.73264],[128.56265,35.73339],[128.56267,35.73368],[128.56314,35.7352],[128.5633,35.73549],[128.56343,35.73565],[128.56421,35.7362],[128.56433,35.73628],[128.56603,35.73647],[128.56615,35.73647],[128.56714,35.73568],[128.56724,35.73558],[128.56727,35.7355],[128.56752,35.73522],[128.5677,35.73515],[128.57,35.73428],[128.57037,35.73423],[128.57073,35.73425],[128.57091,35.73426],[128.57113,35.73436],[128.57166,35.7346],[128.57774,35.73769],[128.58003,35.73909],[128.58012,35.7391],[128.58176,35.73883],[128.58191,35.7388],[128.58209,35.73864],[128.58253,35.73821],[128.5837,35.73687],[128.58411,35.73637],[128.5846,35.73574],[128.58468,35.73561],[128.58618,35.73421],[128.58931,35.73187],[128.58941,35.73185],[128.58961,35.73193],[128.59161,35.73275],[128.59182,35.7329],[128.59191,35.733],[128.59311,35.73455],[128.5933,35.73481],[128.59351,35.73516],[128.59377,35.73562],[128.5938,35.7358],[128.59618,35.73708],[128.59663,35.73698],[128.59967,35.73665],[128.59998,35.73667],[128.60192,35.73705],[128.60217,35.7371],[128.60242,35.73719],[128.60526,35.73835],[128.60619,35.73879],[128.60658,35.73895],[128.60728,35.73902],[128.60862,35.73907],[128.60881,35.73908],[128.60894,35.73906],[128.61078,35.73855],[128.61189,35.73854],[128.61213,35.7385],[128.61271,35.73838],[128.61416,35.73796],[128.6166,35.73714],[128.61666,35.73712],[128.61664,35.73464],[128.6166,35.73457],[128.61653,35.73453],[128.6156,35.73446],[128.61534,35.73442],[128.61526,35.73438],[128.61447,35.733],[128.61447,35.73294],[128.6145,35.73285],[128.61465,35.73258],[128.61502,35.73189],[128.61525,35.73157],[128.61537,35.73128],[128.61542,35.73104],[128.6154,35.73044],[128.61533,35.73031],[128.61503,35.73002],[128.6147,35.72975],[128.61449,35.72961],[128.61428,35.72952],[128.61401,35.72945],[128.61365,35.72939],[128.61344,35.72935],[128.61186,35.72796],[128.61044,35.72665],[128.61039,35.72656],[128.61023,35.72585],[128.6102,35.72565],[128.61021,35.7255],[128.61029,35.72535],[128.61288,35.7229],[128.61297,35.72281],[128.61307,35.72275],[128.61319,35.72274],[128.61335,35.72276],[128.61381,35.72263],[128.6141,35.72253],[128.61421,35.72247],[128.61511,35.72167],[128.61525,35.72154],[128.61545,35.72128],[128.61561,35.72107],[128.61633,35.71995],[128.61643,35.71976],[128.61715,35.71796],[128.61719,35.71784],[128.61727,35.71746],[128.61726,35.71723],[128.61724,35.71709],[128.61708,35.71671],[128.61701,35.71661],[128.61692,35.71652],[128.61684,35.71646],[128.61614,35.71598],[128.6153,35.71536],[128.61488,35.71505],[128.6148,35.71498],[128.61435,35.71459],[128.61414,35.71438],[128.61404,35.71427],[128.61397,35.7106],[128.61398,35.71051],[128.61405,35.71041],[128.61412,35.71033],[128.61593,35.70846],[128.61856,35.70586],[128.62068,35.70428]]]]}},{"type":"Feature","properties":{"code":"47820340","name":"이서면","parent":"47820"},"geometry":{"type":"MultiPolygon","coordinates":[[[[128.71529,35.7208],[128.71351,35.7192],[128.71288,35.71862],[128.7127,35.71841],[128.71277,35.71822],[128.71288,35.71796],[128.7134,35.71676],[128.71344,35.71664],[128.71341,35.71655],[128.71316,35.71632],[128.71177,35.71531],[128.71084,35.71475],[128.70984,35.71409],[128.70958,35.71391],[128.70947,35.71376],[128.70755,35.70745],[128.70751,35.70725],[128.70747,35.70687],[128.70707,35.69987],[128.70707,35.69717],[128.70712,35.69705],[128.70699,35.69665],[128.70653,35.69567],[128.70646,35.69556],[128.70631,35.69537],[128.70602,35.69514],[128.70572,35.69495],[128.70555,35.69488],[128.70518,35.69477],[128.70486,35.69477],[128.70232,35.69482],[128.70092,35.69488],[128.70074,35.6949],[128.70047,35.69498],[128.70041,35.69498],[128.70035,35.69496],[128.69723,35.69324],[128.697,35.6931],[128.69679,35.69286],[128.69482,35.69012],[128.6938,35.68757],[128.69383,35.68736],[128.69376,35.68716],[128.69203,35.68444],[128.69193,35.68431],[128.69186,35.68426],[128.69168,35.68418],[128.69055,35.68374],[128.68985,35.68357],[128.68958,35.68354],[128.68926,35.68348],[128.68773,35.68319],[128.68762,35.68314],[128.68743,35.68305],[128.68724,35.68289],[128.68709,35.68273],[128.68702,35.68256],[128.68679,35.67971],[128.68696,35.67812],[128.68712,35.67675],[128.68749,35.67543],[128.68752,35.67534],[128.68765,35.67518],[128.68782,35.67508],[128.68805,35.67497],[128.68838,35.67477],[128.68852,35.67466],[128.68861,35.67448],[128.68866,35.67429],[128.68863,35.67406],[128.68855,35.67384],[128.68846,35.67361],[128.68838,35.67344],[128.68831,35.67335],[128.68816,35.67325],[128.68791,35.67313],[128.68639,35.67269],[128.68549,35.67249],[128.6853,35.67246],[128.68509,35.67236],[128.68488,35.6722],[128.68485,35.67217],[128.68474,35.67206],[128.68457,35.67189],[128.68438,35.67168],[128.68424,35.67151],[128.68255,35.66895],[128.68248,35.66876],[128.68247,35.66857],[128.68247,35.66845],[128.68255,35.66825],[128.68261,35.66796],[128.68256,35.66784],[128.68136,35.66569],[128.67942,35.66243],[128.67928,35.66225],[128.67914,35.66214],[128.67898,35.6621],[128.67863,35.66207],[128.67855,35.66207],[128.67851,35.66204],[128.67846,35.66201],[128.67809,35.66162],[128.67799,35.66146],[128.67795,35.66137],[128.67781,35.66097],[128.67812,35.65877],[128.67823,35.65835],[128.67831,35.65812],[128.67841,35.65794],[128.67858,35.65774],[128.67868,35.65765],[128.67889,35.65756],[128.67969,35.65759],[128.68074,35.65769],[128.68268,35.65779],[128.68543,35.6575],[128.68524,35.65711],[128.68464,35.65602],[128.6837,35.65502],[128.68258,35.65425],[128.68219,35.65398],[128.68131,35.65341],[128.67964,35.65236],[128.67931,35.6522],[128.67872,35.65197],[128.67773,35.65172],[128.67697,35.65155],[128.67643,35.65152],[128.67593,35.6515],[128.6755,35.65143],[128.675,35.65135],[128.67337,35.65105],[128.67289,35.65096],[128.67265,35.65089],[128.67124,35.65042],[128.6699,35.64992],[128.66974,35.64983],[128.66958,35.64977],[128.66889,35.6496],[128.66669,35.64915],[128.6655,35.64895],[128.66499,35.64888],[128.66425,35.64883],[128.66385,35.64881],[128.66292,35.64884],[128.66129,35.64894],[128.66081,35.64899],[128.66051,35.64899],[128.65926,35.64895],[128.65912,35.64894],[128.65873,35.64885],[128.6584,35.64877],[128.65794,35.64859],[128.65773,35.64845],[128.6566,35.64766],[128.65648,35.64757],[128.65636,35.64741],[128.65625,35.64704],[128.65613,35.64679],[128.65538,35.64563],[128.65503,35.64515],[128.65486,35.64493],[128.65451,35.64446],[128.65424,35.64416],[128.65371,35.64368],[128.65349,35.6435],[128.65332,35.64338],[128.65299,35.64327],[128.6527,35.64321],[128.65252,35.64318],[128.65243,35.64317],[128.6501,35.64299],[128.64923,35.64296],[128.6488,35.64297],[128.6483,35.64302],[128.64777,35.64316],[128.64643,35.64352],[128.64614,35.6436],[128.64533,35.64385],[128.64243,35.64462],[128.64193,35.64475],[128.64093,35.64497],[128.6406,35.64503],[128.64023,35.64508],[128.63936,35.64516],[128.63919,35.64518],[128.63883,35.64516],[128.63865,35.64511],[128.63853,35.64507],[128.6383,35.645],[128.63816,35.64493],[128.63767,35.64459],[128.63696,35.6441],[128.6367,35.6439],[128.63651,35.64374],[128.63621,35.64347],[128.6332,35.64064],[128.6297,35.64283],[128.62986,35.64315],[128.63035,35.64415],[128.6316,35.64673],[128.63154,35.64684],[128.63127,35.64726],[128.63025,35.6488],[128.62797,35.65202],[128.62774,35.65226],[128.62717,35.65278],[128.62667,35.65307],[128.62644,35.65319],[128.6262,35.65329],[128.62593,35.65339],[128.62509,35.65346],[128.62475,35.65347],[128.62453,35.65353],[128.62148,35.65542],[128.62146,35.65546],[128.62149,35.65558],[128.62188,35.65628],[128.62402,35.65986],[128.62582,35.66242],[128.62585,35.66255],[128.62585,35.66269],[128.62469,35.66773],[128.62463,35.66785],[128.62453,35.66793],[128.62444,35.66797],[128.62429,35.66801],[128.62393,35.66809],[128.62365,35.66815],[128.62345,35.66816],[128.62315,35.66818],[128.62277,35.66819],[128.62089,35.66841],[128.62003,35.66866],[128.61972,35.6688],[128.61937,35.66897],[128.6183,35.66971],[128.61545,35.67206],[128.61522,35.67231],[128.61402,35.67391],[128.61394,35.67407],[128.61396,35.67418],[128.61455,35.67838],[128.61516,35.68244],[128.61529,35.6851],[128.61345,35.68755],[128.61313,35.68769],[128.61269,35.68796],[128.61251,35.68806],[128.61241,35.68818],[128.61229,35.68842],[128.61168,35.68988],[128.61125,35.69105],[128.61116,35.69135],[128.61109,35.69221],[128.61156,35.69736],[128.61176,35.6983],[128.61188,35.69854],[128.61223,35.69891],[128.61475,35.70082],[128.61659,35.70163],[128.61686,35.70167],[128.61741,35.70163],[128.61767,35.70165],[128.61787,35.70177],[128.61971,35.70302],[128.61995,35.70322],[128.62007,35.70333],[128.62052,35.70401],[128.62068,35.70428],[128.62187,35.70375],[128.62254,35.70347],[128.62307,35.7034],[128.62377,35.70357],[128.62391,35.70361],[128.62454,35.70381],[128.62503,35.70398],[128.62898,35.70584],[128.63051,35.70676],[128.63084,35.707],[128.63097,35.70704],[128.6313,35.70707],[128.63162,35.70704],[128.63199,35.70698],[128.6325,35.70686],[128.63402,35.70655],[128.63769,35.70585],[128.63783,35.70585],[128.63877,35.70598],[128.6396,35.70615],[128.64023,35.70631],[128.64361,35.70723],[128.64623,35.70843],[128.65043,35.71215],[128.65438,35.71449],[128.65461,35.71465],[128.65478,35.7148],[128.65502,35.71504],[128.65533,35.71541],[128.65665,35.71728],[128.65817,35.71852],[128.66056,35.71978],[128.66099,35.71998],[128.66119,35.72007],[128.66354,35.72055],[128.66375,35.72055],[128.66396,35.72049],[128.66757,35.71937],[128.67055,35.71894],[128.67076,35.71892],[128.67091,35.71894],[128.67105,35.719],[128.67118,35.71918],[128.67154,35.71983],[128.67179,35.7203],[128.67184,35.72043],[128.67186,35.72053],[128.67186,35.72064],[128.67188,35.72069],[128.67194,35.72076],[128.67289,35.72096],[128.67382,35.72116],[128.67498,35.72131],[128.67531,35.72133],[128.67558,35.72133],[128.67656,35.72126],[128.67669,35.72125],[128.6779,35.72104],[128.68195,35.72119],[128.6823,35.72121],[128.68257,35.72124],[128.68286,35.7213],[128.68308,35.72139],[128.68327,35.72149],[128.68331,35.72155],[128.68336,35.72161],[128.68339,35.72176],[128.68329,35.72254],[128.68318,35.72326],[128.68311,35.72391],[128.68299,35.72531],[128.683,35.72545],[128.68302,35.72551],[128.68513,35.72736],[128.68547,35.72762],[128.68583,35.72785],[128.686,35.72791],[128.68624,35.72796],[128.68741,35.72848],[128.68983,35.72969],[128.69016,35.72988],[128.69059,35.73027],[128.69098,35.73068],[128.69156,35.73174],[128.69179,35.73233],[128.69175,35.73263],[128.6911,35.73565],[128.69086,35.73588],[128.69037,35.73622],[128.68972,35.73656],[128.68934,35.73678],[128.68902,35.73702],[128.68869,35.73735],[128.68867,35.73753],[128.68937,35.73951],[128.68952,35.73987],[128.68966,35.74003],[128.68983,35.74005],[128.69189,35.74119],[128.69376,35.74306],[128.69438,35.74388],[128.69776,35.74315],[128.69924,35.74341],[128.6999,35.74349],[128.70187,35.74371],[128.702,35.74372],[128.7021,35.74369],[128.70218,35.74362],[128.70223,35.74348],[128.70222,35.74328],[128.70209,35.74272],[128.70202,35.74249],[128.70185,35.74198],[128.70179,35.74176],[128.70179,35.74162],[128.70181,35.74142],[128.70186,35.74123],[128.70216,35.74016],[128.70404,35.73625],[128.70447,35.73567],[128.70476,35.73533],[128.70835,35.73248],[128.71001,35.73148],[128.71082,35.73106],[128.71096,35.73088],[128.71109,35.73066],[128.71311,35.72675],[128.71333,35.72625],[128.71493,35.7221],[128.71529,35.7208]]]]}},{"type":"Feature","properties":{"code":"47820350","name":"운문면","parent":"47820"},"geometry":{"type":"MultiPolygon","coordinates":[[[[129.04731,35.65015],[129.0464,35.64911],[129.04516,35.64722],[129.04475,35.64641],[129.04454,35.64567],[129.04461,35.6449],[129.04458,35.64375],[129.04437,35.64261],[129.04392,35.64145],[129.04096,35.63741],[129.0394,35.63572],[129.0381,35.63462],[129.03769,35.63394],[129.03747,35.63359],[129.03748,35.63282],[129.03738,35.63245],[129.03705,35.63222],[129.03647,35.6319],[129.03605,35.63184],[129.03589,35.63186],[129.03576,35.63188],[129.03497,35.632],[129.03046,35.63414],[129.02966,35.63453],[129.02871,35.63514],[129.02786,35.63572],[129.02753,35.63623],[129.02714,35.63635],[129.02552,35.63625],[129.02098,35.63556],[129.02053,35.63535],[129.02007,35.63489],[129.01993,35.63401],[129.01952,35.63318],[129.01883,35.6322],[129.01757,35.63091],[129.01551,35.62974],[129.01447,35.62924],[129.0136,35.62892],[129.01255,35.62888],[129.01177,35.62901],[129.01104,35.62912],[129.00982,35.62855],[129.00773,35.62681],[129.00707,35.6251],[129.00636,35.62386],[129.00433,35.62067],[129.00335,35.62014],[129.00246,35.61882],[129.00137,35.6178],[128.99966,35.61661],[128.99574,35.61417],[128.9928,35.61247],[128.99203,35.61213],[128.99172,35.61202],[128.99113,35.61184],[128.99066,35.61173],[128.99031,35.61155],[128.99011,35.61141],[128.98852,35.6101],[128.98655,35.60841],[128.98613,35.60799],[128.98592,35.60792],[128.98565,35.60786],[128.98192,35.60757],[128.98176,35.60757],[128.97912,35.60831],[128.97895,35.60842],[128.9788,35.60866],[128.97856,35.60902],[128.97842,35.60924],[128.97802,35.60981],[128.97785,35.60996],[128.9773,35.61038],[128.9748,35.61215],[128.97209,35.61384],[128.97166,35.61404],[128.97079,35.61434],[128.9707,35.61436],[128.97064,35.61434],[128.9705,35.61426],[128.97035,35.6142],[128.96958,35.61404],[128.96935,35.61401],[128.96722,35.61397],[128.96251,35.61435],[128.96241,35.61437],[128.9623,35.6144],[128.96002,35.61527],[128.95988,35.61535],[128.95978,35.61545],[128.95971,35.61556],[128.95971,35.61574],[128.95978,35.61602],[128.95998,35.61633],[128.96005,35.61639],[128.96018,35.61651],[128.96039,35.61679],[128.96044,35.61692],[128.96048,35.61719],[128.96055,35.61817],[128.96056,35.61831],[128.96053,35.61846],[128.96029,35.61928],[128.96025,35.61933],[128.95916,35.62037],[128.9586,35.62079],[128.95706,35.62174],[128.95696,35.62179],[128.95675,35.6218],[128.95639,35.62177],[128.95622,35.62174],[128.95611,35.62173],[128.95602,35.62175],[128.95582,35.62184],[128.95562,35.62194],[128.95527,35.62211],[128.95515,35.62219],[128.95355,35.62344],[128.95116,35.6259],[128.94973,35.62761],[128.94907,35.62868],[128.94729,35.62974],[128.94382,35.63157],[128.94217,35.63226],[128.94158,35.63255],[128.9413,35.63271],[128.94118,35.63281],[128.94102,35.63299],[128.94095,35.63307],[128.94101,35.63476],[128.94071,35.63586],[128.94065,35.63611],[128.94052,35.6369],[128.94047,35.63722],[128.94031,35.63856],[128.94088,35.63999],[128.941,35.64023],[128.94116,35.64042],[128.94134,35.64061],[128.94159,35.64076],[128.94172,35.64086],[128.9418,35.64098],[128.94207,35.64158],[128.94316,35.64436],[128.94326,35.64466],[128.94336,35.64499],[128.94354,35.64593],[128.94617,35.65105],[128.94901,35.65561],[128.94913,35.65586],[128.94968,35.65708],[128.94982,35.66382],[128.94979,35.66409],[128.94975,35.6642],[128.94579,35.66964],[128.94533,35.67024],[128.945,35.67058],[128.94436,35.6712],[128.94417,35.67134],[128.94129,35.67335],[128.93771,35.67593],[128.93762,35.67609],[128.93734,35.67664],[128.9373,35.67672],[128.93728,35.67682],[128.93703,35.68098],[128.93702,35.68114],[128.93702,35.68122],[128.93703,35.68133],[128.93778,35.68306],[128.93856,35.68436],[128.9387,35.68453],[128.93897,35.68487],[128.93911,35.68504],[128.93918,35.68517],[128.93919,35.68523],[128.93925,35.68704],[128.93926,35.68739],[128.93924,35.68775],[128.93923,35.68807],[128.93916,35.68825],[128.93912,35.68832],[128.93901,35.68844],[128.93873,35.68874],[128.93865,35.68882],[128.93841,35.68896],[128.93837,35.68901],[128.93835,35.68909],[128.93803,35.69106],[128.93798,35.69142],[128.93796,35.6916],[128.93815,35.69544],[128.93636,35.70069],[128.93583,35.70253],[128.93582,35.70267],[128.93584,35.70276],[128.9359,35.70283],[128.9361,35.70302],[128.93625,35.70325],[128.93633,35.70341],[128.93711,35.70748],[128.93711,35.70757],[128.93669,35.70938],[128.93639,35.70936],[128.93281,35.70902],[128.93012,35.70805],[128.92835,35.70737],[128.928,35.70718],[128.92769,35.70697],[128.92738,35.70669],[128.92702,35.70658],[128.92629,35.70669],[128.92186,35.70757],[128.91749,35.70764],[128.9159,35.7087],[128.91148,35.71294],[128.91025,35.7142],[128.91005,35.71433],[128.90734,35.71524],[128.90685,35.7153],[128.90604,35.72158],[128.9066,35.72305],[128.90933,35.72802],[128.91161,35.73177],[128.91344,35.73764],[128.91299,35.73837],[128.91284,35.73863],[128.91279,35.73874],[128.91274,35.73888],[128.91274,35.73908],[128.91283,35.73993],[128.91288,35.74013],[128.91325,35.74089],[128.91337,35.74113],[128.91349,35.74127],[128.91363,35.74138],[128.91377,35.74144],[128.91406,35.74155],[128.91491,35.74183],[128.91526,35.7419],[128.91547,35.74195],[128.91565,35.74202],[128.91575,35.74207],[128.91674,35.74267],[128.9168,35.74273],[128.91688,35.74293],[128.91712,35.74357],[128.91717,35.74378],[128.9173,35.7445],[128.91734,35.74483],[128.92038,35.74633],[128.92307,35.74741],[128.92714,35.74911],[128.92724,35.74916],[128.928,35.75143],[128.92799,35.75154],[128.92799,35.75174],[128.9276,35.75317],[128.92756,35.7533],[128.92751,35.75341],[128.92745,35.75352],[128.92717,35.75397],[128.92614,35.75547],[128.92643,35.75644],[128.92655,35.75666],[128.92669,35.75679],[128.92689,35.75686],[128.92749,35.75698],[128.92792,35.75703],[128.92821,35.75708],[128.92844,35.75714],[128.9288,35.75725],[128.92926,35.75741],[128.92953,35.75754],[128.92973,35.75769],[128.92985,35.75785],[128.93066,35.75887],[128.93205,35.76058],[128.93213,35.76066],[128.93223,35.7607],[128.93307,35.7609],[128.93388,35.76109],[128.93436,35.76123],[128.9345,35.7613],[128.93464,35.76142],[128.93474,35.76153],[128.93478,35.76158],[128.93484,35.76177],[128.93519,35.76304],[128.93731,35.76687],[128.9385,35.76835],[128.94043,35.77111],[128.94053,35.77129],[128.94062,35.77172],[128.94068,35.77213],[128.94095,35.77441],[128.94178,35.77688],[128.94183,35.77699],[128.94191,35.77714],[128.94282,35.77831],[128.94297,35.7785],[128.94314,35.77867],[128.94384,35.77936],[128.94414,35.77958],[128.94433,35.77967],[128.94456,35.77977],[128.94476,35.77987],[128.94497,35.77998],[128.94566,35.78056],[128.94581,35.78073],[128.9463,35.78142],[128.94635,35.7815],[128.94638,35.78271],[128.94633,35.78286],[128.94607,35.78361],[128.94599,35.78369],[128.94592,35.78373],[128.94579,35.78377],[128.94565,35.78381],[128.94483,35.78436],[128.94473,35.78443],[128.94461,35.78459],[128.94458,35.78468],[128.94443,35.7858],[128.94443,35.7861],[128.94448,35.78638],[128.94454,35.78652],[128.9446,35.78664],[128.94468,35.78678],[128.9448,35.78696],[128.9462,35.78897],[128.94697,35.78993],[128.94811,35.79102],[128.94966,35.79326],[128.94968,35.79331],[128.9497,35.79336],[128.95072,35.79655],[128.95089,35.79822],[128.95466,35.80136],[128.95477,35.8015],[128.95548,35.80265],[128.95556,35.80282],[128.95557,35.80291],[128.95557,35.80301],[128.95567,35.80485],[128.95576,35.80668],[128.9557,35.80682],[128.9552,35.80817],[128.95512,35.80845],[128.95444,35.81118],[128.95442,35.81158],[128.95444,35.81187],[128.95448,35.812],[128.95514,35.81394],[128.9552,35.81411],[128.95528,35.81428],[128.95534,35.81435],[128.95557,35.81456],[128.95585,35.81477],[128.95615,35.81501],[128.9567,35.81563],[128.95812,35.81763],[128.95814,35.81769],[128.95822,35.81786],[128.9591,35.82037],[128.9599,35.82334],[128.96292,35.82855],[128.96294,35.82858],[128.96296,35.82862],[128.96301,35.82873],[128.96303,35.82881],[128.96305,35.82888],[128.96307,35.829],[128.96307,35.82909],[128.96307,35.82924],[128.96307,35.82928],[128.96307,35.82933],[128.96297,35.83021],[128.96296,35.83028],[128.96535,35.83382],[128.96594,35.83449],[128.9681,35.83497],[128.97076,35.83544],[128.97423,35.83449],[128.97774,35.83289],[128.97791,35.83288],[128.97835,35.83288],[128.98155,35.83307],[128.98409,35.83343],[128.98656,35.8344],[128.98746,35.83506],[128.98767,35.83581],[128.98929,35.83776],[128.99438,35.84021],[128.99505,35.84044],[129.00029,35.84217],[129.00065,35.84225],[129.00206,35.84243],[129.00319,35.84239],[129.00404,35.84247],[129.00596,35.84326],[129.00649,35.8435],[129.00702,35.84383],[129.008,35.84451],[129.00873,35.84492],[129.01005,35.84504],[129.01022,35.84505],[129.01104,35.84502],[129.01135,35.84494],[129.01181,35.84471],[129.01233,35.84468],[129.0128,35.84474],[129.01299,35.84478],[129.01413,35.8462],[129.01651,35.84465],[129.01619,35.84458],[129.01611,35.8445],[129.01606,35.84444],[129.01587,35.84395],[129.01588,35.84388],[129.0161,35.842],[129.01639,35.84061],[129.0138,35.83561],[129.01022,35.8336],[129.01009,35.8336],[129.00993,35.83354],[129.00983,35.83349],[129.00975,35.83342],[129.00885,35.8326],[129.00842,35.83202],[129.00833,35.8319],[129.00831,35.8318],[129.00791,35.82904],[129.0078,35.82781],[129.0059,35.82508],[129.00544,35.82497],[129.00533,35.82493],[129.00521,35.82484],[129.0048,35.82442],[129.00476,35.82436],[129.00435,35.82338],[129.00434,35.82331],[129.0038,35.81966],[129.00349,35.81737],[129.00354,35.81708],[129.00353,35.81695],[129.00351,35.8168],[129.00348,35.81668],[129.00341,35.81649],[129.00336,35.81636],[129.00046,35.81153],[128.99724,35.80638],[128.99714,35.80623],[128.99688,35.80596],[128.99667,35.80578],[128.99415,35.80372],[128.99188,35.80194],[128.99178,35.80186],[128.9917,35.80179],[128.99151,35.80159],[128.99051,35.80045],[128.99042,35.80034],[128.99035,35.80023],[128.9903,35.80012],[128.99028,35.80003],[128.99028,35.79999],[128.99029,35.79994],[128.99031,35.79992],[128.99033,35.79988],[128.99039,35.79983],[128.99045,35.79978],[128.99053,35.79974],[128.99067,35.79968],[128.99092,35.79959],[128.99103,35.79953],[128.9911,35.79947],[128.99122,35.79934],[128.99129,35.79925],[128.99134,35.79917],[128.99298,35.79545],[128.99287,35.7945],[128.99244,35.79306],[128.99241,35.79301],[128.99124,35.79142],[128.98762,35.78547],[128.98757,35.78538],[128.98725,35.78469],[128.98722,35.78458],[128.98719,35.78438],[128.98719,35.78434],[128.98771,35.78415],[128.98785,35.78397],[128.98798,35.78349],[128.98793,35.783],[128.98776,35.7816],[128.98747,35.77999],[128.98736,35.77829],[128.98764,35.77547],[128.98842,35.77407],[128.988,35.77284],[128.98757,35.77243],[128.98722,35.77229],[128.9864,35.77214],[128.98548,35.77208],[128.98491,35.77233],[128.98414,35.7726],[128.98372,35.77265],[128.98286,35.77261],[128.98086,35.77118],[128.98026,35.77087],[128.97828,35.77104],[128.97673,35.77104],[128.97494,35.771],[128.97492,35.77098],[128.9748,35.77088],[128.97444,35.77054],[128.97427,35.77033],[128.97419,35.77017],[128.97418,35.77011],[128.97473,35.76574],[128.97488,35.76491],[128.97509,35.76382],[128.97515,35.76286],[128.97515,35.76259],[128.97514,35.76232],[128.97464,35.7602],[128.97459,35.76009],[128.97153,35.75524],[128.97053,35.75367],[128.96993,35.75302],[128.96988,35.75291],[128.96988,35.75284],[128.96988,35.75277],[128.97039,35.75148],[128.97051,35.75129],[128.97062,35.75111],[128.97079,35.7509],[128.97099,35.75074],[128.97194,35.7499],[128.97417,35.74781],[128.97423,35.74772],[128.97429,35.74749],[128.97428,35.74737],[128.97377,35.73968],[128.97375,35.73956],[128.9732,35.73797],[128.97257,35.73717],[128.97255,35.73713],[128.97258,35.73708],[128.97268,35.737],[128.97274,35.73695],[128.97453,35.73586],[128.97475,35.73572],[128.97503,35.73557],[128.97528,35.73544],[128.97708,35.73456],[128.97796,35.73421],[128.98197,35.73091],[128.9828,35.73022],[128.98591,35.72753],[128.98978,35.72347],[128.98992,35.72327],[128.9901,35.72295],[128.99048,35.722],[128.99064,35.72122],[128.99058,35.721],[128.99057,35.72079],[128.9906,35.72056],[128.99124,35.71936],[128.99129,35.71931],[128.99273,35.71893],[128.99603,35.71794],[128.99686,35.7176],[128.99698,35.71754],[128.99702,35.7175],[128.99703,35.71739],[128.9968,35.71459],[128.99678,35.7144],[128.99673,35.71418],[128.99665,35.71402],[128.99656,35.71394],[128.99644,35.71381],[128.99636,35.71366],[128.99634,35.71347],[128.99659,35.71273],[128.99669,35.71256],[128.99845,35.71027],[129.00004,35.7094],[129.00323,35.70671],[129.0036,35.70633],[129.00397,35.70594],[129.00498,35.70485],[129.00456,35.70198],[129.00408,35.6996],[129.00388,35.69769],[129.004,35.6953],[129.00401,35.69499],[129.00405,35.6949],[129.00422,35.69463],[129.00497,35.69363],[129.00509,35.6935],[129.00525,35.69338],[129.0053,35.69337],[129.00545,35.69336],[129.00572,35.69339],[129.00626,35.69349],[129.00663,35.69361],[129.00709,35.69386],[129.00757,35.69411],[129.00789,35.69424],[129.00825,35.69429],[129.00845,35.6943],[129.00858,35.69427],[129.01137,35.69313],[129.01205,35.69279],[129.01244,35.69251],[129.01268,35.6923],[129.0134,35.69168],[129.01346,35.69163],[129.01405,35.69117],[129.01415,35.6911],[129.01438,35.69096],[129.01465,35.69079],[129.01507,35.69055],[129.01942,35.68828],[129.01954,35.68822],[129.02243,35.68751],[129.0225,35.68751],[129.02273,35.68752],[129.02281,35.68754],[129.02422,35.68799],[129.02441,35.68806],[129.02455,35.68818],[129.02497,35.68858],[129.02525,35.68886],[129.02868,35.68958],[129.03245,35.69047],[129.03269,35.69054],[129.03295,35.69066],[129.03447,35.6914],[129.03461,35.69149],[129.03474,35.69161],[129.03495,35.69184],[129.03505,35.69195],[129.03514,35.69206],[129.03524,35.69218],[129.03531,35.69226],[129.0354,35.69237],[129.03554,35.69243],[129.0356,35.69246],[129.03575,35.69247],[129.03748,35.6926],[129.03756,35.69256],[129.03758,35.69249],[129.03798,35.68881],[129.03794,35.68748],[129.03613,35.67877],[129.03606,35.67775],[129.03601,35.67766],[129.03587,35.67752],[129.03584,35.6775],[129.0355,35.67719],[129.0354,35.6771],[129.03467,35.67645],[129.0344,35.67623],[129.03557,35.67331],[129.03567,35.67324],[129.03601,35.67299],[129.03609,35.67291],[129.03647,35.67252],[129.03665,35.67228],[129.03804,35.67024],[129.03954,35.66707],[129.03959,35.66698],[129.03968,35.66674],[129.03972,35.66661],[129.03995,35.66537],[129.0407,35.66092],[129.04071,35.66081],[129.04072,35.66056],[129.0407,35.66022],[129.04069,35.66012],[129.04065,35.65984],[129.0406,35.65953],[129.04058,35.65942],[129.04052,35.65908],[129.04044,35.65869],[129.04035,35.6582],[129.04098,35.65708],[129.04281,35.65476],[129.04296,35.65459],[129.04305,35.65451],[129.04318,35.65443],[129.04326,35.6544],[129.0435,35.65431],[129.0436,35.65428],[129.04382,35.65418],[129.04402,35.65409],[129.04415,35.65403],[129.04433,35.65393],[129.04457,35.6538],[129.0447,35.65372],[129.04482,35.65364],[129.04566,35.65286],[129.04609,35.65239],[129.04658,35.65185],[129.04666,35.65176],[129.0467,35.6517],[129.04674,35.65164],[129.04731,35.65015]]]]}},{"type":"Feature","properties":{"code":"47820360","name":"금천면","parent":"47820"},"geometry":{"type":"MultiPolygon","coordinates":[[[[128.92614,35.75547],[128.92717,35.75397],[128.92745,35.75352],[128.92751,35.75341],[128.92756,35.7533],[128.9276,35.75317],[128.92799,35.75174],[128.92799,35.75154],[128.928,35.75143],[128.92724,35.74916],[128.92714,35.74911],[128.92307,35.74741],[128.92038,35.74633],[128.91734,35.74483],[128.9173,35.7445],[128.91717,35.74378],[128.91712,35.74357],[128.91688,35.74293],[128.9168,35.74273],[128.91674,35.74267],[128.91575,35.74207],[128.91565,35.74202],[128.91547,35.74195],[128.91526,35.7419],[128.91491,35.74183],[128.91406,35.74155],[128.91377,35.74144],[128.91363,35.74138],[128.91349,35.74127],[128.91337,35.74113],[128.91325,35.74089],[128.91288,35.74013],[128.91283,35.73993],[128.91274,35.73908],[128.91274,35.73888],[128.91279,35.73874],[128.91284,35.73863],[128.91299,35.73837],[128.91344,35.73764],[128.91161,35.73177],[128.90933,35.72802],[128.9066,35.72305],[128.90604,35.72158],[128.90685,35.7153],[128.90734,35.71524],[128.91005,35.71433],[128.91025,35.7142],[128.91148,35.71294],[128.9159,35.7087],[128.91749,35.70764],[128.92186,35.70757],[128.92629,35.70669],[128.92702,35.70658],[128.92738,35.70669],[128.92769,35.70697],[128.928,35.70718],[128.92835,35.70737],[128.93012,35.70805],[128.93281,35.70902],[128.93639,35.70936],[128.93669,35.70938],[128.93711,35.70757],[128.93711,35.70748],[128.93633,35.70341],[128.93625,35.70325],[128.9361,35.70302],[128.9359,35.70283],[128.93584,35.70276],[128.93582,35.70267],[128.93583,35.70253],[128.93636,35.70069],[128.93815,35.69544],[128.93796,35.6916],[128.93798,35.69142],[128.93803,35.69106],[128.93835,35.68909],[128.93837,35.68901],[128.93841,35.68896],[128.93865,35.68882],[128.93873,35.68874],[128.93901,35.68844],[128.93912,35.68832],[128.93916,35.68825],[128.93923,35.68807],[128.93924,35.68775],[128.93926,35.68739],[128.93925,35.68704],[128.93919,35.68523],[128.93918,35.68517],[128.93911,35.68504],[128.93897,35.68487],[128.9387,35.68453],[128.93856,35.68436],[128.93778,35.68306],[128.93703,35.68133],[128.93702,35.68122],[128.93702,35.68114],[128.93703,35.68098],[128.93728,35.67682],[128.9373,35.67672],[128.93734,35.67664],[128.93762,35.67609],[128.93771,35.67593],[128.94129,35.67335],[128.94417,35.67134],[128.94436,35.6712],[128.945,35.67058],[128.94533,35.67024],[128.94579,35.66964],[128.94975,35.6642],[128.94979,35.66409],[128.94982,35.66382],[128.94968,35.65708],[128.94913,35.65586],[128.94901,35.65561],[128.94617,35.65105],[128.94354,35.64593],[128.94336,35.64499],[128.94326,35.64466],[128.94316,35.64436],[128.94207,35.64158],[128.9418,35.64098],[128.94172,35.64086],[128.94159,35.64076],[128.94134,35.64061],[128.94116,35.64042],[128.941,35.64023],[128.94088,35.63999],[128.94031,35.63856],[128.94047,35.63722],[128.94052,35.6369],[128.94065,35.63611],[128.94071,35.63586],[128.94101,35.63476],[128.94095,35.63307],[128.93885,35.63366],[128.93508,35.63393],[128.93483,35.6339],[128.93296,35.63389],[128.93288,35.63391],[128.93098,35.63432],[128.9309,35.63434],[128.92599,35.63618],[128.9256,35.63633],[128.9243,35.63684],[128.92415,35.63694],[128.92308,35.63785],[128.92309,35.64434],[128.92271,35.6457],[128.92311,35.64607],[128.92329,35.64662],[128.9231,35.64685],[128.92107,35.64709],[128.92031,35.64708],[128.91975,35.64704],[128.91968,35.64658],[128.91967,35.64605],[128.91932,35.64567],[128.91677,35.64532],[128.91494,35.64541],[128.91391,35.64624],[128.91268,35.64817],[128.90712,35.65273],[128.90651,35.65309],[128.90414,35.65282],[128.90254,35.65227],[128.90118,35.65182],[128.90113,35.65181],[128.90103,35.65183],[128.89749,35.65255],[128.89738,35.65258],[128.89657,35.65293],[128.89532,35.65356],[128.89525,35.65362],[128.8952,35.65369],[128.89516,35.6539],[128.89528,35.65483],[128.8929,35.65582],[128.88937,35.65757],[128.8893,35.65763],[128.88926,35.6577],[128.88925,35.65779],[128.88923,35.65843],[128.88926,35.65874],[128.88929,35.65892],[128.88857,35.66284],[128.88638,35.66677],[128.88388,35.67185],[128.88382,35.67198],[128.88375,35.67216],[128.88365,35.67276],[128.88363,35.67287],[128.88359,35.67442],[128.88362,35.67501],[128.88362,35.67632],[128.88357,35.6764],[128.88226,35.67794],[128.88072,35.67366],[128.87998,35.67975],[128.87952,35.68562],[128.87951,35.68574],[128.87881,35.68728],[128.8787,35.68741],[128.87857,35.68752],[128.87718,35.68851],[128.87704,35.6886],[128.87695,35.68864],[128.87682,35.68865],[128.87652,35.68863],[128.8763,35.68861],[128.87619,35.68862],[128.87609,35.68865],[128.87594,35.68874],[128.87569,35.68894],[128.87559,35.68902],[128.86992,35.69493],[128.86959,35.69538],[128.86949,35.69554],[128.86928,35.69594],[128.86897,35.69715],[128.86894,35.69735],[128.86893,35.69753],[128.8689,35.69828],[128.8689,35.69848],[128.86892,35.69857],[128.86897,35.69868],[128.86914,35.69891],[128.86923,35.69908],[128.8693,35.69928],[128.86985,35.70112],[128.86988,35.70127],[128.86987,35.70138],[128.86983,35.70152],[128.8691,35.70339],[128.86854,35.70481],[128.8683,35.70542],[128.86815,35.70571],[128.8678,35.70615],[128.86633,35.71049],[128.86602,35.71249],[128.86523,35.71574],[128.86513,35.71594],[128.86497,35.71606],[128.86404,35.71659],[128.86391,35.7166],[128.86387,35.7166],[128.85937,35.71644],[128.8572,35.71627],[128.85624,35.71672],[128.85609,35.71691],[128.85583,35.71712],[128.85521,35.71749],[128.85514,35.71749],[128.85346,35.71676],[128.85321,35.71663],[128.85277,35.71634],[128.85251,35.71612],[128.85239,35.71588],[128.85239,35.71571],[128.85246,35.71546],[128.85251,35.71528],[128.85246,35.71502],[128.85238,35.71486],[128.85225,35.71471],[128.84888,35.71348],[128.84877,35.71347],[128.84858,35.71347],[128.84841,35.7135],[128.84603,35.71428],[128.84497,35.71492],[128.84325,35.71609],[128.84315,35.71619],[128.84309,35.71638],[128.84145,35.71877],[128.83718,35.72204],[128.83616,35.7262],[128.83481,35.72906],[128.83471,35.72918],[128.8326,35.73109],[128.83075,35.73264],[128.83031,35.73286],[128.82989,35.73303],[128.82883,35.73385],[128.82758,35.73527],[128.82746,35.73554],[128.82709,35.73841],[128.8297,35.73998],[128.83208,35.74176],[128.8323,35.74213],[128.83399,35.74509],[128.83406,35.74513],[128.83507,35.74548],[128.83526,35.74554],[128.83545,35.74557],[128.83549,35.74557],[128.8357,35.74557],[128.83702,35.7452],[128.84059,35.74355],[128.84463,35.74167],[128.84478,35.74161],[128.84526,35.7415],[128.84548,35.74145],[128.84885,35.74121],[128.84898,35.7412],[128.84951,35.74128],[128.84973,35.74132],[128.84983,35.74136],[128.85183,35.7422],[128.85458,35.74354],[128.85501,35.74376],[128.85669,35.74499],[128.85684,35.74512],[128.85699,35.74526],[128.85814,35.74704],[128.85835,35.74743],[128.85828,35.74789],[128.85822,35.74818],[128.85802,35.74878],[128.85777,35.74932],[128.85749,35.74977],[128.85626,35.75165],[128.85482,35.75351],[128.8547,35.75361],[128.85462,35.75371],[128.85457,35.75382],[128.85456,35.75388],[128.85428,35.75565],[128.85428,35.75571],[128.85429,35.75577],[128.85432,35.75586],[128.85436,35.7559],[128.85443,35.75597],[128.85525,35.7567],[128.8554,35.75681],[128.85556,35.75691],[128.85593,35.75707],[128.85671,35.75732],[128.85754,35.75708],[128.85942,35.7558],[128.86039,35.75523],[128.86303,35.75655],[128.86442,35.75724],[128.86452,35.75731],[128.86458,35.75738],[128.8646,35.75742],[128.86463,35.75754],[128.86465,35.75788],[128.86466,35.75796],[128.86469,35.758],[128.86478,35.75812],[128.86486,35.75822],[128.86496,35.75835],[128.86507,35.75841],[128.86517,35.75843],[128.86523,35.75842],[128.86635,35.75815],[128.8664,35.75814],[128.86655,35.75803],[128.86662,35.75795],[128.86928,35.7552],[128.86986,35.75397],[128.87147,35.75206],[128.8753,35.74852],[128.8754,35.74843],[128.87561,35.7483],[128.87584,35.74819],[128.87619,35.74803],[128.8763,35.74802],[128.87656,35.74807],[128.87917,35.74881],[128.88642,35.75121],[128.8865,35.75124],[128.8889,35.75286],[128.89159,35.75482],[128.89245,35.75692],[128.89237,35.75719],[128.89237,35.75735],[128.89232,35.7586],[128.89233,35.75867],[128.89369,35.76206],[128.89408,35.7628],[128.89456,35.7636],[128.89465,35.76373],[128.89476,35.7638],[128.89496,35.76384],[128.89527,35.76389],[128.89551,35.7639],[128.89569,35.7639],[128.89576,35.76387],[128.89677,35.76289],[128.89735,35.76289],[128.89746,35.76287],[128.89761,35.76279],[128.89775,35.7627],[128.89818,35.76225],[128.89865,35.76165],[128.89882,35.7613],[128.89905,35.76063],[128.9008,35.75514],[128.90103,35.75249],[128.90097,35.75237],[128.90098,35.75226],[128.90146,35.75072],[128.90182,35.74976],[128.90187,35.74961],[128.90209,35.74916],[128.90347,35.74686],[128.90366,35.74666],[128.90387,35.74649],[128.90405,35.74635],[128.90417,35.74629],[128.90428,35.74627],[128.90445,35.7463],[128.90624,35.74676],[128.90646,35.74683],[128.9066,35.7469],[128.90718,35.74729],[128.90744,35.74748],[128.90766,35.74767],[128.90776,35.74776],[128.9078,35.74785],[128.90781,35.74791],[128.90795,35.75134],[128.90815,35.75147],[128.90927,35.7524],[128.91218,35.75482],[128.91227,35.7549],[128.91234,35.75502],[128.91237,35.75513],[128.91239,35.75529],[128.91239,35.75561],[128.91243,35.75582],[128.91247,35.75595],[128.91297,35.75696],[128.91307,35.75709],[128.91326,35.75731],[128.914,35.75804],[128.91405,35.75806],[128.9141,35.75806],[128.91666,35.7575],[128.91807,35.7571],[128.92033,35.75618],[128.92093,35.75581],[128.92113,35.75571],[128.92141,35.75557],[128.92162,35.75548],[128.92177,35.75545],[128.9221,35.75544],[128.92246,35.75544],[128.92614,35.75547]]]]}},{"type":"Feature","properties":{"code":"47820370","name":"매전면","parent":"47820"},"geometry":{"type":"MultiPolygon","coordinates":[[[[128.82709,35.73841],[128.82746,35.73554],[128.82758,35.73527],[128.82883,35.73385],[128.82989,35.73303],[128.83031,35.73286],[128.83075,35.73264],[128.8326,35.73109],[128.83471,35.72918],[128.83481,35.72906],[128.83616,35.7262],[128.83718,35.72204],[128.84145,35.71877],[128.84309,35.71638],[128.84315,35.71619],[128.84325,35.71609],[128.84497,35.71492],[128.84603,35.71428],[128.84841,35.7135],[128.84858,35.71347],[128.84877,35.71347],[128.84888,35.71348],[128.85225,35.71471],[128.85238,35.71486],[128.85246,35.71502],[128.85251,35.71528],[128.85246,35.71546],[128.85239,35.71571],[128.85239,35.71588],[128.85251,35.71612],[128.85277,35.71634],[128.85321,35.71663],[128.85346,35.71676],[128.85514,35.71749],[128.85521,35.71749],[128.85583,35.71712],[128.85609,35.71691],[128.85624,35.71672],[128.8572,35.71627],[128.85937,35.71644],[128.86387,35.7166],[128.86391,35.7166],[128.86404,35.71659],[128.86497,35.71606],[128.86513,35.71594],[128.86523,35.71574],[128.86602,35.71249],[128.86633,35.71049],[128.8678,35.70615],[128.86815,35.70571],[128.8683,35.70542],[128.86854,35.70481],[128.8691,35.70339],[128.86983,35.70152],[128.86987,35.70138],[128.86988,35.70127],[128.86985,35.70112],[128.8693,35.69928],[128.86923,35.69908],[128.86914,35.69891],[128.86897,35.69868],[128.86892,35.69857],[128.8689,35.69848],[128.8689,35.69828],[128.86893,35.69753],[128.86894,35.69735],[128.86897,35.69715],[128.86928,35.69594],[128.86949,35.69554],[128.86959,35.69538],[128.86992,35.69493],[128.87559,35.68902],[128.87569,35.68894],[128.87594,35.68874],[128.87609,35.68865],[128.87619,35.68862],[128.8763,35.68861],[128.87652,35.68863],[128.87682,35.68865],[128.87695,35.68864],[128.87704,35.6886],[128.87718,35.68851],[128.87857,35.68752],[128.8787,35.68741],[128.87881,35.68728],[128.87951,35.68574],[128.87952,35.68562],[128.87998,35.67975],[128.88072,35.67366],[128.88226,35.67794],[128.88357,35.6764],[128.88362,35.67632],[128.88362,35.67501],[128.88359,35.67442],[128.88363,35.67287],[128.88365,35.67276],[128.88375,35.67216],[128.88382,35.67198],[128.88388,35.67185],[128.88638,35.66677],[128.88857,35.66284],[128.88929,35.65892],[128.88926,35.65874],[128.88923,35.65843],[128.88925,35.65779],[128.88926,35.6577],[128.8893,35.65763],[128.88937,35.65757],[128.8929,35.65582],[128.89528,35.65483],[128.89516,35.6539],[128.8952,35.65369],[128.89525,35.65362],[128.89532,35.65356],[128.89657,35.65293],[128.89738,35.65258],[128.89749,35.65255],[128.90103,35.65183],[128.90113,35.65181],[128.90118,35.65182],[128.90254,35.65227],[128.90414,35.65282],[128.90651,35.65309],[128.90712,35.65273],[128.91268,35.64817],[128.91391,35.64624],[128.91494,35.64541],[128.91408,35.64245],[128.91325,35.64028],[128.91176,35.63791],[128.90741,35.63508],[128.90661,35.63466],[128.90578,35.63434],[128.89956,35.63219],[128.8982,35.63182],[128.89175,35.63026],[128.88555,35.62984],[128.88548,35.62984],[128.8854,35.62985],[128.88534,35.62989],[128.88267,35.63266],[128.88259,35.63278],[128.88256,35.6329],[128.88258,35.6331],[128.88265,35.63363],[128.8827,35.63385],[128.88272,35.63421],[128.88271,35.63439],[128.88269,35.63455],[128.88264,35.63465],[128.88257,35.63472],[128.87983,35.63572],[128.87947,35.63581],[128.87926,35.63585],[128.87919,35.63587],[128.87896,35.63586],[128.87644,35.63568],[128.87631,35.63563],[128.87472,35.6349],[128.87457,35.6348],[128.87438,35.63461],[128.87415,35.63438],[128.87292,35.63277],[128.87291,35.63266],[128.87307,35.63201],[128.87314,35.63173],[128.87325,35.63155],[128.87344,35.62969],[128.87316,35.62688],[128.87236,35.62108],[128.87154,35.61896],[128.8711,35.61818],[128.87099,35.61807],[128.87067,35.61796],[128.87034,35.61786],[128.86986,35.61775],[128.86945,35.61769],[128.86877,35.61707],[128.86778,35.61614],[128.8677,35.61606],[128.86765,35.61596],[128.86666,35.6134],[128.86627,35.61243],[128.86557,35.61079],[128.86478,35.60956],[128.8647,35.60944],[128.86449,35.60923],[128.86189,35.60727],[128.86094,35.60687],[128.86082,35.60683],[128.86072,35.60683],[128.86033,35.60694],[128.86011,35.60696],[128.85995,35.60696],[128.85973,35.60692],[128.85949,35.60684],[128.85911,35.60667],[128.85906,35.60662],[128.85865,35.6063],[128.85835,35.60604],[128.85822,35.60584],[128.85709,35.60303],[128.85459,35.6],[128.8545,35.59985],[128.85415,35.5992],[128.85392,35.59874],[128.85388,35.59854],[128.85383,35.59798],[128.85378,35.59731],[128.85369,35.59687],[128.85365,35.59671],[128.85345,35.59639],[128.85171,35.5946],[128.84634,35.59056],[128.84496,35.58972],[128.84301,35.58908],[128.84153,35.59045],[128.8358,35.59564],[128.83455,35.59705],[128.83424,35.59721],[128.83379,35.59739],[128.83367,35.59739],[128.83347,35.59739],[128.82619,35.5967],[128.82357,35.59632],[128.8234,35.59628],[128.82321,35.59618],[128.8225,35.59567],[128.82242,35.5956],[128.82229,35.59544],[128.82199,35.5949],[128.82187,35.59461],[128.8217,35.59423],[128.82153,35.59389],[128.82135,35.59359],[128.82126,35.59354],[128.82057,35.59327],[128.82026,35.59318],[128.81984,35.59309],[128.81937,35.59303],[128.81764,35.59259],[128.81507,35.59159],[128.81496,35.59152],[128.81493,35.5915],[128.81472,35.59133],[128.81438,35.59094],[128.81407,35.59072],[128.81379,35.59057],[128.81225,35.58979],[128.81161,35.58953],[128.81099,35.58934],[128.80756,35.58849],[128.80632,35.58824],[128.80582,35.58839],[128.80522,35.58851],[128.80455,35.58859],[128.80391,35.58856],[128.80307,35.58853],[128.80216,35.58845],[128.80151,35.58832],[128.80119,35.5882],[128.80072,35.58763],[128.8006,35.5868],[128.80047,35.5854],[128.79872,35.58663],[128.79857,35.58676],[128.79845,35.58689],[128.79829,35.58713],[128.79796,35.58786],[128.79762,35.58871],[128.7975,35.58928],[128.79742,35.58962],[128.79725,35.59003],[128.79717,35.59019],[128.79708,35.5903],[128.79693,35.59046],[128.79584,35.59145],[128.79493,35.59218],[128.79256,35.59405],[128.79248,35.5941],[128.7898,35.59525],[128.78836,35.59579],[128.78809,35.59589],[128.78733,35.59617],[128.7864,35.5965],[128.78622,35.59663],[128.78609,35.59686],[128.78601,35.59717],[128.7858,35.59926],[128.78555,35.60524],[128.78777,35.60638],[128.78806,35.60647],[128.78824,35.60649],[128.78845,35.60645],[128.78892,35.60635],[128.78951,35.60623],[128.78966,35.60622],[128.78984,35.60625],[128.79005,35.60634],[128.79139,35.60726],[128.79154,35.60741],[128.79154,35.60748],[128.79146,35.60767],[128.7895,35.61103],[128.78369,35.62073],[128.78365,35.62179],[128.78361,35.62222],[128.78356,35.6225],[128.78351,35.62266],[128.78341,35.62281],[128.78158,35.62435],[128.78134,35.62452],[128.78107,35.62466],[128.78063,35.62481],[128.78052,35.62488],[128.78046,35.62502],[128.77984,35.62937],[128.77967,35.63271],[128.77987,35.63553],[128.77994,35.63587],[128.78009,35.63632],[128.78166,35.64053],[128.78265,35.64252],[128.78277,35.64265],[128.78284,35.64275],[128.78282,35.64284],[128.78267,35.6431],[128.78155,35.6447],[128.78134,35.64498],[128.78119,35.64517],[128.78111,35.64525],[128.78109,35.64533],[128.78109,35.64547],[128.78119,35.64583],[128.78128,35.64596],[128.78244,35.64687],[128.78318,35.64742],[128.7846,35.64826],[128.78474,35.64831],[128.79062,35.64957],[128.79083,35.6496],[128.79097,35.64961],[128.79267,35.64963],[128.79284,35.64963],[128.79304,35.64959],[128.7932,35.64952],[128.79334,35.64941],[128.79354,35.64929],[128.79371,35.64919],[128.79388,35.6491],[128.79406,35.64902],[128.7944,35.64893],[128.79478,35.64888],[128.79597,35.64874],[128.79628,35.64873],[128.79654,35.64876],[128.79664,35.64881],[128.79671,35.6489],[128.79676,35.64903],[128.79699,35.64974],[128.79715,35.65024],[128.79728,35.6514],[128.79721,35.65192],[128.79716,35.65319],[128.79738,35.65524],[128.7974,35.65548],[128.79746,35.65558],[128.80004,35.6599],[128.80009,35.65997],[128.80064,35.66037],[128.80086,35.66048],[128.80104,35.66057],[128.80169,35.66069],[128.80402,35.66079],[128.80428,35.66078],[128.80465,35.66073],[128.80492,35.66068],[128.80517,35.66063],[128.8054,35.66059],[128.80554,35.66059],[128.80573,35.66062],[128.80593,35.6607],[128.80605,35.66077],[128.80705,35.66153],[128.80712,35.6616],[128.80713,35.66168],[128.80742,35.6659],[128.80742,35.66618],[128.80741,35.66698],[128.80739,35.66707],[128.80684,35.66839],[128.80677,35.66855],[128.80486,35.67272],[128.80511,35.67345],[128.80619,35.67661],[128.80554,35.67802],[128.80412,35.67799],[128.79568,35.67918],[128.79075,35.6808],[128.79049,35.68092],[128.79032,35.68104],[128.7901,35.68135],[128.78996,35.68166],[128.78871,35.68635],[128.78871,35.68643],[128.78876,35.68652],[128.78884,35.68662],[128.78917,35.68684],[128.7894,35.68701],[128.78951,35.68713],[128.78954,35.68721],[128.78933,35.68829],[128.78918,35.68866],[128.78823,35.69071],[128.78816,35.69086],[128.78479,35.69571],[128.78471,35.69577],[128.78391,35.69604],[128.78363,35.6961],[128.78337,35.69612],[128.78179,35.69615],[128.77612,35.69774],[128.7724,35.6987],[128.77006,35.6987],[128.76684,35.6985],[128.76673,35.6985],[128.76664,35.69853],[128.76659,35.6986],[128.76559,35.70041],[128.76637,35.70203],[128.76645,35.70224],[128.7665,35.70245],[128.76654,35.70267],[128.76655,35.70279],[128.76674,35.70536],[128.76673,35.7059],[128.76662,35.70621],[128.76633,35.70658],[128.76616,35.70678],[128.7641,35.70781],[128.76309,35.70827],[128.76299,35.70832],[128.7629,35.70839],[128.76283,35.70845],[128.76282,35.70853],[128.76292,35.7112],[128.76439,35.71614],[128.76449,35.71629],[128.76481,35.71656],[128.76658,35.71758],[128.7687,35.71868],[128.76987,35.71913],[128.77018,35.71922],[128.7706,35.7193],[128.77088,35.71942],[128.77395,35.72125],[128.774,35.72128],[128.77404,35.72132],[128.77404,35.72139],[128.77407,35.72275],[128.77395,35.72351],[128.77392,35.72363],[128.7736,35.7247],[128.77356,35.7248],[128.77349,35.72493],[128.77341,35.72503],[128.77331,35.72512],[128.77328,35.72519],[128.77326,35.72531],[128.77326,35.72549],[128.77355,35.72639],[128.77387,35.72737],[128.77445,35.72896],[128.77455,35.72924],[128.77465,35.72943],[128.77474,35.72947],[128.77572,35.72991],[128.77801,35.73057],[128.77837,35.73059],[128.7787,35.7306],[128.77879,35.7306],[128.77893,35.73059],[128.77903,35.73056],[128.77924,35.73043],[128.7796,35.73021],[128.7797,35.73019],[128.77983,35.73022],[128.78379,35.73132],[128.78389,35.73135],[128.78417,35.73143],[128.78435,35.7315],[128.78438,35.73152],[128.78447,35.73157],[128.78457,35.73163],[128.78491,35.73187],[128.78509,35.73204],[128.78601,35.73292],[128.78611,35.73304],[128.7861,35.7331],[128.78606,35.73315],[128.78594,35.73326],[128.78521,35.73385],[128.78486,35.73416],[128.78435,35.73462],[128.78428,35.73476],[128.78428,35.73484],[128.78575,35.73714],[128.7893,35.74235],[128.78945,35.7425],[128.78958,35.74256],[128.79068,35.74282],[128.79128,35.74289],[128.79439,35.74283],[128.79662,35.74273],[128.7968,35.74273],[128.79776,35.74288],[128.79877,35.74312],[128.79883,35.74318],[128.79891,35.7433],[128.79906,35.74355],[128.79921,35.74377],[128.79943,35.74403],[128.79962,35.74418],[128.80011,35.74449],[128.80091,35.74498],[128.80232,35.74427],[128.80332,35.74418],[128.8037,35.74414],[128.80518,35.74394],[128.80543,35.74389],[128.8057,35.74383],[128.80601,35.74366],[128.80706,35.74304],[128.80733,35.74272],[128.80762,35.74241],[128.80791,35.74213],[128.80832,35.74177],[128.8104,35.74006],[128.81045,35.74003],[128.81055,35.74004],[128.81197,35.74063],[128.81218,35.74078],[128.81226,35.74087],[128.81244,35.74109],[128.81313,35.74165],[128.81547,35.74316],[128.81555,35.74317],[128.81821,35.74245],[128.8194,35.74198],[128.82589,35.73904],[128.82709,35.73841]]]]}}]}