{"type":"FeatureCollection","features":[{"type":"Feature","properties":{"code":"28125520","name":"연안동","parent":"28125"},"geometry":{"type":"MultiPolygon","coordinates":[[[[126.61984,37.46191],[126.62116,37.46145],[126.62282,37.4608],[126.6256,37.4597],[126.62832,37.4588],[126.63024,37.4583],[126.62898,37.45638],[126.62609,37.45193],[126.62456,37.44954],[126.61734,37.43809],[126.61529,37.4342],[126.61321,37.43458],[126.61271,37.43504],[126.61407,37.43748],[126.61419,37.43773],[126.60814,37.44063],[126.6106,37.44431],[126.6166,37.44179],[126.61818,37.44437],[126.61581,37.4453],[126.6112,37.44712],[126.60983,37.44766],[126.61291,37.45268],[126.61064,37.45349],[126.60438,37.44352],[126.60099,37.43837],[126.59712,37.43839],[126.59642,37.44134],[126.59402,37.44133],[126.59294,37.44132],[126.59291,37.44518],[126.59288,37.4506],[126.59626,37.45076],[126.59634,37.45118],[126.59509,37.45286],[126.5933,37.45493],[126.59432,37.45561],[126.59685,37.45491],[126.6018,37.45726],[126.59997,37.45916],[126.59949,37.45882],[126.59702,37.45707],[126.59471,37.45649],[126.59258,37.45772],[126.59359,37.45875],[126.59317,37.46372],[126.59967,37.4655],[126.60483,37.46455],[126.60459,37.46376],[126.60439,37.46336],[126.60397,37.46275],[126.60308,37.46144],[126.60302,37.46136],[126.60271,37.4609],[126.60336,37.46016],[126.60568,37.46076],[126.61209,37.46242],[126.61213,37.46243],[126.61219,37.46243],[126.6124,37.46234],[126.61254,37.46229],[126.61258,37.46227],[126.61298,37.46212],[126.62047,37.45921],[126.62394,37.45786],[126.62432,37.45796],[126.625,37.45907],[126.62289,37.4599],[126.6195,37.46121],[126.61948,37.46124],[126.61947,37.46126],[126.61946,37.4613],[126.61984,37.46191]]]]}},{"type":"Feature","properties":{"code":"28125510","name":"신포동","parent":"28125"},"geometry":{"type":"MultiPolygon","coordinates":[[[[126.62263,37.47551],[126.62265,37.47549],[126.62277,37.47544],[126.62338,37.47522],[126.62359,37.47515],[126.62413,37.475],[126.62593,37.47479],[126.62634,37.47475],[126.62796,37.47168],[126.62943,37.47174],[126.62957,37.47173],[126.62982,37.47167],[126.62995,37.47163],[126.63011,37.47157],[126.63119,37.47096],[126.63078,37.4702],[126.63075,37.47013],[126.63071,37.47003],[126.63068,37.46995],[126.63045,37.4693],[126.63034,37.46896],[126.62983,37.46733],[126.62997,37.46436],[126.63,37.4641],[126.63002,37.46404],[126.63133,37.46353],[126.63267,37.46304],[126.63276,37.46298],[126.63277,37.46292],[126.63275,37.46288],[126.63244,37.46223],[126.63132,37.46018],[126.63061,37.45889],[126.63024,37.4583],[126.62832,37.4588],[126.6256,37.4597],[126.62282,37.4608],[126.62116,37.46145],[126.61984,37.46191],[126.617,37.46302],[126.61441,37.46399],[126.6142,37.46409],[126.61413,37.46446],[126.6141,37.46685],[126.61414,37.46733],[126.61419,37.46778],[126.6146,37.46811],[126.61625,37.46992],[126.61702,37.47077],[126.61708,37.47087],[126.61707,37.47096],[126.61687,37.4712],[126.6164,37.47168],[126.61592,37.47233],[126.61555,37.47298],[126.61548,37.47311],[126.61548,37.47321],[126.61583,37.47465],[126.6215,37.47559],[126.62241,37.47544],[126.62263,37.47551]]]]}},{"type":"Feature","properties":{"code":"28125530","name":"신흥동","parent":"28125"},"geometry":{"type":"MultiPolygon","coordinates":[[[[126.63669,37.46799],[126.63657,37.46773],[126.63651,37.4676],[126.63689,37.46691],[126.63747,37.46619],[126.63945,37.46457],[126.64027,37.4641],[126.63944,37.4637],[126.63926,37.46357],[126.63916,37.46351],[126.63913,37.46346],[126.63782,37.46101],[126.63773,37.46061],[126.63758,37.45993],[126.63552,37.45727],[126.63401,37.45557],[126.63002,37.45301],[126.62958,37.45285],[126.62945,37.45273],[126.62925,37.45247],[126.62924,37.45244],[126.62917,37.45226],[126.62918,37.45203],[126.63152,37.44227],[126.63262,37.44153],[126.63468,37.431],[126.63497,37.43003],[126.61198,37.42997],[126.61087,37.42992],[126.6102,37.43014],[126.61176,37.43328],[126.61278,37.4343],[126.61321,37.43458],[126.61529,37.4342],[126.61734,37.43809],[126.62456,37.44954],[126.62609,37.45193],[126.62898,37.45638],[126.63024,37.4583],[126.63061,37.45889],[126.63132,37.46018],[126.63244,37.46223],[126.63275,37.46288],[126.63277,37.46292],[126.63276,37.46298],[126.63267,37.46304],[126.63133,37.46353],[126.63002,37.46404],[126.63,37.4641],[126.62997,37.46436],[126.62983,37.46733],[126.63034,37.46896],[126.63045,37.4693],[126.63068,37.46995],[126.63071,37.47003],[126.63075,37.47013],[126.63078,37.4702],[126.63225,37.46899],[126.63669,37.46799]]]]}},{"type":"Feature","properties":{"code":"28125540","name":"도원동","parent":"28125"},"geometry":{"type":"MultiPolygon","coordinates":[[[[126.64279,37.46849],[126.64209,37.46758],[126.64215,37.46507],[126.64215,37.46504],[126.64131,37.46461],[126.6412,37.46456],[126.64077,37.46434],[126.64027,37.4641],[126.63945,37.46457],[126.63747,37.46619],[126.63689,37.46691],[126.63651,37.4676],[126.63657,37.46773],[126.63669,37.46799],[126.63919,37.47029],[126.6407,37.46953],[126.64279,37.46849]]]]}},{"type":"Feature","properties":{"code":"28125550","name":"율목동","parent":"28125"},"geometry":{"type":"MultiPolygon","coordinates":[[[[126.63919,37.47029],[126.63669,37.46799],[126.63225,37.46899],[126.63078,37.4702],[126.63119,37.47096],[126.63148,37.47152],[126.63266,37.47164],[126.63275,37.47165],[126.63289,37.47164],[126.63293,37.47164],[126.63326,37.47157],[126.63344,37.47152],[126.63431,37.47111],[126.63494,37.47132],[126.63588,37.47196],[126.63618,37.47222],[126.63667,37.47178],[126.63919,37.47029]]]]}},{"type":"Feature","properties":{"code":"28125560","name":"동인천동","parent":"28125"},"geometry":{"type":"MultiPolygon","coordinates":[[[[126.62797,37.47923],[126.62802,37.47943],[126.63142,37.4768],[126.63463,37.47367],[126.63618,37.47222],[126.63588,37.47196],[126.63494,37.47132],[126.63431,37.47111],[126.63344,37.47152],[126.63326,37.47157],[126.63293,37.47164],[126.63289,37.47164],[126.63275,37.47165],[126.63266,37.47164],[126.63148,37.47152],[126.63119,37.47096],[126.63011,37.47157],[126.62995,37.47163],[126.62982,37.47167],[126.62957,37.47173],[126.62943,37.47174],[126.62796,37.47168],[126.62634,37.47475],[126.62593,37.47479],[126.62413,37.475],[126.62359,37.47515],[126.62338,37.47522],[126.62277,37.47544],[126.62265,37.47549],[126.62263,37.47551],[126.62284,37.47768],[126.62399,37.47925],[126.62421,37.47946],[126.62521,37.47961],[126.6267,37.47949],[126.6269,37.47945],[126.62696,37.47944],[126.62703,37.47941],[126.6271,37.47938],[126.62797,37.47923]]]]}},{"type":"Feature","properties":{"code":"28125580","name":"만석동","parent":"28125"},"geometry":{"type":"MultiPolygon","coordinates":[[[[126.62689,37.49061],[126.62642,37.48943],[126.62571,37.48803],[126.62532,37.48724],[126.62531,37.4872],[126.62526,37.48701],[126.62589,37.48535],[126.62763,37.48385],[126.62832,37.48374],[126.62764,37.48333],[126.62682,37.48255],[126.6265,37.48183],[126.62649,37.48146],[126.62661,37.48129],[126.62706,37.48068],[126.62802,37.47943],[126.62797,37.47923],[126.62733,37.47962],[126.62665,37.48006],[126.62623,37.48033],[126.62617,37.48037],[126.62603,37.48045],[126.62597,37.48049],[126.6259,37.48052],[126.62584,37.48056],[126.62572,37.48063],[126.6256,37.48069],[126.62556,37.48071],[126.62548,37.48075],[126.62542,37.48077],[126.62535,37.4808],[126.62529,37.48083],[126.6252,37.48087],[126.62516,37.48088],[126.62504,37.48093],[126.62499,37.48095],[126.62494,37.48096],[126.62487,37.48099],[126.62478,37.48101],[126.62471,37.48103],[126.62464,37.48106],[126.62455,37.48108],[126.62447,37.4811],[126.6244,37.48112],[126.62434,37.48113],[126.62423,37.48115],[126.62417,37.48116],[126.62407,37.48118],[126.624,37.48119],[126.62397,37.48119],[126.62392,37.4812],[126.62387,37.48121],[126.62377,37.48122],[126.6237,37.48122],[126.62361,37.48123],[126.62356,37.48123],[126.62352,37.48124],[126.62345,37.48124],[126.62337,37.48124],[126.62329,37.48125],[126.62323,37.48125],[126.62319,37.48125],[126.62313,37.48125],[126.62303,37.48124],[126.62295,37.48124],[126.6228,37.48123],[126.62272,37.48123],[126.62266,37.48122],[126.62256,37.48121],[126.6225,37.4812],[126.62246,37.4812],[126.62242,37.48119],[126.62235,37.48118],[126.6222,37.48116],[126.62214,37.48115],[126.62205,37.48113],[126.62196,37.48111],[126.62185,37.48109],[126.62181,37.48108],[126.62177,37.48107],[126.62163,37.48103],[126.62153,37.481],[126.62144,37.48098],[126.62132,37.48095],[126.62125,37.48093],[126.62107,37.48087],[126.62053,37.48071],[126.62035,37.48066],[126.61677,37.48359],[126.61885,37.48547],[126.61706,37.48502],[126.61169,37.48347],[126.61165,37.48348],[126.61162,37.48349],[126.60981,37.48736],[126.60982,37.4874],[126.61617,37.48979],[126.62102,37.49125],[126.62416,37.49218],[126.62628,37.49254],[126.62737,37.49146],[126.62689,37.49061]]]]}},{"type":"Feature","properties":{"code":"28125590","name":"화수1·화평동","parent":"28125"},"geometry":{"type":"MultiPolygon","coordinates":[[[[126.63359,37.47905],[126.63142,37.4768],[126.62802,37.47943],[126.62706,37.48068],[126.62661,37.48129],[126.62649,37.48146],[126.6265,37.48183],[126.62682,37.48255],[126.62764,37.48333],[126.62832,37.48374],[126.62947,37.48312],[126.63095,37.48295],[126.63287,37.48032],[126.63272,37.48012],[126.6326,37.47996],[126.63257,37.47991],[126.63255,37.47987],[126.63254,37.47984],[126.63254,37.47936],[126.63282,37.47925],[126.63334,37.47908],[126.63343,37.47905],[126.6335,37.47903],[126.63354,37.47903],[126.63359,37.47905]]]]}},{"type":"Feature","properties":{"code":"28125600","name":"화수2동","parent":"28125"},"geometry":{"type":"MultiPolygon","coordinates":[[[[126.63205,37.4877],[126.63438,37.48637],[126.6356,37.4856],[126.63587,37.4854],[126.63599,37.48503],[126.63553,37.48459],[126.63578,37.48309],[126.63753,37.48204],[126.63359,37.47905],[126.63354,37.47903],[126.6335,37.47903],[126.63343,37.47905],[126.63334,37.47908],[126.63282,37.47925],[126.63254,37.47936],[126.63254,37.47984],[126.63255,37.47987],[126.63257,37.47991],[126.6326,37.47996],[126.63272,37.48012],[126.63287,37.48032],[126.63095,37.48295],[126.62947,37.48312],[126.62832,37.48374],[126.62763,37.48385],[126.62589,37.48535],[126.62526,37.48701],[126.62531,37.4872],[126.62532,37.48724],[126.62571,37.48803],[126.62642,37.48943],[126.62689,37.49061],[126.62925,37.48947],[126.63205,37.4877]]]]}},{"type":"Feature","properties":{"code":"28125610","name":"송현1·2동","parent":"28125"},"geometry":{"type":"MultiPolygon","coordinates":[[[[126.6399,37.47819],[126.63948,37.4782],[126.63913,37.47728],[126.63902,37.47705],[126.63882,37.47686],[126.63798,37.47641],[126.63735,37.47613],[126.63601,37.47565],[126.63517,37.47495],[126.6353,37.47429],[126.63463,37.47367],[126.63142,37.4768],[126.63359,37.47905],[126.63753,37.48204],[126.63833,37.48108],[126.6399,37.47819]]]]}},{"type":"Feature","properties":{"code":"28125620","name":"송현3동","parent":"28125"},"geometry":{"type":"MultiPolygon","coordinates":[[[[126.65536,37.48816],[126.65264,37.48502],[126.6503,37.48639],[126.64979,37.48673],[126.64973,37.48677],[126.64968,37.4868],[126.64949,37.48693],[126.64928,37.48705],[126.64903,37.48721],[126.64896,37.48725],[126.64882,37.48732],[126.64779,37.48636],[126.64726,37.48586],[126.64554,37.48422],[126.64525,37.48392],[126.64568,37.48089],[126.64534,37.47968],[126.641,37.47807],[126.6399,37.47819],[126.63833,37.48108],[126.63753,37.48204],[126.63578,37.48309],[126.63553,37.48459],[126.63599,37.48503],[126.63587,37.4854],[126.6356,37.4856],[126.63438,37.48637],[126.63205,37.4877],[126.63155,37.48869],[126.62745,37.49325],[126.63168,37.49376],[126.63207,37.49355],[126.63331,37.49388],[126.63493,37.49431],[126.63586,37.49456],[126.64076,37.49587],[126.64144,37.49555],[126.64593,37.49323],[126.65032,37.49093],[126.65062,37.49077],[126.65189,37.49009],[126.65318,37.48939],[126.65337,37.48929],[126.65536,37.48816]]]]}},{"type":"Feature","properties":{"code":"28125630","name":"송림1동","parent":"28125"},"geometry":{"type":"MultiPolygon","coordinates":[[[[126.6399,37.47819],[126.641,37.47807],[126.64086,37.47793],[126.6408,37.47786],[126.64067,37.47765],[126.64063,37.47754],[126.64059,37.47742],[126.64057,37.47734],[126.64051,37.47713],[126.64044,37.47688],[126.64038,37.47668],[126.64036,37.47651],[126.64043,37.47613],[126.64189,37.47397],[126.64053,37.47348],[126.6402,37.47339],[126.64017,37.47338],[126.63991,37.47332],[126.63948,37.47321],[126.63907,37.47311],[126.63884,37.47311],[126.63616,37.47404],[126.63576,37.47424],[126.6353,37.47429],[126.63517,37.47495],[126.63601,37.47565],[126.63735,37.47613],[126.63798,37.47641],[126.63882,37.47686],[126.63902,37.47705],[126.63913,37.47728],[126.63948,37.4782],[126.6399,37.47819]]]]}},{"type":"Feature","properties":{"code":"28125640","name":"송림2동","parent":"28125"},"geometry":{"type":"MultiPolygon","coordinates":[[[[126.64477,37.47578],[126.6436,37.47324],[126.64189,37.47397],[126.64043,37.47613],[126.64036,37.47651],[126.64038,37.47668],[126.64044,37.47688],[126.64051,37.47713],[126.64057,37.47734],[126.64059,37.47742],[126.64063,37.47754],[126.64067,37.47765],[126.6408,37.47786],[126.64086,37.47793],[126.641,37.47807],[126.64534,37.47968],[126.64477,37.47578]]]]}},{"type":"Feature","properties":{"code":"28125650","name":"송림3·5동","parent":"28125"},"geometry":{"type":"MultiPolygon","coordinates":[[[[126.65223,37.47582],[126.6521,37.47582],[126.65206,37.4758],[126.65201,37.47575],[126.65189,37.47555],[126.6513,37.47449],[126.6513,37.47443],[126.65131,37.47433],[126.65134,37.47419],[126.65135,37.47415],[126.65141,37.47407],[126.65147,37.47402],[126.65152,37.47399],[126.65156,37.47397],[126.6516,37.47397],[126.65173,37.47394],[126.6518,37.47393],[126.65185,37.47392],[126.65192,37.47391],[126.65198,37.4739],[126.65202,37.47389],[126.6521,37.47388],[126.65215,37.47386],[126.65219,37.47385],[126.65224,37.47383],[126.65227,37.4738],[126.65231,37.47377],[126.65235,37.47374],[126.65238,37.47371],[126.65239,37.47368],[126.65262,37.47323],[126.65263,37.47307],[126.65264,37.47271],[126.65264,37.47247],[126.65242,37.47051],[126.6512,37.4698],[126.65029,37.46951],[126.64555,37.46995],[126.6436,37.47324],[126.64477,37.47578],[126.64572,37.47546],[126.64766,37.47676],[126.64889,37.47717],[126.64964,37.47739],[126.64989,37.47618],[126.65223,37.47582]]]]}},{"type":"Feature","properties":{"code":"28125660","name":"송림4동","parent":"28125"},"geometry":{"type":"MultiPolygon","coordinates":[[[[126.67048,37.47685],[126.66464,37.47978],[126.66085,37.48171],[126.65891,37.48268],[126.65518,37.48402],[126.65509,37.48405],[126.655,37.48408],[126.65496,37.48406],[126.65462,37.4837],[126.65349,37.48239],[126.65295,37.48169],[126.65283,37.47987],[126.65304,37.47953],[126.65356,37.4792],[126.65434,37.47847],[126.65272,37.47588],[126.65263,37.47575],[126.65232,37.4758],[126.65223,37.47582],[126.64989,37.47618],[126.64964,37.47739],[126.64892,37.47863],[126.65014,37.48053],[126.65106,37.48163],[126.65215,37.48258],[126.65373,37.48445],[126.65372,37.48449],[126.6537,37.48452],[126.65366,37.48455],[126.65264,37.48502],[126.65536,37.48816],[126.6618,37.48429],[126.66359,37.48327],[126.66476,37.48246],[126.66992,37.47863],[126.671,37.47778],[126.67048,37.47685]]]]}},{"type":"Feature","properties":{"code":"28125670","name":"송림6동","parent":"28125"},"geometry":{"type":"MultiPolygon","coordinates":[[[[126.65264,37.48502],[126.65366,37.48455],[126.6537,37.48452],[126.65372,37.48449],[126.65373,37.48445],[126.65215,37.48258],[126.65106,37.48163],[126.65014,37.48053],[126.64892,37.47863],[126.64964,37.47739],[126.64889,37.47717],[126.64766,37.47676],[126.64572,37.47546],[126.64477,37.47578],[126.64534,37.47968],[126.64568,37.48089],[126.64525,37.48392],[126.64554,37.48422],[126.64726,37.48586],[126.64779,37.48636],[126.64882,37.48732],[126.64896,37.48725],[126.64903,37.48721],[126.64928,37.48705],[126.64949,37.48693],[126.64968,37.4868],[126.64973,37.48677],[126.64979,37.48673],[126.6503,37.48639],[126.65264,37.48502]]]]}},{"type":"Feature","properties":{"code":"28125680","name":"금창동","parent":"28125"},"geometry":{"type":"MultiPolygon","coordinates":[[[[126.64189,37.47397],[126.6436,37.47324],[126.64555,37.46995],[126.6445,37.4696],[126.64279,37.46849],[126.6407,37.46953],[126.63919,37.47029],[126.63667,37.47178],[126.63618,37.47222],[126.63463,37.47367],[126.6353,37.47429],[126.63576,37.47424],[126.63616,37.47404],[126.63884,37.47311],[126.63907,37.47311],[126.63948,37.47321],[126.63991,37.47332],[126.64017,37.47338],[126.6402,37.47339],[126.64053,37.47348],[126.64189,37.47397]]]]}},{"type":"Feature","properties":{"code":"28125570","name":"개항동","parent":"28125"},"geometry":{"type":"MultiPolygon","coordinates":[[[[126.6271,37.47938],[126.62703,37.47941],[126.62696,37.47944],[126.6269,37.47945],[126.6267,37.47949],[126.62521,37.47961],[126.62421,37.47946],[126.62399,37.47925],[126.62284,37.47768],[126.62263,37.47551],[126.62241,37.47544],[126.6215,37.47559],[126.61583,37.47465],[126.61548,37.47321],[126.61548,37.47311],[126.61555,37.47298],[126.61592,37.47233],[126.6164,37.47168],[126.61687,37.4712],[126.61707,37.47096],[126.61708,37.47087],[126.61702,37.47077],[126.61625,37.46992],[126.6155,37.47024],[126.61234,37.47701],[126.60998,37.47636],[126.61112,37.47392],[126.60951,37.4735],[126.60837,37.47599],[126.60705,37.47561],[126.60993,37.46916],[126.608,37.46719],[126.60557,37.46624],[126.60327,37.46552],[126.60161,37.4658],[126.6,37.4661],[126.59903,37.46761],[126.59747,37.46988],[126.59602,37.47044],[126.59582,37.4706],[126.59558,37.47185],[126.59767,37.47734],[126.60054,37.48153],[126.60344,37.48408],[126.60624,37.4863],[126.60808,37.48682],[126.60985,37.48294],[126.60457,37.4813],[126.6051,37.48017],[126.60569,37.48031],[126.60625,37.48049],[126.612,37.48214],[126.61341,37.479],[126.61365,37.47889],[126.61396,37.479],[126.61416,37.47907],[126.61274,37.48237],[126.6133,37.48254],[126.61677,37.48359],[126.62035,37.48066],[126.62053,37.48071],[126.62107,37.48087],[126.62125,37.48093],[126.62132,37.48095],[126.62144,37.48098],[126.62153,37.481],[126.62163,37.48103],[126.62177,37.48107],[126.62181,37.48108],[126.62185,37.48109],[126.62196,37.48111],[126.62205,37.48113],[126.62214,37.48115],[126.6222,37.48116],[126.62235,37.48118],[126.62242,37.48119],[126.62246,37.4812],[126.6225,37.4812],[126.62256,37.48121],[126.62266,37.48122],[126.62272,37.48123],[126.6228,37.48123],[126.62295,37.48124],[126.62303,37.48124],[126.62313,37.48125],[126.62319,37.48125],[126.62323,37.48125],[126.62329,37.48125],[126.62337,37.48124],[126.62345,37.48124],[126.62352,37.48124],[126.62356,37.48123],[126.62361,37.48123],[126.6237,37.48122],[126.62377,37.48122],[126.62387,37.48121],[126.62392,37.4812],[126.62397,37.48119],[126.624,37.48119],[126.62407,37.48118],[126.62417,37.48116],[126.62423,37.48115],[126.62434,37.48113],[126.6244,37.48112],[126.62447,37.4811],[126.62455,37.48108],[126.62464,37.48106],[126.62471,37.48103],[126.62478,37.48101],[126.62487,37.48099],[126.62494,37.48096],[126.62499,37.48095],[126.62504,37.48093],[126.62516,37.48088],[126.6252,37.48087],[126.62529,37.48083],[126.62535,37.4808],[126.62542,37.48077],[126.62548,37.48075],[126.62556,37.48071],[126.6256,37.48069],[126.62572,37.48063],[126.62584,37.48056],[126.6259,37.48052],[126.62597,37.48049],[126.62603,37.48045],[126.62617,37.48037],[126.62623,37.48033],[126.62665,37.48006],[126.62733,37.47962],[126.62797,37.47923],[126.6271,37.47938]]]]}}]}