{"type":"FeatureCollection","features":[{"type":"Feature","properties":{"code":"11410520","name":"천연동","parent":"11410"},"geometry":{"type":"MultiPolygon","coordinates":[[[[126.95957,37.57296],[126.9619,37.57065],[126.96581,37.56667],[126.96551,37.56667],[126.96341,37.56634],[126.96295,37.56625],[126.96274,37.56617],[126.96258,37.56597],[126.96254,37.5659],[126.95894,37.56554],[126.95641,37.56678],[126.95367,37.56934],[126.95369,37.57053],[126.95178,37.57173],[126.95082,37.57388],[126.95078,37.57489],[126.95222,37.57743],[126.95264,37.57795],[126.95279,37.57813],[126.95281,37.57815],[126.95288,37.57823],[126.95329,37.57838],[126.95376,37.57848],[126.95392,37.57849],[126.95957,37.57296]]]]}},{"type":"Feature","properties":{"code":"11410620","name":"홍제1동","parent":"11410"},"geometry":{"type":"MultiPolygon","coordinates":[[[[126.94184,37.59093],[126.94475,37.58816],[126.94498,37.58808],[126.94545,37.5877],[126.94548,37.58768],[126.94828,37.58498],[126.94913,37.58412],[126.94925,37.584],[126.94944,37.58379],[126.94966,37.58356],[126.9521,37.5803],[126.95356,37.57888],[126.95392,37.57849],[126.95376,37.57848],[126.95329,37.57838],[126.95288,37.57823],[126.95281,37.57815],[126.95279,37.57813],[126.95264,37.57795],[126.95222,37.57743],[126.95078,37.57489],[126.95082,37.57388],[126.95178,37.57173],[126.95369,37.57053],[126.95367,37.56934],[126.94969,37.56846],[126.94894,37.56944],[126.94767,37.57279],[126.94772,37.57298],[126.94781,37.57316],[126.94784,37.57322],[126.94786,37.57325],[126.94789,37.57328],[126.94854,37.57383],[126.94858,37.57386],[126.94879,37.574],[126.94905,37.57465],[126.94908,37.57552],[126.94906,37.57559],[126.94904,37.57565],[126.94895,37.57572],[126.94752,37.57612],[126.94675,37.57681],[126.94591,37.57695],[126.94513,37.5772],[126.94471,37.57746],[126.94187,37.58083],[126.94084,37.58391],[126.93719,37.58254],[126.93694,37.58289],[126.93637,37.58375],[126.93631,37.58385],[126.93606,37.58423],[126.93597,37.58437],[126.93592,37.58445],[126.93587,37.58454],[126.93581,37.58466],[126.93573,37.5848],[126.93569,37.5849],[126.93558,37.58513],[126.93555,37.5852],[126.93554,37.58524],[126.93551,37.58531],[126.93548,37.58541],[126.93545,37.5855],[126.93543,37.58559],[126.9354,37.58576],[126.93539,37.58584],[126.93538,37.58591],[126.93536,37.58601],[126.93536,37.58606],[126.93536,37.58613],[126.93536,37.58635],[126.93536,37.58638],[126.93537,37.58645],[126.93538,37.58653],[126.93538,37.58656],[126.93541,37.5867],[126.93543,37.58682],[126.93547,37.58693],[126.9355,37.58704],[126.93554,37.58713],[126.93556,37.5872],[126.93561,37.58731],[126.93566,37.58741],[126.93573,37.58753],[126.93582,37.58768],[126.93589,37.58778],[126.93602,37.58795],[126.93605,37.58798],[126.9361,37.58804],[126.93612,37.58806],[126.93619,37.58813],[126.93628,37.58822],[126.93637,37.58831],[126.93645,37.58838],[126.9365,37.58843],[126.93656,37.58847],[126.93661,37.58851],[126.93667,37.58856],[126.93674,37.58862],[126.9368,37.58867],[126.93693,37.58876],[126.93704,37.58883],[126.93716,37.58891],[126.93723,37.58896],[126.93747,37.58911],[126.93762,37.58921],[126.93779,37.58931],[126.93945,37.59029],[126.93954,37.59035],[126.94046,37.59089],[126.9406,37.59098],[126.94066,37.59101],[126.94072,37.59104],[126.94082,37.5911],[126.94099,37.59119],[126.94105,37.59122],[126.94121,37.5913],[126.94145,37.5914],[126.94184,37.59093]]]]}},{"type":"Feature","properties":{"code":"11410640","name":"홍제3동","parent":"11410"},"geometry":{"type":"MultiPolygon","coordinates":[[[[126.9563,37.59566],[126.95631,37.59554],[126.95631,37.59548],[126.95633,37.59515],[126.9565,37.59471],[126.95677,37.59401],[126.95725,37.59314],[126.95751,37.59267],[126.95793,37.58879],[126.95747,37.5876],[126.95717,37.58647],[126.95689,37.58542],[126.95182,37.58882],[126.95143,37.58915],[126.95099,37.5893],[126.94657,37.58894],[126.94636,37.58888],[126.94594,37.58874],[126.94568,37.58865],[126.94564,37.58864],[126.94548,37.58853],[126.94498,37.58808],[126.94475,37.58816],[126.94184,37.59093],[126.94249,37.59113],[126.94293,37.59126],[126.94452,37.59175],[126.94458,37.59177],[126.94467,37.59181],[126.94695,37.59437],[126.94703,37.59447],[126.94706,37.5945],[126.9472,37.59468],[126.94722,37.59483],[126.94724,37.5949],[126.94721,37.5952],[126.94711,37.59552],[126.94702,37.59567],[126.94679,37.59603],[126.9466,37.59633],[126.94649,37.59668],[126.94651,37.59702],[126.94651,37.59707],[126.94654,37.59716],[126.94657,37.59728],[126.94662,37.59743],[126.94674,37.59774],[126.94677,37.5978],[126.94684,37.59795],[126.94691,37.59811],[126.94694,37.59814],[126.94711,37.59831],[126.94714,37.59834],[126.94716,37.59836],[126.94737,37.59847],[126.9475,37.5985],[126.94755,37.59851],[126.94766,37.59852],[126.94802,37.59853],[126.94836,37.59851],[126.94866,37.59845],[126.94912,37.59833],[126.94947,37.59822],[126.94969,37.59813],[126.94984,37.59805],[126.95003,37.59788],[126.95006,37.59786],[126.9502,37.59764],[126.95041,37.59731],[126.95139,37.5957],[126.9563,37.59566]]]]}},{"type":"Feature","properties":{"code":"11410655","name":"홍제2동","parent":"11410"},"geometry":{"type":"MultiPolygon","coordinates":[[[[126.95689,37.58542],[126.9579,37.58381],[126.96067,37.5808],[126.95878,37.58162],[126.95827,37.5817],[126.95712,37.58162],[126.957,37.58158],[126.95646,37.58128],[126.95579,37.58073],[126.95577,37.58005],[126.95577,37.58002],[126.95575,37.5793],[126.95556,37.57909],[126.95546,37.57897],[126.95495,37.57893],[126.95481,37.57892],[126.95416,37.5789],[126.95356,37.57888],[126.9521,37.5803],[126.94966,37.58356],[126.94944,37.58379],[126.94925,37.584],[126.94913,37.58412],[126.94828,37.58498],[126.94548,37.58768],[126.94545,37.5877],[126.94498,37.58808],[126.94548,37.58853],[126.94564,37.58864],[126.94568,37.58865],[126.94594,37.58874],[126.94636,37.58888],[126.94657,37.58894],[126.95099,37.5893],[126.95143,37.58915],[126.95182,37.58882],[126.95689,37.58542]]]]}},{"type":"Feature","properties":{"code":"11410660","name":"홍은1동","parent":"11410"},"geometry":{"type":"MultiPolygon","coordinates":[[[[126.95338,37.60537],[126.95344,37.60517],[126.95354,37.60462],[126.95354,37.60457],[126.95354,37.60449],[126.95351,37.60427],[126.95326,37.6032],[126.9532,37.60301],[126.95308,37.60291],[126.95301,37.60287],[126.95288,37.60279],[126.9528,37.60269],[126.95278,37.60226],[126.95278,37.60221],[126.95277,37.60144],[126.95276,37.60128],[126.95275,37.60041],[126.95351,37.59912],[126.95383,37.59881],[126.95394,37.5987],[126.95397,37.59867],[126.95409,37.59855],[126.95552,37.59848],[126.95613,37.59846],[126.95613,37.59852],[126.95612,37.59855],[126.95621,37.5986],[126.95635,37.59866],[126.95673,37.59866],[126.95688,37.59863],[126.95697,37.59861],[126.95705,37.59855],[126.9571,37.59846],[126.95714,37.59839],[126.95715,37.59824],[126.95704,37.59791],[126.95698,37.59772],[126.95695,37.59762],[126.95661,37.59654],[126.9563,37.59566],[126.95139,37.5957],[126.95041,37.59731],[126.9502,37.59764],[126.95006,37.59786],[126.95003,37.59788],[126.94984,37.59805],[126.94969,37.59813],[126.94947,37.59822],[126.94912,37.59833],[126.94866,37.59845],[126.94836,37.59851],[126.94802,37.59853],[126.94766,37.59852],[126.94755,37.59851],[126.9475,37.5985],[126.94737,37.59847],[126.94716,37.59836],[126.94714,37.59834],[126.94711,37.59831],[126.94694,37.59814],[126.94691,37.59811],[126.94684,37.59795],[126.94677,37.5978],[126.94674,37.59774],[126.94662,37.59743],[126.94657,37.59728],[126.94654,37.59716],[126.94651,37.59707],[126.94651,37.59702],[126.94649,37.59668],[126.9466,37.59633],[126.94679,37.59603],[126.94702,37.59567],[126.94711,37.59552],[126.94721,37.5952],[126.94724,37.5949],[126.94722,37.59483],[126.9472,37.59468],[126.94706,37.5945],[126.94703,37.59447],[126.94695,37.59437],[126.94467,37.59181],[126.94458,37.59177],[126.94452,37.59175],[126.94293,37.59126],[126.94249,37.59113],[126.94184,37.59093],[126.94145,37.5914],[126.94096,37.59396],[126.94087,37.59434],[126.94064,37.59466],[126.94046,37.59492],[126.94005,37.59532],[126.94002,37.59535],[126.93999,37.59538],[126.93938,37.59602],[126.93899,37.59663],[126.9386,37.59759],[126.93893,37.59769],[126.939,37.59771],[126.93934,37.59784],[126.94058,37.5986],[126.94068,37.59867],[126.94092,37.59908],[126.94103,37.59962],[126.94108,37.5999],[126.94121,37.60091],[126.9411,37.60111],[126.94017,37.60183],[126.94044,37.60286],[126.94227,37.60469],[126.94242,37.60482],[126.94249,37.60483],[126.94266,37.60484],[126.94334,37.60483],[126.94411,37.60483],[126.94472,37.60482],[126.94482,37.60482],[126.94492,37.60482],[126.9457,37.60582],[126.94599,37.60636],[126.94634,37.6071],[126.94722,37.6078],[126.94725,37.60778],[126.94745,37.60772],[126.94766,37.60768],[126.9478,37.60768],[126.94783,37.60769],[126.94787,37.6077],[126.94793,37.60773],[126.94797,37.60776],[126.94801,37.6078],[126.94803,37.60783],[126.94806,37.60786],[126.94813,37.6079],[126.9482,37.60792],[126.94827,37.60799],[126.94833,37.60799],[126.94839,37.60798],[126.94871,37.60804],[126.94878,37.60807],[126.94881,37.60807],[126.94899,37.60807],[126.94906,37.60806],[126.94911,37.60803],[126.94914,37.60797],[126.94917,37.60793],[126.94929,37.60778],[126.94936,37.60772],[126.94942,37.60769],[126.94946,37.60769],[126.94952,37.60769],[126.94975,37.60769],[126.94999,37.6077],[126.95005,37.60772],[126.9501,37.60774],[126.95034,37.60785],[126.95038,37.60788],[126.95074,37.60832],[126.95312,37.6056],[126.95338,37.60537]]]]}},{"type":"Feature","properties":{"code":"11410685","name":"홍은2동","parent":"11410"},"geometry":{"type":"MultiPolygon","coordinates":[[[[126.9386,37.59759],[126.93899,37.59663],[126.93938,37.59602],[126.93999,37.59538],[126.94002,37.59535],[126.94005,37.59532],[126.94046,37.59492],[126.94064,37.59466],[126.94087,37.59434],[126.94096,37.59396],[126.94145,37.5914],[126.94121,37.5913],[126.94105,37.59122],[126.94099,37.59119],[126.94082,37.5911],[126.94072,37.59104],[126.94066,37.59101],[126.9406,37.59098],[126.94046,37.59089],[126.93954,37.59035],[126.93945,37.59029],[126.93779,37.58931],[126.93762,37.58921],[126.93747,37.58911],[126.93723,37.58896],[126.93716,37.58891],[126.93704,37.58883],[126.93693,37.58876],[126.9368,37.58867],[126.93674,37.58862],[126.93667,37.58856],[126.93661,37.58851],[126.93656,37.58847],[126.9365,37.58843],[126.93645,37.58838],[126.93637,37.58831],[126.93628,37.58822],[126.93619,37.58813],[126.93612,37.58806],[126.9361,37.58804],[126.93605,37.58798],[126.93602,37.58795],[126.93589,37.58778],[126.93582,37.58768],[126.93573,37.58753],[126.93566,37.58741],[126.93561,37.58731],[126.93556,37.5872],[126.93554,37.58713],[126.9355,37.58704],[126.93547,37.58693],[126.93543,37.58682],[126.93541,37.5867],[126.93538,37.58656],[126.93538,37.58653],[126.93537,37.58645],[126.93536,37.58638],[126.93536,37.58635],[126.93536,37.58613],[126.93536,37.58606],[126.93536,37.58601],[126.93538,37.58591],[126.93539,37.58584],[126.9354,37.58576],[126.93543,37.58559],[126.93545,37.5855],[126.93548,37.58541],[126.93551,37.58531],[126.93554,37.58524],[126.93555,37.5852],[126.93558,37.58513],[126.93569,37.5849],[126.93573,37.5848],[126.93581,37.58466],[126.93587,37.58454],[126.93592,37.58445],[126.93597,37.58437],[126.93606,37.58423],[126.93631,37.58385],[126.93637,37.58375],[126.93694,37.58289],[126.93719,37.58254],[126.93748,37.58235],[126.93757,37.58223],[126.93781,37.58185],[126.9379,37.58162],[126.93782,37.58137],[126.93771,37.5811],[126.93759,37.58089],[126.9375,37.58077],[126.93739,37.58065],[126.93705,37.58041],[126.93663,37.58015],[126.93549,37.57968],[126.93524,37.57959],[126.93437,37.57928],[126.93331,37.57892],[126.93326,37.5789],[126.9321,37.57841],[126.93045,37.57757],[126.93041,37.57755],[126.92992,37.5773],[126.92809,37.57634],[126.92783,37.57621],[126.92731,37.57594],[126.92708,37.57631],[126.92703,37.57638],[126.92682,37.57674],[126.92566,37.5787],[126.9252,37.5795],[126.9245,37.58185],[126.92462,37.58257],[126.92431,37.58324],[126.92428,37.5833],[126.92423,37.5834],[126.92417,37.5835],[126.92415,37.58353],[126.92393,37.58387],[126.92321,37.58428],[126.92302,37.585],[126.92282,37.58562],[126.92358,37.58615],[126.92594,37.58714],[126.92607,37.58717],[126.92654,37.58741],[126.92719,37.58776],[126.92739,37.5879],[126.92812,37.58838],[126.92812,37.58943],[126.92802,37.58972],[126.92788,37.59039],[126.92787,37.59045],[126.92811,37.59119],[126.92816,37.59134],[126.92822,37.59153],[126.92826,37.59165],[126.92842,37.59189],[126.92865,37.59226],[126.92927,37.59303],[126.93038,37.59424],[126.93066,37.59449],[126.93295,37.59603],[126.93366,37.5964],[126.93777,37.59775],[126.9386,37.59759]]]]}},{"type":"Feature","properties":{"code":"11410690","name":"남가좌1동","parent":"11410"},"geometry":{"type":"MultiPolygon","coordinates":[[[[126.92189,37.57191],[126.91685,37.56789],[126.91181,37.57028],[126.91172,37.5705],[126.91128,37.57218],[126.9114,37.57258],[126.91325,37.57375],[126.91513,37.57516],[126.91702,37.57504],[126.92189,37.57191]]]]}},{"type":"Feature","properties":{"code":"11410700","name":"남가좌2동","parent":"11410"},"geometry":{"type":"MultiPolygon","coordinates":[[[[126.92731,37.57594],[126.92189,37.57191],[126.91702,37.57504],[126.91513,37.57516],[126.91453,37.57524],[126.91497,37.57626],[126.91556,37.57839],[126.9181,37.58048],[126.91903,37.58056],[126.92153,37.58088],[126.92152,37.58103],[126.92112,37.58246],[126.92106,37.58259],[126.92092,37.58278],[126.92081,37.58291],[126.92302,37.585],[126.92321,37.58428],[126.92393,37.58387],[126.92415,37.58353],[126.92417,37.5835],[126.92423,37.5834],[126.92428,37.5833],[126.92431,37.58324],[126.92462,37.58257],[126.9245,37.58185],[126.9252,37.5795],[126.92566,37.5787],[126.92682,37.57674],[126.92703,37.57638],[126.92708,37.57631],[126.92731,37.57594]]]]}},{"type":"Feature","properties":{"code":"11410710","name":"북가좌1동","parent":"11410"},"geometry":{"type":"MultiPolygon","coordinates":[[[[126.91453,37.57524],[126.91513,37.57516],[126.91325,37.57375],[126.9114,37.57258],[126.91128,37.57218],[126.91172,37.5705],[126.91181,37.57028],[126.90478,37.57339],[126.90161,37.57546],[126.90313,37.57689],[126.90629,37.58012],[126.90749,37.57934],[126.91012,37.57756],[126.91069,37.57712],[126.91089,37.57697],[126.91126,37.57668],[126.91133,37.57662],[126.91278,37.57556],[126.91329,37.57539],[126.91453,37.57524]]]]}},{"type":"Feature","properties":{"code":"11410720","name":"북가좌2동","parent":"11410"},"geometry":{"type":"MultiPolygon","coordinates":[[[[126.92081,37.58291],[126.92092,37.58278],[126.92106,37.58259],[126.92112,37.58246],[126.92152,37.58103],[126.92153,37.58088],[126.91903,37.58056],[126.9181,37.58048],[126.91556,37.57839],[126.91497,37.57626],[126.91453,37.57524],[126.91329,37.57539],[126.91278,37.57556],[126.91133,37.57662],[126.91126,37.57668],[126.91089,37.57697],[126.91069,37.57712],[126.91012,37.57756],[126.90749,37.57934],[126.90629,37.58012],[126.90985,37.58347],[126.91233,37.58581],[126.91255,37.58602],[126.9127,37.58619],[126.91282,37.58634],[126.91297,37.58664],[126.91305,37.58682],[126.91308,37.58689],[126.91315,37.58703],[126.91544,37.58549],[126.91564,37.58412],[126.91583,37.58314],[126.91592,37.58314],[126.91612,37.58314],[126.91677,37.58324],[126.91891,37.58341],[126.91937,37.58338],[126.91968,37.58333],[126.92081,37.58291]]]]}},{"type":"Feature","properties":{"code":"11410565","name":"충현동","parent":"11410"},"geometry":{"type":"MultiPolygon","coordinates":[[[[126.96581,37.56667],[126.96677,37.56579],[126.96959,37.56201],[126.9689,37.56186],[126.96808,37.56168],[126.96792,37.56164],[126.96738,37.5615],[126.9669,37.56131],[126.96661,37.56113],[126.96654,37.56108],[126.96619,37.56085],[126.96554,37.56038],[126.96524,37.56017],[126.96433,37.55965],[126.96418,37.55957],[126.96387,37.55941],[126.96376,37.55935],[126.96371,37.55934],[126.96366,37.55932],[126.96361,37.55931],[126.96207,37.55926],[126.95929,37.56188],[126.95923,37.56197],[126.95819,37.56188],[126.95805,37.56186],[126.95547,37.56146],[126.95343,37.56115],[126.95253,37.56094],[126.95068,37.56026],[126.94986,37.55981],[126.9496,37.5602],[126.94951,37.56053],[126.94922,37.56516],[126.94968,37.56613],[126.95,37.56648],[126.94969,37.56846],[126.95367,37.56934],[126.95641,37.56678],[126.95894,37.56554],[126.96254,37.5659],[126.96258,37.56597],[126.96274,37.56617],[126.96295,37.56625],[126.96341,37.56634],[126.96551,37.56667],[126.96581,37.56667]]]]}},{"type":"Feature","properties":{"code":"11410555","name":"북아현동","parent":"11410"},"geometry":{"type":"MultiPolygon","coordinates":[[[[126.96207,37.55926],[126.96148,37.55885],[126.95871,37.55666],[126.95868,37.55684],[126.95849,37.55724],[126.95707,37.55748],[126.95684,37.55748],[126.95621,37.55746],[126.9553,37.55744],[126.95498,37.55743],[126.95432,37.5573],[126.95321,37.55722],[126.95201,37.55713],[126.95195,37.55713],[126.94885,37.55697],[126.94986,37.55981],[126.95068,37.56026],[126.95253,37.56094],[126.95343,37.56115],[126.95547,37.56146],[126.95805,37.56186],[126.95819,37.56188],[126.95923,37.56197],[126.95929,37.56188],[126.96207,37.55926]]]]}},{"type":"Feature","properties":{"code":"11410585","name":"신촌동","parent":"11410"},"geometry":{"type":"MultiPolygon","coordinates":[[[[126.94969,37.56846],[126.95,37.56648],[126.94968,37.56613],[126.94922,37.56516],[126.94951,37.56053],[126.9496,37.5602],[126.94986,37.55981],[126.94885,37.55697],[126.94681,37.55685],[126.94681,37.55691],[126.9468,37.55696],[126.94469,37.55684],[126.94105,37.55644],[126.94025,37.55619],[126.93687,37.5551],[126.93673,37.55511],[126.93644,37.5552],[126.93511,37.55567],[126.93,37.55756],[126.92712,37.55863],[126.92701,37.55867],[126.92686,37.55874],[126.92663,37.55883],[126.92649,37.5592],[126.92668,37.56058],[126.92714,37.56175],[126.9272,37.56183],[126.92813,37.56119],[126.92834,37.56106],[126.92841,37.56102],[126.92848,37.56099],[126.92957,37.56092],[126.93082,37.56096],[126.93117,37.56109],[126.93142,37.56124],[126.93306,37.56312],[126.93365,37.5646],[126.93447,37.56623],[126.93723,37.56816],[126.93888,37.56917],[126.93931,37.56941],[126.94135,37.5701],[126.94265,37.57032],[126.94336,37.5709],[126.94346,37.571],[126.94351,37.57107],[126.94404,37.57218],[126.94403,37.57264],[126.94401,37.57281],[126.94397,37.57297],[126.94392,37.57308],[126.94378,37.57321],[126.94375,37.57323],[126.9437,37.57324],[126.94353,37.57343],[126.94349,37.57349],[126.94344,37.57402],[126.94343,37.57419],[126.94349,37.57454],[126.94353,37.57468],[126.94393,37.57533],[126.94474,37.5766],[126.94563,37.57672],[126.94657,37.5768],[126.94675,37.57681],[126.94752,37.57612],[126.94895,37.57572],[126.94904,37.57565],[126.94906,37.57559],[126.94908,37.57552],[126.94905,37.57465],[126.94879,37.574],[126.94858,37.57386],[126.94854,37.57383],[126.94789,37.57328],[126.94786,37.57325],[126.94784,37.57322],[126.94781,37.57316],[126.94772,37.57298],[126.94767,37.57279],[126.94894,37.56944],[126.94969,37.56846]]]]}},{"type":"Feature","properties":{"code":"11410615","name":"연희동","parent":"11410"},"geometry":{"type":"MultiPolygon","coordinates":[[[[126.94675,37.57681],[126.94657,37.5768],[126.94563,37.57672],[126.94474,37.5766],[126.94393,37.57533],[126.94353,37.57468],[126.94349,37.57454],[126.94343,37.57419],[126.94344,37.57402],[126.94349,37.57349],[126.94353,37.57343],[126.9437,37.57324],[126.94375,37.57323],[126.94378,37.57321],[126.94392,37.57308],[126.94397,37.57297],[126.94401,37.57281],[126.94403,37.57264],[126.94404,37.57218],[126.94351,37.57107],[126.94346,37.571],[126.94336,37.5709],[126.94265,37.57032],[126.94135,37.5701],[126.93931,37.56941],[126.93888,37.56917],[126.93723,37.56816],[126.93447,37.56623],[126.93365,37.5646],[126.93306,37.56312],[126.93142,37.56124],[126.93117,37.56109],[126.93082,37.56096],[126.92957,37.56092],[126.92848,37.56099],[126.92841,37.56102],[126.92834,37.56106],[126.92813,37.56119],[126.9272,37.56183],[126.92748,37.56223],[126.92812,37.56315],[126.92815,37.5632],[126.92825,37.56334],[126.92696,37.56442],[126.92682,37.56452],[126.9263,37.56492],[126.92614,37.56503],[126.92596,37.56514],[126.92582,37.56522],[126.92569,37.56529],[126.92513,37.56556],[126.92474,37.56573],[126.91774,37.56744],[126.91685,37.56789],[126.92189,37.57191],[126.92731,37.57594],[126.92783,37.57621],[126.92809,37.57634],[126.92992,37.5773],[126.93041,37.57755],[126.93045,37.57757],[126.9321,37.57841],[126.93326,37.5789],[126.93331,37.57892],[126.93437,37.57928],[126.93524,37.57959],[126.93549,37.57968],[126.93663,37.58015],[126.93705,37.58041],[126.93739,37.58065],[126.9375,37.58077],[126.93759,37.58089],[126.93771,37.5811],[126.93782,37.58137],[126.9379,37.58162],[126.93781,37.58185],[126.93757,37.58223],[126.93748,37.58235],[126.93719,37.58254],[126.94084,37.58391],[126.94187,37.58083],[126.94471,37.57746],[126.94513,37.5772],[126.94591,37.57695],[126.94675,37.57681]]]]}}]}