{"type":"FeatureCollection","features":[{"type":"Feature","properties":{"code":"12190250","name":"광양읍","parent":"12190"},"geometry":{"type":"MultiPolygon","coordinates":[[[[127.65491,34.97062],[127.65436,34.96858],[127.65417,34.96778],[127.65368,34.96531],[127.65367,34.96515],[127.6537,34.96493],[127.65377,34.9647],[127.65401,34.96433],[127.65431,34.96405],[127.65318,34.96292],[127.65074,34.96311],[127.6475,34.9633],[127.64734,34.96325],[127.64616,34.96251],[127.6461,34.96247],[127.64608,34.96242],[127.64607,34.9623],[127.64608,34.96217],[127.64613,34.96186],[127.64616,34.96173],[127.64623,34.96152],[127.64889,34.95663],[127.64901,34.95643],[127.64966,34.95564],[127.64998,34.95535],[127.65069,34.95474],[127.65154,34.95416],[127.6517,34.95402],[127.6518,34.95392],[127.65252,34.95244],[127.65256,34.95224],[127.65259,34.95192],[127.65259,34.95175],[127.65252,34.95153],[127.65172,34.9499],[127.65086,34.94925],[127.64949,34.94852],[127.64853,34.94818],[127.64814,34.94808],[127.64553,34.9476],[127.64545,34.94759],[127.64536,34.94759],[127.64531,34.9476],[127.64516,34.94774],[127.64498,34.94805],[127.64489,34.94821],[127.64481,34.94825],[127.64097,34.9499],[127.6409,34.94991],[127.64081,34.9499],[127.64071,34.94987],[127.64063,34.94985],[127.64047,34.94979],[127.64026,34.94971],[127.63963,34.94943],[127.63936,34.94927],[127.63903,34.94898],[127.63891,34.94883],[127.63722,34.94645],[127.63652,34.94518],[127.63647,34.94503],[127.63646,34.94492],[127.63649,34.94481],[127.63668,34.94462],[127.63693,34.94436],[127.63725,34.94399],[127.63744,34.9437],[127.63781,34.9431],[127.63786,34.94296],[127.63791,34.94277],[127.63795,34.94259],[127.63823,34.93795],[127.63823,34.93771],[127.63819,34.93756],[127.63805,34.93698],[127.63798,34.9367],[127.63786,34.93631],[127.63784,34.93627],[127.63781,34.93623],[127.63778,34.93621],[127.63769,34.93616],[127.63715,34.93588],[127.63691,34.93579],[127.63672,34.93574],[127.63517,34.93546],[127.63484,34.93542],[127.63463,34.93542],[127.63442,34.9355],[127.63419,34.9356],[127.63398,34.93563],[127.63059,34.93538],[127.62933,34.93516],[127.62568,34.93426],[127.6256,34.93422],[127.62558,34.9342],[127.62554,34.93417],[127.62539,34.93401],[127.6252,34.93378],[127.62501,34.93349],[127.62453,34.93275],[127.62439,34.93249],[127.62429,34.93227],[127.62301,34.92876],[127.62311,34.92744],[127.62364,34.92562],[127.62347,34.92247],[127.62346,34.92243],[127.62339,34.9223],[127.62331,34.9222],[127.62319,34.92211],[127.62287,34.92184],[127.6228,34.92181],[127.62271,34.92179],[127.6226,34.92179],[127.61949,34.92204],[127.61851,34.92225],[127.61841,34.92228],[127.61723,34.92219],[127.61604,34.92204],[127.61551,34.92177],[127.61335,34.92045],[127.61304,34.92096],[127.61272,34.92123],[127.61202,34.92137],[127.61127,34.92084],[127.60929,34.92142],[127.60764,34.92258],[127.60452,34.92806],[127.6042,34.93573],[127.60444,34.93657],[127.60453,34.93828],[127.60236,34.93832],[127.60005,34.93835],[127.59927,34.92677],[127.59835,34.92598],[127.58542,34.92321],[127.58023,34.9221],[127.57985,34.92179],[127.5792,34.91992],[127.57881,34.91881],[127.58552,34.91896],[127.59072,34.91907],[127.60488,34.90429],[127.60557,34.90342],[127.60539,34.9033],[127.59505,34.89653],[127.59295,34.89524],[127.59182,34.89975],[127.59047,34.90644],[127.58853,34.91116],[127.58685,34.91471],[127.58679,34.91489],[127.58975,34.91681],[127.5883,34.91823],[127.58574,34.91819],[127.57854,34.91809],[127.57783,34.91808],[127.57734,34.91886],[127.57711,34.92002],[127.57716,34.92137],[127.57733,34.92498],[127.57752,34.9288],[127.57763,34.93104],[127.57777,34.93371],[127.57801,34.93874],[127.57808,34.94009],[127.57812,34.94094],[127.57811,34.94099],[127.57808,34.94103],[127.57796,34.94113],[127.57777,34.94127],[127.57531,34.94287],[127.57523,34.94293],[127.57512,34.94296],[127.57492,34.943],[127.57484,34.943],[127.57476,34.94299],[127.57472,34.94297],[127.57468,34.94291],[127.57465,34.94281],[127.57464,34.94274],[127.57464,34.94267],[127.57465,34.94253],[127.57471,34.94211],[127.57476,34.94186],[127.57479,34.94173],[127.5748,34.94163],[127.57481,34.9414],[127.57479,34.94128],[127.57467,34.94107],[127.57462,34.94101],[127.57441,34.94083],[127.57418,34.9407],[127.57386,34.94053],[127.57355,34.94039],[127.5733,34.94028],[127.57287,34.94013],[127.57281,34.94011],[127.57276,34.9401],[127.57269,34.9401],[127.56858,34.94011],[127.56845,34.94012],[127.56832,34.94014],[127.56661,34.94067],[127.566,34.94091],[127.56618,34.94174],[127.56621,34.94186],[127.56626,34.942],[127.56631,34.94203],[127.56643,34.94205],[127.56652,34.9421],[127.56651,34.9435],[127.5665,34.94355],[127.56476,34.94604],[127.56471,34.94608],[127.5638,34.94671],[127.56374,34.94675],[127.56338,34.94685],[127.56333,34.94685],[127.56242,34.94666],[127.56231,34.94663],[127.56222,34.94657],[127.56217,34.94653],[127.56212,34.94643],[127.56203,34.94622],[127.56198,34.94615],[127.56193,34.9461],[127.56186,34.94604],[127.56176,34.94598],[127.56161,34.94592],[127.56126,34.94579],[127.56111,34.94575],[127.56099,34.94575],[127.56093,34.94576],[127.55743,34.94635],[127.55726,34.9464],[127.55713,34.94645],[127.557,34.94653],[127.5569,34.9466],[127.55688,34.94663],[127.55683,34.94669],[127.55678,34.94676],[127.55675,34.94684],[127.55674,34.94693],[127.55678,34.94702],[127.55689,34.94726],[127.55699,34.9475],[127.5571,34.94766],[127.55723,34.94783],[127.55792,34.94852],[127.55801,34.94859],[127.55887,34.94951],[127.55966,34.95051],[127.55968,34.95059],[127.55968,34.95068],[127.55962,34.95089],[127.55953,34.95119],[127.55941,34.95141],[127.55936,34.95147],[127.55473,34.95514],[127.54968,34.95833],[127.54881,34.95873],[127.5486,34.95882],[127.5485,34.95881],[127.54809,34.95869],[127.54802,34.95885],[127.54798,34.95892],[127.54794,34.95905],[127.54762,34.96017],[127.5476,34.96084],[127.54761,34.96164],[127.54762,34.96171],[127.5486,34.96362],[127.54872,34.96372],[127.54881,34.96375],[127.54894,34.96378],[127.54922,34.96381],[127.54955,34.96383],[127.54993,34.9645],[127.54997,34.9646],[127.54999,34.96466],[127.54988,34.96522],[127.54911,34.96665],[127.54744,34.96932],[127.54606,34.97133],[127.54603,34.97147],[127.54605,34.97153],[127.5461,34.9716],[127.54787,34.97272],[127.54982,34.97329],[127.55031,34.97321],[127.55116,34.97311],[127.5519,34.97307],[127.55239,34.97309],[127.55295,34.97323],[127.55336,34.97339],[127.55345,34.97343],[127.55392,34.97366],[127.55414,34.97383],[127.55597,34.97559],[127.55758,34.97512],[127.56613,34.97317],[127.56795,34.97497],[127.56753,34.97567],[127.56737,34.97592],[127.56692,34.97747],[127.56686,34.97824],[127.56781,34.9789],[127.56997,34.97875],[127.57125,34.97822],[127.57163,34.97825],[127.57255,34.97873],[127.5753,34.98178],[127.57449,34.98179],[127.5746,34.98227],[127.57529,34.98434],[127.57559,34.98492],[127.57841,34.98698],[127.57958,34.98981],[127.58253,34.99122],[127.5873,34.99444],[127.58776,34.99477],[127.58899,34.99436],[127.59089,34.99255],[127.59046,34.99135],[127.59378,34.99164],[127.59625,34.99381],[127.5967,34.99454],[127.59699,34.99453],[127.5974,34.99448],[127.59762,34.99443],[127.59777,34.99438],[127.60068,34.9933],[127.60254,34.9926],[127.60157,34.99065],[127.60092,34.9858],[127.60092,34.98577],[127.60097,34.98572],[127.60121,34.98555],[127.60129,34.98553],[127.60167,34.98553],[127.60185,34.98553],[127.60348,34.98557],[127.60379,34.98558],[127.60396,34.9856],[127.60406,34.98564],[127.60736,34.98706],[127.60768,34.9872],[127.60787,34.98737],[127.60806,34.9876],[127.60816,34.98772],[127.60896,34.98921],[127.60899,34.98929],[127.609,34.98933],[127.60892,34.98967],[127.60889,34.98981],[127.60888,34.9899],[127.60888,34.99],[127.60901,34.99017],[127.6093,34.99042],[127.60934,34.99043],[127.61617,34.99111],[127.61626,34.99107],[127.61643,34.991],[127.61655,34.99089],[127.61779,34.98983],[127.61807,34.98956],[127.61821,34.9894],[127.61831,34.98928],[127.61872,34.98873],[127.61882,34.98858],[127.6189,34.98845],[127.62377,34.98771],[127.6239,34.98772],[127.62402,34.98772],[127.62415,34.98773],[127.62443,34.98782],[127.62606,34.98835],[127.63152,34.98904],[127.63205,34.98901],[127.63337,34.98893],[127.6336,34.98893],[127.6337,34.98895],[127.63375,34.98896],[127.63384,34.98905],[127.63393,34.98934],[127.63403,34.98971],[127.63414,34.99009],[127.6342,34.99023],[127.63436,34.99047],[127.63481,34.99112],[127.63494,34.99128],[127.63865,34.99514],[127.63882,34.9953],[127.63904,34.99548],[127.63934,34.99563],[127.63977,34.9958],[127.64015,34.99592],[127.64036,34.99603],[127.64053,34.99617],[127.64066,34.99631],[127.64077,34.9966],[127.64106,34.99745],[127.64129,34.99829],[127.64138,34.99865],[127.64142,34.99899],[127.64143,34.99942],[127.64143,34.99953],[127.64356,34.99927],[127.64371,34.99924],[127.64389,34.99912],[127.64406,34.99897],[127.64424,34.99872],[127.64587,34.99625],[127.64596,34.99608],[127.64604,34.99585],[127.6462,34.99357],[127.64619,34.99341],[127.64616,34.99303],[127.64611,34.99282],[127.64488,34.99021],[127.64441,34.98898],[127.64463,34.98857],[127.6447,34.98841],[127.64481,34.98759],[127.64482,34.98747],[127.64477,34.9873],[127.64457,34.98694],[127.64435,34.98667],[127.6443,34.98652],[127.64458,34.98279],[127.64468,34.98248],[127.64488,34.9822],[127.64527,34.98193],[127.64655,34.9813],[127.64786,34.98054],[127.65158,34.97755],[127.65431,34.97486],[127.65439,34.97477],[127.65444,34.9747],[127.65446,34.97465],[127.65447,34.97452],[127.65443,34.97437],[127.65435,34.97409],[127.65426,34.97379],[127.65422,34.97354],[127.65422,34.97343],[127.65491,34.97062]]]]}},{"type":"Feature","properties":{"code":"12190310","name":"봉강면","parent":"12190"},"geometry":{"type":"MultiPolygon","coordinates":[[[[127.5967,34.99454],[127.59625,34.99381],[127.59378,34.99164],[127.59046,34.99135],[127.59089,34.99255],[127.58899,34.99436],[127.58776,34.99477],[127.5873,34.99444],[127.58253,34.99122],[127.57958,34.98981],[127.57841,34.98698],[127.57559,34.98492],[127.57529,34.98434],[127.5746,34.98227],[127.57449,34.98179],[127.5753,34.98178],[127.57255,34.97873],[127.57163,34.97825],[127.57125,34.97822],[127.56997,34.97875],[127.56781,34.9789],[127.56686,34.97824],[127.56692,34.97747],[127.56737,34.97592],[127.56753,34.97567],[127.56795,34.97497],[127.56613,34.97317],[127.55758,34.97512],[127.55597,34.97559],[127.55664,34.97704],[127.55752,34.97758],[127.55739,34.97944],[127.55679,34.9805],[127.55641,34.98118],[127.55482,34.98212],[127.55253,34.98378],[127.55222,34.98424],[127.55015,34.98565],[127.54978,34.98598],[127.5494,34.9868],[127.55091,34.98771],[127.55357,34.99103],[127.55414,34.99212],[127.55397,34.9938],[127.55589,34.99576],[127.55813,34.99789],[127.55876,34.99823],[127.55949,34.99864],[127.56083,34.99867],[127.56386,35.00015],[127.56522,35.00117],[127.56647,35.00156],[127.56757,35.00152],[127.56718,35.0042],[127.56572,35.0065],[127.56419,35.00798],[127.56136,35.00908],[127.56049,35.00999],[127.55984,35.01247],[127.55941,35.01374],[127.55807,35.01574],[127.55794,35.01759],[127.55786,35.01956],[127.55974,35.02217],[127.56066,35.0249],[127.55863,35.02722],[127.55752,35.02848],[127.55675,35.0296],[127.55646,35.03141],[127.5565,35.03308],[127.55751,35.03502],[127.5576,35.03596],[127.5554,35.037],[127.55487,35.037],[127.55344,35.0375],[127.55041,35.0394],[127.55023,35.03993],[127.54953,35.041],[127.54448,35.04512],[127.53896,35.04897],[127.5364,35.04966],[127.53631,35.04997],[127.53561,35.05251],[127.53549,35.05414],[127.53415,35.05572],[127.5313,35.05748],[127.5281,35.06021],[127.52825,35.06391],[127.52695,35.06484],[127.52614,35.06601],[127.52553,35.07106],[127.5256,35.07287],[127.52721,35.07857],[127.52933,35.08076],[127.53095,35.08178],[127.53188,35.08368],[127.52994,35.08809],[127.53045,35.08932],[127.53008,35.09167],[127.52944,35.09272],[127.52907,35.09422],[127.52905,35.09442],[127.52902,35.09478],[127.53016,35.09541],[127.53103,35.09569],[127.53126,35.09576],[127.53232,35.09805],[127.53303,35.10049],[127.53274,35.10341],[127.53259,35.10579],[127.53345,35.10655],[127.53375,35.1066],[127.5352,35.10475],[127.53759,35.10294],[127.54086,35.10111],[127.54535,35.09883],[127.54674,35.09827],[127.55041,35.09672],[127.55198,35.09531],[127.55741,35.09589],[127.55958,35.09549],[127.56188,35.09858],[127.56282,35.09998],[127.56334,35.10089],[127.56381,35.10217],[127.5639,35.10458],[127.5638,35.10637],[127.56385,35.10827],[127.56549,35.1091],[127.56688,35.10892],[127.56888,35.10946],[127.5698,35.11047],[127.57074,35.11149],[127.57538,35.11352],[127.57673,35.11365],[127.57711,35.11275],[127.57784,35.11188],[127.57936,35.10961],[127.58073,35.10864],[127.58198,35.10422],[127.5826,35.10151],[127.58354,35.10119],[127.5843,35.10027],[127.58532,35.09615],[127.58558,35.09439],[127.58511,35.09266],[127.58477,35.09121],[127.58509,35.08987],[127.58588,35.0881],[127.58589,35.08803],[127.58625,35.08557],[127.58642,35.08354],[127.58632,35.08087],[127.58579,35.08019],[127.58509,35.0793],[127.58585,35.07289],[127.58669,35.07066],[127.5875,35.06918],[127.58714,35.06495],[127.58648,35.06402],[127.58643,35.064],[127.58507,35.06351],[127.58446,35.06329],[127.58234,35.06116],[127.58121,35.05933],[127.58221,35.05379],[127.58365,35.05287],[127.58382,35.05018],[127.58361,35.04994],[127.58347,35.04977],[127.58259,35.04518],[127.58257,35.04442],[127.58254,35.04374],[127.58304,35.04127],[127.58404,35.04043],[127.58757,35.0376],[127.59144,35.03573],[127.59399,35.03624],[127.59415,35.03627],[127.5964,35.03322],[127.59909,35.02819],[127.59894,35.02515],[127.59892,35.02506],[127.59986,35.02242],[127.60134,35.0217],[127.60297,35.01954],[127.60327,35.01841],[127.60264,35.01724],[127.60339,35.01508],[127.60424,35.01342],[127.60152,35.01151],[127.59695,35.0104],[127.59611,35.01074],[127.59419,35.01016],[127.594,35.00984],[127.59313,35.00816],[127.59262,35.00586],[127.59302,35.00322],[127.59343,35.00224],[127.59434,35.00161],[127.59482,35.00127],[127.59622,34.99983],[127.59726,34.99742],[127.5968,34.99481],[127.5967,34.99454]]]]}},{"type":"Feature","properties":{"code":"12190320","name":"옥룡면","parent":"12190"},"geometry":{"type":"MultiPolygon","coordinates":[[[[127.60281,35.11815],[127.60303,35.11801],[127.60342,35.11798],[127.60438,35.11811],[127.60536,35.11841],[127.60626,35.11862],[127.60738,35.11871],[127.60822,35.11852],[127.60836,35.11844],[127.60889,35.11815],[127.61104,35.11584],[127.61417,35.1131],[127.61519,35.11222],[127.61533,35.11171],[127.6153,35.11093],[127.61546,35.11043],[127.61589,35.10984],[127.61743,35.10841],[127.62065,35.1066],[127.62137,35.10626],[127.62162,35.10623],[127.62218,35.10324],[127.62245,35.10228],[127.62237,35.10134],[127.62215,35.1004],[127.62186,35.09977],[127.62156,35.09899],[127.62153,35.09837],[127.62191,35.09754],[127.6223,35.09706],[127.62342,35.09593],[127.62346,35.09591],[127.62723,35.09397],[127.63,35.09324],[127.63015,35.09333],[127.6303,35.09341],[127.63044,35.09349],[127.63053,35.09353],[127.63062,35.09355],[127.63131,35.09367],[127.63144,35.0937],[127.63154,35.0937],[127.6316,35.0937],[127.63488,35.09242],[127.63689,35.09162],[127.63697,35.09157],[127.63702,35.09152],[127.63705,35.09145],[127.63708,35.09135],[127.6371,35.09125],[127.63711,35.09113],[127.63712,35.09102],[127.63711,35.0909],[127.6371,35.09078],[127.63709,35.09039],[127.6371,35.09026],[127.63717,35.08974],[127.6372,35.0896],[127.63722,35.08948],[127.63725,35.08936],[127.63728,35.08924],[127.63731,35.08914],[127.63933,35.08604],[127.64021,35.08478],[127.64177,35.08261],[127.64181,35.08255],[127.64243,35.08182],[127.64257,35.0817],[127.64265,35.08164],[127.64272,35.0816],[127.64399,35.08099],[127.64571,35.08015],[127.6458,35.0801],[127.64613,35.07973],[127.64623,35.07961],[127.64632,35.07948],[127.6464,35.07934],[127.64733,35.07761],[127.64741,35.07745],[127.64748,35.07729],[127.6475,35.07722],[127.64823,35.07411],[127.64826,35.07305],[127.64784,35.06958],[127.64782,35.06947],[127.64763,35.06865],[127.64762,35.0686],[127.64755,35.06849],[127.64748,35.06838],[127.6474,35.06826],[127.64731,35.06815],[127.64721,35.06803],[127.64686,35.06752],[127.64627,35.06659],[127.64619,35.06645],[127.64618,35.0664],[127.64618,35.06637],[127.64619,35.06634],[127.64742,35.06454],[127.64847,35.06303],[127.64859,35.06293],[127.64862,35.06291],[127.64868,35.06281],[127.64875,35.0627],[127.6491,35.06204],[127.6501,35.06011],[127.6504,35.05931],[127.65029,35.059],[127.64934,35.05826],[127.64827,35.05742],[127.64819,35.05736],[127.64816,35.05733],[127.64814,35.05729],[127.64811,35.05724],[127.64701,35.05436],[127.64699,35.05432],[127.64665,35.05244],[127.64662,35.05229],[127.64595,35.04831],[127.64595,35.04821],[127.64596,35.04816],[127.64597,35.04814],[127.64623,35.04765],[127.64636,35.04747],[127.64661,35.04685],[127.64671,35.04574],[127.64672,35.04564],[127.64673,35.04552],[127.64666,35.04441],[127.64686,35.04131],[127.64708,35.03903],[127.64747,35.03695],[127.64779,35.03644],[127.64566,35.03448],[127.64437,35.03299],[127.64428,35.03288],[127.64418,35.03275],[127.64413,35.03268],[127.64409,35.03256],[127.64406,35.03243],[127.64404,35.03226],[127.64402,35.03206],[127.64403,35.03192],[127.64404,35.03177],[127.64406,35.03161],[127.64408,35.03146],[127.64411,35.03115],[127.6441,35.03102],[127.64409,35.03095],[127.64405,35.03084],[127.64398,35.03071],[127.64302,35.0289],[127.64243,35.02819],[127.64172,35.02805],[127.64149,35.02804],[127.64126,35.02802],[127.64111,35.028],[127.64103,35.02799],[127.64086,35.02793],[127.64066,35.02786],[127.64046,35.02779],[127.63966,35.02744],[127.63955,35.02739],[127.63951,35.02735],[127.63949,35.02732],[127.63892,35.02618],[127.63891,35.02608],[127.63892,35.02591],[127.63892,35.02583],[127.63895,35.02564],[127.63903,35.02496],[127.6392,35.02453],[127.6379,35.02009],[127.63787,35.02007],[127.63786,35.02003],[127.63785,35.01998],[127.63785,35.01991],[127.63789,35.01974],[127.63794,35.01944],[127.6385,35.01737],[127.63938,35.01615],[127.63942,35.01609],[127.63951,35.01601],[127.64225,35.01341],[127.64198,35.01005],[127.64202,35.00514],[127.64203,35.00498],[127.64207,35.00385],[127.64207,35.00369],[127.64202,35.00095],[127.642,35.00086],[127.64143,34.99953],[127.64143,34.99942],[127.64142,34.99899],[127.64138,34.99865],[127.64129,34.99829],[127.64106,34.99745],[127.64077,34.9966],[127.64066,34.99631],[127.64053,34.99617],[127.64036,34.99603],[127.64015,34.99592],[127.63977,34.9958],[127.63934,34.99563],[127.63904,34.99548],[127.63882,34.9953],[127.63865,34.99514],[127.63494,34.99128],[127.63481,34.99112],[127.63436,34.99047],[127.6342,34.99023],[127.63414,34.99009],[127.63403,34.98971],[127.63393,34.98934],[127.63384,34.98905],[127.63375,34.98896],[127.6337,34.98895],[127.6336,34.98893],[127.63337,34.98893],[127.63205,34.98901],[127.63152,34.98904],[127.62606,34.98835],[127.62443,34.98782],[127.62415,34.98773],[127.62402,34.98772],[127.6239,34.98772],[127.62377,34.98771],[127.6189,34.98845],[127.61882,34.98858],[127.61872,34.98873],[127.61831,34.98928],[127.61821,34.9894],[127.61807,34.98956],[127.61779,34.98983],[127.61655,34.99089],[127.61643,34.991],[127.61626,34.99107],[127.61617,34.99111],[127.60934,34.99043],[127.6093,34.99042],[127.60901,34.99017],[127.60888,34.99],[127.60888,34.9899],[127.60889,34.98981],[127.60892,34.98967],[127.609,34.98933],[127.60899,34.98929],[127.60896,34.98921],[127.60816,34.98772],[127.60806,34.9876],[127.60787,34.98737],[127.60768,34.9872],[127.60736,34.98706],[127.60406,34.98564],[127.60396,34.9856],[127.60379,34.98558],[127.60348,34.98557],[127.60185,34.98553],[127.60167,34.98553],[127.60129,34.98553],[127.60121,34.98555],[127.60097,34.98572],[127.60092,34.98577],[127.60092,34.9858],[127.60157,34.99065],[127.60254,34.9926],[127.60068,34.9933],[127.59777,34.99438],[127.59762,34.99443],[127.5974,34.99448],[127.59699,34.99453],[127.5967,34.99454],[127.5968,34.99481],[127.59726,34.99742],[127.59622,34.99983],[127.59482,35.00127],[127.59434,35.00161],[127.59343,35.00224],[127.59302,35.00322],[127.59262,35.00586],[127.59313,35.00816],[127.594,35.00984],[127.59419,35.01016],[127.59611,35.01074],[127.59695,35.0104],[127.60152,35.01151],[127.60424,35.01342],[127.60339,35.01508],[127.60264,35.01724],[127.60327,35.01841],[127.60297,35.01954],[127.60134,35.0217],[127.59986,35.02242],[127.59892,35.02506],[127.59894,35.02515],[127.59909,35.02819],[127.5964,35.03322],[127.59415,35.03627],[127.59399,35.03624],[127.59144,35.03573],[127.58757,35.0376],[127.58404,35.04043],[127.58304,35.04127],[127.58254,35.04374],[127.58257,35.04442],[127.58259,35.04518],[127.58347,35.04977],[127.58361,35.04994],[127.58382,35.05018],[127.58365,35.05287],[127.58221,35.05379],[127.58121,35.05933],[127.58234,35.06116],[127.58446,35.06329],[127.58507,35.06351],[127.58643,35.064],[127.58648,35.06402],[127.58714,35.06495],[127.5875,35.06918],[127.58669,35.07066],[127.58585,35.07289],[127.58509,35.0793],[127.58579,35.08019],[127.58632,35.08087],[127.58642,35.08354],[127.58625,35.08557],[127.58589,35.08803],[127.58588,35.0881],[127.58509,35.08987],[127.58477,35.09121],[127.58511,35.09266],[127.58558,35.09439],[127.58532,35.09615],[127.5843,35.10027],[127.58354,35.10119],[127.5826,35.10151],[127.58198,35.10422],[127.58073,35.10864],[127.57936,35.10961],[127.57784,35.11188],[127.57711,35.11275],[127.57673,35.11365],[127.5779,35.11379],[127.57864,35.11402],[127.58021,35.11468],[127.58082,35.11514],[127.58193,35.11635],[127.58257,35.11745],[127.58323,35.11845],[127.58352,35.11863],[127.5841,35.11882],[127.59215,35.12123],[127.59274,35.12136],[127.59318,35.12138],[127.59473,35.11984],[127.59593,35.11991],[127.59667,35.11987],[127.59746,35.11974],[127.59877,35.11904],[127.59965,35.1186],[127.60062,35.11835],[127.6017,35.11811],[127.6026,35.11807],[127.60281,35.11815]]]]}},{"type":"Feature","properties":{"code":"12190330","name":"옥곡면","parent":"12190"},"geometry":{"type":"MultiPolygon","coordinates":[[[[127.72392,34.98774],[127.72382,34.98722],[127.72381,34.98708],[127.72378,34.98607],[127.72393,34.98582],[127.72404,34.98571],[127.72508,34.98494],[127.72627,34.98411],[127.72743,34.98331],[127.72861,34.98248],[127.72886,34.98229],[127.72907,34.98201],[127.72925,34.98174],[127.72937,34.98151],[127.72944,34.98134],[127.72948,34.98003],[127.72937,34.9781],[127.72919,34.97492],[127.7291,34.97354],[127.72883,34.96905],[127.72881,34.96861],[127.7292,34.96495],[127.72934,34.96463],[127.72964,34.964],[127.73001,34.96321],[127.72878,34.9632],[127.72746,34.96341],[127.72322,34.96464],[127.72252,34.96607],[127.7224,34.96621],[127.72222,34.96636],[127.72102,34.96739],[127.7208,34.96755],[127.72073,34.9676],[127.71756,34.96946],[127.7174,34.96952],[127.71732,34.96954],[127.71663,34.96957],[127.71642,34.96962],[127.71597,34.9697],[127.71573,34.96971],[127.71515,34.96966],[127.71499,34.96964],[127.71478,34.9696],[127.71449,34.96953],[127.71416,34.96945],[127.71353,34.96923],[127.71333,34.96905],[127.71294,34.96869],[127.71273,34.96858],[127.71176,34.9682],[127.71154,34.96814],[127.7113,34.9681],[127.70827,34.9679],[127.70811,34.96791],[127.70413,34.96861],[127.7015,34.96894],[127.70136,34.96894],[127.70124,34.96895],[127.70121,34.96898],[127.70028,34.96996],[127.70017,34.97012],[127.70001,34.97036],[127.69959,34.97107],[127.6995,34.97133],[127.69941,34.97161],[127.69929,34.97187],[127.69921,34.97201],[127.69786,34.9731],[127.69771,34.9732],[127.69753,34.97328],[127.69728,34.97334],[127.69694,34.97339],[127.69644,34.97344],[127.69604,34.97345],[127.69551,34.97346],[127.69459,34.97347],[127.69362,34.974],[127.69068,34.97428],[127.69064,34.97411],[127.69058,34.974],[127.69047,34.97386],[127.69022,34.97367],[127.69003,34.97354],[127.68827,34.97255],[127.68799,34.9724],[127.68367,34.97002],[127.68195,34.9691],[127.68167,34.96896],[127.67812,34.96753],[127.67795,34.96747],[127.67765,34.96745],[127.67712,34.96746],[127.67175,34.96764],[127.67165,34.96766],[127.67159,34.96768],[127.67079,34.96818],[127.67054,34.96833],[127.67028,34.96856],[127.67019,34.96869],[127.66946,34.97022],[127.66941,34.97038],[127.66941,34.97052],[127.66578,34.97084],[127.66419,34.9696],[127.66404,34.96953],[127.66383,34.96951],[127.66339,34.96956],[127.66042,34.97003],[127.66017,34.97015],[127.65997,34.9703],[127.65962,34.97057],[127.65949,34.97065],[127.65941,34.97069],[127.6593,34.97071],[127.65594,34.9708],[127.65491,34.97062],[127.65422,34.97343],[127.65422,34.97354],[127.65426,34.97379],[127.65435,34.97409],[127.65443,34.97437],[127.65447,34.97452],[127.65446,34.97465],[127.65444,34.9747],[127.65439,34.97477],[127.65431,34.97486],[127.65158,34.97755],[127.64786,34.98054],[127.64655,34.9813],[127.64527,34.98193],[127.64488,34.9822],[127.64468,34.98248],[127.64458,34.98279],[127.6443,34.98652],[127.64435,34.98667],[127.64457,34.98694],[127.64477,34.9873],[127.64482,34.98747],[127.64481,34.98759],[127.6447,34.98841],[127.64463,34.98857],[127.64441,34.98898],[127.64488,34.99021],[127.64611,34.99282],[127.64616,34.99303],[127.64619,34.99341],[127.6462,34.99357],[127.64604,34.99585],[127.64596,34.99608],[127.64587,34.99625],[127.64424,34.99872],[127.64406,34.99897],[127.64389,34.99912],[127.64371,34.99924],[127.64356,34.99927],[127.64143,34.99953],[127.642,35.00086],[127.64202,35.00095],[127.64207,35.00369],[127.64207,35.00385],[127.64203,35.00498],[127.64202,35.00514],[127.64198,35.01005],[127.64225,35.01341],[127.63951,35.01601],[127.63942,35.01609],[127.63938,35.01615],[127.6385,35.01737],[127.63794,35.01944],[127.63789,35.01974],[127.63785,35.01991],[127.63785,35.01998],[127.63786,35.02003],[127.63787,35.02007],[127.6379,35.02009],[127.6392,35.02453],[127.63903,35.02496],[127.63895,35.02564],[127.63892,35.02583],[127.63892,35.02591],[127.63891,35.02608],[127.63892,35.02618],[127.63949,35.02732],[127.63951,35.02735],[127.63955,35.02739],[127.63966,35.02744],[127.64046,35.02779],[127.64066,35.02786],[127.64086,35.02793],[127.64103,35.02799],[127.64111,35.028],[127.64126,35.02802],[127.64149,35.02804],[127.64172,35.02805],[127.64243,35.02819],[127.64302,35.0289],[127.64398,35.03071],[127.64405,35.03084],[127.64409,35.03095],[127.6441,35.03102],[127.64411,35.03115],[127.64408,35.03146],[127.64406,35.03161],[127.64404,35.03177],[127.64403,35.03192],[127.64402,35.03206],[127.64404,35.03226],[127.64406,35.03243],[127.64409,35.03256],[127.64413,35.03268],[127.64418,35.03275],[127.64428,35.03288],[127.64437,35.03299],[127.64566,35.03448],[127.64779,35.03644],[127.64913,35.03541],[127.64998,35.0355],[127.65011,35.03551],[127.6502,35.0355],[127.65029,35.03549],[127.65054,35.03543],[127.6507,35.03538],[127.65363,35.03437],[127.65491,35.03388],[127.66147,35.03021],[127.66331,35.02823],[127.66349,35.02754],[127.66355,35.0274],[127.66359,35.02733],[127.6637,35.02719],[127.66489,35.02586],[127.66496,35.02582],[127.66505,35.02577],[127.67099,35.02381],[127.67135,35.02371],[127.67313,35.0234],[127.67317,35.02339],[127.67322,35.0234],[127.67328,35.02344],[127.67336,35.02349],[127.67347,35.0236],[127.67363,35.02378],[127.67375,35.02395],[127.67403,35.02442],[127.67412,35.02457],[127.67418,35.02472],[127.67422,35.02487],[127.67428,35.02501],[127.67434,35.02516],[127.67445,35.02539],[127.67454,35.0255],[127.67461,35.02556],[127.67587,35.02662],[127.67604,35.02672],[127.6785,35.02796],[127.67872,35.02806],[127.68189,35.02845],[127.68195,35.02845],[127.68486,35.02814],[127.68753,35.02786],[127.68758,35.02785],[127.68762,35.02786],[127.68774,35.0279],[127.6879,35.02797],[127.68821,35.02819],[127.68997,35.02954],[127.69007,35.02963],[127.69016,35.02975],[127.69025,35.02987],[127.69033,35.02999],[127.69042,35.03011],[127.69048,35.03023],[127.69061,35.03046],[127.69092,35.03104],[127.69135,35.03182],[127.69143,35.03194],[127.69159,35.03217],[127.69168,35.03227],[127.69173,35.0323],[127.69177,35.03232],[127.69247,35.03257],[127.69258,35.03261],[127.69283,35.03266],[127.69303,35.03267],[127.69412,35.03258],[127.6942,35.03257],[127.69424,35.03256],[127.69428,35.03254],[127.6963,35.0311],[127.69635,35.03106],[127.69733,35.03006],[127.69737,35.03],[127.6974,35.02995],[127.69742,35.0299],[127.69744,35.02976],[127.69745,35.02962],[127.69746,35.02949],[127.69747,35.02936],[127.69743,35.02921],[127.69738,35.02907],[127.69733,35.02892],[127.69733,35.02889],[127.69733,35.02875],[127.69733,35.0286],[127.69737,35.02748],[127.6974,35.02738],[127.69743,35.02729],[127.69748,35.02721],[127.69755,35.02715],[127.69865,35.02624],[127.69875,35.02616],[127.69894,35.02604],[127.69924,35.02589],[127.69936,35.02584],[127.69952,35.02578],[127.69964,35.02575],[127.69968,35.02573],[127.69979,35.02563],[127.69993,35.02546],[127.70004,35.02526],[127.70008,35.02518],[127.70056,35.02392],[127.7006,35.02375],[127.70098,35.02198],[127.70098,35.02188],[127.70093,35.01985],[127.70092,35.01909],[127.70075,35.01677],[127.70074,35.01674],[127.70069,35.0167],[127.70063,35.01664],[127.70054,35.01658],[127.7004,35.01652],[127.70006,35.01639],[127.69821,35.01504],[127.69817,35.015],[127.69814,35.01495],[127.69814,35.0149],[127.69815,35.01477],[127.69817,35.01472],[127.69891,35.01343],[127.6992,35.01298],[127.69925,35.01289],[127.6993,35.01275],[127.6993,35.01257],[127.69927,35.01238],[127.69924,35.0122],[127.69889,35.01095],[127.69851,35.01031],[127.69848,35.01024],[127.69848,35.01019],[127.69851,35.00908],[127.69852,35.00904],[127.69861,35.0089],[127.70078,35.00609],[127.70086,35.00602],[127.70096,35.00594],[127.70104,35.00588],[127.70118,35.00579],[127.70124,35.00577],[127.70133,35.00575],[127.70138,35.00575],[127.70157,35.00573],[127.70184,35.00573],[127.70201,35.00572],[127.7022,35.0057],[127.70228,35.00568],[127.70453,35.00512],[127.7046,35.00509],[127.70466,35.00505],[127.70472,35.00498],[127.70704,35.00079],[127.7071,35.00059],[127.70713,35.00043],[127.70714,35.0003],[127.70708,35.00016],[127.70742,34.99686],[127.70808,34.99335],[127.7081,34.99327],[127.70811,34.99324],[127.70822,34.99309],[127.70844,34.99286],[127.70873,34.9926],[127.70913,34.99237],[127.70928,34.99232],[127.71191,34.99152],[127.71421,34.9899],[127.71689,34.98794],[127.71713,34.98777],[127.71748,34.98761],[127.71785,34.98746],[127.71818,34.98742],[127.71833,34.98741],[127.72023,34.98731],[127.72211,34.98725],[127.72265,34.98732],[127.72392,34.98774]]]]}},{"type":"Feature","properties":{"code":"12190340","name":"진상면","parent":"12190"},"geometry":{"type":"MultiPolygon","coordinates":[[[[127.73448,35.049],[127.73442,35.04884],[127.73439,35.04873],[127.7344,35.04861],[127.73443,35.0485],[127.73446,35.04843],[127.73453,35.04828],[127.73463,35.04813],[127.73637,35.04564],[127.73651,35.04549],[127.73662,35.0454],[127.73668,35.04537],[127.73678,35.04533],[127.73697,35.04527],[127.73716,35.04523],[127.73792,35.04497],[127.7393,35.04445],[127.73934,35.04443],[127.73951,35.04431],[127.73958,35.04424],[127.73967,35.04414],[127.7397,35.04409],[127.73973,35.04401],[127.73974,35.04398],[127.73963,35.0424],[127.7396,35.04224],[127.73957,35.04209],[127.73955,35.04199],[127.73947,35.04184],[127.73925,35.04145],[127.73905,35.04111],[127.73896,35.041],[127.73878,35.0408],[127.73865,35.04067],[127.73753,35.03987],[127.73672,35.0393],[127.73654,35.03916],[127.73647,35.0391],[127.73642,35.03904],[127.73588,35.03817],[127.73562,35.03735],[127.73509,35.03471],[127.73506,35.03408],[127.73508,35.03402],[127.73512,35.03392],[127.73522,35.03375],[127.73861,35.02959],[127.74025,35.02815],[127.74393,35.02512],[127.74406,35.02502],[127.74418,35.02491],[127.74418,35.02487],[127.74418,35.02482],[127.74416,35.02474],[127.74367,35.02376],[127.74215,35.02106],[127.74063,35.01851],[127.73944,35.01472],[127.739,35.01374],[127.73894,35.01364],[127.73759,35.01195],[127.73693,35.01114],[127.73522,35.00945],[127.73446,35.00892],[127.73416,35.00873],[127.73357,35.00834],[127.73305,35.00801],[127.7327,35.00776],[127.73253,35.0076],[127.7324,35.00745],[127.73236,35.00736],[127.73227,35.00708],[127.73217,35.00657],[127.73214,35.00642],[127.73198,35.00547],[127.73182,35.0042],[127.73115,35.00072],[127.73032,34.99809],[127.72956,34.99502],[127.72963,34.99433],[127.72978,34.99389],[127.73064,34.99232],[127.73141,34.99122],[127.73156,34.991],[127.73159,34.99092],[127.73146,34.98967],[127.73133,34.98928],[127.73101,34.9888],[127.73085,34.98859],[127.73081,34.98855],[127.72846,34.98718],[127.72836,34.98714],[127.72825,34.98715],[127.72799,34.98722],[127.72782,34.98728],[127.72618,34.98804],[127.72516,34.98849],[127.72434,34.98867],[127.72413,34.98871],[127.72407,34.9887],[127.72392,34.98774],[127.72265,34.98732],[127.72211,34.98725],[127.72023,34.98731],[127.71833,34.98741],[127.71818,34.98742],[127.71785,34.98746],[127.71748,34.98761],[127.71713,34.98777],[127.71689,34.98794],[127.71421,34.9899],[127.71191,34.99152],[127.70928,34.99232],[127.70913,34.99237],[127.70873,34.9926],[127.70844,34.99286],[127.70822,34.99309],[127.70811,34.99324],[127.7081,34.99327],[127.70808,34.99335],[127.70742,34.99686],[127.70708,35.00016],[127.70714,35.0003],[127.70713,35.00043],[127.7071,35.00059],[127.70704,35.00079],[127.70472,35.00498],[127.70466,35.00505],[127.7046,35.00509],[127.70453,35.00512],[127.70228,35.00568],[127.7022,35.0057],[127.70201,35.00572],[127.70184,35.00573],[127.70157,35.00573],[127.70138,35.00575],[127.70133,35.00575],[127.70124,35.00577],[127.70118,35.00579],[127.70104,35.00588],[127.70096,35.00594],[127.70086,35.00602],[127.70078,35.00609],[127.69861,35.0089],[127.69852,35.00904],[127.69851,35.00908],[127.69848,35.01019],[127.69848,35.01024],[127.69851,35.01031],[127.69889,35.01095],[127.69924,35.0122],[127.69927,35.01238],[127.6993,35.01257],[127.6993,35.01275],[127.69925,35.01289],[127.6992,35.01298],[127.69891,35.01343],[127.69817,35.01472],[127.69815,35.01477],[127.69814,35.0149],[127.69814,35.01495],[127.69817,35.015],[127.69821,35.01504],[127.70006,35.01639],[127.7004,35.01652],[127.70054,35.01658],[127.70063,35.01664],[127.70069,35.0167],[127.70074,35.01674],[127.70075,35.01677],[127.70092,35.01909],[127.70093,35.01985],[127.70098,35.02188],[127.70098,35.02198],[127.7006,35.02375],[127.70056,35.02392],[127.70008,35.02518],[127.70004,35.02526],[127.69993,35.02546],[127.69979,35.02563],[127.69968,35.02573],[127.69964,35.02575],[127.69952,35.02578],[127.69936,35.02584],[127.69924,35.02589],[127.69894,35.02604],[127.69875,35.02616],[127.69865,35.02624],[127.69755,35.02715],[127.69748,35.02721],[127.69743,35.02729],[127.6974,35.02738],[127.69737,35.02748],[127.69733,35.0286],[127.69733,35.02875],[127.69733,35.02889],[127.69733,35.02892],[127.69738,35.02907],[127.69743,35.02921],[127.69747,35.02936],[127.69746,35.02949],[127.69745,35.02962],[127.69744,35.02976],[127.69742,35.0299],[127.6974,35.02995],[127.69737,35.03],[127.69733,35.03006],[127.69635,35.03106],[127.6963,35.0311],[127.69428,35.03254],[127.69424,35.03256],[127.6942,35.03257],[127.69412,35.03258],[127.69303,35.03267],[127.69283,35.03266],[127.69258,35.03261],[127.69247,35.03257],[127.69177,35.03232],[127.69173,35.0323],[127.69168,35.03227],[127.69159,35.03217],[127.69143,35.03194],[127.69135,35.03182],[127.69092,35.03104],[127.69061,35.03046],[127.69048,35.03023],[127.69042,35.03011],[127.69033,35.02999],[127.69025,35.02987],[127.69016,35.02975],[127.69007,35.02963],[127.68997,35.02954],[127.68821,35.02819],[127.6879,35.02797],[127.68774,35.0279],[127.68762,35.02786],[127.68758,35.02785],[127.68753,35.02786],[127.68486,35.02814],[127.68195,35.02845],[127.68189,35.02845],[127.67872,35.02806],[127.6785,35.02796],[127.67604,35.02672],[127.67587,35.02662],[127.67461,35.02556],[127.67454,35.0255],[127.67445,35.02539],[127.67434,35.02516],[127.67428,35.02501],[127.67422,35.02487],[127.67418,35.02472],[127.67412,35.02457],[127.67403,35.02442],[127.67375,35.02395],[127.67363,35.02378],[127.67347,35.0236],[127.67336,35.02349],[127.67328,35.02344],[127.67322,35.0234],[127.67317,35.02339],[127.67313,35.0234],[127.67135,35.02371],[127.67099,35.02381],[127.66505,35.02577],[127.66496,35.02582],[127.66489,35.02586],[127.6637,35.02719],[127.66359,35.02733],[127.66355,35.0274],[127.66349,35.02754],[127.66331,35.02823],[127.66147,35.03021],[127.65491,35.03388],[127.65363,35.03437],[127.6507,35.03538],[127.65054,35.03543],[127.65029,35.03549],[127.6502,35.0355],[127.65011,35.03551],[127.64998,35.0355],[127.64913,35.03541],[127.64779,35.03644],[127.64747,35.03695],[127.64708,35.03903],[127.64686,35.04131],[127.64666,35.04441],[127.64673,35.04552],[127.64672,35.04564],[127.64671,35.04574],[127.64661,35.04685],[127.64636,35.04747],[127.64623,35.04765],[127.64597,35.04814],[127.64596,35.04816],[127.64595,35.04821],[127.64595,35.04831],[127.64662,35.05229],[127.64665,35.05244],[127.64699,35.05432],[127.64701,35.05436],[127.64811,35.05724],[127.64814,35.05729],[127.64816,35.05733],[127.64819,35.05736],[127.64827,35.05742],[127.64934,35.05826],[127.65029,35.059],[127.6504,35.05931],[127.6501,35.06011],[127.6491,35.06204],[127.64875,35.0627],[127.64868,35.06281],[127.64862,35.06291],[127.64859,35.06293],[127.64847,35.06303],[127.64742,35.06454],[127.64619,35.06634],[127.64618,35.06637],[127.64618,35.0664],[127.64619,35.06645],[127.64627,35.06659],[127.64686,35.06752],[127.64721,35.06803],[127.64731,35.06815],[127.6474,35.06826],[127.64748,35.06838],[127.64755,35.06849],[127.64762,35.0686],[127.64763,35.06865],[127.64782,35.06947],[127.64784,35.06958],[127.64826,35.07305],[127.64823,35.07411],[127.6475,35.07722],[127.64748,35.07729],[127.64741,35.07745],[127.64733,35.07761],[127.6464,35.07934],[127.64632,35.07948],[127.64623,35.07961],[127.64613,35.07973],[127.6458,35.0801],[127.64571,35.08015],[127.64399,35.08099],[127.64272,35.0816],[127.64265,35.08164],[127.64257,35.0817],[127.64243,35.08182],[127.64181,35.08255],[127.64177,35.08261],[127.64021,35.08478],[127.63933,35.08604],[127.63731,35.08914],[127.63728,35.08924],[127.63725,35.08936],[127.63722,35.08948],[127.6372,35.0896],[127.63717,35.08974],[127.6371,35.09026],[127.63709,35.09039],[127.6371,35.09078],[127.63711,35.0909],[127.63712,35.09102],[127.63711,35.09113],[127.6371,35.09125],[127.63708,35.09135],[127.63705,35.09145],[127.63702,35.09152],[127.63697,35.09157],[127.63689,35.09162],[127.63488,35.09242],[127.6316,35.0937],[127.63154,35.0937],[127.63144,35.0937],[127.63131,35.09367],[127.63062,35.09355],[127.63053,35.09353],[127.63044,35.09349],[127.6303,35.09341],[127.63015,35.09333],[127.63,35.09324],[127.62723,35.09397],[127.62346,35.09591],[127.62342,35.09593],[127.6223,35.09706],[127.62191,35.09754],[127.62153,35.09837],[127.62156,35.09899],[127.62186,35.09977],[127.62215,35.1004],[127.62237,35.10134],[127.62245,35.10228],[127.62218,35.10324],[127.62162,35.10623],[127.62366,35.10653],[127.62438,35.10665],[127.62594,35.10698],[127.62624,35.10707],[127.62638,35.10715],[127.62656,35.10727],[127.62779,35.10811],[127.62791,35.10821],[127.62803,35.10832],[127.62809,35.10842],[127.62818,35.1086],[127.62822,35.10879],[127.62824,35.10898],[127.62827,35.10916],[127.62831,35.10925],[127.62837,35.10935],[127.62848,35.10948],[127.63056,35.11159],[127.63155,35.11252],[127.63211,35.11289],[127.6323,35.113],[127.63334,35.11349],[127.63713,35.11398],[127.63908,35.11402],[127.64235,35.11466],[127.64645,35.11553],[127.64863,35.11618],[127.64985,35.11671],[127.65299,35.11795],[127.65355,35.11812],[127.6537,35.11817],[127.65381,35.11818],[127.6543,35.11824],[127.65486,35.11828],[127.65498,35.11828],[127.65507,35.11828],[127.65513,35.11826],[127.65599,35.11732],[127.65614,35.11712],[127.65634,35.11687],[127.65639,35.1168],[127.65647,35.11665],[127.65655,35.11649],[127.65816,35.11397],[127.66131,35.10933],[127.66138,35.10925],[127.66142,35.10921],[127.66159,35.1091],[127.66168,35.10906],[127.66633,35.10706],[127.66652,35.10701],[127.66662,35.107],[127.66701,35.10702],[127.66799,35.10695],[127.6691,35.10686],[127.66915,35.10685],[127.66924,35.10681],[127.67173,35.1054],[127.67176,35.10537],[127.67373,35.10291],[127.67376,35.10286],[127.67381,35.10276],[127.67387,35.10257],[127.6741,35.1019],[127.67414,35.10176],[127.67414,35.10149],[127.67413,35.10136],[127.6741,35.10111],[127.67407,35.10098],[127.67404,35.10085],[127.67407,35.10071],[127.67409,35.10064],[127.67465,35.09905],[127.67498,35.09819],[127.67514,35.09791],[127.67525,35.09781],[127.67532,35.09777],[127.6764,35.09718],[127.67855,35.09311],[127.67859,35.09309],[127.68104,35.09217],[127.6843,35.09004],[127.68444,35.08995],[127.68627,35.0885],[127.68664,35.08793],[127.68664,35.08697],[127.68678,35.08487],[127.6868,35.08474],[127.68685,35.08467],[127.68769,35.08379],[127.68846,35.08299],[127.68857,35.08293],[127.68867,35.08287],[127.6888,35.08276],[127.68894,35.0826],[127.68905,35.08246],[127.68914,35.08232],[127.68983,35.08047],[127.68992,35.07992],[127.68994,35.07974],[127.68995,35.0796],[127.68996,35.07944],[127.68976,35.07779],[127.6913,35.07506],[127.69395,35.07321],[127.69594,35.07078],[127.6991,35.06701],[127.69922,35.06688],[127.69929,35.06682],[127.69939,35.06675],[127.69949,35.06668],[127.69959,35.06661],[127.69969,35.06656],[127.69978,35.06651],[127.69988,35.06647],[127.69998,35.06644],[127.70008,35.06643],[127.70019,35.06642],[127.70118,35.06635],[127.70245,35.06559],[127.7025,35.06555],[127.70251,35.06552],[127.70251,35.06443],[127.70241,35.06228],[127.70239,35.06215],[127.70238,35.06204],[127.70236,35.06196],[127.70233,35.0619],[127.70229,35.06181],[127.70226,35.06177],[127.7022,35.06165],[127.70209,35.06153],[127.70198,35.06144],[127.70193,35.0614],[127.70181,35.06128],[127.70176,35.06121],[127.70173,35.06115],[127.7017,35.06106],[127.70168,35.06088],[127.70168,35.06083],[127.7017,35.06076],[127.70175,35.06069],[127.70181,35.06063],[127.70194,35.0605],[127.70207,35.06037],[127.7022,35.06026],[127.70244,35.06003],[127.70255,35.05994],[127.70272,35.05982],[127.70292,35.05973],[127.70307,35.05966],[127.7045,35.05914],[127.70533,35.05893],[127.70567,35.0589],[127.70579,35.05889],[127.70668,35.05873],[127.7068,35.0587],[127.71053,35.05687],[127.71062,35.05681],[127.71065,35.05676],[127.71068,35.05663],[127.71072,35.05646],[127.71079,35.05628],[127.71085,35.05618],[127.71093,35.05609],[127.71099,35.05602],[127.71112,35.05592],[127.71118,35.05589],[127.71538,35.05499],[127.7174,35.05474],[127.71892,35.05499],[127.71898,35.05504],[127.71907,35.05508],[127.71928,35.05517],[127.71942,35.05518],[127.72052,35.05531],[127.72239,35.05527],[127.72246,35.05526],[127.72254,35.05522],[127.72271,35.05508],[127.72288,35.05493],[127.72293,35.05488],[127.72298,35.05481],[127.72302,35.05471],[127.72307,35.05456],[127.72311,35.0544],[127.72314,35.05427],[127.72314,35.054],[127.72315,35.0539],[127.72318,35.05382],[127.72384,35.05256],[127.72389,35.05246],[127.72433,35.05187],[127.72445,35.05171],[127.72451,35.05166],[127.72474,35.05152],[127.72584,35.05091],[127.72607,35.0508],[127.72849,35.04985],[127.72971,35.0496],[127.73448,35.049]]]]}},{"type":"Feature","properties":{"code":"12190350","name":"진월면","parent":"12190"},"geometry":{"type":"MultiPolygon","coordinates":[[[[127.77706,35.02563],[127.77832,35.0249],[127.78275,35.02253],[127.78426,35.02119],[127.78574,35.0197],[127.78647,35.01872],[127.78715,35.01725],[127.78729,35.01625],[127.78694,35.01477],[127.78655,35.00994],[127.7865,35.00878],[127.78601,35.0075],[127.78343,35.00096],[127.78339,35.00087],[127.78295,34.9998],[127.78274,34.9993],[127.7783,34.98886],[127.77777,34.98811],[127.77769,34.988],[127.77686,34.98709],[127.77605,34.98623],[127.77503,34.98524],[127.77393,34.98432],[127.77298,34.98354],[127.77285,34.98345],[127.77259,34.98332],[127.77139,34.98276],[127.76995,34.98203],[127.76944,34.98175],[127.76862,34.9813],[127.76737,34.98051],[127.76693,34.98017],[127.76648,34.97978],[127.76457,34.9781],[127.76453,34.97801],[127.76448,34.97792],[127.76395,34.97694],[127.76088,34.96954],[127.76044,34.9683],[127.76034,34.9679],[127.76029,34.9675],[127.76027,34.96697],[127.7603,34.96654],[127.75569,34.96357],[127.75439,34.96222],[127.75347,34.96182],[127.74863,34.96054],[127.74575,34.95991],[127.74323,34.95872],[127.74089,34.95722],[127.73745,34.95523],[127.73559,34.95532],[127.73335,34.95544],[127.73136,34.96022],[127.73001,34.96321],[127.72964,34.964],[127.72934,34.96463],[127.7292,34.96495],[127.72881,34.96861],[127.72883,34.96905],[127.7291,34.97354],[127.72919,34.97492],[127.72937,34.9781],[127.72948,34.98003],[127.72944,34.98134],[127.72937,34.98151],[127.72925,34.98174],[127.72907,34.98201],[127.72886,34.98229],[127.72861,34.98248],[127.72743,34.98331],[127.72627,34.98411],[127.72508,34.98494],[127.72404,34.98571],[127.72393,34.98582],[127.72378,34.98607],[127.72381,34.98708],[127.72382,34.98722],[127.72392,34.98774],[127.72407,34.9887],[127.72413,34.98871],[127.72434,34.98867],[127.72516,34.98849],[127.72618,34.98804],[127.72782,34.98728],[127.72799,34.98722],[127.72825,34.98715],[127.72836,34.98714],[127.72846,34.98718],[127.73081,34.98855],[127.73085,34.98859],[127.73101,34.9888],[127.73133,34.98928],[127.73146,34.98967],[127.73159,34.99092],[127.73156,34.991],[127.73141,34.99122],[127.73064,34.99232],[127.72978,34.99389],[127.72963,34.99433],[127.72956,34.99502],[127.73032,34.99809],[127.73115,35.00072],[127.73182,35.0042],[127.73198,35.00547],[127.73214,35.00642],[127.73217,35.00657],[127.73227,35.00708],[127.73236,35.00736],[127.7324,35.00745],[127.73253,35.0076],[127.7327,35.00776],[127.73305,35.00801],[127.73357,35.00834],[127.73416,35.00873],[127.73446,35.00892],[127.73522,35.00945],[127.73693,35.01114],[127.73759,35.01195],[127.73894,35.01364],[127.739,35.01374],[127.73944,35.01472],[127.74063,35.01851],[127.74215,35.02106],[127.74367,35.02376],[127.74416,35.02474],[127.74418,35.02482],[127.74418,35.02487],[127.74418,35.02491],[127.74406,35.02502],[127.74393,35.02512],[127.74025,35.02815],[127.73861,35.02959],[127.73522,35.03375],[127.73512,35.03392],[127.73508,35.03402],[127.73506,35.03408],[127.73509,35.03471],[127.73562,35.03735],[127.73588,35.03817],[127.73642,35.03904],[127.73647,35.0391],[127.73654,35.03916],[127.73672,35.0393],[127.73753,35.03987],[127.73865,35.04067],[127.73878,35.0408],[127.73896,35.041],[127.73905,35.04111],[127.73925,35.04145],[127.73947,35.04184],[127.73955,35.04199],[127.73957,35.04209],[127.7396,35.04224],[127.73963,35.0424],[127.73974,35.04398],[127.73973,35.04401],[127.7397,35.04409],[127.73967,35.04414],[127.73958,35.04424],[127.73951,35.04431],[127.73934,35.04443],[127.7393,35.04445],[127.73792,35.04497],[127.73716,35.04523],[127.73697,35.04527],[127.73678,35.04533],[127.73668,35.04537],[127.73662,35.0454],[127.73651,35.04549],[127.73637,35.04564],[127.73463,35.04813],[127.73453,35.04828],[127.73446,35.04843],[127.73443,35.0485],[127.7344,35.04861],[127.73439,35.04873],[127.73442,35.04884],[127.73448,35.049],[127.73454,35.04899],[127.73468,35.04899],[127.73582,35.04945],[127.73609,35.04959],[127.73634,35.04976],[127.73709,35.05029],[127.73918,35.05191],[127.73936,35.05205],[127.74003,35.05266],[127.74017,35.05281],[127.74031,35.05297],[127.74039,35.05309],[127.74074,35.05344],[127.74092,35.05355],[127.74102,35.05359],[127.74115,35.05361],[127.74267,35.05374],[127.74283,35.05375],[127.74289,35.05375],[127.74303,35.05372],[127.74329,35.05363],[127.74362,35.0535],[127.74393,35.05334],[127.74435,35.05296],[127.74455,35.05278],[127.74543,35.05207],[127.74551,35.052],[127.74556,35.05197],[127.74785,35.05091],[127.75113,35.05123],[127.75161,35.05134],[127.75223,35.05169],[127.75258,35.05215],[127.75274,35.05258],[127.75279,35.05274],[127.75277,35.05307],[127.75268,35.05317],[127.75226,35.05341],[127.75193,35.05394],[127.75143,35.0549],[127.75104,35.05577],[127.75091,35.05654],[127.75088,35.05715],[127.75101,35.0571],[127.75309,35.05666],[127.75371,35.05653],[127.75414,35.05644],[127.75666,35.0568],[127.75697,35.05691],[127.75703,35.05693],[127.75865,35.05767],[127.7587,35.05768],[127.76054,35.05801],[127.76224,35.05788],[127.76277,35.05773],[127.76426,35.05696],[127.76454,35.05678],[127.76472,35.05666],[127.7662,35.05521],[127.76671,35.05452],[127.76782,35.0527],[127.76869,35.05044],[127.76885,35.04895],[127.76895,35.04793],[127.76908,35.04547],[127.76917,35.04316],[127.7689,35.04077],[127.76883,35.03818],[127.76892,35.03697],[127.76899,35.03609],[127.76917,35.0353],[127.76947,35.03403],[127.7699,35.03324],[127.77125,35.03077],[127.77196,35.02948],[127.77259,35.02882],[127.77403,35.02765],[127.77572,35.02643],[127.77626,35.02608],[127.77706,35.02563]]]]}},{"type":"Feature","properties":{"code":"12190360","name":"다압면","parent":"12190"},"geometry":{"type":"MultiPolygon","coordinates":[[[[127.6681,35.15235],[127.66899,35.15209],[127.66941,35.15192],[127.66944,35.15191],[127.6702,35.15151],[127.67287,35.14975],[127.67923,35.14432],[127.67943,35.14401],[127.67968,35.14341],[127.67978,35.14317],[127.6799,35.14289],[127.68001,35.14266],[127.68079,35.1415],[127.68127,35.14083],[127.68197,35.13987],[127.68479,35.1374],[127.68541,35.13692],[127.68616,35.13639],[127.68747,35.13555],[127.68773,35.13538],[127.68821,35.13509],[127.68879,35.13476],[127.68914,35.13457],[127.69013,35.13424],[127.69286,35.13283],[127.69378,35.13201],[127.694,35.13178],[127.69423,35.13148],[127.69428,35.13141],[127.69457,35.13085],[127.69483,35.13036],[127.6951,35.12976],[127.69532,35.12687],[127.69532,35.12665],[127.69532,35.12641],[127.69532,35.12597],[127.6951,35.12345],[127.69507,35.1232],[127.69505,35.12296],[127.69502,35.12271],[127.69498,35.12252],[127.69497,35.12246],[127.69494,35.12233],[127.69383,35.11878],[127.69359,35.11796],[127.69354,35.11775],[127.69307,35.11564],[127.69305,35.11547],[127.69303,35.11513],[127.693,35.11473],[127.69297,35.11397],[127.69289,35.11112],[127.6929,35.11068],[127.69291,35.10994],[127.69291,35.10979],[127.69292,35.10964],[127.69292,35.10949],[127.69293,35.10935],[127.69294,35.10922],[127.69298,35.10892],[127.69326,35.10699],[127.69368,35.10534],[127.69373,35.10518],[127.69374,35.10514],[127.69377,35.10507],[127.69381,35.10494],[127.69448,35.10331],[127.6946,35.10308],[127.69709,35.10165],[127.70059,35.0996],[127.70234,35.09853],[127.70252,35.09842],[127.70264,35.09833],[127.70284,35.0982],[127.70425,35.09711],[127.70447,35.09694],[127.70616,35.09554],[127.7065,35.09525],[127.70652,35.09523],[127.7079,35.09396],[127.70813,35.09375],[127.70819,35.09369],[127.70839,35.09349],[127.70853,35.09332],[127.70865,35.09319],[127.70889,35.09288],[127.70916,35.09254],[127.70925,35.09242],[127.71081,35.09034],[127.71107,35.08999],[127.71133,35.08965],[127.71351,35.08687],[127.71378,35.08653],[127.71479,35.08533],[127.71641,35.08342],[127.71659,35.08325],[127.71702,35.08288],[127.71704,35.08286],[127.71724,35.0827],[127.71805,35.0821],[127.71825,35.08197],[127.71882,35.08166],[127.71887,35.08163],[127.72049,35.08103],[127.7211,35.08085],[127.72415,35.08002],[127.72511,35.0798],[127.7253,35.07975],[127.72616,35.0796],[127.72682,35.07952],[127.72718,35.07948],[127.72767,35.07943],[127.72812,35.07942],[127.73005,35.07946],[127.73184,35.0795],[127.73312,35.07958],[127.73327,35.07959],[127.73425,35.07957],[127.73476,35.07953],[127.73502,35.07947],[127.73518,35.07943],[127.73568,35.07924],[127.7359,35.0791],[127.73652,35.07871],[127.73693,35.07844],[127.73747,35.07808],[127.73757,35.07788],[127.73763,35.0777],[127.73775,35.07727],[127.73791,35.07649],[127.73871,35.07184],[127.73895,35.06926],[127.73929,35.06563],[127.73938,35.06498],[127.73947,35.06443],[127.73951,35.06418],[127.73953,35.06407],[127.73957,35.06392],[127.7396,35.06376],[127.73966,35.0636],[127.73971,35.06342],[127.73979,35.0632],[127.73983,35.06308],[127.74001,35.06269],[127.74032,35.06196],[127.74079,35.06134],[127.7418,35.06057],[127.74221,35.06028],[127.74282,35.05991],[127.74332,35.05963],[127.7438,35.0594],[127.74505,35.05879],[127.7453,35.0587],[127.74631,35.05838],[127.74943,35.05752],[127.75088,35.05715],[127.75091,35.05654],[127.75104,35.05577],[127.75143,35.0549],[127.75193,35.05394],[127.75226,35.05341],[127.75268,35.05317],[127.75277,35.05307],[127.75279,35.05274],[127.75274,35.05258],[127.75258,35.05215],[127.75223,35.05169],[127.75161,35.05134],[127.75113,35.05123],[127.74785,35.05091],[127.74556,35.05197],[127.74551,35.052],[127.74543,35.05207],[127.74455,35.05278],[127.74435,35.05296],[127.74393,35.05334],[127.74362,35.0535],[127.74329,35.05363],[127.74303,35.05372],[127.74289,35.05375],[127.74283,35.05375],[127.74267,35.05374],[127.74115,35.05361],[127.74102,35.05359],[127.74092,35.05355],[127.74074,35.05344],[127.74039,35.05309],[127.74031,35.05297],[127.74017,35.05281],[127.74003,35.05266],[127.73936,35.05205],[127.73918,35.05191],[127.73709,35.05029],[127.73634,35.04976],[127.73609,35.04959],[127.73582,35.04945],[127.73468,35.04899],[127.73454,35.04899],[127.73448,35.049],[127.72971,35.0496],[127.72849,35.04985],[127.72607,35.0508],[127.72584,35.05091],[127.72474,35.05152],[127.72451,35.05166],[127.72445,35.05171],[127.72433,35.05187],[127.72389,35.05246],[127.72384,35.05256],[127.72318,35.05382],[127.72315,35.0539],[127.72314,35.054],[127.72314,35.05427],[127.72311,35.0544],[127.72307,35.05456],[127.72302,35.05471],[127.72298,35.05481],[127.72293,35.05488],[127.72288,35.05493],[127.72271,35.05508],[127.72254,35.05522],[127.72246,35.05526],[127.72239,35.05527],[127.72052,35.05531],[127.71942,35.05518],[127.71928,35.05517],[127.71907,35.05508],[127.71898,35.05504],[127.71892,35.05499],[127.7174,35.05474],[127.71538,35.05499],[127.71118,35.05589],[127.71112,35.05592],[127.71099,35.05602],[127.71093,35.05609],[127.71085,35.05618],[127.71079,35.05628],[127.71072,35.05646],[127.71068,35.05663],[127.71065,35.05676],[127.71062,35.05681],[127.71053,35.05687],[127.7068,35.0587],[127.70668,35.05873],[127.70579,35.05889],[127.70567,35.0589],[127.70533,35.05893],[127.7045,35.05914],[127.70307,35.05966],[127.70292,35.05973],[127.70272,35.05982],[127.70255,35.05994],[127.70244,35.06003],[127.7022,35.06026],[127.70207,35.06037],[127.70194,35.0605],[127.70181,35.06063],[127.70175,35.06069],[127.7017,35.06076],[127.70168,35.06083],[127.70168,35.06088],[127.7017,35.06106],[127.70173,35.06115],[127.70176,35.06121],[127.70181,35.06128],[127.70193,35.0614],[127.70198,35.06144],[127.70209,35.06153],[127.7022,35.06165],[127.70226,35.06177],[127.70229,35.06181],[127.70233,35.0619],[127.70236,35.06196],[127.70238,35.06204],[127.70239,35.06215],[127.70241,35.06228],[127.70251,35.06443],[127.70251,35.06552],[127.7025,35.06555],[127.70245,35.06559],[127.70118,35.06635],[127.70019,35.06642],[127.70008,35.06643],[127.69998,35.06644],[127.69988,35.06647],[127.69978,35.06651],[127.69969,35.06656],[127.69959,35.06661],[127.69949,35.06668],[127.69939,35.06675],[127.69929,35.06682],[127.69922,35.06688],[127.6991,35.06701],[127.69594,35.07078],[127.69395,35.07321],[127.6913,35.07506],[127.68976,35.07779],[127.68996,35.07944],[127.68995,35.0796],[127.68994,35.07974],[127.68992,35.07992],[127.68983,35.08047],[127.68914,35.08232],[127.68905,35.08246],[127.68894,35.0826],[127.6888,35.08276],[127.68867,35.08287],[127.68857,35.08293],[127.68846,35.08299],[127.68769,35.08379],[127.68685,35.08467],[127.6868,35.08474],[127.68678,35.08487],[127.68664,35.08697],[127.68664,35.08793],[127.68627,35.0885],[127.68444,35.08995],[127.6843,35.09004],[127.68104,35.09217],[127.67859,35.09309],[127.67855,35.09311],[127.6764,35.09718],[127.67532,35.09777],[127.67525,35.09781],[127.67514,35.09791],[127.67498,35.09819],[127.67465,35.09905],[127.67409,35.10064],[127.67407,35.10071],[127.67404,35.10085],[127.67407,35.10098],[127.6741,35.10111],[127.67413,35.10136],[127.67414,35.10149],[127.67414,35.10176],[127.6741,35.1019],[127.67387,35.10257],[127.67381,35.10276],[127.67376,35.10286],[127.67373,35.10291],[127.67176,35.10537],[127.67173,35.1054],[127.66924,35.10681],[127.66915,35.10685],[127.6691,35.10686],[127.66799,35.10695],[127.66701,35.10702],[127.66662,35.107],[127.66652,35.10701],[127.66633,35.10706],[127.66168,35.10906],[127.66159,35.1091],[127.66142,35.10921],[127.66138,35.10925],[127.66131,35.10933],[127.65816,35.11397],[127.65655,35.11649],[127.65647,35.11665],[127.65639,35.1168],[127.65634,35.11687],[127.65614,35.11712],[127.65599,35.11732],[127.65513,35.11826],[127.65507,35.11828],[127.65498,35.11828],[127.65486,35.11828],[127.6543,35.11824],[127.65381,35.11818],[127.6537,35.11817],[127.65355,35.11812],[127.65299,35.11795],[127.64985,35.11671],[127.64863,35.11618],[127.64645,35.11553],[127.64235,35.11466],[127.63908,35.11402],[127.63713,35.11398],[127.63334,35.11349],[127.6323,35.113],[127.63211,35.11289],[127.63155,35.11252],[127.63056,35.11159],[127.62848,35.10948],[127.62837,35.10935],[127.62831,35.10925],[127.62827,35.10916],[127.62824,35.10898],[127.62822,35.10879],[127.62818,35.1086],[127.62809,35.10842],[127.62803,35.10832],[127.62791,35.10821],[127.62779,35.10811],[127.62656,35.10727],[127.62638,35.10715],[127.62624,35.10707],[127.62594,35.10698],[127.62438,35.10665],[127.62366,35.10653],[127.62162,35.10623],[127.62137,35.10626],[127.62065,35.1066],[127.61743,35.10841],[127.61589,35.10984],[127.61546,35.11043],[127.6153,35.11093],[127.61533,35.11171],[127.61519,35.11222],[127.61417,35.1131],[127.61104,35.11584],[127.60889,35.11815],[127.60836,35.11844],[127.60822,35.11852],[127.60738,35.11871],[127.60626,35.11862],[127.60536,35.11841],[127.60438,35.11811],[127.60342,35.11798],[127.60303,35.11801],[127.60281,35.11815],[127.60326,35.11967],[127.60363,35.12122],[127.6039,35.12502],[127.60388,35.12641],[127.60399,35.12766],[127.60408,35.12809],[127.60435,35.12817],[127.60449,35.12822],[127.60463,35.12836],[127.60477,35.12858],[127.60489,35.12899],[127.60498,35.12956],[127.60499,35.13018],[127.60474,35.13139],[127.60445,35.13211],[127.60421,35.13276],[127.60422,35.13322],[127.60451,35.13383],[127.60512,35.13502],[127.6053,35.13541],[127.60579,35.13688],[127.60612,35.13791],[127.60648,35.13908],[127.60764,35.14362],[127.60764,35.14401],[127.60734,35.14442],[127.60684,35.14482],[127.60576,35.1454],[127.60479,35.146],[127.60424,35.14655],[127.60397,35.14685],[127.60378,35.14729],[127.6038,35.14767],[127.60401,35.14903],[127.60445,35.14971],[127.60495,35.15075],[127.60577,35.15251],[127.60618,35.15356],[127.60631,35.15459],[127.60634,35.15493],[127.60661,35.15678],[127.60711,35.15958],[127.60717,35.15987],[127.60734,35.16039],[127.60748,35.16073],[127.6077,35.16101],[127.61026,35.16334],[127.61278,35.16574],[127.61526,35.16837],[127.61573,35.16889],[127.61596,35.16947],[127.61608,35.16976],[127.61703,35.17379],[127.61983,35.17724],[127.62342,35.18241],[127.62474,35.18449],[127.62521,35.18343],[127.62655,35.18268],[127.62742,35.18231],[127.62795,35.182],[127.62859,35.18138],[127.62876,35.18119],[127.63013,35.17946],[127.63029,35.1792],[127.63078,35.17816],[127.63091,35.17783],[127.63093,35.17749],[127.63096,35.17705],[127.63115,35.17664],[127.63247,35.1753],[127.6337,35.17451],[127.63447,35.17404],[127.63493,35.17393],[127.63503,35.17391],[127.63516,35.17389],[127.63573,35.1737],[127.63643,35.17347],[127.63779,35.17298],[127.63977,35.17179],[127.64064,35.17114],[127.64201,35.16936],[127.64247,35.16875],[127.64294,35.16792],[127.64314,35.16747],[127.64361,35.16626],[127.64362,35.16621],[127.64363,35.16611],[127.64376,35.16461],[127.64378,35.16418],[127.64385,35.16383],[127.64437,35.16253],[127.64441,35.16247],[127.64451,35.16229],[127.6447,35.16196],[127.6453,35.1613],[127.64679,35.16031],[127.64798,35.1596],[127.64941,35.15901],[127.64978,35.15887],[127.65239,35.15963],[127.65275,35.15973],[127.65323,35.15972],[127.65364,35.15971],[127.65394,35.15966],[127.65939,35.15835],[127.65972,35.15815],[127.66051,35.15751],[127.66186,35.15631],[127.66198,35.1562],[127.66254,35.15569],[127.66304,35.15516],[127.66323,35.15495],[127.66335,35.15483],[127.66606,35.15322],[127.66675,35.15287],[127.66737,35.1526],[127.6681,35.15235]]]]}},{"type":"Feature","properties":{"code":"12190515","name":"골약동","parent":"12190"},"geometry":{"type":"MultiPolygon","coordinates":[[[[127.7015,34.96894],[127.70106,34.9689],[127.69963,34.9678],[127.69818,34.96665],[127.69755,34.96543],[127.69843,34.964],[127.69771,34.9634],[127.69748,34.96324],[127.69708,34.96294],[127.68764,34.95967],[127.68655,34.95938],[127.6862,34.95931],[127.68515,34.95975],[127.68425,34.95831],[127.68409,34.95746],[127.6841,34.95737],[127.68518,34.95291],[127.68427,34.95014],[127.68415,34.94897],[127.68409,34.94818],[127.68411,34.94159],[127.68488,34.93934],[127.68535,34.93802],[127.68543,34.93781],[127.6856,34.93731],[127.68609,34.93592],[127.68707,34.93311],[127.68731,34.93231],[127.68843,34.92596],[127.68815,34.92495],[127.68777,34.92429],[127.68882,34.92232],[127.69321,34.91702],[127.69071,34.91512],[127.67317,34.90444],[127.67179,34.90571],[127.67014,34.90766],[127.66879,34.90844],[127.66818,34.90803],[127.66805,34.90644],[127.66962,34.90461],[127.67098,34.90311],[127.65075,34.89077],[127.64951,34.89215],[127.63998,34.88636],[127.6354,34.89096],[127.6245,34.9019],[127.62237,34.90519],[127.62234,34.90592],[127.62252,34.90711],[127.62256,34.90763],[127.61997,34.91123],[127.61938,34.91248],[127.61931,34.91382],[127.61751,34.91605],[127.61618,34.91418],[127.61597,34.91369],[127.61584,34.91321],[127.61537,34.91297],[127.61491,34.91332],[127.61437,34.91478],[127.614,34.91659],[127.61422,34.91784],[127.61419,34.91896],[127.61365,34.92008],[127.61335,34.92045],[127.61551,34.92177],[127.61604,34.92204],[127.61723,34.92219],[127.61841,34.92228],[127.61851,34.92225],[127.61949,34.92204],[127.6226,34.92179],[127.62271,34.92179],[127.6228,34.92181],[127.62287,34.92184],[127.62319,34.92211],[127.62331,34.9222],[127.62339,34.9223],[127.62346,34.92243],[127.62347,34.92247],[127.62364,34.92562],[127.62311,34.92744],[127.62301,34.92876],[127.62429,34.93227],[127.62439,34.93249],[127.62453,34.93275],[127.62501,34.93349],[127.6252,34.93378],[127.62539,34.93401],[127.62554,34.93417],[127.62558,34.9342],[127.6256,34.93422],[127.62568,34.93426],[127.62933,34.93516],[127.63059,34.93538],[127.63398,34.93563],[127.63419,34.9356],[127.63442,34.9355],[127.63463,34.93542],[127.63484,34.93542],[127.63517,34.93546],[127.63672,34.93574],[127.63691,34.93579],[127.63715,34.93588],[127.63769,34.93616],[127.63778,34.93621],[127.63781,34.93623],[127.63784,34.93627],[127.63786,34.93631],[127.63798,34.9367],[127.63805,34.93698],[127.63819,34.93756],[127.63823,34.93771],[127.63823,34.93795],[127.63795,34.94259],[127.63791,34.94277],[127.63786,34.94296],[127.63781,34.9431],[127.63744,34.9437],[127.63725,34.94399],[127.63693,34.94436],[127.63668,34.94462],[127.63649,34.94481],[127.63646,34.94492],[127.63647,34.94503],[127.63652,34.94518],[127.63722,34.94645],[127.63891,34.94883],[127.63903,34.94898],[127.63936,34.94927],[127.63963,34.94943],[127.64026,34.94971],[127.64047,34.94979],[127.64063,34.94985],[127.64071,34.94987],[127.64081,34.9499],[127.6409,34.94991],[127.64097,34.9499],[127.64481,34.94825],[127.64489,34.94821],[127.64498,34.94805],[127.64516,34.94774],[127.64531,34.9476],[127.64536,34.94759],[127.64545,34.94759],[127.64553,34.9476],[127.64814,34.94808],[127.64853,34.94818],[127.64949,34.94852],[127.65086,34.94925],[127.65172,34.9499],[127.65252,34.95153],[127.65259,34.95175],[127.65259,34.95192],[127.65256,34.95224],[127.65252,34.95244],[127.6518,34.95392],[127.6517,34.95402],[127.65154,34.95416],[127.65069,34.95474],[127.64998,34.95535],[127.64966,34.95564],[127.64901,34.95643],[127.64889,34.95663],[127.64623,34.96152],[127.64616,34.96173],[127.64613,34.96186],[127.64608,34.96217],[127.64607,34.9623],[127.64608,34.96242],[127.6461,34.96247],[127.64616,34.96251],[127.64734,34.96325],[127.6475,34.9633],[127.65074,34.96311],[127.65318,34.96292],[127.65431,34.96405],[127.65401,34.96433],[127.65377,34.9647],[127.6537,34.96493],[127.65367,34.96515],[127.65368,34.96531],[127.65417,34.96778],[127.65436,34.96858],[127.65491,34.97062],[127.65594,34.9708],[127.6593,34.97071],[127.65941,34.97069],[127.65949,34.97065],[127.65962,34.97057],[127.65997,34.9703],[127.66017,34.97015],[127.66042,34.97003],[127.66339,34.96956],[127.66383,34.96951],[127.66404,34.96953],[127.66419,34.9696],[127.66578,34.97084],[127.66941,34.97052],[127.66941,34.97038],[127.66946,34.97022],[127.67019,34.96869],[127.67028,34.96856],[127.67054,34.96833],[127.67079,34.96818],[127.67159,34.96768],[127.67165,34.96766],[127.67175,34.96764],[127.67712,34.96746],[127.67765,34.96745],[127.67795,34.96747],[127.67812,34.96753],[127.68167,34.96896],[127.68195,34.9691],[127.68367,34.97002],[127.68799,34.9724],[127.68827,34.97255],[127.69003,34.97354],[127.69022,34.97367],[127.69047,34.97386],[127.69058,34.974],[127.69064,34.97411],[127.69068,34.97428],[127.69362,34.974],[127.69459,34.97347],[127.69551,34.97346],[127.69604,34.97345],[127.69644,34.97344],[127.69694,34.97339],[127.69728,34.97334],[127.69753,34.97328],[127.69771,34.9732],[127.69786,34.9731],[127.69921,34.97201],[127.69929,34.97187],[127.69941,34.97161],[127.6995,34.97133],[127.69959,34.97107],[127.70001,34.97036],[127.70017,34.97012],[127.70028,34.96996],[127.70121,34.96898],[127.70124,34.96895],[127.70136,34.96894],[127.7015,34.96894]]]]}},{"type":"Feature","properties":{"code":"12190530","name":"중마동","parent":"12190"},"geometry":{"type":"MultiPolygon","coordinates":[[[[127.72148,34.94736],[127.7183,34.94444],[127.71313,34.93882],[127.71171,34.93728],[127.71,34.93546],[127.70305,34.93316],[127.70229,34.93279],[127.70156,34.93228],[127.70031,34.93111],[127.70006,34.93074],[127.69992,34.93041],[127.69948,34.92767],[127.69781,34.92529],[127.69641,34.92304],[127.69875,34.92202],[127.69817,34.92102],[127.69707,34.91909],[127.69647,34.91824],[127.69445,34.91896],[127.69248,34.91988],[127.69217,34.9201],[127.68975,34.92281],[127.68878,34.92389],[127.68777,34.92429],[127.68815,34.92495],[127.68843,34.92596],[127.68731,34.93231],[127.68707,34.93311],[127.68609,34.93592],[127.6856,34.93731],[127.68543,34.93781],[127.68535,34.93802],[127.68488,34.93934],[127.68411,34.94159],[127.68409,34.94818],[127.68415,34.94897],[127.68427,34.95014],[127.68518,34.95291],[127.6841,34.95737],[127.68409,34.95746],[127.68425,34.95831],[127.68515,34.95975],[127.6862,34.95931],[127.68655,34.95938],[127.68764,34.95967],[127.69708,34.96294],[127.69748,34.96324],[127.69771,34.9634],[127.69843,34.964],[127.70549,34.96146],[127.70678,34.96088],[127.71176,34.95868],[127.71428,34.95767],[127.71675,34.95668],[127.71896,34.95596],[127.7193,34.95592],[127.71967,34.95574],[127.72192,34.95093],[127.72195,34.95079],[127.72207,34.94984],[127.72207,34.94966],[127.72175,34.94778],[127.72174,34.94771],[127.72148,34.94736]]]]}},{"type":"Feature","properties":{"code":"12190540","name":"광영동","parent":"12190"},"geometry":{"type":"MultiPolygon","coordinates":[[[[127.72878,34.9632],[127.72946,34.96124],[127.73092,34.95834],[127.73104,34.95777],[127.73131,34.95516],[127.73114,34.95477],[127.73084,34.95455],[127.72968,34.95393],[127.72891,34.95356],[127.72754,34.95251],[127.72657,34.95167],[127.72623,34.95131],[127.72617,34.95114],[127.72542,34.95005],[127.72492,34.94942],[127.72472,34.94926],[127.72188,34.9473],[127.7217,34.94719],[127.72148,34.94736],[127.72174,34.94771],[127.72175,34.94778],[127.72207,34.94966],[127.72207,34.94984],[127.72195,34.95079],[127.72192,34.95093],[127.71967,34.95574],[127.7193,34.95592],[127.71896,34.95596],[127.71675,34.95668],[127.71428,34.95767],[127.71176,34.95868],[127.70678,34.96088],[127.70549,34.96146],[127.69843,34.964],[127.69755,34.96543],[127.69818,34.96665],[127.69963,34.9678],[127.70106,34.9689],[127.7015,34.96894],[127.70413,34.96861],[127.70811,34.96791],[127.70827,34.9679],[127.7113,34.9681],[127.71154,34.96814],[127.71176,34.9682],[127.71273,34.96858],[127.71294,34.96869],[127.71333,34.96905],[127.71353,34.96923],[127.71416,34.96945],[127.71449,34.96953],[127.71478,34.9696],[127.71499,34.96964],[127.71515,34.96966],[127.71573,34.96971],[127.71597,34.9697],[127.71642,34.96962],[127.71663,34.96957],[127.71732,34.96954],[127.7174,34.96952],[127.71756,34.96946],[127.72073,34.9676],[127.7208,34.96755],[127.72102,34.96739],[127.72222,34.96636],[127.7224,34.96621],[127.72252,34.96607],[127.72322,34.96464],[127.72746,34.96341],[127.72878,34.9632]]]]}},{"type":"Feature","properties":{"code":"12190570","name":"태인동","parent":"12190"},"geometry":{"type":"MultiPolygon","coordinates":[[[[127.76879,34.94106],[127.76876,34.9337],[127.76614,34.93368],[127.7658,34.93368],[127.7654,34.93371],[127.75798,34.93377],[127.74714,34.93379],[127.74716,34.93353],[127.74721,34.93339],[127.74704,34.93321],[127.74683,34.93321],[127.74658,34.9332],[127.74551,34.93375],[127.74527,34.93393],[127.74471,34.93452],[127.74263,34.9391],[127.74145,34.94081],[127.74048,34.94361],[127.74031,34.94414],[127.73976,34.9485],[127.73976,34.94866],[127.73979,34.94907],[127.74072,34.9513],[127.74121,34.95186],[127.74193,34.95235],[127.748,34.95549],[127.75023,34.95628],[127.75363,34.95759],[127.75733,34.95919],[127.75769,34.95976],[127.75788,34.95996],[127.75896,34.96043],[127.75993,34.9605],[127.76042,34.96045],[127.76106,34.96029],[127.76152,34.96003],[127.76189,34.95953],[127.76214,34.95923],[127.76364,34.95774],[127.766,34.9554],[127.76738,34.95419],[127.76788,34.9537],[127.76798,34.95331],[127.76799,34.95285],[127.76792,34.94555],[127.76782,34.94474],[127.76684,34.94346],[127.76631,34.94212],[127.76631,34.94119],[127.76634,34.94109],[127.76879,34.94106]]]]}},{"type":"Feature","properties":{"code":"12190550","name":"금호동","parent":"12190"},"geometry":{"type":"MultiPolygon","coordinates":[[[[127.78482,34.91549],[127.78439,34.88639],[127.77614,34.88642],[127.76201,34.89179],[127.76063,34.89325],[127.75917,34.90607],[127.7511,34.90623],[127.74828,34.90637],[127.73503,34.90703],[127.73492,34.90703],[127.73458,34.90711],[127.73322,34.90743],[127.72595,34.90868],[127.72391,34.90869],[127.71496,34.91032],[127.71314,34.91125],[127.71308,34.91161],[127.70864,34.91269],[127.70618,34.9128],[127.70585,34.91239],[127.70428,34.91256],[127.70296,34.93108],[127.71232,34.9314],[127.7145,34.93258],[127.71477,34.9337],[127.71488,34.93551],[127.7148,34.93689],[127.71483,34.9379],[127.71521,34.93816],[127.71877,34.94105],[127.72186,34.94377],[127.72293,34.94495],[127.72442,34.948],[127.72983,34.95006],[127.73006,34.95112],[127.73294,34.95018],[127.73422,34.94872],[127.73617,34.94723],[127.7365,34.94716],[127.73698,34.94714],[127.73981,34.94613],[127.74003,34.9455],[127.73876,34.94162],[127.73795,34.93941],[127.73696,34.93771],[127.7365,34.93714],[127.73562,34.93519],[127.7357,34.93487],[127.73705,34.93286],[127.73783,34.93211],[127.73842,34.932],[127.74789,34.93194],[127.76528,34.93188],[127.78482,34.91549]]]]}}]}