{"type":"FeatureCollection","features":[{"type":"Feature","properties":{"code":"31140510","name":"신정1동","parent":"31140"},"geometry":{"type":"MultiPolygon","coordinates":[[[[129.30874,35.55228],[129.30812,35.54911],[129.30835,35.54853],[129.30837,35.5485],[129.30892,35.5478],[129.30975,35.54607],[129.3103,35.54465],[129.31287,35.5381],[129.30604,35.53636],[129.30582,35.53693],[129.30555,35.53781],[129.30428,35.53842],[129.2989,35.54057],[129.29875,35.54061],[129.29784,35.54008],[129.2955,35.54063],[129.29467,35.54275],[129.29458,35.54532],[129.2964,35.54497],[129.29779,35.5447],[129.29806,35.54469],[129.29847,35.54479],[129.29905,35.54492],[129.30152,35.54567],[129.30194,35.5458],[129.3025,35.54598],[129.30289,35.54641],[129.30339,35.54699],[129.30339,35.54724],[129.30341,35.54787],[129.30334,35.54859],[129.30321,35.54987],[129.30368,35.55073],[129.30454,35.55231],[129.30456,35.55233],[129.30472,35.55247],[129.30559,35.55279],[129.30669,35.55283],[129.30743,35.55267],[129.30782,35.55259],[129.30874,35.55228]]]]}},{"type":"Feature","properties":{"code":"31140520","name":"신정2동","parent":"31140"},"geometry":{"type":"MultiPolygon","coordinates":[[[[129.31287,35.5381],[129.31446,35.534],[129.30899,35.5326],[129.30749,35.53221],[129.30781,35.53149],[129.30791,35.53131],[129.30804,35.53106],[129.31038,35.52676],[129.31222,35.52336],[129.31244,35.52292],[129.31255,35.52196],[129.31171,35.52073],[129.30801,35.51792],[129.30788,35.51813],[129.30777,35.51823],[129.3077,35.51826],[129.30758,35.51829],[129.30574,35.51864],[129.30536,35.51868],[129.30531,35.51867],[129.30511,35.51862],[129.30383,35.51806],[129.30358,35.51794],[129.30353,35.5178],[129.30288,35.51783],[129.30215,35.51795],[129.30074,35.51841],[129.30051,35.51925],[129.3005,35.51955],[129.30054,35.52009],[129.3006,35.5206],[129.30063,35.521],[129.30056,35.52281],[129.29987,35.52427],[129.29978,35.52445],[129.29975,35.52449],[129.29936,35.52501],[129.29927,35.52509],[129.29921,35.52514],[129.29911,35.52522],[129.29813,35.52516],[129.29709,35.52473],[129.29532,35.52403],[129.29171,35.52501],[129.29166,35.52539],[129.29166,35.52574],[129.29167,35.52587],[129.29172,35.52634],[129.29173,35.52637],[129.2922,35.5272],[129.29235,35.52732],[129.29266,35.52747],[129.29697,35.5293],[129.29892,35.5294],[129.29941,35.52943],[129.29948,35.52946],[129.29978,35.52958],[129.29975,35.52971],[129.29867,35.53122],[129.29803,35.5321],[129.29714,35.53336],[129.29713,35.53562],[129.29702,35.53959],[129.29576,35.5397],[129.29571,35.5397],[129.29541,35.53978],[129.29539,35.54006],[129.29539,35.54022],[129.2955,35.54063],[129.29784,35.54008],[129.29875,35.54061],[129.2989,35.54057],[129.30428,35.53842],[129.30555,35.53781],[129.30582,35.53693],[129.30604,35.53636],[129.31287,35.5381]]]]}},{"type":"Feature","properties":{"code":"31140530","name":"신정3동","parent":"31140"},"geometry":{"type":"MultiPolygon","coordinates":[[[[129.31615,35.55056],[129.32025,35.54005],[129.31347,35.53825],[129.31287,35.5381],[129.3103,35.54465],[129.30975,35.54607],[129.30892,35.5478],[129.30837,35.5485],[129.30835,35.54853],[129.30812,35.54911],[129.30874,35.55228],[129.31615,35.55056]]]]}},{"type":"Feature","properties":{"code":"31140540","name":"신정4동","parent":"31140"},"geometry":{"type":"MultiPolygon","coordinates":[[[[129.32382,35.53123],[129.3213,35.52785],[129.32106,35.52795],[129.3207,35.5281],[129.31998,35.52796],[129.31927,35.52731],[129.31923,35.52725],[129.31906,35.52695],[129.31901,35.52685],[129.31425,35.5232],[129.31255,35.52196],[129.31244,35.52292],[129.31222,35.52336],[129.31038,35.52676],[129.30804,35.53106],[129.30791,35.53131],[129.30781,35.53149],[129.30749,35.53221],[129.30899,35.5326],[129.31446,35.534],[129.31518,35.53216],[129.31645,35.53223],[129.32192,35.53219],[129.32205,35.53218],[129.32236,35.53215],[129.32268,35.53206],[129.32289,35.53193],[129.32382,35.53123]]]]}},{"type":"Feature","properties":{"code":"31140550","name":"신정5동","parent":"31140"},"geometry":{"type":"MultiPolygon","coordinates":[[[[129.3262,35.5416],[129.32025,35.54005],[129.31615,35.55056],[129.32185,35.55109],[129.32191,35.54955],[129.32194,35.54946],[129.32283,35.54885],[129.32336,35.54851],[129.32383,35.5472],[129.3262,35.5416]]]]}},{"type":"Feature","properties":{"code":"31140560","name":"달동","parent":"31140"},"geometry":{"type":"MultiPolygon","coordinates":[[[[129.33045,35.5317],[129.3304,35.53165],[129.33033,35.53158],[129.32897,35.53079],[129.32812,35.53038],[129.32763,35.53027],[129.32756,35.53026],[129.32727,35.53029],[129.32441,35.53099],[129.32382,35.53123],[129.32289,35.53193],[129.32268,35.53206],[129.32236,35.53215],[129.32205,35.53218],[129.32192,35.53219],[129.31645,35.53223],[129.31518,35.53216],[129.31446,35.534],[129.31287,35.5381],[129.31347,35.53825],[129.32025,35.54005],[129.3262,35.5416],[129.33017,35.53235],[129.33045,35.5317]]]]}},{"type":"Feature","properties":{"code":"31140570","name":"삼산동","parent":"31140"},"geometry":{"type":"MultiPolygon","coordinates":[[[[129.33099,35.54996],[129.34028,35.54925],[129.34155,35.54916],[129.3447,35.54949],[129.34491,35.54951],[129.34627,35.54959],[129.34719,35.54961],[129.34824,35.54964],[129.35162,35.54881],[129.35303,35.54844],[129.35405,35.54802],[129.35798,35.54562],[129.35904,35.54503],[129.35999,35.5446],[129.36461,35.54316],[129.3626,35.54095],[129.35679,35.53803],[129.35493,35.5373],[129.35329,35.53578],[129.35266,35.535],[129.35217,35.53434],[129.35197,35.53429],[129.34135,35.53292],[129.33496,35.53324],[129.33045,35.5317],[129.33017,35.53235],[129.3262,35.5416],[129.32383,35.5472],[129.32336,35.54851],[129.32283,35.54885],[129.32194,35.54946],[129.32191,35.54955],[129.32185,35.55109],[129.33099,35.54996]]]]}},{"type":"Feature","properties":{"code":"31140585","name":"삼호동","parent":"31140"},"geometry":{"type":"MultiPolygon","coordinates":[[[[129.28952,35.5486],[129.29176,35.54651],[129.29262,35.5457],[129.29458,35.54532],[129.29467,35.54275],[129.2903,35.5428],[129.28854,35.54404],[129.28735,35.54445],[129.28647,35.54434],[129.28498,35.54411],[129.28166,35.54462],[129.28053,35.54498],[129.27947,35.54559],[129.27468,35.54714],[129.27461,35.54711],[129.27456,35.5471],[129.27336,35.54639],[129.27393,35.54462],[129.27431,35.54384],[129.27455,35.54227],[129.27296,35.54106],[129.2727,35.54098],[129.27046,35.54208],[129.26818,35.54333],[129.26599,35.54371],[129.2642,35.54334],[129.26397,35.54326],[129.26403,35.54379],[129.26414,35.54465],[129.2642,35.54513],[129.26402,35.54719],[129.26389,35.54866],[129.26388,35.54877],[129.26384,35.54903],[129.26378,35.54933],[129.26369,35.54961],[129.26366,35.54967],[129.26356,35.54985],[129.26351,35.54995],[129.26333,35.55022],[129.26307,35.55047],[129.26285,35.55063],[129.26282,35.55065],[129.26273,35.55071],[129.26055,35.55211],[129.26181,35.55411],[129.26437,35.55589],[129.26512,35.55728],[129.26665,35.55587],[129.26694,35.55558],[129.267,35.55553],[129.26732,35.55525],[129.26757,35.55503],[129.26775,35.55489],[129.26906,35.55413],[129.26917,35.55408],[129.26973,35.55382],[129.27036,35.55356],[129.27069,35.55345],[129.27083,35.5534],[129.27103,35.55337],[129.27183,35.55322],[129.27256,35.55327],[129.27429,35.55339],[129.27552,35.55347],[129.27883,35.55311],[129.27908,35.55308],[129.28054,35.55264],[129.28141,35.55238],[129.28718,35.5502],[129.28952,35.5486]]]]}},{"type":"Feature","properties":{"code":"31140595","name":"무거동","parent":"31140"},"geometry":{"type":"MultiPolygon","coordinates":[[[[129.26055,35.55211],[129.26273,35.55071],[129.26282,35.55065],[129.26285,35.55063],[129.26307,35.55047],[129.26333,35.55022],[129.26351,35.54995],[129.26356,35.54985],[129.26366,35.54967],[129.26369,35.54961],[129.26378,35.54933],[129.26384,35.54903],[129.26388,35.54877],[129.26389,35.54866],[129.26402,35.54719],[129.2642,35.54513],[129.26414,35.54465],[129.26403,35.54379],[129.26397,35.54326],[129.26404,35.54266],[129.26432,35.54215],[129.26483,35.54163],[129.26544,35.54109],[129.2661,35.54041],[129.26643,35.5399],[129.26644,35.53987],[129.26665,35.53932],[129.26684,35.53855],[129.26685,35.53847],[129.26354,35.53851],[129.26221,35.53838],[129.26217,35.53837],[129.26182,35.53832],[129.26053,35.53727],[129.25892,35.53634],[129.25557,35.53485],[129.25511,35.53383],[129.25447,35.53313],[129.25397,35.53282],[129.24931,35.53318],[129.24837,35.53328],[129.2479,35.53338],[129.24785,35.53339],[129.24762,35.53361],[129.24458,35.53582],[129.23828,35.53629],[129.23811,35.53629],[129.23667,35.53622],[129.23742,35.53717],[129.23882,35.53946],[129.239,35.53948],[129.24016,35.53955],[129.2409,35.53959],[129.24134,35.5396],[129.24149,35.53961],[129.24159,35.53964],[129.24174,35.5397],[129.24185,35.53978],[129.24192,35.53983],[129.24197,35.53988],[129.24323,35.54145],[129.24418,35.54284],[129.24719,35.54393],[129.2494,35.54549],[129.25231,35.54955],[129.2529,35.55134],[129.25393,35.55263],[129.2544,35.55317],[129.25625,35.55475],[129.25779,35.55393],[129.25782,35.55392],[129.25988,35.55255],[129.26029,35.55229],[129.26055,35.55211]]]]}},{"type":"Feature","properties":{"code":"31140600","name":"옥동","parent":"31140"},"geometry":{"type":"MultiPolygon","coordinates":[[[[129.29467,35.54275],[129.2955,35.54063],[129.29539,35.54022],[129.29539,35.54006],[129.29541,35.53978],[129.29571,35.5397],[129.29576,35.5397],[129.29702,35.53959],[129.29713,35.53562],[129.29714,35.53336],[129.29803,35.5321],[129.29867,35.53122],[129.29975,35.52971],[129.29978,35.52958],[129.29948,35.52946],[129.29941,35.52943],[129.29892,35.5294],[129.29697,35.5293],[129.29266,35.52747],[129.29235,35.52732],[129.2922,35.5272],[129.29173,35.52637],[129.29172,35.52634],[129.29167,35.52587],[129.29166,35.52574],[129.29166,35.52539],[129.29171,35.52501],[129.29532,35.52403],[129.29709,35.52473],[129.29813,35.52516],[129.29911,35.52522],[129.29921,35.52514],[129.29927,35.52509],[129.29936,35.52501],[129.29975,35.52449],[129.29978,35.52445],[129.29987,35.52427],[129.30056,35.52281],[129.30063,35.521],[129.3006,35.5206],[129.30054,35.52009],[129.3005,35.51955],[129.30051,35.51925],[129.30074,35.51841],[129.30215,35.51795],[129.30288,35.51783],[129.30353,35.5178],[129.30358,35.51794],[129.30383,35.51806],[129.30511,35.51862],[129.30531,35.51867],[129.30536,35.51868],[129.30574,35.51864],[129.30758,35.51829],[129.3077,35.51826],[129.30777,35.51823],[129.30788,35.51813],[129.30801,35.51792],[129.30902,35.51751],[129.30941,35.51717],[129.30955,35.51701],[129.30963,35.51687],[129.30971,35.51665],[129.30976,35.51644],[129.3094,35.51445],[129.30876,35.51026],[129.30869,35.50954],[129.30866,35.50903],[129.30863,35.5077],[129.30875,35.50349],[129.30921,35.50112],[129.30857,35.4999],[129.30857,35.49981],[129.30869,35.4985],[129.30889,35.49767],[129.30907,35.49727],[129.30786,35.49739],[129.30443,35.49607],[129.30379,35.49454],[129.30148,35.49447],[129.29778,35.49798],[129.29421,35.50221],[129.29241,35.5045],[129.29103,35.50653],[129.29016,35.50776],[129.28941,35.50779],[129.28887,35.50781],[129.28827,35.50783],[129.28742,35.51522],[129.28676,35.51597],[129.28633,35.51613],[129.28354,35.51711],[129.28318,35.51712],[129.28283,35.51704],[129.28268,35.51699],[129.28219,35.51685],[129.28173,35.51705],[129.28132,35.51723],[129.28035,35.51883],[129.28052,35.51914],[129.28148,35.51936],[129.28192,35.51945],[129.28064,35.52065],[129.27926,35.52153],[129.27773,35.52195],[129.27686,35.52182],[129.2747,35.52364],[129.27287,35.52608],[129.27371,35.52704],[129.27405,35.52743],[129.27483,35.52836],[129.27428,35.52917],[129.27241,35.52978],[129.2672,35.53066],[129.26434,35.53079],[129.26422,35.53078],[129.26386,35.53076],[129.26256,35.53042],[129.26249,35.53019],[129.26236,35.5298],[129.25895,35.53114],[129.25585,35.53329],[129.25511,35.53383],[129.25557,35.53485],[129.25892,35.53634],[129.26053,35.53727],[129.26182,35.53832],[129.26217,35.53837],[129.26221,35.53838],[129.26354,35.53851],[129.26685,35.53847],[129.26684,35.53855],[129.26665,35.53932],[129.26644,35.53987],[129.26643,35.5399],[129.2661,35.54041],[129.26544,35.54109],[129.26483,35.54163],[129.26432,35.54215],[129.26404,35.54266],[129.26397,35.54326],[129.2642,35.54334],[129.26599,35.54371],[129.26818,35.54333],[129.27046,35.54208],[129.2727,35.54098],[129.27296,35.54106],[129.27455,35.54227],[129.27431,35.54384],[129.27393,35.54462],[129.27336,35.54639],[129.27456,35.5471],[129.27461,35.54711],[129.27468,35.54714],[129.27947,35.54559],[129.28053,35.54498],[129.28166,35.54462],[129.28498,35.54411],[129.28647,35.54434],[129.28735,35.54445],[129.28854,35.54404],[129.2903,35.5428],[129.29467,35.54275]]]]}},{"type":"Feature","properties":{"code":"31140670","name":"야음장생포동","parent":"31140"},"geometry":{"type":"MultiPolygon","coordinates":[[[[129.37329,35.53291],[129.37783,35.52829],[129.37449,35.52881],[129.37401,35.5268],[129.3725,35.52346],[129.37597,35.52246],[129.37552,35.51757],[129.38492,35.51586],[129.38613,35.51032],[129.38726,35.50509],[129.38743,35.50203],[129.38727,35.50141],[129.38664,35.50103],[129.38529,35.50089],[129.37978,35.50274],[129.37698,35.50196],[129.37317,35.5008],[129.36982,35.50097],[129.3657,35.50503],[129.36309,35.50552],[129.36234,35.50531],[129.35929,35.5061],[129.35455,35.50804],[129.35148,35.50931],[129.34906,35.51002],[129.34719,35.5095],[129.3463,35.50958],[129.34418,35.51055],[129.33995,35.51398],[129.33952,35.51439],[129.34009,35.51517],[129.33932,35.51577],[129.3389,35.51608],[129.33837,35.51647],[129.33829,35.51652],[129.33647,35.51741],[129.33597,35.51757],[129.33518,35.51783],[129.33446,35.51803],[129.33391,35.51832],[129.33281,35.5194],[129.33109,35.52032],[129.3309,35.52046],[129.33044,35.52092],[129.33027,35.52111],[129.33057,35.52437],[129.33066,35.52517],[129.33121,35.52471],[129.3323,35.52381],[129.33284,35.52425],[129.33258,35.52474],[129.33375,35.52549],[129.33403,35.52562],[129.33457,35.5258],[129.33487,35.52586],[129.33496,35.52597],[129.33465,35.5261],[129.33422,35.52617],[129.3335,35.52617],[129.33353,35.52651],[129.33332,35.52664],[129.33319,35.52685],[129.3332,35.52693],[129.3333,35.52728],[129.33382,35.52747],[129.33385,35.52789],[129.33499,35.52769],[129.33514,35.52794],[129.33359,35.5285],[129.33389,35.52923],[129.33409,35.52971],[129.33429,35.53017],[129.33496,35.53324],[129.34135,35.53292],[129.35197,35.53429],[129.35217,35.53434],[129.35266,35.535],[129.35329,35.53578],[129.35493,35.5373],[129.35679,35.53803],[129.3626,35.54095],[129.36507,35.54016],[129.36671,35.53849],[129.37011,35.5364],[129.37329,35.53291]]]]}},{"type":"Feature","properties":{"code":"31140625","name":"대현동","parent":"31140"},"geometry":{"type":"MultiPolygon","coordinates":[[[[129.33281,35.5194],[129.33281,35.51936],[129.33279,35.51927],[129.33237,35.51929],[129.32928,35.51975],[129.32907,35.52006],[129.3288,35.52046],[129.32867,35.52077],[129.32834,35.52129],[129.32827,35.52138],[129.32817,35.52147],[129.3279,35.52159],[129.32771,35.52164],[129.32751,35.52168],[129.3273,35.52171],[129.32702,35.52172],[129.32426,35.52161],[129.32348,35.52269],[129.32063,35.52435],[129.31983,35.52462],[129.31985,35.52469],[129.32022,35.52564],[129.3213,35.52785],[129.32382,35.53123],[129.32441,35.53099],[129.32727,35.53029],[129.32756,35.53026],[129.32763,35.53027],[129.32812,35.53038],[129.32897,35.53079],[129.33033,35.53158],[129.3304,35.53165],[129.33045,35.5317],[129.33496,35.53324],[129.33429,35.53017],[129.33409,35.52971],[129.33389,35.52923],[129.33359,35.5285],[129.33514,35.52794],[129.33499,35.52769],[129.33385,35.52789],[129.33382,35.52747],[129.3333,35.52728],[129.3332,35.52693],[129.33319,35.52685],[129.33332,35.52664],[129.33353,35.52651],[129.3335,35.52617],[129.33422,35.52617],[129.33465,35.5261],[129.33496,35.52597],[129.33487,35.52586],[129.33457,35.5258],[129.33403,35.52562],[129.33375,35.52549],[129.33258,35.52474],[129.33284,35.52425],[129.3323,35.52381],[129.33121,35.52471],[129.33066,35.52517],[129.33057,35.52437],[129.33027,35.52111],[129.33044,35.52092],[129.3309,35.52046],[129.33109,35.52032],[129.33281,35.5194]]]]}},{"type":"Feature","properties":{"code":"31140635","name":"수암동","parent":"31140"},"geometry":{"type":"MultiPolygon","coordinates":[[[[129.3213,35.52785],[129.32022,35.52564],[129.31985,35.52469],[129.31983,35.52462],[129.32063,35.52435],[129.32348,35.52269],[129.32426,35.52161],[129.32474,35.52093],[129.32428,35.52005],[129.32257,35.51917],[129.31889,35.51932],[129.31812,35.51935],[129.31802,35.51935],[129.31702,35.51968],[129.31505,35.52031],[129.31474,35.52041],[129.31471,35.52043],[129.31467,35.52055],[129.31449,35.52096],[129.31357,35.52091],[129.31236,35.5208],[129.31171,35.52073],[129.31255,35.52196],[129.31425,35.5232],[129.31901,35.52685],[129.31906,35.52695],[129.31923,35.52725],[129.31927,35.52731],[129.31998,35.52796],[129.3207,35.5281],[129.32106,35.52795],[129.3213,35.52785]]]]}},{"type":"Feature","properties":{"code":"31140640","name":"선암동","parent":"31140"},"geometry":{"type":"MultiPolygon","coordinates":[[[[129.33281,35.5194],[129.33391,35.51832],[129.33446,35.51803],[129.33518,35.51783],[129.33597,35.51757],[129.33647,35.51741],[129.33829,35.51652],[129.33837,35.51647],[129.3389,35.51608],[129.33932,35.51577],[129.34009,35.51517],[129.33952,35.51439],[129.33995,35.51398],[129.34418,35.51055],[129.3463,35.50958],[129.34719,35.5095],[129.34906,35.51002],[129.35148,35.50931],[129.35455,35.50804],[129.35929,35.5061],[129.36234,35.50531],[129.36277,35.5045],[129.36518,35.50101],[129.36759,35.49801],[129.3721,35.49865],[129.37406,35.49898],[129.37648,35.49995],[129.37932,35.49998],[129.38257,35.49648],[129.38226,35.49624],[129.38729,35.48978],[129.38933,35.48774],[129.3845,35.48372],[129.38423,35.4802],[129.38406,35.47765],[129.38423,35.47607],[129.38447,35.4753],[129.38413,35.47408],[129.38066,35.47118],[129.37908,35.47189],[129.37838,35.4722],[129.37466,35.46926],[129.37021,35.4656],[129.36276,35.46045],[129.36479,35.45962],[129.36773,35.45852],[129.36492,35.45666],[129.36131,35.45915],[129.36017,35.45906],[129.35864,35.45853],[129.35681,35.45885],[129.3544,35.45974],[129.35304,35.46334],[129.35278,35.46478],[129.35267,35.46541],[129.34998,35.46837],[129.34935,35.46901],[129.34612,35.4703],[129.33934,35.47527],[129.33965,35.47697],[129.3396,35.47844],[129.33905,35.48013],[129.33747,35.4816],[129.33655,35.48235],[129.3357,35.48241],[129.33515,35.48244],[129.33348,35.48258],[129.33328,35.48265],[129.3331,35.48276],[129.33297,35.48288],[129.33287,35.48302],[129.33258,35.48346],[129.33245,35.48367],[129.3323,35.48389],[129.33214,35.48407],[129.33198,35.48425],[129.33183,35.48438],[129.33169,35.48447],[129.33144,35.48461],[129.33126,35.48468],[129.33121,35.48469],[129.33082,35.48477],[129.33015,35.48481],[129.32664,35.48482],[129.31938,35.48483],[129.31943,35.49099],[129.31943,35.49111],[129.31934,35.49111],[129.31403,35.49114],[129.31399,35.49238],[129.31217,35.49538],[129.312,35.49557],[129.31177,35.49581],[129.31149,35.496],[129.31015,35.49679],[129.30974,35.497],[129.30907,35.49727],[129.30889,35.49767],[129.30869,35.4985],[129.30857,35.49981],[129.30857,35.4999],[129.30921,35.50112],[129.30875,35.50349],[129.30863,35.5077],[129.30866,35.50903],[129.30869,35.50954],[129.30876,35.51026],[129.3094,35.51445],[129.30976,35.51644],[129.30971,35.51665],[129.30963,35.51687],[129.30955,35.51701],[129.30941,35.51717],[129.30902,35.51751],[129.30801,35.51792],[129.31171,35.52073],[129.31236,35.5208],[129.31357,35.52091],[129.31449,35.52096],[129.31467,35.52055],[129.31471,35.52043],[129.31474,35.52041],[129.31505,35.52031],[129.31702,35.51968],[129.31802,35.51935],[129.31812,35.51935],[129.31889,35.51932],[129.32257,35.51917],[129.32428,35.52005],[129.32474,35.52093],[129.32426,35.52161],[129.32702,35.52172],[129.3273,35.52171],[129.32751,35.52168],[129.32771,35.52164],[129.3279,35.52159],[129.32817,35.52147],[129.32827,35.52138],[129.32834,35.52129],[129.32867,35.52077],[129.3288,35.52046],[129.32907,35.52006],[129.32928,35.51975],[129.33237,35.51929],[129.33279,35.51927],[129.33281,35.51936],[129.33281,35.5194]]]]}}]}