{"type":"FeatureCollection","features":[{"type":"Feature","properties":{"code":"12720250","name":"곡성읍","parent":"12720"},"geometry":{"type":"MultiPolygon","coordinates":[[[[127.2512,35.31696],[127.25128,35.31649],[127.25131,35.31632],[127.25133,35.31626],[127.25136,35.3162],[127.25138,35.31615],[127.25142,35.3161],[127.25159,35.31587],[127.25187,35.31551],[127.25194,35.31543],[127.25197,35.31539],[127.25204,35.31533],[127.25214,35.31523],[127.25221,35.31517],[127.25228,35.31512],[127.2525,35.31498],[127.25267,35.31488],[127.25274,35.31483],[127.2564,35.31276],[127.25644,35.31273],[127.25676,35.31259],[127.25683,35.31255],[127.25689,35.31253],[127.25706,35.31247],[127.25715,35.31244],[127.25734,35.31237],[127.25791,35.31219],[127.25845,35.31203],[127.25886,35.31191],[127.25919,35.31183],[127.25936,35.31179],[127.25954,35.31175],[127.25978,35.3117],[127.25989,35.31168],[127.25997,35.31167],[127.26016,35.31165],[127.26029,35.31164],[127.26044,35.31163],[127.26058,35.31163],[127.26067,35.31163],[127.26074,35.31164],[127.26079,35.31165],[127.26085,35.31167],[127.26091,35.31169],[127.26094,35.3117],[127.26104,35.31174],[127.26117,35.3118],[127.26138,35.31189],[127.26151,35.31195],[127.26167,35.31203],[127.26182,35.31212],[127.26198,35.31221],[127.26214,35.3123],[127.26283,35.3127],[127.26377,35.31323],[127.26408,35.3134],[127.26432,35.31353],[127.26436,35.31355],[127.26442,35.31357],[127.26452,35.31362],[127.26459,35.31364],[127.26466,35.31365],[127.26475,35.31367],[127.2648,35.31367],[127.26485,35.31368],[127.26489,35.31369],[127.26497,35.31369],[127.26513,35.31371],[127.26518,35.31372],[127.26531,35.31373],[127.26541,35.31373],[127.26555,35.31373],[127.26565,35.31373],[127.26581,35.31373],[127.26606,35.31372],[127.26622,35.3137],[127.26626,35.3137],[127.26637,35.31369],[127.26655,35.31367],[127.2667,35.31364],[127.26678,35.31363],[127.26682,35.31362],[127.26688,35.31361],[127.26696,35.31359],[127.26714,35.31353],[127.26742,35.31344],[127.26756,35.3134],[127.26818,35.31324],[127.26831,35.31321],[127.26839,35.3132],[127.2697,35.3131],[127.27106,35.31302],[127.27115,35.31302],[127.2712,35.31302],[127.27142,35.31302],[127.27183,35.31304],[127.28015,35.31345],[127.2873,35.31418],[127.28745,35.31419],[127.28765,35.3142],[127.28787,35.31421],[127.28809,35.3142],[127.28816,35.3142],[127.28821,35.3142],[127.28833,35.31419],[127.28842,35.31417],[127.28854,35.31415],[127.28871,35.31411],[127.28894,35.31406],[127.28905,35.31403],[127.28916,35.31401],[127.28919,35.314],[127.28945,35.31393],[127.29113,35.3135],[127.29132,35.31345],[127.29156,35.31337],[127.2918,35.31328],[127.29201,35.3132],[127.29225,35.3131],[127.29246,35.313],[127.297,35.31073],[127.29792,35.31027],[127.3015,35.30846],[127.30159,35.30841],[127.30168,35.30835],[127.30172,35.30833],[127.30177,35.30829],[127.30181,35.30825],[127.30188,35.30817],[127.3042,35.30573],[127.30428,35.30564],[127.30434,35.30557],[127.30438,35.30551],[127.30441,35.30544],[127.30444,35.30536],[127.30449,35.30523],[127.30455,35.30505],[127.3046,35.30488],[127.30465,35.30465],[127.30469,35.30442],[127.30471,35.30426],[127.30473,35.30412],[127.30475,35.30399],[127.30477,35.3039],[127.30478,35.30384],[127.30479,35.3038],[127.3048,35.30377],[127.30484,35.30368],[127.30486,35.30363],[127.3049,35.30357],[127.30494,35.3035],[127.30498,35.30346],[127.30509,35.30335],[127.30524,35.30324],[127.30543,35.30316],[127.30566,35.3031],[127.30584,35.30308],[127.30593,35.30307],[127.30627,35.30306],[127.30639,35.30306],[127.30649,35.30306],[127.30728,35.30308],[127.30851,35.30312],[127.30856,35.30313],[127.3197,35.30535],[127.3214,35.30574],[127.32411,35.30646],[127.32531,35.306],[127.32596,35.30573],[127.32671,35.3054],[127.32703,35.30525],[127.32734,35.30509],[127.32741,35.30504],[127.32745,35.30498],[127.32749,35.30491],[127.32751,35.30483],[127.32751,35.30476],[127.3275,35.3047],[127.32746,35.30455],[127.32691,35.30292],[127.32639,35.3016],[127.32621,35.3011],[127.32613,35.30079],[127.32609,35.30064],[127.32606,35.30047],[127.32596,35.2981],[127.32614,35.29662],[127.32657,35.29312],[127.32662,35.29286],[127.32672,35.29231],[127.32764,35.28749],[127.32909,35.28467],[127.32976,35.28378],[127.32982,35.28365],[127.32984,35.28352],[127.32985,35.28337],[127.32982,35.28317],[127.32974,35.28288],[127.32968,35.28273],[127.32964,35.28267],[127.32813,35.28113],[127.32713,35.28019],[127.32615,35.27933],[127.32549,35.27835],[127.32487,35.27739],[127.32473,35.27717],[127.32465,35.27704],[127.3246,35.27689],[127.32453,35.27663],[127.32448,35.27633],[127.32442,35.27585],[127.32443,35.27555],[127.32444,35.27547],[127.32451,35.2751],[127.32458,35.27489],[127.3247,35.27466],[127.32598,35.27288],[127.32581,35.27295],[127.32541,35.27319],[127.32519,35.27333],[127.32514,35.27337],[127.32429,35.27414],[127.3239,35.27459],[127.32386,35.27464],[127.32374,35.27475],[127.3234,35.27501],[127.32314,35.27519],[127.32137,35.27613],[127.32125,35.27619],[127.32105,35.27628],[127.31494,35.27886],[127.31484,35.27889],[127.31473,35.27891],[127.3146,35.27892],[127.31441,35.27891],[127.31264,35.27879],[127.31166,35.2789],[127.31153,35.27893],[127.31135,35.27898],[127.3112,35.27907],[127.31107,35.27916],[127.311,35.27924],[127.31094,35.27936],[127.31091,35.27948],[127.31085,35.27979],[127.31084,35.28],[127.31085,35.28029],[127.31084,35.28044],[127.31082,35.28059],[127.31078,35.28073],[127.31076,35.2808],[127.31071,35.28089],[127.31065,35.28097],[127.30853,35.28393],[127.30812,35.28446],[127.30786,35.28477],[127.30772,35.28492],[127.3076,35.28503],[127.30746,35.28513],[127.30734,35.28519],[127.30724,35.28523],[127.30717,35.28525],[127.30713,35.28526],[127.30693,35.28527],[127.30674,35.28526],[127.30662,35.28525],[127.30656,35.28525],[127.30643,35.28522],[127.30637,35.2852],[127.30631,35.28517],[127.30625,35.28512],[127.30119,35.28054],[127.30114,35.28048],[127.30111,35.28042],[127.30108,35.28035],[127.30095,35.27999],[127.30091,35.27951],[127.30074,35.27836],[127.30073,35.2783],[127.30052,35.27738],[127.30047,35.27722],[127.30033,35.27687],[127.2998,35.27571],[127.2987,35.27345],[127.29718,35.27164],[127.29556,35.26991],[127.29502,35.26908],[127.29546,35.26662],[127.29549,35.26656],[127.29553,35.26645],[127.29563,35.26606],[127.29569,35.26582],[127.29571,35.2657],[127.29571,35.26566],[127.29523,35.26365],[127.29466,35.26223],[127.29404,35.26072],[127.29402,35.2607],[127.29399,35.26066],[127.29393,35.26065],[127.29387,35.26065],[127.29381,35.26067],[127.29378,35.26068],[127.29313,35.26106],[127.29211,35.26165],[127.29199,35.26172],[127.29193,35.26174],[127.29187,35.26176],[127.29173,35.26179],[127.29161,35.26181],[127.29147,35.26182],[127.2914,35.26182],[127.29111,35.2618],[127.28853,35.26145],[127.28846,35.26144],[127.28833,35.2614],[127.28828,35.26138],[127.28209,35.25881],[127.28112,35.25728],[127.2811,35.25724],[127.28109,35.25718],[127.28105,35.25615],[127.28082,35.25473],[127.28079,35.25465],[127.28076,35.25459],[127.28075,35.25456],[127.28024,35.25391],[127.27907,35.25253],[127.27795,35.25133],[127.27712,35.25062],[127.27698,35.25006],[127.27699,35.24874],[127.27678,35.24733],[127.27664,35.24679],[127.27641,35.24663],[127.27603,35.24638],[127.27572,35.24628],[127.27403,35.2458],[127.27179,35.24532],[127.27044,35.24509],[127.27004,35.24498],[127.26975,35.24484],[127.26745,35.2419],[127.26713,35.24146],[127.26693,35.241],[127.26666,35.23996],[127.26596,35.23854],[127.26425,35.23637],[127.26394,35.23621],[127.26297,35.23591],[127.26236,35.23583],[127.26146,35.23583],[127.2608,35.23577],[127.26006,35.23549],[127.25956,35.23524],[127.25918,35.23496],[127.25801,35.2337],[127.2576,35.23309],[127.25715,35.23237],[127.25707,35.23178],[127.25703,35.23106],[127.25687,35.23042],[127.25621,35.22939],[127.25559,35.2286],[127.2553,35.22842],[127.25447,35.22813],[127.25381,35.22794],[127.2481,35.22685],[127.2479,35.22681],[127.24747,35.227],[127.24736,35.22721],[127.24747,35.2281],[127.24737,35.22852],[127.24706,35.22902],[127.24278,35.23274],[127.24075,35.23554],[127.23685,35.23787],[127.23627,35.23844],[127.23625,35.23846],[127.23599,35.23939],[127.23598,35.24011],[127.23637,35.24097],[127.23683,35.24224],[127.23569,35.24935],[127.23535,35.25056],[127.23471,35.251],[127.23423,35.25117],[127.23326,35.25117],[127.23268,35.25105],[127.23188,35.25083],[127.23154,35.2508],[127.23106,35.25092],[127.23072,35.25119],[127.22864,35.25513],[127.22852,35.25562],[127.22844,35.25592],[127.22849,35.25691],[127.22858,35.25719],[127.22863,35.25725],[127.22877,35.25736],[127.23105,35.25907],[127.23172,35.25948],[127.23259,35.25985],[127.23356,35.26026],[127.2339,35.26045],[127.23397,35.26049],[127.23401,35.26054],[127.23478,35.26152],[127.23482,35.26157],[127.23495,35.2618],[127.23502,35.26194],[127.23503,35.26207],[127.23499,35.26303],[127.23496,35.26315],[127.23431,35.26413],[127.23395,35.26431],[127.23371,35.26441],[127.23362,35.26451],[127.23359,35.26462],[127.23358,35.26472],[127.23353,35.26576],[127.23353,35.26587],[127.23432,35.26997],[127.23434,35.27007],[127.23517,35.27212],[127.23525,35.27228],[127.23533,35.27244],[127.23589,35.27296],[127.23601,35.27306],[127.23755,35.27456],[127.23861,35.27559],[127.23947,35.27676],[127.24181,35.28061],[127.24166,35.28187],[127.24123,35.2838],[127.24101,35.28427],[127.23979,35.28641],[127.23975,35.28647],[127.23971,35.28651],[127.23963,35.28655],[127.23944,35.28662],[127.23905,35.28682],[127.23852,35.28717],[127.23841,35.28725],[127.23799,35.28772],[127.23735,35.28843],[127.23729,35.28854],[127.23726,35.28858],[127.23721,35.28873],[127.23703,35.28934],[127.23515,35.29365],[127.23317,35.29783],[127.23279,35.29933],[127.23248,35.30077],[127.23258,35.30088],[127.23268,35.30102],[127.2328,35.30124],[127.23283,35.30134],[127.23283,35.30143],[127.23279,35.30282],[127.23272,35.3038],[127.23241,35.30446],[127.23179,35.30773],[127.23175,35.31449],[127.23221,35.31624],[127.23295,35.32032],[127.23279,35.32149],[127.23278,35.32158],[127.23285,35.32245],[127.23294,35.32281],[127.23375,35.32563],[127.2338,35.32573],[127.23437,35.32627],[127.23562,35.32733],[127.23741,35.32814],[127.24111,35.32495],[127.24197,35.32422],[127.24605,35.32131],[127.24754,35.32029],[127.24825,35.31985],[127.24888,35.31948],[127.24914,35.31933],[127.24939,35.31918],[127.25005,35.31878],[127.25037,35.31856],[127.25045,35.31848],[127.25055,35.3184],[127.25069,35.31825],[127.25079,35.31812],[127.25088,35.31799],[127.2509,35.31795],[127.25099,35.31781],[127.25107,35.31761],[127.25115,35.31739],[127.2512,35.31696]]]]}},{"type":"Feature","properties":{"code":"12720310","name":"오곡면","parent":"12720"},"geometry":{"type":"MultiPolygon","coordinates":[[[[127.32598,35.27288],[127.32648,35.2721],[127.32664,35.27189],[127.32674,35.27179],[127.32697,35.27167],[127.32725,35.27153],[127.32785,35.27132],[127.32824,35.27119],[127.33391,35.26923],[127.334,35.2692],[127.33422,35.26918],[127.33441,35.26918],[127.33453,35.26921],[127.33461,35.26926],[127.3347,35.26934],[127.33476,35.26947],[127.3348,35.26952],[127.33487,35.26955],[127.33496,35.26958],[127.33509,35.26959],[127.33523,35.26958],[127.33538,35.26955],[127.33585,35.26937],[127.33658,35.26904],[127.33777,35.2684],[127.33796,35.26828],[127.33813,35.26812],[127.33828,35.26794],[127.33837,35.26777],[127.3386,35.26717],[127.3387,35.26695],[127.33878,35.26685],[127.33884,35.26681],[127.33886,35.26678],[127.33898,35.26671],[127.34089,35.26573],[127.34175,35.26532],[127.34323,35.26477],[127.34346,35.26473],[127.34362,35.26472],[127.34392,35.26476],[127.34442,35.26488],[127.3447,35.26493],[127.34512,35.265],[127.34533,35.26501],[127.34557,35.265],[127.34576,35.26496],[127.34599,35.26487],[127.34623,35.26476],[127.34822,35.26378],[127.34835,35.2637],[127.34884,35.26337],[127.34903,35.26321],[127.34996,35.26235],[127.35005,35.26223],[127.35014,35.26205],[127.35022,35.26179],[127.35113,35.25875],[127.35177,35.25579],[127.35181,35.25564],[127.35186,35.25552],[127.35456,35.25116],[127.35499,35.25049],[127.35597,35.24964],[127.35663,35.24924],[127.35725,35.24916],[127.35772,35.24915],[127.35853,35.2493],[127.35886,35.24935],[127.3599,35.24892],[127.36119,35.24825],[127.36156,35.24798],[127.36247,35.24731],[127.36892,35.24191],[127.36948,35.24135],[127.37045,35.24002],[127.37185,35.2347],[127.37182,35.23427],[127.37107,35.23131],[127.3708,35.23058],[127.37055,35.23003],[127.36997,35.22961],[127.36787,35.22837],[127.3677,35.22822],[127.36679,35.22658],[127.36688,35.22424],[127.3681,35.22272],[127.36833,35.22243],[127.37052,35.21991],[127.37289,35.2188],[127.37337,35.21856],[127.37353,35.21847],[127.37362,35.2184],[127.3744,35.2176],[127.37454,35.21734],[127.37464,35.21706],[127.37469,35.2169],[127.37471,35.21682],[127.37473,35.21658],[127.37473,35.21642],[127.37472,35.21634],[127.37471,35.21627],[127.37463,35.21602],[127.37453,35.21571],[127.37447,35.21556],[127.37431,35.21525],[127.3731,35.21376],[127.37272,35.2134],[127.37199,35.21227],[127.37172,35.21074],[127.37167,35.20858],[127.3717,35.20765],[127.37176,35.20631],[127.37412,35.20071],[127.37605,35.19755],[127.37615,35.19734],[127.37661,35.196],[127.37688,35.1945],[127.37701,35.19377],[127.37612,35.19328],[127.37537,35.19275],[127.37268,35.19065],[127.3711,35.18926],[127.37002,35.18789],[127.36715,35.18602],[127.36618,35.18619],[127.36549,35.1866],[127.36418,35.18823],[127.36311,35.18921],[127.36259,35.18939],[127.36129,35.18974],[127.36031,35.19133],[127.35973,35.19233],[127.35952,35.19321],[127.3598,35.19404],[127.35982,35.19409],[127.35911,35.19468],[127.35793,35.19521],[127.35746,35.19526],[127.34918,35.19385],[127.34824,35.19334],[127.347,35.19249],[127.34639,35.19217],[127.34587,35.19224],[127.34526,35.19263],[127.34373,35.19368],[127.3434,35.19407],[127.34337,35.19413],[127.34312,35.19488],[127.34197,35.19557],[127.34125,35.19582],[127.34056,35.19591],[127.33927,35.19583],[127.3383,35.19579],[127.33469,35.19586],[127.33356,35.19588],[127.33272,35.19608],[127.33268,35.19609],[127.33252,35.19638],[127.33236,35.19724],[127.33206,35.19817],[127.33156,35.19901],[127.33104,35.19955],[127.32948,35.20079],[127.32755,35.20204],[127.3248,35.20357],[127.32389,35.20385],[127.32265,35.20414],[127.3202,35.20471],[127.31957,35.20514],[127.31913,35.206],[127.31886,35.20724],[127.31846,35.20907],[127.31832,35.20953],[127.31794,35.21008],[127.31772,35.2109],[127.31767,35.21158],[127.31778,35.21259],[127.31792,35.21388],[127.31796,35.21581],[127.31758,35.21645],[127.31582,35.21914],[127.31354,35.22047],[127.31219,35.22116],[127.30999,35.22216],[127.30981,35.2222],[127.30845,35.22253],[127.30737,35.22272],[127.30561,35.22277],[127.30337,35.22263],[127.3021,35.22227],[127.29824,35.22032],[127.29763,35.21919],[127.29743,35.21822],[127.29743,35.21765],[127.29781,35.21704],[127.29773,35.2167],[127.29639,35.21421],[127.29525,35.21075],[127.29558,35.21021],[127.29558,35.20989],[127.2953,35.20977],[127.29401,35.20979],[127.29087,35.21033],[127.28817,35.2109],[127.28395,35.21165],[127.27712,35.21281],[127.27657,35.21263],[127.27444,35.21205],[127.27375,35.2119],[127.27276,35.21197],[127.2724,35.21215],[127.2718,35.21274],[127.27139,35.21287],[127.27042,35.21272],[127.26965,35.21237],[127.2692,35.21185],[127.26865,35.21079],[127.2676,35.20998],[127.26639,35.20941],[127.26559,35.20924],[127.26485,35.2094],[127.26379,35.21045],[127.26368,35.2107],[127.26343,35.21214],[127.26341,35.2135],[127.26329,35.21458],[127.2626,35.21639],[127.26224,35.21686],[127.25997,35.22026],[127.25562,35.22696],[127.25554,35.22737],[127.25559,35.2286],[127.25621,35.22939],[127.25687,35.23042],[127.25703,35.23106],[127.25707,35.23178],[127.25715,35.23237],[127.2576,35.23309],[127.25801,35.2337],[127.25918,35.23496],[127.25956,35.23524],[127.26006,35.23549],[127.2608,35.23577],[127.26146,35.23583],[127.26236,35.23583],[127.26297,35.23591],[127.26394,35.23621],[127.26425,35.23637],[127.26596,35.23854],[127.26666,35.23996],[127.26693,35.241],[127.26713,35.24146],[127.26745,35.2419],[127.26975,35.24484],[127.27004,35.24498],[127.27044,35.24509],[127.27179,35.24532],[127.27403,35.2458],[127.27572,35.24628],[127.27603,35.24638],[127.27641,35.24663],[127.27664,35.24679],[127.27678,35.24733],[127.27699,35.24874],[127.27698,35.25006],[127.27712,35.25062],[127.27795,35.25133],[127.27907,35.25253],[127.28024,35.25391],[127.28075,35.25456],[127.28076,35.25459],[127.28079,35.25465],[127.28082,35.25473],[127.28105,35.25615],[127.28109,35.25718],[127.2811,35.25724],[127.28112,35.25728],[127.28209,35.25881],[127.28828,35.26138],[127.28833,35.2614],[127.28846,35.26144],[127.28853,35.26145],[127.29111,35.2618],[127.2914,35.26182],[127.29147,35.26182],[127.29161,35.26181],[127.29173,35.26179],[127.29187,35.26176],[127.29193,35.26174],[127.29199,35.26172],[127.29211,35.26165],[127.29313,35.26106],[127.29378,35.26068],[127.29381,35.26067],[127.29387,35.26065],[127.29393,35.26065],[127.29399,35.26066],[127.29402,35.2607],[127.29404,35.26072],[127.29466,35.26223],[127.29523,35.26365],[127.29571,35.26566],[127.29571,35.2657],[127.29569,35.26582],[127.29563,35.26606],[127.29553,35.26645],[127.29549,35.26656],[127.29546,35.26662],[127.29502,35.26908],[127.29556,35.26991],[127.29718,35.27164],[127.2987,35.27345],[127.2998,35.27571],[127.30033,35.27687],[127.30047,35.27722],[127.30052,35.27738],[127.30073,35.2783],[127.30074,35.27836],[127.30091,35.27951],[127.30095,35.27999],[127.30108,35.28035],[127.30111,35.28042],[127.30114,35.28048],[127.30119,35.28054],[127.30625,35.28512],[127.30631,35.28517],[127.30637,35.2852],[127.30643,35.28522],[127.30656,35.28525],[127.30662,35.28525],[127.30674,35.28526],[127.30693,35.28527],[127.30713,35.28526],[127.30717,35.28525],[127.30724,35.28523],[127.30734,35.28519],[127.30746,35.28513],[127.3076,35.28503],[127.30772,35.28492],[127.30786,35.28477],[127.30812,35.28446],[127.30853,35.28393],[127.31065,35.28097],[127.31071,35.28089],[127.31076,35.2808],[127.31078,35.28073],[127.31082,35.28059],[127.31084,35.28044],[127.31085,35.28029],[127.31084,35.28],[127.31085,35.27979],[127.31091,35.27948],[127.31094,35.27936],[127.311,35.27924],[127.31107,35.27916],[127.3112,35.27907],[127.31135,35.27898],[127.31153,35.27893],[127.31166,35.2789],[127.31264,35.27879],[127.31441,35.27891],[127.3146,35.27892],[127.31473,35.27891],[127.31484,35.27889],[127.31494,35.27886],[127.32105,35.27628],[127.32125,35.27619],[127.32137,35.27613],[127.32314,35.27519],[127.3234,35.27501],[127.32374,35.27475],[127.32386,35.27464],[127.3239,35.27459],[127.32429,35.27414],[127.32514,35.27337],[127.32519,35.27333],[127.32541,35.27319],[127.32581,35.27295],[127.32598,35.27288]]]]}},{"type":"Feature","properties":{"code":"12720320","name":"삼기면","parent":"12720"},"geometry":{"type":"MultiPolygon","coordinates":[[[[127.25559,35.2286],[127.25554,35.22737],[127.25562,35.22696],[127.25997,35.22026],[127.26224,35.21686],[127.2626,35.21639],[127.26329,35.21458],[127.26341,35.2135],[127.26343,35.21214],[127.26368,35.2107],[127.26379,35.21045],[127.26485,35.2094],[127.26376,35.20896],[127.2632,35.2086],[127.26241,35.20808],[127.26189,35.20746],[127.26153,35.20671],[127.26139,35.20622],[127.26194,35.20248],[127.26249,35.20202],[127.2637,35.20159],[127.26405,35.20121],[127.26542,35.19967],[127.26596,35.19903],[127.26609,35.19853],[127.2661,35.19834],[127.265,35.19643],[127.26311,35.19386],[127.25991,35.19073],[127.25946,35.19035],[127.25926,35.19018],[127.25877,35.19001],[127.258,35.18975],[127.25489,35.18883],[127.25112,35.18744],[127.25032,35.18693],[127.24974,35.1864],[127.24625,35.18561],[127.24538,35.1857],[127.24196,35.18539],[127.24125,35.18531],[127.24096,35.18518],[127.24057,35.18486],[127.24019,35.18451],[127.23954,35.18392],[127.23888,35.18344],[127.23816,35.18299],[127.23783,35.18288],[127.23708,35.18292],[127.23665,35.18301],[127.23379,35.18323],[127.22674,35.18267],[127.2262,35.18246],[127.22548,35.18214],[127.22447,35.18142],[127.22385,35.18088],[127.22327,35.18014],[127.22291,35.17954],[127.222,35.17873],[127.22108,35.17809],[127.21798,35.17684],[127.2177,35.17696],[127.21708,35.17735],[127.21629,35.17796],[127.21537,35.17941],[127.21493,35.18017],[127.21475,35.18067],[127.21436,35.18157],[127.21393,35.18187],[127.21253,35.18214],[127.21204,35.18212],[127.21131,35.18188],[127.2103,35.18173],[127.20925,35.18172],[127.20861,35.18181],[127.20727,35.18257],[127.20168,35.18602],[127.20105,35.18754],[127.19791,35.19377],[127.19766,35.19411],[127.19776,35.19463],[127.19806,35.19535],[127.19837,35.19584],[127.19837,35.19612],[127.19818,35.1998],[127.1974,35.20306],[127.19731,35.20334],[127.19714,35.20357],[127.19606,35.20452],[127.19603,35.20452],[127.19484,35.20466],[127.19386,35.2049],[127.19297,35.20525],[127.19241,35.20553],[127.19201,35.20574],[127.19171,35.20599],[127.18955,35.20917],[127.18946,35.21],[127.18936,35.21049],[127.18908,35.21116],[127.18879,35.21152],[127.18836,35.21181],[127.18867,35.21186],[127.18925,35.21206],[127.19336,35.21476],[127.19439,35.2156],[127.19524,35.21662],[127.19548,35.21704],[127.19619,35.21843],[127.19691,35.21997],[127.19938,35.2264],[127.19947,35.2273],[127.19934,35.22834],[127.19898,35.22984],[127.19847,35.23082],[127.19839,35.23106],[127.19828,35.23247],[127.19835,35.23262],[127.19856,35.23303],[127.19887,35.2334],[127.19928,35.23401],[127.19976,35.23544],[127.19982,35.23652],[127.2003,35.23998],[127.20414,35.24104],[127.20686,35.24275],[127.2104,35.24474],[127.21235,35.24566],[127.21303,35.24586],[127.21384,35.2462],[127.21442,35.24649],[127.21514,35.24703],[127.21571,35.2477],[127.21613,35.24839],[127.21623,35.24887],[127.21614,35.25079],[127.21587,35.25126],[127.21529,35.25182],[127.21499,35.25216],[127.2147,35.25261],[127.21469,35.25278],[127.21496,35.25306],[127.21522,35.25313],[127.21545,35.25318],[127.21566,35.25321],[127.21811,35.25342],[127.22096,35.25382],[127.22627,35.25536],[127.22844,35.25592],[127.22852,35.25562],[127.22864,35.25513],[127.23072,35.25119],[127.23106,35.25092],[127.23154,35.2508],[127.23188,35.25083],[127.23268,35.25105],[127.23326,35.25117],[127.23423,35.25117],[127.23471,35.251],[127.23535,35.25056],[127.23569,35.24935],[127.23683,35.24224],[127.23637,35.24097],[127.23598,35.24011],[127.23599,35.23939],[127.23625,35.23846],[127.23627,35.23844],[127.23685,35.23787],[127.24075,35.23554],[127.24278,35.23274],[127.24706,35.22902],[127.24737,35.22852],[127.24747,35.2281],[127.24736,35.22721],[127.24747,35.227],[127.2479,35.22681],[127.2481,35.22685],[127.25381,35.22794],[127.25447,35.22813],[127.2553,35.22842],[127.25559,35.2286]]]]}},{"type":"Feature","properties":{"code":"12720330","name":"석곡면","parent":"12720"},"geometry":{"type":"MultiPolygon","coordinates":[[[[127.26998,35.12854],[127.26944,35.12924],[127.26838,35.1303],[127.26832,35.13036],[127.26748,35.13113],[127.26658,35.13185],[127.26558,35.13225],[127.26454,35.13244],[127.26315,35.1326],[127.26159,35.13253],[127.26002,35.13219],[127.25906,35.13173],[127.25841,35.13124],[127.2582,35.13108],[127.25687,35.12953],[127.25659,35.12879],[127.25652,35.12808],[127.25653,35.12772],[127.25662,35.12608],[127.25688,35.1227],[127.25705,35.121],[127.2571,35.1206],[127.25728,35.11979],[127.2574,35.11942],[127.25747,35.11882],[127.25747,35.11878],[127.25746,35.11875],[127.25702,35.11823],[127.25655,35.11782],[127.25603,35.11744],[127.25481,35.11656],[127.25433,35.11624],[127.25406,35.11609],[127.25386,35.116],[127.25333,35.11579],[127.25298,35.11565],[127.25205,35.11528],[127.25199,35.11528],[127.25185,35.11528],[127.25157,35.11531],[127.25108,35.11542],[127.25095,35.11546],[127.25047,35.11568],[127.25007,35.11582],[127.24937,35.11597],[127.24922,35.11598],[127.24814,35.11596],[127.2479,35.11596],[127.24675,35.11569],[127.24616,35.11547],[127.2456,35.11515],[127.2455,35.115],[127.24539,35.1148],[127.24538,35.11381],[127.24543,35.11211],[127.24546,35.11161],[127.24568,35.11095],[127.24622,35.11001],[127.24611,35.11003],[127.24599,35.10999],[127.24588,35.10982],[127.24543,35.1081],[127.24543,35.10698],[127.24562,35.10516],[127.24569,35.10182],[127.24553,35.1015],[127.24538,35.10132],[127.24499,35.10132],[127.24457,35.10134],[127.24286,35.10149],[127.24171,35.10163],[127.2412,35.1018],[127.24111,35.10195],[127.24103,35.10214],[127.24099,35.10256],[127.24083,35.10539],[127.23978,35.10862],[127.23999,35.11017],[127.24018,35.11037],[127.24024,35.11061],[127.2401,35.11099],[127.23989,35.11139],[127.23865,35.11228],[127.23448,35.1146],[127.2334,35.11513],[127.23277,35.11531],[127.22691,35.11643],[127.22344,35.11705],[127.22255,35.11705],[127.22202,35.11734],[127.22199,35.11736],[127.22139,35.11774],[127.21929,35.11927],[127.2189,35.11974],[127.21833,35.12074],[127.2179,35.12248],[127.21784,35.12297],[127.21774,35.12383],[127.21808,35.12514],[127.21852,35.12584],[127.21869,35.12657],[127.21881,35.12732],[127.2188,35.12809],[127.21865,35.12888],[127.21793,35.12964],[127.21698,35.13031],[127.21611,35.13132],[127.21497,35.13228],[127.21474,35.13247],[127.21442,35.13269],[127.21434,35.13275],[127.2129,35.13306],[127.21237,35.13309],[127.21171,35.13293],[127.20876,35.13172],[127.20836,35.13149],[127.20729,35.13075],[127.20642,35.13032],[127.20587,35.13022],[127.20502,35.13044],[127.2038,35.13097],[127.2016,35.13161],[127.1991,35.13219],[127.19768,35.13244],[127.1978,35.13264],[127.1978,35.13304],[127.19772,35.13366],[127.19747,35.13417],[127.19675,35.13525],[127.19664,35.13572],[127.19616,35.13813],[127.19595,35.13932],[127.19588,35.13997],[127.19643,35.14074],[127.19688,35.14149],[127.19706,35.14216],[127.19765,35.14657],[127.1976,35.1468],[127.19729,35.14709],[127.19669,35.14761],[127.19658,35.14778],[127.1965,35.14801],[127.19578,35.1505],[127.19614,35.15193],[127.19654,35.15255],[127.1969,35.15303],[127.19729,35.15483],[127.19722,35.15666],[127.19708,35.15716],[127.19676,35.15769],[127.19533,35.15941],[127.19471,35.15977],[127.19393,35.16],[127.19339,35.16016],[127.19266,35.16036],[127.19143,35.16154],[127.18913,35.16385],[127.18913,35.16389],[127.18909,35.16411],[127.18905,35.16453],[127.18918,35.16509],[127.18964,35.1658],[127.19102,35.16763],[127.19336,35.17052],[127.19355,35.17092],[127.19386,35.17157],[127.19383,35.17275],[127.19376,35.17351],[127.19365,35.1741],[127.19352,35.17474],[127.19357,35.17531],[127.19377,35.17604],[127.19542,35.1798],[127.19564,35.18017],[127.19784,35.18164],[127.19965,35.1833],[127.20168,35.18602],[127.20727,35.18257],[127.20861,35.18181],[127.20925,35.18172],[127.2103,35.18173],[127.21131,35.18188],[127.21204,35.18212],[127.21253,35.18214],[127.21393,35.18187],[127.21436,35.18157],[127.21475,35.18067],[127.21493,35.18017],[127.21537,35.17941],[127.21629,35.17796],[127.21708,35.17735],[127.2177,35.17696],[127.21798,35.17684],[127.22108,35.17809],[127.222,35.17873],[127.22291,35.17954],[127.22327,35.18014],[127.22385,35.18088],[127.22447,35.18142],[127.22548,35.18214],[127.2262,35.18246],[127.22674,35.18267],[127.23379,35.18323],[127.23665,35.18301],[127.23708,35.18292],[127.23783,35.18288],[127.23816,35.18299],[127.23888,35.18344],[127.23954,35.18392],[127.24019,35.18451],[127.24057,35.18486],[127.24096,35.18518],[127.24125,35.18531],[127.24196,35.18539],[127.24538,35.1857],[127.24625,35.18561],[127.24974,35.1864],[127.25032,35.18693],[127.25112,35.18744],[127.25489,35.18883],[127.258,35.18975],[127.25877,35.19001],[127.25926,35.19018],[127.25946,35.19035],[127.25991,35.19073],[127.26311,35.19386],[127.265,35.19643],[127.2661,35.19834],[127.26609,35.19853],[127.26887,35.19823],[127.2705,35.19789],[127.27485,35.19377],[127.27509,35.19312],[127.27525,35.19136],[127.27519,35.19032],[127.27517,35.18893],[127.27522,35.18843],[127.27552,35.18761],[127.27561,35.187],[127.27558,35.18589],[127.27536,35.18537],[127.27498,35.18471],[127.27492,35.18351],[127.27497,35.18298],[127.27615,35.17842],[127.27636,35.17791],[127.27689,35.17742],[127.27803,35.17697],[127.27921,35.17667],[127.27996,35.17651],[127.2812,35.17587],[127.28172,35.17551],[127.28197,35.17458],[127.28203,35.17434],[127.28203,35.17431],[127.28214,35.17402],[127.28247,35.17373],[127.28394,35.17284],[127.28494,35.17272],[127.28567,35.17272],[127.28631,35.17267],[127.28665,35.1725],[127.28679,35.17217],[127.2868,35.17214],[127.2868,35.17176],[127.28635,35.16698],[127.28624,35.16655],[127.28585,35.1658],[127.28515,35.16458],[127.28488,35.16361],[127.28481,35.16302],[127.28502,35.16261],[127.28556,35.16202],[127.28583,35.16154],[127.28686,35.15949],[127.28715,35.15734],[127.28707,35.15689],[127.28694,35.1564],[127.28667,35.15613],[127.28665,35.1561],[127.28479,35.15529],[127.28408,35.15506],[127.28198,35.15446],[127.28151,35.15433],[127.28099,35.15435],[127.28048,35.15441],[127.27962,35.15437],[127.27882,35.15433],[127.27835,35.15424],[127.2777,35.15408],[127.27718,35.15366],[127.27596,35.15253],[127.27598,35.15211],[127.2761,35.15179],[127.27566,35.15027],[127.27485,35.14747],[127.27418,35.14559],[127.2738,35.14421],[127.27332,35.14222],[127.27234,35.13813],[127.27224,35.13763],[127.27206,35.1361],[127.27206,35.13567],[127.27213,35.135],[127.27242,35.13419],[127.27262,35.13366],[127.27257,35.13308],[127.27154,35.1302],[127.27131,35.12966],[127.27108,35.12928],[127.27066,35.12891],[127.27045,35.12879],[127.26998,35.12854]]]]}},{"type":"Feature","properties":{"code":"12720340","name":"목사동면","parent":"12720"},"geometry":{"type":"MultiPolygon","coordinates":[[[[127.34469,35.09847],[127.34385,35.09755],[127.34322,35.09696],[127.34311,35.09686],[127.34299,35.09676],[127.3399,35.09426],[127.33978,35.09417],[127.33964,35.09407],[127.33949,35.09397],[127.33935,35.09389],[127.3392,35.09381],[127.33905,35.09376],[127.3389,35.09372],[127.33874,35.09372],[127.33858,35.09376],[127.33842,35.09375],[127.33826,35.09374],[127.33809,35.09372],[127.33793,35.09369],[127.33784,35.09363],[127.33776,35.09357],[127.33761,35.09347],[127.33748,35.09336],[127.33744,35.0933],[127.33704,35.09271],[127.33699,35.09261],[127.33676,35.09204],[127.33671,35.09192],[127.33667,35.09181],[127.33525,35.08795],[127.33527,35.08776],[127.33529,35.08763],[127.33531,35.08752],[127.33536,35.0874],[127.33541,35.08729],[127.33628,35.08514],[127.33634,35.08503],[127.3364,35.08491],[127.33652,35.08469],[127.3366,35.08458],[127.33664,35.08451],[127.3367,35.08446],[127.33684,35.08441],[127.33701,35.08434],[127.33711,35.08427],[127.33715,35.08424],[127.33718,35.08414],[127.33788,35.08211],[127.33789,35.08201],[127.33798,35.08125],[127.33795,35.08114],[127.33626,35.0784],[127.33621,35.07837],[127.33575,35.07807],[127.33378,35.07695],[127.33366,35.07688],[127.33355,35.0768],[127.33347,35.07672],[127.33332,35.07657],[127.33203,35.07502],[127.3293,35.07224],[127.3226,35.06958],[127.32139,35.06939],[127.3212,35.06948],[127.32049,35.06986],[127.32042,35.06993],[127.31987,35.07067],[127.31978,35.07089],[127.31977,35.07099],[127.31975,35.07109],[127.31969,35.0712],[127.31918,35.07182],[127.31908,35.07195],[127.31745,35.07342],[127.31627,35.07415],[127.31308,35.07566],[127.31286,35.07576],[127.31275,35.07579],[127.31064,35.07586],[127.30729,35.07596],[127.30694,35.07602],[127.30253,35.07682],[127.29943,35.07843],[127.29929,35.07915],[127.2987,35.08079],[127.29833,35.08161],[127.29789,35.08209],[127.29177,35.08597],[127.29157,35.08608],[127.29139,35.08615],[127.29129,35.08618],[127.29116,35.08616],[127.28848,35.08558],[127.28843,35.08557],[127.28828,35.08547],[127.28814,35.08534],[127.28797,35.08519],[127.28777,35.08504],[127.28757,35.08489],[127.28738,35.08477],[127.28727,35.08473],[127.28715,35.08471],[127.28452,35.08438],[127.28415,35.08441],[127.28247,35.0849],[127.28235,35.08494],[127.28219,35.08499],[127.2821,35.08505],[127.28207,35.08507],[127.28201,35.08513],[127.28185,35.08529],[127.2818,35.08537],[127.28177,35.08545],[127.28118,35.08727],[127.28096,35.08861],[127.28088,35.0892],[127.28077,35.08995],[127.28074,35.09004],[127.28068,35.09013],[127.27996,35.09092],[127.27986,35.09101],[127.27908,35.09158],[127.27903,35.09161],[127.27894,35.09164],[127.27889,35.09165],[127.27875,35.09164],[127.27864,35.09159],[127.27852,35.09153],[127.27825,35.09137],[127.27801,35.09119],[127.27659,35.0901],[127.2765,35.09001],[127.27634,35.08985],[127.27629,35.08977],[127.27624,35.08967],[127.27616,35.08949],[127.27608,35.08928],[127.27598,35.08909],[127.27587,35.08895],[127.27574,35.08885],[127.27553,35.08869],[127.27374,35.08732],[127.27207,35.08627],[127.26672,35.0836],[127.26539,35.083],[127.26337,35.08212],[127.26321,35.08208],[127.26217,35.08192],[127.26163,35.08191],[127.2615,35.08196],[127.25982,35.08317],[127.25963,35.08332],[127.25958,35.08344],[127.25956,35.08355],[127.26002,35.08665],[127.26071,35.08861],[127.26102,35.08886],[127.26198,35.08991],[127.26211,35.0901],[127.26222,35.09029],[127.26231,35.09048],[127.26237,35.09066],[127.26241,35.09085],[127.26244,35.09109],[127.26229,35.09241],[127.26213,35.09367],[127.26188,35.09494],[127.26181,35.09518],[127.2617,35.09543],[127.26152,35.0958],[127.26046,35.09754],[127.26032,35.09777],[127.26014,35.098],[127.25981,35.09843],[127.25933,35.09879],[127.25864,35.09918],[127.25861,35.09919],[127.25822,35.09938],[127.25756,35.09974],[127.256,35.10066],[127.25571,35.10086],[127.25543,35.10105],[127.25511,35.10131],[127.24987,35.10554],[127.2497,35.10572],[127.24799,35.10758],[127.2479,35.1077],[127.24747,35.10821],[127.24622,35.11001],[127.24568,35.11095],[127.24546,35.11161],[127.24543,35.11211],[127.24538,35.11381],[127.24539,35.1148],[127.2455,35.115],[127.2456,35.11515],[127.24616,35.11547],[127.24675,35.11569],[127.2479,35.11596],[127.24814,35.11596],[127.24922,35.11598],[127.24937,35.11597],[127.25007,35.11582],[127.25047,35.11568],[127.25095,35.11546],[127.25108,35.11542],[127.25157,35.11531],[127.25185,35.11528],[127.25199,35.11528],[127.25205,35.11528],[127.25298,35.11565],[127.25333,35.11579],[127.25386,35.116],[127.25406,35.11609],[127.25433,35.11624],[127.25481,35.11656],[127.25603,35.11744],[127.25655,35.11782],[127.25702,35.11823],[127.25746,35.11875],[127.25747,35.11878],[127.25747,35.11882],[127.2574,35.11942],[127.25728,35.11979],[127.2571,35.1206],[127.25705,35.121],[127.25688,35.1227],[127.25662,35.12608],[127.25653,35.12772],[127.25652,35.12808],[127.25659,35.12879],[127.25687,35.12953],[127.2582,35.13108],[127.25841,35.13124],[127.25906,35.13173],[127.26002,35.13219],[127.26159,35.13253],[127.26315,35.1326],[127.26454,35.13244],[127.26558,35.13225],[127.26658,35.13185],[127.26748,35.13113],[127.26832,35.13036],[127.26838,35.1303],[127.26944,35.12924],[127.26998,35.12854],[127.27012,35.12808],[127.27041,35.1277],[127.27078,35.12725],[127.27184,35.12637],[127.2724,35.126],[127.273,35.12563],[127.27323,35.12552],[127.27337,35.12547],[127.27361,35.12541],[127.27376,35.12539],[127.27407,35.12536],[127.27566,35.12531],[127.27661,35.12529],[127.27743,35.12531],[127.27881,35.12543],[127.27955,35.1255],[127.27994,35.12556],[127.28063,35.12568],[127.2811,35.12578],[127.28134,35.12585],[127.28208,35.12611],[127.2825,35.12636],[127.28282,35.12665],[127.28314,35.12701],[127.284,35.12901],[127.28439,35.13042],[127.28442,35.13142],[127.28415,35.13257],[127.28414,35.1326],[127.28441,35.13317],[127.28494,35.13361],[127.2857,35.13389],[127.28699,35.13402],[127.28827,35.13415],[127.28936,35.13404],[127.29091,35.13369],[127.29192,35.13332],[127.29322,35.13246],[127.29424,35.13131],[127.29631,35.1294],[127.29786,35.1284],[127.29888,35.12829],[127.30028,35.12846],[127.30376,35.1299],[127.30463,35.1305],[127.30506,35.13178],[127.30549,35.13295],[127.30663,35.13436],[127.3073,35.13505],[127.30807,35.13548],[127.30949,35.13612],[127.31031,35.13649],[127.31235,35.1375],[127.31488,35.13908],[127.31491,35.13911],[127.31572,35.13991],[127.31608,35.14044],[127.31651,35.14153],[127.31702,35.14324],[127.31746,35.14451],[127.31808,35.14609],[127.31833,35.14671],[127.31868,35.14736],[127.31869,35.14738],[127.31906,35.14803],[127.31956,35.14828],[127.32007,35.14841],[127.321,35.14825],[127.32127,35.14804],[127.32165,35.14721],[127.32172,35.14647],[127.322,35.14591],[127.32247,35.14539],[127.32423,35.14452],[127.32551,35.14391],[127.32632,35.14353],[127.32696,35.14318],[127.32895,35.14197],[127.32914,35.14166],[127.3294,35.13887],[127.33068,35.13685],[127.33508,35.12998],[127.33572,35.12956],[127.33707,35.12881],[127.33818,35.12808],[127.33875,35.12712],[127.33917,35.12634],[127.34144,35.12336],[127.34243,35.12225],[127.34257,35.12215],[127.34264,35.12211],[127.34362,35.12161],[127.34501,35.12095],[127.34523,35.12084],[127.34559,35.12059],[127.3471,35.11902],[127.3483,35.11494],[127.34833,35.1148],[127.34835,35.11427],[127.34835,35.11387],[127.34773,35.11055],[127.34766,35.11045],[127.34752,35.11032],[127.34738,35.1102],[127.34625,35.10935],[127.34572,35.10898],[127.34551,35.10891],[127.34539,35.10886],[127.34528,35.10879],[127.34518,35.10869],[127.34452,35.10801],[127.34434,35.1078],[127.34425,35.1076],[127.34425,35.10754],[127.34458,35.10212],[127.34469,35.09847]]]]}},{"type":"Feature","properties":{"code":"12720350","name":"죽곡면","parent":"12720"},"geometry":{"type":"MultiPolygon","coordinates":[[[[127.37701,35.19377],[127.37718,35.19362],[127.37776,35.19322],[127.3793,35.19223],[127.38017,35.19169],[127.38096,35.1912],[127.38266,35.19026],[127.38305,35.19007],[127.38348,35.18986],[127.38449,35.18953],[127.38663,35.1889],[127.38674,35.18888],[127.39029,35.18863],[127.39044,35.18863],[127.39053,35.18865],[127.39073,35.18875],[127.39516,35.18988],[127.40174,35.19052],[127.40547,35.18948],[127.40642,35.18909],[127.40588,35.18812],[127.40539,35.18732],[127.40519,35.18714],[127.4049,35.18704],[127.4048,35.18683],[127.40465,35.18636],[127.4046,35.18605],[127.40467,35.18569],[127.40477,35.18532],[127.40517,35.18464],[127.40551,35.18437],[127.40598,35.18407],[127.40656,35.18389],[127.40679,35.18378],[127.407,35.18364],[127.40721,35.18338],[127.40763,35.18256],[127.4077,35.18178],[127.40764,35.1816],[127.40714,35.17906],[127.40694,35.17538],[127.40697,35.17523],[127.40761,35.17422],[127.40802,35.17384],[127.41027,35.17068],[127.41082,35.16968],[127.41125,35.16882],[127.41137,35.16571],[127.41122,35.1647],[127.41093,35.16343],[127.41057,35.16303],[127.4105,35.16291],[127.41019,35.16189],[127.40996,35.16076],[127.40997,35.16057],[127.41018,35.16004],[127.41032,35.15984],[127.41152,35.15839],[127.41175,35.15526],[127.41168,35.15086],[127.41173,35.15027],[127.412,35.14974],[127.41219,35.14946],[127.41221,35.14943],[127.41214,35.14831],[127.41194,35.14762],[127.41175,35.14708],[127.41144,35.1463],[127.41088,35.14583],[127.40865,35.14494],[127.40299,35.14162],[127.40019,35.13875],[127.40016,35.13848],[127.40015,35.13838],[127.40024,35.13784],[127.40051,35.13712],[127.40136,35.13556],[127.40153,35.13528],[127.40014,35.13374],[127.39523,35.12849],[127.39418,35.12759],[127.39352,35.12741],[127.39056,35.12699],[127.38919,35.12687],[127.3888,35.12685],[127.38848,35.12677],[127.38628,35.12591],[127.3861,35.12584],[127.38577,35.12538],[127.38567,35.1251],[127.38619,35.12454],[127.3866,35.12374],[127.3868,35.12267],[127.38667,35.12171],[127.38653,35.12151],[127.38542,35.12049],[127.38458,35.11968],[127.3836,35.11856],[127.38246,35.11643],[127.38241,35.11592],[127.38276,35.1149],[127.38304,35.11461],[127.38312,35.11421],[127.38307,35.11362],[127.3828,35.11273],[127.38103,35.10925],[127.38028,35.10811],[127.37688,35.10323],[127.37593,35.10111],[127.37574,35.10085],[127.37069,35.09882],[127.36911,35.09829],[127.36592,35.098],[127.36437,35.09794],[127.3633,35.09828],[127.36321,35.09828],[127.36308,35.09827],[127.36216,35.09819],[127.36207,35.09818],[127.36181,35.09806],[127.3613,35.09782],[127.36028,35.09729],[127.35942,35.0968],[127.35595,35.09723],[127.35318,35.09761],[127.35134,35.09793],[127.35119,35.09796],[127.35107,35.098],[127.35093,35.09807],[127.35078,35.09814],[127.35064,35.09825],[127.35059,35.09832],[127.35047,35.09849],[127.3504,35.09859],[127.35029,35.09866],[127.35006,35.09874],[127.3498,35.09878],[127.34572,35.09855],[127.34555,35.09854],[127.34486,35.09849],[127.34469,35.09847],[127.34458,35.10212],[127.34425,35.10754],[127.34425,35.1076],[127.34434,35.1078],[127.34452,35.10801],[127.34518,35.10869],[127.34528,35.10879],[127.34539,35.10886],[127.34551,35.10891],[127.34572,35.10898],[127.34625,35.10935],[127.34738,35.1102],[127.34752,35.11032],[127.34766,35.11045],[127.34773,35.11055],[127.34835,35.11387],[127.34835,35.11427],[127.34833,35.1148],[127.3483,35.11494],[127.3471,35.11902],[127.34559,35.12059],[127.34523,35.12084],[127.34501,35.12095],[127.34362,35.12161],[127.34264,35.12211],[127.34257,35.12215],[127.34243,35.12225],[127.34144,35.12336],[127.33917,35.12634],[127.33875,35.12712],[127.33818,35.12808],[127.33707,35.12881],[127.33572,35.12956],[127.33508,35.12998],[127.33068,35.13685],[127.3294,35.13887],[127.32914,35.14166],[127.32895,35.14197],[127.32696,35.14318],[127.32632,35.14353],[127.32551,35.14391],[127.32423,35.14452],[127.32247,35.14539],[127.322,35.14591],[127.32172,35.14647],[127.32165,35.14721],[127.32127,35.14804],[127.321,35.14825],[127.32007,35.14841],[127.31956,35.14828],[127.31906,35.14803],[127.31869,35.14738],[127.31868,35.14736],[127.31833,35.14671],[127.31808,35.14609],[127.31746,35.14451],[127.31702,35.14324],[127.31651,35.14153],[127.31608,35.14044],[127.31572,35.13991],[127.31491,35.13911],[127.31488,35.13908],[127.31235,35.1375],[127.31031,35.13649],[127.30949,35.13612],[127.30807,35.13548],[127.3073,35.13505],[127.30663,35.13436],[127.30549,35.13295],[127.30506,35.13178],[127.30463,35.1305],[127.30376,35.1299],[127.30028,35.12846],[127.29888,35.12829],[127.29786,35.1284],[127.29631,35.1294],[127.29424,35.13131],[127.29322,35.13246],[127.29192,35.13332],[127.29091,35.13369],[127.28936,35.13404],[127.28827,35.13415],[127.28699,35.13402],[127.2857,35.13389],[127.28494,35.13361],[127.28441,35.13317],[127.28414,35.1326],[127.28415,35.13257],[127.28442,35.13142],[127.28439,35.13042],[127.284,35.12901],[127.28314,35.12701],[127.28282,35.12665],[127.2825,35.12636],[127.28208,35.12611],[127.28134,35.12585],[127.2811,35.12578],[127.28063,35.12568],[127.27994,35.12556],[127.27955,35.1255],[127.27881,35.12543],[127.27743,35.12531],[127.27661,35.12529],[127.27566,35.12531],[127.27407,35.12536],[127.27376,35.12539],[127.27361,35.12541],[127.27337,35.12547],[127.27323,35.12552],[127.273,35.12563],[127.2724,35.126],[127.27184,35.12637],[127.27078,35.12725],[127.27041,35.1277],[127.27012,35.12808],[127.26998,35.12854],[127.27045,35.12879],[127.27066,35.12891],[127.27108,35.12928],[127.27131,35.12966],[127.27154,35.1302],[127.27257,35.13308],[127.27262,35.13366],[127.27242,35.13419],[127.27213,35.135],[127.27206,35.13567],[127.27206,35.1361],[127.27224,35.13763],[127.27234,35.13813],[127.27332,35.14222],[127.2738,35.14421],[127.27418,35.14559],[127.27485,35.14747],[127.27566,35.15027],[127.2761,35.15179],[127.27598,35.15211],[127.27596,35.15253],[127.27718,35.15366],[127.2777,35.15408],[127.27835,35.15424],[127.27882,35.15433],[127.27962,35.15437],[127.28048,35.15441],[127.28099,35.15435],[127.28151,35.15433],[127.28198,35.15446],[127.28408,35.15506],[127.28479,35.15529],[127.28665,35.1561],[127.28667,35.15613],[127.28694,35.1564],[127.28707,35.15689],[127.28715,35.15734],[127.28686,35.15949],[127.28583,35.16154],[127.28556,35.16202],[127.28502,35.16261],[127.28481,35.16302],[127.28488,35.16361],[127.28515,35.16458],[127.28585,35.1658],[127.28624,35.16655],[127.28635,35.16698],[127.2868,35.17176],[127.2868,35.17214],[127.28679,35.17217],[127.28665,35.1725],[127.28631,35.17267],[127.28567,35.17272],[127.28494,35.17272],[127.28394,35.17284],[127.28247,35.17373],[127.28214,35.17402],[127.28203,35.17431],[127.28203,35.17434],[127.28197,35.17458],[127.28172,35.17551],[127.2812,35.17587],[127.27996,35.17651],[127.27921,35.17667],[127.27803,35.17697],[127.27689,35.17742],[127.27636,35.17791],[127.27615,35.17842],[127.27497,35.18298],[127.27492,35.18351],[127.27498,35.18471],[127.27536,35.18537],[127.27558,35.18589],[127.27561,35.187],[127.27552,35.18761],[127.27522,35.18843],[127.27517,35.18893],[127.27519,35.19032],[127.27525,35.19136],[127.27509,35.19312],[127.27485,35.19377],[127.2705,35.19789],[127.26887,35.19823],[127.26609,35.19853],[127.26596,35.19903],[127.26542,35.19967],[127.26405,35.20121],[127.2637,35.20159],[127.26249,35.20202],[127.26194,35.20248],[127.26139,35.20622],[127.26153,35.20671],[127.26189,35.20746],[127.26241,35.20808],[127.2632,35.2086],[127.26376,35.20896],[127.26485,35.2094],[127.26559,35.20924],[127.26639,35.20941],[127.2676,35.20998],[127.26865,35.21079],[127.2692,35.21185],[127.26965,35.21237],[127.27042,35.21272],[127.27139,35.21287],[127.2718,35.21274],[127.2724,35.21215],[127.27276,35.21197],[127.27375,35.2119],[127.27444,35.21205],[127.27657,35.21263],[127.27712,35.21281],[127.28395,35.21165],[127.28817,35.2109],[127.29087,35.21033],[127.29401,35.20979],[127.2953,35.20977],[127.29558,35.20989],[127.29558,35.21021],[127.29525,35.21075],[127.29639,35.21421],[127.29773,35.2167],[127.29781,35.21704],[127.29743,35.21765],[127.29743,35.21822],[127.29763,35.21919],[127.29824,35.22032],[127.3021,35.22227],[127.30337,35.22263],[127.30561,35.22277],[127.30737,35.22272],[127.30845,35.22253],[127.30981,35.2222],[127.30999,35.22216],[127.31219,35.22116],[127.31354,35.22047],[127.31582,35.21914],[127.31758,35.21645],[127.31796,35.21581],[127.31792,35.21388],[127.31778,35.21259],[127.31767,35.21158],[127.31772,35.2109],[127.31794,35.21008],[127.31832,35.20953],[127.31846,35.20907],[127.31886,35.20724],[127.31913,35.206],[127.31957,35.20514],[127.3202,35.20471],[127.32265,35.20414],[127.32389,35.20385],[127.3248,35.20357],[127.32755,35.20204],[127.32948,35.20079],[127.33104,35.19955],[127.33156,35.19901],[127.33206,35.19817],[127.33236,35.19724],[127.33252,35.19638],[127.33268,35.19609],[127.33272,35.19608],[127.33356,35.19588],[127.33469,35.19586],[127.3383,35.19579],[127.33927,35.19583],[127.34056,35.19591],[127.34125,35.19582],[127.34197,35.19557],[127.34312,35.19488],[127.34337,35.19413],[127.3434,35.19407],[127.34373,35.19368],[127.34526,35.19263],[127.34587,35.19224],[127.34639,35.19217],[127.347,35.19249],[127.34824,35.19334],[127.34918,35.19385],[127.35746,35.19526],[127.35793,35.19521],[127.35911,35.19468],[127.35982,35.19409],[127.3598,35.19404],[127.35952,35.19321],[127.35973,35.19233],[127.36031,35.19133],[127.36129,35.18974],[127.36259,35.18939],[127.36311,35.18921],[127.36418,35.18823],[127.36549,35.1866],[127.36618,35.18619],[127.36715,35.18602],[127.37002,35.18789],[127.3711,35.18926],[127.37268,35.19065],[127.37537,35.19275],[127.37612,35.19328],[127.37701,35.19377]]]]}},{"type":"Feature","properties":{"code":"12720360","name":"고달면","parent":"12720"},"geometry":{"type":"MultiPolygon","coordinates":[[[[127.38445,35.30328],[127.38655,35.30061],[127.38657,35.30057],[127.38657,35.30054],[127.38638,35.29838],[127.38586,35.29674],[127.38584,35.29667],[127.38577,35.29654],[127.3849,35.29525],[127.38347,35.29288],[127.38208,35.29052],[127.38136,35.288],[127.38015,35.2837],[127.38014,35.28367],[127.38015,35.28363],[127.38049,35.28274],[127.3808,35.28199],[127.38142,35.28053],[127.38161,35.28009],[127.38165,35.28008],[127.38211,35.28007],[127.38249,35.28008],[127.38535,35.27908],[127.38753,35.27827],[127.38925,35.27557],[127.38919,35.2754],[127.38915,35.27528],[127.38915,35.27521],[127.38916,35.27512],[127.38977,35.27346],[127.38982,35.27337],[127.38986,35.27333],[127.3899,35.2733],[127.38996,35.27327],[127.39073,35.27297],[127.39091,35.27276],[127.39109,35.27252],[127.39116,35.27238],[127.3921,35.26977],[127.3921,35.26923],[127.39206,35.26898],[127.39206,35.26889],[127.39208,35.26788],[127.3921,35.2678],[127.39272,35.26506],[127.39275,35.26498],[127.39281,35.2649],[127.39298,35.26472],[127.39364,35.26417],[127.39422,35.26074],[127.39444,35.2597],[127.39448,35.25961],[127.39451,35.25956],[127.39458,35.25948],[127.39469,35.25938],[127.39478,35.25934],[127.39488,35.2593],[127.39497,35.25929],[127.3951,35.25928],[127.3952,35.25927],[127.39523,35.25926],[127.39559,35.25908],[127.39569,35.25902],[127.39575,35.25897],[127.39637,35.2577],[127.39691,35.2565],[127.39772,35.25455],[127.40043,35.25037],[127.40122,35.24955],[127.40154,35.2492],[127.40164,35.24907],[127.40169,35.24896],[127.40171,35.24886],[127.40155,35.24749],[127.40291,35.24111],[127.40354,35.23672],[127.40354,35.23666],[127.40354,35.23659],[127.40335,35.23491],[127.40326,35.23447],[127.4032,35.23417],[127.40293,35.23358],[127.39952,35.23635],[127.3994,35.23643],[127.39924,35.23654],[127.39914,35.23659],[127.39902,35.23665],[127.39858,35.23683],[127.39822,35.23697],[127.39802,35.23705],[127.39777,35.23711],[127.39579,35.23728],[127.3938,35.23753],[127.39328,35.23758],[127.39304,35.23761],[127.39188,35.23754],[127.39176,35.23751],[127.39026,35.23715],[127.3902,35.23712],[127.38957,35.23672],[127.38952,35.23668],[127.38896,35.23605],[127.38641,35.23245],[127.38474,35.23014],[127.38468,35.23006],[127.37768,35.22557],[127.37755,35.2255],[127.37745,35.22546],[127.37738,35.22544],[127.37733,35.22543],[127.37363,35.22551],[127.37156,35.2257],[127.37106,35.22576],[127.37065,35.22588],[127.36869,35.22744],[127.3684,35.2277],[127.36787,35.22837],[127.36997,35.22961],[127.37055,35.23003],[127.3708,35.23058],[127.37107,35.23131],[127.37182,35.23427],[127.37185,35.2347],[127.37045,35.24002],[127.36948,35.24135],[127.36892,35.24191],[127.36247,35.24731],[127.36156,35.24798],[127.36119,35.24825],[127.3599,35.24892],[127.35886,35.24935],[127.35853,35.2493],[127.35772,35.24915],[127.35725,35.24916],[127.35663,35.24924],[127.35597,35.24964],[127.35499,35.25049],[127.35456,35.25116],[127.35186,35.25552],[127.35181,35.25564],[127.35177,35.25579],[127.35113,35.25875],[127.35022,35.26179],[127.35014,35.26205],[127.35005,35.26223],[127.34996,35.26235],[127.34903,35.26321],[127.34884,35.26337],[127.34835,35.2637],[127.34822,35.26378],[127.34623,35.26476],[127.34599,35.26487],[127.34576,35.26496],[127.34557,35.265],[127.34533,35.26501],[127.34512,35.265],[127.3447,35.26493],[127.34442,35.26488],[127.34392,35.26476],[127.34362,35.26472],[127.34346,35.26473],[127.34323,35.26477],[127.34175,35.26532],[127.34089,35.26573],[127.33898,35.26671],[127.33886,35.26678],[127.33884,35.26681],[127.33878,35.26685],[127.3387,35.26695],[127.3386,35.26717],[127.33837,35.26777],[127.33828,35.26794],[127.33813,35.26812],[127.33796,35.26828],[127.33777,35.2684],[127.33658,35.26904],[127.33585,35.26937],[127.33538,35.26955],[127.33523,35.26958],[127.33509,35.26959],[127.33496,35.26958],[127.33487,35.26955],[127.3348,35.26952],[127.33476,35.26947],[127.3347,35.26934],[127.33461,35.26926],[127.33453,35.26921],[127.33441,35.26918],[127.33422,35.26918],[127.334,35.2692],[127.33391,35.26923],[127.32824,35.27119],[127.32785,35.27132],[127.32725,35.27153],[127.32697,35.27167],[127.32674,35.27179],[127.32664,35.27189],[127.32648,35.2721],[127.32598,35.27288],[127.3247,35.27466],[127.32458,35.27489],[127.32451,35.2751],[127.32444,35.27547],[127.32443,35.27555],[127.32442,35.27585],[127.32448,35.27633],[127.32453,35.27663],[127.3246,35.27689],[127.32465,35.27704],[127.32473,35.27717],[127.32487,35.27739],[127.32549,35.27835],[127.32615,35.27933],[127.32713,35.28019],[127.32813,35.28113],[127.32964,35.28267],[127.32968,35.28273],[127.32974,35.28288],[127.32982,35.28317],[127.32985,35.28337],[127.32984,35.28352],[127.32982,35.28365],[127.32976,35.28378],[127.32909,35.28467],[127.32764,35.28749],[127.32672,35.29231],[127.32662,35.29286],[127.32657,35.29312],[127.32614,35.29662],[127.32596,35.2981],[127.32606,35.30047],[127.32609,35.30064],[127.32613,35.30079],[127.32621,35.3011],[127.32639,35.3016],[127.32691,35.30292],[127.32746,35.30455],[127.3275,35.3047],[127.32751,35.30476],[127.32751,35.30483],[127.32749,35.30491],[127.32745,35.30498],[127.32741,35.30504],[127.32734,35.30509],[127.32703,35.30525],[127.32671,35.3054],[127.32596,35.30573],[127.32531,35.306],[127.32411,35.30646],[127.32365,35.309],[127.32713,35.30989],[127.32749,35.30999],[127.32763,35.31005],[127.32778,35.31012],[127.32936,35.311],[127.32942,35.31105],[127.32996,35.3115],[127.33019,35.31173],[127.33033,35.3119],[127.3304,35.312],[127.33042,35.31204],[127.33045,35.31208],[127.33046,35.31217],[127.33047,35.31227],[127.33046,35.31236],[127.33031,35.313],[127.33028,35.31305],[127.33023,35.31308],[127.33018,35.31311],[127.33005,35.31317],[127.33,35.31321],[127.32996,35.31325],[127.32994,35.31329],[127.32993,35.31337],[127.32994,35.31351],[127.32996,35.31365],[127.33001,35.31379],[127.33024,35.31431],[127.33032,35.31446],[127.33044,35.31463],[127.33054,35.31475],[127.33071,35.31494],[127.33077,35.31499],[127.33082,35.31503],[127.33091,35.31508],[127.33098,35.3151],[127.33106,35.31512],[127.33114,35.31513],[127.33387,35.31536],[127.34554,35.3182],[127.34789,35.3188],[127.34925,35.31943],[127.34929,35.31947],[127.34934,35.31951],[127.34941,35.31956],[127.35033,35.32025],[127.35048,35.32034],[127.35062,35.32042],[127.35071,35.32045],[127.35076,35.32047],[127.35085,35.3205],[127.35099,35.32053],[127.35619,35.32126],[127.35624,35.32126],[127.35636,35.32126],[127.35645,35.32124],[127.35654,35.32122],[127.35703,35.321],[127.35755,35.32105],[127.35764,35.32106],[127.35782,35.32105],[127.35799,35.32105],[127.35803,35.32104],[127.35806,35.32104],[127.35816,35.32101],[127.3582,35.32099],[127.35919,35.32048],[127.35927,35.32042],[127.35936,35.32035],[127.35941,35.32031],[127.35946,35.32026],[127.35958,35.32015],[127.35967,35.32007],[127.35971,35.32001],[127.36029,35.3192],[127.36035,35.31909],[127.36037,35.319],[127.36037,35.31896],[127.36234,35.31713],[127.36695,35.31459],[127.36709,35.31452],[127.36749,35.31435],[127.36762,35.3143],[127.36776,35.31425],[127.36786,35.31424],[127.36795,35.31423],[127.36811,35.31422],[127.36827,35.31423],[127.36846,35.31426],[127.36859,35.31428],[127.36961,35.31445],[127.37045,35.31459],[127.37061,35.31461],[127.37078,35.31461],[127.37091,35.3146],[127.37095,35.31459],[127.37099,35.31459],[127.37113,35.31455],[127.37133,35.31447],[127.37152,35.31439],[127.37168,35.31431],[127.37458,35.31251],[127.37715,35.31085],[127.37721,35.3108],[127.37724,35.31075],[127.3791,35.30683],[127.38029,35.30453],[127.38317,35.30389],[127.38445,35.30328]]]]}},{"type":"Feature","properties":{"code":"12720370","name":"옥과면","parent":"12720"},"geometry":{"type":"MultiPolygon","coordinates":[[[[127.1861,35.33619],[127.1834,35.33237],[127.18313,35.33008],[127.18325,35.32883],[127.1834,35.32805],[127.18418,35.32634],[127.18434,35.32602],[127.18445,35.32581],[127.1866,35.32286],[127.18684,35.32255],[127.18701,35.32241],[127.18711,35.32236],[127.1867,35.32162],[127.1866,35.32151],[127.18257,35.31962],[127.18239,35.31957],[127.18226,35.31955],[127.18212,35.3198],[127.18203,35.32011],[127.18194,35.32023],[127.18133,35.3206],[127.18104,35.32057],[127.1809,35.32055],[127.18086,35.32052],[127.17844,35.31769],[127.17838,35.31758],[127.17837,35.31742],[127.17746,35.31528],[127.176,35.31217],[127.17412,35.30891],[127.17393,35.30884],[127.17355,35.3087],[127.17335,35.30862],[127.17319,35.30854],[127.17303,35.30844],[127.17295,35.30838],[127.17285,35.30826],[127.17277,35.30802],[127.17274,35.30754],[127.17279,35.30739],[127.1729,35.30727],[127.17645,35.30338],[127.17862,35.30326],[127.17881,35.30323],[127.179,35.3032],[127.17918,35.30316],[127.17931,35.30314],[127.17944,35.30308],[127.1797,35.30298],[127.17977,35.30294],[127.17982,35.30288],[127.17987,35.30278],[127.1799,35.30267],[127.17993,35.3025],[127.17994,35.30237],[127.17991,35.30232],[127.17985,35.30228],[127.17681,35.30031],[127.17489,35.29929],[127.17114,35.29867],[127.17102,35.29871],[127.17091,35.29873],[127.17083,35.29872],[127.17071,35.29863],[127.16981,35.29731],[127.16944,35.29673],[127.16941,35.29662],[127.16947,35.29496],[127.16816,35.28985],[127.1676,35.28824],[127.16734,35.28763],[127.16636,35.28754],[127.1617,35.28612],[127.15585,35.28288],[127.15406,35.28221],[127.14992,35.28033],[127.14985,35.2803],[127.14974,35.28023],[127.14962,35.28011],[127.14955,35.28],[127.14951,35.27993],[127.1495,35.27986],[127.14948,35.27973],[127.14949,35.27965],[127.14961,35.27916],[127.1497,35.27887],[127.15022,35.27743],[127.15069,35.27637],[127.15073,35.27627],[127.15072,35.27599],[127.15048,35.27535],[127.15032,35.27518],[127.15018,35.27512],[127.14994,35.27511],[127.14936,35.27515],[127.14732,35.27541],[127.14685,35.2756],[127.14593,35.27595],[127.14541,35.27614],[127.14527,35.27614],[127.14514,35.27588],[127.14453,35.2743],[127.14442,35.27401],[127.1444,35.27387],[127.14441,35.27162],[127.14452,35.26989],[127.14472,35.26876],[127.14474,35.26854],[127.14472,35.26849],[127.14107,35.26624],[127.14091,35.2662],[127.13895,35.26593],[127.13694,35.26562],[127.13403,35.26518],[127.13353,35.2651],[127.13392,35.26336],[127.134,35.26328],[127.13372,35.25928],[127.13197,35.25918],[127.1318,35.25915],[127.12671,35.25788],[127.12614,35.25762],[127.1257,35.25738],[127.12291,35.25567],[127.12283,35.2556],[127.1226,35.25527],[127.12255,35.25512],[127.12222,35.25398],[127.12217,35.25348],[127.12251,35.25313],[127.12259,35.25306],[127.12245,35.25288],[127.12225,35.25266],[127.12203,35.25248],[127.12176,35.2523],[127.12145,35.25214],[127.12125,35.25209],[127.12108,35.25209],[127.12099,35.25213],[127.11781,35.25527],[127.11773,35.25547],[127.11758,35.25594],[127.11767,35.2566],[127.11786,35.25736],[127.11799,35.25785],[127.11829,35.25885],[127.11853,35.25929],[127.11882,35.25966],[127.11916,35.25992],[127.12015,35.26048],[127.12077,35.26087],[127.12216,35.26194],[127.12258,35.26236],[127.12338,35.2634],[127.12446,35.26527],[127.12487,35.26635],[127.12461,35.26691],[127.12453,35.26706],[127.12441,35.26728],[127.12402,35.26747],[127.12255,35.26756],[127.11972,35.26925],[127.11869,35.27134],[127.11671,35.27476],[127.11546,35.27685],[127.11537,35.2769],[127.11468,35.27709],[127.11454,35.27711],[127.11097,35.27723],[127.11079,35.2772],[127.11001,35.27697],[127.10691,35.27749],[127.10686,35.27753],[127.10647,35.27887],[127.10646,35.27893],[127.10644,35.2798],[127.10644,35.27993],[127.10647,35.27998],[127.10387,35.28228],[127.10164,35.28277],[127.09863,35.28449],[127.09857,35.28453],[127.09497,35.28884],[127.0948,35.28908],[127.09369,35.2911],[127.09398,35.29127],[127.09493,35.29232],[127.09495,35.29236],[127.0959,35.295],[127.09586,35.29502],[127.09582,35.29505],[127.09536,35.29595],[127.09525,35.29618],[127.09493,35.29694],[127.09486,35.29716],[127.09483,35.29727],[127.09467,35.29969],[127.09469,35.29978],[127.09471,35.29984],[127.09554,35.30134],[127.09557,35.30137],[127.09562,35.3014],[127.09569,35.30143],[127.09667,35.30174],[127.09774,35.30196],[127.10098,35.3019],[127.10108,35.3019],[127.10125,35.30186],[127.10138,35.3018],[127.10176,35.30157],[127.1019,35.30148],[127.10201,35.30138],[127.10212,35.30129],[127.1023,35.30113],[127.10278,35.30023],[127.10282,35.30019],[127.10296,35.30009],[127.10313,35.29997],[127.10329,35.29987],[127.10339,35.29983],[127.1055,35.2992],[127.10555,35.2992],[127.10572,35.29922],[127.10854,35.29961],[127.10988,35.29986],[127.11392,35.29971],[127.11407,35.29966],[127.11429,35.29957],[127.11436,35.29955],[127.11568,35.29955],[127.11572,35.29957],[127.12194,35.30246],[127.12581,35.30336],[127.12597,35.30342],[127.12612,35.30352],[127.12622,35.30365],[127.1289,35.30754],[127.12978,35.3091],[127.1298,35.30917],[127.12982,35.3092],[127.12986,35.30925],[127.12991,35.30928],[127.12995,35.30931],[127.13012,35.30933],[127.13027,35.30933],[127.13158,35.30912],[127.1325,35.30888],[127.13294,35.30871],[127.13337,35.3086],[127.13382,35.3085],[127.13413,35.30846],[127.13434,35.30847],[127.13981,35.30902],[127.14229,35.30863],[127.14239,35.30863],[127.14258,35.30862],[127.14307,35.30867],[127.14408,35.3088],[127.14513,35.30904],[127.1454,35.30912],[127.14552,35.30919],[127.14558,35.30925],[127.14658,35.31088],[127.14668,35.31139],[127.14689,35.31332],[127.14689,35.31344],[127.1468,35.31435],[127.14676,35.31447],[127.14661,35.31472],[127.14647,35.31496],[127.14644,35.31508],[127.14644,35.31517],[127.14647,35.31528],[127.14657,35.31541],[127.14674,35.31554],[127.147,35.31571],[127.14973,35.31738],[127.15139,35.31798],[127.15591,35.32278],[127.15862,35.32566],[127.15933,35.32649],[127.15948,35.32663],[127.16018,35.32713],[127.16061,35.32744],[127.16093,35.32763],[127.16113,35.32772],[127.16162,35.32786],[127.16195,35.32791],[127.1621,35.32794],[127.16227,35.32797],[127.16243,35.328],[127.16259,35.32805],[127.16399,35.3289],[127.16527,35.32969],[127.16635,35.33048],[127.1679,35.3317],[127.16908,35.33228],[127.17133,35.33295],[127.17141,35.33296],[127.17145,35.33295],[127.1715,35.33292],[127.17156,35.33289],[127.1729,35.33178],[127.17299,35.3317],[127.17298,35.3316],[127.17294,35.33147],[127.1729,35.33138],[127.17286,35.33123],[127.17285,35.33115],[127.17282,35.3309],[127.17282,35.33082],[127.17283,35.33062],[127.17284,35.33049],[127.17285,35.33042],[127.1729,35.33033],[127.17593,35.33122],[127.17963,35.33239],[127.17986,35.33302],[127.18029,35.33453],[127.18045,35.33617],[127.18045,35.33633],[127.18035,35.33656],[127.18009,35.33684],[127.1799,35.33704],[127.17981,35.33718],[127.1798,35.33723],[127.17979,35.33737],[127.17995,35.33753],[127.18032,35.33777],[127.1807,35.33786],[127.18103,35.33793],[127.18152,35.33801],[127.18163,35.33802],[127.18191,35.33793],[127.18366,35.33733],[127.18441,35.337],[127.18592,35.33629],[127.186,35.33625],[127.1861,35.33619]]]]}},{"type":"Feature","properties":{"code":"12720380","name":"입면","parent":"12720"},"geometry":{"type":"MultiPolygon","coordinates":[[[[127.23741,35.32814],[127.23562,35.32733],[127.23437,35.32627],[127.2338,35.32573],[127.23375,35.32563],[127.23294,35.32281],[127.23285,35.32245],[127.23278,35.32158],[127.23279,35.32149],[127.23295,35.32032],[127.23221,35.31624],[127.23175,35.31449],[127.23179,35.30773],[127.23241,35.30446],[127.23272,35.3038],[127.23279,35.30282],[127.23283,35.30143],[127.23283,35.30134],[127.2328,35.30124],[127.23268,35.30102],[127.23258,35.30088],[127.23248,35.30077],[127.23279,35.29933],[127.23317,35.29783],[127.23515,35.29365],[127.23703,35.28934],[127.23721,35.28873],[127.23726,35.28858],[127.23729,35.28854],[127.23735,35.28843],[127.23799,35.28772],[127.23841,35.28725],[127.23852,35.28717],[127.23905,35.28682],[127.23944,35.28662],[127.23963,35.28655],[127.23971,35.28651],[127.23975,35.28647],[127.23979,35.28641],[127.24101,35.28427],[127.24123,35.2838],[127.24166,35.28187],[127.24181,35.28061],[127.23947,35.27676],[127.23861,35.27559],[127.23755,35.27456],[127.23601,35.27306],[127.23589,35.27296],[127.23533,35.27244],[127.23525,35.27228],[127.23517,35.27212],[127.23434,35.27007],[127.23432,35.26997],[127.23353,35.26587],[127.23353,35.26576],[127.23358,35.26472],[127.23359,35.26462],[127.23362,35.26451],[127.23371,35.26441],[127.23395,35.26431],[127.23431,35.26413],[127.23496,35.26315],[127.23499,35.26303],[127.23503,35.26207],[127.23502,35.26194],[127.23495,35.2618],[127.23482,35.26157],[127.23478,35.26152],[127.23401,35.26054],[127.23397,35.26049],[127.2339,35.26045],[127.23356,35.26026],[127.23259,35.25985],[127.23172,35.25948],[127.23105,35.25907],[127.22877,35.25736],[127.22863,35.25725],[127.22858,35.25719],[127.22849,35.25691],[127.22531,35.25843],[127.22104,35.26167],[127.21828,35.2637],[127.21752,35.26419],[127.2152,35.26543],[127.21485,35.26559],[127.21466,35.26565],[127.21446,35.26564],[127.21423,35.26552],[127.214,35.26538],[127.21365,35.26517],[127.21292,35.26475],[127.21261,35.26458],[127.21233,35.26445],[127.21211,35.26441],[127.21148,35.26438],[127.20949,35.2645],[127.207,35.26474],[127.20688,35.26479],[127.20662,35.26493],[127.20636,35.26509],[127.20613,35.26531],[127.20538,35.26605],[127.20524,35.2662],[127.20416,35.26827],[127.20415,35.26834],[127.20415,35.26862],[127.20422,35.26887],[127.20432,35.26923],[127.20438,35.26952],[127.20432,35.26967],[127.20346,35.27043],[127.20028,35.27292],[127.20008,35.27307],[127.19983,35.27321],[127.19878,35.27374],[127.19864,35.27379],[127.19841,35.27383],[127.1979,35.27392],[127.19758,35.27394],[127.19307,35.27731],[127.19116,35.28001],[127.19121,35.2804],[127.1912,35.28057],[127.19118,35.28078],[127.19086,35.28211],[127.1908,35.28228],[127.1907,35.28251],[127.19031,35.28325],[127.1902,35.28345],[127.19012,35.28353],[127.18998,35.28363],[127.18813,35.28486],[127.18806,35.2849],[127.18802,35.28492],[127.18777,35.28498],[127.18744,35.28502],[127.1833,35.28544],[127.1832,35.28545],[127.18281,35.28544],[127.18258,35.28543],[127.18222,35.2854],[127.18204,35.28536],[127.18124,35.28512],[127.18026,35.28483],[127.18003,35.28477],[127.17958,35.28468],[127.17946,35.28466],[127.17766,35.28438],[127.17679,35.28428],[127.17605,35.28508],[127.17495,35.28654],[127.17384,35.28764],[127.17326,35.28837],[127.17227,35.28881],[127.17127,35.28905],[127.1699,35.28841],[127.16915,35.28794],[127.16863,35.28768],[127.16807,35.28756],[127.1674,35.28762],[127.16734,35.28763],[127.1676,35.28824],[127.16816,35.28985],[127.16947,35.29496],[127.16941,35.29662],[127.16944,35.29673],[127.16981,35.29731],[127.17071,35.29863],[127.17083,35.29872],[127.17091,35.29873],[127.17102,35.29871],[127.17114,35.29867],[127.17489,35.29929],[127.17681,35.30031],[127.17985,35.30228],[127.17991,35.30232],[127.17994,35.30237],[127.17993,35.3025],[127.1799,35.30267],[127.17987,35.30278],[127.17982,35.30288],[127.17977,35.30294],[127.1797,35.30298],[127.17944,35.30308],[127.17931,35.30314],[127.17918,35.30316],[127.179,35.3032],[127.17881,35.30323],[127.17862,35.30326],[127.17645,35.30338],[127.1729,35.30727],[127.17279,35.30739],[127.17274,35.30754],[127.17277,35.30802],[127.17285,35.30826],[127.17295,35.30838],[127.17303,35.30844],[127.17319,35.30854],[127.17335,35.30862],[127.17355,35.3087],[127.17393,35.30884],[127.17412,35.30891],[127.176,35.31217],[127.17746,35.31528],[127.17837,35.31742],[127.17838,35.31758],[127.17844,35.31769],[127.18086,35.32052],[127.1809,35.32055],[127.18104,35.32057],[127.18133,35.3206],[127.18194,35.32023],[127.18203,35.32011],[127.18212,35.3198],[127.18226,35.31955],[127.18239,35.31957],[127.18257,35.31962],[127.1866,35.32151],[127.1867,35.32162],[127.18711,35.32236],[127.18895,35.3217],[127.19446,35.31979],[127.19473,35.31971],[127.19495,35.31964],[127.19562,35.31942],[127.19625,35.31919],[127.1964,35.31914],[127.19659,35.31906],[127.19688,35.31891],[127.19724,35.31867],[127.19742,35.31854],[127.19767,35.31828],[127.1979,35.31802],[127.19878,35.31713],[127.19887,35.31704],[127.19924,35.31676],[127.19976,35.31636],[127.20088,35.3158],[127.2018,35.31565],[127.20185,35.31565],[127.20293,35.31556],[127.20359,35.31552],[127.20994,35.31536],[127.211,35.31546],[127.21368,35.31595],[127.21485,35.31617],[127.21552,35.31638],[127.21574,35.31658],[127.21577,35.31661],[127.21588,35.31673],[127.21726,35.31892],[127.21735,35.31953],[127.21739,35.32017],[127.21742,35.32076],[127.21727,35.32267],[127.21694,35.32496],[127.21648,35.32682],[127.21627,35.3277],[127.21623,35.32778],[127.21613,35.328],[127.21609,35.32805],[127.21605,35.32834],[127.21603,35.32872],[127.21602,35.32911],[127.21603,35.32921],[127.21604,35.32933],[127.21611,35.32958],[127.21628,35.32996],[127.21894,35.33445],[127.21917,35.33481],[127.21959,35.3354],[127.21964,35.33545],[127.21968,35.33549],[127.2197,35.33551],[127.21995,35.3357],[127.22006,35.33577],[127.22023,35.33587],[127.22117,35.33629],[127.22158,35.33643],[127.22168,35.33646],[127.22179,35.33649],[127.22227,35.33663],[127.22265,35.3367],[127.2229,35.3367],[127.22451,35.33663],[127.22548,35.33647],[127.22606,35.33637],[127.23038,35.3355],[127.23117,35.33528],[127.2316,35.33531],[127.23166,35.3353],[127.2317,35.33529],[127.23179,35.33527],[127.23217,35.33507],[127.23239,35.33494],[127.23248,35.33486],[127.23259,35.33476],[127.23267,35.33469],[127.23273,35.33463],[127.23281,35.33453],[127.23404,35.33284],[127.23415,35.33215],[127.23423,35.33155],[127.2343,35.33126],[127.23444,35.33082],[127.2346,35.33036],[127.23503,35.32973],[127.23571,35.32915],[127.23737,35.32815],[127.23741,35.32814]]]]}},{"type":"Feature","properties":{"code":"12720390","name":"겸면","parent":"12720"},"geometry":{"type":"MultiPolygon","coordinates":[[[[127.22849,35.25691],[127.22844,35.25592],[127.22627,35.25536],[127.22096,35.25382],[127.21811,35.25342],[127.21566,35.25321],[127.21545,35.25318],[127.21522,35.25313],[127.21496,35.25306],[127.21469,35.25278],[127.2147,35.25261],[127.21499,35.25216],[127.21529,35.25182],[127.21587,35.25126],[127.21614,35.25079],[127.21623,35.24887],[127.21613,35.24839],[127.21571,35.2477],[127.21514,35.24703],[127.21442,35.24649],[127.21384,35.2462],[127.21303,35.24586],[127.21235,35.24566],[127.2104,35.24474],[127.20686,35.24275],[127.20414,35.24104],[127.2003,35.23998],[127.19982,35.23652],[127.19976,35.23544],[127.19928,35.23401],[127.19887,35.2334],[127.19856,35.23303],[127.19835,35.23262],[127.19828,35.23247],[127.19839,35.23106],[127.19847,35.23082],[127.19898,35.22984],[127.19934,35.22834],[127.19947,35.2273],[127.19938,35.2264],[127.19691,35.21997],[127.19619,35.21843],[127.19548,35.21704],[127.19524,35.21662],[127.19439,35.2156],[127.19336,35.21476],[127.18925,35.21206],[127.18867,35.21186],[127.18836,35.21181],[127.18446,35.21419],[127.184,35.2147],[127.18348,35.21564],[127.18333,35.21704],[127.18323,35.21776],[127.18279,35.21833],[127.18209,35.21892],[127.18141,35.21934],[127.18064,35.21941],[127.18007,35.2193],[127.17937,35.21922],[127.17897,35.21922],[127.17677,35.21938],[127.17651,35.21952],[127.17579,35.22011],[127.17551,35.22032],[127.17293,35.22179],[127.17236,35.22203],[127.16907,35.22334],[127.16657,35.22337],[127.16628,35.22323],[127.16486,35.22224],[127.16341,35.22126],[127.16188,35.22029],[127.1615,35.22015],[127.16113,35.2201],[127.16103,35.22013],[127.16058,35.22032],[127.15943,35.22125],[127.15702,35.22484],[127.15445,35.22761],[127.15242,35.23195],[127.15224,35.23243],[127.15193,35.23543],[127.15197,35.23662],[127.15198,35.23718],[127.15175,35.23779],[127.15082,35.23984],[127.15029,35.24091],[127.15016,35.24144],[127.15022,35.24197],[127.15052,35.24267],[127.15049,35.24318],[127.14968,35.24685],[127.14922,35.24761],[127.148,35.24955],[127.14738,35.24989],[127.14587,35.25011],[127.14579,35.25013],[127.14404,35.2505],[127.14283,35.25102],[127.14147,35.25164],[127.14055,35.25245],[127.13966,35.25351],[127.1396,35.25365],[127.13952,35.25468],[127.13953,35.25483],[127.13981,35.25548],[127.14018,35.25611],[127.14042,35.25644],[127.14083,35.25699],[127.14094,35.25726],[127.14099,35.25779],[127.14094,35.25787],[127.14024,35.25826],[127.14004,35.25837],[127.13928,35.25879],[127.13898,35.25886],[127.13824,35.25895],[127.13759,35.25902],[127.13729,35.25902],[127.13652,35.25867],[127.13625,35.25848],[127.13573,35.25799],[127.13556,35.25788],[127.1354,35.25777],[127.13505,35.25773],[127.13495,35.25774],[127.13481,35.25782],[127.13372,35.25928],[127.134,35.26328],[127.13392,35.26336],[127.13353,35.2651],[127.13403,35.26518],[127.13694,35.26562],[127.13895,35.26593],[127.14091,35.2662],[127.14107,35.26624],[127.14472,35.26849],[127.14474,35.26854],[127.14472,35.26876],[127.14452,35.26989],[127.14441,35.27162],[127.1444,35.27387],[127.14442,35.27401],[127.14453,35.2743],[127.14514,35.27588],[127.14527,35.27614],[127.14541,35.27614],[127.14593,35.27595],[127.14685,35.2756],[127.14732,35.27541],[127.14936,35.27515],[127.14994,35.27511],[127.15018,35.27512],[127.15032,35.27518],[127.15048,35.27535],[127.15072,35.27599],[127.15073,35.27627],[127.15069,35.27637],[127.15022,35.27743],[127.1497,35.27887],[127.14961,35.27916],[127.14949,35.27965],[127.14948,35.27973],[127.1495,35.27986],[127.14951,35.27993],[127.14955,35.28],[127.14962,35.28011],[127.14974,35.28023],[127.14985,35.2803],[127.14992,35.28033],[127.15406,35.28221],[127.15585,35.28288],[127.1617,35.28612],[127.16636,35.28754],[127.16734,35.28763],[127.1674,35.28762],[127.16807,35.28756],[127.16863,35.28768],[127.16915,35.28794],[127.1699,35.28841],[127.17127,35.28905],[127.17227,35.28881],[127.17326,35.28837],[127.17384,35.28764],[127.17495,35.28654],[127.17605,35.28508],[127.17679,35.28428],[127.17766,35.28438],[127.17946,35.28466],[127.17958,35.28468],[127.18003,35.28477],[127.18026,35.28483],[127.18124,35.28512],[127.18204,35.28536],[127.18222,35.2854],[127.18258,35.28543],[127.18281,35.28544],[127.1832,35.28545],[127.1833,35.28544],[127.18744,35.28502],[127.18777,35.28498],[127.18802,35.28492],[127.18806,35.2849],[127.18813,35.28486],[127.18998,35.28363],[127.19012,35.28353],[127.1902,35.28345],[127.19031,35.28325],[127.1907,35.28251],[127.1908,35.28228],[127.19086,35.28211],[127.19118,35.28078],[127.1912,35.28057],[127.19121,35.2804],[127.19116,35.28001],[127.19307,35.27731],[127.19758,35.27394],[127.1979,35.27392],[127.19841,35.27383],[127.19864,35.27379],[127.19878,35.27374],[127.19983,35.27321],[127.20008,35.27307],[127.20028,35.27292],[127.20346,35.27043],[127.20432,35.26967],[127.20438,35.26952],[127.20432,35.26923],[127.20422,35.26887],[127.20415,35.26862],[127.20415,35.26834],[127.20416,35.26827],[127.20524,35.2662],[127.20538,35.26605],[127.20613,35.26531],[127.20636,35.26509],[127.20662,35.26493],[127.20688,35.26479],[127.207,35.26474],[127.20949,35.2645],[127.21148,35.26438],[127.21211,35.26441],[127.21233,35.26445],[127.21261,35.26458],[127.21292,35.26475],[127.21365,35.26517],[127.214,35.26538],[127.21423,35.26552],[127.21446,35.26564],[127.21466,35.26565],[127.21485,35.26559],[127.2152,35.26543],[127.21752,35.26419],[127.21828,35.2637],[127.22104,35.26167],[127.22531,35.25843],[127.22849,35.25691]]]]}},{"type":"Feature","properties":{"code":"12720400","name":"오산면","parent":"12720"},"geometry":{"type":"MultiPolygon","coordinates":[[[[127.13372,35.25928],[127.13481,35.25782],[127.13495,35.25774],[127.13505,35.25773],[127.1354,35.25777],[127.13556,35.25788],[127.13573,35.25799],[127.13625,35.25848],[127.13652,35.25867],[127.13729,35.25902],[127.13759,35.25902],[127.13824,35.25895],[127.13898,35.25886],[127.13928,35.25879],[127.14004,35.25837],[127.14024,35.25826],[127.14094,35.25787],[127.14099,35.25779],[127.14094,35.25726],[127.14083,35.25699],[127.14042,35.25644],[127.14018,35.25611],[127.13981,35.25548],[127.13953,35.25483],[127.13952,35.25468],[127.1396,35.25365],[127.13966,35.25351],[127.14055,35.25245],[127.14147,35.25164],[127.14283,35.25102],[127.14404,35.2505],[127.14579,35.25013],[127.14587,35.25011],[127.14738,35.24989],[127.148,35.24955],[127.14922,35.24761],[127.14968,35.24685],[127.15049,35.24318],[127.15052,35.24267],[127.15022,35.24197],[127.15016,35.24144],[127.15029,35.24091],[127.15082,35.23984],[127.15175,35.23779],[127.15198,35.23718],[127.15197,35.23662],[127.15193,35.23543],[127.15224,35.23243],[127.15242,35.23195],[127.15445,35.22761],[127.15702,35.22484],[127.15943,35.22125],[127.16058,35.22032],[127.16103,35.22013],[127.16113,35.2201],[127.1615,35.22015],[127.16188,35.22029],[127.16341,35.22126],[127.16486,35.22224],[127.16628,35.22323],[127.16657,35.22337],[127.16907,35.22334],[127.17236,35.22203],[127.17293,35.22179],[127.17551,35.22032],[127.17579,35.22011],[127.17651,35.21952],[127.17677,35.21938],[127.17897,35.21922],[127.17937,35.21922],[127.18007,35.2193],[127.18064,35.21941],[127.18141,35.21934],[127.18209,35.21892],[127.18279,35.21833],[127.18323,35.21776],[127.18333,35.21704],[127.18348,35.21564],[127.184,35.2147],[127.18446,35.21419],[127.18422,35.21421],[127.18338,35.21418],[127.17929,35.21301],[127.17794,35.21244],[127.17402,35.20955],[127.17071,35.20652],[127.1703,35.20596],[127.1697,35.20543],[127.16682,35.2036],[127.16098,35.20009],[127.15154,35.19589],[127.15118,35.19576],[127.14614,35.19445],[127.14535,35.19426],[127.14493,35.19423],[127.14443,35.19425],[127.14008,35.19486],[127.13621,35.19434],[127.13299,35.194],[127.13206,35.19391],[127.13167,35.19391],[127.13104,35.194],[127.12708,35.19477],[127.12659,35.19492],[127.12656,35.19496],[127.12635,35.1952],[127.12629,35.19554],[127.1262,35.1961],[127.12599,35.19657],[127.1255,35.19694],[127.12273,35.19761],[127.12264,35.19762],[127.12247,35.19762],[127.12067,35.19741],[127.12055,35.19736],[127.12044,35.19729],[127.12025,35.19707],[127.12002,35.19679],[127.11975,35.19638],[127.11959,35.19616],[127.11923,35.19578],[127.11832,35.19496],[127.11814,35.19481],[127.11799,35.19473],[127.11779,35.19466],[127.11741,35.19457],[127.11713,35.19458],[127.11699,35.19459],[127.11688,35.19466],[127.11506,35.19544],[127.11217,35.19704],[127.11183,35.19728],[127.11095,35.19787],[127.11082,35.1979],[127.1107,35.19791],[127.11055,35.19787],[127.10863,35.19759],[127.10659,35.19822],[127.10644,35.1983],[127.10552,35.19902],[127.10545,35.1991],[127.10542,35.19916],[127.10536,35.20177],[127.10535,35.20193],[127.1054,35.20208],[127.10551,35.20221],[127.10561,35.20226],[127.10576,35.20236],[127.10585,35.20242],[127.10595,35.20248],[127.10609,35.20262],[127.10622,35.20283],[127.10633,35.20314],[127.10637,35.2033],[127.10641,35.20357],[127.10638,35.20387],[127.10632,35.20409],[127.10615,35.20427],[127.10561,35.20458],[127.10527,35.20472],[127.10477,35.20491],[127.10442,35.20499],[127.10412,35.20501],[127.10204,35.20631],[127.10194,35.20823],[127.10173,35.21113],[127.10106,35.21197],[127.1005,35.21258],[127.09911,35.21469],[127.09731,35.21754],[127.09726,35.21772],[127.09728,35.21811],[127.0962,35.22157],[127.09496,35.22268],[127.09366,35.22535],[127.09357,35.22567],[127.09328,35.22712],[127.09323,35.22746],[127.09312,35.23007],[127.09313,35.23022],[127.09315,35.23033],[127.09323,35.23053],[127.09335,35.23084],[127.09339,35.23092],[127.09085,35.23402],[127.08908,35.23567],[127.08794,35.23736],[127.08793,35.23922],[127.0879,35.23963],[127.08745,35.24236],[127.0874,35.24251],[127.08515,35.24508],[127.0847,35.24556],[127.08458,35.24568],[127.08443,35.24582],[127.0843,35.24594],[127.08268,35.24733],[127.08248,35.24748],[127.0824,35.24754],[127.08229,35.24759],[127.08093,35.24813],[127.08154,35.24821],[127.08168,35.24825],[127.08183,35.2483],[127.0822,35.24843],[127.0823,35.24847],[127.08598,35.25095],[127.08951,35.25377],[127.08983,35.25403],[127.0902,35.25444],[127.09058,35.25495],[127.09147,35.25617],[127.09173,35.25659],[127.09186,35.25694],[127.09184,35.25722],[127.09174,35.25741],[127.09171,35.25751],[127.09175,35.25765],[127.09188,35.25783],[127.09292,35.25869],[127.09367,35.25911],[127.09633,35.26072],[127.09694,35.26109],[127.09728,35.26132],[127.09745,35.26144],[127.0976,35.26163],[127.09801,35.26222],[127.09829,35.26263],[127.0984,35.26292],[127.0985,35.26329],[127.09946,35.2676],[127.09953,35.26921],[127.09949,35.26932],[127.09922,35.26978],[127.09913,35.26992],[127.09899,35.27008],[127.0985,35.27032],[127.09791,35.27062],[127.09772,35.27066],[127.09747,35.27065],[127.09628,35.271],[127.09596,35.2713],[127.09474,35.27246],[127.09327,35.27415],[127.09144,35.27746],[127.09142,35.27758],[127.0917,35.27876],[127.09193,35.28005],[127.09198,35.28037],[127.09197,35.28051],[127.09195,35.28062],[127.09102,35.28385],[127.09079,35.28751],[127.09079,35.28775],[127.09079,35.2879],[127.09092,35.28838],[127.09098,35.28852],[127.09121,35.28893],[127.09132,35.28909],[127.09208,35.28987],[127.09236,35.29017],[127.09251,35.29031],[127.09305,35.29073],[127.09369,35.2911],[127.0948,35.28908],[127.09497,35.28884],[127.09857,35.28453],[127.09863,35.28449],[127.10164,35.28277],[127.10387,35.28228],[127.10647,35.27998],[127.10644,35.27993],[127.10644,35.2798],[127.10646,35.27893],[127.10647,35.27887],[127.10686,35.27753],[127.10691,35.27749],[127.11001,35.27697],[127.11079,35.2772],[127.11097,35.27723],[127.11454,35.27711],[127.11468,35.27709],[127.11537,35.2769],[127.11546,35.27685],[127.11671,35.27476],[127.11869,35.27134],[127.11972,35.26925],[127.12255,35.26756],[127.12402,35.26747],[127.12441,35.26728],[127.12453,35.26706],[127.12461,35.26691],[127.12487,35.26635],[127.12446,35.26527],[127.12338,35.2634],[127.12258,35.26236],[127.12216,35.26194],[127.12077,35.26087],[127.12015,35.26048],[127.11916,35.25992],[127.11882,35.25966],[127.11853,35.25929],[127.11829,35.25885],[127.11799,35.25785],[127.11786,35.25736],[127.11767,35.2566],[127.11758,35.25594],[127.11773,35.25547],[127.11781,35.25527],[127.12099,35.25213],[127.12108,35.25209],[127.12125,35.25209],[127.12145,35.25214],[127.12176,35.2523],[127.12203,35.25248],[127.12225,35.25266],[127.12245,35.25288],[127.12259,35.25306],[127.12251,35.25313],[127.12217,35.25348],[127.12222,35.25398],[127.12255,35.25512],[127.1226,35.25527],[127.12283,35.2556],[127.12291,35.25567],[127.1257,35.25738],[127.12614,35.25762],[127.12671,35.25788],[127.1318,35.25915],[127.13197,35.25918],[127.13372,35.25928]]]]}}]}