{"type":"FeatureCollection","features":[{"type":"Feature","properties":{"code":"48850250","name":"하동읍","parent":"48850"},"geometry":{"type":"MultiPolygon","coordinates":[[[[127.73058,35.1276],[127.73112,35.12613],[127.73065,35.12327],[127.72885,35.12091],[127.72739,35.11718],[127.72708,35.11624],[127.7259,35.11192],[127.72588,35.1118],[127.72586,35.11167],[127.72586,35.11154],[127.7259,35.1107],[127.72591,35.11063],[127.72597,35.11056],[127.72683,35.10984],[127.72693,35.10979],[127.72722,35.10972],[127.72727,35.10972],[127.73187,35.10909],[127.73674,35.10723],[127.73981,35.10559],[127.74179,35.10404],[127.7431,35.10308],[127.74614,35.10102],[127.74741,35.10022],[127.74785,35.10006],[127.74805,35.09998],[127.74892,35.09839],[127.7522,35.09401],[127.75312,35.0929],[127.75336,35.09243],[127.7535,35.09202],[127.75349,35.09182],[127.75348,35.0917],[127.75302,35.08889],[127.7529,35.08833],[127.75267,35.088],[127.75209,35.08738],[127.75174,35.08677],[127.75166,35.08475],[127.75285,35.0824],[127.75378,35.08119],[127.75416,35.08095],[127.7552,35.08043],[127.75625,35.08011],[127.75686,35.07995],[127.75772,35.07982],[127.76068,35.07827],[127.76136,35.07718],[127.76175,35.07664],[127.76291,35.07517],[127.76377,35.07486],[127.76431,35.07469],[127.76438,35.07466],[127.76566,35.07422],[127.76639,35.0739],[127.76647,35.07376],[127.76651,35.07365],[127.76651,35.0734],[127.76619,35.07262],[127.76547,35.07121],[127.76498,35.07021],[127.76388,35.06794],[127.76351,35.06715],[127.76343,35.06663],[127.76344,35.06617],[127.76354,35.06532],[127.76377,35.06408],[127.76688,35.06297],[127.7671,35.06293],[127.76754,35.06286],[127.76796,35.06294],[127.76904,35.06328],[127.76939,35.06343],[127.77166,35.06419],[127.77209,35.06357],[127.77247,35.06297],[127.7725,35.06293],[127.77235,35.06249],[127.77229,35.06236],[127.77216,35.06199],[127.77223,35.06179],[127.77243,35.06151],[127.773,35.06082],[127.7734,35.0606],[127.77434,35.06016],[127.77468,35.06009],[127.77854,35.05938],[127.78089,35.0573],[127.78235,35.05501],[127.78247,35.0545],[127.7825,35.05416],[127.78231,35.05377],[127.78195,35.05335],[127.78071,35.05251],[127.78012,35.05215],[127.77946,35.05175],[127.77928,35.05149],[127.77918,35.05118],[127.77922,35.05088],[127.7796,35.05027],[127.78042,35.04959],[127.78114,35.04905],[127.78191,35.04881],[127.78239,35.04879],[127.78295,35.04877],[127.78304,35.04881],[127.78313,35.04885],[127.78327,35.0489],[127.78369,35.04901],[127.78388,35.04906],[127.78423,35.04904],[127.78456,35.0489],[127.78486,35.04876],[127.78518,35.04861],[127.78558,35.04821],[127.78582,35.04785],[127.78645,35.04674],[127.78696,35.04574],[127.78705,35.04551],[127.78712,35.0452],[127.78702,35.04477],[127.78645,35.04397],[127.78614,35.04369],[127.78577,35.04338],[127.78503,35.04271],[127.78479,35.04248],[127.78461,35.04195],[127.78456,35.04146],[127.78453,35.03825],[127.78458,35.03805],[127.7847,35.03784],[127.78485,35.0377],[127.78504,35.03754],[127.78578,35.03716],[127.78654,35.03684],[127.78711,35.03675],[127.78771,35.03558],[127.78778,35.03353],[127.78772,35.0329],[127.78766,35.03264],[127.7873,35.03216],[127.78657,35.03144],[127.7845,35.02965],[127.78312,35.02873],[127.78184,35.02838],[127.78161,35.02837],[127.78137,35.02835],[127.78045,35.02827],[127.77952,35.02801],[127.77918,35.02781],[127.77914,35.02778],[127.7791,35.02775],[127.77846,35.02726],[127.77779,35.02652],[127.77706,35.02563],[127.77626,35.02608],[127.77572,35.02643],[127.77403,35.02765],[127.77259,35.02882],[127.77196,35.02948],[127.77125,35.03077],[127.7699,35.03324],[127.76947,35.03403],[127.76917,35.0353],[127.76899,35.03609],[127.76892,35.03697],[127.76883,35.03818],[127.7689,35.04077],[127.76917,35.04316],[127.76908,35.04547],[127.76895,35.04793],[127.76885,35.04895],[127.76869,35.05044],[127.76782,35.0527],[127.76671,35.05452],[127.7662,35.05521],[127.76472,35.05666],[127.76454,35.05678],[127.76426,35.05696],[127.76277,35.05773],[127.76224,35.05788],[127.76054,35.05801],[127.7587,35.05768],[127.75865,35.05767],[127.75703,35.05693],[127.75697,35.05691],[127.75666,35.0568],[127.75414,35.05644],[127.75371,35.05653],[127.75309,35.05666],[127.75101,35.0571],[127.75088,35.05715],[127.74943,35.05752],[127.74631,35.05838],[127.7453,35.0587],[127.74505,35.05879],[127.7438,35.0594],[127.74332,35.05963],[127.74282,35.05991],[127.74221,35.06028],[127.7418,35.06057],[127.74079,35.06134],[127.74032,35.06196],[127.74001,35.06269],[127.73983,35.06308],[127.73979,35.0632],[127.73971,35.06342],[127.73966,35.0636],[127.7396,35.06376],[127.73957,35.06392],[127.73953,35.06407],[127.73951,35.06418],[127.73947,35.06443],[127.73938,35.06498],[127.73929,35.06563],[127.73895,35.06926],[127.73871,35.07184],[127.73791,35.07649],[127.73775,35.07727],[127.73763,35.0777],[127.73757,35.07788],[127.73747,35.07808],[127.73693,35.07844],[127.73652,35.07871],[127.7359,35.0791],[127.73568,35.07924],[127.73518,35.07943],[127.73502,35.07947],[127.73476,35.07953],[127.73425,35.07957],[127.73327,35.07959],[127.73312,35.07958],[127.73184,35.0795],[127.73005,35.07946],[127.72812,35.07942],[127.72767,35.07943],[127.72718,35.07948],[127.72682,35.07952],[127.72616,35.0796],[127.7253,35.07975],[127.72511,35.0798],[127.72415,35.08002],[127.7211,35.08085],[127.72049,35.08103],[127.71887,35.08163],[127.71882,35.08166],[127.71825,35.08197],[127.71805,35.0821],[127.71724,35.0827],[127.71704,35.08286],[127.71702,35.08288],[127.71659,35.08325],[127.71641,35.08342],[127.71479,35.08533],[127.71378,35.08653],[127.71351,35.08687],[127.71133,35.08965],[127.71107,35.08999],[127.71081,35.09034],[127.70925,35.09242],[127.70916,35.09254],[127.70889,35.09288],[127.70865,35.09319],[127.70853,35.09332],[127.70839,35.09349],[127.70819,35.09369],[127.70813,35.09375],[127.7079,35.09396],[127.70652,35.09523],[127.7065,35.09525],[127.70616,35.09554],[127.70447,35.09694],[127.70425,35.09711],[127.70284,35.0982],[127.70264,35.09833],[127.70252,35.09842],[127.70234,35.09853],[127.70059,35.0996],[127.69709,35.10165],[127.6946,35.10308],[127.69448,35.10331],[127.69381,35.10494],[127.69377,35.10507],[127.69374,35.10514],[127.69373,35.10518],[127.69368,35.10534],[127.69326,35.10699],[127.69298,35.10892],[127.69294,35.10922],[127.69293,35.10935],[127.69292,35.10949],[127.69292,35.10964],[127.69291,35.10979],[127.69291,35.10994],[127.6929,35.11068],[127.69289,35.11112],[127.69297,35.11397],[127.693,35.11473],[127.69303,35.11513],[127.69305,35.11547],[127.69307,35.11564],[127.69354,35.11775],[127.69359,35.11796],[127.69383,35.11878],[127.69494,35.12233],[127.69589,35.12231],[127.69637,35.12231],[127.6966,35.1223],[127.6969,35.12232],[127.69745,35.12242],[127.69764,35.12248],[127.69877,35.12293],[127.6995,35.12322],[127.69969,35.1233],[127.69984,35.12339],[127.70094,35.12421],[127.70155,35.12476],[127.70193,35.12525],[127.70208,35.12543],[127.70216,35.1255],[127.70224,35.12555],[127.70304,35.12583],[127.70317,35.12587],[127.70334,35.12588],[127.70363,35.12589],[127.7038,35.12586],[127.70399,35.12581],[127.70413,35.12572],[127.70435,35.12556],[127.70482,35.1251],[127.70491,35.12499],[127.70493,35.12494],[127.70609,35.12404],[127.70726,35.12313],[127.70732,35.1231],[127.70741,35.12305],[127.70757,35.12301],[127.70768,35.123],[127.71122,35.12277],[127.7123,35.12301],[127.71401,35.12456],[127.71407,35.12462],[127.71478,35.12539],[127.71488,35.12551],[127.71506,35.12575],[127.71518,35.12593],[127.71594,35.12737],[127.71623,35.12808],[127.71663,35.12892],[127.71692,35.12916],[127.7186,35.12993],[127.71886,35.13002],[127.71913,35.13006],[127.71961,35.13007],[127.71982,35.13006],[127.7202,35.12999],[127.72047,35.12984],[127.7208,35.12962],[127.72123,35.12947],[127.72154,35.12943],[127.72183,35.12943],[127.72224,35.12945],[127.72256,35.12956],[127.72336,35.12983],[127.72373,35.12997],[127.7251,35.13057],[127.72556,35.13073],[127.72583,35.13073],[127.72606,35.13072],[127.72634,35.1306],[127.72657,35.13044],[127.72684,35.13013],[127.7275,35.12941],[127.72824,35.1287],[127.72844,35.12858],[127.72939,35.12808],[127.73,35.12783],[127.73058,35.1276]]]]}},{"type":"Feature","properties":{"code":"48850310","name":"화개면","parent":"48850"},"geometry":{"type":"MultiPolygon","coordinates":[[[[127.68879,35.31916],[127.68857,35.31764],[127.68793,35.31006],[127.68829,35.30874],[127.68882,35.30398],[127.68949,35.29608],[127.68949,35.29589],[127.68939,35.29566],[127.6893,35.29556],[127.6892,35.29545],[127.68894,35.29511],[127.68868,35.29452],[127.68857,35.29405],[127.68884,35.29328],[127.68972,35.29158],[127.69078,35.29002],[127.69164,35.28879],[127.69213,35.28826],[127.69262,35.28773],[127.69262,35.28762],[127.69254,35.28737],[127.69185,35.28629],[127.69133,35.28561],[127.69088,35.28512],[127.69051,35.2847],[127.69026,35.28406],[127.69018,35.28372],[127.69039,35.28322],[127.69528,35.2776],[127.69584,35.27702],[127.69746,35.27617],[127.69867,35.27555],[127.69924,35.2753],[127.70021,35.27482],[127.70056,35.27442],[127.70227,35.27187],[127.70273,35.27063],[127.70418,35.26666],[127.70465,35.26524],[127.70484,35.26498],[127.70504,35.26471],[127.70579,35.26432],[127.70477,35.26352],[127.70419,35.26311],[127.70287,35.26233],[127.70127,35.26169],[127.70025,35.26141],[127.69922,35.26129],[127.69836,35.26119],[127.69765,35.26088],[127.69694,35.26056],[127.68976,35.25503],[127.68941,35.25462],[127.68923,35.25434],[127.68931,35.25396],[127.68944,35.25351],[127.68955,35.25308],[127.68957,35.25219],[127.68955,35.25179],[127.68903,35.24749],[127.68898,35.24722],[127.68859,35.24665],[127.68807,35.24601],[127.68756,35.24547],[127.68751,35.24535],[127.68724,35.24456],[127.68713,35.24417],[127.6871,35.24398],[127.6871,35.24395],[127.68708,35.24369],[127.68715,35.2425],[127.68736,35.24164],[127.68797,35.24028],[127.68852,35.23944],[127.69082,35.23598],[127.69225,35.23402],[127.69255,35.23375],[127.6931,35.23293],[127.69333,35.23249],[127.69508,35.22909],[127.69507,35.2288],[127.69495,35.22855],[127.69468,35.22822],[127.69456,35.22808],[127.69451,35.22802],[127.69446,35.22797],[127.69442,35.22793],[127.69438,35.22789],[127.69426,35.22771],[127.69419,35.22751],[127.6942,35.22713],[127.69438,35.22668],[127.6945,35.2264],[127.69459,35.22622],[127.69525,35.22549],[127.69577,35.22498],[127.69593,35.22486],[127.69607,35.22476],[127.69796,35.2237],[127.69805,35.22364],[127.69825,35.22329],[127.69826,35.22282],[127.69822,35.21733],[127.69821,35.2165],[127.69821,35.2162],[127.69814,35.21576],[127.69751,35.21315],[127.69725,35.2124],[127.69665,35.21232],[127.6961,35.21222],[127.69549,35.21203],[127.69452,35.21161],[127.68578,35.20613],[127.68497,35.20549],[127.68474,35.20519],[127.68447,35.2043],[127.68439,35.20387],[127.68437,35.20376],[127.68426,35.20308],[127.6837,35.20069],[127.68327,35.19951],[127.68269,35.19858],[127.68213,35.19775],[127.6819,35.19717],[127.68178,35.19664],[127.68119,35.19295],[127.68132,35.19094],[127.68147,35.1899],[127.68145,35.18954],[127.68119,35.18781],[127.68057,35.18394],[127.68022,35.18259],[127.68017,35.18046],[127.68039,35.18024],[127.6806,35.18002],[127.68087,35.1797],[127.68109,35.17863],[127.68153,35.17341],[127.68155,35.17322],[127.68149,35.17296],[127.68135,35.17266],[127.68121,35.17241],[127.68105,35.17213],[127.68083,35.17179],[127.68068,35.1716],[127.67966,35.17048],[127.67898,35.16979],[127.67857,35.16924],[127.67837,35.1689],[127.6778,35.16628],[127.67744,35.16443],[127.67745,35.16433],[127.67746,35.16419],[127.67746,35.16408],[127.67735,35.16322],[127.6773,35.16298],[127.67715,35.16233],[127.677,35.16186],[127.67695,35.16171],[127.67595,35.15882],[127.67582,35.15849],[127.67552,35.15799],[127.67524,35.15765],[127.67496,35.15734],[127.67462,35.15712],[127.67421,35.15695],[127.67318,35.15643],[127.67244,35.15601],[127.67182,35.15562],[127.6713,35.15526],[127.66917,35.15368],[127.6681,35.15235],[127.66737,35.1526],[127.66675,35.15287],[127.66606,35.15322],[127.66335,35.15483],[127.66323,35.15495],[127.66304,35.15516],[127.66254,35.15569],[127.66198,35.1562],[127.66186,35.15631],[127.66051,35.15751],[127.65972,35.15815],[127.65939,35.15835],[127.65394,35.15966],[127.65364,35.15971],[127.65323,35.15972],[127.65275,35.15973],[127.65239,35.15963],[127.64978,35.15887],[127.64941,35.15901],[127.64798,35.1596],[127.64679,35.16031],[127.6453,35.1613],[127.6447,35.16196],[127.64451,35.16229],[127.64441,35.16247],[127.64437,35.16253],[127.64385,35.16383],[127.64378,35.16418],[127.64376,35.16461],[127.64363,35.16611],[127.64362,35.16621],[127.64361,35.16626],[127.64314,35.16747],[127.64294,35.16792],[127.64247,35.16875],[127.64201,35.16936],[127.64064,35.17114],[127.63977,35.17179],[127.63779,35.17298],[127.63643,35.17347],[127.63573,35.1737],[127.63516,35.17389],[127.63503,35.17391],[127.63493,35.17393],[127.63447,35.17404],[127.6337,35.17451],[127.63247,35.1753],[127.63115,35.17664],[127.63096,35.17705],[127.63093,35.17749],[127.63091,35.17783],[127.63078,35.17816],[127.63029,35.1792],[127.63013,35.17946],[127.62876,35.18119],[127.62859,35.18138],[127.62795,35.182],[127.62742,35.18231],[127.62655,35.18268],[127.62521,35.18343],[127.62474,35.18449],[127.62137,35.18851],[127.62143,35.18964],[127.6214,35.19114],[127.62136,35.19148],[127.62131,35.19196],[127.62118,35.19246],[127.61995,35.19647],[127.61895,35.19877],[127.61853,35.19948],[127.61803,35.20092],[127.61744,35.2037],[127.6174,35.20411],[127.61707,35.20963],[127.61719,35.21007],[127.61733,35.21027],[127.6191,35.21155],[127.61955,35.21178],[127.61988,35.21196],[127.62018,35.21224],[127.62035,35.21241],[127.62072,35.21291],[127.62095,35.21346],[127.62095,35.21349],[127.62101,35.21408],[127.62075,35.21792],[127.62087,35.22296],[127.61982,35.22719],[127.61892,35.2294],[127.61877,35.22987],[127.61855,35.23055],[127.61841,35.23119],[127.61836,35.23214],[127.61872,35.23383],[127.61901,35.23506],[127.61901,35.23555],[127.61892,35.23613],[127.61879,35.23648],[127.61867,35.23677],[127.61839,35.23721],[127.61643,35.239],[127.61522,35.23974],[127.61505,35.23979],[127.61447,35.24014],[127.61331,35.24095],[127.61306,35.24121],[127.61299,35.24172],[127.6126,35.24744],[127.61273,35.24779],[127.61285,35.24797],[127.6129,35.24804],[127.61305,35.24819],[127.61361,35.24873],[127.61414,35.24909],[127.61464,35.24946],[127.61493,35.24973],[127.61494,35.25027],[127.61365,35.25189],[127.61278,35.25405],[127.61169,35.25691],[127.6117,35.25793],[127.61135,35.25901],[127.61002,35.26191],[127.60935,35.26229],[127.60877,35.26261],[127.60413,35.26473],[127.59894,35.26733],[127.59633,35.26796],[127.5958,35.26816],[127.59565,35.26922],[127.59564,35.26965],[127.59561,35.27029],[127.59503,35.27162],[127.59483,35.27183],[127.59468,35.27199],[127.5937,35.2725],[127.59297,35.27289],[127.59223,35.27348],[127.59071,35.27537],[127.59056,35.27578],[127.5904,35.27837],[127.59044,35.2787],[127.59052,35.27931],[127.58989,35.2807],[127.58922,35.28137],[127.58876,35.28182],[127.58767,35.28303],[127.587,35.28454],[127.58657,35.2862],[127.58652,35.28638],[127.58586,35.28729],[127.58248,35.29136],[127.58035,35.29307],[127.57853,35.29426],[127.57714,35.29548],[127.57683,35.29613],[127.57668,35.29702],[127.57607,35.30426],[127.57611,35.30636],[127.57662,35.30791],[127.57701,35.3086],[127.57714,35.30871],[127.57745,35.30896],[127.57853,35.3094],[127.57928,35.3096],[127.58023,35.30951],[127.58053,35.30945],[127.58199,35.30916],[127.58254,35.30909],[127.58418,35.30901],[127.58567,35.30914],[127.5923,35.31153],[127.5932,35.31193],[127.59487,35.3129],[127.60126,35.3168],[127.60442,35.31831],[127.60551,35.31896],[127.6063,35.31998],[127.60675,35.32101],[127.6067,35.32179],[127.60697,35.32341],[127.60725,35.32408],[127.60813,35.32532],[127.61485,35.33056],[127.61911,35.33194],[127.62042,35.33233],[127.62286,35.33186],[127.62342,35.33145],[127.62403,35.33079],[127.62517,35.32977],[127.62603,35.32904],[127.62634,35.32889],[127.63022,35.32716],[127.63147,35.32672],[127.63214,35.32664],[127.63346,35.32652],[127.6352,35.32647],[127.63572,35.32636],[127.63635,35.32613],[127.63817,35.32544],[127.63866,35.32521],[127.64028,35.32465],[127.64056,35.32465],[127.64101,35.32471],[127.64127,35.32481],[127.64184,35.32512],[127.64433,35.3263],[127.65191,35.32803],[127.65284,35.32817],[127.65748,35.32865],[127.65771,35.32867],[127.65803,35.32866],[127.65806,35.32866],[127.65848,35.32844],[127.65929,35.32778],[127.66096,35.32562],[127.66129,35.32495],[127.66163,35.32401],[127.66173,35.32326],[127.66225,35.32253],[127.66333,35.32141],[127.66385,35.32105],[127.66449,35.32074],[127.66554,35.32048],[127.66588,35.32048],[127.66693,35.32055],[127.6677,35.32078],[127.66843,35.32106],[127.67039,35.32173],[127.67258,35.32234],[127.67309,35.32242],[127.67343,35.32242],[127.67446,35.32216],[127.67521,35.32187],[127.67586,35.32166],[127.67742,35.3215],[127.67835,35.32147],[127.67913,35.32154],[127.67985,35.32174],[127.68046,35.322],[127.68269,35.32292],[127.68311,35.32292],[127.68375,35.32284],[127.68457,35.32251],[127.68542,35.32205],[127.68671,35.32112],[127.6877,35.32018],[127.68879,35.31916]]]]}},{"type":"Feature","properties":{"code":"48850320","name":"악양면","parent":"48850"},"geometry":{"type":"MultiPolygon","coordinates":[[[[127.74755,35.16428],[127.74583,35.16299],[127.74325,35.16001],[127.73982,35.15735],[127.73931,35.1569],[127.73884,35.15646],[127.73872,35.1563],[127.73851,35.15599],[127.73837,35.15575],[127.73826,35.15547],[127.73821,35.15503],[127.73826,35.15479],[127.73839,35.15438],[127.73862,35.15387],[127.73873,35.15373],[127.73899,35.15342],[127.73937,35.15319],[127.73983,35.15257],[127.74103,35.15072],[127.74123,35.15028],[127.74129,35.15014],[127.7413,35.15001],[127.7413,35.14981],[127.74119,35.14945],[127.74107,35.14924],[127.74094,35.14907],[127.74078,35.14892],[127.74072,35.14883],[127.74041,35.14828],[127.74033,35.14812],[127.73993,35.14661],[127.73972,35.14554],[127.73966,35.1449],[127.73969,35.14465],[127.73992,35.1439],[127.73945,35.13636],[127.73941,35.13617],[127.739,35.13503],[127.73781,35.13323],[127.73729,35.13255],[127.73522,35.1306],[127.7351,35.13052],[127.7349,35.13041],[127.73428,35.13009],[127.73401,35.12998],[127.73371,35.12987],[127.73308,35.12966],[127.73286,35.12961],[127.73245,35.12951],[127.73218,35.12948],[127.73174,35.12938],[127.73163,35.12931],[127.73119,35.12877],[127.73094,35.12845],[127.7307,35.12809],[127.7306,35.12788],[127.73055,35.12775],[127.73058,35.1276],[127.73,35.12783],[127.72939,35.12808],[127.72844,35.12858],[127.72824,35.1287],[127.7275,35.12941],[127.72684,35.13013],[127.72657,35.13044],[127.72634,35.1306],[127.72606,35.13072],[127.72583,35.13073],[127.72556,35.13073],[127.7251,35.13057],[127.72373,35.12997],[127.72336,35.12983],[127.72256,35.12956],[127.72224,35.12945],[127.72183,35.12943],[127.72154,35.12943],[127.72123,35.12947],[127.7208,35.12962],[127.72047,35.12984],[127.7202,35.12999],[127.71982,35.13006],[127.71961,35.13007],[127.71913,35.13006],[127.71886,35.13002],[127.7186,35.12993],[127.71692,35.12916],[127.71663,35.12892],[127.71623,35.12808],[127.71594,35.12737],[127.71518,35.12593],[127.71506,35.12575],[127.71488,35.12551],[127.71478,35.12539],[127.71407,35.12462],[127.71401,35.12456],[127.7123,35.12301],[127.71122,35.12277],[127.70768,35.123],[127.70757,35.12301],[127.70741,35.12305],[127.70732,35.1231],[127.70726,35.12313],[127.70609,35.12404],[127.70493,35.12494],[127.70491,35.12499],[127.70482,35.1251],[127.70435,35.12556],[127.70413,35.12572],[127.70399,35.12581],[127.7038,35.12586],[127.70363,35.12589],[127.70334,35.12588],[127.70317,35.12587],[127.70304,35.12583],[127.70224,35.12555],[127.70216,35.1255],[127.70208,35.12543],[127.70193,35.12525],[127.70155,35.12476],[127.70094,35.12421],[127.69984,35.12339],[127.69969,35.1233],[127.6995,35.12322],[127.69877,35.12293],[127.69764,35.12248],[127.69745,35.12242],[127.6969,35.12232],[127.6966,35.1223],[127.69637,35.12231],[127.69589,35.12231],[127.69494,35.12233],[127.69497,35.12246],[127.69498,35.12252],[127.69502,35.12271],[127.69505,35.12296],[127.69507,35.1232],[127.6951,35.12345],[127.69532,35.12597],[127.69532,35.12641],[127.69532,35.12665],[127.69532,35.12687],[127.6951,35.12976],[127.69483,35.13036],[127.69457,35.13085],[127.69428,35.13141],[127.69423,35.13148],[127.694,35.13178],[127.69378,35.13201],[127.69286,35.13283],[127.69013,35.13424],[127.68914,35.13457],[127.68879,35.13476],[127.68821,35.13509],[127.68773,35.13538],[127.68747,35.13555],[127.68616,35.13639],[127.68541,35.13692],[127.68479,35.1374],[127.68197,35.13987],[127.68127,35.14083],[127.68079,35.1415],[127.68001,35.14266],[127.6799,35.14289],[127.67978,35.14317],[127.67968,35.14341],[127.67943,35.14401],[127.67923,35.14432],[127.67287,35.14975],[127.6702,35.15151],[127.66944,35.15191],[127.66941,35.15192],[127.66899,35.15209],[127.6681,35.15235],[127.66917,35.15368],[127.6713,35.15526],[127.67182,35.15562],[127.67244,35.15601],[127.67318,35.15643],[127.67421,35.15695],[127.67462,35.15712],[127.67496,35.15734],[127.67524,35.15765],[127.67552,35.15799],[127.67582,35.15849],[127.67595,35.15882],[127.67695,35.16171],[127.677,35.16186],[127.67715,35.16233],[127.6773,35.16298],[127.67735,35.16322],[127.67746,35.16408],[127.67746,35.16419],[127.67745,35.16433],[127.67744,35.16443],[127.6778,35.16628],[127.67837,35.1689],[127.67857,35.16924],[127.67898,35.16979],[127.67966,35.17048],[127.68068,35.1716],[127.68083,35.17179],[127.68105,35.17213],[127.68121,35.17241],[127.68135,35.17266],[127.68149,35.17296],[127.68155,35.17322],[127.68153,35.17341],[127.68109,35.17863],[127.68087,35.1797],[127.6806,35.18002],[127.68039,35.18024],[127.68017,35.18046],[127.68022,35.18259],[127.68057,35.18394],[127.68119,35.18781],[127.68145,35.18954],[127.68147,35.1899],[127.68132,35.19094],[127.68119,35.19295],[127.68178,35.19664],[127.6819,35.19717],[127.68213,35.19775],[127.68269,35.19858],[127.68327,35.19951],[127.6837,35.20069],[127.68426,35.20308],[127.68437,35.20376],[127.68439,35.20387],[127.68447,35.2043],[127.68474,35.20519],[127.68497,35.20549],[127.68578,35.20613],[127.69452,35.21161],[127.69549,35.21203],[127.6961,35.21222],[127.69665,35.21232],[127.69725,35.2124],[127.69751,35.21315],[127.69814,35.21576],[127.69821,35.2162],[127.69821,35.2165],[127.69822,35.21733],[127.69826,35.22282],[127.69825,35.22329],[127.69805,35.22364],[127.69796,35.2237],[127.69812,35.22378],[127.69833,35.22389],[127.69933,35.22425],[127.69974,35.22439],[127.69989,35.22444],[127.70007,35.2245],[127.70038,35.22456],[127.70107,35.22467],[127.70181,35.22464],[127.70271,35.22454],[127.70403,35.22423],[127.7051,35.22376],[127.70557,35.2235],[127.70793,35.22212],[127.70857,35.22223],[127.70932,35.22236],[127.70953,35.22238],[127.71007,35.22235],[127.71063,35.22225],[127.71086,35.22215],[127.71146,35.22181],[127.71163,35.22162],[127.71199,35.2211],[127.71214,35.22073],[127.71246,35.22032],[127.71261,35.2202],[127.71273,35.2201],[127.71609,35.21848],[127.7189,35.21737],[127.71969,35.21697],[127.72066,35.21646],[127.72103,35.21622],[127.72246,35.21512],[127.72285,35.21439],[127.72299,35.21404],[127.72386,35.2134],[127.72927,35.21037],[127.73098,35.20969],[127.73297,35.2091],[127.73318,35.20907],[127.73359,35.20898],[127.7342,35.20882],[127.73443,35.2087],[127.73783,35.20688],[127.73984,35.2057],[127.74129,35.19923],[127.74132,35.19845],[127.74132,35.19829],[127.74102,35.19341],[127.74098,35.19293],[127.74092,35.19268],[127.7408,35.19228],[127.74066,35.1919],[127.74018,35.1913],[127.73983,35.19082],[127.73969,35.19054],[127.7395,35.18994],[127.73948,35.18973],[127.74009,35.18264],[127.7402,35.18184],[127.74029,35.18163],[127.74043,35.18143],[127.74052,35.18137],[127.74061,35.1813],[127.74095,35.1811],[127.7413,35.18087],[127.74141,35.18069],[127.74151,35.18052],[127.7415,35.18024],[127.74146,35.18003],[127.74146,35.17999],[127.74057,35.17854],[127.74007,35.17803],[127.73967,35.17777],[127.73948,35.17764],[127.73921,35.17736],[127.73881,35.17678],[127.73871,35.17637],[127.73845,35.17526],[127.73842,35.17482],[127.73846,35.17461],[127.7386,35.17435],[127.73865,35.17425],[127.73872,35.17412],[127.74257,35.16916],[127.74272,35.169],[127.74303,35.1687],[127.74315,35.16858],[127.74499,35.16701],[127.74526,35.16682],[127.74588,35.16653],[127.74611,35.16641],[127.74644,35.16621],[127.7465,35.16613],[127.74656,35.16606],[127.74729,35.16476],[127.74755,35.16428]]]]}},{"type":"Feature","properties":{"code":"48850330","name":"적량면","parent":"48850"},"geometry":{"type":"MultiPolygon","coordinates":[[[[127.79254,35.12271],[127.79281,35.12249],[127.79329,35.1215],[127.79408,35.11895],[127.79423,35.11843],[127.79415,35.11792],[127.79322,35.11408],[127.79299,35.11329],[127.78775,35.10565],[127.78738,35.10525],[127.78584,35.10288],[127.78505,35.10163],[127.78494,35.10083],[127.78516,35.10018],[127.78567,35.09958],[127.786,35.09942],[127.78633,35.09926],[127.78687,35.09928],[127.78837,35.09653],[127.78952,35.09265],[127.78992,35.08906],[127.78992,35.0885],[127.78965,35.08798],[127.78966,35.08747],[127.7923,35.08623],[127.79413,35.08558],[127.79688,35.08493],[127.79715,35.08449],[127.79824,35.08272],[127.79859,35.08195],[127.79868,35.08061],[127.79857,35.07949],[127.79856,35.0794],[127.79743,35.07756],[127.79672,35.07652],[127.79142,35.0721],[127.79079,35.0717],[127.79002,35.07177],[127.78937,35.07207],[127.78891,35.07235],[127.78853,35.0727],[127.78814,35.07306],[127.78771,35.07303],[127.78735,35.07286],[127.78734,35.0725],[127.78889,35.06955],[127.78947,35.0689],[127.79423,35.06491],[127.79624,35.0635],[127.79629,35.06347],[127.80137,35.06361],[127.8028,35.06368],[127.80452,35.06376],[127.80462,35.06356],[127.80492,35.06293],[127.80688,35.06122],[127.80719,35.06099],[127.80754,35.06082],[127.80794,35.06062],[127.80846,35.0602],[127.80899,35.05914],[127.80823,35.05451],[127.80754,35.05076],[127.80742,35.05059],[127.80721,35.05046],[127.80644,35.04997],[127.80634,35.0499],[127.80621,35.04983],[127.80542,35.04937],[127.80492,35.04915],[127.80486,35.04912],[127.80479,35.04909],[127.80444,35.04903],[127.80413,35.04897],[127.79949,35.04908],[127.79875,35.04932],[127.79827,35.04969],[127.79804,35.04992],[127.79782,35.05015],[127.7975,35.05045],[127.79572,35.05118],[127.79265,35.05238],[127.79009,35.05258],[127.79,35.05258],[127.78943,35.05262],[127.7851,35.05241],[127.78238,35.0518],[127.78196,35.05165],[127.78125,35.05162],[127.78056,35.05181],[127.78012,35.05215],[127.78071,35.05251],[127.78195,35.05335],[127.78231,35.05377],[127.7825,35.05416],[127.78247,35.0545],[127.78235,35.05501],[127.78089,35.0573],[127.77854,35.05938],[127.77468,35.06009],[127.77434,35.06016],[127.7734,35.0606],[127.773,35.06082],[127.77243,35.06151],[127.77223,35.06179],[127.77216,35.06199],[127.77229,35.06236],[127.77235,35.06249],[127.7725,35.06293],[127.77247,35.06297],[127.77209,35.06357],[127.77166,35.06419],[127.76939,35.06343],[127.76904,35.06328],[127.76796,35.06294],[127.76754,35.06286],[127.7671,35.06293],[127.76688,35.06297],[127.76377,35.06408],[127.76354,35.06532],[127.76344,35.06617],[127.76343,35.06663],[127.76351,35.06715],[127.76388,35.06794],[127.76498,35.07021],[127.76547,35.07121],[127.76619,35.07262],[127.76651,35.0734],[127.76651,35.07365],[127.76647,35.07376],[127.76639,35.0739],[127.76566,35.07422],[127.76438,35.07466],[127.76431,35.07469],[127.76377,35.07486],[127.76291,35.07517],[127.76175,35.07664],[127.76136,35.07718],[127.76068,35.07827],[127.75772,35.07982],[127.75686,35.07995],[127.75625,35.08011],[127.7552,35.08043],[127.75416,35.08095],[127.75378,35.08119],[127.75285,35.0824],[127.75166,35.08475],[127.75174,35.08677],[127.75209,35.08738],[127.75267,35.088],[127.7529,35.08833],[127.75302,35.08889],[127.75348,35.0917],[127.75349,35.09182],[127.7535,35.09202],[127.75336,35.09243],[127.75312,35.0929],[127.7522,35.09401],[127.74892,35.09839],[127.74805,35.09998],[127.74785,35.10006],[127.74741,35.10022],[127.74614,35.10102],[127.7431,35.10308],[127.74179,35.10404],[127.73981,35.10559],[127.73674,35.10723],[127.73187,35.10909],[127.72727,35.10972],[127.72722,35.10972],[127.72693,35.10979],[127.72683,35.10984],[127.72597,35.11056],[127.72591,35.11063],[127.7259,35.1107],[127.72586,35.11154],[127.72586,35.11167],[127.72588,35.1118],[127.7259,35.11192],[127.72708,35.11624],[127.72739,35.11718],[127.72885,35.12091],[127.73065,35.12327],[127.73112,35.12613],[127.73058,35.1276],[127.73055,35.12775],[127.7306,35.12788],[127.7307,35.12809],[127.73094,35.12845],[127.73119,35.12877],[127.73163,35.12931],[127.73174,35.12938],[127.73218,35.12948],[127.73245,35.12951],[127.73286,35.12961],[127.73308,35.12966],[127.73371,35.12987],[127.73401,35.12998],[127.73428,35.13009],[127.7349,35.13041],[127.7351,35.13052],[127.73522,35.1306],[127.73729,35.13255],[127.73781,35.13323],[127.739,35.13503],[127.73941,35.13617],[127.73945,35.13636],[127.73992,35.1439],[127.73969,35.14465],[127.73966,35.1449],[127.73972,35.14554],[127.73993,35.14661],[127.74033,35.14812],[127.74041,35.14828],[127.74072,35.14883],[127.74078,35.14892],[127.74094,35.14907],[127.74107,35.14924],[127.74119,35.14945],[127.7413,35.14981],[127.7413,35.15001],[127.74129,35.15014],[127.74123,35.15028],[127.74103,35.15072],[127.73983,35.15257],[127.73937,35.15319],[127.73899,35.15342],[127.73873,35.15373],[127.73862,35.15387],[127.73839,35.15438],[127.73826,35.15479],[127.73821,35.15503],[127.73826,35.15547],[127.73837,35.15575],[127.73851,35.15599],[127.73872,35.1563],[127.73884,35.15646],[127.73931,35.1569],[127.73982,35.15735],[127.74325,35.16001],[127.74583,35.16299],[127.74755,35.16428],[127.7498,35.1641],[127.75,35.16406],[127.75017,35.16402],[127.75233,35.16271],[127.75262,35.16251],[127.75302,35.16224],[127.75616,35.15917],[127.75657,35.15866],[127.75686,35.15819],[127.75695,35.15782],[127.75737,35.15596],[127.75755,35.15513],[127.75755,35.15458],[127.75762,35.15438],[127.75786,35.15414],[127.75815,35.15392],[127.76087,35.15236],[127.76296,35.15141],[127.76378,35.15105],[127.76412,35.15082],[127.7641,35.15065],[127.76394,35.15027],[127.76301,35.14638],[127.76293,35.14519],[127.76414,35.1433],[127.76454,35.14282],[127.76464,35.14271],[127.76505,35.14225],[127.76695,35.14029],[127.76841,35.13902],[127.76857,35.13891],[127.76875,35.13879],[127.76888,35.13832],[127.76872,35.1374],[127.76839,35.13627],[127.76793,35.13556],[127.76746,35.13505],[127.76752,35.13481],[127.77131,35.13149],[127.77514,35.12861],[127.77938,35.12573],[127.77973,35.12565],[127.78091,35.12527],[127.78386,35.12378],[127.78514,35.12284],[127.78667,35.12188],[127.78789,35.12222],[127.79138,35.12272],[127.79254,35.12271]]]]}},{"type":"Feature","properties":{"code":"48850340","name":"횡천면","parent":"48850"},"geometry":{"type":"MultiPolygon","coordinates":[[[[127.84233,35.15812],[127.84241,35.15803],[127.84257,35.15776],[127.84298,35.15691],[127.84298,35.15632],[127.84286,35.15584],[127.8424,35.1554],[127.84176,35.15468],[127.84064,35.15291],[127.84044,35.15251],[127.84037,35.15213],[127.84038,35.15176],[127.84068,35.14826],[127.84071,35.14805],[127.84136,35.14621],[127.84226,35.14201],[127.84252,35.14015],[127.8427,35.13906],[127.84296,35.13822],[127.8432,35.13779],[127.84346,35.13756],[127.84382,35.13725],[127.84421,35.13707],[127.84459,35.1369],[127.84515,35.1367],[127.84548,35.13654],[127.84558,35.13646],[127.84598,35.13611],[127.84629,35.13573],[127.84654,35.13474],[127.84665,35.13429],[127.847,35.13189],[127.847,35.13146],[127.84693,35.13124],[127.84474,35.12654],[127.84431,35.12567],[127.84316,35.12361],[127.8423,35.12253],[127.84124,35.12142],[127.84051,35.12077],[127.83786,35.11493],[127.83741,35.10961],[127.8375,35.10894],[127.83797,35.10788],[127.83852,35.10718],[127.83715,35.10691],[127.83598,35.10641],[127.835,35.10542],[127.83392,35.10215],[127.83281,35.09937],[127.83265,35.09911],[127.83211,35.09907],[127.82823,35.09957],[127.82761,35.0997],[127.82693,35.10036],[127.82657,35.10091],[127.82652,35.10163],[127.8266,35.10228],[127.82646,35.10249],[127.82611,35.10243],[127.82191,35.1017],[127.82176,35.10164],[127.82153,35.10154],[127.8213,35.10119],[127.82116,35.10045],[127.82103,35.09918],[127.82125,35.09813],[127.82122,35.09763],[127.82081,35.09641],[127.8206,35.09608],[127.82019,35.0957],[127.81753,35.09445],[127.81711,35.09439],[127.81631,35.09463],[127.8159,35.09465],[127.81436,35.09344],[127.8143,35.09302],[127.81441,35.09255],[127.81463,35.09197],[127.81434,35.08915],[127.81333,35.08431],[127.81324,35.08069],[127.81148,35.07632],[127.81116,35.07565],[127.81039,35.07456],[127.80964,35.07378],[127.80955,35.07363],[127.8093,35.07322],[127.80915,35.07223],[127.80928,35.07004],[127.80862,35.06941],[127.80586,35.06634],[127.80538,35.06557],[127.80502,35.06486],[127.80452,35.06376],[127.8028,35.06368],[127.80137,35.06361],[127.79629,35.06347],[127.79624,35.0635],[127.79423,35.06491],[127.78947,35.0689],[127.78889,35.06955],[127.78734,35.0725],[127.78735,35.07286],[127.78771,35.07303],[127.78814,35.07306],[127.78853,35.0727],[127.78891,35.07235],[127.78937,35.07207],[127.79002,35.07177],[127.79079,35.0717],[127.79142,35.0721],[127.79672,35.07652],[127.79743,35.07756],[127.79856,35.0794],[127.79857,35.07949],[127.79868,35.08061],[127.79859,35.08195],[127.79824,35.08272],[127.79715,35.08449],[127.79688,35.08493],[127.79413,35.08558],[127.7923,35.08623],[127.78966,35.08747],[127.78965,35.08798],[127.78992,35.0885],[127.78992,35.08906],[127.78952,35.09265],[127.78837,35.09653],[127.78687,35.09928],[127.78633,35.09926],[127.786,35.09942],[127.78567,35.09958],[127.78516,35.10018],[127.78494,35.10083],[127.78505,35.10163],[127.78584,35.10288],[127.78738,35.10525],[127.78775,35.10565],[127.79299,35.11329],[127.79322,35.11408],[127.79415,35.11792],[127.79423,35.11843],[127.79408,35.11895],[127.79329,35.1215],[127.79281,35.12249],[127.79254,35.12271],[127.79327,35.12286],[127.79472,35.12377],[127.79498,35.12418],[127.79533,35.12483],[127.79536,35.12527],[127.79539,35.12607],[127.79542,35.12622],[127.79767,35.13032],[127.79806,35.13071],[127.79874,35.1305],[127.80002,35.13029],[127.80063,35.13035],[127.80433,35.13197],[127.80587,35.13271],[127.80695,35.13335],[127.80737,35.13368],[127.80765,35.13492],[127.80783,35.13586],[127.80781,35.13679],[127.80736,35.13746],[127.8067,35.13817],[127.80627,35.13857],[127.806,35.13883],[127.80546,35.13971],[127.80536,35.14016],[127.80533,35.1406],[127.80549,35.14114],[127.80589,35.14152],[127.81178,35.1459],[127.81239,35.14619],[127.8132,35.14636],[127.81393,35.14655],[127.81473,35.14734],[127.81507,35.14802],[127.81507,35.14843],[127.81436,35.14989],[127.81329,35.15289],[127.80964,35.16364],[127.80876,35.16676],[127.80865,35.16757],[127.80862,35.16872],[127.80845,35.16912],[127.80817,35.16958],[127.80721,35.17033],[127.80503,35.1716],[127.80446,35.1719],[127.80357,35.17217],[127.80331,35.17225],[127.80284,35.17253],[127.80283,35.173],[127.80282,35.17432],[127.80286,35.17458],[127.80291,35.17497],[127.80558,35.17739],[127.80706,35.17816],[127.80794,35.17856],[127.80838,35.17873],[127.81107,35.17926],[127.81195,35.17944],[127.81279,35.17899],[127.81455,35.17771],[127.81611,35.17657],[127.81675,35.17604],[127.81699,35.17561],[127.8172,35.17506],[127.81766,35.17163],[127.81801,35.16849],[127.81842,35.16812],[127.82453,35.16257],[127.82495,35.16226],[127.82542,35.16201],[127.82835,35.16196],[127.83146,35.162],[127.83407,35.1613],[127.83694,35.16009],[127.8404,35.15862],[127.84062,35.15854],[127.84098,35.15842],[127.84233,35.15812]]]]}},{"type":"Feature","properties":{"code":"48850350","name":"고전면","parent":"48850"},"geometry":{"type":"MultiPolygon","coordinates":[[[[127.85412,35.03228],[127.85618,35.03109],[127.85692,35.03066],[127.85726,35.03046],[127.85763,35.03011],[127.85986,35.02621],[127.86008,35.02581],[127.86031,35.02508],[127.86062,35.0235],[127.86063,35.0229],[127.8606,35.0197],[127.86056,35.01942],[127.86047,35.0194],[127.86025,35.01935],[127.85753,35.0183],[127.85816,35.01728],[127.85867,35.01639],[127.85903,35.01549],[127.86102,35.00934],[127.86122,35.00783],[127.86112,35.0071],[127.86098,35.0065],[127.86084,35.00617],[127.86012,35.00535],[127.85951,35.00529],[127.85599,35.00592],[127.85565,35.006],[127.85541,35.00619],[127.85513,35.00642],[127.85459,35.00677],[127.85185,35.00767],[127.85173,35.0077],[127.85092,35.00785],[127.85044,35.0078],[127.8502,35.00767],[127.84997,35.00753],[127.84948,35.00729],[127.84904,35.00707],[127.84817,35.00692],[127.84691,35.00679],[127.84646,35.00677],[127.84547,35.00738],[127.84454,35.0079],[127.83928,35.00991],[127.83737,35.01039],[127.83621,35.01067],[127.83579,35.0106],[127.8356,35.01041],[127.83538,35.01009],[127.83369,35.00757],[127.83175,35.00545],[127.83002,35.0042],[127.8292,35.00365],[127.8286,35.00348],[127.8283,35.00347],[127.82803,35.00346],[127.82785,35.00383],[127.82795,35.00539],[127.82789,35.00646],[127.82528,35.00719],[127.82459,35.00724],[127.82456,35.00724],[127.82418,35.00718],[127.82373,35.00687],[127.82015,35.00535],[127.81848,35.00551],[127.81826,35.00553],[127.81665,35.00536],[127.81334,35.00454],[127.81307,35.00431],[127.81279,35.00388],[127.81276,35.00384],[127.81265,35.00325],[127.8124,35.00287],[127.81216,35.00256],[127.81181,35.00218],[127.81068,35.00107],[127.81041,35.00084],[127.80997,35.00052],[127.80962,35.00032],[127.80928,35.00012],[127.8089,34.99995],[127.80872,34.99988],[127.80865,34.99986],[127.80854,34.99984],[127.80819,34.99976],[127.8081,34.99972],[127.80806,34.99971],[127.80803,34.9997],[127.80797,34.99967],[127.80786,34.99961],[127.80777,34.99956],[127.80687,34.99904],[127.80649,34.99882],[127.80633,34.9987],[127.80625,34.99861],[127.80619,34.99854],[127.80448,34.99577],[127.80444,34.99569],[127.80426,34.99513],[127.80412,34.99473],[127.80391,34.99399],[127.80386,34.99379],[127.80385,34.99367],[127.80385,34.99343],[127.80384,34.99327],[127.80379,34.99315],[127.80367,34.993],[127.80313,34.99257],[127.80296,34.99246],[127.80235,34.99217],[127.80185,34.99198],[127.80167,34.99191],[127.80155,34.99186],[127.8012,34.99174],[127.80116,34.99173],[127.801,34.99169],[127.8009,34.99167],[127.80079,34.99167],[127.80075,34.99168],[127.80068,34.99169],[127.80054,34.99171],[127.8005,34.99174],[127.80045,34.99176],[127.79849,34.99303],[127.79842,34.99308],[127.79834,34.99312],[127.79827,34.99318],[127.79821,34.99322],[127.79812,34.9933],[127.79804,34.99337],[127.79797,34.99344],[127.79792,34.9935],[127.79667,34.99478],[127.79617,34.99493],[127.79598,34.99496],[127.7958,34.99499],[127.79541,34.99501],[127.79494,34.99498],[127.7949,34.99498],[127.79483,34.99497],[127.79463,34.99495],[127.79446,34.99493],[127.79417,34.99487],[127.79394,34.99481],[127.79374,34.99473],[127.79348,34.99461],[127.79308,34.99436],[127.79271,34.99412],[127.79235,34.99385],[127.79224,34.99373],[127.79216,34.9936],[127.79212,34.99348],[127.79208,34.99325],[127.79206,34.99304],[127.79201,34.99283],[127.79197,34.99266],[127.79192,34.99253],[127.79183,34.99234],[127.79168,34.99209],[127.79144,34.99166],[127.79115,34.99119],[127.79095,34.99092],[127.79078,34.99076],[127.7906,34.99061],[127.79043,34.9905],[127.7903,34.99042],[127.79027,34.99041],[127.79007,34.9903],[127.78956,34.99005],[127.78941,34.98999],[127.78919,34.98989],[127.78909,34.98986],[127.78902,34.98984],[127.78891,34.9898],[127.78872,34.98974],[127.7886,34.98971],[127.78684,34.98923],[127.78655,34.98917],[127.78629,34.98914],[127.78612,34.98915],[127.78593,34.98916],[127.78583,34.98918],[127.78575,34.9892],[127.78553,34.98926],[127.78513,34.98939],[127.78487,34.9895],[127.78458,34.98962],[127.78265,34.98969],[127.7783,34.98886],[127.78274,34.9993],[127.78295,34.9998],[127.78339,35.00087],[127.78343,35.00096],[127.78601,35.0075],[127.7865,35.00878],[127.78655,35.00994],[127.78694,35.01477],[127.78729,35.01625],[127.78715,35.01725],[127.78647,35.01872],[127.78574,35.0197],[127.78426,35.02119],[127.78275,35.02253],[127.77832,35.0249],[127.77706,35.02563],[127.77779,35.02652],[127.77846,35.02726],[127.7791,35.02775],[127.77914,35.02778],[127.77918,35.02781],[127.77952,35.02801],[127.78045,35.02827],[127.78137,35.02835],[127.78161,35.02837],[127.78184,35.02838],[127.78312,35.02873],[127.7845,35.02965],[127.78657,35.03144],[127.7873,35.03216],[127.78766,35.03264],[127.78772,35.0329],[127.78778,35.03353],[127.78771,35.03558],[127.78711,35.03675],[127.78654,35.03684],[127.78578,35.03716],[127.78504,35.03754],[127.78485,35.0377],[127.7847,35.03784],[127.78458,35.03805],[127.78453,35.03825],[127.78456,35.04146],[127.78461,35.04195],[127.78479,35.04248],[127.78503,35.04271],[127.78577,35.04338],[127.78614,35.04369],[127.78645,35.04397],[127.78702,35.04477],[127.78712,35.0452],[127.78705,35.04551],[127.78696,35.04574],[127.78645,35.04674],[127.78582,35.04785],[127.78558,35.04821],[127.78518,35.04861],[127.78486,35.04876],[127.78456,35.0489],[127.78423,35.04904],[127.78388,35.04906],[127.78369,35.04901],[127.78327,35.0489],[127.78313,35.04885],[127.78304,35.04881],[127.78295,35.04877],[127.78239,35.04879],[127.78191,35.04881],[127.78114,35.04905],[127.78042,35.04959],[127.7796,35.05027],[127.77922,35.05088],[127.77918,35.05118],[127.77928,35.05149],[127.77946,35.05175],[127.78012,35.05215],[127.78056,35.05181],[127.78125,35.05162],[127.78196,35.05165],[127.78238,35.0518],[127.7851,35.05241],[127.78943,35.05262],[127.79,35.05258],[127.79009,35.05258],[127.79265,35.05238],[127.79572,35.05118],[127.7975,35.05045],[127.79782,35.05015],[127.79804,35.04992],[127.79827,35.04969],[127.79875,35.04932],[127.79949,35.04908],[127.80413,35.04897],[127.80444,35.04903],[127.80479,35.04909],[127.80486,35.04912],[127.80492,35.04915],[127.80542,35.04937],[127.80621,35.04983],[127.80634,35.0499],[127.80644,35.04997],[127.80721,35.05046],[127.80742,35.05059],[127.80754,35.05076],[127.80823,35.05451],[127.80899,35.05914],[127.80846,35.0602],[127.80794,35.06062],[127.80754,35.06082],[127.80719,35.06099],[127.80688,35.06122],[127.80492,35.06293],[127.80462,35.06356],[127.80452,35.06376],[127.80502,35.06486],[127.80538,35.06557],[127.80586,35.06634],[127.80862,35.06941],[127.80928,35.07004],[127.81566,35.06859],[127.8183,35.0688],[127.81865,35.06878],[127.81949,35.06874],[127.82118,35.06857],[127.82404,35.06768],[127.82427,35.06745],[127.82446,35.0667],[127.82455,35.06634],[127.82494,35.06471],[127.82579,35.06268],[127.82601,35.06249],[127.82684,35.06199],[127.82717,35.06028],[127.82735,35.05849],[127.82741,35.05702],[127.82706,35.05322],[127.82693,35.05284],[127.82665,35.05258],[127.82497,35.05108],[127.8245,35.05068],[127.8237,35.04988],[127.82286,35.04854],[127.82283,35.04849],[127.82505,35.04749],[127.82749,35.04667],[127.83279,35.04328],[127.83519,35.04237],[127.83592,35.04196],[127.83744,35.04039],[127.8377,35.03989],[127.83969,35.0376],[127.84022,35.03741],[127.84057,35.03733],[127.84136,35.03737],[127.8431,35.03754],[127.84887,35.03704],[127.84928,35.03672],[127.84933,35.03666],[127.84969,35.03621],[127.85008,35.03511],[127.85412,35.03228]]]]}},{"type":"Feature","properties":{"code":"48850360","name":"금남면","parent":"48850"},"geometry":{"type":"MultiPolygon","coordinates":[[[[127.83405,34.92478],[127.83037,34.92477],[127.83017,34.92477],[127.82944,34.92483],[127.82919,34.92487],[127.82903,34.92492],[127.82889,34.92504],[127.82872,34.92549],[127.82869,34.92563],[127.82881,34.92574],[127.83396,34.92688],[127.83417,34.92688],[127.83427,34.92685],[127.83465,34.92657],[127.83488,34.92639],[127.83492,34.9262],[127.83482,34.92574],[127.83474,34.92561],[127.83416,34.92484],[127.83405,34.92478]]],[[[127.84046,34.92402],[127.84025,34.92402],[127.84005,34.92415],[127.83965,34.92465],[127.83882,34.92608],[127.8388,34.92621],[127.83888,34.92631],[127.83959,34.92705],[127.83973,34.92711],[127.83989,34.92712],[127.84005,34.92703],[127.84078,34.92436],[127.84071,34.92415],[127.84046,34.92402]]],[[[127.83923,34.93024],[127.83862,34.93016],[127.83848,34.93022],[127.8378,34.93078],[127.83732,34.93272],[127.83738,34.93298],[127.83752,34.93302],[127.83857,34.93312],[127.83878,34.93314],[127.83908,34.93298],[127.83956,34.9326],[127.84044,34.93113],[127.84048,34.93099],[127.84049,34.9309],[127.84033,34.9307],[127.83974,34.93041],[127.83949,34.93028],[127.83923,34.93024]]],[[[127.83425,34.92776],[127.83413,34.92776],[127.83378,34.92779],[127.83071,34.92829],[127.82999,34.92853],[127.8299,34.92857],[127.82981,34.92866],[127.82909,34.92957],[127.82946,34.93004],[127.83085,34.93201],[127.83134,34.93474],[127.83226,34.93823],[127.83272,34.93925],[127.83348,34.93925],[127.83397,34.93845],[127.83347,34.93499],[127.83281,34.9348],[127.8324,34.9341],[127.83239,34.93218],[127.8331,34.93081],[127.8346,34.92934],[127.83464,34.92929],[127.83465,34.92925],[127.83464,34.9292],[127.83443,34.92801],[127.83441,34.92792],[127.83437,34.92785],[127.83432,34.9278],[127.83425,34.92776]]],[[[127.91716,34.96995],[127.91696,34.9699],[127.91678,34.96993],[127.91665,34.97008],[127.91649,34.97029],[127.91589,34.97189],[127.91585,34.97204],[127.91586,34.97221],[127.91592,34.9725],[127.91606,34.97266],[127.91705,34.97282],[127.91727,34.97282],[127.91743,34.97271],[127.91802,34.97104],[127.91799,34.97092],[127.91794,34.97082],[127.91756,34.97026],[127.91747,34.97014],[127.91733,34.97003],[127.91716,34.96995]]],[[[127.9155,34.97653],[127.91559,34.97604],[127.91733,34.97662],[127.91752,34.97667],[127.91776,34.97667],[127.91913,34.97649],[127.922,34.97592],[127.92216,34.97587],[127.92224,34.97575],[127.92227,34.97558],[127.92223,34.97474],[127.92209,34.97462],[127.91755,34.97418],[127.91726,34.97418],[127.91705,34.9742],[127.9169,34.97423],[127.91495,34.97544],[127.91498,34.97601],[127.91515,34.97638],[127.91532,34.97668],[127.9155,34.97653]]],[[[127.86012,35.00535],[127.86022,35.00484],[127.86038,35.00278],[127.86039,35.00255],[127.86044,35.00167],[127.86047,35.00093],[127.86114,34.9991],[127.86156,34.99801],[127.86175,34.9976],[127.86273,34.99573],[127.86278,34.99566],[127.8646,34.99472],[127.86467,34.99469],[127.86973,34.99282],[127.86983,34.99279],[127.8702,34.99273],[127.87049,34.9927],[127.87122,34.99266],[127.87136,34.99266],[127.8715,34.99267],[127.87156,34.99268],[127.8716,34.9927],[127.87284,34.99308],[127.87575,34.99341],[127.87631,34.9932],[127.87705,34.99292],[127.88281,34.99193],[127.88633,34.99133],[127.88762,34.99021],[127.89097,34.98941],[127.8914,34.98935],[127.89195,34.9893],[127.89273,34.98931],[127.89321,34.98935],[127.8937,34.98942],[127.89399,34.98948],[127.89434,34.98959],[127.89465,34.98973],[127.89493,34.98989],[127.89588,34.99037],[127.89707,34.99098],[127.89729,34.99108],[127.89745,34.99112],[127.89764,34.99112],[127.8995,34.99108],[127.89958,34.99106],[127.90223,34.98939],[127.90598,34.98698],[127.90615,34.98697],[127.90711,34.9869],[127.90716,34.98689],[127.90729,34.98685],[127.90742,34.98681],[127.90921,34.98606],[127.91002,34.98544],[127.91111,34.9844],[127.91155,34.98397],[127.90997,34.98369],[127.909,34.98319],[127.91063,34.98082],[127.91173,34.97977],[127.91059,34.9776],[127.91109,34.97509],[127.91177,34.97409],[127.91223,34.97327],[127.9121,34.97246],[127.91172,34.97197],[127.91124,34.97138],[127.91053,34.97064],[127.91047,34.97069],[127.91112,34.97139],[127.91114,34.97194],[127.90992,34.97262],[127.90913,34.97292],[127.90853,34.9731],[127.90786,34.97309],[127.90728,34.97289],[127.90639,34.97255],[127.90187,34.9698],[127.90131,34.96935],[127.90111,34.96915],[127.90071,34.96864],[127.90034,34.96764],[127.9001,34.96697],[127.90132,34.96648],[127.90186,34.96592],[127.90217,34.96536],[127.90311,34.96198],[127.90394,34.95833],[127.90217,34.95476],[127.90121,34.95441],[127.89598,34.95487],[127.89538,34.95623],[127.89444,34.95781],[127.89147,34.95619],[127.89241,34.95432],[127.89248,34.95339],[127.89118,34.95369],[127.88907,34.95536],[127.88721,34.95487],[127.88784,34.95397],[127.8879,34.95309],[127.88675,34.95175],[127.88658,34.95174],[127.88562,34.95325],[127.88519,34.9559],[127.88473,34.95572],[127.88357,34.95488],[127.88171,34.953],[127.88147,34.95205],[127.88083,34.94939],[127.87486,34.9469],[127.87163,34.94626],[127.86946,34.9475],[127.86797,34.94742],[127.86658,34.9463],[127.86565,34.94574],[127.86324,34.94575],[127.85831,34.94721],[127.85762,34.94768],[127.85856,34.949],[127.85903,34.94975],[127.85889,34.94987],[127.858,34.95061],[127.85523,34.9494],[127.85602,34.94817],[127.85523,34.94773],[127.84761,34.94634],[127.84566,34.9472],[127.84717,34.94795],[127.8481,34.94926],[127.84707,34.95003],[127.84441,34.94872],[127.84275,34.95507],[127.84277,34.95687],[127.84532,34.95817],[127.84494,34.95885],[127.84453,34.9596],[127.8441,34.96025],[127.84385,34.96064],[127.84133,34.9617],[127.84086,34.96114],[127.84037,34.95764],[127.83907,34.95443],[127.83861,34.95431],[127.83845,34.95427],[127.83707,34.9566],[127.83705,34.95666],[127.83669,34.95795],[127.837,34.95927],[127.83542,34.95885],[127.83515,34.95913],[127.83465,34.96096],[127.83431,34.96222],[127.83377,34.9622],[127.83316,34.96213],[127.8328,34.96209],[127.83255,34.96202],[127.82837,34.96259],[127.82199,34.96383],[127.82184,34.96387],[127.82175,34.96395],[127.82106,34.96471],[127.82104,34.96476],[127.821,34.96483],[127.82099,34.96494],[127.82109,34.96577],[127.82114,34.96597],[127.82147,34.96693],[127.82154,34.9671],[127.82163,34.96736],[127.82174,34.96755],[127.82184,34.96765],[127.82193,34.96773],[127.82203,34.96778],[127.82285,34.96812],[127.82379,34.9685],[127.82413,34.96865],[127.82427,34.96876],[127.82471,34.96927],[127.82475,34.96932],[127.82474,34.9694],[127.82426,34.9705],[127.8242,34.97064],[127.82266,34.97326],[127.82222,34.9739],[127.82213,34.974],[127.822,34.97411],[127.8212,34.97447],[127.82099,34.97454],[127.81955,34.97473],[127.81811,34.9749],[127.81367,34.97569],[127.81356,34.97572],[127.81266,34.97631],[127.81042,34.97785],[127.81022,34.97798],[127.81014,34.9781],[127.80969,34.97888],[127.80954,34.97921],[127.80947,34.97944],[127.80943,34.97965],[127.80943,34.9798],[127.8095,34.98003],[127.80961,34.98025],[127.80995,34.98079],[127.81023,34.98123],[127.81031,34.98133],[127.81095,34.98203],[127.81179,34.98321],[127.81247,34.98453],[127.81263,34.98511],[127.81224,34.98588],[127.81219,34.98591],[127.81213,34.98592],[127.80799,34.98538],[127.80257,34.9845],[127.80228,34.98445],[127.80046,34.98468],[127.79862,34.98695],[127.79853,34.98708],[127.79846,34.98719],[127.79761,34.98892],[127.79757,34.98904],[127.79752,34.98924],[127.79731,34.99037],[127.79607,34.99316],[127.79602,34.9933],[127.79598,34.99348],[127.79598,34.9936],[127.79605,34.99388],[127.79614,34.99403],[127.79667,34.99478],[127.79792,34.9935],[127.79797,34.99344],[127.79804,34.99337],[127.79812,34.9933],[127.79821,34.99322],[127.79827,34.99318],[127.79834,34.99312],[127.79842,34.99308],[127.79849,34.99303],[127.80045,34.99176],[127.8005,34.99174],[127.80054,34.99171],[127.80068,34.99169],[127.80075,34.99168],[127.80079,34.99167],[127.8009,34.99167],[127.801,34.99169],[127.80116,34.99173],[127.8012,34.99174],[127.80155,34.99186],[127.80167,34.99191],[127.80185,34.99198],[127.80235,34.99217],[127.80296,34.99246],[127.80313,34.99257],[127.80367,34.993],[127.80379,34.99315],[127.80384,34.99327],[127.80385,34.99343],[127.80385,34.99367],[127.80386,34.99379],[127.80391,34.99399],[127.80412,34.99473],[127.80426,34.99513],[127.80444,34.99569],[127.80448,34.99577],[127.80619,34.99854],[127.80625,34.99861],[127.80633,34.9987],[127.80649,34.99882],[127.80687,34.99904],[127.80777,34.99956],[127.80786,34.99961],[127.80797,34.99967],[127.80803,34.9997],[127.80806,34.99971],[127.8081,34.99972],[127.80819,34.99976],[127.80854,34.99984],[127.80865,34.99986],[127.80872,34.99988],[127.8089,34.99995],[127.80928,35.00012],[127.80962,35.00032],[127.80997,35.00052],[127.81041,35.00084],[127.81068,35.00107],[127.81181,35.00218],[127.81216,35.00256],[127.8124,35.00287],[127.81265,35.00325],[127.81276,35.00384],[127.81279,35.00388],[127.81307,35.00431],[127.81334,35.00454],[127.81665,35.00536],[127.81826,35.00553],[127.81848,35.00551],[127.82015,35.00535],[127.82373,35.00687],[127.82418,35.00718],[127.82456,35.00724],[127.82459,35.00724],[127.82528,35.00719],[127.82789,35.00646],[127.82795,35.00539],[127.82785,35.00383],[127.82803,35.00346],[127.8283,35.00347],[127.8286,35.00348],[127.8292,35.00365],[127.83002,35.0042],[127.83175,35.00545],[127.83369,35.00757],[127.83538,35.01009],[127.8356,35.01041],[127.83579,35.0106],[127.83621,35.01067],[127.83737,35.01039],[127.83928,35.00991],[127.84454,35.0079],[127.84547,35.00738],[127.84646,35.00677],[127.84691,35.00679],[127.84817,35.00692],[127.84904,35.00707],[127.84948,35.00729],[127.84997,35.00753],[127.8502,35.00767],[127.85044,35.0078],[127.85092,35.00785],[127.85173,35.0077],[127.85185,35.00767],[127.85459,35.00677],[127.85513,35.00642],[127.85541,35.00619],[127.85565,35.006],[127.85599,35.00592],[127.85951,35.00529],[127.86012,35.00535]]]]}},{"type":"Feature","properties":{"code":"48850420","name":"금성면","parent":"48850"},"geometry":{"type":"MultiPolygon","coordinates":[[[[127.78354,34.93834],[127.78249,34.93714],[127.78189,34.93719],[127.7806,34.93854],[127.78058,34.9391],[127.78154,34.94151],[127.78156,34.94156],[127.78161,34.94161],[127.78168,34.94166],[127.78184,34.94173],[127.78192,34.94176],[127.78197,34.94177],[127.78205,34.94177],[127.78213,34.94174],[127.78221,34.94167],[127.78227,34.94159],[127.7823,34.94154],[127.78281,34.94057],[127.78283,34.94053],[127.78285,34.94049],[127.78309,34.93907],[127.78318,34.93903],[127.78324,34.939],[127.78328,34.93895],[127.78337,34.93885],[127.78354,34.93834]]],[[[127.76633,34.96495],[127.76616,34.96487],[127.7643,34.96514],[127.76414,34.96517],[127.764,34.96522],[127.76381,34.96531],[127.76347,34.96546],[127.76332,34.96556],[127.76223,34.96637],[127.76206,34.96654],[127.76197,34.9669],[127.76193,34.96719],[127.76193,34.96763],[127.76199,34.96805],[127.76222,34.9688],[127.76269,34.9701],[127.76278,34.97025],[127.76334,34.97104],[127.76343,34.97113],[127.7637,34.9712],[127.76393,34.9712],[127.76406,34.97116],[127.76477,34.96938],[127.76491,34.96815],[127.7651,34.96732],[127.76545,34.96646],[127.76557,34.96626],[127.76579,34.96595],[127.76596,34.96577],[127.76611,34.96563],[127.76628,34.96547],[127.76635,34.96538],[127.76641,34.96526],[127.76642,34.96508],[127.76633,34.96495]]],[[[127.83542,34.95885],[127.83705,34.95666],[127.83707,34.9566],[127.83643,34.95651],[127.83604,34.95644],[127.83617,34.95596],[127.83643,34.95516],[127.83705,34.9531],[127.83725,34.95237],[127.83723,34.95119],[127.83718,34.95079],[127.83704,34.95033],[127.83689,34.94995],[127.83855,34.95026],[127.8389,34.95094],[127.83845,34.95427],[127.83861,34.95431],[127.83907,34.95112],[127.83908,34.95092],[127.8387,34.95022],[127.83864,34.95017],[127.83676,34.94961],[127.83459,34.94909],[127.83241,34.94956],[127.83075,34.95114],[127.83019,34.95119],[127.82873,34.95088],[127.82805,34.95028],[127.82905,34.94899],[127.82949,34.94862],[127.82954,34.94802],[127.82477,34.94644],[127.82263,34.94516],[127.82117,34.94457],[127.81852,34.94362],[127.81742,34.94501],[127.81643,34.94658],[127.81621,34.94713],[127.81666,34.94736],[127.81705,34.94708],[127.8176,34.94657],[127.81816,34.94652],[127.81839,34.94735],[127.81857,34.94841],[127.81847,34.94891],[127.81808,34.94928],[127.81419,34.94874],[127.80989,34.94806],[127.81095,34.94786],[127.81145,34.94712],[127.81249,34.94426],[127.81408,34.94102],[127.81453,34.94139],[127.81515,34.94175],[127.81672,34.94179],[127.81755,34.9416],[127.81777,34.9409],[127.81732,34.94017],[127.81669,34.93962],[127.81585,34.93903],[127.81512,34.93899],[127.81362,34.93964],[127.81071,34.9398],[127.8097,34.93944],[127.80969,34.93893],[127.80969,34.93838],[127.8084,34.93843],[127.80739,34.93862],[127.80678,34.93909],[127.80707,34.93964],[127.80819,34.94023],[127.80853,34.94069],[127.80772,34.943],[127.8075,34.94346],[127.8069,34.94369],[127.79434,34.94086],[127.79324,34.94049],[127.78987,34.93999],[127.78634,34.9399],[127.78573,34.93993],[127.7852,34.9402],[127.78165,34.94358],[127.78082,34.9444],[127.78039,34.94502],[127.78014,34.94565],[127.77987,34.94673],[127.77978,34.94743],[127.77984,34.94785],[127.77937,34.94952],[127.77662,34.95311],[127.77562,34.95378],[127.77531,34.95394],[127.77496,34.95404],[127.77425,34.95425],[127.77367,34.95459],[127.77342,34.95483],[127.77288,34.95616],[127.77155,34.96057],[127.77201,34.96222],[127.77215,34.96356],[127.77008,34.96685],[127.76963,34.9665],[127.76897,34.96621],[127.76753,34.96686],[127.7668,34.96787],[127.76624,34.96906],[127.76534,34.97145],[127.76509,34.97279],[127.76523,34.97394],[127.7655,34.97513],[127.76685,34.97795],[127.76747,34.97899],[127.76809,34.97953],[127.77078,34.98096],[127.77126,34.98113],[127.7732,34.98145],[127.77373,34.9818],[127.77669,34.9842],[127.77926,34.98689],[127.78011,34.98837],[127.77777,34.98811],[127.7783,34.98886],[127.78265,34.98969],[127.78458,34.98962],[127.78487,34.9895],[127.78513,34.98939],[127.78553,34.98926],[127.78575,34.9892],[127.78583,34.98918],[127.78593,34.98916],[127.78612,34.98915],[127.78629,34.98914],[127.78655,34.98917],[127.78684,34.98923],[127.7886,34.98971],[127.78872,34.98974],[127.78891,34.9898],[127.78902,34.98984],[127.78909,34.98986],[127.78919,34.98989],[127.78941,34.98999],[127.78956,34.99005],[127.79007,34.9903],[127.79027,34.99041],[127.7903,34.99042],[127.79043,34.9905],[127.7906,34.99061],[127.79078,34.99076],[127.79095,34.99092],[127.79115,34.99119],[127.79144,34.99166],[127.79168,34.99209],[127.79183,34.99234],[127.79192,34.99253],[127.79197,34.99266],[127.79201,34.99283],[127.79206,34.99304],[127.79208,34.99325],[127.79212,34.99348],[127.79216,34.9936],[127.79224,34.99373],[127.79235,34.99385],[127.79271,34.99412],[127.79308,34.99436],[127.79348,34.99461],[127.79374,34.99473],[127.79394,34.99481],[127.79417,34.99487],[127.79446,34.99493],[127.79463,34.99495],[127.79483,34.99497],[127.7949,34.99498],[127.79494,34.99498],[127.79541,34.99501],[127.7958,34.99499],[127.79598,34.99496],[127.79617,34.99493],[127.79667,34.99478],[127.79614,34.99403],[127.79605,34.99388],[127.79598,34.9936],[127.79598,34.99348],[127.79602,34.9933],[127.79607,34.99316],[127.79731,34.99037],[127.79752,34.98924],[127.79757,34.98904],[127.79761,34.98892],[127.79846,34.98719],[127.79853,34.98708],[127.79862,34.98695],[127.80046,34.98468],[127.80228,34.98445],[127.80257,34.9845],[127.80799,34.98538],[127.81213,34.98592],[127.81219,34.98591],[127.81224,34.98588],[127.81263,34.98511],[127.81247,34.98453],[127.81179,34.98321],[127.81095,34.98203],[127.81031,34.98133],[127.81023,34.98123],[127.80995,34.98079],[127.80961,34.98025],[127.8095,34.98003],[127.80943,34.9798],[127.80943,34.97965],[127.80947,34.97944],[127.80954,34.97921],[127.80969,34.97888],[127.81014,34.9781],[127.81022,34.97798],[127.81042,34.97785],[127.81266,34.97631],[127.81356,34.97572],[127.81367,34.97569],[127.81811,34.9749],[127.81955,34.97473],[127.82099,34.97454],[127.8212,34.97447],[127.822,34.97411],[127.82213,34.974],[127.82222,34.9739],[127.82266,34.97326],[127.8242,34.97064],[127.82426,34.9705],[127.82474,34.9694],[127.82475,34.96932],[127.82471,34.96927],[127.82427,34.96876],[127.82413,34.96865],[127.82379,34.9685],[127.82285,34.96812],[127.82203,34.96778],[127.82193,34.96773],[127.82184,34.96765],[127.82174,34.96755],[127.82163,34.96736],[127.82154,34.9671],[127.82147,34.96693],[127.82114,34.96597],[127.82109,34.96577],[127.82099,34.96494],[127.821,34.96483],[127.82104,34.96476],[127.82106,34.96471],[127.82175,34.96395],[127.82184,34.96387],[127.82199,34.96383],[127.82837,34.96259],[127.83255,34.96202],[127.8328,34.96209],[127.83316,34.96213],[127.83377,34.9622],[127.83431,34.96222],[127.83465,34.96096],[127.83515,34.95913],[127.83542,34.95885]]]]}},{"type":"Feature","properties":{"code":"48850370","name":"진교면","parent":"48850"},"geometry":{"type":"MultiPolygon","coordinates":[[[[127.92114,34.98589],[127.92202,34.98495],[127.92304,34.98497],[127.92403,34.98462],[127.92479,34.98275],[127.92441,34.98123],[127.9238,34.98053],[127.92328,34.98034],[127.92239,34.98038],[127.92225,34.98042],[127.92212,34.98051],[127.92144,34.98114],[127.92136,34.98126],[127.92057,34.98323],[127.9205,34.98365],[127.92044,34.98521],[127.92045,34.98576],[127.9205,34.98589],[127.92062,34.986],[127.92085,34.98607],[127.92105,34.98597],[127.92114,34.98589]]],[[[127.89162,35.08642],[127.89192,35.08614],[127.89206,35.08599],[127.89327,35.08445],[127.89402,35.08348],[127.89422,35.0832],[127.89439,35.08291],[127.89479,35.08196],[127.89497,35.08124],[127.895,35.08102],[127.89503,35.08088],[127.89547,35.07993],[127.89553,35.07978],[127.89568,35.07953],[127.89589,35.07928],[127.89595,35.07924],[127.89604,35.07922],[127.8961,35.07921],[127.89842,35.07909],[127.89865,35.07909],[127.89872,35.0791],[127.8988,35.0791],[127.89895,35.07915],[127.89913,35.07922],[127.89927,35.07928],[127.89938,35.07932],[127.89955,35.07939],[127.89977,35.07945],[127.9011,35.07971],[127.90124,35.07972],[127.90326,35.07973],[127.90335,35.07973],[127.90346,35.07971],[127.90463,35.07947],[127.90467,35.07946],[127.90623,35.07882],[127.9063,35.07879],[127.9064,35.07872],[127.90673,35.07839],[127.90703,35.07809],[127.90745,35.07707],[127.90838,35.07465],[127.91196,35.07374],[127.9129,35.06972],[127.91446,35.0647],[127.91447,35.06466],[127.91449,35.06463],[127.91456,35.06453],[127.91459,35.06452],[127.91532,35.06413],[127.91535,35.06411],[127.91538,35.0641],[127.91545,35.06408],[127.91657,35.06386],[127.91734,35.06378],[127.91887,35.06366],[127.91894,35.06367],[127.919,35.06368],[127.91911,35.06372],[127.91922,35.06378],[127.91935,35.06388],[127.91942,35.06392],[127.92034,35.06433],[127.92225,35.06209],[127.92228,35.06203],[127.92316,35.05991],[127.92413,35.05725],[127.92423,35.05697],[127.92423,35.05693],[127.92422,35.05688],[127.92416,35.05677],[127.92411,35.05671],[127.92406,35.05666],[127.92397,35.0566],[127.92526,35.05354],[127.92903,35.05068],[127.92921,35.05052],[127.92939,35.05033],[127.92944,35.05028],[127.92957,35.05013],[127.93047,35.04914],[127.93051,35.04909],[127.93131,35.04794],[127.93134,35.04788],[127.93135,35.04783],[127.93135,35.04779],[127.93131,35.04768],[127.93121,35.04742],[127.93091,35.04686],[127.93083,35.04675],[127.92935,35.04583],[127.92461,35.04253],[127.92369,35.04188],[127.92367,35.04185],[127.92364,35.0418],[127.92363,35.04164],[127.92332,35.03805],[127.92347,35.03796],[127.92376,35.03782],[127.92392,35.03774],[127.92407,35.03768],[127.92415,35.03765],[127.92422,35.03761],[127.92427,35.03758],[127.92432,35.03755],[127.92435,35.03753],[127.9244,35.03741],[127.92446,35.03725],[127.92483,35.03603],[127.92485,35.03593],[127.92483,35.03585],[127.92472,35.03548],[127.92461,35.03515],[127.92451,35.03491],[127.92438,35.03469],[127.9243,35.03458],[127.92424,35.03448],[127.92417,35.0344],[127.92408,35.03429],[127.92396,35.03415],[127.9239,35.03409],[127.92383,35.03406],[127.92373,35.03401],[127.92363,35.03399],[127.92353,35.03396],[127.92342,35.03392],[127.92337,35.0339],[127.92322,35.03382],[127.92311,35.03375],[127.92307,35.03372],[127.92301,35.03367],[127.92294,35.03351],[127.92293,35.03337],[127.92294,35.03327],[127.92298,35.03309],[127.92358,35.03091],[127.92435,35.03017],[127.92226,35.01504],[127.92226,35.01496],[127.92226,35.01489],[127.92229,35.01481],[127.9225,35.01416],[127.92255,35.01404],[127.91881,35.01063],[127.91859,35.01028],[127.91859,35.01012],[127.91859,35.00999],[127.9189,35.00964],[127.92091,35.00883],[127.9221,35.0077],[127.92242,35.00719],[127.92265,35.0068],[127.92272,35.0059],[127.9226,35.00503],[127.9221,35.00444],[127.92137,35.00388],[127.91977,35.00179],[127.91804,34.99916],[127.91702,34.99745],[127.91688,34.99702],[127.9168,34.99541],[127.91711,34.99495],[127.91787,34.99494],[127.91939,34.99254],[127.91905,34.99178],[127.91891,34.99118],[127.91916,34.99076],[127.92015,34.99032],[127.92115,34.99031],[127.92198,34.99013],[127.9224,34.98961],[127.92253,34.9888],[127.92197,34.98818],[127.9212,34.98796],[127.92085,34.98791],[127.91983,34.98808],[127.91904,34.98814],[127.91852,34.98799],[127.91833,34.98757],[127.9191,34.98402],[127.91969,34.98246],[127.91974,34.98134],[127.91918,34.98049],[127.91795,34.97981],[127.91791,34.97982],[127.91422,34.98188],[127.91287,34.98275],[127.91198,34.98356],[127.91155,34.98397],[127.91111,34.9844],[127.91002,34.98544],[127.90921,34.98606],[127.90742,34.98681],[127.90729,34.98685],[127.90716,34.98689],[127.90711,34.9869],[127.90615,34.98697],[127.90598,34.98698],[127.90223,34.98939],[127.89958,34.99106],[127.8995,34.99108],[127.89764,34.99112],[127.89745,34.99112],[127.89729,34.99108],[127.89707,34.99098],[127.89588,34.99037],[127.89493,34.98989],[127.89465,34.98973],[127.89434,34.98959],[127.89399,34.98948],[127.8937,34.98942],[127.89321,34.98935],[127.89273,34.98931],[127.89195,34.9893],[127.8914,34.98935],[127.89097,34.98941],[127.88762,34.99021],[127.88633,34.99133],[127.88281,34.99193],[127.87705,34.99292],[127.87631,34.9932],[127.87575,34.99341],[127.87284,34.99308],[127.8716,34.9927],[127.87156,34.99268],[127.8715,34.99267],[127.87136,34.99266],[127.87122,34.99266],[127.87049,34.9927],[127.8702,34.99273],[127.86983,34.99279],[127.86973,34.99282],[127.86467,34.99469],[127.8646,34.99472],[127.86278,34.99566],[127.86273,34.99573],[127.86175,34.9976],[127.86156,34.99801],[127.86114,34.9991],[127.86047,35.00093],[127.86044,35.00167],[127.86039,35.00255],[127.86038,35.00278],[127.86022,35.00484],[127.86012,35.00535],[127.86084,35.00617],[127.86098,35.0065],[127.86112,35.0071],[127.86122,35.00783],[127.86102,35.00934],[127.85903,35.01549],[127.85867,35.01639],[127.85816,35.01728],[127.85753,35.0183],[127.86025,35.01935],[127.86047,35.0194],[127.86056,35.01942],[127.8606,35.0197],[127.86063,35.0229],[127.86062,35.0235],[127.86031,35.02508],[127.86008,35.02581],[127.85986,35.02621],[127.85763,35.03011],[127.85726,35.03046],[127.85692,35.03066],[127.85618,35.03109],[127.85412,35.03228],[127.85549,35.03283],[127.85931,35.03468],[127.85982,35.03474],[127.86032,35.03453],[127.86077,35.03415],[127.86155,35.03333],[127.86401,35.03238],[127.86566,35.03221],[127.86715,35.0322],[127.86937,35.03243],[127.87212,35.03304],[127.87302,35.03327],[127.87317,35.03335],[127.87339,35.03351],[127.87456,35.03445],[127.87882,35.03841],[127.87889,35.03847],[127.87899,35.03861],[127.87902,35.0387],[127.87906,35.03889],[127.87914,35.03953],[127.87914,35.03957],[127.87898,35.03994],[127.87893,35.04003],[127.87865,35.04046],[127.87832,35.04076],[127.87762,35.04155],[127.87687,35.04271],[127.87671,35.043],[127.87663,35.04319],[127.87661,35.04325],[127.87661,35.04334],[127.87661,35.0434],[127.87665,35.04354],[127.87672,35.04371],[127.87694,35.04415],[127.87706,35.04435],[127.87709,35.0444],[127.8772,35.04453],[127.87724,35.04456],[127.87728,35.04457],[127.87735,35.04459],[127.87751,35.04459],[127.87799,35.04457],[127.87878,35.04452],[127.87886,35.04452],[127.87891,35.04452],[127.87896,35.04452],[127.87902,35.04453],[127.87908,35.04455],[127.87912,35.04456],[127.8794,35.04465],[127.87967,35.04475],[127.8798,35.04481],[127.87993,35.04487],[127.88017,35.045],[127.8804,35.04515],[127.88064,35.04531],[127.88082,35.0455],[127.88088,35.0456],[127.88092,35.04573],[127.88096,35.04592],[127.88101,35.04624],[127.88106,35.04722],[127.88107,35.04736],[127.88106,35.04747],[127.88094,35.04845],[127.87924,35.04989],[127.87916,35.04993],[127.87898,35.05001],[127.87786,35.05189],[127.87787,35.05347],[127.87786,35.05483],[127.87784,35.05488],[127.87782,35.05491],[127.87712,35.05573],[127.87706,35.05579],[127.87699,35.05584],[127.87691,35.05588],[127.87684,35.05591],[127.87677,35.05594],[127.87668,35.05598],[127.87621,35.05615],[127.87595,35.05622],[127.8738,35.05667],[127.87316,35.05817],[127.87457,35.0602],[127.87614,35.06266],[127.87617,35.06272],[127.87623,35.06286],[127.87627,35.06298],[127.87625,35.06306],[127.87617,35.06329],[127.87605,35.06354],[127.87601,35.0636],[127.87598,35.06364],[127.87588,35.06375],[127.87573,35.06383],[127.87557,35.06392],[127.87544,35.06399],[127.87507,35.06418],[127.87499,35.06422],[127.87439,35.06455],[127.8743,35.0646],[127.87425,35.06464],[127.87417,35.06477],[127.87404,35.06498],[127.87397,35.0651],[127.8739,35.06522],[127.87374,35.06553],[127.87356,35.06587],[127.87316,35.06669],[127.87312,35.06678],[127.87297,35.06771],[127.87284,35.06861],[127.87181,35.07152],[127.87121,35.07288],[127.87107,35.07305],[127.87097,35.07317],[127.87032,35.07328],[127.8699,35.07341],[127.86811,35.07426],[127.86807,35.07441],[127.86734,35.07818],[127.86729,35.07875],[127.86728,35.0789],[127.86753,35.07996],[127.86768,35.0808],[127.86756,35.08165],[127.86698,35.08436],[127.86661,35.08482],[127.86629,35.08514],[127.86592,35.08551],[127.86584,35.08585],[127.86582,35.08593],[127.86652,35.08625],[127.86744,35.08649],[127.86949,35.08645],[127.87042,35.08658],[127.8713,35.08727],[127.87254,35.08835],[127.87389,35.08886],[127.87505,35.08886],[127.87527,35.08884],[127.87544,35.08881],[127.87711,35.08851],[127.87769,35.08841],[127.87889,35.08815],[127.88005,35.08782],[127.88049,35.08769],[127.88233,35.08718],[127.88285,35.0871],[127.88295,35.08709],[127.88309,35.08707],[127.88334,35.08705],[127.88384,35.08702],[127.88408,35.08702],[127.88435,35.08704],[127.8847,35.0871],[127.88503,35.08717],[127.88517,35.08721],[127.88537,35.08727],[127.88555,35.08734],[127.88567,35.08742],[127.88591,35.08761],[127.88615,35.08783],[127.8863,35.08796],[127.88648,35.08797],[127.88774,35.08797],[127.89108,35.08675],[127.89131,35.08663],[127.89147,35.08653],[127.89162,35.08642]]]]}},{"type":"Feature","properties":{"code":"48850380","name":"양보면","parent":"48850"},"geometry":{"type":"MultiPolygon","coordinates":[[[[127.87389,35.08886],[127.87254,35.08835],[127.8713,35.08727],[127.87042,35.08658],[127.86949,35.08645],[127.86744,35.08649],[127.86652,35.08625],[127.86582,35.08593],[127.86584,35.08585],[127.86592,35.08551],[127.86629,35.08514],[127.86661,35.08482],[127.86698,35.08436],[127.86756,35.08165],[127.86768,35.0808],[127.86753,35.07996],[127.86728,35.0789],[127.86729,35.07875],[127.86734,35.07818],[127.86807,35.07441],[127.86811,35.07426],[127.8699,35.07341],[127.87032,35.07328],[127.87097,35.07317],[127.87107,35.07305],[127.87121,35.07288],[127.87181,35.07152],[127.87284,35.06861],[127.87297,35.06771],[127.87312,35.06678],[127.87316,35.06669],[127.87356,35.06587],[127.87374,35.06553],[127.8739,35.06522],[127.87397,35.0651],[127.87404,35.06498],[127.87417,35.06477],[127.87425,35.06464],[127.8743,35.0646],[127.87439,35.06455],[127.87499,35.06422],[127.87507,35.06418],[127.87544,35.06399],[127.87557,35.06392],[127.87573,35.06383],[127.87588,35.06375],[127.87598,35.06364],[127.87601,35.0636],[127.87605,35.06354],[127.87617,35.06329],[127.87625,35.06306],[127.87627,35.06298],[127.87623,35.06286],[127.87617,35.06272],[127.87614,35.06266],[127.87457,35.0602],[127.87316,35.05817],[127.8738,35.05667],[127.87595,35.05622],[127.87621,35.05615],[127.87668,35.05598],[127.87677,35.05594],[127.87684,35.05591],[127.87691,35.05588],[127.87699,35.05584],[127.87706,35.05579],[127.87712,35.05573],[127.87782,35.05491],[127.87784,35.05488],[127.87786,35.05483],[127.87787,35.05347],[127.87786,35.05189],[127.87898,35.05001],[127.87916,35.04993],[127.87924,35.04989],[127.88094,35.04845],[127.88106,35.04747],[127.88107,35.04736],[127.88106,35.04722],[127.88101,35.04624],[127.88096,35.04592],[127.88092,35.04573],[127.88088,35.0456],[127.88082,35.0455],[127.88064,35.04531],[127.8804,35.04515],[127.88017,35.045],[127.87993,35.04487],[127.8798,35.04481],[127.87967,35.04475],[127.8794,35.04465],[127.87912,35.04456],[127.87908,35.04455],[127.87902,35.04453],[127.87896,35.04452],[127.87891,35.04452],[127.87886,35.04452],[127.87878,35.04452],[127.87799,35.04457],[127.87751,35.04459],[127.87735,35.04459],[127.87728,35.04457],[127.87724,35.04456],[127.8772,35.04453],[127.87709,35.0444],[127.87706,35.04435],[127.87694,35.04415],[127.87672,35.04371],[127.87665,35.04354],[127.87661,35.0434],[127.87661,35.04334],[127.87661,35.04325],[127.87663,35.04319],[127.87671,35.043],[127.87687,35.04271],[127.87762,35.04155],[127.87832,35.04076],[127.87865,35.04046],[127.87893,35.04003],[127.87898,35.03994],[127.87914,35.03957],[127.87914,35.03953],[127.87906,35.03889],[127.87902,35.0387],[127.87899,35.03861],[127.87889,35.03847],[127.87882,35.03841],[127.87456,35.03445],[127.87339,35.03351],[127.87317,35.03335],[127.87302,35.03327],[127.87212,35.03304],[127.86937,35.03243],[127.86715,35.0322],[127.86566,35.03221],[127.86401,35.03238],[127.86155,35.03333],[127.86077,35.03415],[127.86032,35.03453],[127.85982,35.03474],[127.85931,35.03468],[127.85549,35.03283],[127.85412,35.03228],[127.85008,35.03511],[127.84969,35.03621],[127.84933,35.03666],[127.84928,35.03672],[127.84887,35.03704],[127.8431,35.03754],[127.84136,35.03737],[127.84057,35.03733],[127.84022,35.03741],[127.83969,35.0376],[127.8377,35.03989],[127.83744,35.04039],[127.83592,35.04196],[127.83519,35.04237],[127.83279,35.04328],[127.82749,35.04667],[127.82505,35.04749],[127.82283,35.04849],[127.82286,35.04854],[127.8237,35.04988],[127.8245,35.05068],[127.82497,35.05108],[127.82665,35.05258],[127.82693,35.05284],[127.82706,35.05322],[127.82741,35.05702],[127.82735,35.05849],[127.82717,35.06028],[127.82684,35.06199],[127.82601,35.06249],[127.82579,35.06268],[127.82494,35.06471],[127.82455,35.06634],[127.82446,35.0667],[127.82427,35.06745],[127.82404,35.06768],[127.82118,35.06857],[127.81949,35.06874],[127.81865,35.06878],[127.8183,35.0688],[127.81566,35.06859],[127.80928,35.07004],[127.80915,35.07223],[127.8093,35.07322],[127.80955,35.07363],[127.80964,35.07378],[127.81039,35.07456],[127.81116,35.07565],[127.81148,35.07632],[127.81324,35.08069],[127.81333,35.08431],[127.81434,35.08915],[127.81463,35.09197],[127.81441,35.09255],[127.8143,35.09302],[127.81436,35.09344],[127.8159,35.09465],[127.81631,35.09463],[127.81711,35.09439],[127.81753,35.09445],[127.82019,35.0957],[127.8206,35.09608],[127.82081,35.09641],[127.82122,35.09763],[127.82125,35.09813],[127.82103,35.09918],[127.82116,35.10045],[127.8213,35.10119],[127.82153,35.10154],[127.82176,35.10164],[127.82191,35.1017],[127.82611,35.10243],[127.82646,35.10249],[127.8266,35.10228],[127.82652,35.10163],[127.82657,35.10091],[127.82693,35.10036],[127.82761,35.0997],[127.82823,35.09957],[127.83211,35.09907],[127.83265,35.09911],[127.83281,35.09937],[127.83392,35.10215],[127.835,35.10542],[127.83598,35.10641],[127.83715,35.10691],[127.83852,35.10718],[127.83953,35.10681],[127.84049,35.10659],[127.84151,35.10636],[127.84416,35.10593],[127.84535,35.1059],[127.84637,35.10587],[127.8471,35.10564],[127.84732,35.10529],[127.84733,35.10489],[127.84755,35.10442],[127.84757,35.10437],[127.85033,35.10224],[127.85041,35.10221],[127.85065,35.10212],[127.85103,35.10198],[127.85193,35.10176],[127.85283,35.10155],[127.85329,35.1013],[127.85364,35.10094],[127.85396,35.10017],[127.85423,35.09906],[127.85434,35.09877],[127.85478,35.0984],[127.85602,35.09769],[127.85753,35.09701],[127.86228,35.09497],[127.86922,35.09219],[127.87149,35.09149],[127.87211,35.09144],[127.87283,35.09137],[127.87292,35.09121],[127.87361,35.08956],[127.87389,35.08886]]]]}},{"type":"Feature","properties":{"code":"48850390","name":"북천면","parent":"48850"},"geometry":{"type":"MultiPolygon","coordinates":[[[[127.87942,35.14489],[127.87957,35.14473],[127.88044,35.14382],[127.88149,35.14228],[127.88146,35.14224],[127.88142,35.14217],[127.88115,35.14175],[127.88097,35.14041],[127.88098,35.13955],[127.88273,35.13627],[127.8847,35.13253],[127.88484,35.13175],[127.88523,35.13105],[127.8857,35.1304],[127.88598,35.13028],[127.88867,35.13044],[127.88976,35.13068],[127.89256,35.12871],[127.8931,35.1282],[127.89604,35.12602],[127.89694,35.12568],[127.89736,35.12568],[127.89783,35.12582],[127.89822,35.12594],[127.89908,35.12613],[127.89916,35.12611],[127.89986,35.12593],[127.90262,35.12511],[127.90514,35.1235],[127.91034,35.11993],[127.91052,35.11974],[127.91066,35.11959],[127.91081,35.11942],[127.91084,35.1194],[127.91109,35.11879],[127.91106,35.1185],[127.90984,35.11524],[127.90755,35.11372],[127.90662,35.11318],[127.90631,35.11315],[127.90543,35.11309],[127.90434,35.11278],[127.90085,35.1108],[127.90021,35.11022],[127.8998,35.10974],[127.89935,35.10795],[127.8994,35.10733],[127.89941,35.10717],[127.90098,35.10498],[127.90245,35.10319],[127.90433,35.10154],[127.90558,35.10073],[127.90746,35.09949],[127.90957,35.09749],[127.90907,35.09714],[127.90812,35.09699],[127.90477,35.09608],[127.90325,35.09543],[127.90233,35.09439],[127.90214,35.09369],[127.90203,35.09314],[127.902,35.09205],[127.90221,35.09152],[127.90246,35.09088],[127.90271,35.08973],[127.90227,35.08846],[127.90174,35.08749],[127.90058,35.08767],[127.90045,35.08769],[127.90023,35.08769],[127.90013,35.08769],[127.89337,35.08696],[127.89162,35.08642],[127.89147,35.08653],[127.89131,35.08663],[127.89108,35.08675],[127.88774,35.08797],[127.88648,35.08797],[127.8863,35.08796],[127.88615,35.08783],[127.88591,35.08761],[127.88567,35.08742],[127.88555,35.08734],[127.88537,35.08727],[127.88517,35.08721],[127.88503,35.08717],[127.8847,35.0871],[127.88435,35.08704],[127.88408,35.08702],[127.88384,35.08702],[127.88334,35.08705],[127.88309,35.08707],[127.88295,35.08709],[127.88285,35.0871],[127.88233,35.08718],[127.88049,35.08769],[127.88005,35.08782],[127.87889,35.08815],[127.87769,35.08841],[127.87711,35.08851],[127.87544,35.08881],[127.87527,35.08884],[127.87505,35.08886],[127.87389,35.08886],[127.87361,35.08956],[127.87292,35.09121],[127.87283,35.09137],[127.87211,35.09144],[127.87149,35.09149],[127.86922,35.09219],[127.86228,35.09497],[127.85753,35.09701],[127.85602,35.09769],[127.85478,35.0984],[127.85434,35.09877],[127.85423,35.09906],[127.85396,35.10017],[127.85364,35.10094],[127.85329,35.1013],[127.85283,35.10155],[127.85193,35.10176],[127.85103,35.10198],[127.85065,35.10212],[127.85041,35.10221],[127.85033,35.10224],[127.84757,35.10437],[127.84755,35.10442],[127.84733,35.10489],[127.84732,35.10529],[127.8471,35.10564],[127.84637,35.10587],[127.84535,35.1059],[127.84416,35.10593],[127.84151,35.10636],[127.84049,35.10659],[127.83953,35.10681],[127.83852,35.10718],[127.83797,35.10788],[127.8375,35.10894],[127.83741,35.10961],[127.83786,35.11493],[127.84051,35.12077],[127.84124,35.12142],[127.8423,35.12253],[127.84316,35.12361],[127.84431,35.12567],[127.84474,35.12654],[127.84693,35.13124],[127.847,35.13146],[127.847,35.13189],[127.84665,35.13429],[127.84654,35.13474],[127.84629,35.13573],[127.84598,35.13611],[127.84558,35.13646],[127.84548,35.13654],[127.84515,35.1367],[127.84459,35.1369],[127.84421,35.13707],[127.84382,35.13725],[127.84346,35.13756],[127.8432,35.13779],[127.84296,35.13822],[127.8427,35.13906],[127.84252,35.14015],[127.84226,35.14201],[127.84136,35.14621],[127.84071,35.14805],[127.84068,35.14826],[127.84038,35.15176],[127.84037,35.15213],[127.84044,35.15251],[127.84064,35.15291],[127.84176,35.15468],[127.8424,35.1554],[127.84286,35.15584],[127.84298,35.15632],[127.84298,35.15691],[127.84257,35.15776],[127.84241,35.15803],[127.84233,35.15812],[127.84377,35.15848],[127.84766,35.16003],[127.84792,35.16013],[127.84819,35.16016],[127.84865,35.16011],[127.84965,35.15986],[127.85028,35.15963],[127.85203,35.15954],[127.85336,35.15946],[127.85381,35.15938],[127.85404,35.1593],[127.85485,35.15901],[127.85563,35.15858],[127.85581,35.15846],[127.85678,35.15772],[127.85745,35.15701],[127.85759,35.15687],[127.85838,35.15616],[127.85876,35.15584],[127.86036,35.15501],[127.8608,35.15479],[127.86107,35.15469],[127.86405,35.1539],[127.86555,35.15353],[127.86606,35.15345],[127.8663,35.1534],[127.86742,35.15307],[127.8676,35.15301],[127.8706,35.15165],[127.87093,35.15146],[127.87149,35.15095],[127.87199,35.15037],[127.87207,35.14986],[127.8721,35.14944],[127.87216,35.14925],[127.87238,35.14881],[127.8727,35.14833],[127.87561,35.14648],[127.87568,35.14644],[127.87576,35.14641],[127.87588,35.14639],[127.87594,35.14639],[127.87602,35.14639],[127.87611,35.14641],[127.87642,35.14645],[127.8765,35.14645],[127.87674,35.14641],[127.87692,35.14635],[127.877,35.14631],[127.87719,35.14622],[127.87732,35.14615],[127.87897,35.14525],[127.87903,35.1452],[127.87922,35.14506],[127.87942,35.14489]]]]}},{"type":"Feature","properties":{"code":"48850400","name":"청암면","parent":"48850"},"geometry":{"type":"MultiPolygon","coordinates":[[[[127.78425,35.22095],[127.78302,35.21981],[127.78137,35.21798],[127.78018,35.2165],[127.77924,35.21507],[127.77887,35.21355],[127.77987,35.21292],[127.78087,35.21229],[127.78463,35.2097],[127.7865,35.20761],[127.78877,35.20461],[127.79007,35.20332],[127.79171,35.2017],[127.79198,35.20152],[127.79226,35.20134],[127.79281,35.20119],[127.79432,35.19905],[127.79513,35.19693],[127.79524,35.19598],[127.79511,35.1953],[127.79507,35.19422],[127.79568,35.19041],[127.79583,35.19026],[127.79598,35.19011],[127.79668,35.18974],[127.79739,35.18937],[127.79861,35.18901],[127.80107,35.18905],[127.80328,35.18953],[127.80408,35.18986],[127.80479,35.19038],[127.80532,35.19078],[127.80683,35.18979],[127.80945,35.1867],[127.81054,35.18465],[127.81114,35.18305],[127.81162,35.18144],[127.81195,35.17944],[127.81107,35.17926],[127.80838,35.17873],[127.80794,35.17856],[127.80706,35.17816],[127.80558,35.17739],[127.80291,35.17497],[127.80286,35.17458],[127.80282,35.17432],[127.80283,35.173],[127.80284,35.17253],[127.80331,35.17225],[127.80357,35.17217],[127.80446,35.1719],[127.80503,35.1716],[127.80721,35.17033],[127.80817,35.16958],[127.80845,35.16912],[127.80862,35.16872],[127.80865,35.16757],[127.80876,35.16676],[127.80964,35.16364],[127.81329,35.15289],[127.81436,35.14989],[127.81507,35.14843],[127.81507,35.14802],[127.81473,35.14734],[127.81393,35.14655],[127.8132,35.14636],[127.81239,35.14619],[127.81178,35.1459],[127.80589,35.14152],[127.80549,35.14114],[127.80533,35.1406],[127.80536,35.14016],[127.80546,35.13971],[127.806,35.13883],[127.80627,35.13857],[127.8067,35.13817],[127.80736,35.13746],[127.80781,35.13679],[127.80783,35.13586],[127.80765,35.13492],[127.80737,35.13368],[127.80695,35.13335],[127.80587,35.13271],[127.80433,35.13197],[127.80063,35.13035],[127.80002,35.13029],[127.79874,35.1305],[127.79806,35.13071],[127.79767,35.13032],[127.79542,35.12622],[127.79539,35.12607],[127.79536,35.12527],[127.79533,35.12483],[127.79498,35.12418],[127.79472,35.12377],[127.79327,35.12286],[127.79254,35.12271],[127.79138,35.12272],[127.78789,35.12222],[127.78667,35.12188],[127.78514,35.12284],[127.78386,35.12378],[127.78091,35.12527],[127.77973,35.12565],[127.77938,35.12573],[127.77514,35.12861],[127.77131,35.13149],[127.76752,35.13481],[127.76746,35.13505],[127.76793,35.13556],[127.76839,35.13627],[127.76872,35.1374],[127.76888,35.13832],[127.76875,35.13879],[127.76857,35.13891],[127.76841,35.13902],[127.76695,35.14029],[127.76505,35.14225],[127.76464,35.14271],[127.76454,35.14282],[127.76414,35.1433],[127.76293,35.14519],[127.76301,35.14638],[127.76394,35.15027],[127.7641,35.15065],[127.76412,35.15082],[127.76378,35.15105],[127.76296,35.15141],[127.76087,35.15236],[127.75815,35.15392],[127.75786,35.15414],[127.75762,35.15438],[127.75755,35.15458],[127.75755,35.15513],[127.75737,35.15596],[127.75695,35.15782],[127.75686,35.15819],[127.75657,35.15866],[127.75616,35.15917],[127.75302,35.16224],[127.75262,35.16251],[127.75233,35.16271],[127.75017,35.16402],[127.75,35.16406],[127.7498,35.1641],[127.74755,35.16428],[127.74729,35.16476],[127.74656,35.16606],[127.7465,35.16613],[127.74644,35.16621],[127.74611,35.16641],[127.74588,35.16653],[127.74526,35.16682],[127.74499,35.16701],[127.74315,35.16858],[127.74303,35.1687],[127.74272,35.169],[127.74257,35.16916],[127.73872,35.17412],[127.73865,35.17425],[127.7386,35.17435],[127.73846,35.17461],[127.73842,35.17482],[127.73845,35.17526],[127.73871,35.17637],[127.73881,35.17678],[127.73921,35.17736],[127.73948,35.17764],[127.73967,35.17777],[127.74007,35.17803],[127.74057,35.17854],[127.74146,35.17999],[127.74146,35.18003],[127.7415,35.18024],[127.74151,35.18052],[127.74141,35.18069],[127.7413,35.18087],[127.74095,35.1811],[127.74061,35.1813],[127.74052,35.18137],[127.74043,35.18143],[127.74029,35.18163],[127.7402,35.18184],[127.74009,35.18264],[127.73948,35.18973],[127.7395,35.18994],[127.73969,35.19054],[127.73983,35.19082],[127.74018,35.1913],[127.74066,35.1919],[127.7408,35.19228],[127.74092,35.19268],[127.74098,35.19293],[127.74102,35.19341],[127.74132,35.19829],[127.74132,35.19845],[127.74129,35.19923],[127.73984,35.2057],[127.73783,35.20688],[127.73443,35.2087],[127.7342,35.20882],[127.73359,35.20898],[127.73318,35.20907],[127.73297,35.2091],[127.73098,35.20969],[127.72927,35.21037],[127.72386,35.2134],[127.72299,35.21404],[127.72285,35.21439],[127.72246,35.21512],[127.72103,35.21622],[127.72066,35.21646],[127.71969,35.21697],[127.7189,35.21737],[127.71609,35.21848],[127.71273,35.2201],[127.71261,35.2202],[127.71246,35.22032],[127.71214,35.22073],[127.71199,35.2211],[127.71163,35.22162],[127.71146,35.22181],[127.71086,35.22215],[127.71063,35.22225],[127.71007,35.22235],[127.70953,35.22238],[127.70932,35.22236],[127.70857,35.22223],[127.70793,35.22212],[127.70557,35.2235],[127.7051,35.22376],[127.70403,35.22423],[127.70271,35.22454],[127.70181,35.22464],[127.70107,35.22467],[127.70038,35.22456],[127.70007,35.2245],[127.69989,35.22444],[127.69974,35.22439],[127.69933,35.22425],[127.69833,35.22389],[127.69812,35.22378],[127.69796,35.2237],[127.69607,35.22476],[127.69593,35.22486],[127.69577,35.22498],[127.69525,35.22549],[127.69459,35.22622],[127.6945,35.2264],[127.69438,35.22668],[127.6942,35.22713],[127.69419,35.22751],[127.69426,35.22771],[127.69438,35.22789],[127.69442,35.22793],[127.69446,35.22797],[127.69451,35.22802],[127.69456,35.22808],[127.69468,35.22822],[127.69495,35.22855],[127.69507,35.2288],[127.69508,35.22909],[127.69333,35.23249],[127.6931,35.23293],[127.69255,35.23375],[127.69225,35.23402],[127.69082,35.23598],[127.68852,35.23944],[127.68797,35.24028],[127.68736,35.24164],[127.68715,35.2425],[127.68708,35.24369],[127.6871,35.24395],[127.6871,35.24398],[127.68713,35.24417],[127.68724,35.24456],[127.68751,35.24535],[127.68756,35.24547],[127.68807,35.24601],[127.68859,35.24665],[127.68898,35.24722],[127.68903,35.24749],[127.68955,35.25179],[127.68957,35.25219],[127.68955,35.25308],[127.68944,35.25351],[127.68931,35.25396],[127.68923,35.25434],[127.68941,35.25462],[127.68976,35.25503],[127.69694,35.26056],[127.69765,35.26088],[127.69836,35.26119],[127.69922,35.26129],[127.70025,35.26141],[127.70127,35.26169],[127.70287,35.26233],[127.70419,35.26311],[127.70477,35.26352],[127.70579,35.26432],[127.70664,35.26396],[127.70939,35.263],[127.7099,35.26287],[127.7114,35.26243],[127.71448,35.26139],[127.71529,35.26103],[127.71563,35.26075],[127.71594,35.26023],[127.71631,35.2599],[127.71693,35.25958],[127.71777,35.25935],[127.71876,35.25924],[127.71983,35.25918],[127.72128,35.25901],[127.72362,35.25859],[127.72447,35.25843],[127.7254,35.2582],[127.72954,35.25672],[127.7309,35.25618],[127.73313,35.25469],[127.73624,35.2554],[127.73684,35.2554],[127.73762,35.25529],[127.73883,35.25485],[127.73962,35.25454],[127.74315,35.25307],[127.74847,35.25002],[127.74916,35.24946],[127.75062,35.24724],[127.75074,35.24693],[127.75067,35.24663],[127.75045,35.24629],[127.7504,35.24601],[127.7504,35.24543],[127.7508,35.24395],[127.75121,35.24249],[127.75303,35.23687],[127.75328,35.23636],[127.75437,35.23484],[127.75663,35.23207],[127.76045,35.22915],[127.76496,35.2278],[127.76542,35.22763],[127.76569,35.2274],[127.76625,35.22648],[127.76717,35.22473],[127.7676,35.22406],[127.76813,35.22355],[127.7684,35.22343],[127.76861,35.22337],[127.76899,35.22336],[127.76973,35.22345],[127.77025,35.22344],[127.77226,35.22316],[127.7724,35.22309],[127.77285,35.22281],[127.77316,35.22202],[127.77347,35.22147],[127.77399,35.22101],[127.77568,35.21969],[127.7761,35.21954],[127.7767,35.21953],[127.77692,35.21953],[127.78091,35.21965],[127.78138,35.2198],[127.78158,35.2199],[127.78176,35.22011],[127.78202,35.22072],[127.7823,35.22105],[127.7826,35.22117],[127.78302,35.22122],[127.78337,35.22119],[127.78425,35.22095]]]]}},{"type":"Feature","properties":{"code":"48850410","name":"옥종면","parent":"48850"},"geometry":{"type":"MultiPolygon","coordinates":[[[[127.89032,35.22649],[127.89027,35.22424],[127.89016,35.22378],[127.89006,35.22337],[127.88951,35.22175],[127.88901,35.22036],[127.88894,35.22014],[127.88824,35.2178],[127.88793,35.21679],[127.88776,35.21554],[127.8878,35.2153],[127.88792,35.21473],[127.88795,35.21466],[127.88811,35.21427],[127.88855,35.21345],[127.88893,35.2132],[127.88952,35.2129],[127.89048,35.21242],[127.89059,35.21236],[127.89148,35.21192],[127.89197,35.21169],[127.89363,35.21082],[127.8939,35.21062],[127.89415,35.21016],[127.89446,35.20942],[127.89483,35.20803],[127.89501,35.2072],[127.89504,35.20634],[127.89503,35.20545],[127.89496,35.20512],[127.89416,35.20277],[127.8936,35.20119],[127.89309,35.19974],[127.893,35.19931],[127.89307,35.19831],[127.89317,35.19785],[127.89327,35.19742],[127.89347,35.19689],[127.89373,35.19661],[127.89455,35.19594],[127.89546,35.19553],[127.89588,35.19542],[127.89713,35.19511],[127.89749,35.19492],[127.89872,35.19383],[127.9008,35.19182],[127.9016,35.19073],[127.90213,35.18991],[127.90245,35.18942],[127.90361,35.18811],[127.90384,35.1879],[127.90443,35.18738],[127.90599,35.18597],[127.90719,35.18492],[127.90747,35.18472],[127.908,35.18436],[127.90803,35.18434],[127.90808,35.18431],[127.90974,35.18353],[127.91039,35.18337],[127.91209,35.18313],[127.91767,35.18131],[127.91958,35.18042],[127.92036,35.17991],[127.92127,35.17926],[127.92295,35.17797],[127.92765,35.17517],[127.92901,35.17451],[127.93594,35.17085],[127.93663,35.17045],[127.93742,35.16996],[127.93784,35.1697],[127.93832,35.16922],[127.93948,35.16754],[127.93973,35.16701],[127.93989,35.16635],[127.93983,35.16599],[127.93957,35.16551],[127.93933,35.16524],[127.93855,35.16436],[127.93721,35.16257],[127.93674,35.16178],[127.93647,35.16031],[127.93661,35.15895],[127.93669,35.15878],[127.93681,35.15855],[127.93697,35.15821],[127.9404,35.15613],[127.9424,35.15559],[127.94234,35.15539],[127.9422,35.15516],[127.94207,35.15503],[127.94177,35.1548],[127.94143,35.15458],[127.93885,35.15302],[127.93694,35.15188],[127.93514,35.15135],[127.93165,35.14943],[127.93162,35.14941],[127.93161,35.14937],[127.93118,35.14824],[127.93117,35.14816],[127.93116,35.14801],[127.93122,35.14732],[127.93125,35.14723],[127.93126,35.14719],[127.93129,35.14714],[127.93132,35.1471],[127.93138,35.14706],[127.93144,35.14701],[127.93148,35.14698],[127.93152,35.14695],[127.93157,35.14691],[127.93164,35.14684],[127.93174,35.1467],[127.93177,35.14662],[127.93178,35.14656],[127.93178,35.14648],[127.93176,35.14637],[127.93172,35.14624],[127.93168,35.14615],[127.93134,35.14558],[127.93125,35.14548],[127.93115,35.14539],[127.93109,35.14534],[127.9299,35.14471],[127.92984,35.14469],[127.92979,35.14469],[127.92802,35.14562],[127.92794,35.14566],[127.92769,35.14581],[127.92756,35.14591],[127.92743,35.14602],[127.92732,35.14613],[127.92717,35.14627],[127.92715,35.1463],[127.92713,35.14634],[127.92711,35.14645],[127.92711,35.1466],[127.92712,35.14672],[127.92713,35.14684],[127.92719,35.14702],[127.92725,35.14719],[127.92731,35.14735],[127.92735,35.14747],[127.92735,35.14752],[127.92735,35.14757],[127.92734,35.1476],[127.92733,35.14762],[127.9273,35.14765],[127.92728,35.14768],[127.92719,35.14774],[127.92712,35.14779],[127.92694,35.1479],[127.92681,35.14797],[127.92665,35.14805],[127.92302,35.14965],[127.92292,35.1497],[127.92168,35.15009],[127.92161,35.15011],[127.92155,35.15013],[127.92141,35.15015],[127.91446,35.14995],[127.91042,35.14869],[127.91031,35.14863],[127.90983,35.14848],[127.90971,35.14845],[127.90965,35.14845],[127.9096,35.14846],[127.90954,35.14848],[127.90769,35.14953],[127.90759,35.14961],[127.90737,35.1498],[127.90706,35.15009],[127.90703,35.15015],[127.907,35.15028],[127.90697,35.15043],[127.90691,35.15062],[127.90672,35.15102],[127.90653,35.15138],[127.90637,35.15162],[127.90627,35.15174],[127.90617,35.15183],[127.9023,35.15485],[127.899,35.15659],[127.89891,35.15663],[127.89879,35.15668],[127.89873,35.15668],[127.89614,35.15653],[127.89609,35.15652],[127.89602,35.15649],[127.89597,35.15645],[127.89594,35.15643],[127.89593,35.15639],[127.89593,35.15634],[127.89594,35.15624],[127.89628,35.15427],[127.89657,35.15284],[127.89656,35.15277],[127.89651,35.15273],[127.89643,35.15269],[127.89633,35.15267],[127.89463,35.15259],[127.89455,35.15259],[127.8945,35.1526],[127.89443,35.15262],[127.89434,35.15265],[127.89431,35.15266],[127.89427,35.15268],[127.8942,35.15271],[127.89414,35.15274],[127.89408,35.15276],[127.89402,35.15278],[127.89398,35.15278],[127.89393,35.15279],[127.89386,35.15279],[127.89379,35.15279],[127.89294,35.15269],[127.89263,35.15262],[127.89201,35.15238],[127.88852,35.15105],[127.88847,35.15102],[127.88841,35.15096],[127.88838,35.15092],[127.88834,35.15086],[127.88782,35.14994],[127.88733,35.14896],[127.88568,35.14735],[127.88564,35.14733],[127.88559,35.14733],[127.8852,35.14742],[127.88517,35.14743],[127.88511,35.14746],[127.88509,35.14748],[127.88503,35.14753],[127.88497,35.14759],[127.88493,35.14764],[127.88485,35.14768],[127.88478,35.14772],[127.88468,35.14775],[127.88126,35.14814],[127.88009,35.14791],[127.88016,35.14739],[127.88008,35.14671],[127.87961,35.14532],[127.87958,35.14523],[127.87942,35.14489],[127.87922,35.14506],[127.87903,35.1452],[127.87897,35.14525],[127.87732,35.14615],[127.87719,35.14622],[127.877,35.14631],[127.87692,35.14635],[127.87674,35.14641],[127.8765,35.14645],[127.87642,35.14645],[127.87611,35.14641],[127.87602,35.14639],[127.87594,35.14639],[127.87588,35.14639],[127.87576,35.14641],[127.87568,35.14644],[127.87561,35.14648],[127.8727,35.14833],[127.87238,35.14881],[127.87216,35.14925],[127.8721,35.14944],[127.87207,35.14986],[127.87199,35.15037],[127.87149,35.15095],[127.87093,35.15146],[127.8706,35.15165],[127.8676,35.15301],[127.86742,35.15307],[127.8663,35.1534],[127.86606,35.15345],[127.86555,35.15353],[127.86405,35.1539],[127.86107,35.15469],[127.8608,35.15479],[127.86036,35.15501],[127.85876,35.15584],[127.85838,35.15616],[127.85759,35.15687],[127.85745,35.15701],[127.85678,35.15772],[127.85581,35.15846],[127.85563,35.15858],[127.85485,35.15901],[127.85404,35.1593],[127.85381,35.15938],[127.85336,35.15946],[127.85203,35.15954],[127.85028,35.15963],[127.84965,35.15986],[127.84865,35.16011],[127.84819,35.16016],[127.84792,35.16013],[127.84766,35.16003],[127.84377,35.15848],[127.84233,35.15812],[127.84098,35.15842],[127.84062,35.15854],[127.8404,35.15862],[127.83694,35.16009],[127.83407,35.1613],[127.83146,35.162],[127.82835,35.16196],[127.82542,35.16201],[127.82495,35.16226],[127.82453,35.16257],[127.81842,35.16812],[127.81801,35.16849],[127.81766,35.17163],[127.8172,35.17506],[127.81699,35.17561],[127.81675,35.17604],[127.81611,35.17657],[127.81455,35.17771],[127.81279,35.17899],[127.81195,35.17944],[127.81162,35.18144],[127.81114,35.18305],[127.81054,35.18465],[127.80945,35.1867],[127.80683,35.18979],[127.80532,35.19078],[127.80479,35.19038],[127.80408,35.18986],[127.80328,35.18953],[127.80107,35.18905],[127.79861,35.18901],[127.79739,35.18937],[127.79668,35.18974],[127.79598,35.19011],[127.79583,35.19026],[127.79568,35.19041],[127.79507,35.19422],[127.79511,35.1953],[127.79524,35.19598],[127.79513,35.19693],[127.79432,35.19905],[127.79281,35.20119],[127.79226,35.20134],[127.79198,35.20152],[127.79171,35.2017],[127.79007,35.20332],[127.78877,35.20461],[127.7865,35.20761],[127.78463,35.2097],[127.78087,35.21229],[127.77987,35.21292],[127.77887,35.21355],[127.77924,35.21507],[127.78018,35.2165],[127.78137,35.21798],[127.78302,35.21981],[127.78425,35.22095],[127.78547,35.22066],[127.78586,35.22059],[127.7862,35.22054],[127.78691,35.22044],[127.79086,35.22022],[127.79302,35.22032],[127.79372,35.22051],[127.79415,35.22052],[127.79455,35.22048],[127.79703,35.21982],[127.7975,35.21966],[127.80098,35.22005],[127.80139,35.22044],[127.80182,35.22065],[127.80205,35.22076],[127.80251,35.22085],[127.80691,35.2208],[127.80828,35.22077],[127.80856,35.22073],[127.8091,35.2206],[127.80973,35.22035],[127.81089,35.22005],[127.81212,35.22],[127.81256,35.22004],[127.81288,35.22009],[127.81346,35.22018],[127.8136,35.22021],[127.81378,35.22026],[127.81403,35.22032],[127.81422,35.22037],[127.81465,35.22058],[127.81492,35.22075],[127.81516,35.2209],[127.81614,35.22117],[127.81947,35.22202],[127.82007,35.22215],[127.82072,35.2222],[127.82134,35.22217],[127.82219,35.22197],[127.82269,35.22186],[127.82303,35.22182],[127.82328,35.22182],[127.82569,35.22194],[127.826,35.22203],[127.8263,35.22218],[127.82647,35.22226],[127.82696,35.22257],[127.82731,35.22281],[127.82765,35.22304],[127.82813,35.22355],[127.82922,35.2245],[127.83018,35.22473],[127.83268,35.22562],[127.83308,35.2259],[127.83353,35.22626],[127.83443,35.22773],[127.83496,35.22855],[127.83552,35.22939],[127.83728,35.22923],[127.83763,35.22914],[127.8406,35.22841],[127.84114,35.22822],[127.84214,35.22768],[127.84287,35.22724],[127.84384,35.22714],[127.84548,35.22832],[127.84579,35.22913],[127.84613,35.23009],[127.84593,35.23073],[127.8454,35.23207],[127.84584,35.2336],[127.84778,35.23506],[127.8498,35.23539],[127.85067,35.23556],[127.85227,35.23651],[127.85725,35.24028],[127.85765,35.24116],[127.85818,35.24271],[127.85807,35.24397],[127.85759,35.24479],[127.85745,35.24504],[127.85686,35.24924],[127.86136,35.25368],[127.86272,35.25379],[127.86434,35.25393],[127.86431,35.25632],[127.86394,35.25891],[127.86421,35.25965],[127.86474,35.25929],[127.86586,35.25915],[127.86783,35.25948],[127.86924,35.25974],[127.87041,35.25978],[127.87195,35.25966],[127.87284,35.25933],[127.87321,35.25913],[127.87384,35.25898],[127.87409,35.2589],[127.87659,35.25741],[127.87665,35.25738],[127.87667,35.25735],[127.87668,35.25732],[127.87656,35.25667],[127.8764,35.25593],[127.87614,35.2548],[127.8761,35.2547],[127.87599,35.25456],[127.87591,35.25446],[127.87558,35.25409],[127.87547,35.25399],[127.87541,35.25392],[127.87539,35.25388],[127.87536,35.25378],[127.87533,35.25348],[127.8753,35.25321],[127.87538,35.25169],[127.87574,35.25159],[127.87605,35.25149],[127.87638,35.25142],[127.8767,35.25134],[127.87689,35.25131],[127.8842,35.25065],[127.88813,35.25044],[127.88818,35.25045],[127.8888,35.25044],[127.88915,35.25043],[127.89085,35.25039],[127.89188,35.25035],[127.89194,35.25034],[127.89223,35.25021],[127.89226,35.25017],[127.89229,35.25011],[127.89235,35.24945],[127.89236,35.24901],[127.89237,35.24814],[127.89236,35.24789],[127.89236,35.24778],[127.89225,35.24731],[127.89221,35.24718],[127.89195,35.24665],[127.89027,35.2432],[127.88899,35.24079],[127.88858,35.24015],[127.88849,35.24],[127.8882,35.23951],[127.88797,35.23906],[127.88785,35.2388],[127.88764,35.23825],[127.88757,35.23804],[127.88754,35.23793],[127.88743,35.2375],[127.88743,35.23735],[127.88746,35.23712],[127.88749,35.23687],[127.88752,35.23677],[127.8876,35.23659],[127.8878,35.23623],[127.88802,35.23585],[127.88829,35.23548],[127.8886,35.23508],[127.88869,35.23499],[127.88873,35.23495],[127.88931,35.23443],[127.8904,35.23342],[127.89046,35.23334],[127.89049,35.2333],[127.89055,35.23319],[127.89079,35.23243],[127.89085,35.23224],[127.89084,35.23216],[127.89083,35.23207],[127.89074,35.23167],[127.89055,35.23047],[127.89031,35.22707],[127.89031,35.22681],[127.89032,35.22649]]]]}}]}