{"type":"FeatureCollection","features":[{"type":"Feature","properties":{"code":"27110545","name":"삼덕동","parent":"27110"},"geometry":{"type":"MultiPolygon","coordinates":[[[[128.59981,35.86827],[128.60252,35.86766],[128.61317,35.86548],[128.60962,35.86184],[128.60029,35.86369],[128.59999,35.86375],[128.60005,35.86395],[128.59967,35.86418],[128.59866,35.86463],[128.59778,35.86496],[128.59773,35.86498],[128.59754,35.86512],[128.59719,35.86539],[128.5953,35.86717],[128.59544,35.86834],[128.59939,35.86836],[128.59957,35.86832],[128.59981,35.86827]]]]}},{"type":"Feature","properties":{"code":"27110565","name":"성내1동","parent":"27110"},"geometry":{"type":"MultiPolygon","coordinates":[[[[128.60136,35.8748],[128.59981,35.86827],[128.59957,35.86832],[128.59939,35.86836],[128.59544,35.86834],[128.5953,35.86717],[128.59719,35.86539],[128.59754,35.86512],[128.59773,35.86498],[128.59778,35.86496],[128.59866,35.86463],[128.59967,35.86418],[128.60005,35.86395],[128.59999,35.86375],[128.60073,35.8605],[128.59645,35.86003],[128.59644,35.86006],[128.59617,35.86058],[128.59607,35.86079],[128.59596,35.861],[128.59595,35.86103],[128.59575,35.86158],[128.5948,35.86429],[128.59347,35.86612],[128.59366,35.8699],[128.59407,35.87206],[128.59495,35.8753],[128.59914,35.87546],[128.60136,35.8748]]]]}},{"type":"Feature","properties":{"code":"27110575","name":"성내2동","parent":"27110"},"geometry":{"type":"MultiPolygon","coordinates":[[[[128.59495,35.8753],[128.59407,35.87206],[128.59366,35.8699],[128.59347,35.86612],[128.59239,35.8663],[128.59086,35.86611],[128.58946,35.86637],[128.58836,35.86657],[128.58793,35.86665],[128.58785,35.86667],[128.58777,35.86664],[128.58696,35.86639],[128.58235,35.86515],[128.58261,35.87059],[128.58516,35.87052],[128.58725,35.87006],[128.58726,35.87018],[128.58727,35.87027],[128.58787,35.87567],[128.58838,35.87753],[128.59492,35.87631],[128.59495,35.8753]]]]}},{"type":"Feature","properties":{"code":"27110585","name":"성내3동","parent":"27110"},"geometry":{"type":"MultiPolygon","coordinates":[[[[128.58017,35.87908],[128.58838,35.87753],[128.58787,35.87567],[128.58727,35.87027],[128.58726,35.87018],[128.58725,35.87006],[128.58516,35.87052],[128.58261,35.87059],[128.58239,35.87081],[128.58211,35.87341],[128.58021,35.87369],[128.58011,35.87362],[128.58,35.87353],[128.57971,35.87316],[128.57958,35.87298],[128.57955,35.87283],[128.57954,35.87277],[128.57937,35.87265],[128.57927,35.87259],[128.57891,35.87238],[128.57793,35.87204],[128.57697,35.87196],[128.57681,35.87196],[128.57566,35.87304],[128.57563,35.87309],[128.57559,35.87343],[128.57559,35.87347],[128.5756,35.87405],[128.57665,35.87606],[128.57686,35.87623],[128.57694,35.87619],[128.57806,35.87558],[128.57847,35.87536],[128.57931,35.87533],[128.57839,35.87624],[128.57794,35.8795],[128.58017,35.87908]]]]}},{"type":"Feature","properties":{"code":"27110595","name":"대신동","parent":"27110"},"geometry":{"type":"MultiPolygon","coordinates":[[[[128.58261,35.87059],[128.58235,35.86515],[128.58172,35.86476],[128.5742,35.86268],[128.57406,35.86367],[128.5738,35.86535],[128.57498,35.86632],[128.57505,35.86638],[128.57564,35.86679],[128.57615,35.86713],[128.57772,35.86818],[128.57778,35.86822],[128.57854,35.86883],[128.57883,35.86908],[128.5796,35.87005],[128.57965,35.87013],[128.57972,35.87031],[128.57938,35.87047],[128.57954,35.87277],[128.57955,35.87283],[128.57958,35.87298],[128.57971,35.87316],[128.58,35.87353],[128.58011,35.87362],[128.58021,35.87369],[128.58211,35.87341],[128.58239,35.87081],[128.58261,35.87059]]]]}},{"type":"Feature","properties":{"code":"27110640","name":"남산1동","parent":"27110"},"geometry":{"type":"MultiPolygon","coordinates":[[[[128.59347,35.86612],[128.5948,35.86429],[128.59575,35.86158],[128.59595,35.86103],[128.59596,35.861],[128.59607,35.86079],[128.59617,35.86058],[128.59644,35.86006],[128.59645,35.86003],[128.59677,35.85946],[128.59693,35.85911],[128.59553,35.85854],[128.59519,35.85848],[128.59473,35.85841],[128.59467,35.85658],[128.58779,35.85675],[128.59038,35.86204],[128.59052,35.86199],[128.59084,35.86188],[128.59237,35.86139],[128.59269,35.86129],[128.59274,35.86143],[128.59327,35.86304],[128.59369,35.865],[128.59354,35.86533],[128.59327,35.86539],[128.59274,35.86542],[128.59241,35.86547],[128.59101,35.86571],[128.59076,35.86576],[128.59086,35.86611],[128.59239,35.8663],[128.59347,35.86612]]]]}},{"type":"Feature","properties":{"code":"27110650","name":"남산2동","parent":"27110"},"geometry":{"type":"MultiPolygon","coordinates":[[[[128.59086,35.86611],[128.59076,35.86576],[128.59101,35.86571],[128.59241,35.86547],[128.59274,35.86542],[128.59327,35.86539],[128.59354,35.86533],[128.59369,35.865],[128.59327,35.86304],[128.59274,35.86143],[128.59269,35.86129],[128.59237,35.86139],[128.59084,35.86188],[128.59052,35.86199],[128.59038,35.86204],[128.58696,35.86338],[128.58249,35.86221],[128.58172,35.86476],[128.58235,35.86515],[128.58696,35.86639],[128.58777,35.86664],[128.58785,35.86667],[128.58793,35.86665],[128.58836,35.86657],[128.58946,35.86637],[128.59086,35.86611]]]]}},{"type":"Feature","properties":{"code":"27110660","name":"남산3동","parent":"27110"},"geometry":{"type":"MultiPolygon","coordinates":[[[[128.59038,35.86204],[128.58779,35.85675],[128.58423,35.85643],[128.58286,35.85633],[128.58249,35.86221],[128.58696,35.86338],[128.59038,35.86204]]]]}},{"type":"Feature","properties":{"code":"27110670","name":"남산4동","parent":"27110"},"geometry":{"type":"MultiPolygon","coordinates":[[[[128.58249,35.86221],[128.58286,35.85633],[128.57458,35.86006],[128.5742,35.86268],[128.58172,35.86476],[128.58249,35.86221]]]]}},{"type":"Feature","properties":{"code":"27110680","name":"대봉1동","parent":"27110"},"geometry":{"type":"MultiPolygon","coordinates":[[[[128.60962,35.86184],[128.60914,35.86143],[128.60899,35.86131],[128.60845,35.85991],[128.60839,35.85975],[128.60823,35.85826],[128.60815,35.85758],[128.60847,35.85495],[128.60245,35.85527],[128.60098,35.85985],[128.60073,35.8605],[128.59999,35.86375],[128.60029,35.86369],[128.60962,35.86184]]]]}},{"type":"Feature","properties":{"code":"27110690","name":"대봉2동","parent":"27110"},"geometry":{"type":"MultiPolygon","coordinates":[[[[128.60245,35.85527],[128.60004,35.85541],[128.59875,35.85549],[128.59854,35.8555],[128.5984,35.85556],[128.5982,35.85565],[128.59791,35.8558],[128.59787,35.85582],[128.59764,35.85596],[128.5975,35.85605],[128.59707,35.85624],[128.59693,35.85628],[128.5969,35.85629],[128.59663,35.85635],[128.59596,35.85645],[128.59589,35.85646],[128.59472,35.85657],[128.59467,35.85658],[128.59473,35.85841],[128.59519,35.85848],[128.59553,35.85854],[128.59693,35.85911],[128.59677,35.85946],[128.59645,35.86003],[128.60073,35.8605],[128.60098,35.85985],[128.60245,35.85527]]]]}},{"type":"Feature","properties":{"code":"27110517","name":"동인동","parent":"27110"},"geometry":{"type":"MultiPolygon","coordinates":[[[[128.61474,35.86818],[128.61457,35.86796],[128.61317,35.86548],[128.60252,35.86766],[128.59981,35.86827],[128.60136,35.8748],[128.60151,35.87465],[128.60348,35.87408],[128.60445,35.87391],[128.60585,35.87385],[128.60617,35.87383],[128.60757,35.87405],[128.60969,35.87463],[128.61032,35.8749],[128.61201,35.87378],[128.61474,35.86818]]]]}}]}