{"type":"FeatureCollection","features":[{"type":"Feature","properties":{"code":"41133510","name":"성남동","parent":"41133"},"geometry":{"type":"MultiPolygon","coordinates":[[[[127.14451,37.43952],[127.14789,37.43472],[127.14848,37.4343],[127.14847,37.43351],[127.14812,37.4331],[127.14749,37.43264],[127.14711,37.43254],[127.14707,37.43253],[127.14253,37.43062],[127.14009,37.42899],[127.13263,37.4289],[127.13031,37.42953],[127.12939,37.42983],[127.12899,37.42601],[127.12889,37.42464],[127.12883,37.42391],[127.12882,37.42269],[127.12863,37.42264],[127.1285,37.42265],[127.12829,37.42267],[127.12813,37.42273],[127.12785,37.42283],[127.12532,37.4238],[127.12229,37.42575],[127.11985,37.42789],[127.11971,37.42789],[127.11952,37.42782],[127.1187,37.4275],[127.11865,37.42747],[127.11858,37.42742],[127.11793,37.42651],[127.11839,37.43233],[127.12022,37.43247],[127.12344,37.43277],[127.12588,37.43304],[127.13078,37.43389],[127.13252,37.43422],[127.13467,37.43466],[127.13681,37.43509],[127.13794,37.43571],[127.13798,37.43574],[127.13822,37.43588],[127.14007,37.43698],[127.14079,37.43742],[127.14448,37.43954],[127.14451,37.43952]]]]}},{"type":"Feature","properties":{"code":"41133530","name":"금광1동","parent":"41133"},"geometry":{"type":"MultiPolygon","coordinates":[[[[127.17543,37.44576],[127.17533,37.44534],[127.17424,37.44469],[127.173,37.44394],[127.17282,37.44387],[127.17227,37.44369],[127.17039,37.44308],[127.16878,37.44229],[127.16792,37.4426],[127.16703,37.44291],[127.16698,37.4429],[127.16589,37.44249],[127.16499,37.44214],[127.16487,37.4421],[127.16439,37.44191],[127.16417,37.44182],[127.16396,37.44174],[127.16387,37.44165],[127.1637,37.44148],[127.16327,37.44106],[127.16323,37.44103],[127.16256,37.44044],[127.15998,37.44115],[127.15688,37.44505],[127.15695,37.44513],[127.15854,37.44495],[127.15972,37.44481],[127.1602,37.44477],[127.16078,37.44495],[127.16117,37.44507],[127.16141,37.44515],[127.16146,37.44517],[127.16198,37.44532],[127.16504,37.44623],[127.16513,37.44626],[127.17243,37.44782],[127.17271,37.44787],[127.17303,37.44791],[127.17289,37.44728],[127.17287,37.4472],[127.17261,37.44637],[127.17279,37.4462],[127.17296,37.44608],[127.17304,37.44602],[127.17339,37.44597],[127.1741,37.44591],[127.17543,37.44576]]]]}},{"type":"Feature","properties":{"code":"41133540","name":"금광2동","parent":"41133"},"geometry":{"type":"MultiPolygon","coordinates":[[[[127.17543,37.44576],[127.1741,37.44591],[127.17339,37.44597],[127.17304,37.44602],[127.17296,37.44608],[127.17279,37.4462],[127.17261,37.44637],[127.17287,37.4472],[127.17289,37.44728],[127.17303,37.44791],[127.17271,37.44787],[127.17243,37.44782],[127.16513,37.44626],[127.16504,37.44623],[127.16198,37.44532],[127.16146,37.44517],[127.16141,37.44515],[127.16117,37.44507],[127.16078,37.44495],[127.1602,37.44477],[127.15972,37.44481],[127.15854,37.44495],[127.15695,37.44513],[127.15731,37.44569],[127.15962,37.45079],[127.16085,37.45418],[127.16266,37.45319],[127.16142,37.45033],[127.16222,37.45013],[127.16591,37.45089],[127.16691,37.4511],[127.17108,37.45201],[127.17124,37.45207],[127.17203,37.45265],[127.17246,37.45305],[127.17257,37.45318],[127.17278,37.45342],[127.17232,37.45411],[127.17259,37.45399],[127.17359,37.45384],[127.17369,37.45382],[127.17427,37.45376],[127.17435,37.45376],[127.1747,37.45385],[127.17505,37.45396],[127.17517,37.45399],[127.17595,37.45418],[127.17698,37.45436],[127.17731,37.45438],[127.17854,37.45447],[127.17863,37.45379],[127.17867,37.45355],[127.17858,37.45227],[127.17723,37.44801],[127.17697,37.44745],[127.17543,37.44576]]]]}},{"type":"Feature","properties":{"code":"41133550","name":"은행1동","parent":"41133"},"geometry":{"type":"MultiPolygon","coordinates":[[[[127.17232,37.45411],[127.17278,37.45342],[127.17257,37.45318],[127.17246,37.45305],[127.17203,37.45265],[127.17124,37.45207],[127.17108,37.45201],[127.16691,37.4511],[127.16591,37.45089],[127.16222,37.45013],[127.16142,37.45033],[127.16266,37.45319],[127.16954,37.45433],[127.17232,37.45411]]]]}},{"type":"Feature","properties":{"code":"41133560","name":"은행2동","parent":"41133"},"geometry":{"type":"MultiPolygon","coordinates":[[[[127.18105,37.47329],[127.18101,37.47296],[127.18095,37.47245],[127.18097,37.47179],[127.18144,37.47096],[127.18175,37.46952],[127.18203,37.46789],[127.18203,37.46709],[127.182,37.4652],[127.18199,37.46484],[127.18197,37.46416],[127.18182,37.46289],[127.18157,37.46123],[127.18154,37.46083],[127.18153,37.46072],[127.18155,37.46065],[127.1816,37.46047],[127.18188,37.46011],[127.18216,37.45973],[127.18221,37.45969],[127.18285,37.45927],[127.18338,37.45909],[127.18445,37.45876],[127.18383,37.458],[127.18308,37.45716],[127.18245,37.45664],[127.1818,37.45623],[127.17854,37.45447],[127.17731,37.45438],[127.17698,37.45436],[127.17595,37.45418],[127.17517,37.45399],[127.17505,37.45396],[127.1747,37.45385],[127.17435,37.45376],[127.17427,37.45376],[127.17369,37.45382],[127.17359,37.45384],[127.17259,37.45399],[127.17232,37.45411],[127.16954,37.45433],[127.16266,37.45319],[127.16085,37.45418],[127.16179,37.45522],[127.16217,37.45565],[127.16285,37.45646],[127.16356,37.45731],[127.16364,37.45741],[127.16383,37.45764],[127.16407,37.45794],[127.16415,37.45804],[127.1646,37.45863],[127.1647,37.45876],[127.16475,37.45883],[127.1649,37.45901],[127.1663,37.46067],[127.16683,37.46105],[127.16705,37.46122],[127.17023,37.46346],[127.17194,37.46453],[127.17339,37.46552],[127.17364,37.46574],[127.17369,37.46578],[127.174,37.46611],[127.17691,37.47133],[127.17693,37.47147],[127.17688,37.47157],[127.17676,37.47162],[127.17646,37.47167],[127.17596,37.4722],[127.1763,37.47256],[127.1768,37.47288],[127.17773,37.47341],[127.17781,37.47342],[127.18004,37.47376],[127.18013,37.47375],[127.18022,37.47375],[127.18053,37.47356],[127.18083,37.47337],[127.18105,37.47329]]]]}},{"type":"Feature","properties":{"code":"41133570","name":"상대원1동","parent":"41133"},"geometry":{"type":"MultiPolygon","coordinates":[[[[127.19572,37.44506],[127.19596,37.44388],[127.1959,37.44363],[127.19543,37.44294],[127.19485,37.44192],[127.19425,37.44085],[127.19366,37.43916],[127.19379,37.43392],[127.1938,37.43354],[127.19405,37.43302],[127.19439,37.43277],[127.19193,37.43232],[127.19145,37.43277],[127.19141,37.43279],[127.19128,37.43285],[127.19097,37.43287],[127.19054,37.43278],[127.19032,37.43271],[127.18944,37.43242],[127.18901,37.43225],[127.18713,37.4314],[127.18279,37.4287],[127.18223,37.42797],[127.18219,37.4275],[127.18183,37.42711],[127.18146,37.42693],[127.1812,37.4268],[127.17975,37.42633],[127.17696,37.42615],[127.17509,37.42606],[127.17479,37.42649],[127.17137,37.42688],[127.17081,37.42687],[127.1704,37.42685],[127.16976,37.4262],[127.16911,37.4261],[127.16897,37.42607],[127.16793,37.42645],[127.16663,37.42712],[127.16589,37.42775],[127.1613,37.42771],[127.15962,37.42798],[127.15884,37.42839],[127.15944,37.42849],[127.16075,37.43013],[127.16112,37.43071],[127.16097,37.43136],[127.15991,37.43352],[127.15887,37.43427],[127.16034,37.43476],[127.16065,37.43605],[127.16079,37.43648],[127.1609,37.43681],[127.1611,37.437],[127.16142,37.4373],[127.16149,37.43737],[127.16274,37.43734],[127.16432,37.43731],[127.16711,37.44046],[127.16878,37.44229],[127.17039,37.44308],[127.17227,37.44369],[127.17282,37.44387],[127.173,37.44394],[127.17424,37.44469],[127.17533,37.44534],[127.17543,37.44576],[127.17697,37.44745],[127.17723,37.44801],[127.17858,37.45227],[127.17867,37.45355],[127.17863,37.45379],[127.17854,37.45447],[127.1818,37.45623],[127.18245,37.45664],[127.18308,37.45716],[127.18383,37.458],[127.18445,37.45876],[127.18961,37.45816],[127.19099,37.45735],[127.19237,37.45534],[127.19359,37.45258],[127.19473,37.44902],[127.19523,37.4468],[127.19524,37.44674],[127.19556,37.44532],[127.19572,37.44506]]]]}},{"type":"Feature","properties":{"code":"41133580","name":"상대원2동","parent":"41133"},"geometry":{"type":"MultiPolygon","coordinates":[[[[127.16256,37.44044],[127.16139,37.43939],[127.16123,37.43925],[127.16047,37.43855],[127.15969,37.43783],[127.15912,37.43731],[127.15899,37.43719],[127.15851,37.43675],[127.15823,37.43648],[127.15813,37.43634],[127.15814,37.43565],[127.15814,37.43557],[127.15814,37.43525],[127.15823,37.435],[127.15826,37.43493],[127.15842,37.43468],[127.15857,37.43454],[127.1588,37.43433],[127.15887,37.43427],[127.15991,37.43352],[127.16097,37.43136],[127.16112,37.43071],[127.16075,37.43013],[127.15944,37.42849],[127.15884,37.42839],[127.15838,37.43041],[127.15831,37.43168],[127.15804,37.43279],[127.1573,37.43355],[127.15459,37.43532],[127.15373,37.43625],[127.15292,37.43635],[127.15286,37.43642],[127.15282,37.43654],[127.15277,37.43743],[127.15278,37.43772],[127.15278,37.43797],[127.15287,37.43816],[127.15318,37.43864],[127.15549,37.4393],[127.15801,37.43987],[127.15894,37.4399],[127.15987,37.4406],[127.15998,37.44115],[127.16256,37.44044]]]]}},{"type":"Feature","properties":{"code":"41133590","name":"상대원3동","parent":"41133"},"geometry":{"type":"MultiPolygon","coordinates":[[[[127.16878,37.44229],[127.16711,37.44046],[127.16432,37.43731],[127.16274,37.43734],[127.16149,37.43737],[127.16142,37.4373],[127.1611,37.437],[127.1609,37.43681],[127.16079,37.43648],[127.16065,37.43605],[127.16034,37.43476],[127.15887,37.43427],[127.1588,37.43433],[127.15857,37.43454],[127.15842,37.43468],[127.15826,37.43493],[127.15823,37.435],[127.15814,37.43525],[127.15814,37.43557],[127.15814,37.43565],[127.15813,37.43634],[127.15823,37.43648],[127.15851,37.43675],[127.15899,37.43719],[127.15912,37.43731],[127.15969,37.43783],[127.16047,37.43855],[127.16123,37.43925],[127.16139,37.43939],[127.16256,37.44044],[127.16323,37.44103],[127.16327,37.44106],[127.1637,37.44148],[127.16387,37.44165],[127.16396,37.44174],[127.16417,37.44182],[127.16439,37.44191],[127.16487,37.4421],[127.16499,37.44214],[127.16589,37.44249],[127.16698,37.4429],[127.16703,37.44291],[127.16792,37.4426],[127.16878,37.44229]]]]}},{"type":"Feature","properties":{"code":"41133660","name":"하대원동","parent":"41133"},"geometry":{"type":"MultiPolygon","coordinates":[[[[127.15884,37.42839],[127.15962,37.42798],[127.15845,37.4273],[127.15783,37.42613],[127.153,37.42372],[127.14857,37.42271],[127.14854,37.42266],[127.14834,37.42236],[127.14753,37.42143],[127.14732,37.4212],[127.14715,37.42106],[127.14692,37.42087],[127.14664,37.42079],[127.14252,37.42217],[127.14061,37.42317],[127.14015,37.42353],[127.14007,37.42358],[127.14003,37.42361],[127.13992,37.42365],[127.13986,37.42368],[127.13905,37.42397],[127.13808,37.42364],[127.13726,37.42328],[127.13721,37.42325],[127.13699,37.42322],[127.13658,37.42316],[127.13475,37.4233],[127.13387,37.42356],[127.13294,37.42399],[127.13179,37.42508],[127.12957,37.42455],[127.12883,37.42391],[127.12889,37.42464],[127.12899,37.42601],[127.12939,37.42983],[127.13031,37.42953],[127.13263,37.4289],[127.14009,37.42899],[127.14253,37.43062],[127.14707,37.43253],[127.14711,37.43254],[127.14749,37.43264],[127.14812,37.4331],[127.14847,37.43351],[127.14848,37.4343],[127.14789,37.43472],[127.15292,37.43635],[127.15373,37.43625],[127.15459,37.43532],[127.1573,37.43355],[127.15804,37.43279],[127.15831,37.43168],[127.15838,37.43041],[127.15884,37.42839]]]]}},{"type":"Feature","properties":{"code":"41133670","name":"도촌동","parent":"41133"},"geometry":{"type":"MultiPolygon","coordinates":[[[[127.19439,37.43277],[127.19523,37.43103],[127.1944,37.42987],[127.19336,37.4261],[127.19464,37.42539],[127.19383,37.42408],[127.19251,37.42296],[127.19137,37.42206],[127.18856,37.42043],[127.18632,37.41921],[127.18623,37.41918],[127.18618,37.41912],[127.18573,37.41868],[127.18547,37.41815],[127.18536,37.41702],[127.18543,37.4163],[127.18489,37.41534],[127.1829,37.4149],[127.18254,37.41493],[127.18193,37.41513],[127.18097,37.41547],[127.18035,37.41585],[127.18026,37.4159],[127.18001,37.41589],[127.179,37.41582],[127.17696,37.41465],[127.17733,37.41393],[127.17778,37.41351],[127.17786,37.41265],[127.17767,37.41084],[127.17715,37.40902],[127.17501,37.40585],[127.17493,37.40578],[127.17476,37.40562],[127.17445,37.4055],[127.17426,37.40543],[127.17324,37.40583],[127.1727,37.40587],[127.17123,37.40582],[127.16949,37.40589],[127.16772,37.40598],[127.16467,37.40669],[127.16331,37.4073],[127.16015,37.4088],[127.15528,37.41077],[127.15516,37.41052],[127.15513,37.41047],[127.15479,37.41047],[127.15166,37.41049],[127.14655,37.41098],[127.14635,37.41156],[127.14657,37.41196],[127.14674,37.41228],[127.14687,37.4125],[127.1436,37.41504],[127.14265,37.41542],[127.14185,37.41558],[127.14132,37.41558],[127.13836,37.41599],[127.13522,37.41689],[127.13388,37.41696],[127.13285,37.41703],[127.13119,37.41711],[127.13038,37.41691],[127.12584,37.41681],[127.12278,37.41686],[127.12212,37.41695],[127.12051,37.41645],[127.119,37.41573],[127.11796,37.41521],[127.11933,37.41741],[127.11959,37.418],[127.11998,37.41927],[127.11965,37.42077],[127.11938,37.42114],[127.11912,37.42139],[127.11779,37.4222],[127.11793,37.42651],[127.11858,37.42742],[127.11865,37.42747],[127.1187,37.4275],[127.11952,37.42782],[127.11971,37.42789],[127.11985,37.42789],[127.12229,37.42575],[127.12532,37.4238],[127.12785,37.42283],[127.12813,37.42273],[127.12829,37.42267],[127.1285,37.42265],[127.12863,37.42264],[127.12882,37.42269],[127.12883,37.42391],[127.12957,37.42455],[127.13179,37.42508],[127.13294,37.42399],[127.13387,37.42356],[127.13475,37.4233],[127.13658,37.42316],[127.13699,37.42322],[127.13721,37.42325],[127.13726,37.42328],[127.13808,37.42364],[127.13905,37.42397],[127.13986,37.42368],[127.13992,37.42365],[127.14003,37.42361],[127.14007,37.42358],[127.14015,37.42353],[127.14061,37.42317],[127.14252,37.42217],[127.14664,37.42079],[127.14692,37.42087],[127.14715,37.42106],[127.14732,37.4212],[127.14753,37.42143],[127.14834,37.42236],[127.14854,37.42266],[127.14857,37.42271],[127.153,37.42372],[127.15783,37.42613],[127.15845,37.4273],[127.15962,37.42798],[127.1613,37.42771],[127.16589,37.42775],[127.16663,37.42712],[127.16793,37.42645],[127.16897,37.42607],[127.16911,37.4261],[127.16976,37.4262],[127.1704,37.42685],[127.17081,37.42687],[127.17137,37.42688],[127.17479,37.42649],[127.17509,37.42606],[127.17696,37.42615],[127.17975,37.42633],[127.1812,37.4268],[127.18146,37.42693],[127.18183,37.42711],[127.18219,37.4275],[127.18223,37.42797],[127.18279,37.4287],[127.18713,37.4314],[127.18901,37.43225],[127.18944,37.43242],[127.19032,37.43271],[127.19054,37.43278],[127.19097,37.43287],[127.19128,37.43285],[127.19141,37.43279],[127.19145,37.43277],[127.19193,37.43232],[127.19439,37.43277]]]]}},{"type":"Feature","properties":{"code":"41133525","name":"중앙동","parent":"41133"},"geometry":{"type":"MultiPolygon","coordinates":[[[[127.15998,37.44115],[127.15987,37.4406],[127.15894,37.4399],[127.15801,37.43987],[127.15549,37.4393],[127.15318,37.43864],[127.15287,37.43816],[127.15278,37.43797],[127.15278,37.43772],[127.15277,37.43743],[127.15282,37.43654],[127.15286,37.43642],[127.15292,37.43635],[127.14789,37.43472],[127.14451,37.43952],[127.14458,37.43955],[127.14783,37.44092],[127.15225,37.44259],[127.15688,37.44505],[127.15998,37.44115]]]]}}]}