{"type":"FeatureCollection","features":[{"type":"Feature","properties":{"code":"28177510","name":"숭의2동","parent":"28177"},"geometry":{"type":"MultiPolygon","coordinates":[[[[126.65324,37.45961],[126.65206,37.45842],[126.64922,37.45808],[126.64594,37.45786],[126.64425,37.45869],[126.64407,37.45877],[126.64268,37.45931],[126.64137,37.45982],[126.64285,37.46225],[126.64998,37.46505],[126.65324,37.45961]]]]}},{"type":"Feature","properties":{"code":"28177530","name":"숭의4동","parent":"28177"},"geometry":{"type":"MultiPolygon","coordinates":[[[[126.65617,37.46622],[126.66094,37.46626],[126.66049,37.46549],[126.66051,37.46527],[126.66054,37.46498],[126.66064,37.46436],[126.66285,37.46156],[126.66288,37.46154],[126.6643,37.46097],[126.6625,37.45866],[126.65957,37.4577],[126.65709,37.45895],[126.65374,37.45935],[126.65324,37.45961],[126.64998,37.46505],[126.65299,37.46623],[126.65617,37.46622]]]]}},{"type":"Feature","properties":{"code":"28177550","name":"용현2동","parent":"28177"},"geometry":{"type":"MultiPolygon","coordinates":[[[[126.64594,37.45786],[126.64922,37.45808],[126.64964,37.45721],[126.64988,37.4567],[126.65,37.4564],[126.64997,37.45633],[126.64982,37.45596],[126.64961,37.4556],[126.64922,37.45498],[126.6492,37.45495],[126.64894,37.45453],[126.64877,37.45427],[126.64866,37.45409],[126.64858,37.45396],[126.64807,37.45312],[126.64789,37.45282],[126.64787,37.45257],[126.64811,37.45219],[126.64684,37.45245],[126.64673,37.45247],[126.64668,37.45248],[126.64664,37.45249],[126.64595,37.4527],[126.64541,37.45285],[126.64356,37.45358],[126.64225,37.45416],[126.64178,37.45437],[126.64167,37.45442],[126.63686,37.4566],[126.63552,37.45727],[126.63758,37.45993],[126.64185,37.45788],[126.64594,37.45786]]]]}},{"type":"Feature","properties":{"code":"28177560","name":"용현3동","parent":"28177"},"geometry":{"type":"MultiPolygon","coordinates":[[[[126.65709,37.45895],[126.65647,37.45863],[126.65623,37.45851],[126.65549,37.45813],[126.65542,37.4581],[126.65522,37.45797],[126.65499,37.45782],[126.65453,37.45746],[126.65461,37.45729],[126.65489,37.45684],[126.65532,37.45612],[126.65552,37.45605],[126.65592,37.45591],[126.65635,37.45564],[126.65776,37.45442],[126.658,37.45421],[126.65837,37.45383],[126.658,37.45373],[126.65743,37.45358],[126.6572,37.45353],[126.65667,37.4534],[126.6564,37.45333],[126.65404,37.45274],[126.65331,37.45259],[126.65261,37.45244],[126.65215,37.45234],[126.65057,37.45213],[126.64811,37.45219],[126.64787,37.45257],[126.64789,37.45282],[126.64807,37.45312],[126.64858,37.45396],[126.64866,37.45409],[126.64877,37.45427],[126.64894,37.45453],[126.6492,37.45495],[126.64922,37.45498],[126.64961,37.4556],[126.64982,37.45596],[126.64997,37.45633],[126.65,37.4564],[126.64988,37.4567],[126.64964,37.45721],[126.64922,37.45808],[126.65206,37.45842],[126.65324,37.45961],[126.65374,37.45935],[126.65709,37.45895]]]]}},{"type":"Feature","properties":{"code":"28177570","name":"용현5동","parent":"28177"},"geometry":{"type":"MultiPolygon","coordinates":[[[[126.64811,37.45219],[126.64967,37.44951],[126.64978,37.44928],[126.64987,37.44893],[126.65009,37.44786],[126.65027,37.44688],[126.65039,37.44616],[126.65046,37.4458],[126.65051,37.44546],[126.64755,37.4447],[126.64416,37.44389],[126.63973,37.44315],[126.63857,37.44296],[126.63746,37.44279],[126.63693,37.44271],[126.63612,37.44259],[126.63509,37.44244],[126.63484,37.44241],[126.63262,37.44153],[126.63152,37.44227],[126.62918,37.45203],[126.62917,37.45226],[126.62924,37.45244],[126.62925,37.45247],[126.62945,37.45273],[126.62958,37.45285],[126.63002,37.45301],[126.63401,37.45557],[126.63552,37.45727],[126.63686,37.4566],[126.64167,37.45442],[126.64178,37.45437],[126.64225,37.45416],[126.64356,37.45358],[126.64541,37.45285],[126.64595,37.4527],[126.64664,37.45249],[126.64668,37.45248],[126.64673,37.45247],[126.64684,37.45245],[126.64811,37.45219]]]]}},{"type":"Feature","properties":{"code":"28177580","name":"학익1동","parent":"28177"},"geometry":{"type":"MultiPolygon","coordinates":[[[[126.66029,37.44709],[126.66005,37.44695],[126.65997,37.44685],[126.65993,37.44677],[126.65981,37.44639],[126.66122,37.44583],[126.66215,37.44546],[126.66225,37.44541],[126.66274,37.44522],[126.66281,37.44519],[126.6642,37.44463],[126.66435,37.44457],[126.66463,37.44445],[126.6652,37.44421],[126.6647,37.44354],[126.66444,37.44321],[126.66424,37.44293],[126.6643,37.44288],[126.66568,37.44231],[126.66578,37.44227],[126.66684,37.44186],[126.66749,37.4416],[126.6685,37.44121],[126.66867,37.44114],[126.66929,37.4409],[126.66983,37.44068],[126.6712,37.44014],[126.67153,37.44001],[126.67177,37.43992],[126.67245,37.43964],[126.67306,37.4394],[126.67422,37.43893],[126.67493,37.43864],[126.67498,37.43862],[126.67594,37.43823],[126.67659,37.43797],[126.67651,37.43789],[126.67613,37.43748],[126.67562,37.43673],[126.67557,37.43664],[126.67556,37.43651],[126.67561,37.43641],[126.67624,37.43535],[126.67694,37.43419],[126.67734,37.4334],[126.67738,37.43325],[126.6774,37.43309],[126.67737,37.43275],[126.67721,37.43188],[126.67707,37.4315],[126.67512,37.43028],[126.67402,37.43073],[126.67361,37.4309],[126.66929,37.43241],[126.66699,37.43305],[126.66666,37.43304],[126.66627,37.43306],[126.66605,37.43311],[126.66512,37.43332],[126.66497,37.43335],[126.66487,37.43339],[126.66445,37.4336],[126.66173,37.43506],[126.66054,37.43549],[126.65637,37.43528],[126.6542,37.43543],[126.64813,37.43512],[126.64699,37.43459],[126.64696,37.43457],[126.64692,37.43448],[126.64684,37.43428],[126.64646,37.43366],[126.64585,37.43274],[126.64577,37.43264],[126.6455,37.43239],[126.64532,37.43225],[126.64522,37.43218],[126.64519,37.43215],[126.64499,37.43203],[126.64466,37.43181],[126.64448,37.43171],[126.64445,37.43169],[126.64441,37.43168],[126.64059,37.43046],[126.63732,37.43055],[126.63724,37.43056],[126.63589,37.43139],[126.6349,37.43113],[126.63468,37.431],[126.63262,37.44153],[126.63484,37.44241],[126.63509,37.44244],[126.63612,37.44259],[126.63693,37.44271],[126.63746,37.44279],[126.63857,37.44296],[126.63973,37.44315],[126.64416,37.44389],[126.64755,37.4447],[126.65051,37.44546],[126.65046,37.4458],[126.65039,37.44616],[126.65351,37.44724],[126.65446,37.44686],[126.65648,37.44603],[126.65731,37.4457],[126.65751,37.44562],[126.65894,37.4479],[126.65871,37.44907],[126.65896,37.44945],[126.65938,37.44941],[126.6595,37.44929],[126.6598,37.44893],[126.65997,37.44843],[126.65998,37.44834],[126.65996,37.44827],[126.66029,37.44709]]]]}},{"type":"Feature","properties":{"code":"28177590","name":"학익2동","parent":"28177"},"geometry":{"type":"MultiPolygon","coordinates":[[[[126.66793,37.44782],[126.66822,37.44779],[126.66825,37.44779],[126.66833,37.44778],[126.66838,37.44777],[126.66956,37.44691],[126.6701,37.44624],[126.6704,37.44582],[126.67052,37.4456],[126.67054,37.44553],[126.67053,37.44546],[126.67051,37.44541],[126.67051,37.44537],[126.67053,37.44533],[126.67054,37.44528],[126.67055,37.44525],[126.67058,37.44521],[126.67071,37.44498],[126.67075,37.44493],[126.6708,37.44489],[126.67223,37.44385],[126.67232,37.44385],[126.67235,37.44385],[126.6725,37.44386],[126.67253,37.44386],[126.6729,37.44389],[126.67314,37.44392],[126.67456,37.44405],[126.67541,37.44413],[126.6788,37.44439],[126.67881,37.44437],[126.67854,37.44193],[126.67659,37.43797],[126.67594,37.43823],[126.67498,37.43862],[126.67493,37.43864],[126.67422,37.43893],[126.67306,37.4394],[126.67245,37.43964],[126.67177,37.43992],[126.67153,37.44001],[126.6712,37.44014],[126.66983,37.44068],[126.66929,37.4409],[126.66867,37.44114],[126.6685,37.44121],[126.66749,37.4416],[126.66684,37.44186],[126.66578,37.44227],[126.66568,37.44231],[126.6643,37.44288],[126.66424,37.44293],[126.66444,37.44321],[126.6647,37.44354],[126.6652,37.44421],[126.66463,37.44445],[126.66435,37.44457],[126.6642,37.44463],[126.66281,37.44519],[126.66274,37.44522],[126.66225,37.44541],[126.66215,37.44546],[126.66122,37.44583],[126.65981,37.44639],[126.65993,37.44677],[126.65997,37.44685],[126.66005,37.44695],[126.66029,37.44709],[126.66542,37.44791],[126.66793,37.44782]]]]}},{"type":"Feature","properties":{"code":"28177600","name":"도화1동","parent":"28177"},"geometry":{"type":"MultiPolygon","coordinates":[[[[126.67372,37.46568],[126.6732,37.46393],[126.67319,37.46386],[126.67321,37.46382],[126.67495,37.46277],[126.675,37.46275],[126.67521,37.46274],[126.67593,37.46272],[126.67654,37.46271],[126.67695,37.4627],[126.67757,37.46227],[126.67784,37.46178],[126.6778,37.46142],[126.67771,37.46075],[126.6766,37.45967],[126.67621,37.45872],[126.67575,37.45679],[126.67571,37.45679],[126.67444,37.45682],[126.67334,37.45685],[126.66871,37.45749],[126.66862,37.45757],[126.66788,37.45818],[126.66738,37.4586],[126.66708,37.45946],[126.66619,37.46036],[126.66532,37.46084],[126.6643,37.46097],[126.66288,37.46154],[126.66285,37.46156],[126.66064,37.46436],[126.66054,37.46498],[126.66051,37.46527],[126.66049,37.46549],[126.66094,37.46626],[126.65617,37.46622],[126.65619,37.46679],[126.66322,37.46666],[126.66594,37.46642],[126.66747,37.46629],[126.66999,37.46603],[126.67214,37.46582],[126.67327,37.46571],[126.67372,37.46568]]]]}},{"type":"Feature","properties":{"code":"28177620","name":"주안1동","parent":"28177"},"geometry":{"type":"MultiPolygon","coordinates":[[[[126.68607,37.46449],[126.68579,37.45813],[126.68009,37.45848],[126.67621,37.45872],[126.6766,37.45967],[126.67771,37.46075],[126.6778,37.46142],[126.67784,37.46178],[126.67757,37.46227],[126.67695,37.4627],[126.67654,37.46271],[126.67593,37.46272],[126.67521,37.46274],[126.675,37.46275],[126.67495,37.46277],[126.67321,37.46382],[126.67319,37.46386],[126.6732,37.46393],[126.67372,37.46568],[126.6797,37.46513],[126.68607,37.46449]]]]}},{"type":"Feature","properties":{"code":"28177630","name":"주안2동","parent":"28177"},"geometry":{"type":"MultiPolygon","coordinates":[[[[126.67621,37.45872],[126.68009,37.45848],[126.6798,37.45141],[126.67468,37.45174],[126.66753,37.45226],[126.66534,37.45295],[126.66454,37.4532],[126.66547,37.45555],[126.66458,37.45721],[126.6625,37.45866],[126.6643,37.46097],[126.66532,37.46084],[126.66619,37.46036],[126.66708,37.45946],[126.66738,37.4586],[126.66788,37.45818],[126.66862,37.45757],[126.66871,37.45749],[126.67334,37.45685],[126.67444,37.45682],[126.67571,37.45679],[126.67575,37.45679],[126.67621,37.45872]]]]}},{"type":"Feature","properties":{"code":"28177640","name":"주안3동","parent":"28177"},"geometry":{"type":"MultiPolygon","coordinates":[[[[126.67468,37.45174],[126.67439,37.44697],[126.67541,37.44413],[126.67456,37.44405],[126.67314,37.44392],[126.6729,37.44389],[126.67253,37.44386],[126.6725,37.44386],[126.67235,37.44385],[126.67232,37.44385],[126.67223,37.44385],[126.6708,37.44489],[126.67075,37.44493],[126.67071,37.44498],[126.67058,37.44521],[126.67055,37.44525],[126.67054,37.44528],[126.67053,37.44533],[126.67051,37.44537],[126.67051,37.44541],[126.67053,37.44546],[126.67054,37.44553],[126.67052,37.4456],[126.6704,37.44582],[126.6701,37.44624],[126.66956,37.44691],[126.66838,37.44777],[126.66833,37.44778],[126.66825,37.44779],[126.66822,37.44779],[126.66793,37.44782],[126.66753,37.45226],[126.67468,37.45174]]]]}},{"type":"Feature","properties":{"code":"28177650","name":"주안4동","parent":"28177"},"geometry":{"type":"MultiPolygon","coordinates":[[[[126.68579,37.45813],[126.69112,37.45775],[126.69117,37.45773],[126.69352,37.4567],[126.69359,37.45666],[126.69364,37.45663],[126.69368,37.4566],[126.69372,37.45657],[126.69376,37.45654],[126.6938,37.45652],[126.69417,37.45625],[126.69442,37.45606],[126.69453,37.45598],[126.69504,37.45566],[126.69429,37.4515],[126.69261,37.45054],[126.6798,37.45141],[126.68009,37.45848],[126.68579,37.45813]]]]}},{"type":"Feature","properties":{"code":"28177660","name":"주안5동","parent":"28177"},"geometry":{"type":"MultiPolygon","coordinates":[[[[126.68404,37.47335],[126.68605,37.47202],[126.68598,37.47192],[126.68588,37.47178],[126.68575,37.4716],[126.68573,37.47156],[126.68504,37.47056],[126.68496,37.47045],[126.68436,37.46956],[126.68436,37.46953],[126.68508,37.46938],[126.68512,37.46938],[126.68576,37.46926],[126.68581,37.46925],[126.68643,37.46914],[126.68722,37.46899],[126.68724,37.46897],[126.68703,37.4677],[126.6868,37.46621],[126.68704,37.46617],[126.69279,37.46551],[126.69294,37.46472],[126.68607,37.46449],[126.6797,37.46513],[126.67372,37.46568],[126.67438,37.47551],[126.67444,37.47558],[126.67448,37.4756],[126.67454,37.4756],[126.67463,37.47559],[126.67485,37.47554],[126.67504,37.47549],[126.67669,37.47506],[126.67841,37.4746],[126.67859,37.47455],[126.67881,37.47449],[126.67904,37.47441],[126.67932,37.47431],[126.67993,37.47412],[126.68105,37.47378],[126.68111,37.47376],[126.68115,37.47375],[126.68306,37.47345],[126.68316,37.47344],[126.68404,37.47335]]]]}},{"type":"Feature","properties":{"code":"28177670","name":"주안6동","parent":"28177"},"geometry":{"type":"MultiPolygon","coordinates":[[[[126.69724,37.46129],[126.69524,37.46033],[126.69467,37.45881],[126.69466,37.45874],[126.69454,37.45787],[126.6945,37.45753],[126.69451,37.45607],[126.69453,37.45598],[126.69442,37.45606],[126.69417,37.45625],[126.6938,37.45652],[126.69376,37.45654],[126.69372,37.45657],[126.69368,37.4566],[126.69364,37.45663],[126.69359,37.45666],[126.69352,37.4567],[126.69117,37.45773],[126.69112,37.45775],[126.68579,37.45813],[126.68607,37.46449],[126.69294,37.46472],[126.69724,37.46129]]]]}},{"type":"Feature","properties":{"code":"28177680","name":"주안7동","parent":"28177"},"geometry":{"type":"MultiPolygon","coordinates":[[[[126.6798,37.45141],[126.67972,37.44892],[126.68119,37.44793],[126.68121,37.44789],[126.68121,37.44784],[126.68121,37.44745],[126.68121,37.44707],[126.6811,37.44561],[126.68083,37.44194],[126.67854,37.44193],[126.67881,37.44437],[126.6788,37.44439],[126.67541,37.44413],[126.67439,37.44697],[126.67468,37.45174],[126.6798,37.45141]]]]}},{"type":"Feature","properties":{"code":"28177690","name":"주안8동","parent":"28177"},"geometry":{"type":"MultiPolygon","coordinates":[[[[126.69261,37.45054],[126.69293,37.44833],[126.69288,37.44823],[126.69092,37.44679],[126.69036,37.44671],[126.68909,37.44661],[126.68908,37.44686],[126.68816,37.44678],[126.68752,37.44673],[126.68487,37.44352],[126.68487,37.44321],[126.68506,37.44228],[126.68083,37.44194],[126.6811,37.44561],[126.68121,37.44707],[126.68121,37.44745],[126.68121,37.44784],[126.68121,37.44789],[126.68119,37.44793],[126.67972,37.44892],[126.6798,37.45141],[126.69261,37.45054]]]]}},{"type":"Feature","properties":{"code":"28177700","name":"관교동","parent":"28177"},"geometry":{"type":"MultiPolygon","coordinates":[[[[126.70018,37.44362],[126.70102,37.44336],[126.70288,37.44277],[126.70236,37.43887],[126.69957,37.4389],[126.69493,37.43877],[126.69421,37.4387],[126.69367,37.43867],[126.6914,37.44012],[126.69129,37.44023],[126.69098,37.44054],[126.69083,37.44069],[126.68997,37.44127],[126.68981,37.44137],[126.68934,37.44164],[126.68821,37.4421],[126.68803,37.44212],[126.68504,37.4419],[126.68506,37.44228],[126.68487,37.44321],[126.68487,37.44352],[126.68752,37.44673],[126.68816,37.44678],[126.68908,37.44686],[126.68909,37.44661],[126.69036,37.44671],[126.69092,37.44679],[126.69288,37.44823],[126.69409,37.44716],[126.69342,37.44664],[126.69533,37.4452],[126.69562,37.445],[126.69581,37.44487],[126.69587,37.44485],[126.69641,37.44462],[126.70018,37.44362]]]]}},{"type":"Feature","properties":{"code":"28177710","name":"문학동","parent":"28177"},"geometry":{"type":"MultiPolygon","coordinates":[[[[126.69493,37.43877],[126.69613,37.43703],[126.69666,37.43507],[126.69677,37.43432],[126.69669,37.4334],[126.69585,37.43338],[126.69506,37.43336],[126.688,37.4332],[126.68717,37.43318],[126.68559,37.43019],[126.68012,37.43092],[126.67707,37.4315],[126.67721,37.43188],[126.67737,37.43275],[126.6774,37.43309],[126.67738,37.43325],[126.67734,37.4334],[126.67694,37.43419],[126.67624,37.43535],[126.67561,37.43641],[126.67556,37.43651],[126.67557,37.43664],[126.67562,37.43673],[126.67613,37.43748],[126.67651,37.43789],[126.67659,37.43797],[126.67854,37.44193],[126.68083,37.44194],[126.68506,37.44228],[126.68504,37.4419],[126.68803,37.44212],[126.68821,37.4421],[126.68934,37.44164],[126.68981,37.44137],[126.68997,37.44127],[126.69083,37.44069],[126.69098,37.44054],[126.69129,37.44023],[126.6914,37.44012],[126.69367,37.43867],[126.69421,37.4387],[126.69493,37.43877]]]]}},{"type":"Feature","properties":{"code":"28177520","name":"숭의1·3동","parent":"28177"},"geometry":{"type":"MultiPolygon","coordinates":[[[[126.65029,37.46951],[126.65069,37.46907],[126.65153,37.46849],[126.65257,37.46806],[126.65573,37.46687],[126.65578,37.46685],[126.65598,37.46681],[126.65613,37.46679],[126.65619,37.46679],[126.65617,37.46622],[126.65299,37.46623],[126.64998,37.46505],[126.64285,37.46225],[126.64137,37.45982],[126.64268,37.45931],[126.64407,37.45877],[126.64425,37.45869],[126.64594,37.45786],[126.64185,37.45788],[126.63758,37.45993],[126.63773,37.46061],[126.63782,37.46101],[126.63913,37.46346],[126.63916,37.46351],[126.63926,37.46357],[126.63944,37.4637],[126.64027,37.4641],[126.64077,37.46434],[126.6412,37.46456],[126.64131,37.46461],[126.64215,37.46504],[126.64215,37.46507],[126.64209,37.46758],[126.64279,37.46849],[126.6445,37.4696],[126.64555,37.46995],[126.65029,37.46951]]]]}},{"type":"Feature","properties":{"code":"28177540","name":"용현1·4동","parent":"28177"},"geometry":{"type":"MultiPolygon","coordinates":[[[[126.6625,37.45866],[126.66458,37.45721],[126.66547,37.45555],[126.66454,37.4532],[126.66534,37.45295],[126.66753,37.45226],[126.66793,37.44782],[126.66542,37.44791],[126.66029,37.44709],[126.65996,37.44827],[126.65998,37.44834],[126.65997,37.44843],[126.6598,37.44893],[126.6595,37.44929],[126.65938,37.44941],[126.65896,37.44945],[126.65871,37.44907],[126.65894,37.4479],[126.65751,37.44562],[126.65731,37.4457],[126.65648,37.44603],[126.65446,37.44686],[126.65351,37.44724],[126.65039,37.44616],[126.65027,37.44688],[126.65009,37.44786],[126.64987,37.44893],[126.64978,37.44928],[126.64967,37.44951],[126.64811,37.45219],[126.65057,37.45213],[126.65215,37.45234],[126.65261,37.45244],[126.65331,37.45259],[126.65404,37.45274],[126.6564,37.45333],[126.65667,37.4534],[126.6572,37.45353],[126.65743,37.45358],[126.658,37.45373],[126.65837,37.45383],[126.658,37.45421],[126.65776,37.45442],[126.65635,37.45564],[126.65592,37.45591],[126.65552,37.45605],[126.65532,37.45612],[126.65489,37.45684],[126.65461,37.45729],[126.65453,37.45746],[126.65499,37.45782],[126.65522,37.45797],[126.65542,37.4581],[126.65549,37.45813],[126.65623,37.45851],[126.65647,37.45863],[126.65709,37.45895],[126.65957,37.4577],[126.6625,37.45866]]]]}},{"type":"Feature","properties":{"code":"28177610","name":"도화2·3동","parent":"28177"},"geometry":{"type":"MultiPolygon","coordinates":[[[[126.67048,37.47685],[126.67438,37.47551],[126.67372,37.46568],[126.67327,37.46571],[126.67214,37.46582],[126.66999,37.46603],[126.66747,37.46629],[126.66594,37.46642],[126.66322,37.46666],[126.65619,37.46679],[126.65613,37.46679],[126.65598,37.46681],[126.65578,37.46685],[126.65573,37.46687],[126.65257,37.46806],[126.65153,37.46849],[126.65069,37.46907],[126.65029,37.46951],[126.6512,37.4698],[126.65242,37.47051],[126.65264,37.47247],[126.65264,37.47271],[126.65263,37.47307],[126.65262,37.47323],[126.65239,37.47368],[126.65238,37.47371],[126.65235,37.47374],[126.65231,37.47377],[126.65227,37.4738],[126.65224,37.47383],[126.65219,37.47385],[126.65215,37.47386],[126.6521,37.47388],[126.65202,37.47389],[126.65198,37.4739],[126.65192,37.47391],[126.65185,37.47392],[126.6518,37.47393],[126.65173,37.47394],[126.6516,37.47397],[126.65156,37.47397],[126.65152,37.47399],[126.65147,37.47402],[126.65141,37.47407],[126.65135,37.47415],[126.65134,37.47419],[126.65131,37.47433],[126.6513,37.47443],[126.6513,37.47449],[126.65189,37.47555],[126.65201,37.47575],[126.65206,37.4758],[126.6521,37.47582],[126.65223,37.47582],[126.65232,37.4758],[126.65263,37.47575],[126.65272,37.47588],[126.65434,37.47847],[126.65356,37.4792],[126.65304,37.47953],[126.65283,37.47987],[126.65295,37.48169],[126.65349,37.48239],[126.65462,37.4837],[126.65496,37.48406],[126.655,37.48408],[126.65509,37.48405],[126.65518,37.48402],[126.65891,37.48268],[126.66085,37.48171],[126.66464,37.47978],[126.67048,37.47685]]]]}}]}