{"type":"FeatureCollection","features":[{"type":"Feature","properties":{"code":"48125310","name":"구산면","parent":"48125"},"geometry":{"type":"MultiPolygon","coordinates":[[[[128.57233,35.05725],[128.57065,35.05696],[128.57026,35.05696],[128.56999,35.05706],[128.56982,35.05756],[128.56933,35.05897],[128.56939,35.06168],[128.56945,35.06193],[128.56955,35.0622],[128.56979,35.06237],[128.57097,35.06285],[128.57417,35.06355],[128.57459,35.06347],[128.5752,35.06279],[128.57558,35.06224],[128.57571,35.06084],[128.57537,35.06045],[128.57294,35.05776],[128.57233,35.05725]]],[[[128.63421,35.05991],[128.63346,35.05987],[128.6317,35.06063],[128.63126,35.06092],[128.63118,35.06122],[128.63236,35.06373],[128.63278,35.06424],[128.63453,35.0657],[128.63501,35.06589],[128.63566,35.06603],[128.63688,35.06613],[128.63738,35.06603],[128.63745,35.06525],[128.63891,35.06389],[128.63823,35.06251],[128.6348,35.06002],[128.63421,35.05991]]],[[[128.57312,35.06458],[128.57263,35.06446],[128.57192,35.06455],[128.57081,35.06495],[128.57019,35.06584],[128.57017,35.06612],[128.57028,35.06654],[128.57144,35.06745],[128.57203,35.06742],[128.57253,35.06723],[128.57299,35.06693],[128.5733,35.06664],[128.57352,35.06636],[128.57356,35.06584],[128.5735,35.06533],[128.57332,35.0648],[128.57312,35.06458]]],[[[128.56379,35.06388],[128.56315,35.06357],[128.56167,35.06385],[128.5605,35.06389],[128.5613,35.06289],[128.56505,35.05873],[128.5664,35.05759],[128.56732,35.05648],[128.56843,35.05505],[128.56861,35.05463],[128.56848,35.05396],[128.56804,35.05351],[128.56741,35.05317],[128.56423,35.05263],[128.56227,35.05246],[128.55808,35.05274],[128.55652,35.05311],[128.55531,35.05355],[128.55404,35.05466],[128.55062,35.058],[128.54963,35.05956],[128.5493,35.06069],[128.5492,35.06147],[128.54885,35.06186],[128.54684,35.06343],[128.54429,35.06504],[128.54263,35.06618],[128.54225,35.06683],[128.54185,35.06864],[128.54194,35.06906],[128.54249,35.06937],[128.54603,35.06994],[128.54767,35.06998],[128.55105,35.07003],[128.55243,35.07024],[128.55324,35.06984],[128.55589,35.06904],[128.55858,35.06839],[128.56177,35.06693],[128.56368,35.06459],[128.56376,35.06437],[128.56379,35.06388]]],[[[128.5585,35.0731],[128.5601,35.07276],[128.5605,35.07285],[128.56086,35.07336],[128.56121,35.07358],[128.56196,35.07357],[128.56262,35.07347],[128.56332,35.07297],[128.56347,35.07262],[128.56319,35.07233],[128.56248,35.07218],[128.56107,35.07201],[128.56005,35.07189],[128.55538,35.07169],[128.55343,35.0721],[128.55316,35.0722],[128.55285,35.07234],[128.55266,35.07269],[128.55294,35.07317],[128.55318,35.0733],[128.55428,35.07373],[128.5546,35.07379],[128.5555,35.07385],[128.5562,35.07361],[128.5585,35.0731]]],[[[128.5484,35.07351],[128.54773,35.07339],[128.54727,35.07349],[128.547,35.07388],[128.547,35.07404],[128.54729,35.07458],[128.54804,35.07515],[128.54907,35.07543],[128.54984,35.07519],[128.5505,35.07483],[128.55054,35.07451],[128.54884,35.07363],[128.5484,35.07351]]],[[[128.54473,35.07866],[128.54365,35.07816],[128.5425,35.07832],[128.54216,35.07891],[128.54186,35.08198],[128.54282,35.08584],[128.5439,35.08633],[128.54461,35.08654],[128.54514,35.08617],[128.54683,35.08615],[128.54753,35.08556],[128.54838,35.0838],[128.54862,35.08233],[128.5485,35.08065],[128.54473,35.07866]]],[[[128.57467,35.13327],[128.57502,35.13327],[128.57574,35.13326],[128.57577,35.13326],[128.57655,35.13317],[128.57818,35.13292],[128.57888,35.13278],[128.5793,35.13266],[128.57978,35.13248],[128.58183,35.13162],[128.58456,35.13029],[128.5853,35.12991],[128.58593,35.12968],[128.58661,35.12955],[128.5874,35.12948],[128.58764,35.12948],[128.58782,35.1295],[128.58804,35.12955],[128.58842,35.12969],[128.58875,35.12986],[128.58902,35.13002],[128.5891,35.13007],[128.58929,35.13021],[128.58961,35.13048],[128.58987,35.13075],[128.59012,35.13107],[128.59041,35.13159],[128.59046,35.13168],[128.59053,35.13185],[128.59065,35.13223],[128.59078,35.13256],[128.59088,35.13274],[128.59117,35.13313],[128.59151,35.13347],[128.59182,35.13373],[128.59222,35.134],[128.59254,35.13418],[128.59266,35.13425],[128.59708,35.13393],[128.59968,35.13361],[128.60097,35.13336],[128.60171,35.13165],[128.60177,35.12995],[128.6008,35.12426],[128.59941,35.12252],[128.59766,35.12152],[128.59534,35.12111],[128.59191,35.121],[128.59177,35.1208],[128.59637,35.11979],[128.59725,35.1203],[128.5985,35.12028],[128.60068,35.1197],[128.60085,35.11863],[128.60119,35.11624],[128.60135,35.11446],[128.60307,35.10415],[128.60583,35.10233],[128.60834,35.10038],[128.60994,35.0983],[128.61108,35.09725],[128.61807,35.09525],[128.61872,35.09414],[128.61854,35.0924],[128.61563,35.0914],[128.61419,35.09153],[128.61414,35.09142],[128.61639,35.09052],[128.61764,35.09038],[128.61943,35.09075],[128.62116,35.09085],[128.62313,35.09047],[128.62417,35.08934],[128.62543,35.08759],[128.62536,35.08549],[128.62533,35.08462],[128.62482,35.08316],[128.62301,35.0818],[128.62043,35.08037],[128.61791,35.07985],[128.60836,35.07923],[128.607,35.07854],[128.60666,35.07638],[128.60671,35.07543],[128.61009,35.07678],[128.61151,35.07637],[128.61268,35.07577],[128.61368,35.07215],[128.61177,35.07149],[128.61011,35.07036],[128.61402,35.06986],[128.61543,35.07076],[128.6169,35.07289],[128.6187,35.07363],[128.61942,35.07392],[128.62288,35.07505],[128.62598,35.07549],[128.62834,35.07468],[128.63174,35.07249],[128.63436,35.07294],[128.63672,35.07223],[128.63717,35.07105],[128.63713,35.0693],[128.63675,35.06774],[128.63483,35.06709],[128.63103,35.06694],[128.62922,35.06541],[128.628,35.06386],[128.62561,35.06292],[128.62134,35.06298],[128.61918,35.06183],[128.61696,35.06089],[128.61412,35.06132],[128.60981,35.05932],[128.60955,35.05806],[128.60929,35.05699],[128.60797,35.05642],[128.60415,35.05511],[128.59488,35.05455],[128.5925,35.05468],[128.58977,35.05442],[128.587,35.0525],[128.5776,35.05155],[128.5744,35.05179],[128.57206,35.05338],[128.57184,35.05473],[128.57247,35.05565],[128.57509,35.05798],[128.57624,35.05865],[128.57738,35.05939],[128.57751,35.06057],[128.57762,35.06117],[128.58052,35.06197],[128.58319,35.06168],[128.58402,35.0621],[128.58673,35.06375],[128.58747,35.06467],[128.58821,35.06576],[128.58916,35.06694],[128.5901,35.0676],[128.59342,35.06874],[128.59292,35.06934],[128.59149,35.07055],[128.58926,35.07201],[128.58834,35.07211],[128.58699,35.07187],[128.58832,35.07143],[128.5888,35.06965],[128.58649,35.06706],[128.58273,35.06431],[128.58086,35.06366],[128.57971,35.06375],[128.57398,35.06477],[128.57369,35.0657],[128.57391,35.06646],[128.57393,35.06747],[128.57126,35.06764],[128.56954,35.06685],[128.56897,35.06644],[128.56759,35.06606],[128.56537,35.06604],[128.5631,35.06643],[128.56218,35.06695],[128.56138,35.06789],[128.56017,35.06934],[128.5607,35.07035],[128.56167,35.07103],[128.56289,35.07078],[128.56375,35.07127],[128.56409,35.07216],[128.5642,35.07281],[128.56248,35.07392],[128.56132,35.07467],[128.56063,35.07584],[128.56054,35.0764],[128.56051,35.07665],[128.56083,35.08104],[128.56103,35.08196],[128.56153,35.08331],[128.56239,35.08384],[128.56555,35.08426],[128.56592,35.0838],[128.56656,35.08301],[128.5677,35.08319],[128.56902,35.08364],[128.56932,35.08433],[128.57319,35.08726],[128.57692,35.08779],[128.58084,35.0884],[128.58095,35.08925],[128.58036,35.09038],[128.57965,35.09019],[128.57772,35.09006],[128.57645,35.09004],[128.57462,35.09041],[128.57326,35.09074],[128.57134,35.09142],[128.56895,35.09227],[128.56765,35.09174],[128.56239,35.09228],[128.55816,35.0932],[128.55624,35.09374],[128.55561,35.09395],[128.55359,35.09456],[128.55329,35.09465],[128.54992,35.09553],[128.54987,35.0955],[128.54986,35.09496],[128.54988,35.09443],[128.5499,35.0938],[128.54992,35.09267],[128.54909,35.09197],[128.54801,35.09153],[128.54679,35.09151],[128.54506,35.09247],[128.54485,35.09398],[128.5451,35.09493],[128.54507,35.09939],[128.54485,35.10005],[128.54329,35.10016],[128.54168,35.10033],[128.54101,35.10081],[128.54101,35.10099],[128.54098,35.10153],[128.5415,35.10251],[128.54271,35.1042],[128.54332,35.10488],[128.54442,35.10529],[128.54556,35.10537],[128.54652,35.10546],[128.54692,35.10557],[128.54717,35.10613],[128.54737,35.10709],[128.54704,35.10783],[128.54404,35.10961],[128.54374,35.1097],[128.54351,35.10957],[128.54325,35.10878],[128.54296,35.10777],[128.54045,35.10634],[128.53977,35.10596],[128.53831,35.10588],[128.53729,35.10627],[128.53586,35.10754],[128.53533,35.10854],[128.53524,35.10965],[128.53555,35.1109],[128.5366,35.11119],[128.53785,35.11349],[128.53905,35.11641],[128.53931,35.11722],[128.53759,35.11841],[128.53756,35.11843],[128.53721,35.11861],[128.53702,35.11869],[128.53684,35.1187],[128.53676,35.11871],[128.5366,35.11869],[128.53656,35.11866],[128.5365,35.1186],[128.53547,35.11694],[128.53546,35.11698],[128.53537,35.11724],[128.53531,35.11738],[128.53515,35.11771],[128.53513,35.11776],[128.53511,35.1178],[128.53463,35.11871],[128.53406,35.1198],[128.53354,35.12048],[128.53099,35.12295],[128.53047,35.12345],[128.52921,35.12462],[128.52898,35.12484],[128.52884,35.12495],[128.52876,35.12501],[128.52872,35.12503],[128.52867,35.12504],[128.52864,35.12504],[128.52858,35.12503],[128.52849,35.12501],[128.52829,35.12495],[128.52815,35.12491],[128.52805,35.12486],[128.52795,35.12481],[128.52789,35.12477],[128.52783,35.12472],[128.52773,35.1246],[128.52699,35.12396],[128.52525,35.12273],[128.52519,35.12272],[128.52507,35.1227],[128.52238,35.12245],[128.52217,35.12243],[128.52195,35.12243],[128.52176,35.12244],[128.52166,35.12245],[128.52161,35.12246],[128.52153,35.12249],[128.52141,35.12254],[128.52022,35.12325],[128.5201,35.12334],[128.52003,35.12342],[128.51997,35.12353],[128.51993,35.12362],[128.51991,35.12372],[128.51991,35.12385],[128.51993,35.12401],[128.51995,35.12411],[128.52023,35.12553],[128.52027,35.12575],[128.52084,35.12846],[128.52091,35.12871],[128.52172,35.13152],[128.52177,35.13163],[128.52197,35.13195],[128.52233,35.13248],[128.52243,35.1326],[128.52499,35.13552],[128.52516,35.1357],[128.52534,35.13585],[128.52556,35.136],[128.52661,35.13656],[128.52689,35.13662],[128.5272,35.13666],[128.52748,35.13665],[128.52781,35.1366],[128.52797,35.13659],[128.52907,35.13657],[128.52975,35.13656],[128.52995,35.13657],[128.5331,35.13681],[128.53319,35.13683],[128.53331,35.13687],[128.53401,35.13707],[128.53408,35.1371],[128.53716,35.13847],[128.53708,35.13775],[128.53744,35.1363],[128.54225,35.13206],[128.54686,35.12714],[128.54692,35.12712],[128.54715,35.12701],[128.54721,35.12698],[128.54727,35.12697],[128.54761,35.1269],[128.54778,35.12686],[128.5489,35.1271],[128.55283,35.12804],[128.5529,35.12808],[128.55305,35.12821],[128.55383,35.12892],[128.55393,35.12906],[128.55396,35.12912],[128.55412,35.12957],[128.55419,35.13016],[128.55419,35.13028],[128.55413,35.1305],[128.55412,35.13058],[128.55414,35.13065],[128.55425,35.13083],[128.55537,35.13255],[128.55548,35.13271],[128.55552,35.13275],[128.55555,35.13277],[128.5556,35.13279],[128.55723,35.1331],[128.5573,35.1331],[128.56238,35.13306],[128.56721,35.13275],[128.56757,35.13267],[128.56782,35.13264],[128.56845,35.13261],[128.56875,35.13263],[128.569,35.13268],[128.56933,35.13278],[128.57255,35.13312],[128.57467,35.13327]]]]}},{"type":"Feature","properties":{"code":"48125320","name":"진동면","parent":"48125"},"geometry":{"type":"MultiPolygon","coordinates":[[[[128.49666,35.06943],[128.49576,35.06925],[128.49563,35.06925],[128.49552,35.06927],[128.49539,35.06932],[128.49526,35.06939],[128.49384,35.07087],[128.4938,35.07092],[128.49376,35.07098],[128.49374,35.07112],[128.49374,35.07119],[128.49377,35.07156],[128.49378,35.0716],[128.4938,35.07166],[128.49418,35.07247],[128.49463,35.07276],[128.49519,35.07303],[128.49527,35.07305],[128.49537,35.07308],[128.49549,35.07311],[128.49558,35.07312],[128.49566,35.07312],[128.49601,35.07312],[128.4961,35.07312],[128.49624,35.0731],[128.49633,35.07308],[128.49638,35.07305],[128.49645,35.07301],[128.49676,35.07278],[128.49683,35.07271],[128.49689,35.07265],[128.49695,35.07256],[128.49701,35.07244],[128.49706,35.0723],[128.49708,35.07223],[128.49748,35.0707],[128.49752,35.07053],[128.49752,35.07028],[128.49748,35.07013],[128.49742,35.07],[128.49735,35.06989],[128.49727,35.06981],[128.49703,35.06962],[128.49683,35.06947],[128.49666,35.06943]]],[[[128.49091,35.07685],[128.49022,35.07682],[128.49003,35.07682],[128.48981,35.07683],[128.48963,35.07686],[128.48935,35.07694],[128.48897,35.07705],[128.48879,35.07712],[128.48865,35.07719],[128.48845,35.07731],[128.48829,35.07741],[128.48815,35.07754],[128.48803,35.07767],[128.48794,35.07781],[128.48788,35.07791],[128.48782,35.0782],[128.48781,35.07827],[128.4878,35.07834],[128.4878,35.07843],[128.48825,35.08381],[128.48829,35.08387],[128.48833,35.08393],[128.48844,35.08397],[128.48858,35.08397],[128.48871,35.08392],[128.48943,35.08362],[128.49082,35.08288],[128.4937,35.0815],[128.49402,35.08138],[128.49445,35.08105],[128.49456,35.08097],[128.49462,35.08091],[128.49475,35.08072],[128.49501,35.07994],[128.49504,35.07965],[128.49205,35.07717],[128.491,35.07687],[128.49091,35.07685]]],[[[128.49329,35.08902],[128.49263,35.08839],[128.48841,35.09168],[128.48835,35.09173],[128.4883,35.09179],[128.48826,35.09188],[128.48822,35.09199],[128.48819,35.09211],[128.48817,35.09222],[128.48818,35.09234],[128.48824,35.09242],[128.48925,35.09358],[128.48934,35.09366],[128.48941,35.0937],[128.48952,35.09374],[128.49256,35.09428],[128.49266,35.09428],[128.49274,35.09427],[128.49282,35.09425],[128.49321,35.09401],[128.49372,35.09296],[128.49329,35.08902]]],[[[128.51142,35.09424],[128.51129,35.09424],[128.51118,35.09424],[128.51104,35.09426],[128.51099,35.09428],[128.51078,35.09438],[128.51071,35.09441],[128.51067,35.09444],[128.51047,35.09463],[128.51044,35.09467],[128.51041,35.09473],[128.51039,35.09476],[128.51038,35.09482],[128.51038,35.09486],[128.51038,35.09491],[128.51039,35.09497],[128.51047,35.09519],[128.51049,35.09525],[128.51052,35.09531],[128.51056,35.09534],[128.51064,35.09539],[128.51209,35.09622],[128.51216,35.09626],[128.51224,35.09629],[128.51237,35.09632],[128.51248,35.09634],[128.51324,35.09642],[128.51358,35.09645],[128.51372,35.09645],[128.51396,35.09612],[128.51413,35.09579],[128.51214,35.09447],[128.51203,35.0944],[128.51193,35.09435],[128.51184,35.09431],[128.51173,35.09428],[128.51163,35.09426],[128.51153,35.09425],[128.51142,35.09424]]],[[[128.51983,35.09672],[128.52065,35.09654],[128.52103,35.09658],[128.52108,35.09659],[128.52112,35.09659],[128.52115,35.09659],[128.52141,35.09653],[128.52155,35.0965],[128.52164,35.09646],[128.52169,35.09643],[128.52175,35.0964],[128.5218,35.09636],[128.52183,35.09632],[128.52197,35.09614],[128.52199,35.0961],[128.52199,35.09605],[128.52198,35.096],[128.52196,35.09593],[128.52194,35.09586],[128.5219,35.0958],[128.52184,35.09574],[128.52181,35.09571],[128.52175,35.09567],[128.52169,35.09566],[128.52165,35.09565],[128.52154,35.09566],[128.52139,35.09569],[128.52132,35.0957],[128.52128,35.0957],[128.52122,35.09569],[128.52116,35.09568],[128.52084,35.09559],[128.52076,35.09557],[128.52052,35.09547],[128.52042,35.09543],[128.52018,35.0953],[128.5201,35.09525],[128.51988,35.09508],[128.51983,35.09503],[128.51842,35.09324],[128.5184,35.09319],[128.51706,35.09004],[128.51695,35.08975],[128.51693,35.08968],[128.51691,35.08955],[128.51692,35.08948],[128.51693,35.08943],[128.51695,35.08939],[128.51699,35.08936],[128.5171,35.08923],[128.51718,35.08914],[128.51722,35.08906],[128.51726,35.089],[128.51727,35.08893],[128.51727,35.08886],[128.51726,35.0888],[128.51723,35.08873],[128.51718,35.08867],[128.51711,35.08861],[128.51703,35.08858],[128.51696,35.08856],[128.51688,35.08856],[128.51679,35.08857],[128.51668,35.0886],[128.51661,35.08864],[128.51655,35.08868],[128.51638,35.08881],[128.51632,35.08886],[128.51618,35.089],[128.5161,35.08908],[128.51601,35.0892],[128.51585,35.08941],[128.51579,35.08951],[128.51569,35.08967],[128.5156,35.08984],[128.51495,35.09146],[128.51493,35.09152],[128.51489,35.09165],[128.51429,35.09461],[128.51429,35.09466],[128.51429,35.09475],[128.5143,35.09488],[128.51445,35.09608],[128.51746,35.09664],[128.51757,35.09666],[128.51769,35.09666],[128.51983,35.09672]]],[[[128.52089,35.17808],[128.52151,35.17727],[128.52216,35.17553],[128.52213,35.17543],[128.5221,35.17532],[128.52209,35.17515],[128.5221,35.17501],[128.52215,35.17482],[128.52224,35.1746],[128.52234,35.17441],[128.52395,35.17205],[128.524,35.17198],[128.52441,35.17156],[128.5245,35.17147],[128.5251,35.17091],[128.52887,35.16852],[128.53366,35.16469],[128.53373,35.16463],[128.5338,35.16458],[128.534,35.1645],[128.53408,35.16447],[128.5342,35.16443],[128.53445,35.1644],[128.53458,35.16438],[128.53479,35.16437],[128.53503,35.16439],[128.53775,35.16307],[128.54084,35.1609],[128.54087,35.16086],[128.5409,35.16081],[128.54096,35.16061],[128.541,35.16039],[128.541,35.16035],[128.54098,35.16028],[128.54094,35.16021],[128.53985,35.15825],[128.53901,35.15678],[128.53897,35.15671],[128.53884,35.15655],[128.53852,35.15613],[128.53736,35.15492],[128.53725,35.15484],[128.53535,35.1539],[128.53519,35.15382],[128.53446,35.1536],[128.53421,35.15352],[128.53406,35.1535],[128.53299,35.15255],[128.53038,35.14931],[128.53038,35.14928],[128.53043,35.14894],[128.53044,35.14889],[128.53046,35.14881],[128.53049,35.14872],[128.53055,35.14861],[128.53066,35.14845],[128.53085,35.14826],[128.5309,35.14821],[128.53096,35.14819],[128.53101,35.14817],[128.53108,35.14816],[128.53117,35.14815],[128.53124,35.14814],[128.53131,35.14811],[128.53141,35.14807],[128.53151,35.148],[128.53167,35.14789],[128.53196,35.14763],[128.53223,35.14739],[128.53234,35.14727],[128.53595,35.14233],[128.53598,35.14228],[128.53607,35.14216],[128.53619,35.14195],[128.53634,35.14169],[128.53709,35.14035],[128.53713,35.14027],[128.53716,35.1402],[128.53717,35.14013],[128.53718,35.14009],[128.53729,35.13917],[128.53729,35.13912],[128.53729,35.13907],[128.53728,35.13902],[128.53716,35.13847],[128.53408,35.1371],[128.53401,35.13707],[128.53331,35.13687],[128.53319,35.13683],[128.5331,35.13681],[128.52995,35.13657],[128.52975,35.13656],[128.52907,35.13657],[128.52797,35.13659],[128.52781,35.1366],[128.52748,35.13665],[128.5272,35.13666],[128.52689,35.13662],[128.52661,35.13656],[128.52556,35.136],[128.52534,35.13585],[128.52516,35.1357],[128.52499,35.13552],[128.52243,35.1326],[128.52233,35.13248],[128.52197,35.13195],[128.52177,35.13163],[128.52172,35.13152],[128.52091,35.12871],[128.52084,35.12846],[128.52027,35.12575],[128.52023,35.12553],[128.51995,35.12411],[128.51993,35.12401],[128.51991,35.12385],[128.51991,35.12372],[128.51993,35.12362],[128.51997,35.12353],[128.52003,35.12342],[128.5201,35.12334],[128.52022,35.12325],[128.52141,35.12254],[128.52153,35.12249],[128.52161,35.12246],[128.52166,35.12245],[128.52176,35.12244],[128.52195,35.12243],[128.52217,35.12243],[128.52238,35.12245],[128.52507,35.1227],[128.52519,35.12272],[128.52525,35.12273],[128.52699,35.12396],[128.52773,35.1246],[128.52783,35.12472],[128.52789,35.12477],[128.52795,35.12481],[128.52805,35.12486],[128.52815,35.12491],[128.52829,35.12495],[128.52849,35.12501],[128.52858,35.12503],[128.52864,35.12504],[128.52867,35.12504],[128.52872,35.12503],[128.52876,35.12501],[128.52884,35.12495],[128.52898,35.12484],[128.52921,35.12462],[128.53047,35.12345],[128.53099,35.12295],[128.53354,35.12048],[128.53406,35.1198],[128.53463,35.11871],[128.53511,35.1178],[128.53513,35.11776],[128.53515,35.11771],[128.53531,35.11738],[128.53537,35.11724],[128.53546,35.11698],[128.53547,35.11694],[128.53501,35.11697],[128.53472,35.11692],[128.53432,35.11654],[128.53406,35.11615],[128.53407,35.1159],[128.53467,35.11564],[128.53501,35.1148],[128.53505,35.11442],[128.5349,35.11344],[128.5342,35.1123],[128.53189,35.10914],[128.53198,35.10854],[128.53171,35.10691],[128.53112,35.10615],[128.53021,35.10515],[128.52863,35.10388],[128.5272,35.1034],[128.52617,35.10347],[128.52544,35.10381],[128.52467,35.10412],[128.52407,35.1043],[128.52205,35.10439],[128.52171,35.10435],[128.521,35.1023],[128.52097,35.10205],[128.52102,35.10089],[128.52097,35.1001],[128.52062,35.099],[128.52059,35.09889],[128.52008,35.09822],[128.51868,35.0969],[128.51675,35.09689],[128.51542,35.09762],[128.51199,35.09785],[128.51086,35.09785],[128.50988,35.09778],[128.5074,35.0975],[128.50655,35.09735],[128.50558,35.09737],[128.50423,35.0976],[128.50386,35.09838],[128.49921,35.10142],[128.49833,35.10161],[128.49669,35.10333],[128.49649,35.10361],[128.4941,35.10608],[128.48975,35.1068],[128.48853,35.10686],[128.48625,35.10469],[128.48591,35.10327],[128.48588,35.10187],[128.48551,35.10123],[128.48355,35.09988],[128.48188,35.09902],[128.4808,35.09847],[128.48026,35.09877],[128.48059,35.09927],[128.48111,35.1],[128.48098,35.10089],[128.48074,35.10136],[128.47835,35.09927],[128.47843,35.09846],[128.47624,35.09743],[128.47114,35.09708],[128.46788,35.09758],[128.46675,35.09824],[128.46564,35.09976],[128.46586,35.10108],[128.46687,35.10223],[128.47019,35.10552],[128.47022,35.10557],[128.47024,35.10561],[128.47024,35.10566],[128.46918,35.10812],[128.4691,35.10826],[128.46901,35.10839],[128.46886,35.10857],[128.46871,35.10871],[128.46848,35.10889],[128.46773,35.10944],[128.46825,35.1098],[128.47094,35.11317],[128.47098,35.11325],[128.47101,35.11333],[128.47101,35.11346],[128.47099,35.11358],[128.47098,35.11449],[128.47099,35.11452],[128.47104,35.11454],[128.47166,35.1147],[128.47199,35.11476],[128.47217,35.11479],[128.47251,35.11482],[128.47279,35.11482],[128.47352,35.11474],[128.47716,35.11435],[128.47729,35.11432],[128.47742,35.11429],[128.47817,35.11588],[128.47798,35.11691],[128.47812,35.12018],[128.47815,35.1203],[128.47819,35.1204],[128.47855,35.12108],[128.47858,35.12114],[128.47863,35.12118],[128.4787,35.12121],[128.47884,35.12123],[128.48,35.12135],[128.48142,35.12151],[128.48151,35.12153],[128.48358,35.12225],[128.48447,35.12369],[128.48448,35.12372],[128.48448,35.12395],[128.48451,35.12444],[128.48455,35.1246],[128.485,35.12551],[128.48545,35.12621],[128.48699,35.1263],[128.48713,35.12629],[128.48737,35.12627],[128.48831,35.12617],[128.48841,35.12614],[128.48864,35.12603],[128.48875,35.126],[128.48884,35.12599],[128.48972,35.12605],[128.49058,35.12624],[128.49084,35.12631],[128.49149,35.12653],[128.49195,35.1267],[128.49222,35.12684],[128.49253,35.12706],[128.49358,35.12786],[128.4937,35.12796],[128.49376,35.12808],[128.49382,35.12895],[128.49382,35.12908],[128.49379,35.12921],[128.49362,35.12964],[128.4934,35.13015],[128.4932,35.13151],[128.49319,35.13164],[128.49317,35.13371],[128.49318,35.13377],[128.4932,35.13385],[128.49348,35.13421],[128.49365,35.13438],[128.494,35.13464],[128.49448,35.13507],[128.4948,35.13537],[128.49819,35.13989],[128.49827,35.14004],[128.49833,35.14022],[128.49917,35.14308],[128.49966,35.14732],[128.49964,35.14789],[128.49652,35.15344],[128.49647,35.15349],[128.49433,35.1543],[128.49399,35.15443],[128.49354,35.15454],[128.49309,35.15461],[128.4928,35.15461],[128.49265,35.15462],[128.49252,35.15471],[128.49241,35.15489],[128.49186,35.15596],[128.49183,35.15602],[128.49183,35.1561],[128.49195,35.15724],[128.49197,35.15737],[128.49226,35.15832],[128.49304,35.16015],[128.49327,35.16051],[128.49353,35.16083],[128.49383,35.1612],[128.49649,35.16903],[128.49963,35.17452],[128.49981,35.1748],[128.49997,35.17499],[128.50003,35.17505],[128.50282,35.17762],[128.50311,35.17775],[128.50429,35.17816],[128.50629,35.1788],[128.50633,35.17879],[128.50691,35.17845],[128.50755,35.17808],[128.50865,35.17741],[128.5116,35.17815],[128.51171,35.17817],[128.51179,35.17817],[128.51347,35.17828],[128.5136,35.17827],[128.51381,35.17824],[128.51412,35.17817],[128.51435,35.1781],[128.51438,35.17808],[128.5151,35.17772],[128.5156,35.17751],[128.51588,35.1774],[128.51627,35.17729],[128.51716,35.17706],[128.51724,35.17704],[128.5173,35.17705],[128.5203,35.1778],[128.52089,35.17808]]]]}},{"type":"Feature","properties":{"code":"48125330","name":"진북면","parent":"48125"},"geometry":{"type":"MultiPolygon","coordinates":[[[[128.47897,35.18772],[128.47985,35.18597],[128.47992,35.18586],[128.48009,35.18566],[128.48017,35.18557],[128.48463,35.182],[128.48488,35.18183],[128.48659,35.18069],[128.48675,35.18061],[128.48774,35.18029],[128.48794,35.18025],[128.49054,35.18005],[128.49065,35.18006],[128.49074,35.18009],[128.49359,35.18046],[128.49706,35.18086],[128.49715,35.18086],[128.49733,35.18084],[128.49745,35.1808],[128.49753,35.18076],[128.49761,35.1807],[128.49768,35.18062],[128.49779,35.18049],[128.49807,35.18024],[128.49832,35.18004],[128.49936,35.17936],[128.50194,35.17806],[128.50282,35.17762],[128.50003,35.17505],[128.49997,35.17499],[128.49981,35.1748],[128.49963,35.17452],[128.49649,35.16903],[128.49383,35.1612],[128.49353,35.16083],[128.49327,35.16051],[128.49304,35.16015],[128.49226,35.15832],[128.49197,35.15737],[128.49195,35.15724],[128.49183,35.1561],[128.49183,35.15602],[128.49186,35.15596],[128.49241,35.15489],[128.49252,35.15471],[128.49265,35.15462],[128.4928,35.15461],[128.49309,35.15461],[128.49354,35.15454],[128.49399,35.15443],[128.49433,35.1543],[128.49647,35.15349],[128.49652,35.15344],[128.49964,35.14789],[128.49966,35.14732],[128.49917,35.14308],[128.49833,35.14022],[128.49827,35.14004],[128.49819,35.13989],[128.4948,35.13537],[128.49448,35.13507],[128.494,35.13464],[128.49365,35.13438],[128.49348,35.13421],[128.4932,35.13385],[128.49318,35.13377],[128.49317,35.13371],[128.49319,35.13164],[128.4932,35.13151],[128.4934,35.13015],[128.49362,35.12964],[128.49379,35.12921],[128.49382,35.12908],[128.49382,35.12895],[128.49376,35.12808],[128.4937,35.12796],[128.49358,35.12786],[128.49253,35.12706],[128.49222,35.12684],[128.49195,35.1267],[128.49149,35.12653],[128.49084,35.12631],[128.49058,35.12624],[128.48972,35.12605],[128.48884,35.12599],[128.48875,35.126],[128.48864,35.12603],[128.48841,35.12614],[128.48831,35.12617],[128.48737,35.12627],[128.48713,35.12629],[128.48699,35.1263],[128.48545,35.12621],[128.485,35.12551],[128.48455,35.1246],[128.48451,35.12444],[128.48448,35.12395],[128.48448,35.12372],[128.48447,35.12369],[128.48358,35.12225],[128.48151,35.12153],[128.48142,35.12151],[128.48,35.12135],[128.47884,35.12123],[128.4787,35.12121],[128.47863,35.12118],[128.47858,35.12114],[128.47855,35.12108],[128.47819,35.1204],[128.47815,35.1203],[128.47812,35.12018],[128.47798,35.11691],[128.47817,35.11588],[128.47742,35.11429],[128.47729,35.11432],[128.47716,35.11435],[128.47352,35.11474],[128.47279,35.11482],[128.47251,35.11482],[128.47217,35.11479],[128.47199,35.11476],[128.47166,35.1147],[128.47104,35.11454],[128.47099,35.11452],[128.47098,35.11449],[128.47099,35.11358],[128.47101,35.11346],[128.47101,35.11333],[128.47098,35.11325],[128.47094,35.11317],[128.46825,35.1098],[128.46773,35.10944],[128.4673,35.10977],[128.46724,35.10981],[128.46717,35.10983],[128.46503,35.11026],[128.45991,35.11089],[128.45958,35.11074],[128.45912,35.11061],[128.45878,35.11053],[128.45845,35.11046],[128.45516,35.10987],[128.45478,35.1101],[128.45418,35.11102],[128.45288,35.11353],[128.4504,35.11657],[128.44955,35.11866],[128.44948,35.11878],[128.44939,35.11892],[128.44932,35.119],[128.44855,35.1198],[128.44843,35.11991],[128.44595,35.122],[128.44577,35.12208],[128.44353,35.12264],[128.44339,35.12266],[128.44004,35.12308],[128.43927,35.12316],[128.43659,35.12331],[128.43634,35.12331],[128.43607,35.12328],[128.43562,35.1232],[128.43486,35.12307],[128.43412,35.12287],[128.43264,35.12249],[128.43246,35.12248],[128.43073,35.12241],[128.43054,35.12243],[128.43038,35.12245],[128.42921,35.12262],[128.42902,35.12265],[128.42886,35.1227],[128.42184,35.12497],[128.42162,35.12506],[128.42153,35.12513],[128.42146,35.12523],[128.4206,35.1266],[128.42043,35.12689],[128.42012,35.12762],[128.41995,35.12808],[128.42009,35.12839],[128.42012,35.12857],[128.42012,35.12871],[128.42007,35.12892],[128.42,35.12907],[128.41891,35.13073],[128.41861,35.1311],[128.4175,35.13241],[128.41734,35.13253],[128.41717,35.13262],[128.41677,35.13275],[128.41647,35.13287],[128.4162,35.133],[128.41594,35.13322],[128.41585,35.13332],[128.41583,35.13334],[128.41422,35.13946],[128.4142,35.13954],[128.41579,35.14322],[128.41588,35.14341],[128.41696,35.145],[128.41706,35.14513],[128.41714,35.14521],[128.41766,35.1454],[128.41819,35.14555],[128.419,35.14575],[128.42055,35.14675],[128.42126,35.14991],[128.42117,35.15044],[128.42004,35.15388],[128.41881,35.15683],[128.41817,35.15773],[128.41806,35.15784],[128.41747,35.15844],[128.41703,35.15882],[128.41623,35.15987],[128.41566,35.16071],[128.41628,35.16241],[128.41816,35.16563],[128.41884,35.1668],[128.41956,35.16785],[128.41965,35.16803],[128.41974,35.1684],[128.41978,35.1687],[128.41978,35.16881],[128.41975,35.16911],[128.41974,35.16919],[128.42152,35.16879],[128.42629,35.16696],[128.42676,35.16673],[128.42731,35.16642],[128.42752,35.16628],[128.42761,35.16619],[128.42768,35.16601],[128.42775,35.16578],[128.42781,35.16567],[128.42794,35.16554],[128.42991,35.16425],[128.43001,35.16422],[128.43134,35.16396],[128.43151,35.16394],[128.43429,35.16407],[128.43445,35.16411],[128.43633,35.16469],[128.43698,35.16495],[128.43731,35.1651],[128.43745,35.16518],[128.44387,35.16996],[128.44392,35.17002],[128.44395,35.17011],[128.4452,35.17521],[128.44629,35.18027],[128.44828,35.18067],[128.44886,35.18081],[128.44941,35.18097],[128.45016,35.1812],[128.45442,35.18256],[128.45741,35.18379],[128.45751,35.18388],[128.45759,35.18399],[128.45764,35.18413],[128.45768,35.18434],[128.45767,35.18467],[128.45771,35.1849],[128.45784,35.18528],[128.45802,35.18562],[128.45811,35.18572],[128.45822,35.18581],[128.4586,35.18598],[128.45894,35.18611],[128.45914,35.18616],[128.45992,35.18625],[128.46176,35.18658],[128.46187,35.1866],[128.46218,35.18667],[128.46232,35.18672],[128.46253,35.18691],[128.46323,35.1877],[128.46369,35.18824],[128.46382,35.1884],[128.46388,35.18846],[128.46394,35.18848],[128.46488,35.18877],[128.46507,35.18882],[128.46518,35.18884],[128.46538,35.18886],[128.46561,35.18885],[128.46763,35.18858],[128.46804,35.18849],[128.47013,35.18852],[128.476,35.18876],[128.47612,35.18875],[128.47624,35.18873],[128.47639,35.18869],[128.47897,35.18772]]]]}},{"type":"Feature","properties":{"code":"48125340","name":"진전면","parent":"48125"},"geometry":{"type":"MultiPolygon","coordinates":[[[[128.40558,35.19834],[128.40578,35.19783],[128.40788,35.19236],[128.40519,35.19018],[128.40371,35.18602],[128.40365,35.18407],[128.40608,35.17974],[128.40631,35.17934],[128.40942,35.17928],[128.4099,35.17927],[128.41406,35.17505],[128.41644,35.17048],[128.41974,35.16919],[128.41975,35.16911],[128.41978,35.16881],[128.41978,35.1687],[128.41974,35.1684],[128.41965,35.16803],[128.41956,35.16785],[128.41884,35.1668],[128.41816,35.16563],[128.41628,35.16241],[128.41566,35.16071],[128.41623,35.15987],[128.41703,35.15882],[128.41747,35.15844],[128.41806,35.15784],[128.41817,35.15773],[128.41881,35.15683],[128.42004,35.15388],[128.42117,35.15044],[128.42126,35.14991],[128.42055,35.14675],[128.419,35.14575],[128.41819,35.14555],[128.41766,35.1454],[128.41714,35.14521],[128.41706,35.14513],[128.41696,35.145],[128.41588,35.14341],[128.41579,35.14322],[128.4142,35.13954],[128.41422,35.13946],[128.41583,35.13334],[128.41585,35.13332],[128.41594,35.13322],[128.4162,35.133],[128.41647,35.13287],[128.41677,35.13275],[128.41717,35.13262],[128.41734,35.13253],[128.4175,35.13241],[128.41861,35.1311],[128.41891,35.13073],[128.42,35.12907],[128.42007,35.12892],[128.42012,35.12871],[128.42012,35.12857],[128.42009,35.12839],[128.41995,35.12808],[128.42012,35.12762],[128.42043,35.12689],[128.4206,35.1266],[128.42146,35.12523],[128.42153,35.12513],[128.42162,35.12506],[128.42184,35.12497],[128.42886,35.1227],[128.42902,35.12265],[128.42921,35.12262],[128.43038,35.12245],[128.43054,35.12243],[128.43073,35.12241],[128.43246,35.12248],[128.43264,35.12249],[128.43412,35.12287],[128.43486,35.12307],[128.43562,35.1232],[128.43607,35.12328],[128.43634,35.12331],[128.43659,35.12331],[128.43927,35.12316],[128.44004,35.12308],[128.44339,35.12266],[128.44353,35.12264],[128.44577,35.12208],[128.44595,35.122],[128.44843,35.11991],[128.44855,35.1198],[128.44932,35.119],[128.44939,35.11892],[128.44948,35.11878],[128.44955,35.11866],[128.4504,35.11657],[128.45288,35.11353],[128.45418,35.11102],[128.45478,35.1101],[128.45516,35.10987],[128.45845,35.11046],[128.45878,35.11053],[128.45912,35.11061],[128.45958,35.11074],[128.45991,35.11089],[128.46503,35.11026],[128.46717,35.10983],[128.46724,35.10981],[128.4673,35.10977],[128.46773,35.10944],[128.46848,35.10889],[128.46871,35.10871],[128.46886,35.10857],[128.46901,35.10839],[128.4691,35.10826],[128.46918,35.10812],[128.47024,35.10566],[128.47024,35.10561],[128.47022,35.10557],[128.47019,35.10552],[128.46687,35.10223],[128.46586,35.10108],[128.46377,35.10175],[128.46293,35.10216],[128.46132,35.10383],[128.4586,35.10468],[128.45169,35.10566],[128.45112,35.10565],[128.45083,35.1051],[128.45096,35.10487],[128.45121,35.1044],[128.45232,35.10349],[128.45265,35.10306],[128.45118,35.10081],[128.45063,35.10076],[128.44966,35.1008],[128.44954,35.1008],[128.44902,35.10033],[128.44827,35.09954],[128.44786,35.09865],[128.44778,35.09768],[128.44864,35.09607],[128.45215,35.09362],[128.45447,35.09212],[128.45587,35.09157],[128.45799,35.09091],[128.46128,35.08937],[128.46144,35.089],[128.46169,35.0886],[128.46274,35.08758],[128.46596,35.08564],[128.47049,35.08404],[128.47336,35.08313],[128.47738,35.08221],[128.47832,35.082],[128.4792,35.08196],[128.47999,35.08064],[128.47969,35.0789],[128.47823,35.07709],[128.47623,35.07574],[128.47501,35.07563],[128.47428,35.07564],[128.47377,35.07595],[128.47349,35.07693],[128.47338,35.0779],[128.47173,35.08044],[128.4709,35.08152],[128.47017,35.08183],[128.46932,35.08182],[128.46806,35.08133],[128.4668,35.08044],[128.4659,35.07981],[128.46562,35.07932],[128.46523,35.0779],[128.46497,35.07665],[128.46507,35.0759],[128.4651,35.07413],[128.46497,35.07374],[128.46159,35.07151],[128.46017,35.0716],[128.45947,35.07183],[128.45809,35.0727],[128.45737,35.07298],[128.45543,35.07343],[128.45316,35.07385],[128.45031,35.0731],[128.44743,35.07191],[128.44648,35.07152],[128.44609,35.07153],[128.44485,35.07192],[128.44419,35.072],[128.44054,35.07187],[128.43984,35.07165],[128.43916,35.07126],[128.43931,35.07101],[128.43994,35.07085],[128.44043,35.07075],[128.44081,35.07019],[128.44068,35.06925],[128.43902,35.06657],[128.43838,35.06651],[128.43735,35.06647],[128.43598,35.0653],[128.43163,35.05924],[128.43235,35.05873],[128.43224,35.05778],[128.43205,35.05753],[128.4281,35.05511],[128.42742,35.05494],[128.42676,35.05528],[128.42372,35.05656],[128.42242,35.05629],[128.42266,35.0571],[128.42351,35.06053],[128.42353,35.06066],[128.42354,35.06077],[128.42351,35.06088],[128.4234,35.06107],[128.42339,35.06113],[128.4234,35.06119],[128.42457,35.06412],[128.42598,35.06748],[128.42737,35.07088],[128.42694,35.07256],[128.42634,35.07406],[128.42497,35.07582],[128.42547,35.07856],[128.42635,35.07937],[128.42649,35.07945],[128.42661,35.07953],[128.42672,35.07961],[128.4268,35.07969],[128.42688,35.0798],[128.42697,35.07993],[128.42703,35.08004],[128.4281,35.08274],[128.42822,35.08339],[128.42828,35.08459],[128.42828,35.08464],[128.42826,35.08469],[128.42711,35.08644],[128.42705,35.0865],[128.42696,35.0866],[128.42678,35.08677],[128.42655,35.08693],[128.4264,35.08703],[128.42621,35.08713],[128.42379,35.08832],[128.42361,35.08839],[128.42341,35.08846],[128.42329,35.08849],[128.42317,35.0885],[128.42306,35.0885],[128.42298,35.08849],[128.4229,35.08847],[128.42283,35.08844],[128.42279,35.08842],[128.42236,35.08834],[128.42192,35.08828],[128.42153,35.08825],[128.42128,35.08824],[128.42101,35.08823],[128.42062,35.08825],[128.4203,35.08829],[128.42017,35.08832],[128.41993,35.0884],[128.41976,35.08848],[128.41956,35.08858],[128.41933,35.08873],[128.41915,35.08888],[128.41897,35.08911],[128.41869,35.08959],[128.41834,35.09027],[128.41821,35.09049],[128.41806,35.09069],[128.41778,35.09101],[128.41754,35.09123],[128.41732,35.09136],[128.41713,35.09146],[128.41329,35.0924],[128.41256,35.09255],[128.41196,35.09266],[128.41148,35.09268],[128.41128,35.09266],[128.41116,35.09265],[128.4111,35.09264],[128.41062,35.09253],[128.41042,35.09247],[128.41028,35.09242],[128.41007,35.0923],[128.40966,35.09198],[128.40951,35.09188],[128.40943,35.09185],[128.40842,35.09159],[128.40835,35.09157],[128.40415,35.09098],[128.39987,35.09043],[128.39982,35.09042],[128.3998,35.09039],[128.39925,35.08934],[128.39922,35.08928],[128.39921,35.08923],[128.39923,35.0891],[128.39946,35.08792],[128.40002,35.08688],[128.40108,35.08573],[128.40111,35.08569],[128.40111,35.08565],[128.40087,35.08406],[128.40087,35.08403],[128.40084,35.08401],[128.40067,35.0839],[128.40053,35.08382],[128.39981,35.08356],[128.39972,35.08354],[128.39968,35.08354],[128.39951,35.08361],[128.39838,35.08424],[128.3983,35.0843],[128.39817,35.08441],[128.39799,35.08464],[128.39746,35.08519],[128.39578,35.08629],[128.39556,35.08638],[128.39529,35.08646],[128.39443,35.08669],[128.39317,35.08721],[128.39311,35.08723],[128.393,35.08732],[128.39245,35.08803],[128.39051,35.09137],[128.39049,35.09146],[128.38988,35.09489],[128.38985,35.09625],[128.38984,35.09629],[128.38991,35.09643],[128.39009,35.09668],[128.39029,35.0969],[128.39035,35.09698],[128.39037,35.09703],[128.39039,35.09709],[128.39036,35.09722],[128.38998,35.09872],[128.38993,35.09879],[128.38704,35.10201],[128.38678,35.10226],[128.38658,35.10244],[128.38633,35.1026],[128.38611,35.10268],[128.38575,35.10275],[128.38531,35.10279],[128.38473,35.10279],[128.38453,35.1028],[128.38431,35.10283],[128.38403,35.10292],[128.38355,35.10309],[128.38288,35.10337],[128.38256,35.10353],[128.37921,35.1052],[128.37746,35.10674],[128.37616,35.1081],[128.37604,35.10822],[128.37513,35.10878],[128.37474,35.10898],[128.37406,35.10932],[128.37387,35.10939],[128.37316,35.10972],[128.37302,35.10975],[128.3728,35.10977],[128.36981,35.10944],[128.36914,35.10933],[128.36683,35.10882],[128.36524,35.10839],[128.36509,35.10836],[128.36496,35.10836],[128.363,35.1088],[128.36277,35.10889],[128.36207,35.10925],[128.36143,35.10954],[128.361,35.10971],[128.36084,35.10974],[128.36061,35.10975],[128.36023,35.1097],[128.35789,35.10915],[128.35774,35.1091],[128.35766,35.10904],[128.3575,35.10889],[128.35312,35.10967],[128.3529,35.10975],[128.35275,35.10984],[128.35248,35.11003],[128.35214,35.11029],[128.35024,35.1118],[128.35015,35.11188],[128.35012,35.11195],[128.35164,35.11362],[128.35192,35.11387],[128.35236,35.11422],[128.35267,35.11449],[128.35281,35.11462],[128.35294,35.11487],[128.3538,35.11831],[128.3538,35.11844],[128.35377,35.11851],[128.35372,35.11855],[128.35363,35.11861],[128.35337,35.11869],[128.35317,35.11878],[128.35304,35.11887],[128.35279,35.1191],[128.35261,35.11936],[128.35209,35.12089],[128.35202,35.12111],[128.35199,35.1213],[128.35103,35.12364],[128.35072,35.1241],[128.3503,35.12456],[128.35007,35.12479],[128.34981,35.125],[128.349,35.12556],[128.34833,35.12619],[128.34795,35.12684],[128.3482,35.12904],[128.34881,35.13101],[128.3522,35.13392],[128.35261,35.13414],[128.35328,35.13448],[128.35374,35.13468],[128.35393,35.13472],[128.35403,35.13473],[128.35415,35.13472],[128.35435,35.13467],[128.35475,35.13452],[128.35499,35.13446],[128.35528,35.13443],[128.35557,35.13446],[128.35585,35.13451],[128.35753,35.13491],[128.35773,35.13497],[128.35784,35.13504],[128.35793,35.13514],[128.35802,35.13527],[128.35806,35.13538],[128.35811,35.1355],[128.35811,35.13561],[128.35803,35.13584],[128.35792,35.13596],[128.35787,35.13599],[128.35748,35.13617],[128.35732,35.13627],[128.35717,35.13639],[128.3571,35.13649],[128.35702,35.13675],[128.35698,35.13699],[128.35688,35.13787],[128.35687,35.13804],[128.35688,35.13827],[128.35699,35.13854],[128.35714,35.13877],[128.35723,35.13888],[128.35787,35.13949],[128.35803,35.13958],[128.35945,35.14034],[128.35984,35.14051],[128.36092,35.14058],[128.36112,35.14058],[128.36126,35.14056],[128.36211,35.14194],[128.36095,35.14448],[128.36077,35.14477],[128.36038,35.14531],[128.36013,35.1456],[128.35996,35.14572],[128.35971,35.14583],[128.35953,35.14586],[128.35931,35.14587],[128.35915,35.14589],[128.35903,35.14594],[128.35897,35.14599],[128.35864,35.14687],[128.35863,35.14691],[128.35869,35.14707],[128.35926,35.14851],[128.35933,35.14864],[128.36051,35.15001],[128.36067,35.15019],[128.36084,35.1503],[128.36099,35.15037],[128.36134,35.15048],[128.36163,35.15059],[128.36174,35.15072],[128.36182,35.15086],[128.36219,35.1522],[128.36174,35.15453],[128.36142,35.15606],[128.36131,35.16231],[128.36147,35.16324],[128.36316,35.16816],[128.36432,35.17033],[128.36453,35.17057],[128.36474,35.17082],[128.36492,35.17121],[128.36506,35.17158],[128.36511,35.17179],[128.36511,35.1719],[128.3651,35.17214],[128.36481,35.175],[128.3645,35.17808],[128.36628,35.18201],[128.36684,35.18312],[128.36674,35.18685],[128.36672,35.18693],[128.3667,35.18702],[128.3667,35.18717],[128.36681,35.18786],[128.36694,35.18842],[128.36697,35.18855],[128.36707,35.18893],[128.36723,35.18935],[128.36755,35.18981],[128.36774,35.19005],[128.36785,35.19021],[128.36798,35.1904],[128.3681,35.19064],[128.36816,35.19081],[128.36819,35.19102],[128.36817,35.19119],[128.36806,35.19196],[128.36797,35.19244],[128.36791,35.19269],[128.36778,35.19321],[128.36757,35.19402],[128.36754,35.19413],[128.36948,35.19428],[128.37144,35.19388],[128.37419,35.19338],[128.37432,35.19338],[128.37446,35.1934],[128.37564,35.19387],[128.37581,35.19402],[128.37597,35.19421],[128.3761,35.19437],[128.37681,35.19547],[128.37687,35.19563],[128.37688,35.19575],[128.37688,35.19586],[128.3768,35.19614],[128.3767,35.19635],[128.37657,35.19671],[128.37654,35.19684],[128.37652,35.19694],[128.37643,35.19742],[128.37641,35.19755],[128.37642,35.19764],[128.37649,35.1981],[128.37653,35.1982],[128.3766,35.19831],[128.38023,35.20138],[128.38042,35.20153],[128.38065,35.20164],[128.38097,35.20172],[128.38148,35.20179],[128.38179,35.20183],[128.38218,35.20186],[128.3824,35.20189],[128.38262,35.20195],[128.38281,35.20203],[128.38495,35.20327],[128.38519,35.20344],[128.38692,35.20461],[128.3871,35.20474],[128.38862,35.20603],[128.38885,35.20625],[128.38903,35.20646],[128.3893,35.20686],[128.39235,35.20576],[128.39315,35.20549],[128.39344,35.20541],[128.39371,35.20533],[128.39401,35.20526],[128.39465,35.2052],[128.39669,35.20509],[128.39813,35.20556],[128.39845,35.20565],[128.39872,35.20565],[128.39898,35.20561],[128.4008,35.20485],[128.40092,35.20476],[128.40285,35.20279],[128.40302,35.20261],[128.40314,35.20247],[128.40321,35.20238],[128.4033,35.20227],[128.40344,35.20209],[128.4035,35.20199],[128.40357,35.2019],[128.40511,35.1995],[128.40558,35.19834]]]]}},{"type":"Feature","properties":{"code":"48125510","name":"현동","parent":"48125"},"geometry":{"type":"MultiPolygon","coordinates":[[[[128.54668,35.18142],[128.54629,35.17934],[128.5463,35.17912],[128.54679,35.17669],[128.54687,35.17649],[128.54875,35.17329],[128.54909,35.17285],[128.54946,35.17251],[128.55097,35.1715],[128.55517,35.16931],[128.55596,35.16899],[128.55589,35.1687],[128.55587,35.16846],[128.55588,35.16823],[128.55593,35.16804],[128.55606,35.16786],[128.55747,35.16608],[128.55781,35.16586],[128.55825,35.16569],[128.55857,35.16557],[128.56069,35.16535],[128.56274,35.16523],[128.56311,35.1612],[128.56306,35.15927],[128.56443,35.15715],[128.56453,35.15701],[128.57023,35.1516],[128.57029,35.15156],[128.57063,35.15129],[128.57082,35.15119],[128.57115,35.15105],[128.57162,35.15093],[128.57478,35.15013],[128.57599,35.15025],[128.57911,35.15054],[128.58416,35.15074],[128.58677,35.15063],[128.58877,35.14855],[128.5879,35.14844],[128.58741,35.14832],[128.58682,35.14805],[128.58638,35.14774],[128.58593,35.1474],[128.58576,35.14709],[128.5855,35.14657],[128.58556,35.14644],[128.58626,35.14618],[128.58665,35.14612],[128.58686,35.14627],[128.58715,35.14642],[128.59084,35.1468],[128.59108,35.14673],[128.59635,35.14379],[128.59679,35.14342],[128.59758,35.14223],[128.59741,35.14161],[128.5943,35.13707],[128.59405,35.13683],[128.58992,35.13444],[128.58872,35.13193],[128.58834,35.13128],[128.58816,35.13107],[128.58736,35.13028],[128.58722,35.13027],[128.587,35.13038],[128.58562,35.13229],[128.58533,35.13305],[128.5853,35.13394],[128.58492,35.13447],[128.58332,35.13505],[128.58091,35.13621],[128.58072,35.13653],[128.58063,35.13676],[128.58022,35.13802],[128.57649,35.13703],[128.57471,35.1361],[128.57467,35.13327],[128.57255,35.13312],[128.56933,35.13278],[128.569,35.13268],[128.56875,35.13263],[128.56845,35.13261],[128.56782,35.13264],[128.56757,35.13267],[128.56721,35.13275],[128.56238,35.13306],[128.5573,35.1331],[128.55723,35.1331],[128.5556,35.13279],[128.55555,35.13277],[128.55552,35.13275],[128.55548,35.13271],[128.55537,35.13255],[128.55425,35.13083],[128.55414,35.13065],[128.55412,35.13058],[128.55413,35.1305],[128.55419,35.13028],[128.55419,35.13016],[128.55412,35.12957],[128.55396,35.12912],[128.55393,35.12906],[128.55383,35.12892],[128.55305,35.12821],[128.5529,35.12808],[128.55283,35.12804],[128.5489,35.1271],[128.54778,35.12686],[128.54761,35.1269],[128.54727,35.12697],[128.54721,35.12698],[128.54715,35.12701],[128.54692,35.12712],[128.54686,35.12714],[128.54225,35.13206],[128.53744,35.1363],[128.53708,35.13775],[128.53716,35.13847],[128.53728,35.13902],[128.53729,35.13907],[128.53729,35.13912],[128.53729,35.13917],[128.53718,35.14009],[128.53717,35.14013],[128.53716,35.1402],[128.53713,35.14027],[128.53709,35.14035],[128.53634,35.14169],[128.53619,35.14195],[128.53607,35.14216],[128.53598,35.14228],[128.53595,35.14233],[128.53234,35.14727],[128.53223,35.14739],[128.53196,35.14763],[128.53167,35.14789],[128.53151,35.148],[128.53141,35.14807],[128.53131,35.14811],[128.53124,35.14814],[128.53117,35.14815],[128.53108,35.14816],[128.53101,35.14817],[128.53096,35.14819],[128.5309,35.14821],[128.53085,35.14826],[128.53066,35.14845],[128.53055,35.14861],[128.53049,35.14872],[128.53046,35.14881],[128.53044,35.14889],[128.53043,35.14894],[128.53038,35.14928],[128.53038,35.14931],[128.53299,35.15255],[128.53406,35.1535],[128.53421,35.15352],[128.53446,35.1536],[128.53519,35.15382],[128.53535,35.1539],[128.53725,35.15484],[128.53736,35.15492],[128.53852,35.15613],[128.53884,35.15655],[128.53897,35.15671],[128.53901,35.15678],[128.53985,35.15825],[128.54094,35.16021],[128.54098,35.16028],[128.541,35.16035],[128.541,35.16039],[128.54096,35.16061],[128.5409,35.16081],[128.54087,35.16086],[128.54084,35.1609],[128.53775,35.16307],[128.53503,35.16439],[128.53479,35.16437],[128.53458,35.16438],[128.53445,35.1644],[128.5342,35.16443],[128.53408,35.16447],[128.534,35.1645],[128.5338,35.16458],[128.53373,35.16463],[128.53366,35.16469],[128.52887,35.16852],[128.5251,35.17091],[128.5245,35.17147],[128.52441,35.17156],[128.524,35.17198],[128.52395,35.17205],[128.52234,35.17441],[128.52224,35.1746],[128.52215,35.17482],[128.5221,35.17501],[128.52209,35.17515],[128.5221,35.17532],[128.52213,35.17543],[128.52216,35.17553],[128.52151,35.17727],[128.52089,35.17808],[128.5233,35.17985],[128.52358,35.18006],[128.52377,35.18023],[128.52896,35.18492],[128.529,35.18496],[128.52904,35.18501],[128.52907,35.18519],[128.52908,35.18547],[128.52903,35.18577],[128.52893,35.18621],[128.52893,35.18626],[128.52895,35.1863],[128.529,35.18634],[128.5291,35.18639],[128.53127,35.1873],[128.53135,35.18733],[128.53148,35.18737],[128.53156,35.18738],[128.53428,35.18769],[128.54007,35.18942],[128.54011,35.18943],[128.54015,35.18945],[128.54023,35.18957],[128.54075,35.18918],[128.541,35.18878],[128.54128,35.18852],[128.54155,35.18832],[128.54233,35.18792],[128.54307,35.18773],[128.54366,35.18738],[128.54381,35.18726],[128.54474,35.18594],[128.54518,35.18532],[128.54518,35.18519],[128.54493,35.18439],[128.54526,35.18357],[128.54598,35.18204],[128.54655,35.18152],[128.54668,35.18142]]]]}},{"type":"Feature","properties":{"code":"48125520","name":"가포동","parent":"48125"},"geometry":{"type":"MultiPolygon","coordinates":[[[[128.58877,35.14855],[128.58677,35.15063],[128.58416,35.15074],[128.57911,35.15054],[128.57599,35.15025],[128.57478,35.15013],[128.57162,35.15093],[128.57115,35.15105],[128.57082,35.15119],[128.57063,35.15129],[128.57029,35.15156],[128.57023,35.1516],[128.56453,35.15701],[128.56443,35.15715],[128.56306,35.15927],[128.56311,35.1612],[128.56274,35.16523],[128.56069,35.16535],[128.55857,35.16557],[128.55825,35.16569],[128.55781,35.16586],[128.55747,35.16608],[128.55606,35.16786],[128.55593,35.16804],[128.55588,35.16823],[128.55587,35.16846],[128.55589,35.1687],[128.55596,35.16899],[128.55676,35.16911],[128.56131,35.17002],[128.56192,35.17024],[128.56257,35.17066],[128.56311,35.17104],[128.56437,35.17202],[128.56694,35.17391],[128.5674,35.17412],[128.56751,35.17418],[128.56893,35.1747],[128.56986,35.17485],[128.57359,35.17529],[128.57403,35.17534],[128.57642,35.17452],[128.57658,35.17444],[128.57677,35.17435],[128.57772,35.17379],[128.57943,35.17276],[128.57954,35.17238],[128.57931,35.17187],[128.57927,35.17177],[128.58073,35.16823],[128.58216,35.1646],[128.58533,35.16181],[128.58634,35.16112],[128.58668,35.16089],[128.58855,35.16047],[128.59024,35.1594],[128.59166,35.15793],[128.5918,35.15754],[128.59163,35.15719],[128.59123,35.1569],[128.59104,35.15633],[128.59111,35.15576],[128.59179,35.15293],[128.59192,35.15163],[128.59192,35.1512],[128.59186,35.15024],[128.59176,35.1498],[128.59101,35.14912],[128.58877,35.14855]]]]}},{"type":"Feature","properties":{"code":"48125530","name":"월영동","parent":"48125"},"geometry":{"type":"MultiPolygon","coordinates":[[[[128.584,35.17695],[128.58391,35.17691],[128.58382,35.17691],[128.57886,35.17837],[128.57874,35.1784],[128.57858,35.17847],[128.57846,35.17853],[128.57841,35.17859],[128.5784,35.17869],[128.57842,35.17883],[128.57843,35.1789],[128.57848,35.179],[128.57853,35.17906],[128.57861,35.17913],[128.57991,35.18011],[128.58065,35.18024],[128.58106,35.18029],[128.58126,35.18031],[128.58144,35.1803],[128.58152,35.18029],[128.58328,35.18003],[128.58338,35.18001],[128.58351,35.17997],[128.58364,35.17991],[128.58372,35.17985],[128.58377,35.17978],[128.58415,35.17764],[128.58418,35.17736],[128.58418,35.17728],[128.58415,35.17717],[128.58406,35.17702],[128.584,35.17695]]],[[[128.57359,35.17529],[128.56986,35.17485],[128.56893,35.1747],[128.56751,35.17418],[128.5674,35.17412],[128.56694,35.17391],[128.56437,35.17202],[128.56311,35.17104],[128.56257,35.17066],[128.56192,35.17024],[128.56131,35.17002],[128.55676,35.16911],[128.55596,35.16899],[128.55517,35.16931],[128.55097,35.1715],[128.54946,35.17251],[128.54909,35.17285],[128.54875,35.17329],[128.54687,35.17649],[128.54679,35.17669],[128.5463,35.17912],[128.54629,35.17934],[128.54668,35.18142],[128.5472,35.18146],[128.54751,35.18149],[128.55,35.18244],[128.55051,35.18268],[128.55061,35.18272],[128.55086,35.18294],[128.55117,35.1832],[128.55146,35.18351],[128.55367,35.18406],[128.55611,35.18451],[128.55777,35.1842],[128.55806,35.1837],[128.55831,35.18324],[128.55833,35.1832],[128.55856,35.18252],[128.55857,35.18244],[128.55853,35.1821],[128.55851,35.18195],[128.55848,35.1817],[128.55847,35.18167],[128.55843,35.18169],[128.55811,35.18155],[128.55778,35.18141],[128.55771,35.1813],[128.55778,35.18121],[128.55864,35.18061],[128.55986,35.18036],[128.56129,35.18075],[128.56176,35.18175],[128.56334,35.18496],[128.56504,35.18622],[128.56592,35.18529],[128.56476,35.18453],[128.56616,35.18204],[128.56679,35.18096],[128.56799,35.17893],[128.56801,35.1789],[128.56849,35.17811],[128.57044,35.17504],[128.57359,35.17529]]]]}},{"type":"Feature","properties":{"code":"48125565","name":"반월중앙동","parent":"48125"},"geometry":{"type":"MultiPolygon","coordinates":[[[[128.57068,35.19273],[128.56503,35.1869],[128.55743,35.19009],[128.55557,35.19098],[128.55433,35.19158],[128.55413,35.1917],[128.55389,35.19203],[128.55309,35.19342],[128.55599,35.19452],[128.55714,35.19494],[128.55784,35.19502],[128.55893,35.19469],[128.55938,35.19455],[128.55959,35.19444],[128.55988,35.19426],[128.56014,35.19409],[128.56078,35.19367],[128.56128,35.19333],[128.56211,35.19561],[128.56461,35.19656],[128.56527,35.19677],[128.56561,35.19674],[128.56566,35.19674],[128.5659,35.19671],[128.56617,35.19668],[128.56633,35.19667],[128.56716,35.19749],[128.56745,35.20131],[128.56803,35.20083],[128.57045,35.19828],[128.57028,35.19717],[128.56922,35.19383],[128.57068,35.19273]]]]}},{"type":"Feature","properties":{"code":"48125570","name":"완월동","parent":"48125"},"geometry":{"type":"MultiPolygon","coordinates":[[[[128.5675,35.20185],[128.56745,35.20131],[128.56716,35.19749],[128.56633,35.19667],[128.56617,35.19668],[128.5659,35.19671],[128.56566,35.19674],[128.56561,35.19674],[128.56527,35.19677],[128.56461,35.19656],[128.56211,35.19561],[128.56128,35.19333],[128.56078,35.19367],[128.56014,35.19409],[128.55988,35.19426],[128.55959,35.19444],[128.55938,35.19455],[128.55893,35.19469],[128.55784,35.19502],[128.55714,35.19494],[128.55599,35.19452],[128.55309,35.19342],[128.55213,35.19381],[128.5507,35.19396],[128.54896,35.19393],[128.54783,35.19376],[128.54728,35.19343],[128.54651,35.193],[128.54581,35.19277],[128.54435,35.1924],[128.54347,35.19232],[128.54187,35.19223],[128.54175,35.19222],[128.54064,35.19221],[128.53943,35.19446],[128.53806,35.19936],[128.53806,35.19943],[128.5381,35.19997],[128.53812,35.20012],[128.53827,35.2014],[128.5383,35.20157],[128.53837,35.20174],[128.53918,35.20488],[128.53918,35.20494],[128.53917,35.20501],[128.53913,35.20522],[128.5391,35.20531],[128.54117,35.20499],[128.54819,35.20488],[128.54894,35.205],[128.54939,35.20509],[128.55013,35.20534],[128.55023,35.2052],[128.55082,35.20437],[128.5519,35.20316],[128.55235,35.20265],[128.55279,35.20228],[128.55376,35.20168],[128.5542,35.20143],[128.55749,35.20011],[128.55824,35.19987],[128.56509,35.20101],[128.5675,35.20185]]]]}},{"type":"Feature","properties":{"code":"48125580","name":"자산동","parent":"48125"},"geometry":{"type":"MultiPolygon","coordinates":[[[[128.56679,35.20864],[128.56778,35.20818],[128.56797,35.20807],[128.56811,35.20795],[128.56818,35.20784],[128.56825,35.20771],[128.56829,35.20757],[128.56864,35.20613],[128.56883,35.2053],[128.56902,35.20322],[128.5675,35.20185],[128.56509,35.20101],[128.55824,35.19987],[128.55749,35.20011],[128.5542,35.20143],[128.55376,35.20168],[128.55279,35.20228],[128.55235,35.20265],[128.5519,35.20316],[128.55082,35.20437],[128.55023,35.2052],[128.55013,35.20534],[128.55022,35.20544],[128.55076,35.20557],[128.55161,35.20573],[128.55278,35.20555],[128.55611,35.20685],[128.55632,35.20698],[128.55826,35.20807],[128.56034,35.20899],[128.56056,35.20908],[128.56086,35.20917],[128.56121,35.20927],[128.56135,35.20928],[128.56153,35.20926],[128.56174,35.20917],[128.56197,35.20904],[128.56331,35.20809],[128.56679,35.20864]]]]}},{"type":"Feature","properties":{"code":"48125630","name":"오동동","parent":"48125"},"geometry":{"type":"MultiPolygon","coordinates":[[[[128.57068,35.19273],[128.56922,35.19383],[128.57028,35.19717],[128.57045,35.19828],[128.56803,35.20083],[128.56745,35.20131],[128.5675,35.20185],[128.56902,35.20322],[128.56883,35.2053],[128.56864,35.20613],[128.56829,35.20757],[128.56825,35.20771],[128.56818,35.20784],[128.56811,35.20795],[128.56797,35.20807],[128.56778,35.20818],[128.56679,35.20864],[128.56693,35.20915],[128.56709,35.20945],[128.56729,35.20975],[128.56834,35.21066],[128.56943,35.21186],[128.56968,35.21216],[128.57092,35.21153],[128.57235,35.21094],[128.5748,35.20984],[128.57518,35.20961],[128.57521,35.20959],[128.57533,35.20955],[128.5754,35.20954],[128.57573,35.20949],[128.5763,35.20942],[128.57717,35.20933],[128.57742,35.2093],[128.57763,35.20929],[128.57778,35.2093],[128.57836,35.2094],[128.57839,35.2094],[128.57861,35.20947],[128.57951,35.20967],[128.57959,35.20966],[128.58076,35.20932],[128.58129,35.20912],[128.58145,35.20906],[128.58165,35.20897],[128.58334,35.20781],[128.58351,35.20767],[128.58353,35.20765],[128.58483,35.20645],[128.58117,35.20286],[128.58089,35.20269],[128.57737,35.20039],[128.57594,35.19943],[128.57631,35.19736],[128.57264,35.19346],[128.57251,35.19353],[128.57168,35.19393],[128.57132,35.19399],[128.57045,35.19304],[128.57068,35.19273]]]]}},{"type":"Feature","properties":{"code":"48125640","name":"합포동","parent":"48125"},"geometry":{"type":"MultiPolygon","coordinates":[[[[128.58771,35.21221],[128.5865,35.20958],[128.58483,35.20645],[128.58353,35.20765],[128.58351,35.20767],[128.58334,35.20781],[128.58165,35.20897],[128.58145,35.20906],[128.58129,35.20912],[128.58076,35.20932],[128.57959,35.20966],[128.57951,35.20967],[128.57861,35.20947],[128.57839,35.2094],[128.57836,35.2094],[128.57778,35.2093],[128.57763,35.20929],[128.57742,35.2093],[128.57717,35.20933],[128.5763,35.20942],[128.57573,35.20949],[128.5754,35.20954],[128.57533,35.20955],[128.57521,35.20959],[128.57518,35.20961],[128.5748,35.20984],[128.57677,35.21489],[128.57856,35.2161],[128.57849,35.21599],[128.57844,35.21592],[128.57844,35.2159],[128.57845,35.21586],[128.57867,35.21504],[128.57899,35.2144],[128.57901,35.21437],[128.57926,35.21412],[128.57932,35.21407],[128.57937,35.21404],[128.57954,35.21398],[128.58159,35.21329],[128.58298,35.21314],[128.58601,35.21269],[128.58771,35.21221]]]]}},{"type":"Feature","properties":{"code":"48125650","name":"산호동","parent":"48125"},"geometry":{"type":"MultiPolygon","coordinates":[[[[128.5896,35.21891],[128.58996,35.21834],[128.58997,35.21807],[128.58998,35.21741],[128.59,35.21582],[128.59001,35.21517],[128.59001,35.21504],[128.58999,35.21487],[128.58995,35.21481],[128.58986,35.21473],[128.58938,35.21442],[128.589,35.21418],[128.58858,35.21387],[128.58849,35.21377],[128.58843,35.21368],[128.5884,35.21363],[128.58812,35.21307],[128.58771,35.21221],[128.58601,35.21269],[128.58298,35.21314],[128.58159,35.21329],[128.57954,35.21398],[128.57937,35.21404],[128.57932,35.21407],[128.57926,35.21412],[128.57901,35.21437],[128.57899,35.2144],[128.57867,35.21504],[128.57845,35.21586],[128.57844,35.2159],[128.57844,35.21592],[128.57849,35.21599],[128.57856,35.2161],[128.57677,35.21489],[128.57706,35.21571],[128.57714,35.21596],[128.57718,35.21611],[128.57719,35.21616],[128.57724,35.21639],[128.57727,35.21654],[128.57729,35.21671],[128.57729,35.21692],[128.57729,35.21713],[128.57726,35.21744],[128.57721,35.21821],[128.57924,35.22019],[128.58057,35.21967],[128.58061,35.21968],[128.58094,35.21977],[128.58177,35.22001],[128.58278,35.22058],[128.58318,35.22098],[128.58413,35.22192],[128.58471,35.22249],[128.58476,35.22253],[128.58479,35.22254],[128.58713,35.22067],[128.5896,35.21891]]]]}},{"type":"Feature","properties":{"code":"48125540","name":"문화동","parent":"48125"},"geometry":{"type":"MultiPolygon","coordinates":[[[[128.55309,35.19342],[128.55389,35.19203],[128.55413,35.1917],[128.55433,35.19158],[128.55557,35.19098],[128.55743,35.19009],[128.56503,35.1869],[128.56504,35.18622],[128.56334,35.18496],[128.56176,35.18175],[128.56129,35.18075],[128.55986,35.18036],[128.55864,35.18061],[128.55778,35.18121],[128.55771,35.1813],[128.55778,35.18141],[128.55811,35.18155],[128.55843,35.18169],[128.55847,35.18167],[128.55848,35.1817],[128.55851,35.18195],[128.55853,35.1821],[128.55857,35.18244],[128.55856,35.18252],[128.55833,35.1832],[128.55831,35.18324],[128.55806,35.1837],[128.55777,35.1842],[128.55611,35.18451],[128.55367,35.18406],[128.55146,35.18351],[128.55117,35.1832],[128.55086,35.18294],[128.55061,35.18272],[128.55051,35.18268],[128.55,35.18244],[128.54751,35.18149],[128.5472,35.18146],[128.54668,35.18142],[128.54655,35.18152],[128.54598,35.18204],[128.54526,35.18357],[128.54493,35.18439],[128.54518,35.18519],[128.54518,35.18532],[128.54474,35.18594],[128.54381,35.18726],[128.54366,35.18738],[128.54307,35.18773],[128.54233,35.18792],[128.54155,35.18832],[128.54128,35.18852],[128.541,35.18878],[128.54075,35.18918],[128.54023,35.18957],[128.54064,35.19221],[128.54175,35.19222],[128.54187,35.19223],[128.54347,35.19232],[128.54435,35.1924],[128.54581,35.19277],[128.54651,35.193],[128.54728,35.19343],[128.54783,35.19376],[128.54896,35.19393],[128.5507,35.19396],[128.55213,35.19381],[128.55309,35.19342]]]]}},{"type":"Feature","properties":{"code":"48125610","name":"교방동","parent":"48125"},"geometry":{"type":"MultiPolygon","coordinates":[[[[128.56997,35.21617],[128.57055,35.21639],[128.57079,35.21647],[128.57096,35.21651],[128.57108,35.21653],[128.57116,35.21653],[128.57498,35.21556],[128.57603,35.21528],[128.57677,35.21489],[128.5748,35.20984],[128.57235,35.21094],[128.57092,35.21153],[128.56968,35.21216],[128.56943,35.21186],[128.56834,35.21066],[128.56729,35.20975],[128.56709,35.20945],[128.56693,35.20915],[128.56679,35.20864],[128.56331,35.20809],[128.56197,35.20904],[128.56174,35.20917],[128.56153,35.20926],[128.56135,35.20928],[128.56121,35.20927],[128.56086,35.20917],[128.56056,35.20908],[128.56034,35.20899],[128.55826,35.20807],[128.55632,35.20698],[128.55611,35.20685],[128.55278,35.20555],[128.55161,35.20573],[128.55076,35.20557],[128.55022,35.20544],[128.55013,35.20534],[128.54939,35.20509],[128.54894,35.205],[128.54819,35.20488],[128.54117,35.20499],[128.5391,35.20531],[128.5381,35.20556],[128.53802,35.20559],[128.53792,35.20563],[128.53609,35.20647],[128.53597,35.20701],[128.53554,35.2099],[128.53577,35.21015],[128.53587,35.21025],[128.5366,35.2109],[128.53671,35.21098],[128.54025,35.21346],[128.54037,35.21354],[128.54156,35.21429],[128.54349,35.21504],[128.54356,35.21506],[128.54365,35.21505],[128.54374,35.21502],[128.54568,35.21435],[128.54766,35.2136],[128.54778,35.21354],[128.54836,35.2133],[128.54843,35.21327],[128.54849,35.21327],[128.55561,35.21429],[128.56075,35.21667],[128.56072,35.2168],[128.56069,35.21696],[128.56219,35.21702],[128.56275,35.21704],[128.56297,35.21653],[128.56549,35.21583],[128.56591,35.21656],[128.56629,35.21663],[128.5671,35.21637],[128.56827,35.21585],[128.56836,35.21581],[128.56846,35.2158],[128.56856,35.2158],[128.56862,35.21582],[128.5687,35.21584],[128.56997,35.21617]]]]}}]}